{"type": "FeatureCollection", "features": [{"type": "Feature", "properties": {"premiumdata.sde.IN_Village_PCA.area": 20.52534767, "objectid": 462549, "id": "203432736198124", "name": "Barajamda CT", "subdistrict": "Noamundi", "district": "West Singhbhum", "state": "Jharkhand", "country": "India", "censusname": "Barajamda (CT)", "villagename_locallang": null, "lgd_villagename": "Barajamda (CT)", "lgd_villagecode": 377917, "lgd_subdistrictcode": 2736, "lgd_districtcode": 343, "lgd_statecode": 20, "censuscode2001": "41715000", "censuscode2011": "377917", "censuscode2021": null, "level": "Town", "tru": "Urban", "no_hh": 1843, "tot_p": 8629, "tot_m": 4370, "tot_f": 4259, "per_tot_m": 50.64317997, "per_tot_f": 49.35682003, "p_06": 1592, "m_06": 783, "f_06": 809, "per_p_06": 18.44941476, "per_m_06": 49.18341709, "per_f_06": 50.81658291, "p_sc": 423, "m_sc": 208, "f_sc": 215, "per_p_sc": 4.9020744, "per_m_sc": 49.17257683, "per_f_sc": 50.82742317, "p_st": 2132, "m_st": 1025, "f_st": 1107, "per_p_st": 24.70738208, "per_m_st": 48.07692308, "per_f_st": 51.92307692, "p_lit": 4880, "m_lit": 2865, "f_lit": 2015, "per_p_lit": 56.55348244, "per_m_lit": 58.70901639, "per_f_lit": 41.29098361, "p_ill": 3749, "m_ill": 1505, "f_ill": 2244, "per_p_ill": 43.44651756, "per_m_ill": 40.14403841, "per_f_ill": 59.85596159, "tot_work_p": 2876, "tot_work_m": 2259, "tot_work_f": 617, "per_tot_work_p": 33.32947039, "per_tot_work_m": 78.54659249, "per_tot_work_f": 21.45340751, "mainwork_p": 2275, "mainwork_m": 1877, "mainwork_f": 398, "per_mainwork_p": 26.36458454, "per_mainwork_m": 82.50549451, "per_mainwork_f": 17.49450549, "main_cl_p": 81, "main_cl_m": 65, "main_cl_f": 16, "per_main_cl_p": 3.56043956, "per_main_cl_m": 80.24691358, "per_main_cl_f": 19.75308642, "main_al_p": 30, "main_al_m": 16, "main_al_f": 14, "per_main_al_p": 1.31868132, "per_main_al_m": 53.33333333, "per_main_al_f": 46.66666667000001, "main_hh_p": 16, "main_hh_m": 9, "main_hh_f": 7, "per_main_hh_p": 0.7032967, "per_main_hh_m": 56.25, "per_main_hh_f": 43.75, "main_ot_p": 2148, "main_ot_m": 1787, "main_ot_f": 361, "per_main_ot_p": 94.41758242, "per_main_ot_m": 83.19366853, "per_main_ot_f": 16.80633147, "margwork_p": 601, "margwork_m": 382, "margwork_f": 219, "per_margwork_p": 6.96488585, "per_margwork_m": 63.56073211, "per_margwork_f": 36.43926789, "marg_cl_p": 8, "marg_cl_m": 6, "marg_cl_f": 2, "per_marg_cl_p": 1.33111481, "per_marg_cl_m": 75.0, "per_marg_cl_f": 25.0, "marg_al_p": 17, "marg_al_m": 9, "marg_al_f": 8, "per_marg_al_p": 2.82861897, "per_marg_al_m": 52.94117647, "per_marg_al_f": 47.05882353, "marg_hh_p": 11, "marg_hh_m": 4, "marg_hh_f": 7, "per_marg_hh_p": 1.83028286, "per_marg_hh_m": 36.36363636, "per_marg_hh_f": 63.63636364, "marg_ot_p": 565, "marg_ot_m": 363, "marg_ot_f": 202, "per_marg_ot_p": 94.00998336, "per_marg_ot_m": 64.24778760999999, "per_marg_ot_f": 35.75221239, "margwork_3_6_p": 402, "margwork_3_6_m": 271, "margwork_3_6_f": 131, "per_margwork_3_6_p": 66.88851913, "per_margwork_3_6_m": 67.41293531999999, "per_margwork_3_6_f": 32.58706468, "marg_cl_3_6_p": 7, "marg_cl_3_6_m": 5, "marg_cl_3_6_f": 2, "per_marg_cl_3_6_p": 1.16472546, "per_marg_cl_3_6_m": 71.42857143, "per_marg_cl_3_6_f": 28.57142857, "marg_al_3_6_p": 15, "marg_al_3_6_m": 8, "marg_al_3_6_f": 7, "per_marg_al_3_6_p": 2.49584027, "per_marg_al_3_6_m": 53.33333333, "per_marg_al_3_6_f": 46.66666667000001, "marg_hh_3_6_p": 9, "marg_hh_3_6_m": 4, "marg_hh_3_6_f": 5, "per_marg_hh_3_6_p": 1.49750416, "per_marg_hh_3_6_m": 44.44444444000001, "per_marg_hh_3_6_f": 55.55555556, "marg_ot_3_6_p": 371, "marg_ot_3_6_m": 254, "marg_ot_3_6_f": 117, "per_marg_ot_3_6_p": 61.73044925, "per_marg_ot_3_6_m": 68.46361186, "per_marg_ot_3_6_f": 31.53638814, "margwork_0_3_p": 199, "margwork_0_3_m": 111, "margwork_0_3_f": 88, "per_margwork_0_3_p": 33.11148087, "per_margwork_0_3_m": 55.77889447, "per_margwork_0_3_f": 44.22110553, "marg_cl_0_3_p": 1, "marg_cl_0_3_m": 1, "marg_cl_0_3_f": 0, "per_marg_cl_0_3_p": 0.16638935, "per_marg_cl_0_3_m": 100.0, "per_marg_cl_0_3_f": 0.0, "marg_al_0_3_p": 2, "marg_al_0_3_m": 1, "marg_al_0_3_f": 1, "per_marg_al_0_3_p": 0.3327787, "per_marg_al_0_3_m": 50.0, "per_marg_al_0_3_f": 50.0, "marg_hh_0_3_p": 2, "marg_hh_0_3_m": 0, "marg_hh_0_3_f": 2, "per_marg_hh_0_3_p": 0.3327787, "per_marg_hh_0_3_m": 0.0, "per_marg_hh_0_3_f": 100.0, "marg_ot_0_3_p": 194, "marg_ot_0_3_m": 109, "marg_ot_0_3_f": 85, "per_marg_ot_0_3_p": 32.27953411, "per_marg_ot_0_3_m": 56.18556701, "per_marg_ot_0_3_f": 43.81443299, "non_work_p": 5753, "non_work_m": 2111, "non_work_f": 3642, "per_non_work_p": 66.67052961, "per_non_work_m": 36.69389884, "per_non_work_f": 63.30610116, "per_hc_tot_tot": 100, "per_hc_tot_god": 59.0, "per_hc_tot_liv": 31.7, "per_hc_tot_dil": 9.3, "per_hc_res_tot": 97.5, "per_hc_res_god": 57.8, "per_hc_res_liv": 30.5, "per_hc_res_dil": 9.1, "per_hc_oth_tot": 2.5, "per_hc_oth_god": 1.2, "per_hc_oth_liv": 1.2, "per_hc_oth_dil": 0.2, "per_mt_grsbam": 10.1, "per_mt_plastic": 0.6, "per_mt_h_tiles": 18.9, "per_mt_m_tiles": 31.8, "per_mt_b_brick": 0.7, "per_mt_stone": 3.2, "per_mt_asbstos": 16.3, "per_mt_concrte": 18.3, "per_mt_oth": 0.1, "per_mw_grsbam": 0.2, "per_mw_plastic": 0.3, "per_mw_mud": 44.2, "per_mw_wood": 6.0, "per_mw_no_mrtr": 1.4, "per_mw_st_mrtr": 0.3, "per_mw_asbstos": 0.6, "per_mw_b_brick": 45.9, "per_mw_concrte": 1.1, "per_mw_oth": 0.0, "per_mf_mud": 52.4, "per_mf_wood": 0.3, "per_mf_b_brick": 1.3, "per_mf_stone": 0.0, "per_mf_cement": 45.5, "per_mf_fl_tile": 0.4, "per_mf_oth": 0.2, "per_dw_n_exrm": 2.7, "per_dw_1_room": 28.4, "per_dw_2_room": 41.4, "per_dw_3_room": 16.6, "per_dw_4_room": 6.9, "per_dw_5_room": 1.9, "per_dw_6_room": 2.1, "per_hhsize_1": 5.1, "per_hhsize_2": 9.4, "per_hhsize_3": 15.6, "per_hhsize_4": 23.1, "per_hhsize_5": 18.9, "per_hhsize_6_8": 23.1, "per_hhsize_9p": 4.8, "per_ow_owned": 67.0, "per_ow_rented": 24.8, "per_ow_oth": 8.2, "per_mc_none": 20.7, "per_mcouple_1": 65.5, "per_mcouple_2": 11.0, "per_mcouple_3": 2.5, "per_mcouple_4": 0.2, "per_mcouple_5p": 0.1, "per_dw_t_ts": 11.4, "per_dw_t_unts": 24.3, "per_dw_c_well": 7.5, "per_dw_unc_wel": 13.0, "per_dw_hpump": 31.5, "per_dw_tw_bore": 9.0, "per_dw_spring": 3.4, "per_dw_rivcan": 0.0, "per_dw_tank": 0.0, "per_dw_oth": 0.0, "per_loc_dw_wp": 29.6, "per_loc_dw_np": 29.7, "per_loc_dw_aw": 40.8, "per_light_elec": 72.6, "per_light_kero": 27.3, "per_light_solr": 0.0, "per_light_oil": 0.1, "per_light_oth": 0.0, "per_light_no": 0.0, "per_hh_latrine": 39.5, "per_fl_sewer": 0.9, "per_fl_septict": 38.2, "per_fl_othsys": 0.2, "per_pl_wslab": 0.0, "per_pl_without": 0.0, "per_ns_open": 0.1, "per_sl_ns_hum": 0.0, "per_sl_ns_anml": 0.0, "per_hh_no_lat": 60.5, "per_as_pub": 0.0, "per_as_open": 60.5, "per_hh_bathrm": 36.7, "per_hh_en_wrf": 19.1, "per_hh_no_btrm": 44.2, "per_wwoc_drain": 5.8, "per_wwoc_open": 41.9, "per_wwoc_nodrn": 52.3, "per_cook_fire": 54.9, "per_cook_resdu": 0.3, "per_cook_cwdng": 0.2, "per_cook_coal": 11.0, "per_cook_kero": 1.7, "per_cook_lpng": 30.0, "per_cook_elec": 0.6, "per_cook_biogs": 0.1, "per_cook_oth": 1.1, "per_cook_no": 0.3, "per_kf_inside": 98.2, "per_kf_in_has": 53.1, "per_kf_in_does": 45.1, "per_kf_outside": 1.5, "per_kf_out_has": 0.3, "per_kf_out_dos": 1.2, "per_kf_no_cook": 0.3, "per_hh_banking": 48.8, "per_hh_radio": 12.3, "per_hh_tv": 46.7, "per_hh_cmp_int": 1.1, "per_hh_cmp_wnt": 2.8, "per_hh_ph_ll": 2.0, "per_hh_ph_mob": 47.5, "per_hh_ph_bth": 1.8, "per_hh_bcycl": 18.4, "per_hh_2wheel": 22.7, "per_hh_4wheel": 6.1, "per_hh_tvcomp": 1.6, "per_hh_no_ast": 31.3, "per_hs_perma": 47.5, "per_hs_sperma": 43.6, "per_hs_temp": 8.9, "per_hs_servc": 8.4, "per_hs_nservc": 0.4, "per_hs_unclss": 0.1, "avghhsz_cy": 4.68204015, "st_areashape": 24047876.25961484, "st_lengthshape": 29245.71128673811}, "geometry": {"type": "Polygon", "coordinates": [[[85.45454000023871, 22.204149999952893], [85.4545699994776, 22.20423999974823], [85.4521199999487, 22.205729999802124], [85.45181000032731, 22.20533999997658], [85.45069999974145, 22.204600000015827], [85.44826000025829, 22.20379000019464], [85.44659999985151, 22.20311000044248], [85.44436999953234, 22.201849999558327], [85.44064000043657, 22.19718000041847], [85.43738999994318, 22.193599999371667], [85.43285999988295, 22.187500000114596], [85.43278999956276, 22.187389999812847], [85.43259999959196, 22.186429999724208], [85.4333700004192, 22.185749999920876], [85.43670999952764, 22.18376999990381], [85.43794999980985, 22.18230000024539], [85.44110999989152, 22.178289999729373], [85.44212000001997, 22.17561999983866], [85.44382000060975, 22.173470000459197], [85.44394000026034, 22.172569999913215], [85.44238000031099, 22.17222000003979], [85.43963000030813, 22.17163999975734], [85.43715999978944, 22.172199999783], [85.43534000044737, 22.172189999653565], [85.43387999915882, 22.173149999686583], [85.43200999958808, 22.17404999984708], [85.43079000029564, 22.175130000420125], [85.42927999967668, 22.175010000488886], [85.42826999954825, 22.174609999423776], [85.42717999995216, 22.174600000297627], [85.42605999932057, 22.174940000135095], [85.4241699996583, 22.175099999823004], [85.42245999992112, 22.17532000044832], [85.42111000003403, 22.175489999599147], [85.42040000037959, 22.17622000002604], [85.42032000001365, 22.176240000542716], [85.41923999956501, 22.17638999975213], [85.41804000036404, 22.17616000012253], [85.41730999971978, 22.176040000238718], [85.41539999996606, 22.17665999992216], [85.41250000017536, 22.176359999423955], [85.41168000001771, 22.175790000290412], [85.40974000012676, 22.17528999989178], [85.40972000003528, 22.174849999866684], [85.40678999920904, 22.172120000391264], [85.40595999990394, 22.170750000207725], [85.40587000039058, 22.170239999917676], [85.40609999964606, 22.16951000005167], [85.40655999995359, 22.16883000074431], [85.4079399999779, 22.16707000052918], [85.41126473940457, 22.161749848437836], [85.41186955442411, 22.16163819320176], [85.41236026094468, 22.161539096183255], [85.41309553110646, 22.161252704958187], [85.41383079857323, 22.160966310654164], [85.41390961046805, 22.160924340195166], [85.41451057171503, 22.160803591860276], [85.41597198335859, 22.160230535445557], [85.41705519348776, 22.15964917703851], [85.41845059333099, 22.158903726653627], [85.41900091564708, 22.158705763309374], [85.41901973894551, 22.158696300503784], [85.42010313772089, 22.15815171638451], [85.42070681906655, 22.15794980510424], [85.42125959108843, 22.157959656491183], [85.4219517403199, 22.158083762609316], [85.42208881155416, 22.15808921784822], [85.42269836159355, 22.158113475646573], [85.42330142399999, 22.15796134206751], [85.42414618442183, 22.15744544079168], [85.42446995880978, 22.157114210963453], [85.42463059644722, 22.156894727634747], [85.42467700700804, 22.15683131585895], [85.42481476006358, 22.156643157814877], [85.42538243333941, 22.156183364811902], [85.42605164588672, 22.15576508389295], [85.42699225565104, 22.15534498300483], [85.42806391434398, 22.154921644419552], [85.42923595976987, 22.1541965528606], [85.43015649039098, 22.15384396801076], [85.43210002605089, 22.153076485426265], [85.43365515353815, 22.152355011072626], [85.43446230239734, 22.151725847819137], [85.43493292348649, 22.151318858195182], [85.43539753574471, 22.15091706249081], [85.43572246895938, 22.15059647375778], [85.43693193820002, 22.150526525318657], [85.43800316929487, 22.15046284026773], [85.43838838126176, 22.15036330688944], [85.4387736956366, 22.150263860802653], [85.43907389643485, 22.15009129017511], [85.43946297025914, 22.149760446566813], [85.44015867053093, 22.149720225002014], [85.44093191427633, 22.149519776799544], [85.44122487824671, 22.14934638405258], [85.44166052253193, 22.148975608124676], [85.44254496782807, 22.147931385453337], [85.44286374578644, 22.147532241756284], [85.44291418529131, 22.147469086188618], [85.44296425469031, 22.147406420661213], [85.44301432408929, 22.147343755105855], [85.44306439438661, 22.147281088690626], [85.4431144646839, 22.147218423079483], [85.44316453408288, 22.147155757440476], [85.44322772966483, 22.147098526637578], [85.44329092434843, 22.147041296643465], [85.44335411993035, 22.146984065794065], [85.44341731551226, 22.146926834921356], [85.4434805110942, 22.146869604025394], [85.44354370577781, 22.146812373938218], [85.44360690135971, 22.146755142995744], [85.44367009694166, 22.14669791202997], [85.44373329162524, 22.14664068104097], [85.44379648720718, 22.146583450028675], [85.44385874315132, 22.146542296503302], [85.44392099819714, 22.146501142965935], [85.44398500765269, 22.146458829552053], [85.44404901710826, 22.14641651612545], [85.44411302656384, 22.146374202686136], [85.44417703601941, 22.146331889234077], [85.44424104547497, 22.14628957576934], [85.4443174292236, 22.146251895932362], [85.4443938129722, 22.146214215253238], [85.44447019582249, 22.146176535396105], [85.4445465795711, 22.14613885552887], [85.44462296331972, 22.146101174819517], [85.44469934706832, 22.14606349493212], [85.44477572991862, 22.146025815034633], [85.44485211366721, 22.145988134295013], [85.44492849741583, 22.14595045437735], [85.44500488116444, 22.14591277361755], [85.44508126401475, 22.14587509367971], [85.44515764776332, 22.145837413731805], [85.44523260229234, 22.145813737912533], [85.44530755682133, 22.14579006208929], [85.44538251224864, 22.145766386262054], [85.44545746677763, 22.145742710430834], [85.4455324213066, 22.145719034595633], [85.44562172103237, 22.1457250461198], [85.44571101985983, 22.145731057643697], [85.44580031958559, 22.145737069167353], [85.44588961931137, 22.145743080690757], [85.44597891903713, 22.14574909221389], [85.44606821786456, 22.14575510373677], [85.44615751759032, 22.145761115259386], [85.44624607351106, 22.145766897137428], [85.44633463033004, 22.145772679015277], [85.44642318625078, 22.14577846089285], [85.4465117421715, 22.14578424277018], [85.44660029809219, 22.145790024647305], [85.44668885491122, 22.14579580652415], [85.44677741083193, 22.145801588400765], [85.44686596675263, 22.14580737027718], [85.44695452267335, 22.145813152153337], [85.44704307949235, 22.14581893402927], [85.44713163541307, 22.145824715904944], [85.44721588570863, 22.145820582308986], [85.44730013600417, 22.14581644788087], [85.44738438719804, 22.145812313452648], [85.44746863749359, 22.145808179856356], [85.44755288778913, 22.145804045427884], [85.44763713808469, 22.145799911831315], [85.44772138838023, 22.14579577740261], [85.44780563867582, 22.145791643805786], [85.44788988986964, 22.14578750937684], [85.44797414016523, 22.145783375779825], [85.44805839046077, 22.14577924218265], [85.44813461969913, 22.145763112166495], [85.44821084983583, 22.145746981316453], [85.44828707907422, 22.145730850464542], [85.44837455432165, 22.145712339962326], [85.44846203046737, 22.14569382862565], [85.4485495057148, 22.145675318118577], [85.44863698096222, 22.14565680760906], [85.44872445710796, 22.145638297097115], [85.44881193235538, 22.14561978658274], [85.4488994076028, 22.145601276065932], [85.44898688285022, 22.14558276554667], [85.44907435899597, 22.145564255025004], [85.44916183424337, 22.145545744500883], [85.44924006941979, 22.14551159982878], [85.4493183045962, 22.14547745431636], [85.44939653887428, 22.14544330962769], [85.4494747740507, 22.14540916409872], [85.4495530092271, 22.145375019393487], [85.44963124440352, 22.14534087384794], [85.4497094786816, 22.145306729126155], [85.44978771385803, 22.145272583564015], [85.44986594903445, 22.145238438825693], [85.44994418421085, 22.14520429407906], [85.45002241938727, 22.145170148492117], [85.45010065366534, 22.145136003728908], [85.45017888884176, 22.145101858125372], [85.45025712401818, 22.145067713345636], [85.4503353591946, 22.145033567725523], [85.45041359347267, 22.14499942292924], [85.45049182864909, 22.144965277292574], [85.45057006382551, 22.144931132479673], [85.45064200091343, 22.14488806558885], [85.4507139388997, 22.144844997852775], [85.45078587598766, 22.144801930935607], [85.45085781307563, 22.144758864005244], [85.45092975106189, 22.144715796229654], [85.45100168814984, 22.144672729272955], [85.45107362613611, 22.144629662303075], [85.45114556322405, 22.144586595320003], [85.45121750031201, 22.144543528323766], [85.45128943829828, 22.144500460482313], [85.45136137538623, 22.14445739345974], [85.4514333124742, 22.144414326423984], [85.45150525046046, 22.144371258543007], [85.4515771875484, 22.144328191480902], [85.45164912553469, 22.14428512440561], [85.45172106262261, 22.144242057317157], [85.45179299971058, 22.144198990215543], [85.45186493769684, 22.144155922268688], [85.4519368747848, 22.144112855140722], [85.45201287944435, 22.144073663709992], [85.45208888320559, 22.144034473100415], [85.45216488786517, 22.143995281647868], [85.4522408916264, 22.143956090184403], [85.45231689628595, 22.143916898710035], [85.4523929000472, 22.143877708056824], [85.45246890470676, 22.143838516560635], [85.45254490846801, 22.143799325053546], [85.45262091312757, 22.14376013353554], [85.4526969168888, 22.14372094283869], [85.45277292154834, 22.143681751298868], [85.45284892530961, 22.14364255974813], [85.45292214249685, 22.143598874244486], [85.45299535878577, 22.143555189559336], [85.45306857597299, 22.14351150402854], [85.45314179316023, 22.14346781848421], [85.45321500944912, 22.143424132926345], [85.45328822663637, 22.14338044735489], [85.45336144382361, 22.143336761769902], [85.4534346601125, 22.143293077003406], [85.45350787729974, 22.14324939139133], [85.45358109358867, 22.143205705765666], [85.45365431077589, 22.143162020126443], [85.45372752796312, 22.143118334473705], [85.45380074425205, 22.143074649639452], [85.45387396143927, 22.143030963959568], [85.4539471786265, 22.14298727826612], [85.45402039491543, 22.142943592559174], [85.45409361210267, 22.142899906838615], [85.45416650230311, 22.142856335929082], [85.45423939160527, 22.142812765838087], [85.45431228180576, 22.14276919490157], [85.45438517110792, 22.142725623951545], [85.45440602280227, 22.142713159653614], [85.45446850512188, 22.142675810020474], [85.45453098654313, 22.142638461209508], [85.45459346886271, 22.14260111155656], [85.454655950284, 22.142563761893683], [85.45471843260357, 22.142526412220914], [85.45479487653931, 22.142484568560683], [85.45487131957675, 22.14244272488796], [85.45494776351245, 22.14240088120282], [85.4549621590149, 22.142393001551838], [85.45503380415037, 22.14235378468045], [85.45510544838756, 22.142314568630187], [85.45517709352303, 22.14227535173694], [85.45523946714646, 22.14224121043204], [85.45530184076993, 22.142207069118857], [85.45538428365512, 22.142161942031688], [85.45628449168954, 22.141669199228424], [85.45679096005009, 22.14143487680537], [85.45706920332786, 22.141306143837184], [85.45817965127476, 22.14087842126922], [85.45978900825911, 22.14048252763445], [85.46071347799271, 22.140193014872498], [85.46156099624245, 22.139974378008144], [85.4623523661937, 22.139770221494008], [85.46316527864373, 22.139488782620777], [85.464042700911, 22.13907229515815], [85.4643472405721, 22.138828485134464], [85.46438346603425, 22.13879948361987], [85.4644196914964, 22.1387704812672], [85.46448202379733, 22.13872058106416], [85.46454435699656, 22.138670680011373], [85.46460668929748, 22.138620779772964], [85.46466902249675, 22.138570878684824], [85.46473135479769, 22.138520978411083], [85.4647936870986, 22.138471078119647], [85.46485602029787, 22.13842117697844], [85.4649183525988, 22.138371275819566], [85.46497767554352, 22.138322140164476], [85.46503699758995, 22.1382730053244], [85.46509632053467, 22.13822386963504], [85.46515564258111, 22.138174734760664], [85.46521496552583, 22.138125599037043], [85.46527428757224, 22.138076464128343], [85.46533361051699, 22.13802732920252], [85.46539293346171, 22.13797819425957], [85.46544800557851, 22.137932403472814], [85.46550307679705, 22.137886612671174], [85.46555814891383, 22.13784082185465], [85.46561322013231, 22.137795031023238], [85.46567681905779, 22.137741397709796], [85.46574041708496, 22.137687764375922], [85.46580401601048, 22.137634131021645], [85.46586761403765, 22.137580497646933], [85.46593510985483, 22.13752694579695], [85.46598762177305, 22.137485282047518], [85.46604013369132, 22.137443619117807], [85.46609264560958, 22.13740195534373], [85.46616441830581, 22.137357444962735], [85.46623619190039, 22.137312934567678], [85.46630796459662, 22.137268424990687], [85.46637973819122, 22.13722391456749], [85.46645151088748, 22.137179404130247], [85.46652328358371, 22.137134893678933], [85.46659505717831, 22.13709038321356], [85.46666682987455, 22.137045873566205], [85.46673860346912, 22.13700136307269], [85.4668103761654, 22.136956852565095], [85.4668777273538, 22.136911067270955], [85.46694507764393, 22.13686528279405], [85.46701242883233, 22.13681949747014], [85.46707977912246, 22.13677371296343], [85.46714713031086, 22.136727928441854], [85.46721858949512, 22.136679350551407], [85.46729004867932, 22.136630772644228], [85.46736150696522, 22.13658219555239], [85.46743296614943, 22.136533617611715], [85.46750442533369, 22.136485039654257], [85.46757588451788, 22.13643646168003], [85.46764734370214, 22.136387883689075], [85.467718801988, 22.136339306513477], [85.46779026117224, 22.136290728489012], [85.46786172035645, 22.136242150447764], [85.46793317954071, 22.13619357238979], [85.4680046387249, 22.13614499431506], [85.46807609701081, 22.136096417055697], [85.46814755619502, 22.13604783894743], [85.46821901537926, 22.135999260822434], [85.46829047456347, 22.135950682680694], [85.46836193284938, 22.13590210535431], [85.46843339203359, 22.135853527179023], [85.46850485121783, 22.135804948987005], [85.46857631040204, 22.13575637077826], [85.46864776958625, 22.135707792552733], [85.46871922787216, 22.135659215142574], [85.4687906870564, 22.135610636883523], [85.46886214624061, 22.135562058607743], [85.46919999992404, 22.137119999998824], [85.4679999998248, 22.141089999925416], [85.4671499995299, 22.149260000023965], [85.46797999973329, 22.152609999775883], [85.46944999927096, 22.155459999472317], [85.4701700007678, 22.156650000020743], [85.47070999964468, 22.157669999968174], [85.47033999974882, 22.161869999452765], [85.46992999967, 22.162609999854492], [85.46985000020236, 22.164540000055197], [85.4688400000739, 22.164490000004786], [85.46556999948906, 22.164480000158978], [85.46160000019377, 22.165769999357718], [85.46102000023564, 22.16537000029137], [85.45846999935102, 22.166210000344424], [85.45581999980557, 22.167960000077613], [85.45417000034286, 22.168120000221663], [85.45365999980658, 22.168519999785307], [85.45404999979391, 22.171130000199863], [85.45266999976964, 22.175839999650147], [85.45324000058034, 22.17957999949662], [85.45451000010146, 22.182599999710067], [85.45628999926055, 22.18441999986857], [85.45628999926055, 22.185329999425747], [85.45526999998467, 22.186169999992305], [85.45426999990198, 22.18667999987645], [85.45390000000612, 22.18786999989259], [85.45381999964017, 22.193090000489995], [85.45301999957398, 22.195360000060194], [85.45316999936182, 22.19888000013846], [85.45454000023871, 22.204149999952893]]]}}]}