{"type": "FeatureCollection", "features": [{"type": "Feature", "properties": {"premiumdata.sde.IN_Village_PCA.area": 1.06309986, "objectid": 73712, "id": "274783969641643", "name": "Nandri", "subdistrict": "Amalner", "district": "Jalgaon", "state": "Maharashtra", "country": "India", "censusname": "Nandri", "villagename_locallang": "\u0928\u093e\u0902\u0926\u094d\u0930\u0940", "lgd_villagename": "Nandri", "lgd_villagecode": 527429, "lgd_subdistrictcode": 3969, "lgd_districtcode": 478, "lgd_statecode": 27, "censuscode2001": "00242100", "censuscode2011": "527429", "censuscode2021": null, "level": "Village", "tru": "Rural", "no_hh": 223, "tot_p": 1005, "tot_m": 523, "tot_f": 482, "per_tot_m": 52.039801, "per_tot_f": 47.960199, "p_06": 144, "m_06": 81, "f_06": 63, "per_p_06": 14.32835821, "per_m_06": 56.25, "per_f_06": 43.75, "p_sc": 23, "m_sc": 12, "f_sc": 11, "per_p_sc": 2.28855721, "per_m_sc": 52.17391304, "per_f_sc": 47.82608696, "p_st": 310, "m_st": 163, "f_st": 147, "per_p_st": 30.84577114, "per_m_st": 52.58064516, "per_f_st": 47.41935484, "p_lit": 607, "m_lit": 362, "f_lit": 245, "per_p_lit": 60.39800995, "per_m_lit": 59.63756178000001, "per_f_lit": 40.36243822, "p_ill": 398, "m_ill": 161, "f_ill": 237, "per_p_ill": 39.60199005, "per_m_ill": 40.45226131, "per_f_ill": 59.54773869, "tot_work_p": 533, "tot_work_m": 289, "tot_work_f": 244, "per_tot_work_p": 53.03482587, "per_tot_work_m": 54.22138837, "per_tot_work_f": 45.77861163, "mainwork_p": 518, "mainwork_m": 277, "mainwork_f": 241, "per_mainwork_p": 51.54228856, "per_mainwork_m": 53.47490347, "per_mainwork_f": 46.52509653, "main_cl_p": 38, "main_cl_m": 32, "main_cl_f": 6, "per_main_cl_p": 7.33590734, "per_main_cl_m": 84.21052632, "per_main_cl_f": 15.78947368, "main_al_p": 460, "main_al_m": 231, "main_al_f": 229, "per_main_al_p": 88.8030888, "per_main_al_m": 50.2173913, "per_main_al_f": 49.7826087, "main_hh_p": 0, "main_hh_m": 0, "main_hh_f": 0, "per_main_hh_p": 0.0, "per_main_hh_m": 0.0, "per_main_hh_f": 0.0, "main_ot_p": 20, "main_ot_m": 14, "main_ot_f": 6, "per_main_ot_p": 3.86100386, "per_main_ot_m": 70.0, "per_main_ot_f": 30.0, "margwork_p": 15, "margwork_m": 12, "margwork_f": 3, "per_margwork_p": 1.49253731, "per_margwork_m": 80.0, "per_margwork_f": 20.0, "marg_cl_p": 0, "marg_cl_m": 0, "marg_cl_f": 0, "per_marg_cl_p": 0.0, "per_marg_cl_m": 0.0, "per_marg_cl_f": 0.0, "marg_al_p": 12, "marg_al_m": 10, "marg_al_f": 2, "per_marg_al_p": 80.0, "per_marg_al_m": 83.33333332999999, "per_marg_al_f": 16.66666667, "marg_hh_p": 0, "marg_hh_m": 0, "marg_hh_f": 0, "per_marg_hh_p": 0.0, "per_marg_hh_m": 0.0, "per_marg_hh_f": 0.0, "marg_ot_p": 3, "marg_ot_m": 2, "marg_ot_f": 1, "per_marg_ot_p": 20.0, "per_marg_ot_m": 66.66666667, "per_marg_ot_f": 33.33333333, "margwork_3_6_p": 11, "margwork_3_6_m": 9, "margwork_3_6_f": 2, "per_margwork_3_6_p": 73.33333332999999, "per_margwork_3_6_m": 81.81818182, "per_margwork_3_6_f": 18.18181818, "marg_cl_3_6_p": 0, "marg_cl_3_6_m": 0, "marg_cl_3_6_f": 0, "per_marg_cl_3_6_p": 0.0, "per_marg_cl_3_6_m": 0.0, "per_marg_cl_3_6_f": 0.0, "marg_al_3_6_p": 8, "marg_al_3_6_m": 7, "marg_al_3_6_f": 1, "per_marg_al_3_6_p": 53.33333333, "per_marg_al_3_6_m": 87.5, "per_marg_al_3_6_f": 12.5, "marg_hh_3_6_p": 0, "marg_hh_3_6_m": 0, "marg_hh_3_6_f": 0, "per_marg_hh_3_6_p": 0.0, "per_marg_hh_3_6_m": 0.0, "per_marg_hh_3_6_f": 0.0, "marg_ot_3_6_p": 3, "marg_ot_3_6_m": 2, "marg_ot_3_6_f": 1, "per_marg_ot_3_6_p": 20.0, "per_marg_ot_3_6_m": 66.66666667, "per_marg_ot_3_6_f": 33.33333333, "margwork_0_3_p": 4, "margwork_0_3_m": 3, "margwork_0_3_f": 1, "per_margwork_0_3_p": 26.66666667, "per_margwork_0_3_m": 75.0, "per_margwork_0_3_f": 25.0, "marg_cl_0_3_p": 0, "marg_cl_0_3_m": 0, "marg_cl_0_3_f": 0, "per_marg_cl_0_3_p": 0.0, "per_marg_cl_0_3_m": 0.0, "per_marg_cl_0_3_f": 0.0, "marg_al_0_3_p": 4, "marg_al_0_3_m": 3, "marg_al_0_3_f": 1, "per_marg_al_0_3_p": 26.66666667, "per_marg_al_0_3_m": 75.0, "per_marg_al_0_3_f": 25.0, "marg_hh_0_3_p": 0, "marg_hh_0_3_m": 0, "marg_hh_0_3_f": 0, "per_marg_hh_0_3_p": 0.0, "per_marg_hh_0_3_m": 0.0, "per_marg_hh_0_3_f": 0.0, "marg_ot_0_3_p": 0, "marg_ot_0_3_m": 0, "marg_ot_0_3_f": 0, "per_marg_ot_0_3_p": 0.0, "per_marg_ot_0_3_m": 0.0, "per_marg_ot_0_3_f": 0.0, "non_work_p": 472, "non_work_m": 234, "non_work_f": 238, "per_non_work_p": 46.96517413, "per_non_work_m": 49.57627119, "per_non_work_f": 50.42372881, "per_hc_tot_tot": 100, "per_hc_tot_god": 21.3, "per_hc_tot_liv": 69.0, "per_hc_tot_dil": 9.6, "per_hc_res_tot": 100.0, "per_hc_res_god": 21.3, "per_hc_res_liv": 69.0, "per_hc_res_dil": 9.6, "per_hc_oth_tot": 0.0, "per_hc_oth_god": 0.0, "per_hc_oth_liv": 0.0, "per_hc_oth_dil": 0.0, "per_mt_grsbam": 70.6, "per_mt_plastic": 0.0, "per_mt_h_tiles": 2.0, "per_mt_m_tiles": 0.0, "per_mt_b_brick": 0.0, "per_mt_stone": 1.0, "per_mt_asbstos": 18.3, "per_mt_concrte": 8.1, "per_mt_oth": 0.0, "per_mw_grsbam": 39.1, "per_mw_plastic": 0.0, "per_mw_mud": 34.0, "per_mw_wood": 0.0, "per_mw_no_mrtr": 4.6, "per_mw_st_mrtr": 2.0, "per_mw_asbstos": 0.0, "per_mw_b_brick": 19.8, "per_mw_concrte": 0.0, "per_mw_oth": 0.5, "per_mf_mud": 62.4, "per_mf_wood": 0.0, "per_mf_b_brick": 0.0, "per_mf_stone": 0.0, "per_mf_cement": 33.0, "per_mf_fl_tile": 4.6, "per_mf_oth": 0.0, "per_dw_n_exrm": 3.6, "per_dw_1_room": 38.1, "per_dw_2_room": 31.0, "per_dw_3_room": 24.9, "per_dw_4_room": 2.5, "per_dw_5_room": 0.0, "per_dw_6_room": 0.0, "per_hhsize_1": 8.6, "per_hhsize_2": 11.7, "per_hhsize_3": 9.1, "per_hhsize_4": 20.8, "per_hhsize_5": 18.8, "per_hhsize_6_8": 25.4, "per_hhsize_9p": 5.6, "per_ow_owned": 71.1, "per_ow_rented": 17.3, "per_ow_oth": 11.7, "per_mc_none": 17.8, "per_mcouple_1": 61.4, "per_mcouple_2": 19.3, "per_mcouple_3": 1.0, "per_mcouple_4": 0.5, "per_mcouple_5p": 0.0, "per_dw_t_ts": 0.5, "per_dw_t_unts": 99.5, "per_dw_c_well": 0.0, "per_dw_unc_wel": 0.0, "per_dw_hpump": 0.0, "per_dw_tw_bore": 0.0, "per_dw_spring": 0.0, "per_dw_rivcan": 0.0, "per_dw_tank": 0.0, "per_dw_oth": 0.0, "per_loc_dw_wp": 39.6, "per_loc_dw_np": 60.4, "per_loc_dw_aw": 0.0, "per_light_elec": 74.1, "per_light_kero": 25.9, "per_light_solr": 0.0, "per_light_oil": 0.0, "per_light_oth": 0.0, "per_light_no": 0.0, "per_hh_latrine": 11.2, "per_fl_sewer": 0.5, "per_fl_septict": 10.7, "per_fl_othsys": 0.0, "per_pl_wslab": 0.0, "per_pl_without": 0.0, "per_ns_open": 0.0, "per_sl_ns_hum": 0.0, "per_sl_ns_anml": 0.0, "per_hh_no_lat": 88.8, "per_as_pub": 73.1, "per_as_open": 15.7, "per_hh_bathrm": 53.8, "per_hh_en_wrf": 14.7, "per_hh_no_btrm": 31.5, "per_wwoc_drain": 1.0, "per_wwoc_open": 78.7, "per_wwoc_nodrn": 20.3, "per_cook_fire": 21.3, "per_cook_resdu": 28.9, "per_cook_cwdng": 0.0, "per_cook_coal": 0.0, "per_cook_kero": 0.5, "per_cook_lpng": 28.4, "per_cook_elec": 0.0, "per_cook_biogs": 1.5, "per_cook_oth": 19.3, "per_cook_no": 0.0, "per_kf_inside": 94.9, "per_kf_in_has": 42.1, "per_kf_in_does": 52.8, "per_kf_outside": 5.1, "per_kf_out_has": 0.0, "per_kf_out_dos": 5.1, "per_kf_no_cook": 0.0, "per_hh_banking": 69.5, "per_hh_radio": 6.6, "per_hh_tv": 39.1, "per_hh_cmp_int": 0.0, "per_hh_cmp_wnt": 0.0, "per_hh_ph_ll": 4.6, "per_hh_ph_mob": 36.0, "per_hh_ph_bth": 2.0, "per_hh_bcycl": 8.1, "per_hh_2wheel": 4.6, "per_hh_4wheel": 0.5, "per_hh_tvcomp": 0.0, "per_hh_no_ast": 41.6, "per_hs_perma": 15.7, "per_hs_sperma": 24.4, "per_hs_temp": 59.4, "per_hs_servc": 32.0, "per_hs_nservc": 27.4, "per_hs_unclss": 0.5, "avghhsz_cy": 4.50672646, "st_areashape": 1227693.131040555, "st_lengthshape": 4519.76108584429}, "geometry": {"type": "Polygon", "coordinates": [[[75.19590195795075, 21.109297838956806], [75.19616734633684, 21.110937172600867], [75.19592786536354, 21.112112386093298], [75.19531614050283, 21.113643086020275], [75.19530407702688, 21.11365460781094], [75.19457169764372, 21.114354130256956], [75.1920195749384, 21.115845374278468], [75.18574881592733, 21.1188385150079], [75.1854838308848, 21.118594929092346], [75.1848201205186, 21.11781038450947], [75.18475079123994, 21.11582804198648], [75.18448918476122, 21.11087768373149], [75.18411260650251, 21.108821518143632], [75.18428542260025, 21.108834594866476], [75.18841306365147, 21.1085637562926], [75.19065889947248, 21.10841666712901], [75.1950267105048, 21.107623669858658], [75.19523408748645, 21.107356451943193], [75.19590195795075, 21.109297838956806]]]}}]}