{"type": "FeatureCollection", "features": [{"type": "Feature", "properties": {"premiumdata.sde.IN_Village_PCA.area": 3.29516476, "objectid": 312625, "id": "234077039525094", "name": "Rawar", "subdistrict": "City Center", "district": "Gwalior", "state": "Madhya Pradesh", "country": "India", "censusname": "Rawar", "villagename_locallang": null, "lgd_villagename": "Rawar", "lgd_villagecode": 453851, "lgd_subdistrictcode": 7039, "lgd_districtcode": 407, "lgd_statecode": 23, "censuscode2001": "00251500", "censuscode2011": "453851", "censuscode2021": null, "level": "Village", "tru": "Rural", "no_hh": 111, "tot_p": 606, "tot_m": 326, "tot_f": 280, "per_tot_m": 53.79537954, "per_tot_f": 46.20462046, "p_06": 105, "m_06": 54, "f_06": 51, "per_p_06": 17.32673267, "per_m_06": 51.42857143, "per_f_06": 48.57142857, "p_sc": 15, "m_sc": 7, "f_sc": 8, "per_p_sc": 2.47524752, "per_m_sc": 46.66666667000001, "per_f_sc": 53.33333333, "p_st": 9, "m_st": 6, "f_st": 3, "per_p_st": 1.48514851, "per_m_st": 66.66666667, "per_f_st": 33.33333333, "p_lit": 324, "m_lit": 204, "f_lit": 120, "per_p_lit": 53.46534653, "per_m_lit": 62.96296296, "per_f_lit": 37.03703704, "p_ill": 282, "m_ill": 122, "f_ill": 160, "per_p_ill": 46.53465347, "per_m_ill": 43.26241135, "per_f_ill": 56.73758865, "tot_work_p": 159, "tot_work_m": 152, "tot_work_f": 7, "per_tot_work_p": 26.23762376, "per_tot_work_m": 95.59748427999999, "per_tot_work_f": 4.40251572, "mainwork_p": 151, "mainwork_m": 146, "mainwork_f": 5, "per_mainwork_p": 24.91749175, "per_mainwork_m": 96.68874172, "per_mainwork_f": 3.31125828, "main_cl_p": 72, "main_cl_m": 70, "main_cl_f": 2, "per_main_cl_p": 47.68211921, "per_main_cl_m": 97.22222222, "per_main_cl_f": 2.77777778, "main_al_p": 36, "main_al_m": 34, "main_al_f": 2, "per_main_al_p": 23.8410596, "per_main_al_m": 94.44444444, "per_main_al_f": 5.55555556, "main_hh_p": 2, "main_hh_m": 2, "main_hh_f": 0, "per_main_hh_p": 1.32450331, "per_main_hh_m": 100.0, "per_main_hh_f": 0.0, "main_ot_p": 41, "main_ot_m": 40, "main_ot_f": 1, "per_main_ot_p": 27.15231788, "per_main_ot_m": 97.56097561, "per_main_ot_f": 2.43902439, "margwork_p": 8, "margwork_m": 6, "margwork_f": 2, "per_margwork_p": 1.32013201, "per_margwork_m": 75.0, "per_margwork_f": 25.0, "marg_cl_p": 1, "marg_cl_m": 0, "marg_cl_f": 1, "per_marg_cl_p": 12.5, "per_marg_cl_m": 0.0, "per_marg_cl_f": 100.0, "marg_al_p": 0, "marg_al_m": 0, "marg_al_f": 0, "per_marg_al_p": 0.0, "per_marg_al_m": 0.0, "per_marg_al_f": 0.0, "marg_hh_p": 2, "marg_hh_m": 2, "marg_hh_f": 0, "per_marg_hh_p": 25.0, "per_marg_hh_m": 100.0, "per_marg_hh_f": 0.0, "marg_ot_p": 5, "marg_ot_m": 4, "marg_ot_f": 1, "per_marg_ot_p": 62.5, "per_marg_ot_m": 80.0, "per_marg_ot_f": 20.0, "margwork_3_6_p": 6, "margwork_3_6_m": 4, "margwork_3_6_f": 2, "per_margwork_3_6_p": 75.0, "per_margwork_3_6_m": 66.66666667, "per_margwork_3_6_f": 33.33333333, "marg_cl_3_6_p": 1, "marg_cl_3_6_m": 0, "marg_cl_3_6_f": 1, "per_marg_cl_3_6_p": 12.5, "per_marg_cl_3_6_m": 0.0, "per_marg_cl_3_6_f": 100.0, "marg_al_3_6_p": 0, "marg_al_3_6_m": 0, "marg_al_3_6_f": 0, "per_marg_al_3_6_p": 0.0, "per_marg_al_3_6_m": 0.0, "per_marg_al_3_6_f": 0.0, "marg_hh_3_6_p": 2, "marg_hh_3_6_m": 2, "marg_hh_3_6_f": 0, "per_marg_hh_3_6_p": 25.0, "per_marg_hh_3_6_m": 100.0, "per_marg_hh_3_6_f": 0.0, "marg_ot_3_6_p": 3, "marg_ot_3_6_m": 2, "marg_ot_3_6_f": 1, "per_marg_ot_3_6_p": 37.5, "per_marg_ot_3_6_m": 66.66666667, "per_marg_ot_3_6_f": 33.33333333, "margwork_0_3_p": 2, "margwork_0_3_m": 2, "margwork_0_3_f": 0, "per_margwork_0_3_p": 25.0, "per_margwork_0_3_m": 100.0, "per_margwork_0_3_f": 0.0, "marg_cl_0_3_p": 0, "marg_cl_0_3_m": 0, "marg_cl_0_3_f": 0, "per_marg_cl_0_3_p": 0.0, "per_marg_cl_0_3_m": 0.0, "per_marg_cl_0_3_f": 0.0, "marg_al_0_3_p": 0, "marg_al_0_3_m": 0, "marg_al_0_3_f": 0, "per_marg_al_0_3_p": 0.0, "per_marg_al_0_3_m": 0.0, "per_marg_al_0_3_f": 0.0, "marg_hh_0_3_p": 0, "marg_hh_0_3_m": 0, "marg_hh_0_3_f": 0, "per_marg_hh_0_3_p": 0.0, "per_marg_hh_0_3_m": 0.0, "per_marg_hh_0_3_f": 0.0, "marg_ot_0_3_p": 2, "marg_ot_0_3_m": 2, "marg_ot_0_3_f": 0, "per_marg_ot_0_3_p": 25.0, "per_marg_ot_0_3_m": 100.0, "per_marg_ot_0_3_f": 0.0, "non_work_p": 447, "non_work_m": 174, "non_work_f": 273, "per_non_work_p": 73.76237624, "per_non_work_m": 38.9261745, "per_non_work_f": 61.0738255, "per_hc_tot_tot": 100, "per_hc_tot_god": 7.3, "per_hc_tot_liv": 87.2, "per_hc_tot_dil": 5.5, "per_hc_res_tot": 100.0, "per_hc_res_god": 7.3, "per_hc_res_liv": 87.2, "per_hc_res_dil": 5.5, "per_hc_oth_tot": 0.0, "per_hc_oth_god": 0.0, "per_hc_oth_liv": 0.0, "per_hc_oth_dil": 0.0, "per_mt_grsbam": 46.8, "per_mt_plastic": 0.0, "per_mt_h_tiles": 0.0, "per_mt_m_tiles": 0.0, "per_mt_b_brick": 0.0, "per_mt_stone": 47.7, "per_mt_asbstos": 0.0, "per_mt_concrte": 5.5, "per_mt_oth": 0.0, "per_mw_grsbam": 0.0, "per_mw_plastic": 0.0, "per_mw_mud": 35.8, "per_mw_wood": 0.0, "per_mw_no_mrtr": 2.8, "per_mw_st_mrtr": 47.7, "per_mw_asbstos": 0.0, "per_mw_b_brick": 13.8, "per_mw_concrte": 0.0, "per_mw_oth": 0.0, "per_mf_mud": 78.0, "per_mf_wood": 0.0, "per_mf_b_brick": 3.7, "per_mf_stone": 7.3, "per_mf_cement": 11.0, "per_mf_fl_tile": 0.0, "per_mf_oth": 0.0, "per_dw_n_exrm": 0.9, "per_dw_1_room": 45.9, "per_dw_2_room": 45.9, "per_dw_3_room": 6.4, "per_dw_4_room": 0.9, "per_dw_5_room": 0.0, "per_dw_6_room": 0.0, "per_hhsize_1": 2.8, "per_hhsize_2": 4.6, "per_hhsize_3": 8.3, "per_hhsize_4": 10.1, "per_hhsize_5": 18.3, "per_hhsize_6_8": 52.3, "per_hhsize_9p": 3.7, "per_ow_owned": 95.4, "per_ow_rented": 0.0, "per_ow_oth": 4.6, "per_mc_none": 8.3, "per_mcouple_1": 63.3, "per_mcouple_2": 24.8, "per_mcouple_3": 3.7, "per_mcouple_4": 0.0, "per_mcouple_5p": 0.0, "per_dw_t_ts": 0.0, "per_dw_t_unts": 0.0, "per_dw_c_well": 0.0, "per_dw_unc_wel": 0.0, "per_dw_hpump": 74.3, "per_dw_tw_bore": 25.7, "per_dw_spring": 0.0, "per_dw_rivcan": 0.0, "per_dw_tank": 0.0, "per_dw_oth": 0.0, "per_loc_dw_wp": 10.1, "per_loc_dw_np": 82.6, "per_loc_dw_aw": 7.3, "per_light_elec": 44.0, "per_light_kero": 56.0, "per_light_solr": 0.0, "per_light_oil": 0.0, "per_light_oth": 0.0, "per_light_no": 0.0, "per_hh_latrine": 5.5, "per_fl_sewer": 0.0, "per_fl_septict": 5.5, "per_fl_othsys": 0.0, "per_pl_wslab": 0.0, "per_pl_without": 0.0, "per_ns_open": 0.0, "per_sl_ns_hum": 0.0, "per_sl_ns_anml": 0.0, "per_hh_no_lat": 94.5, "per_as_pub": 0.0, "per_as_open": 94.5, "per_hh_bathrm": 6.4, "per_hh_en_wrf": 71.6, "per_hh_no_btrm": 22.0, "per_wwoc_drain": 7.3, "per_wwoc_open": 87.2, "per_wwoc_nodrn": 5.5, "per_cook_fire": 97.2, "per_cook_resdu": 0.9, "per_cook_cwdng": 0.0, "per_cook_coal": 0.0, "per_cook_kero": 0.0, "per_cook_lpng": 1.8, "per_cook_elec": 0.0, "per_cook_biogs": 0.0, "per_cook_oth": 0.0, "per_cook_no": 0.0, "per_kf_inside": 97.2, "per_kf_in_has": 91.7, "per_kf_in_does": 5.5, "per_kf_outside": 2.8, "per_kf_out_has": 0.0, "per_kf_out_dos": 2.8, "per_kf_no_cook": 0.0, "per_hh_banking": 54.1, "per_hh_radio": 7.3, "per_hh_tv": 33.9, "per_hh_cmp_int": 0.0, "per_hh_cmp_wnt": 0.0, "per_hh_ph_ll": 0.0, "per_hh_ph_mob": 75.2, "per_hh_ph_bth": 0.0, "per_hh_bcycl": 68.8, "per_hh_2wheel": 23.9, "per_hh_4wheel": 0.9, "per_hh_tvcomp": 0.0, "per_hh_no_ast": 8.3, "per_hs_perma": 52.3, "per_hs_sperma": 12.8, "per_hs_temp": 34.9, "per_hs_servc": 34.9, "per_hs_nservc": 0.0, "per_hs_unclss": 0.0, "avghhsz_cy": 5.45945946, "st_areashape": 4105102.63098586, "st_lengthshape": 9056.64327013238}, "geometry": {"type": "Polygon", "coordinates": [[[78.24236000032343, 26.144420000158505], [78.23441999993624, 26.136130000035322], [78.23322999988272, 26.135140000184187], [78.23625999936975, 26.132869999934126], [78.2405499992305, 26.12832000014395], [78.2425700003857, 26.125359999656833], [78.24296999952047, 26.123370000517802], [78.24554999964403, 26.115639999893567], [78.24683000010923, 26.116439999896667], [78.2496300003408, 26.119529999861953], [78.25253000013149, 26.122720000361497], [78.25113000001568, 26.129309999739828], [78.25144999968283, 26.135140000184187], [78.25227999988623, 26.141039999528978], [78.25178000029403, 26.14109999941516], [78.24474999957788, 26.14320000019588], [78.24247999997404, 26.144269999812835], [78.24236000032343, 26.144420000158505]]]}}]}