{"type": "FeatureCollection", "features": [{"type": "Feature", "properties": {"premiumdata.sde.IN_Village_PCA.area": 8.06159003, "objectid": 226046, "id": "8117693486301", "name": "Veerpura", "subdistrict": "Sarada", "district": "Udaipur", "state": "Rajasthan", "country": "India", "censusname": "Veerpura", "villagename_locallang": null, "lgd_villagename": "Veerpura", "lgd_villagecode": 107409, "lgd_subdistrictcode": 693, "lgd_districtcode": 117, "lgd_statecode": 8, "censuscode2001": "03250500", "censuscode2011": "107409", "censuscode2021": null, "level": "Village", "tru": "Rural", "no_hh": 464, "tot_p": 2130, "tot_m": 1115, "tot_f": 1015, "per_tot_m": 52.34741784, "per_tot_f": 47.65258216, "p_06": 362, "m_06": 183, "f_06": 179, "per_p_06": 16.99530516, "per_m_06": 50.55248619, "per_f_06": 49.44751381, "p_sc": 90, "m_sc": 46, "f_sc": 44, "per_p_sc": 4.22535211, "per_m_sc": 51.11111111, "per_f_sc": 48.88888889, "p_st": 1027, "m_st": 535, "f_st": 492, "per_p_st": 48.21596244, "per_m_st": 52.09347614, "per_f_st": 47.90652386, "p_lit": 1141, "m_lit": 797, "f_lit": 344, "per_p_lit": 53.56807512, "per_m_lit": 69.85100789, "per_f_lit": 30.14899211, "p_ill": 989, "m_ill": 318, "f_ill": 671, "per_p_ill": 46.43192488, "per_m_ill": 32.1536906, "per_f_ill": 67.8463094, "tot_work_p": 1157, "tot_work_m": 611, "tot_work_f": 546, "per_tot_work_p": 54.31924883, "per_tot_work_m": 52.80898876, "per_tot_work_f": 47.19101124, "mainwork_p": 501, "mainwork_m": 312, "mainwork_f": 189, "per_mainwork_p": 23.52112676, "per_mainwork_m": 62.2754491, "per_mainwork_f": 37.7245509, "main_cl_p": 195, "main_cl_m": 179, "main_cl_f": 16, "per_main_cl_p": 38.92215569, "per_main_cl_m": 91.79487179, "per_main_cl_f": 8.20512821, "main_al_p": 157, "main_al_m": 13, "main_al_f": 144, "per_main_al_p": 31.33732535, "per_main_al_m": 8.28025478, "per_main_al_f": 91.71974522000001, "main_hh_p": 10, "main_hh_m": 10, "main_hh_f": 0, "per_main_hh_p": 1.99600798, "per_main_hh_m": 100.0, "per_main_hh_f": 0.0, "main_ot_p": 139, "main_ot_m": 110, "main_ot_f": 29, "per_main_ot_p": 27.74451098, "per_main_ot_m": 79.13669065, "per_main_ot_f": 20.86330935, "margwork_p": 656, "margwork_m": 299, "margwork_f": 357, "per_margwork_p": 30.79812207, "per_margwork_m": 45.57926829, "per_margwork_f": 54.42073171, "marg_cl_p": 175, "marg_cl_m": 133, "marg_cl_f": 42, "per_marg_cl_p": 26.67682927, "per_marg_cl_m": 76.0, "per_marg_cl_f": 24.0, "marg_al_p": 309, "marg_al_m": 94, "marg_al_f": 215, "per_marg_al_p": 47.10365854, "per_marg_al_m": 30.42071197, "per_marg_al_f": 69.57928803, "marg_hh_p": 8, "marg_hh_m": 3, "marg_hh_f": 5, "per_marg_hh_p": 1.2195122, "per_marg_hh_m": 37.5, "per_marg_hh_f": 62.5, "marg_ot_p": 164, "marg_ot_m": 69, "marg_ot_f": 95, "per_marg_ot_p": 25.0, "per_marg_ot_m": 42.07317073, "per_marg_ot_f": 57.92682927, "margwork_3_6_p": 442, "margwork_3_6_m": 210, "margwork_3_6_f": 232, "per_margwork_3_6_p": 67.37804878, "per_margwork_3_6_m": 47.51131222, "per_margwork_3_6_f": 52.48868778, "marg_cl_3_6_p": 121, "marg_cl_3_6_m": 100, "marg_cl_3_6_f": 21, "per_marg_cl_3_6_p": 18.44512195, "per_marg_cl_3_6_m": 82.6446281, "per_marg_cl_3_6_f": 17.3553719, "marg_al_3_6_p": 183, "marg_al_3_6_m": 60, "marg_al_3_6_f": 123, "per_marg_al_3_6_p": 27.89634146, "per_marg_al_3_6_m": 32.78688525, "per_marg_al_3_6_f": 67.21311475, "marg_hh_3_6_p": 6, "marg_hh_3_6_m": 2, "marg_hh_3_6_f": 4, "per_marg_hh_3_6_p": 0.91463415, "per_marg_hh_3_6_m": 33.33333333, "per_marg_hh_3_6_f": 66.66666667, "marg_ot_3_6_p": 132, "marg_ot_3_6_m": 48, "marg_ot_3_6_f": 84, "per_marg_ot_3_6_p": 20.12195122, "per_marg_ot_3_6_m": 36.36363636, "per_marg_ot_3_6_f": 63.63636364, "margwork_0_3_p": 214, "margwork_0_3_m": 89, "margwork_0_3_f": 125, "per_margwork_0_3_p": 32.62195122, "per_margwork_0_3_m": 41.58878505000001, "per_margwork_0_3_f": 58.41121495, "marg_cl_0_3_p": 54, "marg_cl_0_3_m": 33, "marg_cl_0_3_f": 21, "per_marg_cl_0_3_p": 8.23170732, "per_marg_cl_0_3_m": 61.11111111, "per_marg_cl_0_3_f": 38.88888889, "marg_al_0_3_p": 126, "marg_al_0_3_m": 34, "marg_al_0_3_f": 92, "per_marg_al_0_3_p": 19.20731707, "per_marg_al_0_3_m": 26.98412698, "per_marg_al_0_3_f": 73.01587302, "marg_hh_0_3_p": 2, "marg_hh_0_3_m": 1, "marg_hh_0_3_f": 1, "per_marg_hh_0_3_p": 0.30487805, "per_marg_hh_0_3_m": 50.0, "per_marg_hh_0_3_f": 50.0, "marg_ot_0_3_p": 32, "marg_ot_0_3_m": 21, "marg_ot_0_3_f": 11, "per_marg_ot_0_3_p": 4.87804878, "per_marg_ot_0_3_m": 65.625, "per_marg_ot_0_3_f": 34.375, "non_work_p": 973, "non_work_m": 504, "non_work_f": 469, "per_non_work_p": 45.68075117, "per_non_work_m": 51.79856115, "per_non_work_f": 48.20143885, "per_hc_tot_tot": 100, "per_hc_tot_god": 56.8, "per_hc_tot_liv": 38.8, "per_hc_tot_dil": 4.4, "per_hc_res_tot": 93.2, "per_hc_res_god": 50.6, "per_hc_res_liv": 38.2, "per_hc_res_dil": 4.4, "per_hc_oth_tot": 6.8, "per_hc_oth_god": 6.1, "per_hc_oth_liv": 0.6, "per_hc_oth_dil": 0.0, "per_mt_grsbam": 18.1, "per_mt_plastic": 0.0, "per_mt_h_tiles": 32.3, "per_mt_m_tiles": 6.3, "per_mt_b_brick": 0.8, "per_mt_stone": 39.0, "per_mt_asbstos": 0.6, "per_mt_concrte": 2.7, "per_mt_oth": 0.0, "per_mw_grsbam": 0.0, "per_mw_plastic": 0.0, "per_mw_mud": 47.9, "per_mw_wood": 0.4, "per_mw_no_mrtr": 6.5, "per_mw_st_mrtr": 12.0, "per_mw_asbstos": 0.0, "per_mw_b_brick": 32.5, "per_mw_concrte": 0.6, "per_mw_oth": 0.0, "per_mf_mud": 54.6, "per_mf_wood": 0.2, "per_mf_b_brick": 0.8, "per_mf_stone": 16.9, "per_mf_cement": 27.0, "per_mf_fl_tile": 0.4, "per_mf_oth": 0.0, "per_dw_n_exrm": 23.8, "per_dw_1_room": 50.0, "per_dw_2_room": 15.2, "per_dw_3_room": 7.2, "per_dw_4_room": 3.0, "per_dw_5_room": 0.2, "per_dw_6_room": 0.6, "per_hhsize_1": 5.3, "per_hhsize_2": 12.0, "per_hhsize_3": 11.8, "per_hhsize_4": 16.7, "per_hhsize_5": 24.3, "per_hhsize_6_8": 27.8, "per_hhsize_9p": 2.1, "per_ow_owned": 94.3, "per_ow_rented": 5.5, "per_ow_oth": 0.2, "per_mc_none": 9.7, "per_mcouple_1": 70.7, "per_mcouple_2": 16.5, "per_mcouple_3": 3.0, "per_mcouple_4": 0.2, "per_mcouple_5p": 0.0, "per_dw_t_ts": 41.4, "per_dw_t_unts": 0.0, "per_dw_c_well": 0.0, "per_dw_unc_wel": 0.0, "per_dw_hpump": 54.6, "per_dw_tw_bore": 1.7, "per_dw_spring": 0.0, "per_dw_rivcan": 0.0, "per_dw_tank": 2.3, "per_dw_oth": 0.0, "per_loc_dw_wp": 20.9, "per_loc_dw_np": 44.3, "per_loc_dw_aw": 34.8, "per_light_elec": 84.0, "per_light_kero": 15.8, "per_light_solr": 0.2, "per_light_oil": 0.0, "per_light_oth": 0.0, "per_light_no": 0.0, "per_hh_latrine": 14.1, "per_fl_sewer": 0.6, "per_fl_septict": 13.5, "per_fl_othsys": 0.0, "per_pl_wslab": 0.0, "per_pl_without": 0.0, "per_ns_open": 0.0, "per_sl_ns_hum": 0.0, "per_sl_ns_anml": 0.0, "per_hh_no_lat": 85.9, "per_as_pub": 0.0, "per_as_open": 85.9, "per_hh_bathrm": 17.3, "per_hh_en_wrf": 12.0, "per_hh_no_btrm": 70.7, "per_wwoc_drain": 4.4, "per_wwoc_open": 35.7, "per_wwoc_nodrn": 59.9, "per_cook_fire": 83.3, "per_cook_resdu": 2.7, "per_cook_cwdng": 0.0, "per_cook_coal": 0.0, "per_cook_kero": 1.5, "per_cook_lpng": 12.4, "per_cook_elec": 0.0, "per_cook_biogs": 0.0, "per_cook_oth": 0.0, "per_cook_no": 0.0, "per_kf_inside": 84.0, "per_kf_in_has": 19.4, "per_kf_in_does": 64.6, "per_kf_outside": 16.0, "per_kf_out_has": 6.1, "per_kf_out_dos": 9.9, "per_kf_no_cook": 0.0, "per_hh_banking": 69.8, "per_hh_radio": 22.4, "per_hh_tv": 32.3, "per_hh_cmp_int": 1.3, "per_hh_cmp_wnt": 4.0, "per_hh_ph_ll": 0.8, "per_hh_ph_mob": 60.3, "per_hh_ph_bth": 3.6, "per_hh_bcycl": 27.6, "per_hh_2wheel": 24.5, "per_hh_4wheel": 2.5, "per_hh_tvcomp": 2.5, "per_hh_no_ast": 30.2, "per_hs_perma": 51.3, "per_hs_sperma": 31.0, "per_hs_temp": 17.7, "per_hs_servc": 17.7, "per_hs_nservc": 0.0, "per_hs_unclss": 0.0, "avghhsz_cy": 4.59051724, "st_areashape": 9742652.43549367, "st_lengthshape": 12613.927875826963}, "geometry": {"type": "Polygon", "coordinates": [[[73.97836166528359, 24.27713990266292], [73.9750108118316, 24.27744417083385], [73.97283171814124, 24.27698810772821], [73.9710254477517, 24.276033886074575], [73.96921917736215, 24.27507965725338], [73.96307139771348, 24.27157642488571], [73.96082703602784, 24.269111752231943], [73.95789350302591, 24.266920898151888], [73.95575307552033, 24.266400262853985], [73.9505485053604, 24.259617256499766], [73.94975973513363, 24.255337262948746], [73.95429589404345, 24.253162803499357], [73.95815526401486, 24.251367975515908], [73.96074599092124, 24.25021512262144], [73.96264742793367, 24.24934829208569], [73.9642636507417, 24.248568139143103], [73.96704757562128, 24.24624726269529], [73.96718310983809, 24.246134270575585], [73.96756774059497, 24.2458136122668], [73.9716339925763, 24.250689348300323], [73.97815395323036, 24.255308129748375], [73.98484269744482, 24.259080258963387], [73.98962543042539, 24.260554111252997], [73.99085889636224, 24.262790421309994], [73.99188688705091, 24.26407532797773], [73.98930485673479, 24.265813595307854], [73.9817346595124, 24.27393486686309], [73.97836166528359, 24.27713990266292]]]}}]}