{"type": "FeatureCollection", "features": [{"type": "Feature", "properties": {"premiumdata.sde.IN_Village_PCA.area": 0.74021987, "objectid": 448026, "id": "551341575940", "name": "Pokhari Chak Sandula", "subdistrict": "Dhari", "district": "Nainital", "state": "Uttarakhand", "country": "India", "censusname": "Pokhari Chak Sandula", "villagename_locallang": null, "lgd_villagename": "Pokhari Chak Sandula", "lgd_villagecode": 55057, "lgd_subdistrictcode": 341, "lgd_districtcode": 51, "lgd_statecode": 5, "censuscode2001": "01496500", "censuscode2011": "055057", "censuscode2021": null, "level": "Village", "tru": "Rural", "no_hh": 50, "tot_p": 275, "tot_m": 136, "tot_f": 139, "per_tot_m": 49.45454545, "per_tot_f": 50.54545455, "p_06": 55, "m_06": 38, "f_06": 17, "per_p_06": 20.0, "per_m_06": 69.09090909000001, "per_f_06": 30.90909091, "p_sc": 0, "m_sc": 0, "f_sc": 0, "per_p_sc": 0.0, "per_m_sc": 0.0, "per_f_sc": 0.0, "p_st": 0, "m_st": 0, "f_st": 0, "per_p_st": 0.0, "per_m_st": 0.0, "per_f_st": 0.0, "p_lit": 191, "m_lit": 96, "f_lit": 95, "per_p_lit": 69.45454545, "per_m_lit": 50.2617801, "per_f_lit": 49.7382199, "p_ill": 84, "m_ill": 40, "f_ill": 44, "per_p_ill": 30.54545455, "per_m_ill": 47.61904762, "per_f_ill": 52.38095238, "tot_work_p": 127, "tot_work_m": 54, "tot_work_f": 73, "per_tot_work_p": 46.18181818, "per_tot_work_m": 42.51968504, "per_tot_work_f": 57.48031496, "mainwork_p": 52, "mainwork_m": 47, "mainwork_f": 5, "per_mainwork_p": 18.90909091, "per_mainwork_m": 90.38461538, "per_mainwork_f": 9.61538462, "main_cl_p": 50, "main_cl_m": 45, "main_cl_f": 5, "per_main_cl_p": 96.15384615, "per_main_cl_m": 90.0, "per_main_cl_f": 10.0, "main_al_p": 0, "main_al_m": 0, "main_al_f": 0, "per_main_al_p": 0.0, "per_main_al_m": 0.0, "per_main_al_f": 0.0, "main_hh_p": 0, "main_hh_m": 0, "main_hh_f": 0, "per_main_hh_p": 0.0, "per_main_hh_m": 0.0, "per_main_hh_f": 0.0, "main_ot_p": 2, "main_ot_m": 2, "main_ot_f": 0, "per_main_ot_p": 3.84615385, "per_main_ot_m": 100.0, "per_main_ot_f": 0.0, "margwork_p": 75, "margwork_m": 7, "margwork_f": 68, "per_margwork_p": 27.27272727, "per_margwork_m": 9.33333333, "per_margwork_f": 90.66666667, "marg_cl_p": 75, "marg_cl_m": 7, "marg_cl_f": 68, "per_marg_cl_p": 100.0, "per_marg_cl_m": 9.33333333, "per_marg_cl_f": 90.66666667, "marg_al_p": 0, "marg_al_m": 0, "marg_al_f": 0, "per_marg_al_p": 0.0, "per_marg_al_m": 0.0, "per_marg_al_f": 0.0, "marg_hh_p": 0, "marg_hh_m": 0, "marg_hh_f": 0, "per_marg_hh_p": 0.0, "per_marg_hh_m": 0.0, "per_marg_hh_f": 0.0, "marg_ot_p": 0, "marg_ot_m": 0, "marg_ot_f": 0, "per_marg_ot_p": 0.0, "per_marg_ot_m": 0.0, "per_marg_ot_f": 0.0, "margwork_3_6_p": 68, "margwork_3_6_m": 5, "margwork_3_6_f": 63, "per_margwork_3_6_p": 90.66666667, "per_margwork_3_6_m": 7.35294118, "per_margwork_3_6_f": 92.64705882000001, "marg_cl_3_6_p": 68, "marg_cl_3_6_m": 5, "marg_cl_3_6_f": 63, "per_marg_cl_3_6_p": 90.66666667, "per_marg_cl_3_6_m": 7.35294118, "per_marg_cl_3_6_f": 92.64705882000001, "marg_al_3_6_p": 0, "marg_al_3_6_m": 0, "marg_al_3_6_f": 0, "per_marg_al_3_6_p": 0.0, "per_marg_al_3_6_m": 0.0, "per_marg_al_3_6_f": 0.0, "marg_hh_3_6_p": 0, "marg_hh_3_6_m": 0, "marg_hh_3_6_f": 0, "per_marg_hh_3_6_p": 0.0, "per_marg_hh_3_6_m": 0.0, "per_marg_hh_3_6_f": 0.0, "marg_ot_3_6_p": 0, "marg_ot_3_6_m": 0, "marg_ot_3_6_f": 0, "per_marg_ot_3_6_p": 0.0, "per_marg_ot_3_6_m": 0.0, "per_marg_ot_3_6_f": 0.0, "margwork_0_3_p": 7, "margwork_0_3_m": 2, "margwork_0_3_f": 5, "per_margwork_0_3_p": 9.33333333, "per_margwork_0_3_m": 28.57142857, "per_margwork_0_3_f": 71.42857143, "marg_cl_0_3_p": 7, "marg_cl_0_3_m": 2, "marg_cl_0_3_f": 5, "per_marg_cl_0_3_p": 9.33333333, "per_marg_cl_0_3_m": 28.57142857, "per_marg_cl_0_3_f": 71.42857143, "marg_al_0_3_p": 0, "marg_al_0_3_m": 0, "marg_al_0_3_f": 0, "per_marg_al_0_3_p": 0.0, "per_marg_al_0_3_m": 0.0, "per_marg_al_0_3_f": 0.0, "marg_hh_0_3_p": 0, "marg_hh_0_3_m": 0, "marg_hh_0_3_f": 0, "per_marg_hh_0_3_p": 0.0, "per_marg_hh_0_3_m": 0.0, "per_marg_hh_0_3_f": 0.0, "marg_ot_0_3_p": 0, "marg_ot_0_3_m": 0, "marg_ot_0_3_f": 0, "per_marg_ot_0_3_p": 0.0, "per_marg_ot_0_3_m": 0.0, "per_marg_ot_0_3_f": 0.0, "non_work_p": 148, "non_work_m": 82, "non_work_f": 66, "per_non_work_p": 53.81818182, "per_non_work_m": 55.40540541, "per_non_work_f": 44.59459459, "per_hc_tot_tot": 100, "per_hc_tot_god": 81.1, "per_hc_tot_liv": 18.9, "per_hc_tot_dil": 0.0, "per_hc_res_tot": 100.0, "per_hc_res_god": 81.1, "per_hc_res_liv": 18.9, "per_hc_res_dil": 0.0, "per_hc_oth_tot": 0.0, "per_hc_oth_god": 0.0, "per_hc_oth_liv": 0.0, "per_hc_oth_dil": 0.0, "per_mt_grsbam": 0.0, "per_mt_plastic": 0.0, "per_mt_h_tiles": 0.0, "per_mt_m_tiles": 0.0, "per_mt_b_brick": 0.0, "per_mt_stone": 98.1, "per_mt_asbstos": 0.0, "per_mt_concrte": 1.9, "per_mt_oth": 0.0, "per_mw_grsbam": 0.0, "per_mw_plastic": 0.0, "per_mw_mud": 0.0, "per_mw_wood": 0.0, "per_mw_no_mrtr": 0.0, "per_mw_st_mrtr": 100.0, "per_mw_asbstos": 0.0, "per_mw_b_brick": 0.0, "per_mw_concrte": 0.0, "per_mw_oth": 0.0, "per_mf_mud": 98.1, "per_mf_wood": 0.0, "per_mf_b_brick": 0.0, "per_mf_stone": 0.0, "per_mf_cement": 1.9, "per_mf_fl_tile": 0.0, "per_mf_oth": 0.0, "per_dw_n_exrm": 0.0, "per_dw_1_room": 15.1, "per_dw_2_room": 84.9, "per_dw_3_room": 0.0, "per_dw_4_room": 0.0, "per_dw_5_room": 0.0, "per_dw_6_room": 0.0, "per_hhsize_1": 1.9, "per_hhsize_2": 3.8, "per_hhsize_3": 5.7, "per_hhsize_4": 15.1, "per_hhsize_5": 24.5, "per_hhsize_6_8": 43.4, "per_hhsize_9p": 5.7, "per_ow_owned": 96.2, "per_ow_rented": 0.0, "per_ow_oth": 3.8, "per_mc_none": 7.5, "per_mcouple_1": 90.6, "per_mcouple_2": 1.9, "per_mcouple_3": 0.0, "per_mcouple_4": 0.0, "per_mcouple_5p": 0.0, "per_dw_t_ts": 0.0, "per_dw_t_unts": 96.2, "per_dw_c_well": 0.0, "per_dw_unc_wel": 0.0, "per_dw_hpump": 0.0, "per_dw_tw_bore": 0.0, "per_dw_spring": 0.0, "per_dw_rivcan": 0.0, "per_dw_tank": 0.0, "per_dw_oth": 3.8, "per_loc_dw_wp": 0.0, "per_loc_dw_np": 34.0, "per_loc_dw_aw": 66.0, "per_light_elec": 96.2, "per_light_kero": 3.8, "per_light_solr": 0.0, "per_light_oil": 0.0, "per_light_oth": 0.0, "per_light_no": 0.0, "per_hh_latrine": 24.5, "per_fl_sewer": 0.0, "per_fl_septict": 0.0, "per_fl_othsys": 0.0, "per_pl_wslab": 0.0, "per_pl_without": 24.5, "per_ns_open": 0.0, "per_sl_ns_hum": 0.0, "per_sl_ns_anml": 0.0, "per_hh_no_lat": 75.5, "per_as_pub": 0.0, "per_as_open": 75.5, "per_hh_bathrm": 3.8, "per_hh_en_wrf": 30.2, "per_hh_no_btrm": 66.0, "per_wwoc_drain": 0.0, "per_wwoc_open": 0.0, "per_wwoc_nodrn": 100.0, "per_cook_fire": 98.1, "per_cook_resdu": 1.9, "per_cook_cwdng": 0.0, "per_cook_coal": 0.0, "per_cook_kero": 0.0, "per_cook_lpng": 0.0, "per_cook_elec": 0.0, "per_cook_biogs": 0.0, "per_cook_oth": 0.0, "per_cook_no": 0.0, "per_kf_inside": 98.1, "per_kf_in_has": 0.0, "per_kf_in_does": 98.1, "per_kf_outside": 1.9, "per_kf_out_has": 0.0, "per_kf_out_dos": 1.9, "per_kf_no_cook": 0.0, "per_hh_banking": 98.1, "per_hh_radio": 92.5, "per_hh_tv": 0.0, "per_hh_cmp_int": 0.0, "per_hh_cmp_wnt": 15.1, "per_hh_ph_ll": 0.0, "per_hh_ph_mob": 92.5, "per_hh_ph_bth": 5.7, "per_hh_bcycl": 0.0, "per_hh_2wheel": 0.0, "per_hh_4wheel": 0.0, "per_hh_tvcomp": null, "per_hh_no_ast": 1.9, "per_hs_perma": 100.0, "per_hs_sperma": 0.0, "per_hs_temp": 0.0, "per_hs_servc": 0.0, "per_hs_nservc": 0.0, "per_hs_unclss": 0.0, "avghhsz_cy": 5.5, "st_areashape": 976613.958067405, "st_lengthshape": 4600.372941691652}, "geometry": {"type": "Polygon", "coordinates": [[[79.77720972683981, 29.295065556106387], [79.77669926636617, 29.29429391203002], [79.77670990062246, 29.29376180184502], [79.77759882132534, 29.291859254024025], [79.777988904856, 29.2905877720818], [79.77862199165416, 29.28932001462142], [79.7828105348884, 29.290222750215722], [79.78803465508385, 29.291464555375757], [79.79148538772071, 29.291971925063596], [79.79357663066787, 29.29256759180485], [79.79305297394265, 29.293821242281048], [79.79232269931221, 29.29459265019794], [79.79097478171997, 29.294963349645133], [79.78883054176436, 29.29493057868775], [79.78667697190615, 29.295367179735205], [79.78523657006048, 29.295892927981544], [79.78326788875911, 29.296019285684487], [79.78246692300401, 29.295850504743584], [79.78202800885116, 29.295452491951345], [79.78141820997841, 29.29466058727722], [79.7800780708982, 29.294640036231236], [79.77837117484032, 29.295083386994722], [79.77720972683981, 29.295065556106387]]]}}]}