{"type": "FeatureCollection", "features": [{"type": "Feature", "properties": {"premiumdata.sde.IN_Village_PCA.area": 18.49499255, "objectid": 80908, "id": "295307073104173", "name": "Bhantnur", "subdistrict": "Talikoti", "district": "Vijayapura", "state": "Karnataka", "country": "India", "censusname": "Bhantnur", "villagename_locallang": null, "lgd_villagename": "Bhantnur", "lgd_villagecode": 599692, "lgd_subdistrictcode": 7073, "lgd_districtcode": 530, "lgd_statecode": 29, "censuscode2001": "00254600", "censuscode2011": "599692", "censuscode2021": null, "level": "Village", "tru": "Rural", "no_hh": 519, "tot_p": 2789, "tot_m": 1395, "tot_f": 1394, "per_tot_m": 50.01792757, "per_tot_f": 49.98207243, "p_06": 384, "m_06": 206, "f_06": 178, "per_p_06": 13.76837576, "per_m_06": 53.64583333, "per_f_06": 46.35416667000001, "p_sc": 525, "m_sc": 274, "f_sc": 251, "per_p_sc": 18.82395124, "per_m_sc": 52.19047619, "per_f_sc": 47.80952381, "p_st": 128, "m_st": 63, "f_st": 65, "per_p_st": 4.58945859, "per_m_st": 49.21875, "per_f_st": 50.78125, "p_lit": 1414, "m_lit": 849, "f_lit": 565, "per_p_lit": 50.69917533, "per_m_lit": 60.04243281, "per_f_lit": 39.95756719000001, "p_ill": 1375, "m_ill": 546, "f_ill": 829, "per_p_ill": 49.30082467, "per_m_ill": 39.70909091, "per_f_ill": 60.29090909, "tot_work_p": 1098, "tot_work_m": 687, "tot_work_f": 411, "per_tot_work_p": 39.36894944, "per_tot_work_m": 62.56830601, "per_tot_work_f": 37.43169399000001, "mainwork_p": 855, "mainwork_m": 631, "mainwork_f": 224, "per_mainwork_p": 30.65614916, "per_mainwork_m": 73.80116959, "per_mainwork_f": 26.19883041, "main_cl_p": 243, "main_cl_m": 238, "main_cl_f": 5, "per_main_cl_p": 28.42105263, "per_main_cl_m": 97.94238683, "per_main_cl_f": 2.05761317, "main_al_p": 445, "main_al_m": 256, "main_al_f": 189, "per_main_al_p": 52.04678363, "per_main_al_m": 57.52808989, "per_main_al_f": 42.47191011, "main_hh_p": 20, "main_hh_m": 13, "main_hh_f": 7, "per_main_hh_p": 2.33918129, "per_main_hh_m": 65.0, "per_main_hh_f": 35.0, "main_ot_p": 147, "main_ot_m": 124, "main_ot_f": 23, "per_main_ot_p": 17.19298246, "per_main_ot_m": 84.3537415, "per_main_ot_f": 15.6462585, "margwork_p": 243, "margwork_m": 56, "margwork_f": 187, "per_margwork_p": 8.71280029, "per_margwork_m": 23.04526749, "per_margwork_f": 76.95473251, "marg_cl_p": 13, "marg_cl_m": 8, "marg_cl_f": 5, "per_marg_cl_p": 5.34979424, "per_marg_cl_m": 61.53846154, "per_marg_cl_f": 38.46153846, "marg_al_p": 73, "marg_al_m": 17, "marg_al_f": 56, "per_marg_al_p": 30.04115226, "per_marg_al_m": 23.28767123, "per_marg_al_f": 76.71232877, "marg_hh_p": 111, "marg_hh_m": 13, "marg_hh_f": 98, "per_marg_hh_p": 45.67901235, "per_marg_hh_m": 11.71171171, "per_marg_hh_f": 88.28828829, "marg_ot_p": 46, "marg_ot_m": 18, "marg_ot_f": 28, "per_marg_ot_p": 18.93004115, "per_marg_ot_m": 39.13043478, "per_marg_ot_f": 60.86956522000001, "margwork_3_6_p": 201, "margwork_3_6_m": 48, "margwork_3_6_f": 153, "per_margwork_3_6_p": 82.71604937999999, "per_margwork_3_6_m": 23.88059701, "per_margwork_3_6_f": 76.11940299, "marg_cl_3_6_p": 13, "marg_cl_3_6_m": 8, "marg_cl_3_6_f": 5, "per_marg_cl_3_6_p": 5.34979424, "per_marg_cl_3_6_m": 61.53846154, "per_marg_cl_3_6_f": 38.46153846, "marg_al_3_6_p": 61, "marg_al_3_6_m": 15, "marg_al_3_6_f": 46, "per_marg_al_3_6_p": 25.10288066, "per_marg_al_3_6_m": 24.59016393, "per_marg_al_3_6_f": 75.40983607, "marg_hh_3_6_p": 102, "marg_hh_3_6_m": 11, "marg_hh_3_6_f": 91, "per_marg_hh_3_6_p": 41.97530864, "per_marg_hh_3_6_m": 10.78431373, "per_marg_hh_3_6_f": 89.21568627, "marg_ot_3_6_p": 25, "marg_ot_3_6_m": 14, "marg_ot_3_6_f": 11, "per_marg_ot_3_6_p": 10.28806584, "per_marg_ot_3_6_m": 56.0, "per_marg_ot_3_6_f": 44.0, "margwork_0_3_p": 42, "margwork_0_3_m": 8, "margwork_0_3_f": 34, "per_margwork_0_3_p": 17.28395062, "per_margwork_0_3_m": 19.04761905, "per_margwork_0_3_f": 80.95238095, "marg_cl_0_3_p": 0, "marg_cl_0_3_m": 0, "marg_cl_0_3_f": 0, "per_marg_cl_0_3_p": 0.0, "per_marg_cl_0_3_m": 0.0, "per_marg_cl_0_3_f": 0.0, "marg_al_0_3_p": 12, "marg_al_0_3_m": 2, "marg_al_0_3_f": 10, "per_marg_al_0_3_p": 4.9382716, "per_marg_al_0_3_m": 16.66666667, "per_marg_al_0_3_f": 83.33333332999999, "marg_hh_0_3_p": 9, "marg_hh_0_3_m": 2, "marg_hh_0_3_f": 7, "per_marg_hh_0_3_p": 3.7037037, "per_marg_hh_0_3_m": 22.22222222, "per_marg_hh_0_3_f": 77.77777778, "marg_ot_0_3_p": 21, "marg_ot_0_3_m": 4, "marg_ot_0_3_f": 17, "per_marg_ot_0_3_p": 8.64197531, "per_marg_ot_0_3_m": 19.04761905, "per_marg_ot_0_3_f": 80.95238095, "non_work_p": 1691, "non_work_m": 708, "non_work_f": 983, "per_non_work_p": 60.63105056, "per_non_work_m": 41.86871674, "per_non_work_f": 58.13128326, "per_hc_tot_tot": 100, "per_hc_tot_god": 78.1, "per_hc_tot_liv": 19.8, "per_hc_tot_dil": 2.2, "per_hc_res_tot": 99.6, "per_hc_res_god": 77.7, "per_hc_res_liv": 19.8, "per_hc_res_dil": 2.2, "per_hc_oth_tot": 0.4, "per_hc_oth_god": 0.4, "per_hc_oth_liv": 0.0, "per_hc_oth_dil": 0.0, "per_mt_grsbam": 64.8, "per_mt_plastic": 1.6, "per_mt_h_tiles": 0.0, "per_mt_m_tiles": 1.2, "per_mt_b_brick": 0.4, "per_mt_stone": 23.9, "per_mt_asbstos": 2.8, "per_mt_concrte": 3.8, "per_mt_oth": 1.6, "per_mw_grsbam": 17.2, "per_mw_plastic": 0.0, "per_mw_mud": 7.1, "per_mw_wood": 6.1, "per_mw_no_mrtr": 21.5, "per_mw_st_mrtr": 47.2, "per_mw_asbstos": 0.0, "per_mw_b_brick": 0.0, "per_mw_concrte": 0.6, "per_mw_oth": 0.2, "per_mf_mud": 10.1, "per_mf_wood": 0.6, "per_mf_b_brick": 0.2, "per_mf_stone": 86.6, "per_mf_cement": 1.6, "per_mf_fl_tile": 0.4, "per_mf_oth": 0.6, "per_dw_n_exrm": 1.8, "per_dw_1_room": 46.6, "per_dw_2_room": 34.2, "per_dw_3_room": 9.7, "per_dw_4_room": 4.7, "per_dw_5_room": 1.4, "per_dw_6_room": 1.6, "per_hhsize_1": 2.6, "per_hhsize_2": 5.3, "per_hhsize_3": 9.5, "per_hhsize_4": 20.8, "per_hhsize_5": 20.4, "per_hhsize_6_8": 33.2, "per_hhsize_9p": 8.3, "per_ow_owned": 95.5, "per_ow_rented": 3.0, "per_ow_oth": 1.6, "per_mc_none": 6.7, "per_mcouple_1": 63.6, "per_mcouple_2": 21.9, "per_mcouple_3": 5.7, "per_mcouple_4": 1.6, "per_mcouple_5p": 0.4, "per_dw_t_ts": 16.4, "per_dw_t_unts": 4.7, "per_dw_c_well": 0.6, "per_dw_unc_wel": 70.6, "per_dw_hpump": 6.5, "per_dw_tw_bore": 0.0, "per_dw_spring": 0.0, "per_dw_rivcan": 0.0, "per_dw_tank": 0.0, "per_dw_oth": 1.2, "per_loc_dw_wp": 5.5, "per_loc_dw_np": 21.7, "per_loc_dw_aw": 72.7, "per_light_elec": 83.0, "per_light_kero": 17.0, "per_light_solr": 0.0, "per_light_oil": 0.0, "per_light_oth": 0.0, "per_light_no": 0.0, "per_hh_latrine": 0.4, "per_fl_sewer": 0.0, "per_fl_septict": 0.2, "per_fl_othsys": 0.0, "per_pl_wslab": 0.2, "per_pl_without": 0.0, "per_ns_open": 0.0, "per_sl_ns_hum": 0.0, "per_sl_ns_anml": 0.0, "per_hh_no_lat": 99.6, "per_as_pub": 16.4, "per_as_open": 83.2, "per_hh_bathrm": 92.1, "per_hh_en_wrf": 2.4, "per_hh_no_btrm": 5.5, "per_wwoc_drain": 8.5, "per_wwoc_open": 0.8, "per_wwoc_nodrn": 90.7, "per_cook_fire": 99.0, "per_cook_resdu": 0.4, "per_cook_cwdng": 0.2, "per_cook_coal": 0.0, "per_cook_kero": 0.0, "per_cook_lpng": 0.4, "per_cook_elec": 0.0, "per_cook_biogs": 0.0, "per_cook_oth": 0.0, "per_cook_no": 0.0, "per_kf_inside": 98.2, "per_kf_in_has": 96.6, "per_kf_in_does": 1.6, "per_kf_outside": 1.8, "per_kf_out_has": 0.6, "per_kf_out_dos": 1.2, "per_kf_no_cook": 0.0, "per_hh_banking": 62.5, "per_hh_radio": 6.5, "per_hh_tv": 28.7, "per_hh_cmp_int": 0.0, "per_hh_cmp_wnt": 7.9, "per_hh_ph_ll": 6.5, "per_hh_ph_mob": 41.1, "per_hh_ph_bth": 5.7, "per_hh_bcycl": 16.8, "per_hh_2wheel": 9.1, "per_hh_4wheel": 4.2, "per_hh_tvcomp": 0.4, "per_hh_no_ast": 29.8, "per_hs_perma": 27.7, "per_hs_sperma": 44.5, "per_hs_temp": 26.1, "per_hs_servc": 8.9, "per_hs_nservc": 17.2, "per_hs_unclss": 1.8, "avghhsz_cy": 5.37379576, "st_areashape": 20244226.901712324, "st_lengthshape": 18233.719007105065}, "geometry": {"type": "Polygon", "coordinates": [[[76.35779600074864, 16.583413999671894], [76.35745199989374, 16.581705000163645], [76.3575129999931, 16.580178999936102], [76.35783400038349, 16.576413999587093], [76.35765100008537, 16.573472999870543], [76.3569410004309, 16.57043800032111], [76.35572100024017, 16.567517999173788], [76.35513299988608, 16.56498899979934], [76.35429400036018, 16.56073999962346], [76.35327100071126, 16.557409000123414], [76.35282899994708, 16.55642099972727], [76.35050999993943, 16.555351000087047], [76.3480000001361, 16.55468899976556], [76.34756499994289, 16.554613000100847], [76.34740400028443, 16.551756000271606], [76.3478390004776, 16.548699999836685], [76.34840400036713, 16.54645300061556], [76.34938800055632, 16.54450399926164], [76.35006700024864, 16.542661999754074], [76.35047100047967, 16.541557000346145], [76.3551100012182, 16.541758999763836], [76.3616790009036, 16.5420630004242], [76.36934700040592, 16.541910000806062], [76.37659500068196, 16.542744000190375], [76.38250000074366, 16.543169000150048], [76.38518500044918, 16.543658999691033], [76.38649700070141, 16.543829000014224], [76.38808400041496, 16.54403699996267], [76.38943500012694, 16.54455400041956], [76.39011400071759, 16.545083999840834], [76.39069400067572, 16.5458339998152], [76.39106800076955, 16.54745699987032], [76.39271499985924, 16.55077400029431], [76.39510300036216, 16.556818000299913], [76.3958660006184, 16.559442999461847], [76.39382900064305, 16.55912800034826], [76.3935090009759, 16.559676999380297], [76.393761000871, 16.560760000125878], [76.3942410003717, 16.562164000415144], [76.39426400083626, 16.562816999554247], [76.39408100053815, 16.56423600045766], [76.3936840008781, 16.565982999816526], [76.39329499981736, 16.56805799989791], [76.39287600041602, 16.569046000026724], [76.39222699996257, 16.56971200035418], [76.39157100073477, 16.57026899985215], [76.39138000093908, 16.571251000351065], [76.3914180005739, 16.57288199939437], [76.39153300020162, 16.57701300062688], [76.39114400093752, 16.579197000210556], [76.39102900041146, 16.580563999649964], [76.39020500005586, 16.580580000643376], [76.38792400058136, 16.581187999524854], [76.38487999995233, 16.58180999995544], [76.3801189999134, 16.582655000088966], [76.37703700054783, 16.582904999289752], [76.3740079999874, 16.58315099990815], [76.36941500017798, 16.583055000376188], [76.36291500008953, 16.583184999730886], [76.35832200028011, 16.583279000070508], [76.35779600074864, 16.583413999671894]]]}}]}