{"type": "FeatureCollection", "features": [{"type": "Feature", "properties": {"premiumdata.sde.IN_Village_PCA.area": 2.55656928, "objectid": 631497, "id": "182832147224656", "name": "Punia", "subdistrict": "Sipajhar", "district": "Darrang", "state": "Assam", "country": "India", "censusname": "Punia", "villagename_locallang": null, "lgd_villagename": "Punia", "lgd_villagecode": 304962, "lgd_subdistrictcode": 2147, "lgd_districtcode": 283, "lgd_statecode": 18, "censuscode2001": "00782500", "censuscode2011": "304962", "censuscode2021": null, "level": "Village", "tru": "Rural", "no_hh": 179, "tot_p": 866, "tot_m": 462, "tot_f": 404, "per_tot_m": 53.34872979, "per_tot_f": 46.65127021, "p_06": 99, "m_06": 56, "f_06": 43, "per_p_06": 11.43187067, "per_m_06": 56.56565657, "per_f_06": 43.43434343, "p_sc": 0, "m_sc": 0, "f_sc": 0, "per_p_sc": 0.0, "per_m_sc": 0.0, "per_f_sc": 0.0, "p_st": 0, "m_st": 0, "f_st": 0, "per_p_st": 0.0, "per_m_st": 0.0, "per_f_st": 0.0, "p_lit": 638, "m_lit": 357, "f_lit": 281, "per_p_lit": 73.67205543, "per_m_lit": 55.95611285, "per_f_lit": 44.04388715, "p_ill": 228, "m_ill": 105, "f_ill": 123, "per_p_ill": 26.32794457, "per_m_ill": 46.05263158, "per_f_ill": 53.94736842, "tot_work_p": 323, "tot_work_m": 265, "tot_work_f": 58, "per_tot_work_p": 37.29792148, "per_tot_work_m": 82.04334365, "per_tot_work_f": 17.95665635, "mainwork_p": 281, "mainwork_m": 240, "mainwork_f": 41, "per_mainwork_p": 32.44803695, "per_mainwork_m": 85.40925267, "per_mainwork_f": 14.59074733, "main_cl_p": 147, "main_cl_m": 139, "main_cl_f": 8, "per_main_cl_p": 52.31316726, "per_main_cl_m": 94.55782313, "per_main_cl_f": 5.44217687, "main_al_p": 5, "main_al_m": 3, "main_al_f": 2, "per_main_al_p": 1.77935943, "per_main_al_m": 60.0, "per_main_al_f": 40.0, "main_hh_p": 7, "main_hh_m": 3, "main_hh_f": 4, "per_main_hh_p": 2.4911032, "per_main_hh_m": 42.85714286, "per_main_hh_f": 57.14285714, "main_ot_p": 122, "main_ot_m": 95, "main_ot_f": 27, "per_main_ot_p": 43.41637011, "per_main_ot_m": 77.86885246, "per_main_ot_f": 22.13114754, "margwork_p": 42, "margwork_m": 25, "margwork_f": 17, "per_margwork_p": 4.84988453, "per_margwork_m": 59.52380952, "per_margwork_f": 40.47619048, "marg_cl_p": 8, "marg_cl_m": 5, "marg_cl_f": 3, "per_marg_cl_p": 19.04761905, "per_marg_cl_m": 62.5, "per_marg_cl_f": 37.5, "marg_al_p": 3, "marg_al_m": 1, "marg_al_f": 2, "per_marg_al_p": 7.14285714, "per_marg_al_m": 33.33333333, "per_marg_al_f": 66.66666667, "marg_hh_p": 11, "marg_hh_m": 4, "marg_hh_f": 7, "per_marg_hh_p": 26.19047619, "per_marg_hh_m": 36.36363636, "per_marg_hh_f": 63.63636364, "marg_ot_p": 20, "marg_ot_m": 15, "marg_ot_f": 5, "per_marg_ot_p": 47.61904762, "per_marg_ot_m": 75.0, "per_marg_ot_f": 25.0, "margwork_3_6_p": 26, "margwork_3_6_m": 18, "margwork_3_6_f": 8, "per_margwork_3_6_p": 61.9047619, "per_margwork_3_6_m": 69.23076923, "per_margwork_3_6_f": 30.76923077, "marg_cl_3_6_p": 5, "marg_cl_3_6_m": 4, "marg_cl_3_6_f": 1, "per_marg_cl_3_6_p": 11.9047619, "per_marg_cl_3_6_m": 80.0, "per_marg_cl_3_6_f": 20.0, "marg_al_3_6_p": 2, "marg_al_3_6_m": 1, "marg_al_3_6_f": 1, "per_marg_al_3_6_p": 4.76190476, "per_marg_al_3_6_m": 50.0, "per_marg_al_3_6_f": 50.0, "marg_hh_3_6_p": 5, "marg_hh_3_6_m": 1, "marg_hh_3_6_f": 4, "per_marg_hh_3_6_p": 11.9047619, "per_marg_hh_3_6_m": 20.0, "per_marg_hh_3_6_f": 80.0, "marg_ot_3_6_p": 14, "marg_ot_3_6_m": 12, "marg_ot_3_6_f": 2, "per_marg_ot_3_6_p": 33.33333333, "per_marg_ot_3_6_m": 85.71428571, "per_marg_ot_3_6_f": 14.28571429, "margwork_0_3_p": 16, "margwork_0_3_m": 7, "margwork_0_3_f": 9, "per_margwork_0_3_p": 38.0952381, "per_margwork_0_3_m": 43.75, "per_margwork_0_3_f": 56.25, "marg_cl_0_3_p": 3, "marg_cl_0_3_m": 1, "marg_cl_0_3_f": 2, "per_marg_cl_0_3_p": 7.14285714, "per_marg_cl_0_3_m": 33.33333333, "per_marg_cl_0_3_f": 66.66666667, "marg_al_0_3_p": 1, "marg_al_0_3_m": 0, "marg_al_0_3_f": 1, "per_marg_al_0_3_p": 2.38095238, "per_marg_al_0_3_m": 0.0, "per_marg_al_0_3_f": 100.0, "marg_hh_0_3_p": 6, "marg_hh_0_3_m": 3, "marg_hh_0_3_f": 3, "per_marg_hh_0_3_p": 14.28571429, "per_marg_hh_0_3_m": 50.0, "per_marg_hh_0_3_f": 50.0, "marg_ot_0_3_p": 6, "marg_ot_0_3_m": 3, "marg_ot_0_3_f": 3, "per_marg_ot_0_3_p": 14.28571429, "per_marg_ot_0_3_m": 50.0, "per_marg_ot_0_3_f": 50.0, "non_work_p": 543, "non_work_m": 197, "non_work_f": 346, "per_non_work_p": 62.70207852, "per_non_work_m": 36.27992634, "per_non_work_f": 63.72007366, "per_hc_tot_tot": 100, "per_hc_tot_god": 28.2, "per_hc_tot_liv": 71.8, "per_hc_tot_dil": 0.0, "per_hc_res_tot": 99.4, "per_hc_res_god": 27.7, "per_hc_res_liv": 71.8, "per_hc_res_dil": 0.0, "per_hc_oth_tot": 0.6, "per_hc_oth_god": 0.6, "per_hc_oth_liv": 0.0, "per_hc_oth_dil": 0.0, "per_mt_grsbam": 32.2, "per_mt_plastic": 0.0, "per_mt_h_tiles": 0.0, "per_mt_m_tiles": 0.0, "per_mt_b_brick": 0.0, "per_mt_stone": 0.6, "per_mt_asbstos": 67.2, "per_mt_concrte": 0.0, "per_mt_oth": 0.0, "per_mw_grsbam": 71.8, "per_mw_plastic": 0.0, "per_mw_mud": 0.0, "per_mw_wood": 0.6, "per_mw_no_mrtr": 0.0, "per_mw_st_mrtr": 0.0, "per_mw_asbstos": 0.0, "per_mw_b_brick": 26.6, "per_mw_concrte": 1.1, "per_mw_oth": 0.0, "per_mf_mud": 80.8, "per_mf_wood": 0.0, "per_mf_b_brick": 0.0, "per_mf_stone": 0.0, "per_mf_cement": 19.2, "per_mf_fl_tile": 0.0, "per_mf_oth": 0.0, "per_dw_n_exrm": 4.5, "per_dw_1_room": 56.5, "per_dw_2_room": 29.9, "per_dw_3_room": 6.2, "per_dw_4_room": 2.3, "per_dw_5_room": 0.6, "per_dw_6_room": 0.0, "per_hhsize_1": 2.8, "per_hhsize_2": 2.3, "per_hhsize_3": 11.3, "per_hhsize_4": 28.2, "per_hhsize_5": 26.0, "per_hhsize_6_8": 22.0, "per_hhsize_9p": 7.3, "per_ow_owned": 99.4, "per_ow_rented": 0.6, "per_ow_oth": 0.0, "per_mc_none": 10.7, "per_mcouple_1": 72.3, "per_mcouple_2": 13.0, "per_mcouple_3": 3.4, "per_mcouple_4": 0.6, "per_mcouple_5p": 0.0, "per_dw_t_ts": 0.6, "per_dw_t_unts": 0.0, "per_dw_c_well": 0.0, "per_dw_unc_wel": 0.0, "per_dw_hpump": 97.7, "per_dw_tw_bore": 0.0, "per_dw_spring": 0.0, "per_dw_rivcan": 1.1, "per_dw_tank": 0.6, "per_dw_oth": 0.0, "per_loc_dw_wp": 83.6, "per_loc_dw_np": 5.6, "per_loc_dw_aw": 10.7, "per_light_elec": 40.1, "per_light_kero": 59.3, "per_light_solr": 0.6, "per_light_oil": 0.0, "per_light_oth": 0.0, "per_light_no": 0.0, "per_hh_latrine": 36.2, "per_fl_sewer": 0.0, "per_fl_septict": 18.6, "per_fl_othsys": 10.7, "per_pl_wslab": 2.3, "per_pl_without": 1.7, "per_ns_open": 2.8, "per_sl_ns_hum": 0.0, "per_sl_ns_anml": 0.0, "per_hh_no_lat": 63.8, "per_as_pub": 0.0, "per_as_open": 63.8, "per_hh_bathrm": 21.5, "per_hh_en_wrf": 1.7, "per_hh_no_btrm": 76.8, "per_wwoc_drain": 1.7, "per_wwoc_open": 0.0, "per_wwoc_nodrn": 98.3, "per_cook_fire": 94.9, "per_cook_resdu": 0.6, "per_cook_cwdng": 0.0, "per_cook_coal": 0.0, "per_cook_kero": 0.0, "per_cook_lpng": 4.5, "per_cook_elec": 0.0, "per_cook_biogs": 0.0, "per_cook_oth": 0.0, "per_cook_no": 0.0, "per_kf_inside": 92.7, "per_kf_in_has": 91.0, "per_kf_in_does": 1.7, "per_kf_outside": 7.3, "per_kf_out_has": 0.6, "per_kf_out_dos": 6.8, "per_kf_no_cook": 0.0, "per_hh_banking": 61.6, "per_hh_radio": 40.7, "per_hh_tv": 22.0, "per_hh_cmp_int": 0.0, "per_hh_cmp_wnt": 21.5, "per_hh_ph_ll": 0.6, "per_hh_ph_mob": 63.8, "per_hh_ph_bth": 0.0, "per_hh_bcycl": 81.9, "per_hh_2wheel": 13.6, "per_hh_4wheel": 1.7, "per_hh_tvcomp": 1.7, "per_hh_no_ast": 7.3, "per_hs_perma": 27.7, "per_hs_sperma": 40.1, "per_hs_temp": 32.2, "per_hs_servc": 0.6, "per_hs_nservc": 31.6, "per_hs_unclss": 0.0, "avghhsz_cy": 4.83798883, "st_areashape": 3197982.17323652, "st_lengthshape": 7951.020703726698}, "geometry": {"type": "Polygon", "coordinates": [[[91.8817381773187, 26.364961538963488], [91.88160917385399, 26.365140170518245], [91.88189438985503, 26.367312309006568], [91.8843187227196, 26.368845559036632], [91.88531697827403, 26.3721675312599], [91.88588740937779, 26.37446730125516], [91.88674305648253, 26.378044631254166], [91.88674305648253, 26.380344285079182], [91.87576225257038, 26.37906670554048], [91.87291009615342, 26.37906670554048], [91.87105619439257, 26.377405830937715], [91.87039663334464, 26.37649263001867], [91.87091358684121, 26.374850591938635], [91.87105619439257, 26.370378788727212], [91.86991533128678, 26.367312309006568], [91.86816660338106, 26.366702996710725], [91.86905968508033, 26.35990131489746], [91.87205444904866, 26.36105132804831], [91.87447878281156, 26.364245748736163], [91.87818658633329, 26.364629073319442], [91.8817381773187, 26.364961538963488]]]}}]}