{"type": "FeatureCollection", "features": [{"type": "Feature", "properties": {"premiumdata.sde.IN_Village_PCA.area": 21.00146583, "objectid": 65311, "id": "274694139626802", "name": "Shivrai", "subdistrict": "Vaijapur", "district": "Aurangabad", "state": "Maharashtra", "country": "India", "censusname": "Shivrai", "villagename_locallang": "\u0936\u093f\u0935\u0930\u093e\u0908", "lgd_villagename": "Shivrai", "lgd_villagecode": 549114, "lgd_subdistrictcode": 4139, "lgd_districtcode": 469, "lgd_statecode": 27, "censuscode2001": "02402700", "censuscode2011": "549114", "censuscode2021": null, "level": "Village", "tru": "Rural", "no_hh": 830, "tot_p": 3964, "tot_m": 2046, "tot_f": 1918, "per_tot_m": 51.61453078, "per_tot_f": 48.38546922, "p_06": 524, "m_06": 281, "f_06": 243, "per_p_06": 13.21897074, "per_m_06": 53.6259542, "per_f_06": 46.3740458, "p_sc": 436, "m_sc": 216, "f_sc": 220, "per_p_sc": 10.99899092, "per_m_sc": 49.5412844, "per_f_sc": 50.4587156, "p_st": 89, "m_st": 44, "f_st": 45, "per_p_st": 2.24520686, "per_m_st": 49.43820225, "per_f_st": 50.56179775, "p_lit": 2683, "m_lit": 1524, "f_lit": 1159, "per_p_lit": 67.68415742, "per_m_lit": 56.80208722, "per_f_lit": 43.19791278, "p_ill": 1281, "m_ill": 522, "f_ill": 759, "per_p_ill": 32.31584258, "per_m_ill": 40.74941452, "per_f_ill": 59.25058548000001, "tot_work_p": 2194, "tot_work_m": 1188, "tot_work_f": 1006, "per_tot_work_p": 55.3481332, "per_tot_work_m": 54.14767548, "per_tot_work_f": 45.85232452, "mainwork_p": 1927, "mainwork_m": 1152, "mainwork_f": 775, "per_mainwork_p": 48.61251261, "per_mainwork_m": 59.78204463, "per_mainwork_f": 40.21795537, "main_cl_p": 1514, "main_cl_m": 929, "main_cl_f": 585, "per_main_cl_p": 78.56772185, "per_main_cl_m": 61.36063408, "per_main_cl_f": 38.63936592, "main_al_p": 309, "main_al_m": 139, "main_al_f": 170, "per_main_al_p": 16.03528801, "per_main_al_m": 44.98381877, "per_main_al_f": 55.01618123, "main_hh_p": 2, "main_hh_m": 1, "main_hh_f": 1, "per_main_hh_p": 0.10378827, "per_main_hh_m": 50.0, "per_main_hh_f": 50.0, "main_ot_p": 102, "main_ot_m": 83, "main_ot_f": 19, "per_main_ot_p": 5.29320187, "per_main_ot_m": 81.37254902000001, "per_main_ot_f": 18.62745098, "margwork_p": 267, "margwork_m": 36, "margwork_f": 231, "per_margwork_p": 6.73562059, "per_margwork_m": 13.48314607, "per_margwork_f": 86.51685393000001, "marg_cl_p": 155, "marg_cl_m": 23, "marg_cl_f": 132, "per_marg_cl_p": 58.05243446, "per_marg_cl_m": 14.83870968, "per_marg_cl_f": 85.16129032, "marg_al_p": 92, "marg_al_m": 3, "marg_al_f": 89, "per_marg_al_p": 34.45692884, "per_marg_al_m": 3.26086957, "per_marg_al_f": 96.73913042999999, "marg_hh_p": 6, "marg_hh_m": 0, "marg_hh_f": 6, "per_marg_hh_p": 2.24719101, "per_marg_hh_m": 0.0, "per_marg_hh_f": 100.0, "marg_ot_p": 14, "marg_ot_m": 10, "marg_ot_f": 4, "per_marg_ot_p": 5.24344569, "per_marg_ot_m": 71.42857143, "per_marg_ot_f": 28.57142857, "margwork_3_6_p": 242, "margwork_3_6_m": 27, "margwork_3_6_f": 215, "per_margwork_3_6_p": 90.63670412, "per_margwork_3_6_m": 11.15702479, "per_margwork_3_6_f": 88.84297521, "marg_cl_3_6_p": 141, "marg_cl_3_6_m": 15, "marg_cl_3_6_f": 126, "per_marg_cl_3_6_p": 52.80898876, "per_marg_cl_3_6_m": 10.63829787, "per_marg_cl_3_6_f": 89.36170213, "marg_al_3_6_p": 82, "marg_al_3_6_m": 3, "marg_al_3_6_f": 79, "per_marg_al_3_6_p": 30.71161049, "per_marg_al_3_6_m": 3.65853659, "per_marg_al_3_6_f": 96.34146340999999, "marg_hh_3_6_p": 6, "marg_hh_3_6_m": 0, "marg_hh_3_6_f": 6, "per_marg_hh_3_6_p": 2.24719101, "per_marg_hh_3_6_m": 0.0, "per_marg_hh_3_6_f": 100.0, "marg_ot_3_6_p": 13, "marg_ot_3_6_m": 9, "marg_ot_3_6_f": 4, "per_marg_ot_3_6_p": 4.86891386, "per_marg_ot_3_6_m": 69.23076923, "per_marg_ot_3_6_f": 30.76923077, "margwork_0_3_p": 25, "margwork_0_3_m": 9, "margwork_0_3_f": 16, "per_margwork_0_3_p": 9.36329588, "per_margwork_0_3_m": 36.0, "per_margwork_0_3_f": 64.0, "marg_cl_0_3_p": 14, "marg_cl_0_3_m": 8, "marg_cl_0_3_f": 6, "per_marg_cl_0_3_p": 5.24344569, "per_marg_cl_0_3_m": 57.14285714, "per_marg_cl_0_3_f": 42.85714286, "marg_al_0_3_p": 10, "marg_al_0_3_m": 0, "marg_al_0_3_f": 10, "per_marg_al_0_3_p": 3.74531835, "per_marg_al_0_3_m": 0.0, "per_marg_al_0_3_f": 100.0, "marg_hh_0_3_p": 0, "marg_hh_0_3_m": 0, "marg_hh_0_3_f": 0, "per_marg_hh_0_3_p": 0.0, "per_marg_hh_0_3_m": 0.0, "per_marg_hh_0_3_f": 0.0, "marg_ot_0_3_p": 1, "marg_ot_0_3_m": 1, "marg_ot_0_3_f": 0, "per_marg_ot_0_3_p": 0.37453184, "per_marg_ot_0_3_m": 100.0, "per_marg_ot_0_3_f": 0.0, "non_work_p": 1770, "non_work_m": 858, "non_work_f": 912, "per_non_work_p": 44.6518668, "per_non_work_m": 48.47457627, "per_non_work_f": 51.52542373, "per_hc_tot_tot": 100, "per_hc_tot_god": 53.0, "per_hc_tot_liv": 38.4, "per_hc_tot_dil": 8.6, "per_hc_res_tot": 98.5, "per_hc_res_god": 52.3, "per_hc_res_liv": 37.8, "per_hc_res_dil": 8.5, "per_hc_oth_tot": 1.5, "per_hc_oth_god": 0.7, "per_hc_oth_liv": 0.6, "per_hc_oth_dil": 0.1, "per_mt_grsbam": 24.9, "per_mt_plastic": 0.4, "per_mt_h_tiles": 3.0, "per_mt_m_tiles": 1.2, "per_mt_b_brick": 0.5, "per_mt_stone": 5.0, "per_mt_asbstos": 46.6, "per_mt_concrte": 18.0, "per_mt_oth": 0.4, "per_mw_grsbam": 6.4, "per_mw_plastic": 0.6, "per_mw_mud": 38.1, "per_mw_wood": 0.2, "per_mw_no_mrtr": 2.4, "per_mw_st_mrtr": 3.6, "per_mw_asbstos": 0.4, "per_mw_b_brick": 32.2, "per_mw_concrte": 15.5, "per_mw_oth": 0.5, "per_mf_mud": 59.3, "per_mf_wood": 1.6, "per_mf_b_brick": 2.1, "per_mf_stone": 0.6, "per_mf_cement": 22.6, "per_mf_fl_tile": 13.0, "per_mf_oth": 0.8, "per_dw_n_exrm": 0.2, "per_dw_1_room": 48.4, "per_dw_2_room": 41.3, "per_dw_3_room": 4.6, "per_dw_4_room": 4.2, "per_dw_5_room": 0.6, "per_dw_6_room": 0.6, "per_hhsize_1": 5.0, "per_hhsize_2": 10.2, "per_hhsize_3": 8.6, "per_hhsize_4": 22.6, "per_hhsize_5": 24.7, "per_hhsize_6_8": 24.7, "per_hhsize_9p": 4.2, "per_ow_owned": 95.0, "per_ow_rented": 4.2, "per_ow_oth": 0.7, "per_mc_none": 8.5, "per_mcouple_1": 70.3, "per_mcouple_2": 16.3, "per_mcouple_3": 4.2, "per_mcouple_4": 0.5, "per_mcouple_5p": 0.1, "per_dw_t_ts": 0.1, "per_dw_t_unts": 2.1, "per_dw_c_well": 10.3, "per_dw_unc_wel": 82.0, "per_dw_hpump": 2.9, "per_dw_tw_bore": 2.4, "per_dw_spring": 0.1, "per_dw_rivcan": 0.0, "per_dw_tank": 0.0, "per_dw_oth": 0.1, "per_loc_dw_wp": 19.9, "per_loc_dw_np": 47.0, "per_loc_dw_aw": 33.2, "per_light_elec": 58.5, "per_light_kero": 23.8, "per_light_solr": 0.7, "per_light_oil": 0.0, "per_light_oth": 1.1, "per_light_no": 15.9, "per_hh_latrine": 17.7, "per_fl_sewer": 0.0, "per_fl_septict": 6.7, "per_fl_othsys": 0.8, "per_pl_wslab": 10.2, "per_pl_without": 0.0, "per_ns_open": 0.0, "per_sl_ns_hum": 0.0, "per_sl_ns_anml": 0.0, "per_hh_no_lat": 82.3, "per_as_pub": 0.2, "per_as_open": 82.1, "per_hh_bathrm": 34.1, "per_hh_en_wrf": 23.7, "per_hh_no_btrm": 42.1, "per_wwoc_drain": 1.1, "per_wwoc_open": 42.9, "per_wwoc_nodrn": 56.1, "per_cook_fire": 82.3, "per_cook_resdu": 3.5, "per_cook_cwdng": 4.6, "per_cook_coal": 0.0, "per_cook_kero": 0.7, "per_cook_lpng": 7.7, "per_cook_elec": 0.1, "per_cook_biogs": 0.6, "per_cook_oth": 0.1, "per_cook_no": 0.2, "per_kf_inside": 68.4, "per_kf_in_has": 50.7, "per_kf_in_does": 17.7, "per_kf_outside": 31.4, "per_kf_out_has": 6.7, "per_kf_out_dos": 24.7, "per_kf_no_cook": 0.2, "per_hh_banking": 66.5, "per_hh_radio": 7.1, "per_hh_tv": 35.4, "per_hh_cmp_int": 0.5, "per_hh_cmp_wnt": 4.6, "per_hh_ph_ll": 2.9, "per_hh_ph_mob": 62.1, "per_hh_ph_bth": 2.8, "per_hh_bcycl": 53.1, "per_hh_2wheel": 29.9, "per_hh_4wheel": 1.5, "per_hh_tvcomp": 1.0, "per_hh_no_ast": 18.3, "per_hs_perma": 48.9, "per_hs_sperma": 30.3, "per_hs_temp": 20.1, "per_hs_servc": 17.1, "per_hs_nservc": 3.0, "per_hs_unclss": 0.7, "avghhsz_cy": 4.77590361, "st_areashape": 23881650.797777545, "st_lengthshape": 18775.76394153756}, "geometry": {"type": "Polygon", "coordinates": [[[74.81542720282764, 19.90754037771886], [74.82128672388143, 19.900168474580347], [74.8277281403386, 19.900097342007815], [74.8311823782017, 19.900039403227108], [74.83384059463704, 19.899998420436177], [74.84999025977825, 19.89993779386178], [74.86662408451822, 19.89785671084909], [74.8679952550016, 19.9030161416524], [74.872287063171, 19.918809800173953], [74.87233143275951, 19.92252743862209], [74.87189651341471, 19.924157641620187], [74.87080431653943, 19.92824963372578], [74.87060680755118, 19.928723563181233], [74.86804456173091, 19.934866579808716], [74.86742850609222, 19.935233625534103], [74.8655747291972, 19.936337137341134], [74.85899703561645, 19.937572286624537], [74.84919816668322, 19.937837420150665], [74.84633292271084, 19.937684578892817], [74.84420677931662, 19.937572917446975], [74.83829439420501, 19.935005372354205], [74.83057663252754, 19.93057755466375], [74.82413622577674, 19.92784548946679], [74.82083391368941, 19.927352159389688], [74.81472448042527, 19.908426964045454], [74.81542720282764, 19.90754037771886]]]}}]}