{"type": "FeatureCollection", "features": [{"type": "Feature", "properties": {"premiumdata.sde.IN_Village_PCA.area": 1.07235158, "objectid": 402925, "id": "181464138", "name": "Qunan Baba Gund", "subdistrict": "Kupwara", "district": "Kupwara", "state": "Jammu And Kashmir", "country": "India", "censusname": "Qunan Baba Gund", "villagename_locallang": null, "lgd_villagename": null, "lgd_villagecode": null, "lgd_subdistrictcode": 1, "lgd_districtcode": 8, "lgd_statecode": 1, "censuscode2001": "00010200", "censuscode2011": "000097", "censuscode2021": null, "level": "Village", "tru": "Rural", "no_hh": 207, "tot_p": 2372, "tot_m": 1192, "tot_f": 1180, "per_tot_m": 50.2529511, "per_tot_f": 49.7470489, "p_06": 776, "m_06": 364, "f_06": 412, "per_p_06": 32.71500843, "per_m_06": 46.90721649, "per_f_06": 53.09278351, "p_sc": 0, "m_sc": 0, "f_sc": 0, "per_p_sc": 0.0, "per_m_sc": 0.0, "per_f_sc": 0.0, "p_st": 0, "m_st": 0, "f_st": 0, "per_p_st": 0.0, "per_m_st": 0.0, "per_f_st": 0.0, "p_lit": 1120, "m_lit": 655, "f_lit": 465, "per_p_lit": 47.21753794, "per_m_lit": 58.48214286, "per_f_lit": 41.51785714, "p_ill": 1252, "m_ill": 537, "f_ill": 715, "per_p_ill": 52.78246206, "per_m_ill": 42.8913738, "per_f_ill": 57.1086262, "tot_work_p": 374, "tot_work_m": 285, "tot_work_f": 89, "per_tot_work_p": 15.76728499, "per_tot_work_m": 76.20320856, "per_tot_work_f": 23.79679144, "mainwork_p": 84, "mainwork_m": 72, "mainwork_f": 12, "per_mainwork_p": 3.54131535, "per_mainwork_m": 85.71428571, "per_mainwork_f": 14.28571429, "main_cl_p": 2, "main_cl_m": 2, "main_cl_f": 0, "per_main_cl_p": 2.38095238, "per_main_cl_m": 100.0, "per_main_cl_f": 0.0, "main_al_p": 1, "main_al_m": 1, "main_al_f": 0, "per_main_al_p": 1.19047619, "per_main_al_m": 100.0, "per_main_al_f": 0.0, "main_hh_p": 3, "main_hh_m": 3, "main_hh_f": 0, "per_main_hh_p": 3.57142857, "per_main_hh_m": 100.0, "per_main_hh_f": 0.0, "main_ot_p": 78, "main_ot_m": 66, "main_ot_f": 12, "per_main_ot_p": 92.85714286, "per_main_ot_m": 84.61538462, "per_main_ot_f": 15.38461538, "margwork_p": 290, "margwork_m": 213, "margwork_f": 77, "per_margwork_p": 12.22596965, "per_margwork_m": 73.44827586, "per_margwork_f": 26.55172414, "marg_cl_p": 18, "marg_cl_m": 13, "marg_cl_f": 5, "per_marg_cl_p": 6.20689655, "per_marg_cl_m": 72.22222222, "per_marg_cl_f": 27.77777778, "marg_al_p": 166, "marg_al_m": 106, "marg_al_f": 60, "per_marg_al_p": 57.24137931, "per_marg_al_m": 63.85542169, "per_marg_al_f": 36.14457831, "marg_hh_p": 6, "marg_hh_m": 6, "marg_hh_f": 0, "per_marg_hh_p": 2.06896552, "per_marg_hh_m": 100.0, "per_marg_hh_f": 0.0, "marg_ot_p": 100, "marg_ot_m": 88, "marg_ot_f": 12, "per_marg_ot_p": 34.48275862, "per_marg_ot_m": 88.0, "per_marg_ot_f": 12.0, "margwork_3_6_p": 151, "margwork_3_6_m": 132, "margwork_3_6_f": 19, "per_margwork_3_6_p": 52.06896552, "per_margwork_3_6_m": 87.41721854, "per_margwork_3_6_f": 12.58278146, "marg_cl_3_6_p": 11, "marg_cl_3_6_m": 11, "marg_cl_3_6_f": 0, "per_marg_cl_3_6_p": 3.79310345, "per_marg_cl_3_6_m": 100.0, "per_marg_cl_3_6_f": 0.0, "marg_al_3_6_p": 85, "marg_al_3_6_m": 75, "marg_al_3_6_f": 10, "per_marg_al_3_6_p": 29.31034483, "per_marg_al_3_6_m": 88.23529412, "per_marg_al_3_6_f": 11.76470588, "marg_hh_3_6_p": 6, "marg_hh_3_6_m": 6, "marg_hh_3_6_f": 0, "per_marg_hh_3_6_p": 2.06896552, "per_marg_hh_3_6_m": 100.0, "per_marg_hh_3_6_f": 0.0, "marg_ot_3_6_p": 49, "marg_ot_3_6_m": 40, "marg_ot_3_6_f": 9, "per_marg_ot_3_6_p": 16.89655172, "per_marg_ot_3_6_m": 81.63265306, "per_marg_ot_3_6_f": 18.36734694, "margwork_0_3_p": 139, "margwork_0_3_m": 81, "margwork_0_3_f": 58, "per_margwork_0_3_p": 47.93103448, "per_margwork_0_3_m": 58.27338129, "per_margwork_0_3_f": 41.72661871, "marg_cl_0_3_p": 7, "marg_cl_0_3_m": 2, "marg_cl_0_3_f": 5, "per_marg_cl_0_3_p": 2.4137931, "per_marg_cl_0_3_m": 28.57142857, "per_marg_cl_0_3_f": 71.42857143, "marg_al_0_3_p": 81, "marg_al_0_3_m": 31, "marg_al_0_3_f": 50, "per_marg_al_0_3_p": 27.93103448, "per_marg_al_0_3_m": 38.27160494, "per_marg_al_0_3_f": 61.72839506, "marg_hh_0_3_p": 0, "marg_hh_0_3_m": 0, "marg_hh_0_3_f": 0, "per_marg_hh_0_3_p": 0.0, "per_marg_hh_0_3_m": 0.0, "per_marg_hh_0_3_f": 0.0, "marg_ot_0_3_p": 51, "marg_ot_0_3_m": 48, "marg_ot_0_3_f": 3, "per_marg_ot_0_3_p": 17.5862069, "per_marg_ot_0_3_m": 94.11764706, "per_marg_ot_0_3_f": 5.88235294, "non_work_p": 1998, "non_work_m": 907, "non_work_f": 1091, "per_non_work_p": 84.23271501, "per_non_work_m": 45.3953954, "per_non_work_f": 54.6046046, "per_hc_tot_tot": 100, "per_hc_tot_god": 31.0, "per_hc_tot_liv": 56.9, "per_hc_tot_dil": 12.2, "per_hc_res_tot": 93.9, "per_hc_res_god": 28.4, "per_hc_res_liv": 54.8, "per_hc_res_dil": 10.7, "per_hc_oth_tot": 6.1, "per_hc_oth_god": 2.5, "per_hc_oth_liv": 2.0, "per_hc_oth_dil": 1.5, "per_mt_grsbam": 2.5, "per_mt_plastic": 0.0, "per_mt_h_tiles": 0.0, "per_mt_m_tiles": 0.0, "per_mt_b_brick": 0.0, "per_mt_stone": 0.0, "per_mt_asbstos": 96.4, "per_mt_concrte": 0.0, "per_mt_oth": 1.0, "per_mw_grsbam": 0.0, "per_mw_plastic": 0.0, "per_mw_mud": 27.9, "per_mw_wood": 3.0, "per_mw_no_mrtr": 5.1, "per_mw_st_mrtr": 0.0, "per_mw_asbstos": 0.0, "per_mw_b_brick": 63.5, "per_mw_concrte": 0.0, "per_mw_oth": 0.5, "per_mf_mud": 48.2, "per_mf_wood": 2.0, "per_mf_b_brick": 0.0, "per_mf_stone": 0.0, "per_mf_cement": 49.2, "per_mf_fl_tile": 0.0, "per_mf_oth": 0.5, "per_dw_n_exrm": 1.0, "per_dw_1_room": 14.7, "per_dw_2_room": 16.8, "per_dw_3_room": 46.7, "per_dw_4_room": 7.6, "per_dw_5_room": 2.5, "per_dw_6_room": 10.7, "per_hhsize_1": 0.0, "per_hhsize_2": 0.5, "per_hhsize_3": 0.5, "per_hhsize_4": 2.5, "per_hhsize_5": 1.5, "per_hhsize_6_8": 17.3, "per_hhsize_9p": 77.7, "per_ow_owned": 99.0, "per_ow_rented": 0.0, "per_ow_oth": 1.0, "per_mc_none": 7.6, "per_mcouple_1": 69.5, "per_mcouple_2": 19.3, "per_mcouple_3": 3.6, "per_mcouple_4": 0.0, "per_mcouple_5p": 0.0, "per_dw_t_ts": 0.5, "per_dw_t_unts": 28.9, "per_dw_c_well": 2.0, "per_dw_unc_wel": 32.0, "per_dw_hpump": 2.5, "per_dw_tw_bore": 3.0, "per_dw_spring": 0.0, "per_dw_rivcan": 13.7, "per_dw_tank": 0.0, "per_dw_oth": 17.3, "per_loc_dw_wp": 27.9, "per_loc_dw_np": 21.8, "per_loc_dw_aw": 50.3, "per_light_elec": 91.4, "per_light_kero": 8.1, "per_light_solr": 0.0, "per_light_oil": 0.0, "per_light_oth": 0.0, "per_light_no": 0.5, "per_hh_latrine": 30.5, "per_fl_sewer": 6.1, "per_fl_septict": 5.1, "per_fl_othsys": 12.7, "per_pl_wslab": 2.5, "per_pl_without": 0.0, "per_ns_open": 2.0, "per_sl_ns_hum": 0.0, "per_sl_ns_anml": 2.0, "per_hh_no_lat": 69.5, "per_as_pub": 0.0, "per_as_open": 69.5, "per_hh_bathrm": 26.9, "per_hh_en_wrf": 1.0, "per_hh_no_btrm": 72.1, "per_wwoc_drain": 2.5, "per_wwoc_open": 17.8, "per_wwoc_nodrn": 79.7, "per_cook_fire": 83.2, "per_cook_resdu": 1.0, "per_cook_cwdng": 0.0, "per_cook_coal": 0.0, "per_cook_kero": 0.0, "per_cook_lpng": 0.5, "per_cook_elec": 0.0, "per_cook_biogs": 15.2, "per_cook_oth": 0.0, "per_cook_no": 0.0, "per_kf_inside": 95.9, "per_kf_in_has": 95.9, "per_kf_in_does": 0.0, "per_kf_outside": 4.1, "per_kf_out_has": 1.0, "per_kf_out_dos": 3.0, "per_kf_no_cook": 0.0, "per_hh_banking": 61.4, "per_hh_radio": 57.4, "per_hh_tv": 30.5, "per_hh_cmp_int": 0.0, "per_hh_cmp_wnt": 4.1, "per_hh_ph_ll": 1.5, "per_hh_ph_mob": 69.5, "per_hh_ph_bth": 3.6, "per_hh_bcycl": 2.5, "per_hh_2wheel": 2.5, "per_hh_4wheel": 1.0, "per_hh_tvcomp": 0.0, "per_hh_no_ast": 17.3, "per_hs_perma": 66.5, "per_hs_sperma": 31.0, "per_hs_temp": 1.0, "per_hs_servc": 1.0, "per_hs_nservc": 0.0, "per_hs_unclss": 1.5, "avghhsz_cy": 11.4589372, "st_areashape": 1584521.465108935, "st_lengthshape": 6112.3503362326865}, "geometry": {"type": "Polygon", "coordinates": [[[74.23339696411303, 34.55225156719363], [74.23263638930806, 34.553817594411925], [74.23140045480078, 34.5559316837706], [74.22911872948755, 34.553895894592195], [74.22664686047308, 34.55358269194939], [74.22636164447204, 34.547083468467214], [74.22666324664216, 34.54165655920251], [74.22678413742153, 34.53948120654835], [74.22729685536152, 34.53977933132663], [74.23029564647724, 34.54049648366463], [74.23016707869547, 34.54122717403189], [74.2300965869968, 34.54162779640565], [74.22978423289105, 34.543402959798], [74.23062605133032, 34.54500236805955], [74.23255477197459, 34.5450976873996], [74.23534175382103, 34.54523542199945], [74.23710476853306, 34.54684854699315], [74.23815055933903, 34.54849298190525], [74.2369146239335, 34.55005907986465], [74.23640132208857, 34.55208079752136], [74.23493336531985, 34.55172978906748], [74.23339696411303, 34.55225156719363]]]}}]}