{"type": "FeatureCollection", "features": [{"type": "Feature", "properties": {"premiumdata.sde.IN_Village_PCA.area": 1.89512246, "objectid": 562200, "id": "9123966431401", "name": "Majhgawan", "subdistrict": "Azamgarh", "district": "Azamgarh", "state": "Uttar Pradesh", "country": "India", "censusname": "Majhgawan", "villagename_locallang": null, "lgd_villagename": "Majhgawan", "lgd_villagecode": 193450, "lgd_subdistrictcode": 966, "lgd_districtcode": 123, "lgd_statecode": 9, "censuscode2001": "08651300", "censuscode2011": "193450", "censuscode2021": null, "level": "Village", "tru": "Rural", "no_hh": 381, "tot_p": 2946, "tot_m": 1548, "tot_f": 1398, "per_tot_m": 52.54582485, "per_tot_f": 47.45417515, "p_06": 387, "m_06": 210, "f_06": 177, "per_p_06": 13.13645621, "per_m_06": 54.26356589, "per_f_06": 45.73643411, "p_sc": 896, "m_sc": 450, "f_sc": 446, "per_p_sc": 30.41412084, "per_m_sc": 50.22321429, "per_f_sc": 49.77678571, "p_st": 0, "m_st": 0, "f_st": 0, "per_p_st": 0.0, "per_m_st": 0.0, "per_f_st": 0.0, "p_lit": 1956, "m_lit": 1149, "f_lit": 807, "per_p_lit": 66.39511202, "per_m_lit": 58.74233129, "per_f_lit": 41.25766871, "p_ill": 990, "m_ill": 399, "f_ill": 591, "per_p_ill": 33.60488798, "per_m_ill": 40.3030303, "per_f_ill": 59.6969697, "tot_work_p": 701, "tot_work_m": 601, "tot_work_f": 100, "per_tot_work_p": 23.79497624, "per_tot_work_m": 85.73466476, "per_tot_work_f": 14.26533524, "mainwork_p": 449, "mainwork_m": 399, "mainwork_f": 50, "per_mainwork_p": 15.24100475, "per_mainwork_m": 88.86414253999999, "per_mainwork_f": 11.13585746, "main_cl_p": 45, "main_cl_m": 43, "main_cl_f": 2, "per_main_cl_p": 10.02227171, "per_main_cl_m": 95.55555556, "per_main_cl_f": 4.44444444, "main_al_p": 124, "main_al_m": 107, "main_al_f": 17, "per_main_al_p": 27.6169265, "per_main_al_m": 86.29032258000001, "per_main_al_f": 13.70967742, "main_hh_p": 26, "main_hh_m": 24, "main_hh_f": 2, "per_main_hh_p": 5.79064588, "per_main_hh_m": 92.30769231, "per_main_hh_f": 7.69230769, "main_ot_p": 254, "main_ot_m": 225, "main_ot_f": 29, "per_main_ot_p": 56.5701559, "per_main_ot_m": 88.58267717, "per_main_ot_f": 11.41732283, "margwork_p": 252, "margwork_m": 202, "margwork_f": 50, "per_margwork_p": 8.55397149, "per_margwork_m": 80.15873016, "per_margwork_f": 19.84126984, "marg_cl_p": 71, "marg_cl_m": 60, "marg_cl_f": 11, "per_marg_cl_p": 28.17460317, "per_marg_cl_m": 84.50704225000001, "per_marg_cl_f": 15.49295775, "marg_al_p": 98, "marg_al_m": 78, "marg_al_f": 20, "per_marg_al_p": 38.88888889, "per_marg_al_m": 79.59183673000001, "per_marg_al_f": 20.40816327, "marg_hh_p": 14, "marg_hh_m": 12, "marg_hh_f": 2, "per_marg_hh_p": 5.55555556, "per_marg_hh_m": 85.71428571, "per_marg_hh_f": 14.28571429, "marg_ot_p": 69, "marg_ot_m": 52, "marg_ot_f": 17, "per_marg_ot_p": 27.38095238, "per_marg_ot_m": 75.36231884, "per_marg_ot_f": 24.63768116, "margwork_3_6_p": 202, "margwork_3_6_m": 160, "margwork_3_6_f": 42, "per_margwork_3_6_p": 80.15873016, "per_margwork_3_6_m": 79.20792078999999, "per_margwork_3_6_f": 20.79207921, "marg_cl_3_6_p": 67, "marg_cl_3_6_m": 57, "marg_cl_3_6_f": 10, "per_marg_cl_3_6_p": 26.58730159, "per_marg_cl_3_6_m": 85.07462687, "per_marg_cl_3_6_f": 14.92537313, "marg_al_3_6_p": 56, "marg_al_3_6_m": 43, "marg_al_3_6_f": 13, "per_marg_al_3_6_p": 22.22222222, "per_marg_al_3_6_m": 76.78571429, "per_marg_al_3_6_f": 23.21428571, "marg_hh_3_6_p": 11, "marg_hh_3_6_m": 9, "marg_hh_3_6_f": 2, "per_marg_hh_3_6_p": 4.36507937, "per_marg_hh_3_6_m": 81.81818182, "per_marg_hh_3_6_f": 18.18181818, "marg_ot_3_6_p": 68, "marg_ot_3_6_m": 51, "marg_ot_3_6_f": 17, "per_marg_ot_3_6_p": 26.98412698, "per_marg_ot_3_6_m": 75.0, "per_marg_ot_3_6_f": 25.0, "margwork_0_3_p": 50, "margwork_0_3_m": 42, "margwork_0_3_f": 8, "per_margwork_0_3_p": 19.84126984, "per_margwork_0_3_m": 84.0, "per_margwork_0_3_f": 16.0, "marg_cl_0_3_p": 4, "marg_cl_0_3_m": 3, "marg_cl_0_3_f": 1, "per_marg_cl_0_3_p": 1.58730159, "per_marg_cl_0_3_m": 75.0, "per_marg_cl_0_3_f": 25.0, "marg_al_0_3_p": 42, "marg_al_0_3_m": 35, "marg_al_0_3_f": 7, "per_marg_al_0_3_p": 16.66666667, "per_marg_al_0_3_m": 83.33333332999999, "per_marg_al_0_3_f": 16.66666667, "marg_hh_0_3_p": 3, "marg_hh_0_3_m": 3, "marg_hh_0_3_f": 0, "per_marg_hh_0_3_p": 1.19047619, "per_marg_hh_0_3_m": 100.0, "per_marg_hh_0_3_f": 0.0, "marg_ot_0_3_p": 1, "marg_ot_0_3_m": 1, "marg_ot_0_3_f": 0, "per_marg_ot_0_3_p": 0.3968254, "per_marg_ot_0_3_m": 100.0, "per_marg_ot_0_3_f": 0.0, "non_work_p": 2245, "non_work_m": 947, "non_work_f": 1298, "per_non_work_p": 76.20502376, "per_non_work_m": 42.18262806, "per_non_work_f": 57.81737194, "per_hc_tot_tot": 100, "per_hc_tot_god": 82.4, "per_hc_tot_liv": 15.0, "per_hc_tot_dil": 2.6, "per_hc_res_tot": 100.0, "per_hc_res_god": 82.4, "per_hc_res_liv": 15.0, "per_hc_res_dil": 2.6, "per_hc_oth_tot": 0.0, "per_hc_oth_god": 0.0, "per_hc_oth_liv": 0.0, "per_hc_oth_dil": 0.0, "per_mt_grsbam": 25.2, "per_mt_plastic": 0.0, "per_mt_h_tiles": 9.4, "per_mt_m_tiles": 0.5, "per_mt_b_brick": 5.2, "per_mt_stone": 0.5, "per_mt_asbstos": 3.4, "per_mt_concrte": 55.4, "per_mt_oth": 0.3, "per_mw_grsbam": 13.4, "per_mw_plastic": 0.0, "per_mw_mud": 22.0, "per_mw_wood": 0.0, "per_mw_no_mrtr": 0.0, "per_mw_st_mrtr": 0.0, "per_mw_asbstos": 0.0, "per_mw_b_brick": 64.6, "per_mw_concrte": 0.0, "per_mw_oth": 0.0, "per_mf_mud": 85.8, "per_mf_wood": 0.8, "per_mf_b_brick": 2.4, "per_mf_stone": 0.0, "per_mf_cement": 11.0, "per_mf_fl_tile": 0.0, "per_mf_oth": 0.0, "per_dw_n_exrm": 3.9, "per_dw_1_room": 22.0, "per_dw_2_room": 23.1, "per_dw_3_room": 14.4, "per_dw_4_room": 10.8, "per_dw_5_room": 7.6, "per_dw_6_room": 18.1, "per_hhsize_1": 1.0, "per_hhsize_2": 3.1, "per_hhsize_3": 6.3, "per_hhsize_4": 4.5, "per_hhsize_5": 13.1, "per_hhsize_6_8": 40.4, "per_hhsize_9p": 31.5, "per_ow_owned": 99.5, "per_ow_rented": 0.0, "per_ow_oth": 0.5, "per_mc_none": 4.7, "per_mcouple_1": 45.1, "per_mcouple_2": 29.9, "per_mcouple_3": 11.8, "per_mcouple_4": 4.5, "per_mcouple_5p": 3.9, "per_dw_t_ts": 4.7, "per_dw_t_unts": 1.0, "per_dw_c_well": 0.0, "per_dw_unc_wel": 0.0, "per_dw_hpump": 93.4, "per_dw_tw_bore": 0.3, "per_dw_spring": 0.0, "per_dw_rivcan": 0.0, "per_dw_tank": 0.0, "per_dw_oth": 0.5, "per_loc_dw_wp": 67.5, "per_loc_dw_np": 25.7, "per_loc_dw_aw": 6.8, "per_light_elec": 57.0, "per_light_kero": 41.2, "per_light_solr": 0.3, "per_light_oil": 1.0, "per_light_oth": 0.5, "per_light_no": 0.0, "per_hh_latrine": 9.2, "per_fl_sewer": 1.3, "per_fl_septict": 0.0, "per_fl_othsys": 0.0, "per_pl_wslab": 7.9, "per_pl_without": 0.0, "per_ns_open": 0.0, "per_sl_ns_hum": 0.0, "per_sl_ns_anml": 0.0, "per_hh_no_lat": 90.8, "per_as_pub": 0.0, "per_as_open": 90.8, "per_hh_bathrm": 13.1, "per_hh_en_wrf": 54.3, "per_hh_no_btrm": 32.5, "per_wwoc_drain": 39.9, "per_wwoc_open": 36.7, "per_wwoc_nodrn": 23.4, "per_cook_fire": 84.3, "per_cook_resdu": 3.9, "per_cook_cwdng": 5.2, "per_cook_coal": 0.0, "per_cook_kero": 0.0, "per_cook_lpng": 6.6, "per_cook_elec": 0.0, "per_cook_biogs": 0.0, "per_cook_oth": 0.0, "per_cook_no": 0.0, "per_kf_inside": 88.5, "per_kf_in_has": 42.3, "per_kf_in_does": 46.2, "per_kf_outside": 11.5, "per_kf_out_has": 5.2, "per_kf_out_dos": 6.3, "per_kf_no_cook": 0.0, "per_hh_banking": 86.9, "per_hh_radio": 41.5, "per_hh_tv": 35.7, "per_hh_cmp_int": 1.3, "per_hh_cmp_wnt": 23.6, "per_hh_ph_ll": 4.2, "per_hh_ph_mob": 75.3, "per_hh_ph_bth": 0.5, "per_hh_bcycl": 80.8, "per_hh_2wheel": 27.6, "per_hh_4wheel": 7.3, "per_hh_tvcomp": 2.6, "per_hh_no_ast": 5.2, "per_hs_perma": 63.8, "per_hs_sperma": 11.3, "per_hs_temp": 24.7, "per_hs_servc": 16.0, "per_hs_nservc": 8.7, "per_hs_unclss": 0.3, "avghhsz_cy": 7.73228346, "st_areashape": 2356898.29574639, "st_lengthshape": 8248.225046513302}, "geometry": {"type": "Polygon", "coordinates": [[[83.12525669726776, 26.038116327320935], [83.12462298973374, 26.037824653013743], [83.12417266787506, 26.0374010739067], [83.12313722206785, 26.036493648534012], [83.12158457932071, 26.035243852484072], [83.12032495534108, 26.034337216778333], [83.1192240816385, 26.033834969027982], [83.11886481391535, 26.033714759089257], [83.1185957532164, 26.033715726077215], [83.11819270430124, 26.033838677963683], [83.11761145478654, 26.034225489045], [83.11700875440116, 26.034835106131055], [83.11645070657363, 26.035404068403494], [83.11557902004947, 26.03603488810762], [83.11459487163829, 26.036585106601763], [83.11376828682961, 26.03727652034507], [83.11274041831182, 26.038090118731024], [83.11191449645982, 26.038680248457126], [83.11186106556507, 26.038275963020453], [83.11145138618477, 26.03688027813018], [83.11061413118716, 26.035121629320685], [83.1093274975619, 26.03314183267003], [83.10759143859666, 26.030920616571652], [83.10776731615285, 26.030429344908292], [83.10800061851361, 26.030174481283172], [83.10842169931146, 26.029982478180457], [83.10910099544785, 26.02987422530988], [83.1103653481591, 26.02955221056943], [83.11113737199238, 26.029210765653367], [83.11188549794414, 26.0287635673669], [83.11242274528128, 26.02833827090082], [83.11288849390834, 26.027638031709895], [83.11346891517633, 26.026365820089], [83.11374630415627, 26.025475732502677], [83.11377348627846, 26.025148273856505], [83.11494038974769, 26.025175087529515], [83.11625305115997, 26.02519156142356], [83.11751957959086, 26.02537755126843], [83.11956070642661, 26.02581477065562], [83.12035809688686, 26.02591773350851], [83.12092053388288, 26.0258945339398], [83.1214118171219, 26.025681075090294], [83.12162173274253, 26.02544746024198], [83.12166692518784, 26.025066249826455], [83.12154645841328, 26.024325761036202], [83.12128225131183, 26.022887203791356], [83.12099821210383, 26.021906632669833], [83.12137398008211, 26.02196614795388], [83.122415496704, 26.022304252574752], [83.1231909260505, 26.02274600478651], [83.12394368191924, 26.02335718218169], [83.12504783447261, 26.02392473902327], [83.12589208015982, 26.02402752029221], [83.12595092789573, 26.024024891127077], [83.12615209033225, 26.02511328780391], [83.12631346818146, 26.026455928311535], [83.12647080720518, 26.02689642339707], [83.12651952733458, 26.026927926591373], [83.12616064319208, 26.027401832028982], [83.12580672583476, 26.027683801336625], [83.12494679735934, 26.028990060135495], [83.1245938546741, 26.02949254818698], [83.12426185531143, 26.02971427870582], [83.12395142719362, 26.029795597226478], [83.12368531386711, 26.02985671724919], [83.12331016931962, 26.030359282307895], [83.1232442814868, 26.03051990607269], [83.12324508278402, 26.030700324322613], [83.12337897757546, 26.03086023890921], [83.12369074418301, 26.03107963407355], [83.1245816286031, 26.031737992263235], [83.12504888370486, 26.031976871932677], [83.12545041626383, 26.03241647776671], [83.12574124583706, 26.032916624059215], [83.12623105943227, 26.033235610741865], [83.1268395296967, 26.03345962897121], [83.12743467525053, 26.03367777542686], [83.12728223294346, 26.03433991835715], [83.12677764475676, 26.035684980476084], [83.12624888470243, 26.036589065666654], [83.12525669726776, 26.038116327320935]]]}}]}