{"type": "FeatureCollection", "features": [{"type": "Feature", "properties": {"premiumdata.sde.IN_Village_PCA.area": 3.02817699, "objectid": 211916, "id": "8996070503895", "name": "Padli Basiya", "subdistrict": "Jothari", "district": "Dungarpur", "state": "Rajasthan", "country": "India", "censusname": "Padli Basiya", "villagename_locallang": null, "lgd_villagename": "Padli Basiya", "lgd_villagecode": 98182, "lgd_subdistrictcode": 6070, "lgd_districtcode": 99, "lgd_statecode": 8, "censuscode2001": "03353800", "censuscode2011": "098182", "censuscode2021": null, "level": "Village", "tru": "Rural", "no_hh": 66, "tot_p": 347, "tot_m": 181, "tot_f": 166, "per_tot_m": 52.16138329, "per_tot_f": 47.83861671, "p_06": 65, "m_06": 37, "f_06": 28, "per_p_06": 18.73198847, "per_m_06": 56.92307692, "per_f_06": 43.07692308, "p_sc": 0, "m_sc": 0, "f_sc": 0, "per_p_sc": 0.0, "per_m_sc": 0.0, "per_f_sc": 0.0, "p_st": 334, "m_st": 172, "f_st": 162, "per_p_st": 96.25360231, "per_m_st": 51.49700599, "per_f_st": 48.50299401, "p_lit": 152, "m_lit": 92, "f_lit": 60, "per_p_lit": 43.80403458, "per_m_lit": 60.52631579, "per_f_lit": 39.47368421, "p_ill": 195, "m_ill": 89, "f_ill": 106, "per_p_ill": 56.19596542, "per_m_ill": 45.64102564, "per_f_ill": 54.35897436, "tot_work_p": 146, "tot_work_m": 78, "tot_work_f": 68, "per_tot_work_p": 42.07492795, "per_tot_work_m": 53.42465753, "per_tot_work_f": 46.57534247, "mainwork_p": 6, "mainwork_m": 4, "mainwork_f": 2, "per_mainwork_p": 1.72910663, "per_mainwork_m": 66.66666667, "per_mainwork_f": 33.33333333, "main_cl_p": 0, "main_cl_m": 0, "main_cl_f": 0, "per_main_cl_p": 0.0, "per_main_cl_m": 0.0, "per_main_cl_f": 0.0, "main_al_p": 0, "main_al_m": 0, "main_al_f": 0, "per_main_al_p": 0.0, "per_main_al_m": 0.0, "per_main_al_f": 0.0, "main_hh_p": 0, "main_hh_m": 0, "main_hh_f": 0, "per_main_hh_p": 0.0, "per_main_hh_m": 0.0, "per_main_hh_f": 0.0, "main_ot_p": 6, "main_ot_m": 4, "main_ot_f": 2, "per_main_ot_p": 100.0, "per_main_ot_m": 66.66666667, "per_main_ot_f": 33.33333333, "margwork_p": 140, "margwork_m": 74, "margwork_f": 66, "per_margwork_p": 40.34582133, "per_margwork_m": 52.85714286, "per_margwork_f": 47.14285714, "marg_cl_p": 41, "marg_cl_m": 40, "marg_cl_f": 1, "per_marg_cl_p": 29.28571429, "per_marg_cl_m": 97.56097561, "per_marg_cl_f": 2.43902439, "marg_al_p": 44, "marg_al_m": 2, "marg_al_f": 42, "per_marg_al_p": 31.42857143, "per_marg_al_m": 4.54545455, "per_marg_al_f": 95.45454545, "marg_hh_p": 0, "marg_hh_m": 0, "marg_hh_f": 0, "per_marg_hh_p": 0.0, "per_marg_hh_m": 0.0, "per_marg_hh_f": 0.0, "marg_ot_p": 55, "marg_ot_m": 32, "marg_ot_f": 23, "per_marg_ot_p": 39.28571429, "per_marg_ot_m": 58.18181818, "per_marg_ot_f": 41.81818182, "margwork_3_6_p": 63, "margwork_3_6_m": 57, "margwork_3_6_f": 6, "per_margwork_3_6_p": 45.0, "per_margwork_3_6_m": 90.47619048, "per_margwork_3_6_f": 9.52380952, "marg_cl_3_6_p": 39, "marg_cl_3_6_m": 38, "marg_cl_3_6_f": 1, "per_marg_cl_3_6_p": 27.85714286, "per_marg_cl_3_6_m": 97.43589744, "per_marg_cl_3_6_f": 2.56410256, "marg_al_3_6_p": 1, "marg_al_3_6_m": 0, "marg_al_3_6_f": 1, "per_marg_al_3_6_p": 0.71428571, "per_marg_al_3_6_m": 0.0, "per_marg_al_3_6_f": 100.0, "marg_hh_3_6_p": 0, "marg_hh_3_6_m": 0, "marg_hh_3_6_f": 0, "per_marg_hh_3_6_p": 0.0, "per_marg_hh_3_6_m": 0.0, "per_marg_hh_3_6_f": 0.0, "marg_ot_3_6_p": 23, "marg_ot_3_6_m": 19, "marg_ot_3_6_f": 4, "per_marg_ot_3_6_p": 16.42857143, "per_marg_ot_3_6_m": 82.60869565, "per_marg_ot_3_6_f": 17.39130435, "margwork_0_3_p": 77, "margwork_0_3_m": 17, "margwork_0_3_f": 60, "per_margwork_0_3_p": 55.0, "per_margwork_0_3_m": 22.07792208, "per_margwork_0_3_f": 77.92207792, "marg_cl_0_3_p": 2, "marg_cl_0_3_m": 2, "marg_cl_0_3_f": 0, "per_marg_cl_0_3_p": 1.42857143, "per_marg_cl_0_3_m": 100.0, "per_marg_cl_0_3_f": 0.0, "marg_al_0_3_p": 43, "marg_al_0_3_m": 2, "marg_al_0_3_f": 41, "per_marg_al_0_3_p": 30.71428571, "per_marg_al_0_3_m": 4.65116279, "per_marg_al_0_3_f": 95.34883721, "marg_hh_0_3_p": 0, "marg_hh_0_3_m": 0, "marg_hh_0_3_f": 0, "per_marg_hh_0_3_p": 0.0, "per_marg_hh_0_3_m": 0.0, "per_marg_hh_0_3_f": 0.0, "marg_ot_0_3_p": 32, "marg_ot_0_3_m": 13, "marg_ot_0_3_f": 19, "per_marg_ot_0_3_p": 22.85714286, "per_marg_ot_0_3_m": 40.625, "per_marg_ot_0_3_f": 59.375, "non_work_p": 201, "non_work_m": 103, "non_work_f": 98, "per_non_work_p": 57.92507205, "per_non_work_m": 51.24378109, "per_non_work_f": 48.75621891, "per_hc_tot_tot": 100, "per_hc_tot_god": 0.0, "per_hc_tot_liv": 97.1, "per_hc_tot_dil": 2.9, "per_hc_res_tot": 100.0, "per_hc_res_god": 0.0, "per_hc_res_liv": 97.1, "per_hc_res_dil": 2.9, "per_hc_oth_tot": 0.0, "per_hc_oth_god": 0.0, "per_hc_oth_liv": 0.0, "per_hc_oth_dil": 0.0, "per_mt_grsbam": 2.9, "per_mt_plastic": 0.0, "per_mt_h_tiles": 73.9, "per_mt_m_tiles": 18.8, "per_mt_b_brick": 0.0, "per_mt_stone": 4.3, "per_mt_asbstos": 0.0, "per_mt_concrte": 0.0, "per_mt_oth": 0.0, "per_mw_grsbam": 1.4, "per_mw_plastic": 0.0, "per_mw_mud": 82.6, "per_mw_wood": 0.0, "per_mw_no_mrtr": 13.0, "per_mw_st_mrtr": 2.9, "per_mw_asbstos": 0.0, "per_mw_b_brick": 0.0, "per_mw_concrte": 0.0, "per_mw_oth": 0.0, "per_mf_mud": 98.6, "per_mf_wood": 0.0, "per_mf_b_brick": 0.0, "per_mf_stone": 1.4, "per_mf_cement": 0.0, "per_mf_fl_tile": 0.0, "per_mf_oth": 0.0, "per_dw_n_exrm": 0.0, "per_dw_1_room": 27.5, "per_dw_2_room": 71.0, "per_dw_3_room": 1.4, "per_dw_4_room": 0.0, "per_dw_5_room": 0.0, "per_dw_6_room": 0.0, "per_hhsize_1": 4.3, "per_hhsize_2": 10.1, "per_hhsize_3": 10.1, "per_hhsize_4": 13.0, "per_hhsize_5": 20.3, "per_hhsize_6_8": 36.2, "per_hhsize_9p": 5.8, "per_ow_owned": 98.6, "per_ow_rented": 1.4, "per_ow_oth": 0.0, "per_mc_none": 11.6, "per_mcouple_1": 79.7, "per_mcouple_2": 5.8, "per_mcouple_3": 2.9, "per_mcouple_4": 0.0, "per_mcouple_5p": 0.0, "per_dw_t_ts": 0.0, "per_dw_t_unts": 0.0, "per_dw_c_well": 7.2, "per_dw_unc_wel": 0.0, "per_dw_hpump": 91.3, "per_dw_tw_bore": 1.4, "per_dw_spring": 0.0, "per_dw_rivcan": 0.0, "per_dw_tank": 0.0, "per_dw_oth": 0.0, "per_loc_dw_wp": 1.4, "per_loc_dw_np": 14.5, "per_loc_dw_aw": 84.1, "per_light_elec": 15.9, "per_light_kero": 84.1, "per_light_solr": 0.0, "per_light_oil": 0.0, "per_light_oth": 0.0, "per_light_no": 0.0, "per_hh_latrine": 0.0, "per_fl_sewer": 0.0, "per_fl_septict": 0.0, "per_fl_othsys": 0.0, "per_pl_wslab": 0.0, "per_pl_without": 0.0, "per_ns_open": 0.0, "per_sl_ns_hum": 0.0, "per_sl_ns_anml": 0.0, "per_hh_no_lat": 100.0, "per_as_pub": 0.0, "per_as_open": 100.0, "per_hh_bathrm": 0.0, "per_hh_en_wrf": 0.0, "per_hh_no_btrm": 100.0, "per_wwoc_drain": 0.0, "per_wwoc_open": 0.0, "per_wwoc_nodrn": 100.0, "per_cook_fire": 98.6, "per_cook_resdu": 1.4, "per_cook_cwdng": 0.0, "per_cook_coal": 0.0, "per_cook_kero": 0.0, "per_cook_lpng": 0.0, "per_cook_elec": 0.0, "per_cook_biogs": 0.0, "per_cook_oth": 0.0, "per_cook_no": 0.0, "per_kf_inside": 100.0, "per_kf_in_has": 21.7, "per_kf_in_does": 78.3, "per_kf_outside": 0.0, "per_kf_out_has": 0.0, "per_kf_out_dos": 0.0, "per_kf_no_cook": 0.0, "per_hh_banking": 98.6, "per_hh_radio": 7.2, "per_hh_tv": 0.0, "per_hh_cmp_int": 0.0, "per_hh_cmp_wnt": 0.0, "per_hh_ph_ll": 0.0, "per_hh_ph_mob": 13.0, "per_hh_ph_bth": 0.0, "per_hh_bcycl": 0.0, "per_hh_2wheel": 4.3, "per_hh_4wheel": 0.0, "per_hh_tvcomp": 0.0, "per_hh_no_ast": 78.3, "per_hs_perma": 15.9, "per_hs_sperma": 81.2, "per_hs_temp": 2.9, "per_hs_servc": 1.4, "per_hs_nservc": 1.4, "per_hs_unclss": 0.0, "avghhsz_cy": 5.25757576, "st_areashape": 3629751.15178582, "st_lengthshape": 8613.525262779223}, "geometry": {"type": "Polygon", "coordinates": [[[73.72963666032092, 23.733596624388756], [73.72938305244149, 23.736039510181566], [73.7276664177476, 23.744538664791733], [73.72715324975168, 23.74399180373541], [73.7235289967379, 23.740125704503544], [73.71647919176296, 23.732214782622233], [73.7156922936252, 23.731629295670867], [73.71743413504598, 23.727151762198016], [73.71837785477778, 23.72396749773906], [73.71857803805068, 23.72329282651632], [73.71992436652314, 23.720033564429734], [73.72335721280442, 23.718648995614082], [73.72679725099783, 23.717065059534665], [73.73066507321775, 23.715500098018047], [73.73170459288475, 23.71503645243294], [73.73145701988739, 23.71829070410993], [73.73017655229825, 23.728429836202412], [73.72963666032092, 23.733596624388756]]]}}]}