{"type": "FeatureCollection", "features": [{"type": "Feature", "properties": {"premiumdata.sde.IN_Village_PCA.area": 2.39585129, "objectid": 520434, "id": "193052372139201", "name": "Kansachora", "subdistrict": "Simlapal", "district": "Bankura", "state": "West Bengal", "country": "India", "censusname": "Kansachora", "villagename_locallang": null, "lgd_villagename": "Kansachora", "lgd_villagecode": 328862, "lgd_subdistrictcode": 2372, "lgd_districtcode": 305, "lgd_statecode": 19, "censuscode2001": "02256900", "censuscode2011": "328862", "censuscode2021": null, "level": "Village", "tru": "Rural", "no_hh": 69, "tot_p": 273, "tot_m": 149, "tot_f": 124, "per_tot_m": 54.57875458, "per_tot_f": 45.42124542, "p_06": 18, "m_06": 15, "f_06": 3, "per_p_06": 6.59340659, "per_m_06": 83.33333332999999, "per_f_06": 16.66666667, "p_sc": 81, "m_sc": 46, "f_sc": 35, "per_p_sc": 29.67032967, "per_m_sc": 56.79012346, "per_f_sc": 43.20987654, "p_st": 1, "m_st": 0, "f_st": 1, "per_p_st": 0.36630037, "per_m_st": 0.0, "per_f_st": 100.0, "p_lit": 200, "m_lit": 115, "f_lit": 85, "per_p_lit": 73.26007326, "per_m_lit": 57.5, "per_f_lit": 42.5, "p_ill": 73, "m_ill": 34, "f_ill": 39, "per_p_ill": 26.73992674, "per_m_ill": 46.57534247, "per_f_ill": 53.42465753, "tot_work_p": 95, "tot_work_m": 91, "tot_work_f": 4, "per_tot_work_p": 34.7985348, "per_tot_work_m": 95.78947368, "per_tot_work_f": 4.21052632, "mainwork_p": 69, "mainwork_m": 65, "mainwork_f": 4, "per_mainwork_p": 25.27472527, "per_mainwork_m": 94.20289855, "per_mainwork_f": 5.79710145, "main_cl_p": 58, "main_cl_m": 57, "main_cl_f": 1, "per_main_cl_p": 84.05797101, "per_main_cl_m": 98.27586207, "per_main_cl_f": 1.72413793, "main_al_p": 10, "main_al_m": 7, "main_al_f": 3, "per_main_al_p": 14.49275362, "per_main_al_m": 70.0, "per_main_al_f": 30.0, "main_hh_p": 0, "main_hh_m": 0, "main_hh_f": 0, "per_main_hh_p": 0.0, "per_main_hh_m": 0.0, "per_main_hh_f": 0.0, "main_ot_p": 1, "main_ot_m": 1, "main_ot_f": 0, "per_main_ot_p": 1.44927536, "per_main_ot_m": 100.0, "per_main_ot_f": 0.0, "margwork_p": 26, "margwork_m": 26, "margwork_f": 0, "per_margwork_p": 9.52380952, "per_margwork_m": 100.0, "per_margwork_f": 0.0, "marg_cl_p": 20, "marg_cl_m": 20, "marg_cl_f": 0, "per_marg_cl_p": 76.92307692, "per_marg_cl_m": 100.0, "per_marg_cl_f": 0.0, "marg_al_p": 6, "marg_al_m": 6, "marg_al_f": 0, "per_marg_al_p": 23.07692308, "per_marg_al_m": 100.0, "per_marg_al_f": 0.0, "marg_hh_p": 0, "marg_hh_m": 0, "marg_hh_f": 0, "per_marg_hh_p": 0.0, "per_marg_hh_m": 0.0, "per_marg_hh_f": 0.0, "marg_ot_p": 0, "marg_ot_m": 0, "marg_ot_f": 0, "per_marg_ot_p": 0.0, "per_marg_ot_m": 0.0, "per_marg_ot_f": 0.0, "margwork_3_6_p": 15, "margwork_3_6_m": 15, "margwork_3_6_f": 0, "per_margwork_3_6_p": 57.69230769, "per_margwork_3_6_m": 100.0, "per_margwork_3_6_f": 0.0, "marg_cl_3_6_p": 13, "marg_cl_3_6_m": 13, "marg_cl_3_6_f": 0, "per_marg_cl_3_6_p": 50.0, "per_marg_cl_3_6_m": 100.0, "per_marg_cl_3_6_f": 0.0, "marg_al_3_6_p": 2, "marg_al_3_6_m": 2, "marg_al_3_6_f": 0, "per_marg_al_3_6_p": 7.69230769, "per_marg_al_3_6_m": 100.0, "per_marg_al_3_6_f": 0.0, "marg_hh_3_6_p": 0, "marg_hh_3_6_m": 0, "marg_hh_3_6_f": 0, "per_marg_hh_3_6_p": 0.0, "per_marg_hh_3_6_m": 0.0, "per_marg_hh_3_6_f": 0.0, "marg_ot_3_6_p": 0, "marg_ot_3_6_m": 0, "marg_ot_3_6_f": 0, "per_marg_ot_3_6_p": 0.0, "per_marg_ot_3_6_m": 0.0, "per_marg_ot_3_6_f": 0.0, "margwork_0_3_p": 11, "margwork_0_3_m": 11, "margwork_0_3_f": 0, "per_margwork_0_3_p": 42.30769231, "per_margwork_0_3_m": 100.0, "per_margwork_0_3_f": 0.0, "marg_cl_0_3_p": 7, "marg_cl_0_3_m": 7, "marg_cl_0_3_f": 0, "per_marg_cl_0_3_p": 26.92307692, "per_marg_cl_0_3_m": 100.0, "per_marg_cl_0_3_f": 0.0, "marg_al_0_3_p": 4, "marg_al_0_3_m": 4, "marg_al_0_3_f": 0, "per_marg_al_0_3_p": 15.38461538, "per_marg_al_0_3_m": 100.0, "per_marg_al_0_3_f": 0.0, "marg_hh_0_3_p": 0, "marg_hh_0_3_m": 0, "marg_hh_0_3_f": 0, "per_marg_hh_0_3_p": 0.0, "per_marg_hh_0_3_m": 0.0, "per_marg_hh_0_3_f": 0.0, "marg_ot_0_3_p": 0, "marg_ot_0_3_m": 0, "marg_ot_0_3_f": 0, "per_marg_ot_0_3_p": 0.0, "per_marg_ot_0_3_m": 0.0, "per_marg_ot_0_3_f": 0.0, "non_work_p": 178, "non_work_m": 58, "non_work_f": 120, "per_non_work_p": 65.2014652, "per_non_work_m": 32.58426966, "per_non_work_f": 67.41573034, "per_hc_tot_tot": 100, "per_hc_tot_god": 10.3, "per_hc_tot_liv": 76.5, "per_hc_tot_dil": 13.2, "per_hc_res_tot": 98.5, "per_hc_res_god": 10.3, "per_hc_res_liv": 75.0, "per_hc_res_dil": 13.2, "per_hc_oth_tot": 1.5, "per_hc_oth_god": 0.0, "per_hc_oth_liv": 1.5, "per_hc_oth_dil": 0.0, "per_mt_grsbam": 23.5, "per_mt_plastic": 0.0, "per_mt_h_tiles": 4.4, "per_mt_m_tiles": 0.0, "per_mt_b_brick": 0.0, "per_mt_stone": 0.0, "per_mt_asbstos": 66.2, "per_mt_concrte": 5.9, "per_mt_oth": 0.0, "per_mw_grsbam": 2.9, "per_mw_plastic": 0.0, "per_mw_mud": 89.7, "per_mw_wood": 0.0, "per_mw_no_mrtr": 0.0, "per_mw_st_mrtr": 0.0, "per_mw_asbstos": 0.0, "per_mw_b_brick": 7.4, "per_mw_concrte": 0.0, "per_mw_oth": 0.0, "per_mf_mud": 94.1, "per_mf_wood": 0.0, "per_mf_b_brick": 0.0, "per_mf_stone": 0.0, "per_mf_cement": 5.9, "per_mf_fl_tile": 0.0, "per_mf_oth": 0.0, "per_dw_n_exrm": 0.0, "per_dw_1_room": 86.8, "per_dw_2_room": 13.2, "per_dw_3_room": 0.0, "per_dw_4_room": 0.0, "per_dw_5_room": 0.0, "per_dw_6_room": 0.0, "per_hhsize_1": 4.4, "per_hhsize_2": 7.4, "per_hhsize_3": 16.2, "per_hhsize_4": 32.4, "per_hhsize_5": 23.5, "per_hhsize_6_8": 16.2, "per_hhsize_9p": 0.0, "per_ow_owned": 98.5, "per_ow_rented": 1.5, "per_ow_oth": 0.0, "per_mc_none": 11.8, "per_mcouple_1": 83.8, "per_mcouple_2": 4.4, "per_mcouple_3": 0.0, "per_mcouple_4": 0.0, "per_mcouple_5p": 0.0, "per_dw_t_ts": 0.0, "per_dw_t_unts": 0.0, "per_dw_c_well": 0.0, "per_dw_unc_wel": 0.0, "per_dw_hpump": 0.0, "per_dw_tw_bore": 100.0, "per_dw_spring": 0.0, "per_dw_rivcan": 0.0, "per_dw_tank": 0.0, "per_dw_oth": 0.0, "per_loc_dw_wp": 0.0, "per_loc_dw_np": 2.9, "per_loc_dw_aw": 97.1, "per_light_elec": 89.7, "per_light_kero": 10.3, "per_light_solr": 0.0, "per_light_oil": 0.0, "per_light_oth": 0.0, "per_light_no": 0.0, "per_hh_latrine": 1.5, "per_fl_sewer": 0.0, "per_fl_septict": 0.0, "per_fl_othsys": 1.5, "per_pl_wslab": 0.0, "per_pl_without": 0.0, "per_ns_open": 0.0, "per_sl_ns_hum": 0.0, "per_sl_ns_anml": 0.0, "per_hh_no_lat": 98.5, "per_as_pub": 0.0, "per_as_open": 98.5, "per_hh_bathrm": 0.0, "per_hh_en_wrf": 0.0, "per_hh_no_btrm": 100.0, "per_wwoc_drain": 0.0, "per_wwoc_open": 0.0, "per_wwoc_nodrn": 100.0, "per_cook_fire": 100.0, "per_cook_resdu": 0.0, "per_cook_cwdng": 0.0, "per_cook_coal": 0.0, "per_cook_kero": 0.0, "per_cook_lpng": 0.0, "per_cook_elec": 0.0, "per_cook_biogs": 0.0, "per_cook_oth": 0.0, "per_cook_no": 0.0, "per_kf_inside": 100.0, "per_kf_in_has": 100.0, "per_kf_in_does": 0.0, "per_kf_outside": 0.0, "per_kf_out_has": 0.0, "per_kf_out_dos": 0.0, "per_kf_no_cook": 0.0, "per_hh_banking": 25.0, "per_hh_radio": 0.0, "per_hh_tv": 2.9, "per_hh_cmp_int": 0.0, "per_hh_cmp_wnt": 0.0, "per_hh_ph_ll": 0.0, "per_hh_ph_mob": 30.9, "per_hh_ph_bth": 0.0, "per_hh_bcycl": 82.4, "per_hh_2wheel": 4.4, "per_hh_4wheel": 2.9, "per_hh_tvcomp": 0.0, "per_hh_no_ast": 16.2, "per_hs_perma": 7.4, "per_hs_sperma": 69.1, "per_hs_temp": 23.5, "per_hs_servc": 20.6, "per_hs_nservc": 2.9, "per_hs_unclss": 0.0, "avghhsz_cy": 3.95652174, "st_areashape": 2839295.172510945, "st_lengthshape": 8105.237005140369}, "geometry": {"type": "Polygon", "coordinates": [[[87.05498999898019, 22.97649000023317], [87.05441999996611, 22.97602999974709], [87.05372999950481, 22.975200000068607], [87.05318999972964, 22.974189999513083], [87.05272000027469, 22.973130000114786], [87.05194000030002, 22.971319999917814], [87.05122999974724, 22.970039999514242], [87.05044999977251, 22.969149999688845], [87.04921999953608, 22.967890000352543], [87.04894000005189, 22.96777999929516], [87.0491599992616, 22.96711000047115], [87.04939999946112, 22.966589999428606], [87.04950999906596, 22.96613999975932], [87.04941999955258, 22.965609999312406], [87.04913999917012, 22.964809998947946], [87.04900999947378, 22.963670000010296], [87.04900000032634, 22.962359999818467], [87.04878000021833, 22.96051999962419], [87.04830999986504, 22.958769999596825], [87.04802000033513, 22.95834999976114], [87.0472299994164, 22.957509999485726], [87.04580999920914, 22.955749999678876], [87.0454700003488, 22.955019998919603], [87.04564000022812, 22.95499999938727], [87.04645999948745, 22.955089999741073], [87.04808999975701, 22.95553999978476], [87.04935999927815, 22.955659999764155], [87.04966999979786, 22.955549999511387], [87.04982999963144, 22.95547999975512], [87.05058000036718, 22.95513999936029], [87.05218999964694, 22.954530000426942], [87.05535999977438, 22.953909999723024], [87.05750999972763, 22.953499999564563], [87.05877000010133, 22.953349999660162], [87.05873999996409, 22.953429999574745], [87.05836000002249, 22.954229999427188], [87.05785999953197, 22.95531000007814], [87.05753999986484, 22.956279999891983], [87.05768000050523, 22.95744999950278], [87.05832999988525, 22.9592599992732], [87.0595799993149, 22.963380000234473], [87.06048999898594, 22.966279999780166], [87.0609100000088, 22.96792000009907], [87.06105999979664, 22.968679999452007], [87.06148999996694, 22.97081999985875], [87.06223999980442, 22.973130000114786], [87.06214999939272, 22.974460000122374], [87.06177999949685, 22.974159999503993], [87.06083999968861, 22.97434999944915], [87.05892999903655, 22.973549999528768], [87.05715999992324, 22.974279999500435], [87.05651000054323, 22.975509999937103], [87.05498999898019, 22.97649000023317]]]}}]}