{"type": "FeatureCollection", "features": [{"type": "Feature", "properties": {"premiumdata.sde.IN_Village_PCA.area": 1.09725801, "objectid": 29128, "id": "295425592111708", "name": "Jinagathimmanahalli", "subdistrict": "Malur", "district": "Kolar", "state": "Karnataka", "country": "India", "censusname": "Jinagathimmanahalli", "villagename_locallang": null, "lgd_villagename": "Jinagathimmanahalli", "lgd_villagecode": 622435, "lgd_subdistrictcode": 5592, "lgd_districtcode": 542, "lgd_statecode": 29, "censuscode2001": "01954600", "censuscode2011": "622435", "censuscode2021": null, "level": "Village", "tru": "Rural", "no_hh": 56, "tot_p": 289, "tot_m": 154, "tot_f": 135, "per_tot_m": 53.28719723, "per_tot_f": 46.71280277, "p_06": 33, "m_06": 16, "f_06": 17, "per_p_06": 11.41868512, "per_m_06": 48.48484848, "per_f_06": 51.51515152, "p_sc": 281, "m_sc": 150, "f_sc": 131, "per_p_sc": 97.23183391, "per_m_sc": 53.38078292, "per_f_sc": 46.61921708, "p_st": 0, "m_st": 0, "f_st": 0, "per_p_st": 0.0, "per_m_st": 0.0, "per_f_st": 0.0, "p_lit": 162, "m_lit": 101, "f_lit": 61, "per_p_lit": 56.05536332, "per_m_lit": 62.34567901, "per_f_lit": 37.65432099, "p_ill": 127, "m_ill": 53, "f_ill": 74, "per_p_ill": 43.94463668, "per_m_ill": 41.73228346, "per_f_ill": 58.26771654, "tot_work_p": 167, "tot_work_m": 91, "tot_work_f": 76, "per_tot_work_p": 57.78546713, "per_tot_work_m": 54.49101796, "per_tot_work_f": 45.50898204, "mainwork_p": 103, "mainwork_m": 90, "mainwork_f": 13, "per_mainwork_p": 35.64013841, "per_mainwork_m": 87.37864078000001, "per_mainwork_f": 12.62135922, "main_cl_p": 15, "main_cl_m": 15, "main_cl_f": 0, "per_main_cl_p": 14.5631068, "per_main_cl_m": 100.0, "per_main_cl_f": 0.0, "main_al_p": 70, "main_al_m": 64, "main_al_f": 6, "per_main_al_p": 67.96116505, "per_main_al_m": 91.42857143, "per_main_al_f": 8.57142857, "main_hh_p": 0, "main_hh_m": 0, "main_hh_f": 0, "per_main_hh_p": 0.0, "per_main_hh_m": 0.0, "per_main_hh_f": 0.0, "main_ot_p": 18, "main_ot_m": 11, "main_ot_f": 7, "per_main_ot_p": 17.47572816, "per_main_ot_m": 61.11111111, "per_main_ot_f": 38.88888889, "margwork_p": 64, "margwork_m": 1, "margwork_f": 63, "per_margwork_p": 22.14532872, "per_margwork_m": 1.5625, "per_margwork_f": 98.4375, "marg_cl_p": 9, "marg_cl_m": 0, "marg_cl_f": 9, "per_marg_cl_p": 14.0625, "per_marg_cl_m": 0.0, "per_marg_cl_f": 100.0, "marg_al_p": 55, "marg_al_m": 1, "marg_al_f": 54, "per_marg_al_p": 85.9375, "per_marg_al_m": 1.81818182, "per_marg_al_f": 98.18181818, "marg_hh_p": 0, "marg_hh_m": 0, "marg_hh_f": 0, "per_marg_hh_p": 0.0, "per_marg_hh_m": 0.0, "per_marg_hh_f": 0.0, "marg_ot_p": 0, "marg_ot_m": 0, "marg_ot_f": 0, "per_marg_ot_p": 0.0, "per_marg_ot_m": 0.0, "per_marg_ot_f": 0.0, "margwork_3_6_p": 64, "margwork_3_6_m": 1, "margwork_3_6_f": 63, "per_margwork_3_6_p": 100.0, "per_margwork_3_6_m": 1.5625, "per_margwork_3_6_f": 98.4375, "marg_cl_3_6_p": 9, "marg_cl_3_6_m": 0, "marg_cl_3_6_f": 9, "per_marg_cl_3_6_p": 14.0625, "per_marg_cl_3_6_m": 0.0, "per_marg_cl_3_6_f": 100.0, "marg_al_3_6_p": 55, "marg_al_3_6_m": 1, "marg_al_3_6_f": 54, "per_marg_al_3_6_p": 85.9375, "per_marg_al_3_6_m": 1.81818182, "per_marg_al_3_6_f": 98.18181818, "marg_hh_3_6_p": 0, "marg_hh_3_6_m": 0, "marg_hh_3_6_f": 0, "per_marg_hh_3_6_p": 0.0, "per_marg_hh_3_6_m": 0.0, "per_marg_hh_3_6_f": 0.0, "marg_ot_3_6_p": 0, "marg_ot_3_6_m": 0, "marg_ot_3_6_f": 0, "per_marg_ot_3_6_p": 0.0, "per_marg_ot_3_6_m": 0.0, "per_marg_ot_3_6_f": 0.0, "margwork_0_3_p": 0, "margwork_0_3_m": 0, "margwork_0_3_f": 0, "per_margwork_0_3_p": 0.0, "per_margwork_0_3_m": 0.0, "per_margwork_0_3_f": 0.0, "marg_cl_0_3_p": 0, "marg_cl_0_3_m": 0, "marg_cl_0_3_f": 0, "per_marg_cl_0_3_p": 0.0, "per_marg_cl_0_3_m": 0.0, "per_marg_cl_0_3_f": 0.0, "marg_al_0_3_p": 0, "marg_al_0_3_m": 0, "marg_al_0_3_f": 0, "per_marg_al_0_3_p": 0.0, "per_marg_al_0_3_m": 0.0, "per_marg_al_0_3_f": 0.0, "marg_hh_0_3_p": 0, "marg_hh_0_3_m": 0, "marg_hh_0_3_f": 0, "per_marg_hh_0_3_p": 0.0, "per_marg_hh_0_3_m": 0.0, "per_marg_hh_0_3_f": 0.0, "marg_ot_0_3_p": 0, "marg_ot_0_3_m": 0, "marg_ot_0_3_f": 0, "per_marg_ot_0_3_p": 0.0, "per_marg_ot_0_3_m": 0.0, "per_marg_ot_0_3_f": 0.0, "non_work_p": 122, "non_work_m": 63, "non_work_f": 59, "per_non_work_p": 42.21453287, "per_non_work_m": 51.63934426, "per_non_work_f": 48.36065574, "per_hc_tot_tot": 100, "per_hc_tot_god": 32.1, "per_hc_tot_liv": 57.1, "per_hc_tot_dil": 10.7, "per_hc_res_tot": 92.9, "per_hc_res_god": 30.4, "per_hc_res_liv": 51.8, "per_hc_res_dil": 10.7, "per_hc_oth_tot": 7.1, "per_hc_oth_god": 1.8, "per_hc_oth_liv": 5.4, "per_hc_oth_dil": 0.0, "per_mt_grsbam": 3.6, "per_mt_plastic": 0.0, "per_mt_h_tiles": 0.0, "per_mt_m_tiles": 64.3, "per_mt_b_brick": 0.0, "per_mt_stone": 10.7, "per_mt_asbstos": 21.4, "per_mt_concrte": 0.0, "per_mt_oth": 0.0, "per_mw_grsbam": 1.8, "per_mw_plastic": 0.0, "per_mw_mud": 35.7, "per_mw_wood": 0.0, "per_mw_no_mrtr": 5.4, "per_mw_st_mrtr": 0.0, "per_mw_asbstos": 0.0, "per_mw_b_brick": 50.0, "per_mw_concrte": 0.0, "per_mw_oth": 7.1, "per_mf_mud": 71.4, "per_mf_wood": 0.0, "per_mf_b_brick": 0.0, "per_mf_stone": 0.0, "per_mf_cement": 28.6, "per_mf_fl_tile": 0.0, "per_mf_oth": 0.0, "per_dw_n_exrm": 25.0, "per_dw_1_room": 42.9, "per_dw_2_room": 21.4, "per_dw_3_room": 8.9, "per_dw_4_room": 1.8, "per_dw_5_room": 0.0, "per_dw_6_room": 0.0, "per_hhsize_1": 1.8, "per_hhsize_2": 5.4, "per_hhsize_3": 10.7, "per_hhsize_4": 21.4, "per_hhsize_5": 19.6, "per_hhsize_6_8": 25.0, "per_hhsize_9p": 16.1, "per_ow_owned": 98.2, "per_ow_rented": 1.8, "per_ow_oth": 0.0, "per_mc_none": 10.7, "per_mcouple_1": 64.3, "per_mcouple_2": 19.6, "per_mcouple_3": 3.6, "per_mcouple_4": 1.8, "per_mcouple_5p": 0.0, "per_dw_t_ts": 1.8, "per_dw_t_unts": 98.2, "per_dw_c_well": 0.0, "per_dw_unc_wel": 0.0, "per_dw_hpump": 0.0, "per_dw_tw_bore": 0.0, "per_dw_spring": 0.0, "per_dw_rivcan": 0.0, "per_dw_tank": 0.0, "per_dw_oth": 0.0, "per_loc_dw_wp": 26.8, "per_loc_dw_np": 67.9, "per_loc_dw_aw": 5.4, "per_light_elec": 76.8, "per_light_kero": 23.2, "per_light_solr": 0.0, "per_light_oil": 0.0, "per_light_oth": 0.0, "per_light_no": 0.0, "per_hh_latrine": 5.4, "per_fl_sewer": 0.0, "per_fl_septict": 1.8, "per_fl_othsys": 0.0, "per_pl_wslab": 3.6, "per_pl_without": 0.0, "per_ns_open": 0.0, "per_sl_ns_hum": 0.0, "per_sl_ns_anml": 0.0, "per_hh_no_lat": 94.6, "per_as_pub": 0.0, "per_as_open": 94.6, "per_hh_bathrm": 25.0, "per_hh_en_wrf": 33.9, "per_hh_no_btrm": 41.1, "per_wwoc_drain": 0.0, "per_wwoc_open": 14.3, "per_wwoc_nodrn": 85.7, "per_cook_fire": 100.0, "per_cook_resdu": 0.0, "per_cook_cwdng": 0.0, "per_cook_coal": 0.0, "per_cook_kero": 0.0, "per_cook_lpng": 0.0, "per_cook_elec": 0.0, "per_cook_biogs": 0.0, "per_cook_oth": 0.0, "per_cook_no": 0.0, "per_kf_inside": 98.2, "per_kf_in_has": 98.2, "per_kf_in_does": 0.0, "per_kf_outside": 1.8, "per_kf_out_has": 1.8, "per_kf_out_dos": 0.0, "per_kf_no_cook": 0.0, "per_hh_banking": 96.4, "per_hh_radio": 35.7, "per_hh_tv": 46.4, "per_hh_cmp_int": 0.0, "per_hh_cmp_wnt": 7.1, "per_hh_ph_ll": 1.8, "per_hh_ph_mob": 75.0, "per_hh_ph_bth": 5.4, "per_hh_bcycl": 51.8, "per_hh_2wheel": 19.6, "per_hh_4wheel": 1.8, "per_hh_tvcomp": 0.0, "per_hh_no_ast": 7.1, "per_hs_perma": 55.4, "per_hs_sperma": 33.9, "per_hs_temp": 3.6, "per_hs_servc": 3.6, "per_hs_nservc": 0.0, "per_hs_unclss": 7.1, "avghhsz_cy": 5.16071429, "st_areashape": 1162129.25972722, "st_lengthshape": 4253.779754116036}, "geometry": {"type": "Polygon", "coordinates": [[[78.05049274735815, 12.930241735933162], [78.05145437770014, 12.930537708381392], [78.05148844181569, 12.930700743612697], [78.05181517705081, 12.93212897135705], [78.05203591377739, 12.93344875096951], [78.05239913768105, 12.936192285691343], [78.05076330285374, 12.936512678823059], [78.0500905455543, 12.936521557419491], [78.04959287978522, 12.93661628898563], [78.04892923499601, 12.93710423814834], [78.0481502977283, 12.937768345258002], [78.04737601014055, 12.938468637975436], [78.04686884558565, 12.939182523576683], [78.04644480933048, 12.93955303636459], [78.0459378630662, 12.940009337367815], [78.04560127780398, 12.940533508992516], [78.04312447524194, 12.937992238579724], [78.04205491681016, 12.935096650277172], [78.04165154000995, 12.92930105818646], [78.04261004601135, 12.929030209677435], [78.04392794011017, 12.928519986672875], [78.04429203178638, 12.928294079855823], [78.0455361858785, 12.927978124814384], [78.04588641475324, 12.927779368175635], [78.04695082673679, 12.927635054588887], [78.05049274735815, 12.930241735933162]]]}}]}