{"type": "FeatureCollection", "features": [{"type": "Feature", "properties": {"premiumdata.sde.IN_Village_PCA.area": 0.30735886, "objectid": 590060, "id": "102241275322771", "name": "Shahpur Chandan", "subdistrict": "Mahua", "district": "Vaishali", "state": "Bihar", "country": "India", "censusname": "Shahpur Chandan", "villagename_locallang": null, "lgd_villagename": "Shahpur Chandan", "lgd_villagecode": 235313, "lgd_subdistrictcode": 1275, "lgd_districtcode": 224, "lgd_statecode": 10, "censuscode2001": "01937300", "censuscode2011": "235313", "censuscode2021": null, "level": "Village", "tru": "Rural", "no_hh": 84, "tot_p": 510, "tot_m": 270, "tot_f": 240, "per_tot_m": 52.94117647, "per_tot_f": 47.05882353, "p_06": 96, "m_06": 45, "f_06": 51, "per_p_06": 18.82352941, "per_m_06": 46.875, "per_f_06": 53.125, "p_sc": 163, "m_sc": 95, "f_sc": 68, "per_p_sc": 31.96078431, "per_m_sc": 58.28220859, "per_f_sc": 41.71779141, "p_st": 2, "m_st": 1, "f_st": 1, "per_p_st": 0.39215686, "per_m_st": 50.0, "per_f_st": 50.0, "p_lit": 225, "m_lit": 151, "f_lit": 74, "per_p_lit": 44.11764706, "per_m_lit": 67.11111111, "per_f_lit": 32.88888889, "p_ill": 285, "m_ill": 119, "f_ill": 166, "per_p_ill": 55.88235294, "per_m_ill": 41.75438596, "per_f_ill": 58.24561404000001, "tot_work_p": 137, "tot_work_m": 132, "tot_work_f": 5, "per_tot_work_p": 26.8627451, "per_tot_work_m": 96.35036496000001, "per_tot_work_f": 3.64963504, "mainwork_p": 36, "mainwork_m": 36, "mainwork_f": 0, "per_mainwork_p": 7.05882353, "per_mainwork_m": 100.0, "per_mainwork_f": 0.0, "main_cl_p": 32, "main_cl_m": 32, "main_cl_f": 0, "per_main_cl_p": 88.88888889, "per_main_cl_m": 100.0, "per_main_cl_f": 0.0, "main_al_p": 1, "main_al_m": 1, "main_al_f": 0, "per_main_al_p": 2.77777778, "per_main_al_m": 100.0, "per_main_al_f": 0.0, "main_hh_p": 0, "main_hh_m": 0, "main_hh_f": 0, "per_main_hh_p": 0.0, "per_main_hh_m": 0.0, "per_main_hh_f": 0.0, "main_ot_p": 3, "main_ot_m": 3, "main_ot_f": 0, "per_main_ot_p": 8.33333333, "per_main_ot_m": 100.0, "per_main_ot_f": 0.0, "margwork_p": 101, "margwork_m": 96, "margwork_f": 5, "per_margwork_p": 19.80392157, "per_margwork_m": 95.04950495, "per_margwork_f": 4.95049505, "marg_cl_p": 16, "marg_cl_m": 14, "marg_cl_f": 2, "per_marg_cl_p": 15.84158416, "per_marg_cl_m": 87.5, "per_marg_cl_f": 12.5, "marg_al_p": 51, "marg_al_m": 48, "marg_al_f": 3, "per_marg_al_p": 50.4950495, "per_marg_al_m": 94.11764706, "per_marg_al_f": 5.88235294, "marg_hh_p": 0, "marg_hh_m": 0, "marg_hh_f": 0, "per_marg_hh_p": 0.0, "per_marg_hh_m": 0.0, "per_marg_hh_f": 0.0, "marg_ot_p": 34, "marg_ot_m": 34, "marg_ot_f": 0, "per_marg_ot_p": 33.66336634, "per_marg_ot_m": 100.0, "per_marg_ot_f": 0.0, "margwork_3_6_p": 91, "margwork_3_6_m": 87, "margwork_3_6_f": 4, "per_margwork_3_6_p": 90.0990099, "per_margwork_3_6_m": 95.6043956, "per_margwork_3_6_f": 4.3956044, "marg_cl_3_6_p": 16, "marg_cl_3_6_m": 14, "marg_cl_3_6_f": 2, "per_marg_cl_3_6_p": 15.84158416, "per_marg_cl_3_6_m": 87.5, "per_marg_cl_3_6_f": 12.5, "marg_al_3_6_p": 43, "marg_al_3_6_m": 41, "marg_al_3_6_f": 2, "per_marg_al_3_6_p": 42.57425743, "per_marg_al_3_6_m": 95.34883721, "per_marg_al_3_6_f": 4.65116279, "marg_hh_3_6_p": 0, "marg_hh_3_6_m": 0, "marg_hh_3_6_f": 0, "per_marg_hh_3_6_p": 0.0, "per_marg_hh_3_6_m": 0.0, "per_marg_hh_3_6_f": 0.0, "marg_ot_3_6_p": 32, "marg_ot_3_6_m": 32, "marg_ot_3_6_f": 0, "per_marg_ot_3_6_p": 31.68316832, "per_marg_ot_3_6_m": 100.0, "per_marg_ot_3_6_f": 0.0, "margwork_0_3_p": 10, "margwork_0_3_m": 9, "margwork_0_3_f": 1, "per_margwork_0_3_p": 9.9009901, "per_margwork_0_3_m": 90.0, "per_margwork_0_3_f": 10.0, "marg_cl_0_3_p": 0, "marg_cl_0_3_m": 0, "marg_cl_0_3_f": 0, "per_marg_cl_0_3_p": 0.0, "per_marg_cl_0_3_m": 0.0, "per_marg_cl_0_3_f": 0.0, "marg_al_0_3_p": 8, "marg_al_0_3_m": 7, "marg_al_0_3_f": 1, "per_marg_al_0_3_p": 7.92079208, "per_marg_al_0_3_m": 87.5, "per_marg_al_0_3_f": 12.5, "marg_hh_0_3_p": 0, "marg_hh_0_3_m": 0, "marg_hh_0_3_f": 0, "per_marg_hh_0_3_p": 0.0, "per_marg_hh_0_3_m": 0.0, "per_marg_hh_0_3_f": 0.0, "marg_ot_0_3_p": 2, "marg_ot_0_3_m": 2, "marg_ot_0_3_f": 0, "per_marg_ot_0_3_p": 1.98019802, "per_marg_ot_0_3_m": 100.0, "per_marg_ot_0_3_f": 0.0, "non_work_p": 373, "non_work_m": 138, "non_work_f": 235, "per_non_work_p": 73.1372549, "per_non_work_m": 36.99731903, "per_non_work_f": 63.00268097, "per_hc_tot_tot": 100, "per_hc_tot_god": 20.0, "per_hc_tot_liv": 30.0, "per_hc_tot_dil": 50.0, "per_hc_res_tot": 100.0, "per_hc_res_god": 20.0, "per_hc_res_liv": 30.0, "per_hc_res_dil": 50.0, "per_hc_oth_tot": 0.0, "per_hc_oth_god": 0.0, "per_hc_oth_liv": 0.0, "per_hc_oth_dil": 0.0, "per_mt_grsbam": 20.0, "per_mt_plastic": 10.0, "per_mt_h_tiles": 0.0, "per_mt_m_tiles": 0.0, "per_mt_b_brick": 10.0, "per_mt_stone": 0.0, "per_mt_asbstos": 20.0, "per_mt_concrte": 20.0, "per_mt_oth": 20.0, "per_mw_grsbam": 10.0, "per_mw_plastic": 0.0, "per_mw_mud": 30.0, "per_mw_wood": 0.0, "per_mw_no_mrtr": 0.0, "per_mw_st_mrtr": 0.0, "per_mw_asbstos": 0.0, "per_mw_b_brick": 60.0, "per_mw_concrte": 0.0, "per_mw_oth": 0.0, "per_mf_mud": 90.0, "per_mf_wood": 0.0, "per_mf_b_brick": 0.0, "per_mf_stone": 0.0, "per_mf_cement": 10.0, "per_mf_fl_tile": 0.0, "per_mf_oth": 0.0, "per_dw_n_exrm": 0.0, "per_dw_1_room": 40.0, "per_dw_2_room": 40.0, "per_dw_3_room": 20.0, "per_dw_4_room": 0.0, "per_dw_5_room": 0.0, "per_dw_6_room": 0.0, "per_hhsize_1": 10.0, "per_hhsize_2": 0.0, "per_hhsize_3": 10.0, "per_hhsize_4": 0.0, "per_hhsize_5": 0.0, "per_hhsize_6_8": 30.0, "per_hhsize_9p": 50.0, "per_ow_owned": 100.0, "per_ow_rented": 0.0, "per_ow_oth": 0.0, "per_mc_none": 10.0, "per_mcouple_1": 40.0, "per_mcouple_2": 10.0, "per_mcouple_3": 20.0, "per_mcouple_4": 20.0, "per_mcouple_5p": 0.0, "per_dw_t_ts": 0.0, "per_dw_t_unts": 0.0, "per_dw_c_well": 0.0, "per_dw_unc_wel": 0.0, "per_dw_hpump": 100.0, "per_dw_tw_bore": 0.0, "per_dw_spring": 0.0, "per_dw_rivcan": 0.0, "per_dw_tank": 0.0, "per_dw_oth": 0.0, "per_loc_dw_wp": 20.0, "per_loc_dw_np": 50.0, "per_loc_dw_aw": 30.0, "per_light_elec": 0.0, "per_light_kero": 100.0, "per_light_solr": 0.0, "per_light_oil": 0.0, "per_light_oth": 0.0, "per_light_no": 0.0, "per_hh_latrine": 0.0, "per_fl_sewer": 0.0, "per_fl_septict": 0.0, "per_fl_othsys": 0.0, "per_pl_wslab": 0.0, "per_pl_without": 0.0, "per_ns_open": 0.0, "per_sl_ns_hum": 0.0, "per_sl_ns_anml": 0.0, "per_hh_no_lat": 100.0, "per_as_pub": 0.0, "per_as_open": 100.0, "per_hh_bathrm": 0.0, "per_hh_en_wrf": 40.0, "per_hh_no_btrm": 60.0, "per_wwoc_drain": 0.0, "per_wwoc_open": 50.0, "per_wwoc_nodrn": 50.0, "per_cook_fire": 20.0, "per_cook_resdu": 70.0, "per_cook_cwdng": 0.0, "per_cook_coal": 0.0, "per_cook_kero": 0.0, "per_cook_lpng": 0.0, "per_cook_elec": 0.0, "per_cook_biogs": 0.0, "per_cook_oth": 0.0, "per_cook_no": 10.0, "per_kf_inside": 90.0, "per_kf_in_has": 0.0, "per_kf_in_does": 90.0, "per_kf_outside": 0.0, "per_kf_out_has": 0.0, "per_kf_out_dos": 0.0, "per_kf_no_cook": 10.0, "per_hh_banking": 80.0, "per_hh_radio": 0.0, "per_hh_tv": 0.0, "per_hh_cmp_int": 0.0, "per_hh_cmp_wnt": 0.0, "per_hh_ph_ll": 0.0, "per_hh_ph_mob": 50.0, "per_hh_ph_bth": 0.0, "per_hh_bcycl": 70.0, "per_hh_2wheel": 0.0, "per_hh_4wheel": 0.0, "per_hh_tvcomp": 0.0, "per_hh_no_ast": 20.0, "per_hs_perma": 50.0, "per_hs_sperma": 10.0, "per_hs_temp": 20.0, "per_hs_servc": 10.0, "per_hs_nservc": 10.0, "per_hs_unclss": 20.0, "avghhsz_cy": 6.07142857, "st_areashape": 380653.70594389, "st_lengthshape": 2834.568633914111}, "geometry": {"type": "Polygon", "coordinates": [[[85.41446503701158, 25.782668924353832], [85.4134987740577, 25.78119208646509], [85.41262671473272, 25.779859213385095], [85.41210683901652, 25.778767530258932], [85.41150249291756, 25.777937811166257], [85.41287725666209, 25.77718251474349], [85.41422992634219, 25.77843121692316], [85.41600433169198, 25.778311896717252], [85.41876063786813, 25.781598904236297], [85.41870712163339, 25.78256025986228], [85.41893732660303, 25.7831331849078], [85.41979665590215, 25.784504269707753], [85.4192987466896, 25.784276298353316], [85.41868077943599, 25.784276298353316], [85.41765875715413, 25.784233494981372], [85.41666050159968, 25.784212093694066], [85.41578108686913, 25.783848265556696], [85.41513935198974, 25.78320621427433], [85.41446503701158, 25.782668924353832]]]}}]}