{"type": "FeatureCollection", "features": [{"type": "Feature", "properties": {"premiumdata.sde.IN_Village_PCA.area": 1.33071088, "objectid": 332377, "id": "9145739367602", "name": "Inayatpur", "subdistrict": "Ghaziabad", "district": "Ghaziabad", "state": "Uttar Pradesh", "country": "India", "censusname": "Inayatpur", "villagename_locallang": null, "lgd_villagename": "Inayatpur", "lgd_villagecode": 119756, "lgd_subdistrictcode": 739, "lgd_districtcode": 145, "lgd_statecode": 9, "censuscode2001": "01090200", "censuscode2011": "119756", "censuscode2021": null, "level": "Village", "tru": "Rural", "no_hh": 235, "tot_p": 1274, "tot_m": 706, "tot_f": 568, "per_tot_m": 55.41601256, "per_tot_f": 44.58398744, "p_06": 190, "m_06": 108, "f_06": 82, "per_p_06": 14.91365777, "per_m_06": 56.84210526, "per_f_06": 43.15789474, "p_sc": 242, "m_sc": 132, "f_sc": 110, "per_p_sc": 18.99529042, "per_m_sc": 54.54545455, "per_f_sc": 45.45454545, "p_st": 0, "m_st": 0, "f_st": 0, "per_p_st": 0.0, "per_m_st": 0.0, "per_f_st": 0.0, "p_lit": 885, "m_lit": 572, "f_lit": 313, "per_p_lit": 69.46624804, "per_m_lit": 64.63276836, "per_f_lit": 35.36723164, "p_ill": 389, "m_ill": 134, "f_ill": 255, "per_p_ill": 30.53375196, "per_m_ill": 34.44730077, "per_f_ill": 65.55269923, "tot_work_p": 523, "tot_work_m": 369, "tot_work_f": 154, "per_tot_work_p": 41.05180534, "per_tot_work_m": 70.55449331, "per_tot_work_f": 29.44550669, "mainwork_p": 456, "mainwork_m": 336, "mainwork_f": 120, "per_mainwork_p": 35.79277865, "per_mainwork_m": 73.68421053, "per_mainwork_f": 26.31578947, "main_cl_p": 267, "main_cl_m": 182, "main_cl_f": 85, "per_main_cl_p": 58.55263158, "per_main_cl_m": 68.16479401, "per_main_cl_f": 31.83520599, "main_al_p": 66, "main_al_m": 46, "main_al_f": 20, "per_main_al_p": 14.47368421, "per_main_al_m": 69.6969697, "per_main_al_f": 30.3030303, "main_hh_p": 10, "main_hh_m": 8, "main_hh_f": 2, "per_main_hh_p": 2.19298246, "per_main_hh_m": 80.0, "per_main_hh_f": 20.0, "main_ot_p": 113, "main_ot_m": 100, "main_ot_f": 13, "per_main_ot_p": 24.78070175, "per_main_ot_m": 88.49557522, "per_main_ot_f": 11.50442478, "margwork_p": 67, "margwork_m": 33, "margwork_f": 34, "per_margwork_p": 5.25902669, "per_margwork_m": 49.25373134, "per_margwork_f": 50.74626866, "marg_cl_p": 33, "marg_cl_m": 14, "marg_cl_f": 19, "per_marg_cl_p": 49.25373134, "per_marg_cl_m": 42.42424242, "per_marg_cl_f": 57.57575758, "marg_al_p": 22, "marg_al_m": 8, "marg_al_f": 14, "per_marg_al_p": 32.8358209, "per_marg_al_m": 36.36363636, "per_marg_al_f": 63.63636364, "marg_hh_p": 1, "marg_hh_m": 1, "marg_hh_f": 0, "per_marg_hh_p": 1.49253731, "per_marg_hh_m": 100.0, "per_marg_hh_f": 0.0, "marg_ot_p": 11, "marg_ot_m": 10, "marg_ot_f": 1, "per_marg_ot_p": 16.41791045, "per_marg_ot_m": 90.90909091, "per_marg_ot_f": 9.09090909, "margwork_3_6_p": 62, "margwork_3_6_m": 28, "margwork_3_6_f": 34, "per_margwork_3_6_p": 92.53731343, "per_margwork_3_6_m": 45.16129032, "per_margwork_3_6_f": 54.83870968, "marg_cl_3_6_p": 30, "marg_cl_3_6_m": 11, "marg_cl_3_6_f": 19, "per_marg_cl_3_6_p": 44.7761194, "per_marg_cl_3_6_m": 36.66666667000001, "per_marg_cl_3_6_f": 63.33333333, "marg_al_3_6_p": 22, "marg_al_3_6_m": 8, "marg_al_3_6_f": 14, "per_marg_al_3_6_p": 32.8358209, "per_marg_al_3_6_m": 36.36363636, "per_marg_al_3_6_f": 63.63636364, "marg_hh_3_6_p": 1, "marg_hh_3_6_m": 1, "marg_hh_3_6_f": 0, "per_marg_hh_3_6_p": 1.49253731, "per_marg_hh_3_6_m": 100.0, "per_marg_hh_3_6_f": 0.0, "marg_ot_3_6_p": 9, "marg_ot_3_6_m": 8, "marg_ot_3_6_f": 1, "per_marg_ot_3_6_p": 13.43283582, "per_marg_ot_3_6_m": 88.88888889, "per_marg_ot_3_6_f": 11.11111111, "margwork_0_3_p": 5, "margwork_0_3_m": 5, "margwork_0_3_f": 0, "per_margwork_0_3_p": 7.46268657, "per_margwork_0_3_m": 100.0, "per_margwork_0_3_f": 0.0, "marg_cl_0_3_p": 3, "marg_cl_0_3_m": 3, "marg_cl_0_3_f": 0, "per_marg_cl_0_3_p": 4.47761194, "per_marg_cl_0_3_m": 100.0, "per_marg_cl_0_3_f": 0.0, "marg_al_0_3_p": 0, "marg_al_0_3_m": 0, "marg_al_0_3_f": 0, "per_marg_al_0_3_p": 0.0, "per_marg_al_0_3_m": 0.0, "per_marg_al_0_3_f": 0.0, "marg_hh_0_3_p": 0, "marg_hh_0_3_m": 0, "marg_hh_0_3_f": 0, "per_marg_hh_0_3_p": 0.0, "per_marg_hh_0_3_m": 0.0, "per_marg_hh_0_3_f": 0.0, "marg_ot_0_3_p": 2, "marg_ot_0_3_m": 2, "marg_ot_0_3_f": 0, "per_marg_ot_0_3_p": 2.98507463, "per_marg_ot_0_3_m": 100.0, "per_marg_ot_0_3_f": 0.0, "non_work_p": 751, "non_work_m": 337, "non_work_f": 414, "per_non_work_p": 58.94819466, "per_non_work_m": 44.873502, "per_non_work_f": 55.126498, "per_hc_tot_tot": 100, "per_hc_tot_god": 35.2, "per_hc_tot_liv": 63.6, "per_hc_tot_dil": 1.3, "per_hc_res_tot": 66.1, "per_hc_res_god": 25.4, "per_hc_res_liv": 39.4, "per_hc_res_dil": 1.3, "per_hc_oth_tot": 33.9, "per_hc_oth_god": 9.7, "per_hc_oth_liv": 24.2, "per_hc_oth_dil": 0.0, "per_mt_grsbam": 0.0, "per_mt_plastic": 0.0, "per_mt_h_tiles": 0.4, "per_mt_m_tiles": 0.0, "per_mt_b_brick": 0.0, "per_mt_stone": 32.6, "per_mt_asbstos": 0.0, "per_mt_concrte": 66.9, "per_mt_oth": 0.0, "per_mw_grsbam": 0.0, "per_mw_plastic": 0.0, "per_mw_mud": 0.0, "per_mw_wood": 0.0, "per_mw_no_mrtr": 0.0, "per_mw_st_mrtr": 0.0, "per_mw_asbstos": 0.0, "per_mw_b_brick": 98.7, "per_mw_concrte": 0.4, "per_mw_oth": 0.8, "per_mf_mud": 33.9, "per_mf_wood": 0.0, "per_mf_b_brick": 15.3, "per_mf_stone": 0.8, "per_mf_cement": 46.2, "per_mf_fl_tile": 3.8, "per_mf_oth": 0.0, "per_dw_n_exrm": 0.4, "per_dw_1_room": 16.9, "per_dw_2_room": 21.6, "per_dw_3_room": 19.1, "per_dw_4_room": 22.5, "per_dw_5_room": 9.3, "per_dw_6_room": 10.2, "per_hhsize_1": 3.8, "per_hhsize_2": 10.6, "per_hhsize_3": 8.9, "per_hhsize_4": 13.6, "per_hhsize_5": 18.6, "per_hhsize_6_8": 35.2, "per_hhsize_9p": 9.3, "per_ow_owned": 99.6, "per_ow_rented": 0.0, "per_ow_oth": 0.4, "per_mc_none": 12.7, "per_mcouple_1": 64.0, "per_mcouple_2": 16.1, "per_mcouple_3": 5.5, "per_mcouple_4": 1.7, "per_mcouple_5p": 0.0, "per_dw_t_ts": 0.0, "per_dw_t_unts": 16.1, "per_dw_c_well": 0.0, "per_dw_unc_wel": 0.0, "per_dw_hpump": 83.5, "per_dw_tw_bore": 0.0, "per_dw_spring": 0.0, "per_dw_rivcan": 0.0, "per_dw_tank": 0.0, "per_dw_oth": 0.4, "per_loc_dw_wp": 78.4, "per_loc_dw_np": 17.8, "per_loc_dw_aw": 3.8, "per_light_elec": 69.9, "per_light_kero": 30.1, "per_light_solr": 0.0, "per_light_oil": 0.0, "per_light_oth": 0.0, "per_light_no": 0.0, "per_hh_latrine": 66.9, "per_fl_sewer": 0.4, "per_fl_septict": 65.3, "per_fl_othsys": 0.4, "per_pl_wslab": 0.0, "per_pl_without": 0.8, "per_ns_open": 0.0, "per_sl_ns_hum": 0.0, "per_sl_ns_anml": 0.0, "per_hh_no_lat": 33.1, "per_as_pub": 0.4, "per_as_open": 32.6, "per_hh_bathrm": 67.8, "per_hh_en_wrf": 22.5, "per_hh_no_btrm": 9.7, "per_wwoc_drain": 2.1, "per_wwoc_open": 95.3, "per_wwoc_nodrn": 2.5, "per_cook_fire": 26.3, "per_cook_resdu": 0.0, "per_cook_cwdng": 72.5, "per_cook_coal": 0.0, "per_cook_kero": 0.0, "per_cook_lpng": 0.8, "per_cook_elec": 0.0, "per_cook_biogs": 0.0, "per_cook_oth": 0.0, "per_cook_no": 0.4, "per_kf_inside": 92.4, "per_kf_in_has": 62.7, "per_kf_in_does": 29.7, "per_kf_outside": 7.2, "per_kf_out_has": 0.4, "per_kf_out_dos": 6.8, "per_kf_no_cook": 0.4, "per_hh_banking": 71.2, "per_hh_radio": 20.3, "per_hh_tv": 66.1, "per_hh_cmp_int": 0.4, "per_hh_cmp_wnt": 0.8, "per_hh_ph_ll": 1.7, "per_hh_ph_mob": 73.7, "per_hh_ph_bth": 0.0, "per_hh_bcycl": 60.2, "per_hh_2wheel": 46.6, "per_hh_4wheel": 11.9, "per_hh_tvcomp": 0.8, "per_hh_no_ast": 5.1, "per_hs_perma": 99.2, "per_hs_sperma": 0.0, "per_hs_temp": 0.0, "per_hs_servc": 0.0, "per_hs_nservc": 0.0, "per_hs_unclss": 0.8, "avghhsz_cy": 5.4212766, "st_areashape": 1734105.32158334, "st_lengthshape": 5555.227100916069}, "geometry": {"type": "Polygon", "coordinates": [[[77.54183354943608, 28.64502076340806], [77.5425895904438, 28.645842982439216], [77.54511406480134, 28.648443639525706], [77.54504785626993, 28.64850760239553], [77.54475880895423, 28.648737619603978], [77.54410924166385, 28.649378173412018], [77.54386885608709, 28.64952922452699], [77.54360286582977, 28.649691924611123], [77.5435517103676, 28.64972321509138], [77.5435224405607, 28.64975698092413], [77.54327801795505, 28.65003895736732], [77.54246979201581, 28.650914091098997], [77.54205542522641, 28.65136516623846], [77.5420383509478, 28.651396937094354], [77.54027215080981, 28.651540297620894], [77.53902442591448, 28.65208962481343], [77.53859172720503, 28.65251036857284], [77.53849779307075, 28.653070541728308], [77.53853041898353, 28.653526041798592], [77.53844742543104, 28.65378345251733], [77.5381016270473, 28.65383865804676], [77.53638726059948, 28.653032729793566], [77.53555605036541, 28.652251687121506], [77.53509359945377, 28.6514593774956], [77.53407008057863, 28.650564652115452], [77.5339623043041, 28.650150335677683], [77.53304892517099, 28.649605055876037], [77.53195233194072, 28.64903296504661], [77.53123285595831, 28.648558101942942], [77.53067469134977, 28.64769812817866], [77.53050587275509, 28.646935717917273], [77.53060769050433, 28.64615930243855], [77.53041019678741, 28.64483326661183], [77.53028938146655, 28.64329674111877], [77.52976058188635, 28.643597188498052], [77.52991879227585, 28.643479027899804], [77.53028712040694, 28.643226503501456], [77.53059654869986, 28.642991965446733], [77.53083703668456, 28.64274168204149], [77.53114647755385, 28.64251163670446], [77.53145590135514, 28.64229287348276], [77.53175259243561, 28.64207638982737], [77.53322065251058, 28.640915016255054], [77.53348914188099, 28.640709834621546], [77.5339894945111, 28.640311745582736], [77.53403903210744, 28.640272332531794], [77.53414447455889, 28.640214295799872], [77.53446100942396, 28.640040074246325], [77.53477045029327, 28.639814606780703], [77.53505936286169, 28.639591299069004], [77.53534326193248, 28.639426713998276], [77.53563478680178, 28.6391921627179], [77.53523603812187, 28.638725156555612], [77.53657913535429, 28.639065736964334], [77.54013306914594, 28.64315454480052], [77.54183354943608, 28.64502076340806]]]}}]}