{"type": "FeatureCollection", "features": [{"type": "Feature", "properties": {"premiumdata.sde.IN_Village_PCA.area": 11.22741027, "objectid": 102958, "id": "274723987644193", "name": "Khurampur", "subdistrict": "Lonar", "district": "Buldhana", "state": "Maharashtra", "country": "India", "censusname": "Khurampur", "villagename_locallang": null, "lgd_villagename": "Khurampur", "lgd_villagecode": 529588, "lgd_subdistrictcode": 3987, "lgd_districtcode": 472, "lgd_statecode": 27, "censuscode2001": "00457400", "censuscode2011": "529588", "censuscode2021": null, "level": "Village", "tru": "Rural", "no_hh": 575, "tot_p": 2595, "tot_m": 1340, "tot_f": 1255, "per_tot_m": 51.63776493, "per_tot_f": 48.36223507, "p_06": 408, "m_06": 223, "f_06": 185, "per_p_06": 15.72254335, "per_m_06": 54.65686275, "per_f_06": 45.34313725, "p_sc": 95, "m_sc": 44, "f_sc": 51, "per_p_sc": 3.66088632, "per_m_sc": 46.31578947, "per_f_sc": 53.68421053, "p_st": 107, "m_st": 49, "f_st": 58, "per_p_st": 4.12331407, "per_m_st": 45.79439252, "per_f_st": 54.20560748, "p_lit": 1422, "m_lit": 888, "f_lit": 534, "per_p_lit": 54.79768786, "per_m_lit": 62.44725738, "per_f_lit": 37.55274262, "p_ill": 1173, "m_ill": 452, "f_ill": 721, "per_p_ill": 45.20231214, "per_m_ill": 38.53367434, "per_f_ill": 61.46632566, "tot_work_p": 1271, "tot_work_m": 709, "tot_work_f": 562, "per_tot_work_p": 48.97880539, "per_tot_work_m": 55.78284815, "per_tot_work_f": 44.21715185, "mainwork_p": 1213, "mainwork_m": 679, "mainwork_f": 534, "per_mainwork_p": 46.74373796, "per_mainwork_m": 55.97691674, "per_mainwork_f": 44.02308326, "main_cl_p": 495, "main_cl_m": 293, "main_cl_f": 202, "per_main_cl_p": 40.80791426, "per_main_cl_m": 59.19191919, "per_main_cl_f": 40.80808081, "main_al_p": 666, "main_al_m": 343, "main_al_f": 323, "per_main_al_p": 54.90519373, "per_main_al_m": 51.5015015, "per_main_al_f": 48.4984985, "main_hh_p": 2, "main_hh_m": 1, "main_hh_f": 1, "per_main_hh_p": 0.16488046, "per_main_hh_m": 50.0, "per_main_hh_f": 50.0, "main_ot_p": 50, "main_ot_m": 42, "main_ot_f": 8, "per_main_ot_p": 4.12201154, "per_main_ot_m": 84.0, "per_main_ot_f": 16.0, "margwork_p": 58, "margwork_m": 30, "margwork_f": 28, "per_margwork_p": 2.23506744, "per_margwork_m": 51.72413793, "per_margwork_f": 48.27586207, "marg_cl_p": 20, "marg_cl_m": 11, "marg_cl_f": 9, "per_marg_cl_p": 34.48275862, "per_marg_cl_m": 55.0, "per_marg_cl_f": 45.0, "marg_al_p": 5, "marg_al_m": 3, "marg_al_f": 2, "per_marg_al_p": 8.62068966, "per_marg_al_m": 60.0, "per_marg_al_f": 40.0, "marg_hh_p": 4, "marg_hh_m": 2, "marg_hh_f": 2, "per_marg_hh_p": 6.89655172, "per_marg_hh_m": 50.0, "per_marg_hh_f": 50.0, "marg_ot_p": 29, "marg_ot_m": 14, "marg_ot_f": 15, "per_marg_ot_p": 50.0, "per_marg_ot_m": 48.27586207, "per_marg_ot_f": 51.72413793, "margwork_3_6_p": 56, "margwork_3_6_m": 29, "margwork_3_6_f": 27, "per_margwork_3_6_p": 96.55172414, "per_margwork_3_6_m": 51.78571429, "per_margwork_3_6_f": 48.21428571, "marg_cl_3_6_p": 19, "marg_cl_3_6_m": 11, "marg_cl_3_6_f": 8, "per_marg_cl_3_6_p": 32.75862069, "per_marg_cl_3_6_m": 57.89473684, "per_marg_cl_3_6_f": 42.10526316000001, "marg_al_3_6_p": 5, "marg_al_3_6_m": 3, "marg_al_3_6_f": 2, "per_marg_al_3_6_p": 8.62068966, "per_marg_al_3_6_m": 60.0, "per_marg_al_3_6_f": 40.0, "marg_hh_3_6_p": 3, "marg_hh_3_6_m": 1, "marg_hh_3_6_f": 2, "per_marg_hh_3_6_p": 5.17241379, "per_marg_hh_3_6_m": 33.33333333, "per_marg_hh_3_6_f": 66.66666667, "marg_ot_3_6_p": 29, "marg_ot_3_6_m": 14, "marg_ot_3_6_f": 15, "per_marg_ot_3_6_p": 50.0, "per_marg_ot_3_6_m": 48.27586207, "per_marg_ot_3_6_f": 51.72413793, "margwork_0_3_p": 2, "margwork_0_3_m": 1, "margwork_0_3_f": 1, "per_margwork_0_3_p": 3.44827586, "per_margwork_0_3_m": 50.0, "per_margwork_0_3_f": 50.0, "marg_cl_0_3_p": 1, "marg_cl_0_3_m": 0, "marg_cl_0_3_f": 1, "per_marg_cl_0_3_p": 1.72413793, "per_marg_cl_0_3_m": 0.0, "per_marg_cl_0_3_f": 100.0, "marg_al_0_3_p": 0, "marg_al_0_3_m": 0, "marg_al_0_3_f": 0, "per_marg_al_0_3_p": 0.0, "per_marg_al_0_3_m": 0.0, "per_marg_al_0_3_f": 0.0, "marg_hh_0_3_p": 1, "marg_hh_0_3_m": 1, "marg_hh_0_3_f": 0, "per_marg_hh_0_3_p": 1.72413793, "per_marg_hh_0_3_m": 100.0, "per_marg_hh_0_3_f": 0.0, "marg_ot_0_3_p": 0, "marg_ot_0_3_m": 0, "marg_ot_0_3_f": 0, "per_marg_ot_0_3_p": 0.0, "per_marg_ot_0_3_m": 0.0, "per_marg_ot_0_3_f": 0.0, "non_work_p": 1324, "non_work_m": 631, "non_work_f": 693, "per_non_work_p": 51.02119461, "per_non_work_m": 47.65861027, "per_non_work_f": 52.34138973, "per_hc_tot_tot": 100, "per_hc_tot_god": 13.5, "per_hc_tot_liv": 83.1, "per_hc_tot_dil": 3.5, "per_hc_res_tot": 98.4, "per_hc_res_god": 13.1, "per_hc_res_liv": 81.9, "per_hc_res_dil": 3.5, "per_hc_oth_tot": 1.6, "per_hc_oth_god": 0.3, "per_hc_oth_liv": 1.2, "per_hc_oth_dil": 0.0, "per_mt_grsbam": 3.5, "per_mt_plastic": 0.2, "per_mt_h_tiles": 0.0, "per_mt_m_tiles": 0.3, "per_mt_b_brick": 0.0, "per_mt_stone": 0.5, "per_mt_asbstos": 93.4, "per_mt_concrte": 2.1, "per_mt_oth": 0.0, "per_mw_grsbam": 2.9, "per_mw_plastic": 0.5, "per_mw_mud": 25.7, "per_mw_wood": 0.0, "per_mw_no_mrtr": 2.9, "per_mw_st_mrtr": 25.2, "per_mw_asbstos": 0.0, "per_mw_b_brick": 41.6, "per_mw_concrte": 0.9, "per_mw_oth": 0.2, "per_mf_mud": 75.6, "per_mf_wood": 0.0, "per_mf_b_brick": 0.0, "per_mf_stone": 0.0, "per_mf_cement": 17.3, "per_mf_fl_tile": 7.1, "per_mf_oth": 0.0, "per_dw_n_exrm": 1.0, "per_dw_1_room": 78.1, "per_dw_2_room": 19.0, "per_dw_3_room": 1.2, "per_dw_4_room": 0.2, "per_dw_5_room": 0.3, "per_dw_6_room": 0.2, "per_hhsize_1": 3.5, "per_hhsize_2": 10.9, "per_hhsize_3": 16.6, "per_hhsize_4": 23.0, "per_hhsize_5": 22.6, "per_hhsize_6_8": 20.7, "per_hhsize_9p": 2.8, "per_ow_owned": 97.8, "per_ow_rented": 1.7, "per_ow_oth": 0.5, "per_mc_none": 9.3, "per_mcouple_1": 73.4, "per_mcouple_2": 14.9, "per_mcouple_3": 2.1, "per_mcouple_4": 0.2, "per_mcouple_5p": 0.2, "per_dw_t_ts": 17.8, "per_dw_t_unts": 19.3, "per_dw_c_well": 26.6, "per_dw_unc_wel": 2.9, "per_dw_hpump": 32.8, "per_dw_tw_bore": 0.5, "per_dw_spring": 0.0, "per_dw_rivcan": 0.0, "per_dw_tank": 0.0, "per_dw_oth": 0.0, "per_loc_dw_wp": 35.2, "per_loc_dw_np": 46.5, "per_loc_dw_aw": 18.3, "per_light_elec": 52.7, "per_light_kero": 46.8, "per_light_solr": 0.2, "per_light_oil": 0.2, "per_light_oth": 0.0, "per_light_no": 0.2, "per_hh_latrine": 56.6, "per_fl_sewer": 0.9, "per_fl_septict": 2.8, "per_fl_othsys": 3.1, "per_pl_wslab": 49.9, "per_pl_without": 0.0, "per_ns_open": 0.0, "per_sl_ns_hum": 0.0, "per_sl_ns_anml": 0.0, "per_hh_no_lat": 43.4, "per_as_pub": 0.0, "per_as_open": 43.4, "per_hh_bathrm": 15.9, "per_hh_en_wrf": 62.9, "per_hh_no_btrm": 21.2, "per_wwoc_drain": 31.8, "per_wwoc_open": 22.3, "per_wwoc_nodrn": 45.9, "per_cook_fire": 89.8, "per_cook_resdu": 6.0, "per_cook_cwdng": 2.9, "per_cook_coal": 0.0, "per_cook_kero": 0.0, "per_cook_lpng": 0.5, "per_cook_elec": 0.0, "per_cook_biogs": 0.0, "per_cook_oth": 0.0, "per_cook_no": 0.7, "per_kf_inside": 38.3, "per_kf_in_has": 10.7, "per_kf_in_does": 27.6, "per_kf_outside": 61.0, "per_kf_out_has": 28.2, "per_kf_out_dos": 32.8, "per_kf_no_cook": 0.7, "per_hh_banking": 60.1, "per_hh_radio": 8.5, "per_hh_tv": 14.2, "per_hh_cmp_int": 0.0, "per_hh_cmp_wnt": 0.0, "per_hh_ph_ll": 0.5, "per_hh_ph_mob": 49.2, "per_hh_ph_bth": 0.0, "per_hh_bcycl": 6.0, "per_hh_2wheel": 6.2, "per_hh_4wheel": 0.2, "per_hh_tvcomp": 0.0, "per_hh_no_ast": 44.2, "per_hs_perma": 68.0, "per_hs_sperma": 30.7, "per_hs_temp": 1.0, "per_hs_servc": 0.7, "per_hs_nservc": 0.3, "per_hs_unclss": 0.2, "avghhsz_cy": 4.51304348, "st_areashape": 12763084.63432515, "st_lengthshape": 16141.825424526054}, "geometry": {"type": "Polygon", "coordinates": [[[76.52930125794977, 19.89000144385502], [76.52915846534547, 19.89121408758114], [76.52866813252406, 19.89350012299829], [76.52860628172012, 19.895507484740556], [76.52991276092662, 19.897698364124242], [76.52998734534972, 19.89882846324403], [76.52995821927327, 19.899944894204097], [76.5294781991113, 19.902233808859542], [76.52942468736813, 19.904693291249846], [76.52968983410737, 19.907645815153604], [76.52963432091778, 19.911177229267757], [76.52897077404498, 19.911317413423763], [76.52786286743203, 19.911627483031022], [76.52652776071403, 19.912252052089784], [76.52149478853633, 19.913967692742386], [76.5207332642121, 19.914226041505895], [76.51895127348801, 19.914443186134907], [76.51795311584996, 19.914306702402943], [76.51608784770583, 19.913130588261456], [76.51391956344328, 19.910993155341092], [76.50954003658305, 19.906058684281803], [76.50753639913903, 19.903202752921715], [76.5065827359553, 19.89981314082165], [76.50514977755007, 19.8971708195934], [76.50389082910355, 19.895907611473376], [76.50237986189735, 19.895410816493502], [76.5016082207464, 19.895105923538317], [76.50049162113645, 19.893754448888863], [76.49672380296721, 19.892061255393024], [76.49685589394156, 19.89196256363152], [76.49759597188668, 19.891470289044566], [76.49759602309065, 19.891470256100472], [76.49792063830172, 19.891257999607298], [76.49817034659452, 19.890882285471385], [76.49865610160123, 19.890151407597315], [76.4987460364359, 19.889844423101586], [76.49878976372898, 19.889695194828526], [76.49900879006324, 19.88965438168487], [76.4990810550363, 19.88964092175019], [76.49916372070366, 19.889637112015738], [76.4992768042249, 19.889631903407487], [76.49934068432306, 19.8896353431501], [76.49944392859697, 19.889640905700322], [76.49954729683841, 19.889651785828324], [76.49961574936138, 19.889658993068004], [76.49973036091689, 19.889640922594907], [76.49973039954446, 19.889640911613405], [76.50000140958757, 19.88954079666126], [76.500231742118, 19.889455706884835], [76.50027757416377, 19.8894423702641], [76.5004799870552, 19.889383488242267], [76.5006850499767, 19.889344692238375], [76.50076651459653, 19.8893292834804], [76.50093839285312, 19.88925692202038], [76.50098564244041, 19.889241354444128], [76.50103396731114, 19.889225432078618], [76.50112187734317, 19.88913405309447], [76.5012296787705, 19.8890220017342], [76.50128695535301, 19.888787283835953], [76.50140154265404, 19.888457485425672], [76.5014970793828, 19.88818652235677], [76.50149712070531, 19.88818645055404], [76.50161152564831, 19.887987710557123], [76.50168862804917, 19.88771116463765], [76.50170721419238, 19.887644501906724], [76.50170720071765, 19.88731927033096], [76.50168804324592, 19.886971620254045], [76.50170368740656, 19.88689750487073], [76.5017262216455, 19.886790778894447], [76.50184082421787, 19.886537827205295], [76.50193626752184, 19.886266866765528], [76.5019671093805, 19.88615768805782], [76.50196780108325, 19.886155239130307], [76.50199368873311, 19.88606358974448], [76.50207007338004, 19.885855789667602], [76.50222284447052, 19.885711285710254], [76.50226486316795, 19.88568345452738], [76.502413806537, 19.885584783289264], [76.50243771429996, 19.8853183060157], [76.5024581051586, 19.88508678340468], [76.50245930530784, 19.885073143993843], [76.5024949971707, 19.884667894310887], [76.50253831303537, 19.884510045475754], [76.5025904359831, 19.884320094805762], [76.50281946595638, 19.88417553791714], [76.50307268037372, 19.883994783754765], [76.50319208713623, 19.883854827984255], [76.5033257860949, 19.883507090896064], [76.5034496125686, 19.88329871640495], [76.50349759338458, 19.883217975503165], [76.503541187727, 19.88312815248981], [76.50363134175059, 19.882942398650915], [76.50368900101543, 19.88284235633861], [76.50374587425435, 19.882743680796526], [76.50387160246152, 19.882505808521724], [76.50389862737853, 19.88245466960652], [76.50389864354821, 19.882454626523312], [76.50390559381356, 19.882431948703537], [76.50399416410731, 19.882142902309273], [76.50413273732474, 19.881853830044502], [76.50413272564664, 19.881691306811625], [76.50414694507926, 19.88143831572305], [76.50418306454023, 19.881198992698394], [76.50420421357695, 19.88105887479539], [76.50427460196936, 19.88083251261841], [76.50429971706808, 19.880751751029862], [76.50429972964446, 19.880751714704402], [76.50432379551094, 19.880693854167987], [76.50432553285269, 19.880689676739838], [76.5044143232337, 19.880476239159783], [76.50462948142234, 19.880214464635557], [76.5046816295229, 19.88015102919273], [76.50491559663696, 19.88002911625492], [76.50500431964433, 19.87999551421356], [76.50520198404112, 19.879920656381998], [76.50538826229172, 19.879708299088854], [76.50538828474957, 19.87970826698707], [76.50541844658355, 19.879654771911934], [76.5055410522468, 19.879437275436135], [76.50558980112231, 19.879314375239634], [76.50565571320965, 19.879148199079886], [76.5058177459307, 19.87893078892186], [76.50597547482326, 19.87871915259647], [76.50613264137041, 19.878550964368454], [76.50619511740177, 19.87848410601558], [76.50636704865894, 19.87833067349928], [76.50643862282755, 19.87823583218949], [76.50671549886947, 19.87808219414832], [76.50715954240262, 19.87783825517234], [76.5075032378303, 19.87771183009965], [76.50827680586755, 19.877544651177267], [76.50873030416906, 19.87745885462195], [76.50949902310042, 19.87730975576243], [76.50994785016245, 19.87724645854824], [76.5101818163782, 19.87722849986198], [76.51051593127339, 19.87715608049715], [76.51087890095384, 19.87708378359485], [76.51104120316948, 19.877056606459373], [76.51120828801568, 19.87696179564461], [76.51173812335344, 19.876862427084724], [76.51173822037148, 19.876862426239917], [76.51242091483456, 19.87684422251855], [76.51288885804586, 19.87695261944766], [76.51356213996141, 19.877223655797906], [76.51394414045114, 19.877530799918397], [76.51423533743535, 19.877869553075207], [76.51442165880506, 19.878131486070227], [76.51452663952242, 19.878312091480247], [76.5148609529453, 19.878573994176158], [76.51505663026866, 19.878808935869962], [76.51530495156268, 19.878881207486348], [76.51562970780923, 19.87889919301851], [76.51594005867192, 19.878754594857888], [76.51616916051042, 19.878591918073546], [76.51634105314, 19.878465498670845], [76.51657012443579, 19.878393180401385], [76.51676592393004, 19.878266676361008], [76.51703327064344, 19.87815379533155], [76.51725769675087, 19.878140199253007], [76.51745819443407, 19.878153620459663], [76.51793564541431, 19.877950509590324], [76.51840834879829, 19.877724489338394], [76.51871385684328, 19.877552931012552], [76.51894784102534, 19.877426396733572], [76.51914836206474, 19.87728630337285], [76.51927246701618, 19.87721851521004], [76.51936790313364, 19.87696115106368], [76.51941562523481, 19.876599719000144], [76.5194060635669, 19.8761435525298], [76.5192627104139, 19.875791260229406], [76.519205518273, 19.875466076129474], [76.51916717099017, 19.87516339366081], [76.51909563005925, 19.87485184603016], [76.51890449731289, 19.874621430033805], [76.51849872919736, 19.874305288093776], [76.5182217336795, 19.874088582624786], [76.51808795387242, 19.8738536237954], [76.5179924387032, 19.87360071396862], [76.51797335130004, 19.873356854266135], [76.51803063237418, 19.873135461292474], [76.51809737180986, 19.872927712691194], [76.51834569759542, 19.872765114407837], [76.51864168978662, 19.872611536114608], [76.51886610241931, 19.872493972433777], [76.51897102294953, 19.87234953063513], [76.51902826719271, 19.87224111281662], [76.51907603151467, 19.871997069385245], [76.51915243502624, 19.871757739706243], [76.5193003372479, 19.871437074761946], [76.51957728246009, 19.871409903416886], [76.5205130907292, 19.871215568434476], [76.52245129578623, 19.87081786144477], [76.52397439653696, 19.87052856491773], [76.52473338312055, 19.87013556615671], [76.52951198744408, 19.86781316089599], [76.53032497804756, 19.868224309298395], [76.53069253722079, 19.8687149807898], [76.53092532844013, 19.86985960580998], [76.53117434592848, 19.87078369394817], [76.53180132957259, 19.872202864284784], [76.53198040243629, 19.87349936220666], [76.53218375137222, 19.87493496679751], [76.53237960027381, 19.877757295220736], [76.53234080383332, 19.87887142822198], [76.53175952018265, 19.8810341279185], [76.53140982580548, 19.882331511561574], [76.53064287296199, 19.88379782601417], [76.53026845964315, 19.88576333506067], [76.5303140006348, 19.887560729753112], [76.52964781900323, 19.88892785697269], [76.52930125794977, 19.89000144385502]]]}}]}