{"type": "FeatureCollection", "features": [{"type": "Feature", "properties": {"premiumdata.sde.IN_Village_PCA.area": 6.95533164, "objectid": 81625, "id": "296355588102535", "name": "Vibutihalli", "subdistrict": "Shahpur", "district": "Yadgir", "state": "Karnataka", "country": "India", "censusname": "Vibutihalli", "villagename_locallang": null, "lgd_villagename": "Vibutihalli", "lgd_villagecode": 621123, "lgd_subdistrictcode": 5588, "lgd_districtcode": 635, "lgd_statecode": 29, "censuscode2001": "00374700", "censuscode2011": "621123", "censuscode2021": null, "level": "Village", "tru": "Rural", "no_hh": 334, "tot_p": 2043, "tot_m": 1042, "tot_f": 1001, "per_tot_m": 51.00342633, "per_tot_f": 48.99657367, "p_06": 341, "m_06": 170, "f_06": 171, "per_p_06": 16.69114048, "per_m_06": 49.85337243, "per_f_06": 50.14662757, "p_sc": 396, "m_sc": 197, "f_sc": 199, "per_p_sc": 19.38325991, "per_m_sc": 49.74747475, "per_f_sc": 50.25252525, "p_st": 5, "m_st": 3, "f_st": 2, "per_p_st": 0.24473813, "per_m_st": 60.0, "per_f_st": 40.0, "p_lit": 671, "m_lit": 433, "f_lit": 238, "per_p_lit": 32.84385707, "per_m_lit": 64.53055142000001, "per_f_lit": 35.46944858, "p_ill": 1372, "m_ill": 609, "f_ill": 763, "per_p_ill": 67.15614293, "per_m_ill": 44.3877551, "per_f_ill": 55.6122449, "tot_work_p": 755, "tot_work_m": 536, "tot_work_f": 219, "per_tot_work_p": 36.95545766, "per_tot_work_m": 70.99337748, "per_tot_work_f": 29.00662252, "mainwork_p": 706, "mainwork_m": 525, "mainwork_f": 181, "per_mainwork_p": 34.55702398, "per_mainwork_m": 74.36260623, "per_mainwork_f": 25.63739377, "main_cl_p": 323, "main_cl_m": 312, "main_cl_f": 11, "per_main_cl_p": 45.75070822, "per_main_cl_m": 96.59442723999999, "per_main_cl_f": 3.40557276, "main_al_p": 263, "main_al_m": 99, "main_al_f": 164, "per_main_al_p": 37.25212465, "per_main_al_m": 37.64258555, "per_main_al_f": 62.35741445, "main_hh_p": 10, "main_hh_m": 8, "main_hh_f": 2, "per_main_hh_p": 1.41643059, "per_main_hh_m": 80.0, "per_main_hh_f": 20.0, "main_ot_p": 110, "main_ot_m": 106, "main_ot_f": 4, "per_main_ot_p": 15.58073654, "per_main_ot_m": 96.36363636, "per_main_ot_f": 3.63636364, "margwork_p": 49, "margwork_m": 11, "margwork_f": 38, "per_margwork_p": 2.39843368, "per_margwork_m": 22.44897959, "per_margwork_f": 77.55102041, "marg_cl_p": 3, "marg_cl_m": 3, "marg_cl_f": 0, "per_marg_cl_p": 6.12244898, "per_marg_cl_m": 100.0, "per_marg_cl_f": 0.0, "marg_al_p": 43, "marg_al_m": 7, "marg_al_f": 36, "per_marg_al_p": 87.75510204, "per_marg_al_m": 16.27906977, "per_marg_al_f": 83.72093023, "marg_hh_p": 0, "marg_hh_m": 0, "marg_hh_f": 0, "per_marg_hh_p": 0.0, "per_marg_hh_m": 0.0, "per_marg_hh_f": 0.0, "marg_ot_p": 3, "marg_ot_m": 1, "marg_ot_f": 2, "per_marg_ot_p": 6.12244898, "per_marg_ot_m": 33.33333333, "per_marg_ot_f": 66.66666667, "margwork_3_6_p": 48, "margwork_3_6_m": 11, "margwork_3_6_f": 37, "per_margwork_3_6_p": 97.95918367, "per_margwork_3_6_m": 22.91666667, "per_margwork_3_6_f": 77.08333332999999, "marg_cl_3_6_p": 3, "marg_cl_3_6_m": 3, "marg_cl_3_6_f": 0, "per_marg_cl_3_6_p": 6.12244898, "per_marg_cl_3_6_m": 100.0, "per_marg_cl_3_6_f": 0.0, "marg_al_3_6_p": 42, "marg_al_3_6_m": 7, "marg_al_3_6_f": 35, "per_marg_al_3_6_p": 85.71428571, "per_marg_al_3_6_m": 16.66666667, "per_marg_al_3_6_f": 83.33333332999999, "marg_hh_3_6_p": 0, "marg_hh_3_6_m": 0, "marg_hh_3_6_f": 0, "per_marg_hh_3_6_p": 0.0, "per_marg_hh_3_6_m": 0.0, "per_marg_hh_3_6_f": 0.0, "marg_ot_3_6_p": 3, "marg_ot_3_6_m": 1, "marg_ot_3_6_f": 2, "per_marg_ot_3_6_p": 6.12244898, "per_marg_ot_3_6_m": 33.33333333, "per_marg_ot_3_6_f": 66.66666667, "margwork_0_3_p": 1, "margwork_0_3_m": 0, "margwork_0_3_f": 1, "per_margwork_0_3_p": 2.04081633, "per_margwork_0_3_m": 0.0, "per_margwork_0_3_f": 100.0, "marg_cl_0_3_p": 0, "marg_cl_0_3_m": 0, "marg_cl_0_3_f": 0, "per_marg_cl_0_3_p": 0.0, "per_marg_cl_0_3_m": 0.0, "per_marg_cl_0_3_f": 0.0, "marg_al_0_3_p": 1, "marg_al_0_3_m": 0, "marg_al_0_3_f": 1, "per_marg_al_0_3_p": 2.04081633, "per_marg_al_0_3_m": 0.0, "per_marg_al_0_3_f": 100.0, "marg_hh_0_3_p": 0, "marg_hh_0_3_m": 0, "marg_hh_0_3_f": 0, "per_marg_hh_0_3_p": 0.0, "per_marg_hh_0_3_m": 0.0, "per_marg_hh_0_3_f": 0.0, "marg_ot_0_3_p": 0, "marg_ot_0_3_m": 0, "marg_ot_0_3_f": 0, "per_marg_ot_0_3_p": 0.0, "per_marg_ot_0_3_m": 0.0, "per_marg_ot_0_3_f": 0.0, "non_work_p": 1288, "non_work_m": 506, "non_work_f": 782, "per_non_work_p": 63.04454234, "per_non_work_m": 39.28571429, "per_non_work_f": 60.71428571, "per_hc_tot_tot": 100, "per_hc_tot_god": 4.9, "per_hc_tot_liv": 92.3, "per_hc_tot_dil": 2.8, "per_hc_res_tot": 99.7, "per_hc_res_god": 4.6, "per_hc_res_liv": 92.3, "per_hc_res_dil": 2.8, "per_hc_oth_tot": 0.3, "per_hc_oth_god": 0.3, "per_hc_oth_liv": 0.0, "per_hc_oth_dil": 0.0, "per_mt_grsbam": 30.7, "per_mt_plastic": 0.3, "per_mt_h_tiles": 1.2, "per_mt_m_tiles": 0.6, "per_mt_b_brick": 0.3, "per_mt_stone": 11.3, "per_mt_asbstos": 32.8, "per_mt_concrte": 22.7, "per_mt_oth": 0.0, "per_mw_grsbam": 8.0, "per_mw_plastic": 0.3, "per_mw_mud": 3.4, "per_mw_wood": 0.3, "per_mw_no_mrtr": 14.1, "per_mw_st_mrtr": 68.7, "per_mw_asbstos": 0.9, "per_mw_b_brick": 0.0, "per_mw_concrte": 4.0, "per_mw_oth": 0.3, "per_mf_mud": 13.8, "per_mf_wood": 0.3, "per_mf_b_brick": 0.3, "per_mf_stone": 54.0, "per_mf_cement": 29.4, "per_mf_fl_tile": 1.5, "per_mf_oth": 0.6, "per_dw_n_exrm": 31.6, "per_dw_1_room": 37.4, "per_dw_2_room": 25.5, "per_dw_3_room": 4.0, "per_dw_4_room": 1.2, "per_dw_5_room": 0.3, "per_dw_6_room": 0.0, "per_hhsize_1": 1.8, "per_hhsize_2": 2.8, "per_hhsize_3": 9.2, "per_hhsize_4": 15.0, "per_hhsize_5": 18.1, "per_hhsize_6_8": 40.8, "per_hhsize_9p": 12.3, "per_ow_owned": 100.0, "per_ow_rented": 0.0, "per_ow_oth": 0.0, "per_mc_none": 10.4, "per_mcouple_1": 65.3, "per_mcouple_2": 16.3, "per_mcouple_3": 6.7, "per_mcouple_4": 1.2, "per_mcouple_5p": 0.0, "per_dw_t_ts": 1.5, "per_dw_t_unts": 8.9, "per_dw_c_well": 0.0, "per_dw_unc_wel": 1.5, "per_dw_hpump": 87.7, "per_dw_tw_bore": 0.0, "per_dw_spring": 0.0, "per_dw_rivcan": 0.3, "per_dw_tank": 0.0, "per_dw_oth": 0.0, "per_loc_dw_wp": 0.6, "per_loc_dw_np": 76.1, "per_loc_dw_aw": 23.3, "per_light_elec": 85.9, "per_light_kero": 13.8, "per_light_solr": 0.3, "per_light_oil": 0.0, "per_light_oth": 0.0, "per_light_no": 0.0, "per_hh_latrine": 0.3, "per_fl_sewer": 0.0, "per_fl_septict": 0.0, "per_fl_othsys": 0.0, "per_pl_wslab": 0.0, "per_pl_without": 0.0, "per_ns_open": 0.3, "per_sl_ns_hum": 0.0, "per_sl_ns_anml": 0.0, "per_hh_no_lat": 99.7, "per_as_pub": 0.0, "per_as_open": 99.7, "per_hh_bathrm": 54.3, "per_hh_en_wrf": 30.7, "per_hh_no_btrm": 15.0, "per_wwoc_drain": 0.0, "per_wwoc_open": 6.7, "per_wwoc_nodrn": 93.3, "per_cook_fire": 96.3, "per_cook_resdu": 1.8, "per_cook_cwdng": 0.3, "per_cook_coal": 0.3, "per_cook_kero": 0.0, "per_cook_lpng": 0.3, "per_cook_elec": 0.0, "per_cook_biogs": 0.3, "per_cook_oth": 0.0, "per_cook_no": 0.6, "per_kf_inside": 64.4, "per_kf_in_has": 43.3, "per_kf_in_does": 21.2, "per_kf_outside": 35.0, "per_kf_out_has": 32.5, "per_kf_out_dos": 2.5, "per_kf_no_cook": 0.6, "per_hh_banking": 30.1, "per_hh_radio": 5.5, "per_hh_tv": 29.4, "per_hh_cmp_int": 0.3, "per_hh_cmp_wnt": 3.4, "per_hh_ph_ll": 0.6, "per_hh_ph_mob": 53.1, "per_hh_ph_bth": 0.9, "per_hh_bcycl": 20.9, "per_hh_2wheel": 7.1, "per_hh_4wheel": 3.1, "per_hh_tvcomp": 0.3, "per_hh_no_ast": 35.3, "per_hs_perma": 62.6, "per_hs_sperma": 31.3, "per_hs_temp": 5.8, "per_hs_servc": 2.1, "per_hs_nservc": 3.7, "per_hs_unclss": 0.3, "avghhsz_cy": 6.11676647, "st_areashape": 7620532.34451494, "st_lengthshape": 12911.105566426673}, "geometry": {"type": "Polygon", "coordinates": [[[76.84693100048663, 16.662483000162744], [76.84640500005685, 16.662162999532534], [76.84513100033773, 16.66182100061281], [76.8437119999554, 16.661650000493523], [76.8407209999281, 16.661320000012733], [76.83817300048993, 16.66071499937508], [76.83471700013223, 16.660121999698465], [76.83073400041816, 16.659811000518363], [76.82740000025919, 16.659792000026332], [76.82868200037422, 16.656927000641435], [76.82931500003579, 16.654367000149026], [76.82961299996163, 16.653860000360066], [76.83036000032436, 16.653790000665683], [76.83038300078888, 16.65379099986234], [76.8377990003961, 16.654727999608564], [76.83932500001028, 16.654817999999604], [76.84056100009454, 16.65469699970312], [76.84159100031447, 16.65400300070123], [76.84320800016525, 16.651343999830328], [76.84573399986212, 16.647171000254524], [76.84612999969724, 16.64558399940525], [76.84642000012545, 16.644961999807574], [76.84687000038726, 16.644680000572997], [76.8479920006687, 16.644568999231396], [76.85004399981435, 16.644845999830828], [76.85248599984563, 16.64520300046965], [76.85375200006709, 16.645199000061147], [76.854385000627, 16.645255999849613], [76.85524000004645, 16.645054000688926], [76.85615499974031, 16.64448700003668], [76.85710100029466, 16.643203999366275], [76.85818500004295, 16.642862000162133], [76.86074800044807, 16.643207999816415], [76.8647920002615, 16.644122999892026], [76.8662260007125, 16.644458999652866], [76.8667759996351, 16.644761999685144], [76.86756099963266, 16.647543000493062], [76.86754600046235, 16.64911699954803], [76.86753800006643, 16.650756999977073], [76.86687500026763, 16.65641799979669], [76.86657700034179, 16.661206999670387], [76.86616500061314, 16.66434299947404], [76.86573800081588, 16.66652699950723], [76.86518100042393, 16.66789099925912], [76.86435700006834, 16.66899099961145], [76.86414299980808, 16.66890099985924], [76.85791000058167, 16.667775999385277], [76.8546370005221, 16.666579999870915], [76.85286700051044, 16.665454999522126], [76.84827399980269, 16.66300199960647], [76.84738900024603, 16.66243899963447], [76.84693100048663, 16.662483000162744]]]}}]}