{"type": "FeatureCollection", "features": [{"type": "Feature", "properties": {"premiumdata.sde.IN_Village_PCA.area": 8.49805623, "objectid": 610366, "id": "162716687247903", "name": "Belonia Np", "subdistrict": "Belonia", "district": "South Tripura", "state": "Tripura", "country": "India", "censusname": "Belonia (NP)", "villagename_locallang": "\u09ac\u09bf\u09b2\u09cb\u09a8\u09bf\u09df\u09be \u09ae\u09bf\u0989\u09a8\u09bf\u09b8\u09bf\u09aa\u09be\u09b2 \u0995\u09be\u0989\u09a8\u09cd\u09b8\u09bf\u09b2", "lgd_villagename": "Belonia Municipal Council", "lgd_villagecode": 249798, "lgd_subdistrictcode": 6687, "lgd_districtcode": 271, "lgd_statecode": 16, "censuscode2001": null, "censuscode2011": "801529", "censuscode2021": null, "level": "Town", "tru": "Urban", "no_hh": 5363, "tot_p": 19996, "tot_m": 10060, "tot_f": 9936, "per_tot_m": 50.31006201, "per_tot_f": 49.68993799, "p_06": 1684, "m_06": 861, "f_06": 823, "per_p_06": 8.42168434, "per_m_06": 51.12826603, "per_f_06": 48.87173397, "p_sc": 2766, "m_sc": 1432, "f_sc": 1334, "per_p_sc": 13.83276655, "per_m_sc": 51.77151121, "per_f_sc": 48.22848879, "p_st": 218, "m_st": 125, "f_st": 93, "per_p_st": 1.09021804, "per_m_st": 57.33944954, "per_f_st": 42.66055046, "p_lit": 17394, "m_lit": 8940, "f_lit": 8454, "per_p_lit": 86.98739748, "per_m_lit": 51.39703346, "per_f_lit": 48.60296654, "p_ill": 2602, "m_ill": 1120, "f_ill": 1482, "per_p_ill": 13.01260252, "per_m_ill": 43.04381245, "per_f_ill": 56.95618755, "tot_work_p": 7067, "tot_work_m": 5679, "tot_work_f": 1388, "per_tot_work_p": 35.34206841, "per_tot_work_m": 80.35941700999999, "per_tot_work_f": 19.64058299, "mainwork_p": 5821, "mainwork_m": 4904, "mainwork_f": 917, "per_mainwork_p": 29.11082216, "per_mainwork_m": 84.24669301, "per_mainwork_f": 15.75330699, "main_cl_p": 78, "main_cl_m": 77, "main_cl_f": 1, "per_main_cl_p": 1.33997595, "per_main_cl_m": 98.71794872, "per_main_cl_f": 1.28205128, "main_al_p": 68, "main_al_m": 65, "main_al_f": 3, "per_main_al_p": 1.16818416, "per_main_al_m": 95.58823529, "per_main_al_f": 4.41176471, "main_hh_p": 51, "main_hh_m": 39, "main_hh_f": 12, "per_main_hh_p": 0.87613812, "per_main_hh_m": 76.47058824, "per_main_hh_f": 23.52941176, "main_ot_p": 5624, "main_ot_m": 4723, "main_ot_f": 901, "per_main_ot_p": 96.61570177, "per_main_ot_m": 83.97937411, "per_main_ot_f": 16.02062589, "margwork_p": 1246, "margwork_m": 775, "margwork_f": 471, "per_margwork_p": 6.23124625, "per_margwork_m": 62.19903692, "per_margwork_f": 37.80096308, "marg_cl_p": 19, "marg_cl_m": 11, "marg_cl_f": 8, "per_marg_cl_p": 1.52487961, "per_marg_cl_m": 57.89473684, "per_marg_cl_f": 42.10526316000001, "marg_al_p": 69, "marg_al_m": 57, "marg_al_f": 12, "per_marg_al_p": 5.53772071, "per_marg_al_m": 82.60869565, "per_marg_al_f": 17.39130435, "marg_hh_p": 46, "marg_hh_m": 18, "marg_hh_f": 28, "per_marg_hh_p": 3.6918138, "per_marg_hh_m": 39.13043478, "per_marg_hh_f": 60.86956522000001, "marg_ot_p": 1112, "marg_ot_m": 689, "marg_ot_f": 423, "per_marg_ot_p": 89.24558587000001, "per_marg_ot_m": 61.96043165, "per_marg_ot_f": 38.03956835, "margwork_3_6_p": 1014, "margwork_3_6_m": 671, "margwork_3_6_f": 343, "per_margwork_3_6_p": 81.38041734, "per_margwork_3_6_m": 66.17357002, "per_margwork_3_6_f": 33.82642998, "marg_cl_3_6_p": 19, "marg_cl_3_6_m": 11, "marg_cl_3_6_f": 8, "per_marg_cl_3_6_p": 1.52487961, "per_marg_cl_3_6_m": 57.89473684, "per_marg_cl_3_6_f": 42.10526316000001, "marg_al_3_6_p": 57, "marg_al_3_6_m": 52, "marg_al_3_6_f": 5, "per_marg_al_3_6_p": 4.57463884, "per_marg_al_3_6_m": 91.22807017999999, "per_marg_al_3_6_f": 8.77192982, "marg_hh_3_6_p": 32, "marg_hh_3_6_m": 18, "marg_hh_3_6_f": 14, "per_marg_hh_3_6_p": 2.5682183, "per_marg_hh_3_6_m": 56.25, "per_marg_hh_3_6_f": 43.75, "marg_ot_3_6_p": 906, "marg_ot_3_6_m": 590, "marg_ot_3_6_f": 316, "per_marg_ot_3_6_p": 72.71268058, "per_marg_ot_3_6_m": 65.1214128, "per_marg_ot_3_6_f": 34.8785872, "margwork_0_3_p": 232, "margwork_0_3_m": 104, "margwork_0_3_f": 128, "per_margwork_0_3_p": 18.61958266, "per_margwork_0_3_m": 44.82758621, "per_margwork_0_3_f": 55.17241379, "marg_cl_0_3_p": 0, "marg_cl_0_3_m": 0, "marg_cl_0_3_f": 0, "per_marg_cl_0_3_p": 0.0, "per_marg_cl_0_3_m": 0.0, "per_marg_cl_0_3_f": 0.0, "marg_al_0_3_p": 12, "marg_al_0_3_m": 5, "marg_al_0_3_f": 7, "per_marg_al_0_3_p": 0.96308186, "per_marg_al_0_3_m": 41.66666667000001, "per_marg_al_0_3_f": 58.33333333, "marg_hh_0_3_p": 14, "marg_hh_0_3_m": 0, "marg_hh_0_3_f": 14, "per_marg_hh_0_3_p": 1.12359551, "per_marg_hh_0_3_m": 0.0, "per_marg_hh_0_3_f": 100.0, "marg_ot_0_3_p": 206, "marg_ot_0_3_m": 99, "marg_ot_0_3_f": 107, "per_marg_ot_0_3_p": 16.5329053, "per_marg_ot_0_3_m": 48.05825243, "per_marg_ot_0_3_f": 51.94174757, "non_work_p": 12929, "non_work_m": 4381, "non_work_f": 8548, "per_non_work_p": 64.65793159, "per_non_work_m": 33.88506458, "per_non_work_f": 66.11493542000001, "per_hc_tot_tot": 100, "per_hc_tot_god": 72.4, "per_hc_tot_liv": 24.7, "per_hc_tot_dil": 2.9, "per_hc_res_tot": 99.6, "per_hc_res_god": 72.2, "per_hc_res_liv": 24.6, "per_hc_res_dil": 2.8, "per_hc_oth_tot": 0.4, "per_hc_oth_god": 0.2, "per_hc_oth_liv": 0.1, "per_hc_oth_dil": 0.1, "per_mt_grsbam": 0.4, "per_mt_plastic": 0.4, "per_mt_h_tiles": 0.2, "per_mt_m_tiles": 0.0, "per_mt_b_brick": 0.3, "per_mt_stone": 0.9, "per_mt_asbstos": 90.7, "per_mt_concrte": 7.1, "per_mt_oth": 0.0, "per_mw_grsbam": 29.0, "per_mw_plastic": 0.3, "per_mw_mud": 25.1, "per_mw_wood": 0.7, "per_mw_no_mrtr": 0.2, "per_mw_st_mrtr": 0.5, "per_mw_asbstos": 9.0, "per_mw_b_brick": 34.7, "per_mw_concrte": 0.4, "per_mw_oth": 0.2, "per_mf_mud": 40.2, "per_mf_wood": 0.1, "per_mf_b_brick": 0.6, "per_mf_stone": 0.1, "per_mf_cement": 58.2, "per_mf_fl_tile": 0.8, "per_mf_oth": 0.1, "per_dw_n_exrm": 3.2, "per_dw_1_room": 53.2, "per_dw_2_room": 30.8, "per_dw_3_room": 8.8, "per_dw_4_room": 2.8, "per_dw_5_room": 0.8, "per_dw_6_room": 0.5, "per_hhsize_1": 4.5, "per_hhsize_2": 10.6, "per_hhsize_3": 32.3, "per_hhsize_4": 30.7, "per_hhsize_5": 13.3, "per_hhsize_6_8": 7.7, "per_hhsize_9p": 0.9, "per_ow_owned": 86.3, "per_ow_rented": 11.9, "per_ow_oth": 1.8, "per_mc_none": 14.4, "per_mcouple_1": 75.8, "per_mcouple_2": 8.4, "per_mcouple_3": 1.2, "per_mcouple_4": 0.1, "per_mcouple_5p": 0.1, "per_dw_t_ts": 59.6, "per_dw_t_unts": 4.0, "per_dw_c_well": 0.3, "per_dw_unc_wel": 0.5, "per_dw_hpump": 20.5, "per_dw_tw_bore": 14.0, "per_dw_spring": 0.0, "per_dw_rivcan": 0.0, "per_dw_tank": 0.0, "per_dw_oth": 1.2, "per_loc_dw_wp": 83.1, "per_loc_dw_np": 12.3, "per_loc_dw_aw": 4.6, "per_light_elec": 96.1, "per_light_kero": 3.0, "per_light_solr": 0.4, "per_light_oil": 0.1, "per_light_oth": 0.0, "per_light_no": 0.4, "per_hh_latrine": 99.5, "per_fl_sewer": 3.1, "per_fl_septict": 56.8, "per_fl_othsys": 7.4, "per_pl_wslab": 29.6, "per_pl_without": 2.6, "per_ns_open": 0.0, "per_sl_ns_hum": 0.0, "per_sl_ns_anml": 0.0, "per_hh_no_lat": 0.5, "per_as_pub": 0.2, "per_as_open": 0.3, "per_hh_bathrm": 46.1, "per_hh_en_wrf": 16.6, "per_hh_no_btrm": 37.2, "per_wwoc_drain": 2.2, "per_wwoc_open": 38.5, "per_wwoc_nodrn": 59.3, "per_cook_fire": 43.8, "per_cook_resdu": 0.6, "per_cook_cwdng": 0.1, "per_cook_coal": 0.0, "per_cook_kero": 1.5, "per_cook_lpng": 53.4, "per_cook_elec": 0.1, "per_cook_biogs": 0.1, "per_cook_oth": 0.0, "per_cook_no": 0.3, "per_kf_inside": 95.0, "per_kf_in_has": 88.0, "per_kf_in_does": 7.0, "per_kf_outside": 4.7, "per_kf_out_has": 3.8, "per_kf_out_dos": 0.9, "per_kf_no_cook": 0.3, "per_hh_banking": 89.8, "per_hh_radio": 15.4, "per_hh_tv": 74.9, "per_hh_cmp_int": 1.6, "per_hh_cmp_wnt": 7.2, "per_hh_ph_ll": 6.4, "per_hh_ph_mob": 59.5, "per_hh_ph_bth": 11.9, "per_hh_bcycl": 67.9, "per_hh_2wheel": 18.8, "per_hh_4wheel": 4.6, "per_hh_tvcomp": 2.5, "per_hh_no_ast": 6.6, "per_hs_perma": 44.6, "per_hs_sperma": 54.5, "per_hs_temp": 0.7, "per_hs_servc": 0.2, "per_hs_nservc": 0.5, "per_hs_unclss": 0.2, "avghhsz_cy": 3.72851016, "st_areashape": 10111059.43365235, "st_lengthshape": 23019.657395093487}, "geometry": {"type": "Polygon", "coordinates": [[[91.47215813455087, 23.256755747517214], [91.4699379546144, 23.257590199467522], [91.4652695439318, 23.256206628051412], [91.46120350934277, 23.255099760085102], [91.45112869053061, 23.253879563771775], [91.45064637607143, 23.25278301973522], [91.45050821967232, 23.2518929262855], [91.44973439831016, 23.250639089485666], [91.44879967700253, 23.25022763769649], [91.44800537135694, 23.250086560838287], [91.446548357865, 23.249910070735872], [91.44543634864615, 23.249609405702788], [91.44430512176842, 23.24913141110998], [91.4436722263114, 23.248688725061097], [91.4435186656018, 23.24822808976134], [91.44365243552738, 23.24744835722578], [91.44401621458991, 23.2465977393676], [91.44451411841253, 23.245622933549114], [91.44491631841976, 23.24493165170858], [91.44570159599674, 23.243655566748476], [91.44860204045348, 23.243742565068914], [91.44907748639403, 23.24376692848435], [91.45068236168339, 23.244133476964844], [91.45140198409122, 23.244375870455897], [91.45305086425307, 23.244718574851298], [91.4545082658172, 23.24517434666886], [91.45466990777112, 23.24516725735919], [91.45538999820117, 23.245130220270266], [91.45640859341025, 23.24543627613419], [91.45786622134985, 23.245975980993205], [91.45863043253509, 23.244881746633382], [91.45937371297421, 23.24372265882543], [91.46046508070447, 23.242104325029704], [91.46119585300156, 23.240986264532594], [91.4620863816888, 23.240256496366253], [91.46261629428164, 23.23982223901638], [91.46344773268781, 23.238356595064968], [91.4643139323022, 23.237015450077973], [91.46491431593248, 23.236091506183783], [91.46594945182088, 23.234496764757424], [91.46741697919488, 23.232316940420176], [91.46832697347602, 23.230868067917925], [91.4686398575878, 23.230359352596597], [91.46957997777028, 23.228830777950566], [91.47032066926477, 23.227707850527977], [91.46799487799356, 23.227101436140167], [91.46574134361059, 23.22649110938445], [91.46375106411485, 23.226014736654484], [91.46272652655017, 23.225758800273727], [91.46047757986335, 23.225191939972273], [91.45866948858871, 23.22468616333886], [91.4563878423272, 23.224069970096632], [91.45520009524843, 23.223742576551633], [91.45432692380909, 23.223548818711965], [91.4538733545407, 23.22358583785022], [91.45367486279551, 23.22349666515711], [91.4534480920852, 23.223365644698067], [91.45327226752957, 23.223265987632992], [91.45317584596025, 23.223176889024007], [91.45309656694148, 23.222500953995016], [91.45335721940938, 23.22223844374113], [91.45296592315306, 23.221965803625285], [91.45281833264684, 23.221593327148515], [91.45235902314376, 23.221467620478464], [91.45221604997809, 23.22105904243853], [91.45163773525941, 23.22105408257491], [91.4516545508232, 23.22062903940977], [91.45118393422565, 23.22049974565744], [91.45082644876003, 23.219943701678055], [91.45057678358634, 23.219476821739438], [91.45051988878785, 23.21924071668117], [91.45082596636472, 23.21914090050793], [91.45113777519309, 23.21911973575131], [91.45138155640164, 23.21913538002114], [91.45159133008848, 23.21908272445611], [91.45195682044158, 23.218961802823163], [91.45237626181405, 23.218788408673284], [91.45260858950272, 23.218615151340995], [91.4527672319819, 23.218457605829038], [91.45310167745713, 23.21837347966096], [91.45417303701106, 23.21818406391209], [91.45390287946913, 23.217775087811948], [91.45466797369829, 23.21740215384174], [91.45574291842856, 23.216875985046006], [91.4563612162622, 23.216550129240645], [91.45688264965706, 23.216313791976315], [91.457296410982, 23.216135082648194], [91.45806720142836, 23.21583034573551], [91.45829778997863, 23.21573158127435], [91.4581608418136, 23.21488140852896], [91.45819424656572, 23.213858111347868], [91.45860358907777, 23.213403863964157], [91.46008349793132, 23.213938330378774], [91.46074687502255, 23.214279048134557], [91.46192770237872, 23.21478143306302], [91.46343967030813, 23.215435312220087], [91.46436962695152, 23.215791584959376], [91.46524181743055, 23.216141120068038], [91.46669916958733, 23.216764717279272], [91.4681224782898, 23.217341072690775], [91.46909430630687, 23.217778418960638], [91.47043350305435, 23.21830076763639], [91.47238465912281, 23.2191433565342], [91.47345401992523, 23.21959133579508], [91.47537202097321, 23.220438330751], [91.47697236516026, 23.22162983086659], [91.47923032284771, 23.222394313910243], [91.48125059978572, 23.22217589121971], [91.48350855747317, 23.222121285284885], [91.48523173549557, 23.22288576551505], [91.4876085331086, 23.223923267693326], [91.48956939098214, 23.224414713670942], [91.49135198896731, 23.223759452790986], [91.49289690710137, 23.22310418786996], [91.49420414538427, 23.223158793402888], [91.49463065470142, 23.223800168577483], [91.49485776407661, 23.224141688351132], [91.49485776407661, 23.225124576889744], [91.49444182523544, 23.22616206167221], [91.49301574702694, 23.22785478321527], [91.49194618769684, 23.228346214721668], [91.48927229116823, 23.228291611310297], [91.48802447194977, 23.228455421477427], [91.48540999538393, 23.229875100347066], [91.48386507724989, 23.230694138631577], [91.48267667889252, 23.23173158095655], [91.48178537945077, 23.232714412790425], [91.48154769959963, 23.23424324838327], [91.48101291993459, 23.23577206646301], [91.47988394154004, 23.236591068560976], [91.47774482377815, 23.23779226375629], [91.476497005458, 23.238174459134516], [91.47530860710067, 23.23833825717241], [91.47346658915268, 23.23779226375629], [91.47204051094423, 23.237628465048175], [91.47132747139078, 23.237901462783313], [91.47037675288459, 23.23861125345537], [91.46883183475053, 23.239321041177156], [91.46764343549488, 23.24003082429775], [91.46710865672813, 23.24063140776442], [91.46799995527155, 23.242651531486057], [91.46901009374056, 23.244453237557085], [91.46930719355447, 23.246964665523098], [91.46930719355447, 23.249039288279796], [91.46912893366613, 23.251878192917715], [91.46912893366613, 23.253515995151883], [91.4692477735917, 23.25504459236528], [91.46990139318231, 23.255972660370432], [91.47013907303347, 23.25624562056168], [91.47215813455087, 23.256755747517214]]]}}]}