{"type": "FeatureCollection", "features": [{"type": "Feature", "properties": {"premiumdata.sde.IN_Village_PCA.area": 8.70983723, "objectid": 76350, "id": "295377082100475", "name": "Gulaguli", "subdistrict": "Gajendragad", "district": "Gadag", "state": "Karnataka", "country": "India", "censusname": "Gulaguli", "villagename_locallang": null, "lgd_villagename": "Gulaguli", "lgd_villagecode": 601935, "lgd_subdistrictcode": 7082, "lgd_districtcode": 537, "lgd_statecode": 29, "censuscode2001": "00621900", "censuscode2011": "601935", "censuscode2021": null, "level": "Village", "tru": "Rural", "no_hh": 273, "tot_p": 1386, "tot_m": 701, "tot_f": 685, "per_tot_m": 50.57720058, "per_tot_f": 49.42279942, "p_06": 202, "m_06": 104, "f_06": 98, "per_p_06": 14.57431457, "per_m_06": 51.48514851, "per_f_06": 48.51485149, "p_sc": 89, "m_sc": 42, "f_sc": 47, "per_p_sc": 6.42135642, "per_m_sc": 47.19101124, "per_f_sc": 52.80898876, "p_st": 190, "m_st": 104, "f_st": 86, "per_p_st": 13.70851371, "per_m_st": 54.73684211, "per_f_st": 45.26315789, "p_lit": 763, "m_lit": 483, "f_lit": 280, "per_p_lit": 55.05050505, "per_m_lit": 63.30275229, "per_f_lit": 36.69724771, "p_ill": 623, "m_ill": 218, "f_ill": 405, "per_p_ill": 44.94949495, "per_m_ill": 34.99197432, "per_f_ill": 65.00802567999999, "tot_work_p": 652, "tot_work_m": 398, "tot_work_f": 254, "per_tot_work_p": 47.04184704, "per_tot_work_m": 61.04294479, "per_tot_work_f": 38.95705521, "mainwork_p": 554, "mainwork_m": 366, "mainwork_f": 188, "per_mainwork_p": 39.97113997, "per_mainwork_m": 66.06498194999999, "per_mainwork_f": 33.93501805, "main_cl_p": 238, "main_cl_m": 221, "main_cl_f": 17, "per_main_cl_p": 42.96028881, "per_main_cl_m": 92.85714286, "per_main_cl_f": 7.14285714, "main_al_p": 256, "main_al_m": 97, "main_al_f": 159, "per_main_al_p": 46.20938628, "per_main_al_m": 37.890625, "per_main_al_f": 62.109375, "main_hh_p": 14, "main_hh_m": 14, "main_hh_f": 0, "per_main_hh_p": 2.52707581, "per_main_hh_m": 100.0, "per_main_hh_f": 0.0, "main_ot_p": 46, "main_ot_m": 34, "main_ot_f": 12, "per_main_ot_p": 8.3032491, "per_main_ot_m": 73.91304348, "per_main_ot_f": 26.08695652, "margwork_p": 98, "margwork_m": 32, "margwork_f": 66, "per_margwork_p": 7.07070707, "per_margwork_m": 32.65306122, "per_margwork_f": 67.34693878, "marg_cl_p": 12, "marg_cl_m": 6, "marg_cl_f": 6, "per_marg_cl_p": 12.24489796, "per_marg_cl_m": 50.0, "per_marg_cl_f": 50.0, "marg_al_p": 66, "marg_al_m": 15, "marg_al_f": 51, "per_marg_al_p": 67.34693878, "per_marg_al_m": 22.72727273, "per_marg_al_f": 77.27272727, "marg_hh_p": 0, "marg_hh_m": 0, "marg_hh_f": 0, "per_marg_hh_p": 0.0, "per_marg_hh_m": 0.0, "per_marg_hh_f": 0.0, "marg_ot_p": 20, "marg_ot_m": 11, "marg_ot_f": 9, "per_marg_ot_p": 20.40816327, "per_marg_ot_m": 55.0, "per_marg_ot_f": 45.0, "margwork_3_6_p": 96, "margwork_3_6_m": 32, "margwork_3_6_f": 64, "per_margwork_3_6_p": 97.95918367, "per_margwork_3_6_m": 33.33333333, "per_margwork_3_6_f": 66.66666667, "marg_cl_3_6_p": 11, "marg_cl_3_6_m": 6, "marg_cl_3_6_f": 5, "per_marg_cl_3_6_p": 11.2244898, "per_marg_cl_3_6_m": 54.54545455, "per_marg_cl_3_6_f": 45.45454545, "marg_al_3_6_p": 66, "marg_al_3_6_m": 15, "marg_al_3_6_f": 51, "per_marg_al_3_6_p": 67.34693878, "per_marg_al_3_6_m": 22.72727273, "per_marg_al_3_6_f": 77.27272727, "marg_hh_3_6_p": 0, "marg_hh_3_6_m": 0, "marg_hh_3_6_f": 0, "per_marg_hh_3_6_p": 0.0, "per_marg_hh_3_6_m": 0.0, "per_marg_hh_3_6_f": 0.0, "marg_ot_3_6_p": 19, "marg_ot_3_6_m": 11, "marg_ot_3_6_f": 8, "per_marg_ot_3_6_p": 19.3877551, "per_marg_ot_3_6_m": 57.89473684, "per_marg_ot_3_6_f": 42.10526316000001, "margwork_0_3_p": 2, "margwork_0_3_m": 0, "margwork_0_3_f": 2, "per_margwork_0_3_p": 2.04081633, "per_margwork_0_3_m": 0.0, "per_margwork_0_3_f": 100.0, "marg_cl_0_3_p": 1, "marg_cl_0_3_m": 0, "marg_cl_0_3_f": 1, "per_marg_cl_0_3_p": 1.02040816, "per_marg_cl_0_3_m": 0.0, "per_marg_cl_0_3_f": 100.0, "marg_al_0_3_p": 0, "marg_al_0_3_m": 0, "marg_al_0_3_f": 0, "per_marg_al_0_3_p": 0.0, "per_marg_al_0_3_m": 0.0, "per_marg_al_0_3_f": 0.0, "marg_hh_0_3_p": 0, "marg_hh_0_3_m": 0, "marg_hh_0_3_f": 0, "per_marg_hh_0_3_p": 0.0, "per_marg_hh_0_3_m": 0.0, "per_marg_hh_0_3_f": 0.0, "marg_ot_0_3_p": 1, "marg_ot_0_3_m": 0, "marg_ot_0_3_f": 1, "per_marg_ot_0_3_p": 1.02040816, "per_marg_ot_0_3_m": 0.0, "per_marg_ot_0_3_f": 100.0, "non_work_p": 734, "non_work_m": 303, "non_work_f": 431, "per_non_work_p": 52.95815296, "per_non_work_m": 41.28065395, "per_non_work_f": 58.71934605, "per_hc_tot_tot": 100, "per_hc_tot_god": 89.9, "per_hc_tot_liv": 10.1, "per_hc_tot_dil": 0.0, "per_hc_res_tot": 85.6, "per_hc_res_god": 84.2, "per_hc_res_liv": 1.4, "per_hc_res_dil": 0.0, "per_hc_oth_tot": 14.4, "per_hc_oth_god": 5.8, "per_hc_oth_liv": 8.6, "per_hc_oth_dil": 0.0, "per_mt_grsbam": 69.8, "per_mt_plastic": 0.0, "per_mt_h_tiles": 6.5, "per_mt_m_tiles": 0.7, "per_mt_b_brick": 0.0, "per_mt_stone": 1.1, "per_mt_asbstos": 21.2, "per_mt_concrte": 0.7, "per_mt_oth": 0.0, "per_mw_grsbam": 2.2, "per_mw_plastic": 1.4, "per_mw_mud": 60.4, "per_mw_wood": 0.0, "per_mw_no_mrtr": 9.4, "per_mw_st_mrtr": 25.5, "per_mw_asbstos": 0.4, "per_mw_b_brick": 0.4, "per_mw_concrte": 0.4, "per_mw_oth": 0.0, "per_mf_mud": 73.0, "per_mf_wood": 0.7, "per_mf_b_brick": 0.7, "per_mf_stone": 21.9, "per_mf_cement": 3.2, "per_mf_fl_tile": 0.4, "per_mf_oth": 0.0, "per_dw_n_exrm": 3.2, "per_dw_1_room": 68.3, "per_dw_2_room": 19.8, "per_dw_3_room": 5.4, "per_dw_4_room": 2.5, "per_dw_5_room": 0.4, "per_dw_6_room": 0.4, "per_hhsize_1": 3.6, "per_hhsize_2": 7.6, "per_hhsize_3": 10.8, "per_hhsize_4": 19.8, "per_hhsize_5": 19.4, "per_hhsize_6_8": 32.0, "per_hhsize_9p": 6.8, "per_ow_owned": 92.1, "per_ow_rented": 7.6, "per_ow_oth": 0.4, "per_mc_none": 7.2, "per_mcouple_1": 52.2, "per_mcouple_2": 29.5, "per_mcouple_3": 7.6, "per_mcouple_4": 2.9, "per_mcouple_5p": 0.7, "per_dw_t_ts": 5.8, "per_dw_t_unts": 31.7, "per_dw_c_well": 1.1, "per_dw_unc_wel": 4.0, "per_dw_hpump": 52.9, "per_dw_tw_bore": 4.7, "per_dw_spring": 0.0, "per_dw_rivcan": 0.0, "per_dw_tank": 0.0, "per_dw_oth": 0.0, "per_loc_dw_wp": 15.5, "per_loc_dw_np": 45.3, "per_loc_dw_aw": 39.2, "per_light_elec": 81.7, "per_light_kero": 17.6, "per_light_solr": 0.7, "per_light_oil": 0.0, "per_light_oth": 0.0, "per_light_no": 0.0, "per_hh_latrine": 6.5, "per_fl_sewer": 3.6, "per_fl_septict": 1.4, "per_fl_othsys": 0.0, "per_pl_wslab": 1.1, "per_pl_without": 0.0, "per_ns_open": 0.0, "per_sl_ns_hum": 0.0, "per_sl_ns_anml": 0.4, "per_hh_no_lat": 93.5, "per_as_pub": 91.0, "per_as_open": 2.5, "per_hh_bathrm": 93.2, "per_hh_en_wrf": 4.0, "per_hh_no_btrm": 2.9, "per_wwoc_drain": 2.5, "per_wwoc_open": 50.0, "per_wwoc_nodrn": 47.5, "per_cook_fire": 98.9, "per_cook_resdu": 0.7, "per_cook_cwdng": 0.0, "per_cook_coal": 0.0, "per_cook_kero": 0.0, "per_cook_lpng": 0.4, "per_cook_elec": 0.0, "per_cook_biogs": 0.0, "per_cook_oth": 0.0, "per_cook_no": 0.0, "per_kf_inside": 98.9, "per_kf_in_has": 98.9, "per_kf_in_does": 0.0, "per_kf_outside": 1.1, "per_kf_out_has": 1.1, "per_kf_out_dos": 0.0, "per_kf_no_cook": 0.0, "per_hh_banking": 76.6, "per_hh_radio": 14.0, "per_hh_tv": 18.0, "per_hh_cmp_int": 0.7, "per_hh_cmp_wnt": 6.1, "per_hh_ph_ll": 4.0, "per_hh_ph_mob": 50.4, "per_hh_ph_bth": 1.8, "per_hh_bcycl": 18.0, "per_hh_2wheel": 6.5, "per_hh_4wheel": 0.0, "per_hh_tvcomp": 0.0, "per_hh_no_ast": 33.1, "per_hs_perma": 18.3, "per_hs_sperma": 29.5, "per_hs_temp": 52.2, "per_hs_servc": 50.0, "per_hs_nservc": 2.2, "per_hs_unclss": 0.0, "avghhsz_cy": 5.07692308, "st_areashape": 9458991.605371526, "st_lengthshape": 15792.09488309483}, "geometry": {"type": "Polygon", "coordinates": [[[75.8440930005598, 15.793359999181236], [75.84416200105507, 15.793093999584281], [75.84361300105908, 15.789138000317125], [75.84233100094406, 15.789022000107272], [75.84206400008206, 15.786225999282465], [75.84175900048355, 15.781979999822795], [75.84162100039127, 15.780116000173427], [75.83995100083708, 15.770654999983822], [75.8376310010045, 15.765481000063934], [75.83802000116692, 15.76545299904812], [75.84157600018544, 15.765233999831223], [75.84512300077972, 15.765287000295016], [75.84478800104398, 15.761903000201894], [75.84613000053514, 15.75881700036672], [75.84651900069754, 15.757453000173038], [75.846756000524, 15.752796999543886], [75.84677900098855, 15.750937000271215], [75.85654400074066, 15.75380100017594], [75.85669700090153, 15.753958999795902], [75.85786400049051, 15.755212000237865], [75.8582080013454, 15.755998999368309], [75.85820000094948, 15.757388999637156], [75.85728500125558, 15.759199999430685], [75.85496500052473, 15.760467999354352], [75.85477400072901, 15.761247000134455], [75.85384400006821, 15.765229999681466], [75.85514100115013, 15.77179099946024], [75.8561170009434, 15.771806000184704], [75.85753600042743, 15.77182799986208], [75.85913800110792, 15.77159100006859], [75.86244200023133, 15.77051199948255], [75.86476100113727, 15.769981999224177], [75.86579100135721, 15.772500999684747], [75.86829400058956, 15.778028000492247], [75.86817900006349, 15.779469000133581], [75.86795800102888, 15.781584999327967], [75.86588300052041, 15.782803999859219], [75.86572300068681, 15.785624999853809], [75.86693600030657, 15.789498000426306], [75.86512000026414, 15.790498999711534], [75.86383800104747, 15.791718000219594], [75.86317400052542, 15.791708999977493], [75.86130500077958, 15.791679999867064], [75.85538500064926, 15.792002999610972], [75.85264600051708, 15.790514999180662], [75.847565000811, 15.791265000216328], [75.8440930005598, 15.793359999181236]]]}}]}