{"type": "FeatureCollection", "features": [{"type": "Feature", "properties": {"premiumdata.sde.IN_Village_PCA.area": 1.04326022, "objectid": 303695, "id": "9152985381296", "name": "Bhanapur", "subdistrict": "Mariahu", "district": "Jaunpur", "state": "Uttar Pradesh", "country": "India", "censusname": "Bhanapur", "villagename_locallang": null, "lgd_villagename": "Bhanapur", "lgd_villagecode": 202973, "lgd_subdistrictcode": 985, "lgd_districtcode": 152, "lgd_statecode": 9, "censuscode2001": "09603600", "censuscode2011": "202973", "censuscode2021": null, "level": "Village", "tru": "Rural", "no_hh": 100, "tot_p": 1068, "tot_m": 547, "tot_f": 521, "per_tot_m": 51.21722846, "per_tot_f": 48.78277154, "p_06": 174, "m_06": 98, "f_06": 76, "per_p_06": 16.29213483, "per_m_06": 56.32183908, "per_f_06": 43.67816092, "p_sc": 609, "m_sc": 324, "f_sc": 285, "per_p_sc": 57.02247191, "per_m_sc": 53.20197044, "per_f_sc": 46.79802956, "p_st": 0, "m_st": 0, "f_st": 0, "per_p_st": 0.0, "per_m_st": 0.0, "per_f_st": 0.0, "p_lit": 552, "m_lit": 334, "f_lit": 218, "per_p_lit": 51.68539326, "per_m_lit": 60.50724638, "per_f_lit": 39.49275362, "p_ill": 516, "m_ill": 213, "f_ill": 303, "per_p_ill": 48.31460674, "per_m_ill": 41.27906977000001, "per_f_ill": 58.72093023, "tot_work_p": 253, "tot_work_m": 245, "tot_work_f": 8, "per_tot_work_p": 23.68913858, "per_tot_work_m": 96.83794466, "per_tot_work_f": 3.16205534, "mainwork_p": 249, "mainwork_m": 241, "mainwork_f": 8, "per_mainwork_p": 23.31460674, "per_mainwork_m": 96.78714859, "per_mainwork_f": 3.21285141, "main_cl_p": 118, "main_cl_m": 115, "main_cl_f": 3, "per_main_cl_p": 47.38955823, "per_main_cl_m": 97.45762712, "per_main_cl_f": 2.54237288, "main_al_p": 97, "main_al_m": 97, "main_al_f": 0, "per_main_al_p": 38.95582329, "per_main_al_m": 100.0, "per_main_al_f": 0.0, "main_hh_p": 1, "main_hh_m": 1, "main_hh_f": 0, "per_main_hh_p": 0.40160643, "per_main_hh_m": 100.0, "per_main_hh_f": 0.0, "main_ot_p": 33, "main_ot_m": 28, "main_ot_f": 5, "per_main_ot_p": 13.25301205, "per_main_ot_m": 84.84848485, "per_main_ot_f": 15.15151515, "margwork_p": 4, "margwork_m": 4, "margwork_f": 0, "per_margwork_p": 0.37453184, "per_margwork_m": 100.0, "per_margwork_f": 0.0, "marg_cl_p": 2, "marg_cl_m": 2, "marg_cl_f": 0, "per_marg_cl_p": 50.0, "per_marg_cl_m": 100.0, "per_marg_cl_f": 0.0, "marg_al_p": 2, "marg_al_m": 2, "marg_al_f": 0, "per_marg_al_p": 50.0, "per_marg_al_m": 100.0, "per_marg_al_f": 0.0, "marg_hh_p": 0, "marg_hh_m": 0, "marg_hh_f": 0, "per_marg_hh_p": 0.0, "per_marg_hh_m": 0.0, "per_marg_hh_f": 0.0, "marg_ot_p": 0, "marg_ot_m": 0, "marg_ot_f": 0, "per_marg_ot_p": 0.0, "per_marg_ot_m": 0.0, "per_marg_ot_f": 0.0, "margwork_3_6_p": 3, "margwork_3_6_m": 3, "margwork_3_6_f": 0, "per_margwork_3_6_p": 75.0, "per_margwork_3_6_m": 100.0, "per_margwork_3_6_f": 0.0, "marg_cl_3_6_p": 2, "marg_cl_3_6_m": 2, "marg_cl_3_6_f": 0, "per_marg_cl_3_6_p": 50.0, "per_marg_cl_3_6_m": 100.0, "per_marg_cl_3_6_f": 0.0, "marg_al_3_6_p": 1, "marg_al_3_6_m": 1, "marg_al_3_6_f": 0, "per_marg_al_3_6_p": 25.0, "per_marg_al_3_6_m": 100.0, "per_marg_al_3_6_f": 0.0, "marg_hh_3_6_p": 0, "marg_hh_3_6_m": 0, "marg_hh_3_6_f": 0, "per_marg_hh_3_6_p": 0.0, "per_marg_hh_3_6_m": 0.0, "per_marg_hh_3_6_f": 0.0, "marg_ot_3_6_p": 0, "marg_ot_3_6_m": 0, "marg_ot_3_6_f": 0, "per_marg_ot_3_6_p": 0.0, "per_marg_ot_3_6_m": 0.0, "per_marg_ot_3_6_f": 0.0, "margwork_0_3_p": 1, "margwork_0_3_m": 1, "margwork_0_3_f": 0, "per_margwork_0_3_p": 25.0, "per_margwork_0_3_m": 100.0, "per_margwork_0_3_f": 0.0, "marg_cl_0_3_p": 0, "marg_cl_0_3_m": 0, "marg_cl_0_3_f": 0, "per_marg_cl_0_3_p": 0.0, "per_marg_cl_0_3_m": 0.0, "per_marg_cl_0_3_f": 0.0, "marg_al_0_3_p": 1, "marg_al_0_3_m": 1, "marg_al_0_3_f": 0, "per_marg_al_0_3_p": 25.0, "per_marg_al_0_3_m": 100.0, "per_marg_al_0_3_f": 0.0, "marg_hh_0_3_p": 0, "marg_hh_0_3_m": 0, "marg_hh_0_3_f": 0, "per_marg_hh_0_3_p": 0.0, "per_marg_hh_0_3_m": 0.0, "per_marg_hh_0_3_f": 0.0, "marg_ot_0_3_p": 0, "marg_ot_0_3_m": 0, "marg_ot_0_3_f": 0, "per_marg_ot_0_3_p": 0.0, "per_marg_ot_0_3_m": 0.0, "per_marg_ot_0_3_f": 0.0, "non_work_p": 815, "non_work_m": 302, "non_work_f": 513, "per_non_work_p": 76.31086142, "per_non_work_m": 37.05521472, "per_non_work_f": 62.94478528, "per_hc_tot_tot": 100, "per_hc_tot_god": 78.2, "per_hc_tot_liv": 21.8, "per_hc_tot_dil": 0.0, "per_hc_res_tot": 90.0, "per_hc_res_god": 75.5, "per_hc_res_liv": 14.5, "per_hc_res_dil": 0.0, "per_hc_oth_tot": 10.0, "per_hc_oth_god": 2.7, "per_hc_oth_liv": 7.3, "per_hc_oth_dil": 0.0, "per_mt_grsbam": 2.7, "per_mt_plastic": 1.8, "per_mt_h_tiles": 47.3, "per_mt_m_tiles": 0.0, "per_mt_b_brick": 33.6, "per_mt_stone": 10.9, "per_mt_asbstos": 0.9, "per_mt_concrte": 2.7, "per_mt_oth": 0.0, "per_mw_grsbam": 0.0, "per_mw_plastic": 0.0, "per_mw_mud": 52.7, "per_mw_wood": 0.0, "per_mw_no_mrtr": 0.9, "per_mw_st_mrtr": 0.0, "per_mw_asbstos": 0.0, "per_mw_b_brick": 45.5, "per_mw_concrte": 0.9, "per_mw_oth": 0.0, "per_mf_mud": 85.5, "per_mf_wood": 2.7, "per_mf_b_brick": 0.9, "per_mf_stone": 0.0, "per_mf_cement": 10.9, "per_mf_fl_tile": 0.0, "per_mf_oth": 0.0, "per_dw_n_exrm": 2.7, "per_dw_1_room": 14.5, "per_dw_2_room": 31.8, "per_dw_3_room": 10.0, "per_dw_4_room": 20.0, "per_dw_5_room": 6.4, "per_dw_6_room": 14.5, "per_hhsize_1": 0.9, "per_hhsize_2": 2.7, "per_hhsize_3": 2.7, "per_hhsize_4": 3.6, "per_hhsize_5": 8.2, "per_hhsize_6_8": 32.7, "per_hhsize_9p": 49.1, "per_ow_owned": 98.2, "per_ow_rented": 1.8, "per_ow_oth": 0.0, "per_mc_none": 7.3, "per_mcouple_1": 26.4, "per_mcouple_2": 30.9, "per_mcouple_3": 16.4, "per_mcouple_4": 9.1, "per_mcouple_5p": 10.0, "per_dw_t_ts": 57.3, "per_dw_t_unts": 22.7, "per_dw_c_well": 0.9, "per_dw_unc_wel": 8.2, "per_dw_hpump": 10.0, "per_dw_tw_bore": 0.9, "per_dw_spring": 0.0, "per_dw_rivcan": 0.0, "per_dw_tank": 0.0, "per_dw_oth": 0.0, "per_loc_dw_wp": 20.9, "per_loc_dw_np": 61.8, "per_loc_dw_aw": 17.3, "per_light_elec": 26.4, "per_light_kero": 53.6, "per_light_solr": 1.8, "per_light_oil": 6.4, "per_light_oth": 11.8, "per_light_no": 0.0, "per_hh_latrine": 0.0, "per_fl_sewer": 0.0, "per_fl_septict": 0.0, "per_fl_othsys": 0.0, "per_pl_wslab": 0.0, "per_pl_without": 0.0, "per_ns_open": 0.0, "per_sl_ns_hum": 0.0, "per_sl_ns_anml": 0.0, "per_hh_no_lat": 100.0, "per_as_pub": 0.9, "per_as_open": 99.1, "per_hh_bathrm": 61.8, "per_hh_en_wrf": 9.1, "per_hh_no_btrm": 29.1, "per_wwoc_drain": 0.0, "per_wwoc_open": 23.6, "per_wwoc_nodrn": 76.4, "per_cook_fire": 68.2, "per_cook_resdu": 8.2, "per_cook_cwdng": 19.1, "per_cook_coal": 0.0, "per_cook_kero": 0.9, "per_cook_lpng": 3.6, "per_cook_elec": 0.0, "per_cook_biogs": 0.0, "per_cook_oth": 0.0, "per_cook_no": 0.0, "per_kf_inside": 83.6, "per_kf_in_has": 81.8, "per_kf_in_does": 1.8, "per_kf_outside": 16.4, "per_kf_out_has": 16.4, "per_kf_out_dos": 0.0, "per_kf_no_cook": 0.0, "per_hh_banking": 97.3, "per_hh_radio": 71.8, "per_hh_tv": 49.1, "per_hh_cmp_int": 1.8, "per_hh_cmp_wnt": 1.8, "per_hh_ph_ll": 2.7, "per_hh_ph_mob": 80.9, "per_hh_ph_bth": 0.0, "per_hh_bcycl": 90.0, "per_hh_2wheel": 15.5, "per_hh_4wheel": 3.6, "per_hh_tvcomp": 0.0, "per_hh_no_ast": 4.5, "per_hs_perma": 47.3, "per_hs_sperma": 48.2, "per_hs_temp": 4.5, "per_hs_servc": 4.5, "per_hs_nservc": 0.0, "per_hs_unclss": 0.0, "avghhsz_cy": 10.68, "st_areashape": 1285494.70080328, "st_lengthshape": 5169.349594429884}, "geometry": {"type": "Polygon", "coordinates": [[[82.59275414737662, 25.479609803946985], [82.59259833099735, 25.47957135061085], [82.59227690480554, 25.479571524152867], [82.59203590298446, 25.479644536662114], [82.59171483162719, 25.48019134326767], [82.59159445648079, 25.480410057590735], [82.59127305184856, 25.480446678749477], [82.59111229832847, 25.480373880815147], [82.59075062042542, 25.48022829130169], [82.58986598738139, 25.479062606252853], [82.58930298265012, 25.478224730831982], [82.5887401459038, 25.47764193961336], [82.58833781025095, 25.47673107736308], [82.58813650408399, 25.476038777214388], [82.58797537147487, 25.47534645523863], [82.58753298982498, 25.474617827501213], [82.58733190015202, 25.474289944836126], [82.5871711106993, 25.47414425793743], [82.58768492099067, 25.473044467526915], [82.58832711850246, 25.4720966280424], [82.58852784795103, 25.471877871835453], [82.58957214396037, 25.471476457402325], [82.59041566919868, 25.471257361069405], [82.5911387609001, 25.471184093679554], [82.59150025015695, 25.471074566382747], [82.59162063428651, 25.47085584967805], [82.59178121083848, 25.47067354503861], [82.59230336288559, 25.470491045481616], [82.59298623880838, 25.470381356974528], [82.59338798336974, 25.47038113881392], [82.59370932422162, 25.470308078508], [82.59475340643192, 25.46965152886819], [82.5950745891803, 25.469323363407725], [82.59539595159171, 25.469286734806467], [82.59563700012517, 25.469286600178243], [82.59631994252327, 25.469286217379967], [82.59652074653202, 25.469176784865624], [82.59668126559181, 25.468921590901655], [82.59756440473753, 25.467937125600464], [82.59764236772442, 25.46768897518435], [82.59831552028257, 25.46900498925048], [82.59855702605851, 25.469660810887476], [82.59859745024629, 25.470025225073826], [82.59835701077061, 25.470899990928615], [82.59835716258587, 25.47111864429496], [82.59851798527625, 25.471300769839832], [82.59887997130143, 25.47188363639404], [82.60040750254315, 25.473158243414094], [82.60105049236903, 25.473412967749635], [82.60141229423961, 25.473740739268028], [82.60165361316595, 25.474105017013006], [82.60189490604117, 25.474432858822382], [82.60273919484746, 25.47528632891242], [82.60272369531555, 25.47528633783313], [82.6020809471365, 25.47535960596779], [82.60107668814102, 25.475542419281823], [82.60075528800037, 25.475542608238104], [82.60023307666445, 25.4756522482457], [82.59955031752264, 25.475980631618707], [82.59842567439765, 25.47638215023013], [82.59786330297865, 25.476491791094222], [82.59754188397336, 25.476491974372248], [82.59726070230629, 25.47656501794619], [82.5967787471732, 25.476783957825564], [82.59621648085707, 25.477075809194282], [82.59537292956763, 25.47729493223141], [82.5941276274286, 25.4775142730169], [82.59392676053783, 25.47755083261391], [82.59368583597187, 25.477733181162534], [82.59324428436531, 25.47831649175945], [82.59275414737662, 25.479609803946985]]]}}]}