{"type": "FeatureCollection", "features": [{"type": "Feature", "properties": {"premiumdata.sde.IN_Village_PCA.area": 0.11402042, "objectid": 150397, "id": "21370317984443", "name": "Maharajaguda", "subdistrict": "Tikiri", "district": "Rayagada", "state": "Odisha", "country": "India", "censusname": "Maharajaguda", "villagename_locallang": null, "lgd_villagename": "Maharajaguda", "lgd_villagecode": 426082, "lgd_subdistrictcode": 3179, "lgd_districtcode": 370, "lgd_statecode": 21, "censuscode2001": "04733700", "censuscode2011": "426082", "censuscode2021": null, "level": "Village", "tru": "Rural", "no_hh": 27, "tot_p": 106, "tot_m": 56, "tot_f": 50, "per_tot_m": 52.83018868, "per_tot_f": 47.16981132, "p_06": 20, "m_06": 13, "f_06": 7, "per_p_06": 18.86792453, "per_m_06": 65.0, "per_f_06": 35.0, "p_sc": 0, "m_sc": 0, "f_sc": 0, "per_p_sc": 0.0, "per_m_sc": 0.0, "per_f_sc": 0.0, "p_st": 4, "m_st": 2, "f_st": 2, "per_p_st": 3.77358491, "per_m_st": 50.0, "per_f_st": 50.0, "p_lit": 23, "m_lit": 18, "f_lit": 5, "per_p_lit": 21.69811321, "per_m_lit": 78.26086957, "per_f_lit": 21.73913043, "p_ill": 83, "m_ill": 38, "f_ill": 45, "per_p_ill": 78.30188679, "per_m_ill": 45.78313253, "per_f_ill": 54.21686747, "tot_work_p": 52, "tot_work_m": 25, "tot_work_f": 27, "per_tot_work_p": 49.05660377, "per_tot_work_m": 48.07692308, "per_tot_work_f": 51.92307692, "mainwork_p": 1, "mainwork_m": 1, "mainwork_f": 0, "per_mainwork_p": 0.94339623, "per_mainwork_m": 100.0, "per_mainwork_f": 0.0, "main_cl_p": 1, "main_cl_m": 1, "main_cl_f": 0, "per_main_cl_p": 100.0, "per_main_cl_m": 100.0, "per_main_cl_f": 0.0, "main_al_p": 0, "main_al_m": 0, "main_al_f": 0, "per_main_al_p": 0.0, "per_main_al_m": 0.0, "per_main_al_f": 0.0, "main_hh_p": 0, "main_hh_m": 0, "main_hh_f": 0, "per_main_hh_p": 0.0, "per_main_hh_m": 0.0, "per_main_hh_f": 0.0, "main_ot_p": 0, "main_ot_m": 0, "main_ot_f": 0, "per_main_ot_p": 0.0, "per_main_ot_m": 0.0, "per_main_ot_f": 0.0, "margwork_p": 51, "margwork_m": 24, "margwork_f": 27, "per_margwork_p": 48.11320755, "per_margwork_m": 47.05882353, "per_margwork_f": 52.94117647, "marg_cl_p": 0, "marg_cl_m": 0, "marg_cl_f": 0, "per_marg_cl_p": 0.0, "per_marg_cl_m": 0.0, "per_marg_cl_f": 0.0, "marg_al_p": 31, "marg_al_m": 14, "marg_al_f": 17, "per_marg_al_p": 60.78431373, "per_marg_al_m": 45.16129032, "per_marg_al_f": 54.83870968, "marg_hh_p": 0, "marg_hh_m": 0, "marg_hh_f": 0, "per_marg_hh_p": 0.0, "per_marg_hh_m": 0.0, "per_marg_hh_f": 0.0, "marg_ot_p": 20, "marg_ot_m": 10, "marg_ot_f": 10, "per_marg_ot_p": 39.21568627, "per_marg_ot_m": 50.0, "per_marg_ot_f": 50.0, "margwork_3_6_p": 51, "margwork_3_6_m": 24, "margwork_3_6_f": 27, "per_margwork_3_6_p": 100.0, "per_margwork_3_6_m": 47.05882353, "per_margwork_3_6_f": 52.94117647, "marg_cl_3_6_p": 0, "marg_cl_3_6_m": 0, "marg_cl_3_6_f": 0, "per_marg_cl_3_6_p": 0.0, "per_marg_cl_3_6_m": 0.0, "per_marg_cl_3_6_f": 0.0, "marg_al_3_6_p": 31, "marg_al_3_6_m": 14, "marg_al_3_6_f": 17, "per_marg_al_3_6_p": 60.78431373, "per_marg_al_3_6_m": 45.16129032, "per_marg_al_3_6_f": 54.83870968, "marg_hh_3_6_p": 0, "marg_hh_3_6_m": 0, "marg_hh_3_6_f": 0, "per_marg_hh_3_6_p": 0.0, "per_marg_hh_3_6_m": 0.0, "per_marg_hh_3_6_f": 0.0, "marg_ot_3_6_p": 20, "marg_ot_3_6_m": 10, "marg_ot_3_6_f": 10, "per_marg_ot_3_6_p": 39.21568627, "per_marg_ot_3_6_m": 50.0, "per_marg_ot_3_6_f": 50.0, "margwork_0_3_p": 0, "margwork_0_3_m": 0, "margwork_0_3_f": 0, "per_margwork_0_3_p": 0.0, "per_margwork_0_3_m": 0.0, "per_margwork_0_3_f": 0.0, "marg_cl_0_3_p": 0, "marg_cl_0_3_m": 0, "marg_cl_0_3_f": 0, "per_marg_cl_0_3_p": 0.0, "per_marg_cl_0_3_m": 0.0, "per_marg_cl_0_3_f": 0.0, "marg_al_0_3_p": 0, "marg_al_0_3_m": 0, "marg_al_0_3_f": 0, "per_marg_al_0_3_p": 0.0, "per_marg_al_0_3_m": 0.0, "per_marg_al_0_3_f": 0.0, "marg_hh_0_3_p": 0, "marg_hh_0_3_m": 0, "marg_hh_0_3_f": 0, "per_marg_hh_0_3_p": 0.0, "per_marg_hh_0_3_m": 0.0, "per_marg_hh_0_3_f": 0.0, "marg_ot_0_3_p": 0, "marg_ot_0_3_m": 0, "marg_ot_0_3_f": 0, "per_marg_ot_0_3_p": 0.0, "per_marg_ot_0_3_m": 0.0, "per_marg_ot_0_3_f": 0.0, "non_work_p": 54, "non_work_m": 31, "non_work_f": 23, "per_non_work_p": 50.94339623, "per_non_work_m": 57.40740741, "per_non_work_f": 42.59259259, "per_hc_tot_tot": 100, "per_hc_tot_god": 0.0, "per_hc_tot_liv": 100.0, "per_hc_tot_dil": 0.0, "per_hc_res_tot": 100.0, "per_hc_res_god": 0.0, "per_hc_res_liv": 100.0, "per_hc_res_dil": 0.0, "per_hc_oth_tot": 0.0, "per_hc_oth_god": 0.0, "per_hc_oth_liv": 0.0, "per_hc_oth_dil": 0.0, "per_mt_grsbam": 29.6, "per_mt_plastic": 0.0, "per_mt_h_tiles": 0.0, "per_mt_m_tiles": 51.9, "per_mt_b_brick": 0.0, "per_mt_stone": 0.0, "per_mt_asbstos": 18.5, "per_mt_concrte": 0.0, "per_mt_oth": 0.0, "per_mw_grsbam": 0.0, "per_mw_plastic": 0.0, "per_mw_mud": 96.3, "per_mw_wood": 0.0, "per_mw_no_mrtr": 0.0, "per_mw_st_mrtr": 0.0, "per_mw_asbstos": 0.0, "per_mw_b_brick": 3.7, "per_mw_concrte": 0.0, "per_mw_oth": 0.0, "per_mf_mud": 96.3, "per_mf_wood": 0.0, "per_mf_b_brick": 0.0, "per_mf_stone": 0.0, "per_mf_cement": 3.7, "per_mf_fl_tile": 0.0, "per_mf_oth": 0.0, "per_dw_n_exrm": 0.0, "per_dw_1_room": 11.1, "per_dw_2_room": 59.3, "per_dw_3_room": 29.6, "per_dw_4_room": 0.0, "per_dw_5_room": 0.0, "per_dw_6_room": 0.0, "per_hhsize_1": 11.1, "per_hhsize_2": 18.5, "per_hhsize_3": 22.2, "per_hhsize_4": 11.1, "per_hhsize_5": 18.5, "per_hhsize_6_8": 18.5, "per_hhsize_9p": 0.0, "per_ow_owned": 100.0, "per_ow_rented": 0.0, "per_ow_oth": 0.0, "per_mc_none": 18.5, "per_mcouple_1": 81.5, "per_mcouple_2": 0.0, "per_mcouple_3": 0.0, "per_mcouple_4": 0.0, "per_mcouple_5p": 0.0, "per_dw_t_ts": 0.0, "per_dw_t_unts": 0.0, "per_dw_c_well": 0.0, "per_dw_unc_wel": 0.0, "per_dw_hpump": 100.0, "per_dw_tw_bore": 0.0, "per_dw_spring": 0.0, "per_dw_rivcan": 0.0, "per_dw_tank": 0.0, "per_dw_oth": 0.0, "per_loc_dw_wp": 0.0, "per_loc_dw_np": 55.6, "per_loc_dw_aw": 44.4, "per_light_elec": 0.0, "per_light_kero": 100.0, "per_light_solr": 0.0, "per_light_oil": 0.0, "per_light_oth": 0.0, "per_light_no": 0.0, "per_hh_latrine": 0.0, "per_fl_sewer": 0.0, "per_fl_septict": 0.0, "per_fl_othsys": 0.0, "per_pl_wslab": 0.0, "per_pl_without": 0.0, "per_ns_open": 0.0, "per_sl_ns_hum": 0.0, "per_sl_ns_anml": 0.0, "per_hh_no_lat": 100.0, "per_as_pub": 0.0, "per_as_open": 100.0, "per_hh_bathrm": 0.0, "per_hh_en_wrf": 0.0, "per_hh_no_btrm": 100.0, "per_wwoc_drain": 0.0, "per_wwoc_open": 0.0, "per_wwoc_nodrn": 100.0, "per_cook_fire": 100.0, "per_cook_resdu": 0.0, "per_cook_cwdng": 0.0, "per_cook_coal": 0.0, "per_cook_kero": 0.0, "per_cook_lpng": 0.0, "per_cook_elec": 0.0, "per_cook_biogs": 0.0, "per_cook_oth": 0.0, "per_cook_no": 0.0, "per_kf_inside": 100.0, "per_kf_in_has": 100.0, "per_kf_in_does": 0.0, "per_kf_outside": 0.0, "per_kf_out_has": 0.0, "per_kf_out_dos": 0.0, "per_kf_no_cook": 0.0, "per_hh_banking": 18.5, "per_hh_radio": 0.0, "per_hh_tv": 0.0, "per_hh_cmp_int": 0.0, "per_hh_cmp_wnt": 0.0, "per_hh_ph_ll": 0.0, "per_hh_ph_mob": 0.0, "per_hh_ph_bth": 0.0, "per_hh_bcycl": 14.8, "per_hh_2wheel": 0.0, "per_hh_4wheel": 0.0, "per_hh_tvcomp": 0.0, "per_hh_no_ast": 85.2, "per_hs_perma": 3.7, "per_hs_sperma": 66.7, "per_hs_temp": 29.6, "per_hs_servc": 29.6, "per_hs_nservc": 0.0, "per_hs_unclss": 0.0, "avghhsz_cy": 3.92592593, "st_areashape": 128478.16182904, "st_lengthshape": 1429.394539256052}, "geometry": {"type": "Polygon", "coordinates": [[[83.16511488084713, 19.16983248042192], [83.16582792040052, 19.171740721582378], [83.16262651966234, 19.172473774070294], [83.1610743251745, 19.171740721582378], [83.16166852480231, 19.169720230203882], [83.16511488084713, 19.16983248042192]]]}}]}