{"type": "FeatureCollection", "features": [{"type": "Feature", "properties": {"premiumdata.sde.IN_Village_PCA.area": 5.45683332, "objectid": 556703, "id": "193192245120854", "name": "Jainagar", "subdistrict": "Beldanga - II", "district": "Murshidabad", "state": "West Bengal", "country": "India", "censusname": "Jainagar", "villagename_locallang": null, "lgd_villagename": "Jainagar", "lgd_villagecode": 315680, "lgd_subdistrictcode": 2245, "lgd_districtcode": 319, "lgd_statecode": 19, "censuscode2001": "00950200", "censuscode2011": "315680", "censuscode2021": null, "level": "Village", "tru": "Rural", "no_hh": 1135, "tot_p": 5422, "tot_m": 2769, "tot_f": 2653, "per_tot_m": 51.06971597, "per_tot_f": 48.93028403, "p_06": 855, "m_06": 427, "f_06": 428, "per_p_06": 15.7690889, "per_m_06": 49.94152047, "per_f_06": 50.05847953, "p_sc": 51, "m_sc": 27, "f_sc": 24, "per_p_sc": 0.94061232, "per_m_sc": 52.94117647, "per_f_sc": 47.05882353, "p_st": 0, "m_st": 0, "f_st": 0, "per_p_st": 0.0, "per_m_st": 0.0, "per_f_st": 0.0, "p_lit": 3122, "m_lit": 1636, "f_lit": 1486, "per_p_lit": 57.5802287, "per_m_lit": 52.40230621, "per_f_lit": 47.59769379, "p_ill": 2300, "m_ill": 1133, "f_ill": 1167, "per_p_ill": 42.4197713, "per_m_ill": 49.26086957, "per_f_ill": 50.73913043, "tot_work_p": 1896, "tot_work_m": 1517, "tot_work_f": 379, "per_tot_work_p": 34.96864626, "per_tot_work_m": 80.01054852, "per_tot_work_f": 19.98945148, "mainwork_p": 1684, "mainwork_m": 1417, "mainwork_f": 267, "per_mainwork_p": 31.05864994, "per_mainwork_m": 84.14489311, "per_mainwork_f": 15.85510689, "main_cl_p": 344, "main_cl_m": 340, "main_cl_f": 4, "per_main_cl_p": 20.42755344, "per_main_cl_m": 98.8372093, "per_main_cl_f": 1.1627907, "main_al_p": 476, "main_al_m": 467, "main_al_f": 9, "per_main_al_p": 28.26603325, "per_main_al_m": 98.1092437, "per_main_al_f": 1.8907563, "main_hh_p": 229, "main_hh_m": 34, "main_hh_f": 195, "per_main_hh_p": 13.59857482, "per_main_hh_m": 14.84716157, "per_main_hh_f": 85.15283843, "main_ot_p": 635, "main_ot_m": 576, "main_ot_f": 59, "per_main_ot_p": 37.70783848, "per_main_ot_m": 90.70866142, "per_main_ot_f": 9.29133858, "margwork_p": 212, "margwork_m": 100, "margwork_f": 112, "per_margwork_p": 3.90999631, "per_margwork_m": 47.16981132, "per_margwork_f": 52.83018868, "marg_cl_p": 10, "marg_cl_m": 8, "marg_cl_f": 2, "per_marg_cl_p": 4.71698113, "per_marg_cl_m": 80.0, "per_marg_cl_f": 20.0, "marg_al_p": 44, "marg_al_m": 44, "marg_al_f": 0, "per_marg_al_p": 20.75471698, "per_marg_al_m": 100.0, "per_marg_al_f": 0.0, "marg_hh_p": 88, "marg_hh_m": 2, "marg_hh_f": 86, "per_marg_hh_p": 41.50943396, "per_marg_hh_m": 2.27272727, "per_marg_hh_f": 97.72727273, "marg_ot_p": 70, "marg_ot_m": 46, "marg_ot_f": 24, "per_marg_ot_p": 33.01886792, "per_marg_ot_m": 65.71428571, "per_marg_ot_f": 34.28571429, "margwork_3_6_p": 168, "margwork_3_6_m": 90, "margwork_3_6_f": 78, "per_margwork_3_6_p": 79.24528302, "per_margwork_3_6_m": 53.57142857, "per_margwork_3_6_f": 46.42857143, "marg_cl_3_6_p": 7, "marg_cl_3_6_m": 5, "marg_cl_3_6_f": 2, "per_marg_cl_3_6_p": 3.30188679, "per_marg_cl_3_6_m": 71.42857143, "per_marg_cl_3_6_f": 28.57142857, "marg_al_3_6_p": 38, "marg_al_3_6_m": 38, "marg_al_3_6_f": 0, "per_marg_al_3_6_p": 17.9245283, "per_marg_al_3_6_m": 100.0, "per_marg_al_3_6_f": 0.0, "marg_hh_3_6_p": 59, "marg_hh_3_6_m": 1, "marg_hh_3_6_f": 58, "per_marg_hh_3_6_p": 27.83018868, "per_marg_hh_3_6_m": 1.69491525, "per_marg_hh_3_6_f": 98.30508475, "marg_ot_3_6_p": 64, "marg_ot_3_6_m": 46, "marg_ot_3_6_f": 18, "per_marg_ot_3_6_p": 30.18867925, "per_marg_ot_3_6_m": 71.875, "per_marg_ot_3_6_f": 28.125, "margwork_0_3_p": 44, "margwork_0_3_m": 10, "margwork_0_3_f": 34, "per_margwork_0_3_p": 20.75471698, "per_margwork_0_3_m": 22.72727273, "per_margwork_0_3_f": 77.27272727, "marg_cl_0_3_p": 3, "marg_cl_0_3_m": 3, "marg_cl_0_3_f": 0, "per_marg_cl_0_3_p": 1.41509434, "per_marg_cl_0_3_m": 100.0, "per_marg_cl_0_3_f": 0.0, "marg_al_0_3_p": 6, "marg_al_0_3_m": 6, "marg_al_0_3_f": 0, "per_marg_al_0_3_p": 2.83018868, "per_marg_al_0_3_m": 100.0, "per_marg_al_0_3_f": 0.0, "marg_hh_0_3_p": 29, "marg_hh_0_3_m": 1, "marg_hh_0_3_f": 28, "per_marg_hh_0_3_p": 13.67924528, "per_marg_hh_0_3_m": 3.44827586, "per_marg_hh_0_3_f": 96.55172414, "marg_ot_0_3_p": 6, "marg_ot_0_3_m": 0, "marg_ot_0_3_f": 6, "per_marg_ot_0_3_p": 2.83018868, "per_marg_ot_0_3_m": 0.0, "per_marg_ot_0_3_f": 100.0, "non_work_p": 3526, "non_work_m": 1252, "non_work_f": 2274, "per_non_work_p": 65.03135374, "per_non_work_m": 35.5076574, "per_non_work_f": 64.4923426, "per_hc_tot_tot": 100, "per_hc_tot_god": 23.1, "per_hc_tot_liv": 62.7, "per_hc_tot_dil": 14.2, "per_hc_res_tot": 98.6, "per_hc_res_god": 22.6, "per_hc_res_liv": 62.0, "per_hc_res_dil": 14.0, "per_hc_oth_tot": 1.4, "per_hc_oth_god": 0.4, "per_hc_oth_liv": 0.7, "per_hc_oth_dil": 0.3, "per_mt_grsbam": 2.0, "per_mt_plastic": 0.3, "per_mt_h_tiles": 28.5, "per_mt_m_tiles": 35.3, "per_mt_b_brick": 0.3, "per_mt_stone": 2.1, "per_mt_asbstos": 0.1, "per_mt_concrte": 31.4, "per_mt_oth": 0.0, "per_mw_grsbam": 10.3, "per_mw_plastic": 0.1, "per_mw_mud": 7.8, "per_mw_wood": 0.2, "per_mw_no_mrtr": 0.1, "per_mw_st_mrtr": 0.3, "per_mw_asbstos": 0.0, "per_mw_b_brick": 75.2, "per_mw_concrte": 5.2, "per_mw_oth": 0.9, "per_mf_mud": 72.9, "per_mf_wood": 0.2, "per_mf_b_brick": 0.8, "per_mf_stone": 0.4, "per_mf_cement": 25.4, "per_mf_fl_tile": 0.3, "per_mf_oth": 0.0, "per_dw_n_exrm": 2.2, "per_dw_1_room": 55.4, "per_dw_2_room": 33.0, "per_dw_3_room": 6.2, "per_dw_4_room": 1.8, "per_dw_5_room": 0.7, "per_dw_6_room": 0.7, "per_hhsize_1": 2.5, "per_hhsize_2": 8.7, "per_hhsize_3": 12.7, "per_hhsize_4": 26.0, "per_hhsize_5": 22.6, "per_hhsize_6_8": 22.5, "per_hhsize_9p": 5.1, "per_ow_owned": 89.8, "per_ow_rented": 0.5, "per_ow_oth": 9.7, "per_mc_none": 6.2, "per_mcouple_1": 68.7, "per_mcouple_2": 20.3, "per_mcouple_3": 3.3, "per_mcouple_4": 1.2, "per_mcouple_5p": 0.3, "per_dw_t_ts": 1.1, "per_dw_t_unts": 0.1, "per_dw_c_well": 0.2, "per_dw_unc_wel": 0.0, "per_dw_hpump": 97.3, "per_dw_tw_bore": 1.1, "per_dw_spring": 0.0, "per_dw_rivcan": 0.0, "per_dw_tank": 0.0, "per_dw_oth": 0.2, "per_loc_dw_wp": 78.3, "per_loc_dw_np": 13.8, "per_loc_dw_aw": 7.9, "per_light_elec": 43.8, "per_light_kero": 56.2, "per_light_solr": 0.0, "per_light_oil": 0.0, "per_light_oth": 0.0, "per_light_no": 0.0, "per_hh_latrine": 36.8, "per_fl_sewer": 0.9, "per_fl_septict": 7.6, "per_fl_othsys": 0.7, "per_pl_wslab": 23.2, "per_pl_without": 2.5, "per_ns_open": 0.0, "per_sl_ns_hum": 1.9, "per_sl_ns_anml": 0.0, "per_hh_no_lat": 63.2, "per_as_pub": 0.1, "per_as_open": 63.1, "per_hh_bathrm": 16.6, "per_hh_en_wrf": 13.9, "per_hh_no_btrm": 69.5, "per_wwoc_drain": 3.2, "per_wwoc_open": 30.0, "per_wwoc_nodrn": 66.8, "per_cook_fire": 40.4, "per_cook_resdu": 54.5, "per_cook_cwdng": 2.7, "per_cook_coal": 0.1, "per_cook_kero": 0.1, "per_cook_lpng": 2.0, "per_cook_elec": 0.0, "per_cook_biogs": 0.2, "per_cook_oth": 0.0, "per_cook_no": 0.1, "per_kf_inside": 98.3, "per_kf_in_has": 37.8, "per_kf_in_does": 60.5, "per_kf_outside": 1.6, "per_kf_out_has": 0.3, "per_kf_out_dos": 1.2, "per_kf_no_cook": 0.1, "per_hh_banking": 21.9, "per_hh_radio": 10.9, "per_hh_tv": 15.6, "per_hh_cmp_int": 0.0, "per_hh_cmp_wnt": 2.4, "per_hh_ph_ll": 0.6, "per_hh_ph_mob": 43.0, "per_hh_ph_bth": 0.3, "per_hh_bcycl": 74.1, "per_hh_2wheel": 5.4, "per_hh_4wheel": 0.5, "per_hh_tvcomp": 0.0, "per_hh_no_ast": 18.9, "per_hs_perma": 80.0, "per_hs_sperma": 18.0, "per_hs_temp": 1.1, "per_hs_servc": 0.3, "per_hs_nservc": 0.9, "per_hs_unclss": 0.9, "avghhsz_cy": 4.77709251, "st_areashape": 6551622.98029525, "st_lengthshape": 13357.098637396148}, "geometry": {"type": "Polygon", "coordinates": [[[88.2655663710035, 23.84904056702631], [88.26581637035042, 23.84967056418008], [88.2658063703047, 23.849940563079162], [88.26560637028815, 23.850040563167674], [88.26505637046722, 23.850120562854297], [88.26503637037575, 23.85010056252648], [88.2644563695193, 23.849500564402085], [88.26406636953195, 23.8492005667631], [88.26361637106677, 23.84904056702631], [88.26268637040596, 23.84880056828317], [88.26213636968674, 23.849030567190248], [88.26171637046049, 23.848950568474024], [88.26136637065612, 23.848550569222546], [88.26125637105126, 23.848320571106914], [88.2612363709598, 23.847620574366353], [88.26052637040698, 23.84476058723657], [88.26045637098511, 23.84391059171391], [88.26036637057342, 23.841950600554632], [88.26051637036124, 23.84109060587968], [88.26039637071065, 23.84049060795548], [88.26014636956707, 23.8400706103037], [88.25994637044886, 23.839740612192077], [88.25991637031161, 23.839500612664423], [88.2599563704946, 23.839370613385295], [88.25997637058607, 23.83931061399009], [88.26000637072332, 23.839240613975832], [88.26020636984153, 23.839100615477353], [88.26142637093058, 23.839070614488232], [88.26268637040596, 23.839010614954162], [88.26410636971494, 23.8390006151661], [88.26468637057135, 23.8390006151661], [88.2658763706249, 23.838730617309388], [88.2666463705538, 23.838710616867555], [88.2673063699796, 23.838670616796357], [88.26789636998346, 23.838490617555685], [88.2680463697713, 23.83835061824746], [88.2681663703202, 23.838130619146497], [88.26826636987933, 23.83730062354789], [88.26818637041168, 23.836240628562496], [88.26791637007494, 23.83491063471524], [88.26767636987545, 23.833810639989476], [88.26710637086137, 23.83274064579033], [88.26641637040007, 23.83189064871513], [88.26593637089935, 23.83134065203816], [88.2653563700429, 23.830680654919664], [88.26506637051298, 23.830090658612132], [88.2649063697811, 23.82919066282262], [88.26473636990178, 23.82827066695491], [88.2646463703884, 23.82760066916346], [88.2645563699767, 23.826890673247004], [88.26473636990178, 23.82673067392014], [88.26503637037575, 23.826160676820383], [88.26525636958547, 23.825560679676528], [88.26533636995141, 23.82449068481444], [88.26528637062101, 23.823710688959167], [88.26537637013436, 23.823580688646235], [88.26566636966429, 23.823470689354412], [88.26646636973044, 23.82338069031268], [88.26722636961364, 23.823250690490937], [88.26761636960099, 23.823240691131396], [88.26941637064816, 23.82321069058281], [88.2704063697868, 23.82338069031268], [88.2713263704019, 23.823470689354412], [88.27253637054689, 23.823820688047547], [88.27321637006415, 23.824280686138692], [88.27363637018873, 23.824560684571402], [88.27397636994733, 23.8246106841399], [88.27466637040865, 23.82455068449101], [88.27572637076581, 23.82455068449101], [88.27658637020811, 23.82449068481444], [88.27803637055261, 23.824480684728666], [88.27930637007374, 23.82455068449101], [88.2804363707511, 23.824850682457914], [88.28090637020608, 23.825020682504487], [88.28135637046785, 23.82519068150658], [88.28161637075887, 23.825550678851503], [88.28161637075887, 23.825660679667127], [88.28161637075887, 23.82605067725039], [88.28144636998123, 23.82654067543903], [88.2813163702849, 23.826970673247292], [88.28144636998123, 23.82744067071219], [88.28174637045518, 23.827680669547718], [88.28192637038026, 23.82781066903974], [88.2820363699851, 23.82781066903974], [88.28249637029266, 23.82748067013804], [88.28282637000554, 23.827390670590724], [88.28299637078314, 23.82745067056979], [88.28305637105761, 23.827550669925422], [88.2831963707997, 23.827890667651054], [88.28358637078702, 23.828090667250397], [88.28416637074518, 23.828160667530398], [88.28438636995489, 23.828450666409697], [88.28444637022935, 23.82881066374826], [88.28428637039579, 23.82938066153149], [88.28428637039579, 23.830840654305394], [88.28442637013788, 23.83183064914615], [88.28501637014176, 23.83237064755475], [88.28553637072375, 23.83263064522587], [88.28637637007456, 23.832670645516643], [88.28675637001614, 23.83256064571452], [88.28677637010765, 23.832840645176727], [88.28684637042784, 23.833470641345773], [88.28670637068576, 23.83370064115418], [88.28653636990812, 23.833860639279827], [88.28642637030327, 23.834060638713588], [88.28643637034902, 23.83433063725454], [88.28675637001614, 23.83459063674865], [88.28703637039864, 23.834990633878075], [88.28720637027794, 23.835320632573765], [88.28719637023222, 23.835530632277656], [88.28717637014071, 23.835920630590795], [88.28704637044439, 23.83618062854076], [88.28685637047359, 23.836420627639527], [88.28685637047359, 23.837910620493965], [88.28663637036554, 23.838630617534456], [88.28642637030327, 23.83917061474549], [88.28623637033249, 23.83982061166203], [88.28625637042396, 23.84019061000639], [88.2864063702118, 23.84047060778515], [88.28675637001614, 23.841000605916125], [88.28670637068576, 23.842180600112755], [88.28653636990812, 23.842570598145127], [88.28646637048627, 23.843280594500513], [88.28643637034902, 23.84350059390139], [88.28615637086483, 23.843900591482125], [88.28567637046582, 23.843980590850148], [88.28511637059917, 23.844130590867316], [88.28466637033736, 23.844370589219185], [88.28455637073253, 23.844530588969103], [88.28459637091548, 23.844800587072243], [88.2846063700629, 23.845030586503935], [88.28447637036658, 23.8451805861278], [88.28440637004637, 23.84525058539992], [88.28410637047072, 23.845340584877988], [88.28398636992182, 23.84539058465233], [88.28392637054566, 23.845620583037224], [88.28390637045418, 23.84585058183567], [88.28379637084933, 23.84607058098322], [88.2836763703004, 23.84618058164945], [88.28350637042108, 23.846280579709184], [88.2829863698391, 23.84627058048183], [88.28258637070434, 23.846430580351484], [88.28215637053404, 23.846960577944284], [88.28183636996856, 23.847270575810864], [88.2811963706343, 23.847430574446147], [88.28061637067617, 23.847490574191582], [88.28006636995694, 23.84775057358913], [88.27980636966592, 23.84810057167011], [88.2796763699696, 23.848440570567625], [88.27959637050196, 23.849140566987664], [88.27961637059343, 23.84941056534763], [88.27963637068495, 23.849430565781955], [88.27887636990341, 23.84952056482252], [88.27816637024894, 23.84946056519521], [88.27838637035698, 23.849160566642027], [88.27848636991608, 23.848880567913575], [88.27836637026547, 23.848560569917254], [88.27816637024894, 23.848320571106914], [88.27752637001637, 23.848210570613556], [88.27723637048646, 23.848020571558234], [88.27716637016623, 23.84779057332374], [88.2771063707901, 23.847360575529663], [88.27692636996673, 23.847130576124027], [88.27661637034534, 23.847000577101063], [88.27585637046214, 23.846960577944284], [88.27552637074926, 23.84716057606967], [88.27539637015461, 23.847420575307503], [88.27510636972637, 23.84817057183019], [88.2747063705916, 23.84860056858027], [88.27430636966022, 23.848660568605723], [88.2740163701303, 23.848540570170297], [88.27378636997652, 23.848340570887817], [88.27364637023443, 23.84767057326122], [88.27345637026364, 23.84710057617149], [88.27298636991037, 23.846630578473015], [88.27244637013519, 23.84634057998693], [88.27130637031041, 23.84633057994259], [88.27024637085154, 23.84639058019717], [88.26894637029488, 23.84632057989744], [88.26741637048275, 23.846110581236285], [88.26574637003024, 23.84567058352519], [88.26466637047989, 23.845290585084363], [88.2642163702181, 23.845240585271448], [88.26404637033878, 23.845460583811008], [88.26410636971494, 23.84619058088375], [88.26413637075048, 23.846960577944284], [88.26442637028039, 23.847550573909235], [88.26478637102882, 23.848020571558234], [88.2655663710035, 23.84904056702631]]]}}]}