{"type": "FeatureCollection", "features": [{"type": "Feature", "properties": {"premiumdata.sde.IN_Village_PCA.area": 2.14029004, "objectid": 269982, "id": "234063677564569", "name": "Gajnai", "subdistrict": "Guna", "district": "Guna", "state": "Madhya Pradesh", "country": "India", "censusname": "Gajnai", "villagename_locallang": null, "lgd_villagename": "Gajnai", "lgd_villagecode": 498820, "lgd_subdistrictcode": 3677, "lgd_districtcode": 406, "lgd_statecode": 23, "censuscode2001": "00586400", "censuscode2011": "498820", "censuscode2021": null, "level": "Village", "tru": "Rural", "no_hh": 330, "tot_p": 1581, "tot_m": 782, "tot_f": 799, "per_tot_m": 49.46236559, "per_tot_f": 50.53763441, "p_06": 268, "m_06": 121, "f_06": 147, "per_p_06": 16.95129665, "per_m_06": 45.14925373, "per_f_06": 54.85074627, "p_sc": 388, "m_sc": 184, "f_sc": 204, "per_p_sc": 24.54142948, "per_m_sc": 47.42268041000001, "per_f_sc": 52.57731959, "p_st": 0, "m_st": 0, "f_st": 0, "per_p_st": 0.0, "per_m_st": 0.0, "per_f_st": 0.0, "p_lit": 838, "m_lit": 505, "f_lit": 333, "per_p_lit": 53.00442758, "per_m_lit": 60.26252983000001, "per_f_lit": 39.73747017, "p_ill": 743, "m_ill": 277, "f_ill": 466, "per_p_ill": 46.99557242, "per_m_ill": 37.28129206, "per_f_ill": 62.71870794, "tot_work_p": 574, "tot_work_m": 430, "tot_work_f": 144, "per_tot_work_p": 36.30613536, "per_tot_work_m": 74.91289199, "per_tot_work_f": 25.08710801, "mainwork_p": 486, "mainwork_m": 418, "mainwork_f": 68, "per_mainwork_p": 30.74003795, "per_mainwork_m": 86.00823045, "per_mainwork_f": 13.99176955, "main_cl_p": 207, "main_cl_m": 191, "main_cl_f": 16, "per_main_cl_p": 42.59259259, "per_main_cl_m": 92.2705314, "per_main_cl_f": 7.7294686, "main_al_p": 264, "main_al_m": 216, "main_al_f": 48, "per_main_al_p": 54.32098765, "per_main_al_m": 81.81818182, "per_main_al_f": 18.18181818, "main_hh_p": 3, "main_hh_m": 2, "main_hh_f": 1, "per_main_hh_p": 0.61728395, "per_main_hh_m": 66.66666667, "per_main_hh_f": 33.33333333, "main_ot_p": 12, "main_ot_m": 9, "main_ot_f": 3, "per_main_ot_p": 2.4691358, "per_main_ot_m": 75.0, "per_main_ot_f": 25.0, "margwork_p": 88, "margwork_m": 12, "margwork_f": 76, "per_margwork_p": 5.56609741, "per_margwork_m": 13.63636364, "per_margwork_f": 86.36363636, "marg_cl_p": 9, "marg_cl_m": 6, "marg_cl_f": 3, "per_marg_cl_p": 10.22727273, "per_marg_cl_m": 66.66666667, "per_marg_cl_f": 33.33333333, "marg_al_p": 78, "marg_al_m": 5, "marg_al_f": 73, "per_marg_al_p": 88.63636364, "per_marg_al_m": 6.41025641, "per_marg_al_f": 93.58974359, "marg_hh_p": 0, "marg_hh_m": 0, "marg_hh_f": 0, "per_marg_hh_p": 0.0, "per_marg_hh_m": 0.0, "per_marg_hh_f": 0.0, "marg_ot_p": 1, "marg_ot_m": 1, "marg_ot_f": 0, "per_marg_ot_p": 1.13636364, "per_marg_ot_m": 100.0, "per_marg_ot_f": 0.0, "margwork_3_6_p": 88, "margwork_3_6_m": 12, "margwork_3_6_f": 76, "per_margwork_3_6_p": 100.0, "per_margwork_3_6_m": 13.63636364, "per_margwork_3_6_f": 86.36363636, "marg_cl_3_6_p": 9, "marg_cl_3_6_m": 6, "marg_cl_3_6_f": 3, "per_marg_cl_3_6_p": 10.22727273, "per_marg_cl_3_6_m": 66.66666667, "per_marg_cl_3_6_f": 33.33333333, "marg_al_3_6_p": 78, "marg_al_3_6_m": 5, "marg_al_3_6_f": 73, "per_marg_al_3_6_p": 88.63636364, "per_marg_al_3_6_m": 6.41025641, "per_marg_al_3_6_f": 93.58974359, "marg_hh_3_6_p": 0, "marg_hh_3_6_m": 0, "marg_hh_3_6_f": 0, "per_marg_hh_3_6_p": 0.0, "per_marg_hh_3_6_m": 0.0, "per_marg_hh_3_6_f": 0.0, "marg_ot_3_6_p": 1, "marg_ot_3_6_m": 1, "marg_ot_3_6_f": 0, "per_marg_ot_3_6_p": 1.13636364, "per_marg_ot_3_6_m": 100.0, "per_marg_ot_3_6_f": 0.0, "margwork_0_3_p": 0, "margwork_0_3_m": 0, "margwork_0_3_f": 0, "per_margwork_0_3_p": 0.0, "per_margwork_0_3_m": 0.0, "per_margwork_0_3_f": 0.0, "marg_cl_0_3_p": 0, "marg_cl_0_3_m": 0, "marg_cl_0_3_f": 0, "per_marg_cl_0_3_p": 0.0, "per_marg_cl_0_3_m": 0.0, "per_marg_cl_0_3_f": 0.0, "marg_al_0_3_p": 0, "marg_al_0_3_m": 0, "marg_al_0_3_f": 0, "per_marg_al_0_3_p": 0.0, "per_marg_al_0_3_m": 0.0, "per_marg_al_0_3_f": 0.0, "marg_hh_0_3_p": 0, "marg_hh_0_3_m": 0, "marg_hh_0_3_f": 0, "per_marg_hh_0_3_p": 0.0, "per_marg_hh_0_3_m": 0.0, "per_marg_hh_0_3_f": 0.0, "marg_ot_0_3_p": 0, "marg_ot_0_3_m": 0, "marg_ot_0_3_f": 0, "per_marg_ot_0_3_p": 0.0, "per_marg_ot_0_3_m": 0.0, "per_marg_ot_0_3_f": 0.0, "non_work_p": 1007, "non_work_m": 352, "non_work_f": 655, "per_non_work_p": 63.69386464, "per_non_work_m": 34.95531281, "per_non_work_f": 65.04468719, "per_hc_tot_tot": 100, "per_hc_tot_god": 82.2, "per_hc_tot_liv": 14.2, "per_hc_tot_dil": 3.6, "per_hc_res_tot": 100.0, "per_hc_res_god": 82.2, "per_hc_res_liv": 14.2, "per_hc_res_dil": 3.6, "per_hc_oth_tot": 0.0, "per_hc_oth_god": 0.0, "per_hc_oth_liv": 0.0, "per_hc_oth_dil": 0.0, "per_mt_grsbam": 1.5, "per_mt_plastic": 0.0, "per_mt_h_tiles": 72.0, "per_mt_m_tiles": 0.0, "per_mt_b_brick": 0.9, "per_mt_stone": 7.5, "per_mt_asbstos": 0.3, "per_mt_concrte": 2.4, "per_mt_oth": 15.4, "per_mw_grsbam": 0.0, "per_mw_plastic": 0.3, "per_mw_mud": 89.8, "per_mw_wood": 0.0, "per_mw_no_mrtr": 0.0, "per_mw_st_mrtr": 3.6, "per_mw_asbstos": 0.0, "per_mw_b_brick": 6.3, "per_mw_concrte": 0.0, "per_mw_oth": 0.0, "per_mf_mud": 88.3, "per_mf_wood": 0.3, "per_mf_b_brick": 3.3, "per_mf_stone": 3.9, "per_mf_cement": 3.0, "per_mf_fl_tile": 0.0, "per_mf_oth": 1.2, "per_dw_n_exrm": 0.0, "per_dw_1_room": 32.5, "per_dw_2_room": 51.5, "per_dw_3_room": 7.8, "per_dw_4_room": 6.0, "per_dw_5_room": 2.1, "per_dw_6_room": 0.0, "per_hhsize_1": 4.2, "per_hhsize_2": 11.7, "per_hhsize_3": 11.4, "per_hhsize_4": 19.3, "per_hhsize_5": 19.3, "per_hhsize_6_8": 29.8, "per_hhsize_9p": 4.2, "per_ow_owned": 98.8, "per_ow_rented": 1.2, "per_ow_oth": 0.0, "per_mc_none": 7.5, "per_mcouple_1": 79.5, "per_mcouple_2": 11.7, "per_mcouple_3": 0.9, "per_mcouple_4": 0.0, "per_mcouple_5p": 0.3, "per_dw_t_ts": 0.3, "per_dw_t_unts": 0.0, "per_dw_c_well": 0.0, "per_dw_unc_wel": 49.4, "per_dw_hpump": 50.3, "per_dw_tw_bore": 0.0, "per_dw_spring": 0.0, "per_dw_rivcan": 0.0, "per_dw_tank": 0.0, "per_dw_oth": 0.0, "per_loc_dw_wp": 49.7, "per_loc_dw_np": 41.3, "per_loc_dw_aw": 9.0, "per_light_elec": 28.6, "per_light_kero": 71.4, "per_light_solr": 0.0, "per_light_oil": 0.0, "per_light_oth": 0.0, "per_light_no": 0.0, "per_hh_latrine": 4.2, "per_fl_sewer": 0.6, "per_fl_septict": 0.0, "per_fl_othsys": 0.0, "per_pl_wslab": 0.0, "per_pl_without": 0.0, "per_ns_open": 0.0, "per_sl_ns_hum": 0.0, "per_sl_ns_anml": 3.6, "per_hh_no_lat": 95.8, "per_as_pub": 0.0, "per_as_open": 95.8, "per_hh_bathrm": 13.6, "per_hh_en_wrf": 78.9, "per_hh_no_btrm": 7.5, "per_wwoc_drain": 0.6, "per_wwoc_open": 93.1, "per_wwoc_nodrn": 6.3, "per_cook_fire": 92.8, "per_cook_resdu": 0.0, "per_cook_cwdng": 3.3, "per_cook_coal": 0.0, "per_cook_kero": 0.0, "per_cook_lpng": 2.1, "per_cook_elec": 0.0, "per_cook_biogs": 0.6, "per_cook_oth": 0.0, "per_cook_no": 1.2, "per_kf_inside": 98.8, "per_kf_in_has": 22.9, "per_kf_in_does": 75.9, "per_kf_outside": 0.0, "per_kf_out_has": 0.0, "per_kf_out_dos": 0.0, "per_kf_no_cook": 1.2, "per_hh_banking": 28.0, "per_hh_radio": 3.9, "per_hh_tv": 17.2, "per_hh_cmp_int": 0.0, "per_hh_cmp_wnt": 0.9, "per_hh_ph_ll": 0.0, "per_hh_ph_mob": 24.4, "per_hh_ph_bth": 0.6, "per_hh_bcycl": 14.8, "per_hh_2wheel": 8.1, "per_hh_4wheel": 0.0, "per_hh_tvcomp": 0.0, "per_hh_no_ast": 71.1, "per_hs_perma": 9.3, "per_hs_sperma": 73.8, "per_hs_temp": 1.5, "per_hs_servc": 1.5, "per_hs_nservc": 0.0, "per_hs_unclss": 15.4, "avghhsz_cy": 4.79090909, "st_areashape": 2605589.501382665, "st_lengthshape": 6471.361844784141}, "geometry": {"type": "Polygon", "coordinates": [[[77.53151952453513, 24.729481992631445], [77.53068301334258, 24.731001578755105], [77.53041520489514, 24.735185583949566], [77.5255560459451, 24.734858211732757], [77.52142041797269, 24.733822015000463], [77.51642914379383, 24.730583843144515], [77.51257873272073, 24.729418080542345], [77.51200830071869, 24.727216055254132], [77.51443263448164, 24.722552813073516], [77.51931629587932, 24.71830546565027], [77.52484300639169, 24.722682349666375], [77.52997688812191, 24.727993244476544], [77.53151952453513, 24.729481992631445]]]}}]}