{"type": "FeatureCollection", "features": [{"type": "Feature", "properties": {"premiumdata.sde.IN_Village_PCA.area": 15.25268191, "objectid": 269991, "id": "234063677564580", "name": "Khutiyawad", "subdistrict": "Guna", "district": "Guna", "state": "Madhya Pradesh", "country": "India", "censusname": "Khutiyawad", "villagename_locallang": null, "lgd_villagename": "Khutiyawad", "lgd_villagecode": 498802, "lgd_subdistrictcode": 3677, "lgd_districtcode": 406, "lgd_statecode": 23, "censuscode2001": "00584600", "censuscode2011": "498802", "censuscode2021": null, "level": "Village", "tru": "Rural", "no_hh": 445, "tot_p": 2072, "tot_m": 1093, "tot_f": 979, "per_tot_m": 52.75096525, "per_tot_f": 47.24903475, "p_06": 277, "m_06": 156, "f_06": 121, "per_p_06": 13.36872587, "per_m_06": 56.31768953, "per_f_06": 43.68231047, "p_sc": 685, "m_sc": 351, "f_sc": 334, "per_p_sc": 33.05984556, "per_m_sc": 51.24087591, "per_f_sc": 48.75912409, "p_st": 1, "m_st": 0, "f_st": 1, "per_p_st": 0.04826255, "per_m_st": 0.0, "per_f_st": 100.0, "p_lit": 1143, "m_lit": 704, "f_lit": 439, "per_p_lit": 55.16409266, "per_m_lit": 61.59230096, "per_f_lit": 38.40769904, "p_ill": 929, "m_ill": 389, "f_ill": 540, "per_p_ill": 44.83590734000001, "per_m_ill": 41.8729817, "per_f_ill": 58.1270183, "tot_work_p": 579, "tot_work_m": 541, "tot_work_f": 38, "per_tot_work_p": 27.94401544, "per_tot_work_m": 93.43696028, "per_tot_work_f": 6.56303972, "mainwork_p": 442, "mainwork_m": 409, "mainwork_f": 33, "per_mainwork_p": 21.33204633, "per_mainwork_m": 92.53393665, "per_mainwork_f": 7.46606335, "main_cl_p": 222, "main_cl_m": 216, "main_cl_f": 6, "per_main_cl_p": 50.22624434, "per_main_cl_m": 97.2972973, "per_main_cl_f": 2.7027027, "main_al_p": 170, "main_al_m": 158, "main_al_f": 12, "per_main_al_p": 38.46153846, "per_main_al_m": 92.94117647, "per_main_al_f": 7.05882353, "main_hh_p": 4, "main_hh_m": 3, "main_hh_f": 1, "per_main_hh_p": 0.90497738, "per_main_hh_m": 75.0, "per_main_hh_f": 25.0, "main_ot_p": 46, "main_ot_m": 32, "main_ot_f": 14, "per_main_ot_p": 10.40723982, "per_main_ot_m": 69.56521739, "per_main_ot_f": 30.43478261, "margwork_p": 137, "margwork_m": 132, "margwork_f": 5, "per_margwork_p": 6.61196911, "per_margwork_m": 96.35036496000001, "per_margwork_f": 3.64963504, "marg_cl_p": 13, "marg_cl_m": 12, "marg_cl_f": 1, "per_marg_cl_p": 9.48905109, "per_marg_cl_m": 92.30769231, "per_marg_cl_f": 7.69230769, "marg_al_p": 112, "marg_al_m": 108, "marg_al_f": 4, "per_marg_al_p": 81.75182482, "per_marg_al_m": 96.42857143, "per_marg_al_f": 3.57142857, "marg_hh_p": 10, "marg_hh_m": 10, "marg_hh_f": 0, "per_marg_hh_p": 7.29927007, "per_marg_hh_m": 100.0, "per_marg_hh_f": 0.0, "marg_ot_p": 2, "marg_ot_m": 2, "marg_ot_f": 0, "per_marg_ot_p": 1.45985401, "per_marg_ot_m": 100.0, "per_marg_ot_f": 0.0, "margwork_3_6_p": 133, "margwork_3_6_m": 129, "margwork_3_6_f": 4, "per_margwork_3_6_p": 97.08029197, "per_margwork_3_6_m": 96.9924812, "per_margwork_3_6_f": 3.0075188, "marg_cl_3_6_p": 11, "marg_cl_3_6_m": 10, "marg_cl_3_6_f": 1, "per_marg_cl_3_6_p": 8.02919708, "per_marg_cl_3_6_m": 90.90909091, "per_marg_cl_3_6_f": 9.09090909, "marg_al_3_6_p": 110, "marg_al_3_6_m": 107, "marg_al_3_6_f": 3, "per_marg_al_3_6_p": 80.2919708, "per_marg_al_3_6_m": 97.27272727, "per_marg_al_3_6_f": 2.72727273, "marg_hh_3_6_p": 10, "marg_hh_3_6_m": 10, "marg_hh_3_6_f": 0, "per_marg_hh_3_6_p": 7.29927007, "per_marg_hh_3_6_m": 100.0, "per_marg_hh_3_6_f": 0.0, "marg_ot_3_6_p": 2, "marg_ot_3_6_m": 2, "marg_ot_3_6_f": 0, "per_marg_ot_3_6_p": 1.45985401, "per_marg_ot_3_6_m": 100.0, "per_marg_ot_3_6_f": 0.0, "margwork_0_3_p": 4, "margwork_0_3_m": 3, "margwork_0_3_f": 1, "per_margwork_0_3_p": 2.91970803, "per_margwork_0_3_m": 75.0, "per_margwork_0_3_f": 25.0, "marg_cl_0_3_p": 2, "marg_cl_0_3_m": 2, "marg_cl_0_3_f": 0, "per_marg_cl_0_3_p": 1.45985401, "per_marg_cl_0_3_m": 100.0, "per_marg_cl_0_3_f": 0.0, "marg_al_0_3_p": 2, "marg_al_0_3_m": 1, "marg_al_0_3_f": 1, "per_marg_al_0_3_p": 1.45985401, "per_marg_al_0_3_m": 50.0, "per_marg_al_0_3_f": 50.0, "marg_hh_0_3_p": 0, "marg_hh_0_3_m": 0, "marg_hh_0_3_f": 0, "per_marg_hh_0_3_p": 0.0, "per_marg_hh_0_3_m": 0.0, "per_marg_hh_0_3_f": 0.0, "marg_ot_0_3_p": 0, "marg_ot_0_3_m": 0, "marg_ot_0_3_f": 0, "per_marg_ot_0_3_p": 0.0, "per_marg_ot_0_3_m": 0.0, "per_marg_ot_0_3_f": 0.0, "non_work_p": 1493, "non_work_m": 552, "non_work_f": 941, "per_non_work_p": 72.05598456, "per_non_work_m": 36.97253851, "per_non_work_f": 63.02746149, "per_hc_tot_tot": 100, "per_hc_tot_god": 95.4, "per_hc_tot_liv": 4.6, "per_hc_tot_dil": 0.0, "per_hc_res_tot": 98.7, "per_hc_res_god": 94.5, "per_hc_res_liv": 4.2, "per_hc_res_dil": 0.0, "per_hc_oth_tot": 1.3, "per_hc_oth_god": 0.9, "per_hc_oth_liv": 0.4, "per_hc_oth_dil": 0.0, "per_mt_grsbam": 14.4, "per_mt_plastic": 4.0, "per_mt_h_tiles": 65.3, "per_mt_m_tiles": 0.2, "per_mt_b_brick": 0.7, "per_mt_stone": 12.8, "per_mt_asbstos": 0.9, "per_mt_concrte": 1.8, "per_mt_oth": 0.0, "per_mw_grsbam": 0.4, "per_mw_plastic": 0.2, "per_mw_mud": 84.3, "per_mw_wood": 0.0, "per_mw_no_mrtr": 1.3, "per_mw_st_mrtr": 3.3, "per_mw_asbstos": 0.0, "per_mw_b_brick": 10.4, "per_mw_concrte": 0.0, "per_mw_oth": 0.0, "per_mf_mud": 87.4, "per_mf_wood": 0.0, "per_mf_b_brick": 0.9, "per_mf_stone": 1.1, "per_mf_cement": 10.6, "per_mf_fl_tile": 0.0, "per_mf_oth": 0.0, "per_dw_n_exrm": 0.2, "per_dw_1_room": 38.5, "per_dw_2_room": 42.5, "per_dw_3_room": 11.7, "per_dw_4_room": 4.6, "per_dw_5_room": 1.5, "per_dw_6_room": 0.9, "per_hhsize_1": 2.0, "per_hhsize_2": 14.6, "per_hhsize_3": 11.1, "per_hhsize_4": 20.1, "per_hhsize_5": 21.5, "per_hhsize_6_8": 29.9, "per_hhsize_9p": 0.9, "per_ow_owned": 99.6, "per_ow_rented": 0.4, "per_ow_oth": 0.0, "per_mc_none": 4.6, "per_mcouple_1": 83.6, "per_mcouple_2": 11.1, "per_mcouple_3": 0.4, "per_mcouple_4": 0.2, "per_mcouple_5p": 0.0, "per_dw_t_ts": 0.0, "per_dw_t_unts": 0.0, "per_dw_c_well": 0.0, "per_dw_unc_wel": 2.9, "per_dw_hpump": 91.6, "per_dw_tw_bore": 3.3, "per_dw_spring": 0.0, "per_dw_rivcan": 2.2, "per_dw_tank": 0.0, "per_dw_oth": 0.0, "per_loc_dw_wp": 13.5, "per_loc_dw_np": 71.9, "per_loc_dw_aw": 14.6, "per_light_elec": 59.7, "per_light_kero": 40.3, "per_light_solr": 0.0, "per_light_oil": 0.0, "per_light_oth": 0.0, "per_light_no": 0.0, "per_hh_latrine": 14.4, "per_fl_sewer": 0.0, "per_fl_septict": 11.9, "per_fl_othsys": 1.1, "per_pl_wslab": 1.3, "per_pl_without": 0.0, "per_ns_open": 0.0, "per_sl_ns_hum": 0.0, "per_sl_ns_anml": 0.0, "per_hh_no_lat": 85.6, "per_as_pub": 0.0, "per_as_open": 85.6, "per_hh_bathrm": 24.6, "per_hh_en_wrf": 55.5, "per_hh_no_btrm": 19.9, "per_wwoc_drain": 10.2, "per_wwoc_open": 60.2, "per_wwoc_nodrn": 29.6, "per_cook_fire": 94.2, "per_cook_resdu": 0.7, "per_cook_cwdng": 0.0, "per_cook_coal": 0.0, "per_cook_kero": 0.0, "per_cook_lpng": 5.1, "per_cook_elec": 0.0, "per_cook_biogs": 0.0, "per_cook_oth": 0.0, "per_cook_no": 0.0, "per_kf_inside": 99.8, "per_kf_in_has": 59.1, "per_kf_in_does": 40.7, "per_kf_outside": 0.2, "per_kf_out_has": 0.0, "per_kf_out_dos": 0.2, "per_kf_no_cook": 0.0, "per_hh_banking": 22.1, "per_hh_radio": 24.8, "per_hh_tv": 24.8, "per_hh_cmp_int": 0.2, "per_hh_cmp_wnt": 6.6, "per_hh_ph_ll": 0.0, "per_hh_ph_mob": 62.6, "per_hh_ph_bth": 1.1, "per_hh_bcycl": 30.8, "per_hh_2wheel": 8.6, "per_hh_4wheel": 1.1, "per_hh_tvcomp": 0.2, "per_hh_no_ast": 28.8, "per_hs_perma": 15.0, "per_hs_sperma": 66.6, "per_hs_temp": 18.4, "per_hs_servc": 17.7, "per_hs_nservc": 0.7, "per_hs_unclss": 0.0, "avghhsz_cy": 4.65617978, "st_areashape": 18583338.97653996, "st_lengthshape": 17657.757931492844}, "geometry": {"type": "Polygon", "coordinates": [[[77.44334470061119, 24.755441121548827], [77.45042261297306, 24.760911193276076], [77.45343449074583, 24.76419312086422], [77.46051240310769, 24.7682954084], [77.46743972099699, 24.772944504327743], [77.46729459816284, 24.775836376697043], [77.46819816140487, 24.781032097694954], [77.46864994302584, 24.784450216124515], [77.46714400458862, 24.786364321743864], [77.46202381228501, 24.79279003114016], [77.45871074736375, 24.799898938212348], [77.45036243303554, 24.798514200296054], [77.44293494128087, 24.79703082160648], [77.43877554568266, 24.79635655232953], [77.43788424713925, 24.796086843592324], [77.43194225355586, 24.786646673199797], [77.4352103497123, 24.783005272389875], [77.43298210290456, 24.78030786998795], [77.42941690693418, 24.779228892774828], [77.42674300950723, 24.77666628318007], [77.4237720131647, 24.77396874301485], [77.42020681719433, 24.773564106689715], [77.41723582085179, 24.769787439841433], [77.41886986893, 24.764931555835254], [77.42288071372296, 24.762368651958507], [77.43669584788358, 24.757782270462062], [77.44334470061119, 24.755441121548827]]]}}]}