{"type": "FeatureCollection", "features": [{"type": "Feature", "properties": {"premiumdata.sde.IN_Village_PCA.area": 1.5240929, "objectid": 337205, "id": "9154730400736", "name": "Fazalpur", "subdistrict": "Amroha", "district": "Amroha", "state": "Uttar Pradesh", "country": "India", "censusname": "Fazalpur", "villagename_locallang": null, "lgd_villagename": "Fazalpur", "lgd_villagecode": 117887, "lgd_subdistrictcode": 730, "lgd_districtcode": 154, "lgd_statecode": 9, "censuscode2001": "00901700", "censuscode2011": "117887", "censuscode2021": null, "level": "Village", "tru": "Rural", "no_hh": 112, "tot_p": 620, "tot_m": 329, "tot_f": 291, "per_tot_m": 53.06451613, "per_tot_f": 46.93548387, "p_06": 54, "m_06": 34, "f_06": 20, "per_p_06": 8.70967742, "per_m_06": 62.96296296, "per_f_06": 37.03703704, "p_sc": 0, "m_sc": 0, "f_sc": 0, "per_p_sc": 0.0, "per_m_sc": 0.0, "per_f_sc": 0.0, "p_st": 0, "m_st": 0, "f_st": 0, "per_p_st": 0.0, "per_m_st": 0.0, "per_f_st": 0.0, "p_lit": 459, "m_lit": 263, "f_lit": 196, "per_p_lit": 74.03225806, "per_m_lit": 57.29847495, "per_f_lit": 42.70152505, "p_ill": 161, "m_ill": 66, "f_ill": 95, "per_p_ill": 25.96774194, "per_m_ill": 40.99378882, "per_f_ill": 59.00621118, "tot_work_p": 169, "tot_work_m": 163, "tot_work_f": 6, "per_tot_work_p": 27.25806452, "per_tot_work_m": 96.44970414000001, "per_tot_work_f": 3.55029586, "mainwork_p": 128, "mainwork_m": 124, "mainwork_f": 4, "per_mainwork_p": 20.64516129, "per_mainwork_m": 96.875, "per_mainwork_f": 3.125, "main_cl_p": 122, "main_cl_m": 119, "main_cl_f": 3, "per_main_cl_p": 95.3125, "per_main_cl_m": 97.54098361, "per_main_cl_f": 2.45901639, "main_al_p": 4, "main_al_m": 4, "main_al_f": 0, "per_main_al_p": 3.125, "per_main_al_m": 100.0, "per_main_al_f": 0.0, "main_hh_p": 0, "main_hh_m": 0, "main_hh_f": 0, "per_main_hh_p": 0.0, "per_main_hh_m": 0.0, "per_main_hh_f": 0.0, "main_ot_p": 2, "main_ot_m": 1, "main_ot_f": 1, "per_main_ot_p": 1.5625, "per_main_ot_m": 50.0, "per_main_ot_f": 50.0, "margwork_p": 41, "margwork_m": 39, "margwork_f": 2, "per_margwork_p": 6.61290323, "per_margwork_m": 95.12195122, "per_margwork_f": 4.87804878, "marg_cl_p": 1, "marg_cl_m": 1, "marg_cl_f": 0, "per_marg_cl_p": 2.43902439, "per_marg_cl_m": 100.0, "per_marg_cl_f": 0.0, "marg_al_p": 40, "marg_al_m": 38, "marg_al_f": 2, "per_marg_al_p": 97.56097561, "per_marg_al_m": 95.0, "per_marg_al_f": 5.0, "marg_hh_p": 0, "marg_hh_m": 0, "marg_hh_f": 0, "per_marg_hh_p": 0.0, "per_marg_hh_m": 0.0, "per_marg_hh_f": 0.0, "marg_ot_p": 0, "marg_ot_m": 0, "marg_ot_f": 0, "per_marg_ot_p": 0.0, "per_marg_ot_m": 0.0, "per_marg_ot_f": 0.0, "margwork_3_6_p": 41, "margwork_3_6_m": 39, "margwork_3_6_f": 2, "per_margwork_3_6_p": 100.0, "per_margwork_3_6_m": 95.12195122, "per_margwork_3_6_f": 4.87804878, "marg_cl_3_6_p": 1, "marg_cl_3_6_m": 1, "marg_cl_3_6_f": 0, "per_marg_cl_3_6_p": 2.43902439, "per_marg_cl_3_6_m": 100.0, "per_marg_cl_3_6_f": 0.0, "marg_al_3_6_p": 40, "marg_al_3_6_m": 38, "marg_al_3_6_f": 2, "per_marg_al_3_6_p": 97.56097561, "per_marg_al_3_6_m": 95.0, "per_marg_al_3_6_f": 5.0, "marg_hh_3_6_p": 0, "marg_hh_3_6_m": 0, "marg_hh_3_6_f": 0, "per_marg_hh_3_6_p": 0.0, "per_marg_hh_3_6_m": 0.0, "per_marg_hh_3_6_f": 0.0, "marg_ot_3_6_p": 0, "marg_ot_3_6_m": 0, "marg_ot_3_6_f": 0, "per_marg_ot_3_6_p": 0.0, "per_marg_ot_3_6_m": 0.0, "per_marg_ot_3_6_f": 0.0, "margwork_0_3_p": 0, "margwork_0_3_m": 0, "margwork_0_3_f": 0, "per_margwork_0_3_p": 0.0, "per_margwork_0_3_m": 0.0, "per_margwork_0_3_f": 0.0, "marg_cl_0_3_p": 0, "marg_cl_0_3_m": 0, "marg_cl_0_3_f": 0, "per_marg_cl_0_3_p": 0.0, "per_marg_cl_0_3_m": 0.0, "per_marg_cl_0_3_f": 0.0, "marg_al_0_3_p": 0, "marg_al_0_3_m": 0, "marg_al_0_3_f": 0, "per_marg_al_0_3_p": 0.0, "per_marg_al_0_3_m": 0.0, "per_marg_al_0_3_f": 0.0, "marg_hh_0_3_p": 0, "marg_hh_0_3_m": 0, "marg_hh_0_3_f": 0, "per_marg_hh_0_3_p": 0.0, "per_marg_hh_0_3_m": 0.0, "per_marg_hh_0_3_f": 0.0, "marg_ot_0_3_p": 0, "marg_ot_0_3_m": 0, "marg_ot_0_3_f": 0, "per_marg_ot_0_3_p": 0.0, "per_marg_ot_0_3_m": 0.0, "per_marg_ot_0_3_f": 0.0, "non_work_p": 451, "non_work_m": 166, "non_work_f": 285, "per_non_work_p": 72.74193548, "per_non_work_m": 36.80709534, "per_non_work_f": 63.19290466, "per_hc_tot_tot": 100, "per_hc_tot_god": 95.4, "per_hc_tot_liv": 2.8, "per_hc_tot_dil": 1.8, "per_hc_res_tot": 91.7, "per_hc_res_god": 87.2, "per_hc_res_liv": 2.8, "per_hc_res_dil": 1.8, "per_hc_oth_tot": 8.3, "per_hc_oth_god": 8.3, "per_hc_oth_liv": 0.0, "per_hc_oth_dil": 0.0, "per_mt_grsbam": 1.8, "per_mt_plastic": 0.0, "per_mt_h_tiles": 0.0, "per_mt_m_tiles": 0.0, "per_mt_b_brick": 98.2, "per_mt_stone": 0.0, "per_mt_asbstos": 0.0, "per_mt_concrte": 0.0, "per_mt_oth": 0.0, "per_mw_grsbam": 0.0, "per_mw_plastic": 0.0, "per_mw_mud": 0.0, "per_mw_wood": 0.0, "per_mw_no_mrtr": 0.0, "per_mw_st_mrtr": 0.0, "per_mw_asbstos": 0.0, "per_mw_b_brick": 100.0, "per_mw_concrte": 0.0, "per_mw_oth": 0.0, "per_mf_mud": 16.5, "per_mf_wood": 0.0, "per_mf_b_brick": 2.8, "per_mf_stone": 0.0, "per_mf_cement": 79.8, "per_mf_fl_tile": 0.0, "per_mf_oth": 0.9, "per_dw_n_exrm": 0.0, "per_dw_1_room": 12.8, "per_dw_2_room": 47.7, "per_dw_3_room": 12.8, "per_dw_4_room": 22.0, "per_dw_5_room": 3.7, "per_dw_6_room": 0.9, "per_hhsize_1": 0.9, "per_hhsize_2": 4.6, "per_hhsize_3": 0.9, "per_hhsize_4": 20.2, "per_hhsize_5": 26.6, "per_hhsize_6_8": 36.7, "per_hhsize_9p": 10.1, "per_ow_owned": 100.0, "per_ow_rented": 0.0, "per_ow_oth": 0.0, "per_mc_none": 4.6, "per_mcouple_1": 27.5, "per_mcouple_2": 44.0, "per_mcouple_3": 13.8, "per_mcouple_4": 6.4, "per_mcouple_5p": 3.7, "per_dw_t_ts": 0.0, "per_dw_t_unts": 0.0, "per_dw_c_well": 0.0, "per_dw_unc_wel": 0.0, "per_dw_hpump": 96.3, "per_dw_tw_bore": 2.8, "per_dw_spring": 0.0, "per_dw_rivcan": 0.0, "per_dw_tank": 0.0, "per_dw_oth": 0.9, "per_loc_dw_wp": 92.7, "per_loc_dw_np": 7.3, "per_loc_dw_aw": 0.0, "per_light_elec": 0.9, "per_light_kero": 98.2, "per_light_solr": 0.0, "per_light_oil": 0.0, "per_light_oth": 0.9, "per_light_no": 0.0, "per_hh_latrine": 0.9, "per_fl_sewer": 0.0, "per_fl_septict": 0.9, "per_fl_othsys": 0.0, "per_pl_wslab": 0.0, "per_pl_without": 0.0, "per_ns_open": 0.0, "per_sl_ns_hum": 0.0, "per_sl_ns_anml": 0.0, "per_hh_no_lat": 99.1, "per_as_pub": 0.0, "per_as_open": 99.1, "per_hh_bathrm": 53.2, "per_hh_en_wrf": 45.9, "per_hh_no_btrm": 0.9, "per_wwoc_drain": 0.9, "per_wwoc_open": 91.7, "per_wwoc_nodrn": 7.3, "per_cook_fire": 0.0, "per_cook_resdu": 0.0, "per_cook_cwdng": 97.2, "per_cook_coal": 0.0, "per_cook_kero": 0.0, "per_cook_lpng": 1.8, "per_cook_elec": 0.0, "per_cook_biogs": 0.9, "per_cook_oth": 0.0, "per_cook_no": 0.0, "per_kf_inside": 100.0, "per_kf_in_has": 40.4, "per_kf_in_does": 59.6, "per_kf_outside": 0.0, "per_kf_out_has": 0.0, "per_kf_out_dos": 0.0, "per_kf_no_cook": 0.0, "per_hh_banking": 100.0, "per_hh_radio": 20.2, "per_hh_tv": 5.5, "per_hh_cmp_int": 0.0, "per_hh_cmp_wnt": 6.4, "per_hh_ph_ll": 0.0, "per_hh_ph_mob": 76.1, "per_hh_ph_bth": 0.0, "per_hh_bcycl": 95.4, "per_hh_2wheel": 34.9, "per_hh_4wheel": 0.0, "per_hh_tvcomp": 0.9, "per_hh_no_ast": 0.9, "per_hs_perma": 98.2, "per_hs_sperma": 1.8, "per_hs_temp": 0.0, "per_hs_servc": 0.0, "per_hs_nservc": 0.0, "per_hs_unclss": 0.0, "avghhsz_cy": 5.53571429, "st_areashape": 1995851.254032045, "st_lengthshape": 5797.454870178136}, "geometry": {"type": "Polygon", "coordinates": [[[78.4360572347102, 28.90872081341458], [78.435904051293, 28.907710288785495], [78.43516244082197, 28.906555764194355], [78.43421508470986, 28.905794628448362], [78.4326381326528, 28.904749459255743], [78.43315747297305, 28.904535814225728], [78.43425401499935, 28.903576944698607], [78.43499211575254, 28.90269927077976], [78.43578236280968, 28.901778050340308], [78.43651645887334, 28.901034498849864], [78.43703796503173, 28.90059916980755], [78.43771061812659, 28.900212027370564], [78.43874035693679, 28.899788381448474], [78.4396109430247, 28.89958473452158], [78.44042544459451, 28.899558730671057], [78.44231382998419, 28.899333720216486], [78.44388931778735, 28.899369909411185], [78.44505822000808, 28.899396750089444], [78.44587402772832, 28.899326009877903], [78.4467927769902, 28.8992129012529], [78.44973310035736, 28.899182789684268], [78.44956660390767, 28.9001591485996], [78.4495376242566, 28.901137694842056], [78.44959846715078, 28.901768569143506], [78.45021698058011, 28.90370618030145], [78.45121114520671, 28.90638676809658], [78.45147943335452, 28.90716543361309], [78.45026471346104, 28.907528286169764], [78.44895885588869, 28.907953311266883], [78.44849641575685, 28.908283932059486], [78.44778053393391, 28.908438138779903], [78.44460574578599, 28.908649646264713], [78.44298858244186, 28.908669381195484], [78.44156358311004, 28.90875037253832], [78.43999750785441, 28.909226252904276], [78.4388242407197, 28.90954050762324], [78.43713039358965, 28.910307507337986], [78.43636696932857, 28.909540863849244], [78.43612033417239, 28.90913709150815], [78.4360572347102, 28.90872081341458]]]}}]}