{"type": "FeatureCollection", "features": [{"type": "Feature", "properties": {"premiumdata.sde.IN_Village_PCA.area": 0.25200258, "objectid": 615777, "id": "182822099224453", "name": "Bhubandhar", "subdistrict": "Sonai", "district": "Cachar", "state": "Assam", "country": "India", "censusname": "Bhubandhar", "villagename_locallang": null, "lgd_villagename": "Bhubandhar", "lgd_villagecode": 299713, "lgd_subdistrictcode": 2099, "lgd_districtcode": 282, "lgd_statecode": 18, "censuscode2001": "02478800", "censuscode2011": "299713", "censuscode2021": null, "level": "Village", "tru": "Rural", "no_hh": 133, "tot_p": 623, "tot_m": 325, "tot_f": 298, "per_tot_m": 52.16693419, "per_tot_f": 47.83306581, "p_06": 96, "m_06": 56, "f_06": 40, "per_p_06": 15.40930979, "per_m_06": 58.33333333, "per_f_06": 41.66666667000001, "p_sc": 603, "m_sc": 316, "f_sc": 287, "per_p_sc": 96.78972713, "per_m_sc": 52.40464345, "per_f_sc": 47.59535655, "p_st": 0, "m_st": 0, "f_st": 0, "per_p_st": 0.0, "per_m_st": 0.0, "per_f_st": 0.0, "p_lit": 483, "m_lit": 251, "f_lit": 232, "per_p_lit": 77.52808989, "per_m_lit": 51.96687371, "per_f_lit": 48.03312629, "p_ill": 140, "m_ill": 74, "f_ill": 66, "per_p_ill": 22.47191011, "per_m_ill": 52.85714286, "per_f_ill": 47.14285714, "tot_work_p": 205, "tot_work_m": 178, "tot_work_f": 27, "per_tot_work_p": 32.90529695, "per_tot_work_m": 86.82926829, "per_tot_work_f": 13.17073171, "mainwork_p": 202, "mainwork_m": 177, "mainwork_f": 25, "per_mainwork_p": 32.42375602, "per_mainwork_m": 87.62376238, "per_mainwork_f": 12.37623762, "main_cl_p": 145, "main_cl_m": 143, "main_cl_f": 2, "per_main_cl_p": 71.78217822, "per_main_cl_m": 98.62068966, "per_main_cl_f": 1.37931034, "main_al_p": 9, "main_al_m": 9, "main_al_f": 0, "per_main_al_p": 4.45544554, "per_main_al_m": 100.0, "per_main_al_f": 0.0, "main_hh_p": 31, "main_hh_m": 9, "main_hh_f": 22, "per_main_hh_p": 15.34653465, "per_main_hh_m": 29.03225806, "per_main_hh_f": 70.96774194, "main_ot_p": 17, "main_ot_m": 16, "main_ot_f": 1, "per_main_ot_p": 8.41584158, "per_main_ot_m": 94.11764706, "per_main_ot_f": 5.88235294, "margwork_p": 3, "margwork_m": 1, "margwork_f": 2, "per_margwork_p": 0.48154093, "per_margwork_m": 33.33333333, "per_margwork_f": 66.66666667, "marg_cl_p": 1, "marg_cl_m": 0, "marg_cl_f": 1, "per_marg_cl_p": 33.33333333, "per_marg_cl_m": 0.0, "per_marg_cl_f": 100.0, "marg_al_p": 1, "marg_al_m": 1, "marg_al_f": 0, "per_marg_al_p": 33.33333333, "per_marg_al_m": 100.0, "per_marg_al_f": 0.0, "marg_hh_p": 1, "marg_hh_m": 0, "marg_hh_f": 1, "per_marg_hh_p": 33.33333333, "per_marg_hh_m": 0.0, "per_marg_hh_f": 100.0, "marg_ot_p": 0, "marg_ot_m": 0, "marg_ot_f": 0, "per_marg_ot_p": 0.0, "per_marg_ot_m": 0.0, "per_marg_ot_f": 0.0, "margwork_3_6_p": 2, "margwork_3_6_m": 1, "margwork_3_6_f": 1, "per_margwork_3_6_p": 66.66666667, "per_margwork_3_6_m": 50.0, "per_margwork_3_6_f": 50.0, "marg_cl_3_6_p": 1, "marg_cl_3_6_m": 0, "marg_cl_3_6_f": 1, "per_marg_cl_3_6_p": 33.33333333, "per_marg_cl_3_6_m": 0.0, "per_marg_cl_3_6_f": 100.0, "marg_al_3_6_p": 1, "marg_al_3_6_m": 1, "marg_al_3_6_f": 0, "per_marg_al_3_6_p": 33.33333333, "per_marg_al_3_6_m": 100.0, "per_marg_al_3_6_f": 0.0, "marg_hh_3_6_p": 0, "marg_hh_3_6_m": 0, "marg_hh_3_6_f": 0, "per_marg_hh_3_6_p": 0.0, "per_marg_hh_3_6_m": 0.0, "per_marg_hh_3_6_f": 0.0, "marg_ot_3_6_p": 0, "marg_ot_3_6_m": 0, "marg_ot_3_6_f": 0, "per_marg_ot_3_6_p": 0.0, "per_marg_ot_3_6_m": 0.0, "per_marg_ot_3_6_f": 0.0, "margwork_0_3_p": 1, "margwork_0_3_m": 0, "margwork_0_3_f": 1, "per_margwork_0_3_p": 33.33333333, "per_margwork_0_3_m": 0.0, "per_margwork_0_3_f": 100.0, "marg_cl_0_3_p": 0, "marg_cl_0_3_m": 0, "marg_cl_0_3_f": 0, "per_marg_cl_0_3_p": 0.0, "per_marg_cl_0_3_m": 0.0, "per_marg_cl_0_3_f": 0.0, "marg_al_0_3_p": 0, "marg_al_0_3_m": 0, "marg_al_0_3_f": 0, "per_marg_al_0_3_p": 0.0, "per_marg_al_0_3_m": 0.0, "per_marg_al_0_3_f": 0.0, "marg_hh_0_3_p": 1, "marg_hh_0_3_m": 0, "marg_hh_0_3_f": 1, "per_marg_hh_0_3_p": 33.33333333, "per_marg_hh_0_3_m": 0.0, "per_marg_hh_0_3_f": 100.0, "marg_ot_0_3_p": 0, "marg_ot_0_3_m": 0, "marg_ot_0_3_f": 0, "per_marg_ot_0_3_p": 0.0, "per_marg_ot_0_3_m": 0.0, "per_marg_ot_0_3_f": 0.0, "non_work_p": 418, "non_work_m": 147, "non_work_f": 271, "per_non_work_p": 67.09470305, "per_non_work_m": 35.16746411, "per_non_work_f": 64.83253589, "per_hc_tot_tot": 100, "per_hc_tot_god": 22.9, "per_hc_tot_liv": 71.4, "per_hc_tot_dil": 5.7, "per_hc_res_tot": 100.0, "per_hc_res_god": 22.9, "per_hc_res_liv": 71.4, "per_hc_res_dil": 5.7, "per_hc_oth_tot": 0.0, "per_hc_oth_god": 0.0, "per_hc_oth_liv": 0.0, "per_hc_oth_dil": 0.0, "per_mt_grsbam": 47.9, "per_mt_plastic": 3.6, "per_mt_h_tiles": 0.0, "per_mt_m_tiles": 0.0, "per_mt_b_brick": 0.0, "per_mt_stone": 0.0, "per_mt_asbstos": 46.4, "per_mt_concrte": 2.1, "per_mt_oth": 0.0, "per_mw_grsbam": 75.7, "per_mw_plastic": 0.0, "per_mw_mud": 5.7, "per_mw_wood": 0.7, "per_mw_no_mrtr": 0.0, "per_mw_st_mrtr": 0.0, "per_mw_asbstos": 0.0, "per_mw_b_brick": 15.7, "per_mw_concrte": 1.4, "per_mw_oth": 0.7, "per_mf_mud": 97.9, "per_mf_wood": 0.0, "per_mf_b_brick": 0.0, "per_mf_stone": 0.0, "per_mf_cement": 2.1, "per_mf_fl_tile": 0.0, "per_mf_oth": 0.0, "per_dw_n_exrm": 92.1, "per_dw_1_room": 5.7, "per_dw_2_room": 2.1, "per_dw_3_room": 0.0, "per_dw_4_room": 0.0, "per_dw_5_room": 0.0, "per_dw_6_room": 0.0, "per_hhsize_1": 2.9, "per_hhsize_2": 10.0, "per_hhsize_3": 20.0, "per_hhsize_4": 20.7, "per_hhsize_5": 17.1, "per_hhsize_6_8": 25.0, "per_hhsize_9p": 4.3, "per_ow_owned": 97.1, "per_ow_rented": 0.0, "per_ow_oth": 2.9, "per_mc_none": 12.9, "per_mcouple_1": 80.0, "per_mcouple_2": 6.4, "per_mcouple_3": 0.7, "per_mcouple_4": 0.0, "per_mcouple_5p": 0.0, "per_dw_t_ts": 0.0, "per_dw_t_unts": 0.0, "per_dw_c_well": 0.0, "per_dw_unc_wel": 100.0, "per_dw_hpump": 0.0, "per_dw_tw_bore": 0.0, "per_dw_spring": 0.0, "per_dw_rivcan": 0.0, "per_dw_tank": 0.0, "per_dw_oth": 0.0, "per_loc_dw_wp": 2.9, "per_loc_dw_np": 35.7, "per_loc_dw_aw": 61.4, "per_light_elec": 0.0, "per_light_kero": 100.0, "per_light_solr": 0.0, "per_light_oil": 0.0, "per_light_oth": 0.0, "per_light_no": 0.0, "per_hh_latrine": 100.0, "per_fl_sewer": 0.0, "per_fl_septict": 1.4, "per_fl_othsys": 0.0, "per_pl_wslab": 98.6, "per_pl_without": 0.0, "per_ns_open": 0.0, "per_sl_ns_hum": 0.0, "per_sl_ns_anml": 0.0, "per_hh_no_lat": 0.0, "per_as_pub": 0.0, "per_as_open": 0.0, "per_hh_bathrm": 0.0, "per_hh_en_wrf": 0.0, "per_hh_no_btrm": 100.0, "per_wwoc_drain": 0.0, "per_wwoc_open": 0.0, "per_wwoc_nodrn": 100.0, "per_cook_fire": 99.3, "per_cook_resdu": 0.0, "per_cook_cwdng": 0.0, "per_cook_coal": 0.0, "per_cook_kero": 0.0, "per_cook_lpng": 0.0, "per_cook_elec": 0.0, "per_cook_biogs": 0.7, "per_cook_oth": 0.0, "per_cook_no": 0.0, "per_kf_inside": 99.3, "per_kf_in_has": 99.3, "per_kf_in_does": 0.0, "per_kf_outside": 0.7, "per_kf_out_has": 0.0, "per_kf_out_dos": 0.7, "per_kf_no_cook": 0.0, "per_hh_banking": 10.0, "per_hh_radio": 12.1, "per_hh_tv": 0.0, "per_hh_cmp_int": 0.7, "per_hh_cmp_wnt": 0.0, "per_hh_ph_ll": 2.9, "per_hh_ph_mob": 9.3, "per_hh_ph_bth": 0.0, "per_hh_bcycl": 16.4, "per_hh_2wheel": 0.0, "per_hh_4wheel": 0.0, "per_hh_tvcomp": 0.0, "per_hh_no_ast": 67.9, "per_hs_perma": 17.1, "per_hs_sperma": 30.7, "per_hs_temp": 51.4, "per_hs_servc": 1.4, "per_hs_nservc": 50.0, "per_hs_unclss": 0.7, "avghhsz_cy": 4.68421053, "st_areashape": 306040.665500925, "st_lengthshape": 2243.3725355772563}, "geometry": {"type": "Polygon", "coordinates": [[[92.87095999925907, 24.57577998540698], [92.87017000013698, 24.574509984861418], [92.86996000007471, 24.571139984241167], [92.86997000012043, 24.571009984806512], [92.87655000057482, 24.57212998493824], [92.8738399998566, 24.57573998481425], [92.8728399997739, 24.576249984062688], [92.87108999985372, 24.575999984354123], [92.87095999925907, 24.57577998540698]]]}}]}