{"type": "FeatureCollection", "features": [{"type": "Feature", "properties": {"premiumdata.sde.IN_Village_PCA.area": 2.90244562, "objectid": 325064, "id": "660425350192", "name": "Pawta", "subdistrict": "Faridabad", "district": "Faridabad", "state": "Haryana", "country": "India", "censusname": "Paota(20)", "villagename_locallang": null, "lgd_villagename": "Pawta", "lgd_villagecode": 63447, "lgd_subdistrictcode": 425, "lgd_districtcode": 60, "lgd_statecode": 6, "censuscode2001": "00653800", "censuscode2011": "063447", "censuscode2021": null, "level": "Village", "tru": "Rural", "no_hh": 480, "tot_p": 2820, "tot_m": 1523, "tot_f": 1297, "per_tot_m": 54.0070922, "per_tot_f": 45.9929078, "p_06": 383, "m_06": 208, "f_06": 175, "per_p_06": 13.58156028, "per_m_06": 54.30809399, "per_f_06": 45.69190601, "p_sc": 380, "m_sc": 196, "f_sc": 184, "per_p_sc": 13.4751773, "per_m_sc": 51.57894737, "per_f_sc": 48.42105263, "p_st": 0, "m_st": 0, "f_st": 0, "per_p_st": 0.0, "per_m_st": 0.0, "per_f_st": 0.0, "p_lit": 1875, "m_lit": 1149, "f_lit": 726, "per_p_lit": 66.4893617, "per_m_lit": 61.28, "per_f_lit": 38.72, "p_ill": 945, "m_ill": 374, "f_ill": 571, "per_p_ill": 33.5106383, "per_m_ill": 39.57671958, "per_f_ill": 60.42328042, "tot_work_p": 732, "tot_work_m": 712, "tot_work_f": 20, "per_tot_work_p": 25.95744681, "per_tot_work_m": 97.26775956, "per_tot_work_f": 2.73224044, "mainwork_p": 720, "mainwork_m": 701, "mainwork_f": 19, "per_mainwork_p": 25.53191489, "per_mainwork_m": 97.36111111, "per_mainwork_f": 2.63888889, "main_cl_p": 216, "main_cl_m": 212, "main_cl_f": 4, "per_main_cl_p": 30.0, "per_main_cl_m": 98.14814815, "per_main_cl_f": 1.85185185, "main_al_p": 27, "main_al_m": 27, "main_al_f": 0, "per_main_al_p": 3.75, "per_main_al_m": 100.0, "per_main_al_f": 0.0, "main_hh_p": 7, "main_hh_m": 5, "main_hh_f": 2, "per_main_hh_p": 0.97222222, "per_main_hh_m": 71.42857143, "per_main_hh_f": 28.57142857, "main_ot_p": 470, "main_ot_m": 457, "main_ot_f": 13, "per_main_ot_p": 65.27777778, "per_main_ot_m": 97.23404255, "per_main_ot_f": 2.76595745, "margwork_p": 12, "margwork_m": 11, "margwork_f": 1, "per_margwork_p": 0.42553191, "per_margwork_m": 91.66666667, "per_margwork_f": 8.33333333, "marg_cl_p": 3, "marg_cl_m": 3, "marg_cl_f": 0, "per_marg_cl_p": 25.0, "per_marg_cl_m": 100.0, "per_marg_cl_f": 0.0, "marg_al_p": 3, "marg_al_m": 3, "marg_al_f": 0, "per_marg_al_p": 25.0, "per_marg_al_m": 100.0, "per_marg_al_f": 0.0, "marg_hh_p": 0, "marg_hh_m": 0, "marg_hh_f": 0, "per_marg_hh_p": 0.0, "per_marg_hh_m": 0.0, "per_marg_hh_f": 0.0, "marg_ot_p": 6, "marg_ot_m": 5, "marg_ot_f": 1, "per_marg_ot_p": 50.0, "per_marg_ot_m": 83.33333332999999, "per_marg_ot_f": 16.66666667, "margwork_3_6_p": 11, "margwork_3_6_m": 10, "margwork_3_6_f": 1, "per_margwork_3_6_p": 91.66666667, "per_margwork_3_6_m": 90.90909091, "per_margwork_3_6_f": 9.09090909, "marg_cl_3_6_p": 2, "marg_cl_3_6_m": 2, "marg_cl_3_6_f": 0, "per_marg_cl_3_6_p": 16.66666667, "per_marg_cl_3_6_m": 100.0, "per_marg_cl_3_6_f": 0.0, "marg_al_3_6_p": 3, "marg_al_3_6_m": 3, "marg_al_3_6_f": 0, "per_marg_al_3_6_p": 25.0, "per_marg_al_3_6_m": 100.0, "per_marg_al_3_6_f": 0.0, "marg_hh_3_6_p": 0, "marg_hh_3_6_m": 0, "marg_hh_3_6_f": 0, "per_marg_hh_3_6_p": 0.0, "per_marg_hh_3_6_m": 0.0, "per_marg_hh_3_6_f": 0.0, "marg_ot_3_6_p": 6, "marg_ot_3_6_m": 5, "marg_ot_3_6_f": 1, "per_marg_ot_3_6_p": 50.0, "per_marg_ot_3_6_m": 83.33333332999999, "per_marg_ot_3_6_f": 16.66666667, "margwork_0_3_p": 1, "margwork_0_3_m": 1, "margwork_0_3_f": 0, "per_margwork_0_3_p": 8.33333333, "per_margwork_0_3_m": 100.0, "per_margwork_0_3_f": 0.0, "marg_cl_0_3_p": 1, "marg_cl_0_3_m": 1, "marg_cl_0_3_f": 0, "per_marg_cl_0_3_p": 8.33333333, "per_marg_cl_0_3_m": 100.0, "per_marg_cl_0_3_f": 0.0, "marg_al_0_3_p": 0, "marg_al_0_3_m": 0, "marg_al_0_3_f": 0, "per_marg_al_0_3_p": 0.0, "per_marg_al_0_3_m": 0.0, "per_marg_al_0_3_f": 0.0, "marg_hh_0_3_p": 0, "marg_hh_0_3_m": 0, "marg_hh_0_3_f": 0, "per_marg_hh_0_3_p": 0.0, "per_marg_hh_0_3_m": 0.0, "per_marg_hh_0_3_f": 0.0, "marg_ot_0_3_p": 0, "marg_ot_0_3_m": 0, "marg_ot_0_3_f": 0, "per_marg_ot_0_3_p": 0.0, "per_marg_ot_0_3_m": 0.0, "per_marg_ot_0_3_f": 0.0, "non_work_p": 2088, "non_work_m": 811, "non_work_f": 1277, "per_non_work_p": 74.04255319, "per_non_work_m": 38.84099617, "per_non_work_f": 61.15900383, "per_hc_tot_tot": 100, "per_hc_tot_god": 22.8, "per_hc_tot_liv": 75.1, "per_hc_tot_dil": 2.1, "per_hc_res_tot": 55.5, "per_hc_res_god": 13.2, "per_hc_res_liv": 40.4, "per_hc_res_dil": 1.9, "per_hc_oth_tot": 44.5, "per_hc_oth_god": 9.6, "per_hc_oth_liv": 34.7, "per_hc_oth_dil": 0.2, "per_mt_grsbam": 1.7, "per_mt_plastic": 0.2, "per_mt_h_tiles": 6.4, "per_mt_m_tiles": 1.3, "per_mt_b_brick": 1.9, "per_mt_stone": 69.4, "per_mt_asbstos": 1.1, "per_mt_concrte": 17.9, "per_mt_oth": 0.2, "per_mw_grsbam": 0.2, "per_mw_plastic": 0.2, "per_mw_mud": 12.3, "per_mw_wood": 2.8, "per_mw_no_mrtr": 13.4, "per_mw_st_mrtr": 23.6, "per_mw_asbstos": 0.0, "per_mw_b_brick": 47.4, "per_mw_concrte": 0.0, "per_mw_oth": 0.0, "per_mf_mud": 31.3, "per_mf_wood": 0.0, "per_mf_b_brick": 2.6, "per_mf_stone": 3.6, "per_mf_cement": 58.1, "per_mf_fl_tile": 4.5, "per_mf_oth": 0.0, "per_dw_n_exrm": 1.7, "per_dw_1_room": 25.3, "per_dw_2_room": 32.1, "per_dw_3_room": 18.3, "per_dw_4_room": 10.4, "per_dw_5_room": 7.0, "per_dw_6_room": 5.1, "per_hhsize_1": 2.3, "per_hhsize_2": 3.2, "per_hhsize_3": 5.3, "per_hhsize_4": 15.7, "per_hhsize_5": 22.8, "per_hhsize_6_8": 38.3, "per_hhsize_9p": 12.3, "per_ow_owned": 97.0, "per_ow_rented": 0.4, "per_ow_oth": 2.6, "per_mc_none": 8.9, "per_mcouple_1": 62.3, "per_mcouple_2": 16.8, "per_mcouple_3": 9.4, "per_mcouple_4": 1.9, "per_mcouple_5p": 0.6, "per_dw_t_ts": 32.6, "per_dw_t_unts": 14.3, "per_dw_c_well": 0.0, "per_dw_unc_wel": 1.1, "per_dw_hpump": 24.0, "per_dw_tw_bore": 20.2, "per_dw_spring": 0.0, "per_dw_rivcan": 0.0, "per_dw_tank": 0.0, "per_dw_oth": 7.9, "per_loc_dw_wp": 50.2, "per_loc_dw_np": 34.5, "per_loc_dw_aw": 15.3, "per_light_elec": 84.7, "per_light_kero": 6.6, "per_light_solr": 0.0, "per_light_oil": 0.0, "per_light_oth": 0.4, "per_light_no": 8.3, "per_hh_latrine": 46.8, "per_fl_sewer": 0.2, "per_fl_septict": 46.4, "per_fl_othsys": 0.0, "per_pl_wslab": 0.0, "per_pl_without": 0.0, "per_ns_open": 0.2, "per_sl_ns_hum": 0.0, "per_sl_ns_anml": 0.0, "per_hh_no_lat": 53.2, "per_as_pub": 0.0, "per_as_open": 53.2, "per_hh_bathrm": 52.6, "per_hh_en_wrf": 13.8, "per_hh_no_btrm": 33.6, "per_wwoc_drain": 1.9, "per_wwoc_open": 90.0, "per_wwoc_nodrn": 8.1, "per_cook_fire": 51.1, "per_cook_resdu": 1.3, "per_cook_cwdng": 22.3, "per_cook_coal": 0.0, "per_cook_kero": 0.0, "per_cook_lpng": 24.9, "per_cook_elec": 0.0, "per_cook_biogs": 0.0, "per_cook_oth": 0.0, "per_cook_no": 0.4, "per_kf_inside": 97.2, "per_kf_in_has": 45.1, "per_kf_in_does": 52.1, "per_kf_outside": 2.3, "per_kf_out_has": 0.0, "per_kf_out_dos": 2.3, "per_kf_no_cook": 0.4, "per_hh_banking": 76.2, "per_hh_radio": 6.8, "per_hh_tv": 60.4, "per_hh_cmp_int": 0.2, "per_hh_cmp_wnt": 2.1, "per_hh_ph_ll": 1.5, "per_hh_ph_mob": 61.3, "per_hh_ph_bth": 0.6, "per_hh_bcycl": 39.8, "per_hh_2wheel": 39.1, "per_hh_4wheel": 12.6, "per_hh_tvcomp": null, "per_hh_no_ast": 14.7, "per_hs_perma": 83.8, "per_hs_sperma": 14.7, "per_hs_temp": 1.3, "per_hs_servc": 0.9, "per_hs_nservc": 0.4, "per_hs_unclss": 0.2, "avghhsz_cy": 5.875, "st_areashape": 3761995.965303935, "st_lengthshape": 9149.949974247036}, "geometry": {"type": "Polygon", "coordinates": [[[77.23551701261933, 28.356916105536463], [77.23147860122528, 28.35819129734525], [77.22968629694341, 28.358754943702966], [77.2231732488255, 28.36256347717662], [77.22025656462503, 28.364413344122045], [77.21750629153433, 28.36616140081027], [77.21025689258137, 28.369686061837243], [77.20894829874072, 28.367018571153203], [77.20411501755906, 28.36174951918189], [77.20374725536657, 28.361706221048035], [77.20635884923868, 28.359941820110617], [77.21061169118599, 28.357653116884926], [77.2118732267805, 28.35697708170576], [77.21277642800148, 28.356634241880904], [77.21846079464284, 28.354486085690677], [77.21916835537131, 28.354216936210133], [77.22923965458416, 28.35202170232952], [77.2333703184663, 28.351602309023445], [77.23554583237026, 28.35079676954356], [77.23551701261933, 28.356916105536463]]]}}]}