{"type": "FeatureCollection", "features": [{"type": "Feature", "properties": {"premiumdata.sde.IN_Village_PCA.area": 8.34808596, "objectid": 324264, "id": "659397350317", "name": "Bawani Khera", "subdistrict": "Bawani Khera", "district": "Bhiwani", "state": "Haryana", "country": "India", "censusname": "Bawani khera (MC)", "villagename_locallang": "Bawani Khera", "lgd_villagename": "Bawani Khera", "lgd_villagecode": 800408, "lgd_subdistrictcode": 397, "lgd_districtcode": 59, "lgd_statecode": 6, "censuscode2001": "41301000", "censuscode2011": "800408", "censuscode2021": null, "level": "Town", "tru": "Urban", "no_hh": 3890, "tot_p": 20289, "tot_m": 10792, "tot_f": 9497, "per_tot_m": 53.19138449, "per_tot_f": 46.80861551, "p_06": 2712, "m_06": 1493, "f_06": 1219, "per_p_06": 13.36684903, "per_m_06": 55.05162242, "per_f_06": 44.94837758000001, "p_sc": 7147, "m_sc": 3819, "f_sc": 3328, "per_p_sc": 35.22598452, "per_m_sc": 53.4350077, "per_f_sc": 46.5649923, "p_st": 0, "m_st": 0, "f_st": 0, "per_p_st": 0.0, "per_m_st": 0.0, "per_f_st": 0.0, "p_lit": 12992, "m_lit": 7714, "f_lit": 5278, "per_p_lit": 64.03469861, "per_m_lit": 59.375, "per_f_lit": 40.625, "p_ill": 7297, "m_ill": 3078, "f_ill": 4219, "per_p_ill": 35.96530139, "per_m_ill": 42.18171851, "per_f_ill": 57.81828149, "tot_work_p": 6465, "tot_work_m": 5146, "tot_work_f": 1319, "per_tot_work_p": 31.86455715, "per_tot_work_m": 79.59783449000001, "per_tot_work_f": 20.40216551, "mainwork_p": 5254, "mainwork_m": 4473, "mainwork_f": 781, "per_mainwork_p": 25.89580561, "per_mainwork_m": 85.13513513999999, "per_mainwork_f": 14.86486486, "main_cl_p": 1736, "main_cl_m": 1370, "main_cl_f": 366, "per_main_cl_p": 33.0414922, "per_main_cl_m": 78.91705069, "per_main_cl_f": 21.08294931, "main_al_p": 1089, "main_al_m": 914, "main_al_f": 175, "per_main_al_p": 20.72706509, "per_main_al_m": 83.9302112, "per_main_al_f": 16.0697888, "main_hh_p": 72, "main_hh_m": 63, "main_hh_f": 9, "per_main_hh_p": 1.37038447, "per_main_hh_m": 87.5, "per_main_hh_f": 12.5, "main_ot_p": 2357, "main_ot_m": 2126, "main_ot_f": 231, "per_main_ot_p": 44.86105824, "per_main_ot_m": 90.19940602, "per_main_ot_f": 9.80059398, "margwork_p": 1211, "margwork_m": 673, "margwork_f": 538, "per_margwork_p": 5.96875154, "per_margwork_m": 55.57390586, "per_margwork_f": 44.42609414, "marg_cl_p": 130, "marg_cl_m": 51, "marg_cl_f": 79, "per_marg_cl_p": 10.73492981, "per_marg_cl_m": 39.23076923, "per_marg_cl_f": 60.76923077, "marg_al_p": 675, "marg_al_m": 438, "marg_al_f": 237, "per_marg_al_p": 55.73905863, "per_marg_al_m": 64.88888889, "per_marg_al_f": 35.11111111, "marg_hh_p": 10, "marg_hh_m": 8, "marg_hh_f": 2, "per_marg_hh_p": 0.82576383, "per_marg_hh_m": 80.0, "per_marg_hh_f": 20.0, "marg_ot_p": 396, "marg_ot_m": 176, "marg_ot_f": 220, "per_marg_ot_p": 32.70024773, "per_marg_ot_m": 44.44444444000001, "per_marg_ot_f": 55.55555556, "margwork_3_6_p": 889, "margwork_3_6_m": 589, "margwork_3_6_f": 300, "per_margwork_3_6_p": 73.41040462, "per_margwork_3_6_m": 66.25421822, "per_margwork_3_6_f": 33.74578178, "marg_cl_3_6_p": 118, "marg_cl_3_6_m": 45, "marg_cl_3_6_f": 73, "per_marg_cl_3_6_p": 9.74401321, "per_marg_cl_3_6_m": 38.13559322, "per_marg_cl_3_6_f": 61.86440678, "marg_al_3_6_p": 567, "marg_al_3_6_m": 388, "marg_al_3_6_f": 179, "per_marg_al_3_6_p": 46.82080925, "per_marg_al_3_6_m": 68.4303351, "per_marg_al_3_6_f": 31.5696649, "marg_hh_3_6_p": 8, "marg_hh_3_6_m": 6, "marg_hh_3_6_f": 2, "per_marg_hh_3_6_p": 0.66061107, "per_marg_hh_3_6_m": 75.0, "per_marg_hh_3_6_f": 25.0, "marg_ot_3_6_p": 196, "marg_ot_3_6_m": 150, "marg_ot_3_6_f": 46, "per_marg_ot_3_6_p": 16.1849711, "per_marg_ot_3_6_m": 76.53061224000001, "per_marg_ot_3_6_f": 23.46938776, "margwork_0_3_p": 322, "margwork_0_3_m": 84, "margwork_0_3_f": 238, "per_margwork_0_3_p": 26.58959538, "per_margwork_0_3_m": 26.08695652, "per_margwork_0_3_f": 73.91304348, "marg_cl_0_3_p": 12, "marg_cl_0_3_m": 6, "marg_cl_0_3_f": 6, "per_marg_cl_0_3_p": 0.9909166, "per_marg_cl_0_3_m": 50.0, "per_marg_cl_0_3_f": 50.0, "marg_al_0_3_p": 108, "marg_al_0_3_m": 50, "marg_al_0_3_f": 58, "per_marg_al_0_3_p": 8.91824938, "per_marg_al_0_3_m": 46.2962963, "per_marg_al_0_3_f": 53.7037037, "marg_hh_0_3_p": 2, "marg_hh_0_3_m": 2, "marg_hh_0_3_f": 0, "per_marg_hh_0_3_p": 0.16515277, "per_marg_hh_0_3_m": 100.0, "per_marg_hh_0_3_f": 0.0, "marg_ot_0_3_p": 200, "marg_ot_0_3_m": 26, "marg_ot_0_3_f": 174, "per_marg_ot_0_3_p": 16.51527663, "per_marg_ot_0_3_m": 13.0, "per_marg_ot_0_3_f": 87.0, "non_work_p": 13824, "non_work_m": 5646, "non_work_f": 8178, "per_non_work_p": 68.13544285, "per_non_work_m": 40.84201389, "per_non_work_f": 59.15798611, "per_hc_tot_tot": 100, "per_hc_tot_god": 41.9, "per_hc_tot_liv": 54.2, "per_hc_tot_dil": 3.9, "per_hc_res_tot": 97.7, "per_hc_res_god": 40.7, "per_hc_res_liv": 53.0, "per_hc_res_dil": 3.9, "per_hc_oth_tot": 2.3, "per_hc_oth_god": 1.2, "per_hc_oth_liv": 1.1, "per_hc_oth_dil": 0.0, "per_mt_grsbam": 49.7, "per_mt_plastic": 0.5, "per_mt_h_tiles": 0.4, "per_mt_m_tiles": 0.8, "per_mt_b_brick": 8.6, "per_mt_stone": 27.2, "per_mt_asbstos": 0.4, "per_mt_concrte": 12.4, "per_mt_oth": 0.0, "per_mw_grsbam": 0.2, "per_mw_plastic": 0.1, "per_mw_mud": 2.3, "per_mw_wood": 0.1, "per_mw_no_mrtr": 1.3, "per_mw_st_mrtr": 1.7, "per_mw_asbstos": 0.9, "per_mw_b_brick": 93.4, "per_mw_concrte": 0.2, "per_mw_oth": 0.0, "per_mf_mud": 38.4, "per_mf_wood": 0.0, "per_mf_b_brick": 10.2, "per_mf_stone": 6.9, "per_mf_cement": 38.6, "per_mf_fl_tile": 5.2, "per_mf_oth": 0.6, "per_dw_n_exrm": 0.6, "per_dw_1_room": 20.8, "per_dw_2_room": 40.4, "per_dw_3_room": 20.4, "per_dw_4_room": 11.9, "per_dw_5_room": 3.4, "per_dw_6_room": 2.7, "per_hhsize_1": 1.5, "per_hhsize_2": 5.5, "per_hhsize_3": 8.6, "per_hhsize_4": 23.2, "per_hhsize_5": 25.6, "per_hhsize_6_8": 29.4, "per_hhsize_9p": 6.1, "per_ow_owned": 96.2, "per_ow_rented": 3.0, "per_ow_oth": 0.8, "per_mc_none": 8.9, "per_mcouple_1": 68.0, "per_mcouple_2": 18.3, "per_mcouple_3": 4.2, "per_mcouple_4": 0.5, "per_mcouple_5p": 0.2, "per_dw_t_ts": 81.1, "per_dw_t_unts": 2.9, "per_dw_c_well": 0.3, "per_dw_unc_wel": 12.7, "per_dw_hpump": 1.2, "per_dw_tw_bore": 0.6, "per_dw_spring": 0.0, "per_dw_rivcan": 0.1, "per_dw_tank": 0.1, "per_dw_oth": 0.9, "per_loc_dw_wp": 68.3, "per_loc_dw_np": 27.0, "per_loc_dw_aw": 4.7, "per_light_elec": 82.2, "per_light_kero": 14.9, "per_light_solr": 0.2, "per_light_oil": 0.1, "per_light_oth": 1.9, "per_light_no": 0.7, "per_hh_latrine": 55.5, "per_fl_sewer": 0.9, "per_fl_septict": 6.2, "per_fl_othsys": 42.6, "per_pl_wslab": 5.7, "per_pl_without": 0.1, "per_ns_open": 0.0, "per_sl_ns_hum": 0.0, "per_sl_ns_anml": 0.1, "per_hh_no_lat": 44.5, "per_as_pub": 0.2, "per_as_open": 44.3, "per_hh_bathrm": 61.6, "per_hh_en_wrf": 13.8, "per_hh_no_btrm": 24.6, "per_wwoc_drain": 3.4, "per_wwoc_open": 86.4, "per_wwoc_nodrn": 10.2, "per_cook_fire": 35.0, "per_cook_resdu": 28.4, "per_cook_cwdng": 3.5, "per_cook_coal": 0.2, "per_cook_kero": 0.2, "per_cook_lpng": 32.5, "per_cook_elec": 0.0, "per_cook_biogs": 0.1, "per_cook_oth": 0.1, "per_cook_no": 0.1, "per_kf_inside": 94.4, "per_kf_in_has": 56.4, "per_kf_in_does": 38.0, "per_kf_outside": 5.5, "per_kf_out_has": 1.8, "per_kf_out_dos": 3.7, "per_kf_no_cook": 0.1, "per_hh_banking": 52.8, "per_hh_radio": 15.7, "per_hh_tv": 64.7, "per_hh_cmp_int": 1.0, "per_hh_cmp_wnt": 4.1, "per_hh_ph_ll": 5.6, "per_hh_ph_mob": 68.8, "per_hh_ph_bth": 2.3, "per_hh_bcycl": 44.4, "per_hh_2wheel": 17.9, "per_hh_4wheel": 2.7, "per_hh_tvcomp": null, "per_hh_no_ast": 10.0, "per_hs_perma": 49.1, "per_hs_sperma": 48.9, "per_hs_temp": 2.0, "per_hs_servc": 1.7, "per_hs_nservc": 0.3, "per_hs_unclss": 0.0, "avghhsz_cy": 5.21568123, "st_areashape": 10940240.59430053, "st_lengthshape": 13284.27596759866}, "geometry": {"type": "Polygon", "coordinates": [[[76.04883623498874, 28.932539626054933], [76.04624675314739, 28.954342685651508], [76.04593286202417, 28.957184283312756], [76.01527217739763, 28.954439103319036], [76.01666724576249, 28.944281843024225], [76.01751390971444, 28.93889241465857], [76.01826995251879, 28.928897006051447], [76.04883623498874, 28.932539626054933]]]}}]}