{"type": "FeatureCollection", "features": [{"type": "Feature", "properties": {"premiumdata.sde.IN_Village_PCA.area": 0.02649176, "objectid": 100284, "id": "274704224645103", "name": "Jalalpur", "subdistrict": "Parli", "district": "Beed", "state": "Maharashtra", "country": "India", "censusname": "Jalalpur", "villagename_locallang": "\u091c\u0932\u093e\u0932\u092a\u0942\u0930", "lgd_villagename": "Jalalpur", "lgd_villagecode": 559948, "lgd_subdistrictcode": 4224, "lgd_districtcode": 470, "lgd_statecode": 27, "censuscode2001": "03478700", "censuscode2011": "559948", "censuscode2021": null, "level": "Village", "tru": "Rural", "no_hh": 601, "tot_p": 2983, "tot_m": 1551, "tot_f": 1432, "per_tot_m": 51.99463627, "per_tot_f": 48.00536373, "p_06": 325, "m_06": 185, "f_06": 140, "per_p_06": 10.89507208, "per_m_06": 56.92307692, "per_f_06": 43.07692308, "p_sc": 228, "m_sc": 118, "f_sc": 110, "per_p_sc": 7.6433121, "per_m_sc": 51.75438596, "per_f_sc": 48.24561404000001, "p_st": 101, "m_st": 55, "f_st": 46, "per_p_st": 3.38585317, "per_m_st": 54.45544554, "per_f_st": 45.54455446, "p_lit": 2382, "m_lit": 1299, "f_lit": 1083, "per_p_lit": 79.85249749, "per_m_lit": 54.53400504, "per_f_lit": 45.46599496, "p_ill": 601, "m_ill": 252, "f_ill": 349, "per_p_ill": 20.14750251, "per_m_ill": 41.93011647, "per_f_ill": 58.06988353, "tot_work_p": 893, "tot_work_m": 755, "tot_work_f": 138, "per_tot_work_p": 29.93630573, "per_tot_work_m": 84.54647256000001, "per_tot_work_f": 15.45352744, "mainwork_p": 862, "mainwork_m": 739, "mainwork_f": 123, "per_mainwork_p": 28.89708347, "per_mainwork_m": 85.73085847, "per_mainwork_f": 14.26914153, "main_cl_p": 121, "main_cl_m": 83, "main_cl_f": 38, "per_main_cl_p": 14.03712297, "per_main_cl_m": 68.59504132, "per_main_cl_f": 31.40495868, "main_al_p": 15, "main_al_m": 7, "main_al_f": 8, "per_main_al_p": 1.74013921, "per_main_al_m": 46.66666667000001, "per_main_al_f": 53.33333333, "main_hh_p": 35, "main_hh_m": 29, "main_hh_f": 6, "per_main_hh_p": 4.06032483, "per_main_hh_m": 82.85714286, "per_main_hh_f": 17.14285714, "main_ot_p": 691, "main_ot_m": 620, "main_ot_f": 71, "per_main_ot_p": 80.16241299, "per_main_ot_m": 89.72503617999999, "per_main_ot_f": 10.27496382, "margwork_p": 31, "margwork_m": 16, "margwork_f": 15, "per_margwork_p": 1.03922226, "per_margwork_m": 51.61290323, "per_margwork_f": 48.38709677, "marg_cl_p": 5, "marg_cl_m": 1, "marg_cl_f": 4, "per_marg_cl_p": 16.12903226, "per_marg_cl_m": 20.0, "per_marg_cl_f": 80.0, "marg_al_p": 0, "marg_al_m": 0, "marg_al_f": 0, "per_marg_al_p": 0.0, "per_marg_al_m": 0.0, "per_marg_al_f": 0.0, "marg_hh_p": 3, "marg_hh_m": 0, "marg_hh_f": 3, "per_marg_hh_p": 9.67741935, "per_marg_hh_m": 0.0, "per_marg_hh_f": 100.0, "marg_ot_p": 23, "marg_ot_m": 15, "marg_ot_f": 8, "per_marg_ot_p": 74.19354839, "per_marg_ot_m": 65.2173913, "per_marg_ot_f": 34.7826087, "margwork_3_6_p": 27, "margwork_3_6_m": 14, "margwork_3_6_f": 13, "per_margwork_3_6_p": 87.09677419, "per_margwork_3_6_m": 51.85185185, "per_margwork_3_6_f": 48.14814815, "marg_cl_3_6_p": 2, "marg_cl_3_6_m": 0, "marg_cl_3_6_f": 2, "per_marg_cl_3_6_p": 6.4516129, "per_marg_cl_3_6_m": 0.0, "per_marg_cl_3_6_f": 100.0, "marg_al_3_6_p": 0, "marg_al_3_6_m": 0, "marg_al_3_6_f": 0, "per_marg_al_3_6_p": 0.0, "per_marg_al_3_6_m": 0.0, "per_marg_al_3_6_f": 0.0, "marg_hh_3_6_p": 3, "marg_hh_3_6_m": 0, "marg_hh_3_6_f": 3, "per_marg_hh_3_6_p": 9.67741935, "per_marg_hh_3_6_m": 0.0, "per_marg_hh_3_6_f": 100.0, "marg_ot_3_6_p": 22, "marg_ot_3_6_m": 14, "marg_ot_3_6_f": 8, "per_marg_ot_3_6_p": 70.96774194, "per_marg_ot_3_6_m": 63.63636364, "per_marg_ot_3_6_f": 36.36363636, "margwork_0_3_p": 4, "margwork_0_3_m": 2, "margwork_0_3_f": 2, "per_margwork_0_3_p": 12.90322581, "per_margwork_0_3_m": 50.0, "per_margwork_0_3_f": 50.0, "marg_cl_0_3_p": 3, "marg_cl_0_3_m": 1, "marg_cl_0_3_f": 2, "per_marg_cl_0_3_p": 9.67741935, "per_marg_cl_0_3_m": 33.33333333, "per_marg_cl_0_3_f": 66.66666667, "marg_al_0_3_p": 0, "marg_al_0_3_m": 0, "marg_al_0_3_f": 0, "per_marg_al_0_3_p": 0.0, "per_marg_al_0_3_m": 0.0, "per_marg_al_0_3_f": 0.0, "marg_hh_0_3_p": 0, "marg_hh_0_3_m": 0, "marg_hh_0_3_f": 0, "per_marg_hh_0_3_p": 0.0, "per_marg_hh_0_3_m": 0.0, "per_marg_hh_0_3_f": 0.0, "marg_ot_0_3_p": 1, "marg_ot_0_3_m": 1, "marg_ot_0_3_f": 0, "per_marg_ot_0_3_p": 3.22580645, "per_marg_ot_0_3_m": 100.0, "per_marg_ot_0_3_f": 0.0, "non_work_p": 2090, "non_work_m": 796, "non_work_f": 1294, "per_non_work_p": 70.06369427, "per_non_work_m": 38.0861244, "per_non_work_f": 61.9138756, "per_hc_tot_tot": 100, "per_hc_tot_god": 86.1, "per_hc_tot_liv": 11.3, "per_hc_tot_dil": 2.6, "per_hc_res_tot": 99.0, "per_hc_res_god": 85.1, "per_hc_res_liv": 11.3, "per_hc_res_dil": 2.6, "per_hc_oth_tot": 1.0, "per_hc_oth_god": 1.0, "per_hc_oth_liv": 0.0, "per_hc_oth_dil": 0.0, "per_mt_grsbam": 0.8, "per_mt_plastic": 0.2, "per_mt_h_tiles": 0.3, "per_mt_m_tiles": 2.0, "per_mt_b_brick": 0.0, "per_mt_stone": 3.1, "per_mt_asbstos": 20.7, "per_mt_concrte": 72.0, "per_mt_oth": 0.8, "per_mw_grsbam": 1.0, "per_mw_plastic": 0.3, "per_mw_mud": 3.6, "per_mw_wood": 0.3, "per_mw_no_mrtr": 0.5, "per_mw_st_mrtr": 0.8, "per_mw_asbstos": 4.1, "per_mw_b_brick": 85.1, "per_mw_concrte": 4.0, "per_mw_oth": 0.2, "per_mf_mud": 11.3, "per_mf_wood": 0.2, "per_mf_b_brick": 0.2, "per_mf_stone": 0.2, "per_mf_cement": 14.6, "per_mf_fl_tile": 73.3, "per_mf_oth": 0.3, "per_dw_n_exrm": 0.7, "per_dw_1_room": 26.7, "per_dw_2_room": 31.6, "per_dw_3_room": 19.9, "per_dw_4_room": 11.1, "per_dw_5_room": 6.3, "per_dw_6_room": 3.8, "per_hhsize_1": 0.8, "per_hhsize_2": 5.6, "per_hhsize_3": 11.3, "per_hhsize_4": 27.0, "per_hhsize_5": 26.2, "per_hhsize_6_8": 24.2, "per_hhsize_9p": 5.0, "per_ow_owned": 81.8, "per_ow_rented": 16.6, "per_ow_oth": 1.7, "per_mc_none": 4.5, "per_mcouple_1": 73.7, "per_mcouple_2": 17.2, "per_mcouple_3": 4.0, "per_mcouple_4": 0.7, "per_mcouple_5p": 0.0, "per_dw_t_ts": 0.8, "per_dw_t_unts": 0.2, "per_dw_c_well": 0.0, "per_dw_unc_wel": 0.0, "per_dw_hpump": 16.9, "per_dw_tw_bore": 79.0, "per_dw_spring": 0.0, "per_dw_rivcan": 0.7, "per_dw_tank": 0.7, "per_dw_oth": 1.8, "per_loc_dw_wp": 71.4, "per_loc_dw_np": 18.4, "per_loc_dw_aw": 10.3, "per_light_elec": 97.2, "per_light_kero": 1.8, "per_light_solr": 0.0, "per_light_oil": 0.0, "per_light_oth": 0.2, "per_light_no": 0.8, "per_hh_latrine": 83.6, "per_fl_sewer": 3.3, "per_fl_septict": 78.1, "per_fl_othsys": 0.7, "per_pl_wslab": 0.2, "per_pl_without": 0.2, "per_ns_open": 1.2, "per_sl_ns_hum": 0.0, "per_sl_ns_anml": 0.0, "per_hh_no_lat": 16.4, "per_as_pub": 0.0, "per_as_open": 16.4, "per_hh_bathrm": 84.8, "per_hh_en_wrf": 7.6, "per_hh_no_btrm": 7.6, "per_wwoc_drain": 1.5, "per_wwoc_open": 22.7, "per_wwoc_nodrn": 75.8, "per_cook_fire": 11.8, "per_cook_resdu": 0.5, "per_cook_cwdng": 0.0, "per_cook_coal": 0.0, "per_cook_kero": 2.0, "per_cook_lpng": 85.1, "per_cook_elec": 0.2, "per_cook_biogs": 0.2, "per_cook_oth": 0.0, "per_cook_no": 0.3, "per_kf_inside": 99.0, "per_kf_in_has": 87.1, "per_kf_in_does": 11.9, "per_kf_outside": 0.7, "per_kf_out_has": 0.2, "per_kf_out_dos": 0.5, "per_kf_no_cook": 0.3, "per_hh_banking": 90.4, "per_hh_radio": 14.9, "per_hh_tv": 84.4, "per_hh_cmp_int": 3.5, "per_hh_cmp_wnt": 6.0, "per_hh_ph_ll": 3.0, "per_hh_ph_mob": 72.7, "per_hh_ph_bth": 16.2, "per_hh_bcycl": 50.8, "per_hh_2wheel": 46.7, "per_hh_4wheel": 5.0, "per_hh_tvcomp": 7.9, "per_hh_no_ast": 3.5, "per_hs_perma": 93.2, "per_hs_sperma": 5.5, "per_hs_temp": 0.3, "per_hs_servc": 0.2, "per_hs_nservc": 0.2, "per_hs_unclss": 1.0, "avghhsz_cy": 4.96339434, "st_areashape": 31363.87350204, "st_lengthshape": 628.0581775956349}, "geometry": {"type": "Polygon", "coordinates": [[[76.49783179492012, 18.829620577798785], [76.49774235146391, 18.829616352957558], [76.49765379733984, 18.829603719244727], [76.49756701199856, 18.829582804194395], [76.49748285782273, 18.829553813561564], [76.49740217204224, 18.829517037273934], [76.49732575595428, 18.8294728392294], [76.49725436863527, 18.8294216589965], [76.49718872065262, 18.829364006713455], [76.49712946418322, 18.829300453735836], [76.49707718672525, 18.829231631786527], [76.49703240930161, 18.82915822615412], [76.49699557657831, 18.82908096464015], [76.49696705506804, 18.829000615858885], [76.49694712684179, 18.828917979034518], [76.49693599132554, 18.82883387464889], [76.49693375901205, 18.828749138489787], [76.49694045146089, 18.828664613148586], [76.49695600219678, 18.82858113866769], [76.49698025760779, 18.828499544037903], [76.49701297514873, 18.828420641246677], [76.49705383142619, 18.828345213374565], [76.49710241860497, 18.82827401034373], [76.49715825518808, 18.828207740415085], [76.49722078511839, 18.82814706168588], [76.49728938855831, 18.828092576987604], [76.49736338188993, 18.828044828784257], [76.49744203029138, 18.828004290669718], [76.49752455312664, 18.82797136566676], [76.49761012933554, 18.827946381975654], [76.49769790821355, 18.827929586171994], [76.49778701749646, 18.827921146607373], [76.49787657234376, 18.827921146607373], [76.49796568162668, 18.827929586171994], [76.49805346050468, 18.827946381975654], [76.49813903671358, 18.82797136566676], [76.49822155954884, 18.828004290669718], [76.4983002079503, 18.828044828784257], [76.49837420128195, 18.828092576987604], [76.49844280472185, 18.82814706168588], [76.49850533465217, 18.828207740415085], [76.49856117123525, 18.82827401034373], [76.49860975841403, 18.828345213374565], [76.4986506146915, 18.828420641246677], [76.49868333223245, 18.828499544037903], [76.49870758764344, 18.82858113866769], [76.49872313837933, 18.828664613148586], [76.49872983082817, 18.828749138489787], [76.4987275985147, 18.82883387464889], [76.49871646299843, 18.828917979034518], [76.4986965347722, 18.829000615858885], [76.4986680132619, 18.82908096464015], [76.49863118053862, 18.82915822615412], [76.49858640311497, 18.829231631786527], [76.49853412565702, 18.829300453735836], [76.49847486918762, 18.829364006713455], [76.49840922120497, 18.8294216589965], [76.49833783388594, 18.8294728392294], [76.49826141779799, 18.829517037273934], [76.4981807320175, 18.829553813561564], [76.49809657784168, 18.829582804194395], [76.49800979250041, 18.829603719244727], [76.4979212383763, 18.829616352957558], [76.49783179492012, 18.829620577798785]]]}}]}