{"type": "FeatureCollection", "features": [{"type": "Feature", "properties": {"premiumdata.sde.IN_Village_PCA.area": 0.58168732, "objectid": 528656, "id": "193042415126974", "name": "Balarampur", "subdistrict": "Bishnupur - I", "district": "24 Paraganas South", "state": "West Bengal", "country": "India", "censusname": "Balarampur", "villagename_locallang": null, "lgd_villagename": "Balarampur", "lgd_villagecode": 333422, "lgd_subdistrictcode": 2415, "lgd_districtcode": 304, "lgd_statecode": 19, "censuscode2001": "03879700", "censuscode2011": "333422", "censuscode2021": null, "level": "Village", "tru": "Rural", "no_hh": 242, "tot_p": 1037, "tot_m": 520, "tot_f": 517, "per_tot_m": 50.14464802, "per_tot_f": 49.85535198, "p_06": 134, "m_06": 67, "f_06": 67, "per_p_06": 12.92189007, "per_m_06": 50.0, "per_f_06": 50.0, "p_sc": 507, "m_sc": 252, "f_sc": 255, "per_p_sc": 48.89103182, "per_m_sc": 49.70414201, "per_f_sc": 50.29585799, "p_st": 0, "m_st": 0, "f_st": 0, "per_p_st": 0.0, "per_m_st": 0.0, "per_f_st": 0.0, "p_lit": 755, "m_lit": 402, "f_lit": 353, "per_p_lit": 72.80617165, "per_m_lit": 53.24503311, "per_f_lit": 46.75496689, "p_ill": 282, "m_ill": 118, "f_ill": 164, "per_p_ill": 27.19382835, "per_m_ill": 41.84397163, "per_f_ill": 58.15602837, "tot_work_p": 298, "tot_work_m": 274, "tot_work_f": 24, "per_tot_work_p": 28.7367406, "per_tot_work_m": 91.94630872, "per_tot_work_f": 8.05369128, "mainwork_p": 290, "mainwork_m": 268, "mainwork_f": 22, "per_mainwork_p": 27.96528447, "per_mainwork_m": 92.4137931, "per_mainwork_f": 7.5862069, "main_cl_p": 34, "main_cl_m": 32, "main_cl_f": 2, "per_main_cl_p": 11.72413793, "per_main_cl_m": 94.11764706, "per_main_cl_f": 5.88235294, "main_al_p": 214, "main_al_m": 207, "main_al_f": 7, "per_main_al_p": 73.79310345, "per_main_al_m": 96.72897196, "per_main_al_f": 3.27102804, "main_hh_p": 0, "main_hh_m": 0, "main_hh_f": 0, "per_main_hh_p": 0.0, "per_main_hh_m": 0.0, "per_main_hh_f": 0.0, "main_ot_p": 42, "main_ot_m": 29, "main_ot_f": 13, "per_main_ot_p": 14.48275862, "per_main_ot_m": 69.04761905000001, "per_main_ot_f": 30.95238095, "margwork_p": 8, "margwork_m": 6, "margwork_f": 2, "per_margwork_p": 0.77145612, "per_margwork_m": 75.0, "per_margwork_f": 25.0, "marg_cl_p": 0, "marg_cl_m": 0, "marg_cl_f": 0, "per_marg_cl_p": 0.0, "per_marg_cl_m": 0.0, "per_marg_cl_f": 0.0, "marg_al_p": 4, "marg_al_m": 4, "marg_al_f": 0, "per_marg_al_p": 50.0, "per_marg_al_m": 100.0, "per_marg_al_f": 0.0, "marg_hh_p": 0, "marg_hh_m": 0, "marg_hh_f": 0, "per_marg_hh_p": 0.0, "per_marg_hh_m": 0.0, "per_marg_hh_f": 0.0, "marg_ot_p": 4, "marg_ot_m": 2, "marg_ot_f": 2, "per_marg_ot_p": 50.0, "per_marg_ot_m": 50.0, "per_marg_ot_f": 50.0, "margwork_3_6_p": 6, "margwork_3_6_m": 4, "margwork_3_6_f": 2, "per_margwork_3_6_p": 75.0, "per_margwork_3_6_m": 66.66666667, "per_margwork_3_6_f": 33.33333333, "marg_cl_3_6_p": 0, "marg_cl_3_6_m": 0, "marg_cl_3_6_f": 0, "per_marg_cl_3_6_p": 0.0, "per_marg_cl_3_6_m": 0.0, "per_marg_cl_3_6_f": 0.0, "marg_al_3_6_p": 2, "marg_al_3_6_m": 2, "marg_al_3_6_f": 0, "per_marg_al_3_6_p": 25.0, "per_marg_al_3_6_m": 100.0, "per_marg_al_3_6_f": 0.0, "marg_hh_3_6_p": 0, "marg_hh_3_6_m": 0, "marg_hh_3_6_f": 0, "per_marg_hh_3_6_p": 0.0, "per_marg_hh_3_6_m": 0.0, "per_marg_hh_3_6_f": 0.0, "marg_ot_3_6_p": 4, "marg_ot_3_6_m": 2, "marg_ot_3_6_f": 2, "per_marg_ot_3_6_p": 50.0, "per_marg_ot_3_6_m": 50.0, "per_marg_ot_3_6_f": 50.0, "margwork_0_3_p": 2, "margwork_0_3_m": 2, "margwork_0_3_f": 0, "per_margwork_0_3_p": 25.0, "per_margwork_0_3_m": 100.0, "per_margwork_0_3_f": 0.0, "marg_cl_0_3_p": 0, "marg_cl_0_3_m": 0, "marg_cl_0_3_f": 0, "per_marg_cl_0_3_p": 0.0, "per_marg_cl_0_3_m": 0.0, "per_marg_cl_0_3_f": 0.0, "marg_al_0_3_p": 2, "marg_al_0_3_m": 2, "marg_al_0_3_f": 0, "per_marg_al_0_3_p": 25.0, "per_marg_al_0_3_m": 100.0, "per_marg_al_0_3_f": 0.0, "marg_hh_0_3_p": 0, "marg_hh_0_3_m": 0, "marg_hh_0_3_f": 0, "per_marg_hh_0_3_p": 0.0, "per_marg_hh_0_3_m": 0.0, "per_marg_hh_0_3_f": 0.0, "marg_ot_0_3_p": 0, "marg_ot_0_3_m": 0, "marg_ot_0_3_f": 0, "per_marg_ot_0_3_p": 0.0, "per_marg_ot_0_3_m": 0.0, "per_marg_ot_0_3_f": 0.0, "non_work_p": 739, "non_work_m": 246, "non_work_f": 493, "per_non_work_p": 71.2632594, "per_non_work_m": 33.28822733000001, "per_non_work_f": 66.71177266999999, "per_hc_tot_tot": 100, "per_hc_tot_god": 22.6, "per_hc_tot_liv": 39.7, "per_hc_tot_dil": 37.7, "per_hc_res_tot": 99.6, "per_hc_res_god": 22.6, "per_hc_res_liv": 39.3, "per_hc_res_dil": 37.7, "per_hc_oth_tot": 0.4, "per_hc_oth_god": 0.0, "per_hc_oth_liv": 0.4, "per_hc_oth_dil": 0.0, "per_mt_grsbam": 0.0, "per_mt_plastic": 8.4, "per_mt_h_tiles": 63.2, "per_mt_m_tiles": 0.0, "per_mt_b_brick": 0.0, "per_mt_stone": 0.0, "per_mt_asbstos": 8.4, "per_mt_concrte": 20.1, "per_mt_oth": 0.0, "per_mw_grsbam": 3.8, "per_mw_plastic": 1.7, "per_mw_mud": 13.8, "per_mw_wood": 0.0, "per_mw_no_mrtr": 0.0, "per_mw_st_mrtr": 0.0, "per_mw_asbstos": 0.0, "per_mw_b_brick": 80.8, "per_mw_concrte": 0.0, "per_mw_oth": 0.0, "per_mf_mud": 68.6, "per_mf_wood": 0.0, "per_mf_b_brick": 0.0, "per_mf_stone": 0.0, "per_mf_cement": 31.4, "per_mf_fl_tile": 0.0, "per_mf_oth": 0.0, "per_dw_n_exrm": 0.4, "per_dw_1_room": 68.2, "per_dw_2_room": 27.2, "per_dw_3_room": 3.8, "per_dw_4_room": 0.0, "per_dw_5_room": 0.0, "per_dw_6_room": 0.4, "per_hhsize_1": 1.3, "per_hhsize_2": 7.5, "per_hhsize_3": 26.8, "per_hhsize_4": 25.5, "per_hhsize_5": 18.4, "per_hhsize_6_8": 20.1, "per_hhsize_9p": 0.4, "per_ow_owned": 98.3, "per_ow_rented": 0.8, "per_ow_oth": 0.8, "per_mc_none": 7.9, "per_mcouple_1": 79.1, "per_mcouple_2": 12.6, "per_mcouple_3": 0.4, "per_mcouple_4": 0.0, "per_mcouple_5p": 0.0, "per_dw_t_ts": 64.4, "per_dw_t_unts": 0.0, "per_dw_c_well": 0.0, "per_dw_unc_wel": 0.0, "per_dw_hpump": 33.9, "per_dw_tw_bore": 1.7, "per_dw_spring": 0.0, "per_dw_rivcan": 0.0, "per_dw_tank": 0.0, "per_dw_oth": 0.0, "per_loc_dw_wp": 0.0, "per_loc_dw_np": 20.1, "per_loc_dw_aw": 79.9, "per_light_elec": 28.9, "per_light_kero": 71.1, "per_light_solr": 0.0, "per_light_oil": 0.0, "per_light_oth": 0.0, "per_light_no": 0.0, "per_hh_latrine": 38.5, "per_fl_sewer": 0.0, "per_fl_septict": 11.7, "per_fl_othsys": 0.0, "per_pl_wslab": 26.8, "per_pl_without": 0.0, "per_ns_open": 0.0, "per_sl_ns_hum": 0.0, "per_sl_ns_anml": 0.0, "per_hh_no_lat": 61.5, "per_as_pub": 2.5, "per_as_open": 59.0, "per_hh_bathrm": 0.8, "per_hh_en_wrf": 2.5, "per_hh_no_btrm": 96.7, "per_wwoc_drain": 0.0, "per_wwoc_open": 0.0, "per_wwoc_nodrn": 100.0, "per_cook_fire": 99.2, "per_cook_resdu": 0.4, "per_cook_cwdng": 0.0, "per_cook_coal": 0.0, "per_cook_kero": 0.0, "per_cook_lpng": 0.0, "per_cook_elec": 0.0, "per_cook_biogs": 0.0, "per_cook_oth": 0.0, "per_cook_no": 0.4, "per_kf_inside": 92.5, "per_kf_in_has": 37.7, "per_kf_in_does": 54.8, "per_kf_outside": 7.1, "per_kf_out_has": 0.4, "per_kf_out_dos": 6.7, "per_kf_no_cook": 0.4, "per_hh_banking": 15.9, "per_hh_radio": 0.8, "per_hh_tv": 15.9, "per_hh_cmp_int": 0.0, "per_hh_cmp_wnt": 0.0, "per_hh_ph_ll": 0.0, "per_hh_ph_mob": 37.2, "per_hh_ph_bth": 0.0, "per_hh_bcycl": 14.6, "per_hh_2wheel": 2.1, "per_hh_4wheel": 0.0, "per_hh_tvcomp": 0.0, "per_hh_no_ast": 58.6, "per_hs_perma": 76.6, "per_hs_sperma": 19.2, "per_hs_temp": 4.2, "per_hs_servc": 0.4, "per_hs_nservc": 3.8, "per_hs_unclss": 0.0, "avghhsz_cy": 4.28512397, "st_areashape": 683116.97393965, "st_lengthshape": 3543.977775218362}, "geometry": {"type": "Polygon", "coordinates": [[[88.3009399993945, 22.33881999893576], [88.30054999940717, 22.338559998798885], [88.30006999990647, 22.338329998721058], [88.3000299997235, 22.338009998957087], [88.29966999897506, 22.337679998509245], [88.29899999860524, 22.337009999427558], [88.29871999912109, 22.335969999089805], [88.2986499988009, 22.335129998779447], [88.29915999933714, 22.334729999543946], [88.29939999953665, 22.334429999364392], [88.29920999956583, 22.334009998527467], [88.29870999907533, 22.3333899988975], [88.298319999088, 22.332859998369006], [88.29804999875125, 22.33169999915232], [88.29787999887193, 22.32974999893047], [88.298319999088, 22.3300699993664], [88.29870999907533, 22.330009999704142], [88.29908999901694, 22.329759998617643], [88.2995799994617, 22.329399999456804], [88.30007999905389, 22.32917999895834], [88.30031999925342, 22.32907999914583], [88.30092999845044, 22.32890999938319], [88.30154999948986, 22.3289199982996], [88.30201999984315, 22.328989999004015], [88.30258999885726, 22.329759998617643], [88.30348999938083, 22.330919999011034], [88.30384999923093, 22.331189998850455], [88.30507999946741, 22.331729998623196], [88.30581999925913, 22.331959999615], [88.30661999932528, 22.33197999950268], [88.30671999978271, 22.331999999387495], [88.30565999942559, 22.333669999178902], [88.30481999917644, 22.33482999862945], [88.30427999940126, 22.33552999936041], [88.30387999936816, 22.33591999954926], [88.30369999854481, 22.336609998937252], [88.30347999933511, 22.33736999888784], [88.30315999876963, 22.337699999238435], [88.30252999858278, 22.337959999317132], [88.3016999992777, 22.33829999983898], [88.3009399993945, 22.33881999893576]]]}}]}