{"type": "FeatureCollection", "features": [{"type": "Feature", "properties": {"premiumdata.sde.IN_Village_PCA.area": 1.08334453, "objectid": 481169, "id": "9152986381462", "name": "Patrahi", "subdistrict": "Kerakat", "district": "Jaunpur", "state": "Uttar Pradesh", "country": "India", "censusname": "Patrahi", "villagename_locallang": null, "lgd_villagename": "Patrahi", "lgd_villagecode": 203415, "lgd_subdistrictcode": 986, "lgd_districtcode": 152, "lgd_statecode": 9, "censuscode2001": "09647800", "censuscode2011": "203415", "censuscode2021": null, "level": "Village", "tru": "Rural", "no_hh": 207, "tot_p": 1324, "tot_m": 617, "tot_f": 707, "per_tot_m": 46.60120846, "per_tot_f": 53.39879154, "p_06": 185, "m_06": 89, "f_06": 96, "per_p_06": 13.97280967, "per_m_06": 48.10810811, "per_f_06": 51.89189189, "p_sc": 4, "m_sc": 3, "f_sc": 1, "per_p_sc": 0.3021148, "per_m_sc": 75.0, "per_f_sc": 25.0, "p_st": 15, "m_st": 8, "f_st": 7, "per_p_st": 1.13293051, "per_m_st": 53.33333333, "per_f_st": 46.66666667000001, "p_lit": 690, "m_lit": 382, "f_lit": 308, "per_p_lit": 52.11480363, "per_m_lit": 55.36231884, "per_f_lit": 44.63768116, "p_ill": 634, "m_ill": 235, "f_ill": 399, "per_p_ill": 47.88519637, "per_m_ill": 37.06624606, "per_f_ill": 62.93375394, "tot_work_p": 281, "tot_work_m": 233, "tot_work_f": 48, "per_tot_work_p": 21.22356495, "per_tot_work_m": 82.91814946999999, "per_tot_work_f": 17.08185053, "mainwork_p": 223, "mainwork_m": 187, "mainwork_f": 36, "per_mainwork_p": 16.8429003, "per_mainwork_m": 83.85650224, "per_mainwork_f": 16.14349776, "main_cl_p": 119, "main_cl_m": 96, "main_cl_f": 23, "per_main_cl_p": 53.3632287, "per_main_cl_m": 80.67226891, "per_main_cl_f": 19.32773109, "main_al_p": 57, "main_al_m": 50, "main_al_f": 7, "per_main_al_p": 25.56053812, "per_main_al_m": 87.71929825, "per_main_al_f": 12.28070175, "main_hh_p": 1, "main_hh_m": 1, "main_hh_f": 0, "per_main_hh_p": 0.44843049, "per_main_hh_m": 100.0, "per_main_hh_f": 0.0, "main_ot_p": 46, "main_ot_m": 40, "main_ot_f": 6, "per_main_ot_p": 20.62780269, "per_main_ot_m": 86.95652174, "per_main_ot_f": 13.04347826, "margwork_p": 58, "margwork_m": 46, "margwork_f": 12, "per_margwork_p": 4.38066465, "per_margwork_m": 79.31034483, "per_margwork_f": 20.68965517, "marg_cl_p": 12, "marg_cl_m": 7, "marg_cl_f": 5, "per_marg_cl_p": 20.68965517, "per_marg_cl_m": 58.33333333, "per_marg_cl_f": 41.66666667000001, "marg_al_p": 23, "marg_al_m": 18, "marg_al_f": 5, "per_marg_al_p": 39.65517241, "per_marg_al_m": 78.26086957, "per_marg_al_f": 21.73913043, "marg_hh_p": 0, "marg_hh_m": 0, "marg_hh_f": 0, "per_marg_hh_p": 0.0, "per_marg_hh_m": 0.0, "per_marg_hh_f": 0.0, "marg_ot_p": 23, "marg_ot_m": 21, "marg_ot_f": 2, "per_marg_ot_p": 39.65517241, "per_marg_ot_m": 91.30434783, "per_marg_ot_f": 8.69565217, "margwork_3_6_p": 54, "margwork_3_6_m": 44, "margwork_3_6_f": 10, "per_margwork_3_6_p": 93.10344828, "per_margwork_3_6_m": 81.48148148, "per_margwork_3_6_f": 18.51851852, "marg_cl_3_6_p": 9, "marg_cl_3_6_m": 6, "marg_cl_3_6_f": 3, "per_marg_cl_3_6_p": 15.51724138, "per_marg_cl_3_6_m": 66.66666667, "per_marg_cl_3_6_f": 33.33333333, "marg_al_3_6_p": 22, "marg_al_3_6_m": 17, "marg_al_3_6_f": 5, "per_marg_al_3_6_p": 37.93103448, "per_marg_al_3_6_m": 77.27272727, "per_marg_al_3_6_f": 22.72727273, "marg_hh_3_6_p": 0, "marg_hh_3_6_m": 0, "marg_hh_3_6_f": 0, "per_marg_hh_3_6_p": 0.0, "per_marg_hh_3_6_m": 0.0, "per_marg_hh_3_6_f": 0.0, "marg_ot_3_6_p": 23, "marg_ot_3_6_m": 21, "marg_ot_3_6_f": 2, "per_marg_ot_3_6_p": 39.65517241, "per_marg_ot_3_6_m": 91.30434783, "per_marg_ot_3_6_f": 8.69565217, "margwork_0_3_p": 4, "margwork_0_3_m": 2, "margwork_0_3_f": 2, "per_margwork_0_3_p": 6.89655172, "per_margwork_0_3_m": 50.0, "per_margwork_0_3_f": 50.0, "marg_cl_0_3_p": 3, "marg_cl_0_3_m": 1, "marg_cl_0_3_f": 2, "per_marg_cl_0_3_p": 5.17241379, "per_marg_cl_0_3_m": 33.33333333, "per_marg_cl_0_3_f": 66.66666667, "marg_al_0_3_p": 1, "marg_al_0_3_m": 1, "marg_al_0_3_f": 0, "per_marg_al_0_3_p": 1.72413793, "per_marg_al_0_3_m": 100.0, "per_marg_al_0_3_f": 0.0, "marg_hh_0_3_p": 0, "marg_hh_0_3_m": 0, "marg_hh_0_3_f": 0, "per_marg_hh_0_3_p": 0.0, "per_marg_hh_0_3_m": 0.0, "per_marg_hh_0_3_f": 0.0, "marg_ot_0_3_p": 0, "marg_ot_0_3_m": 0, "marg_ot_0_3_f": 0, "per_marg_ot_0_3_p": 0.0, "per_marg_ot_0_3_m": 0.0, "per_marg_ot_0_3_f": 0.0, "non_work_p": 1043, "non_work_m": 384, "non_work_f": 659, "per_non_work_p": 78.77643504999999, "per_non_work_m": 36.8168744, "per_non_work_f": 63.1831256, "per_hc_tot_tot": 100, "per_hc_tot_god": 27.8, "per_hc_tot_liv": 40.7, "per_hc_tot_dil": 31.5, "per_hc_res_tot": 94.9, "per_hc_res_god": 24.1, "per_hc_res_liv": 39.4, "per_hc_res_dil": 31.5, "per_hc_oth_tot": 5.1, "per_hc_oth_god": 3.7, "per_hc_oth_liv": 1.4, "per_hc_oth_dil": 0.0, "per_mt_grsbam": 31.9, "per_mt_plastic": 0.0, "per_mt_h_tiles": 7.9, "per_mt_m_tiles": 0.0, "per_mt_b_brick": 25.0, "per_mt_stone": 19.9, "per_mt_asbstos": 10.2, "per_mt_concrte": 5.1, "per_mt_oth": 0.0, "per_mw_grsbam": 6.5, "per_mw_plastic": 0.0, "per_mw_mud": 33.3, "per_mw_wood": 0.0, "per_mw_no_mrtr": 4.6, "per_mw_st_mrtr": 0.0, "per_mw_asbstos": 0.0, "per_mw_b_brick": 53.2, "per_mw_concrte": 0.0, "per_mw_oth": 2.3, "per_mf_mud": 87.5, "per_mf_wood": 0.0, "per_mf_b_brick": 4.6, "per_mf_stone": 0.0, "per_mf_cement": 7.4, "per_mf_fl_tile": 0.5, "per_mf_oth": 0.0, "per_dw_n_exrm": 1.9, "per_dw_1_room": 39.8, "per_dw_2_room": 25.5, "per_dw_3_room": 13.9, "per_dw_4_room": 6.0, "per_dw_5_room": 6.5, "per_dw_6_room": 6.5, "per_hhsize_1": 0.5, "per_hhsize_2": 6.9, "per_hhsize_3": 6.0, "per_hhsize_4": 11.6, "per_hhsize_5": 15.3, "per_hhsize_6_8": 44.4, "per_hhsize_9p": 15.3, "per_ow_owned": 98.6, "per_ow_rented": 1.4, "per_ow_oth": 0.0, "per_mc_none": 13.9, "per_mcouple_1": 54.2, "per_mcouple_2": 19.9, "per_mcouple_3": 8.8, "per_mcouple_4": 1.9, "per_mcouple_5p": 1.4, "per_dw_t_ts": 1.4, "per_dw_t_unts": 15.3, "per_dw_c_well": 1.9, "per_dw_unc_wel": 6.9, "per_dw_hpump": 73.6, "per_dw_tw_bore": 0.9, "per_dw_spring": 0.0, "per_dw_rivcan": 0.0, "per_dw_tank": 0.0, "per_dw_oth": 0.0, "per_loc_dw_wp": 10.2, "per_loc_dw_np": 78.7, "per_loc_dw_aw": 11.1, "per_light_elec": 7.4, "per_light_kero": 92.6, "per_light_solr": 0.0, "per_light_oil": 0.0, "per_light_oth": 0.0, "per_light_no": 0.0, "per_hh_latrine": 2.3, "per_fl_sewer": 0.5, "per_fl_septict": 0.9, "per_fl_othsys": 0.9, "per_pl_wslab": 0.0, "per_pl_without": 0.0, "per_ns_open": 0.0, "per_sl_ns_hum": 0.0, "per_sl_ns_anml": 0.0, "per_hh_no_lat": 97.7, "per_as_pub": 0.0, "per_as_open": 97.7, "per_hh_bathrm": 34.7, "per_hh_en_wrf": 25.9, "per_hh_no_btrm": 39.4, "per_wwoc_drain": 27.3, "per_wwoc_open": 29.6, "per_wwoc_nodrn": 43.1, "per_cook_fire": 9.3, "per_cook_resdu": 0.0, "per_cook_cwdng": 88.4, "per_cook_coal": 0.0, "per_cook_kero": 0.0, "per_cook_lpng": 0.0, "per_cook_elec": 0.0, "per_cook_biogs": 0.9, "per_cook_oth": 0.5, "per_cook_no": 0.9, "per_kf_inside": 88.4, "per_kf_in_has": 29.6, "per_kf_in_does": 58.8, "per_kf_outside": 10.6, "per_kf_out_has": 2.3, "per_kf_out_dos": 8.3, "per_kf_no_cook": 0.9, "per_hh_banking": 82.4, "per_hh_radio": 58.3, "per_hh_tv": 31.5, "per_hh_cmp_int": 0.0, "per_hh_cmp_wnt": 3.7, "per_hh_ph_ll": 3.7, "per_hh_ph_mob": 59.3, "per_hh_ph_bth": 0.5, "per_hh_bcycl": 75.9, "per_hh_2wheel": 7.4, "per_hh_4wheel": 1.9, "per_hh_tvcomp": 0.0, "per_hh_no_ast": 14.8, "per_hs_perma": 56.9, "per_hs_sperma": 9.7, "per_hs_temp": 31.0, "per_hs_servc": 26.4, "per_hs_nservc": 4.6, "per_hs_unclss": 2.3, "avghhsz_cy": 6.39613527, "st_areashape": 1337290.126379015, "st_lengthshape": 5091.470515151402}, "geometry": {"type": "Polygon", "coordinates": [[[83.08691692613165, 25.58503089086081], [83.08624591066557, 25.58883319257012], [83.08629409629741, 25.59014515855809], [83.08631503602668, 25.590715286940167], [83.0845711760915, 25.59071487617238], [83.08442373201065, 25.590714841334112], [83.08438262150999, 25.590701921998487], [83.08315275961405, 25.59031542451246], [83.08300813354829, 25.590269972534127], [83.08287104973759, 25.590226891172428], [83.08234776221998, 25.58985143435014], [83.08158736258648, 25.589305845314513], [83.07992067332408, 25.588376005653323], [83.07976738390572, 25.58753206501789], [83.07973457832983, 25.586850879384286], [83.07960023078753, 25.586490023502236], [83.0795656582255, 25.586158949548057], [83.0795975079939, 25.58582765105552], [83.07976234256033, 25.58552599221922], [83.07982765008148, 25.5852548029387], [83.07982641130468, 25.58495372035363], [83.07975924696586, 25.58477329211876], [83.07952564007621, 25.58450309853158], [83.07919227796924, 25.58420313785383], [83.0785556958263, 25.582850385372858], [83.07828803560088, 25.582369543867348], [83.07832025817012, 25.582128556024724], [83.0785514944057, 25.581826686921193], [83.07908151479639, 25.581493704068194], [83.07994253562318, 25.580888600661517], [83.07994191578561, 25.580738065720137], [83.07994067790715, 25.580436981494856], [83.07970276090077, 25.579112981062902], [83.07970090408308, 25.578661345473208], [83.07993126535959, 25.578148714525035], [83.08006311199217, 25.577907402175], [83.08019545359647, 25.577786506784847], [83.0805269427161, 25.577634846512627], [83.08105818391724, 25.577602927093455], [83.08175609134966, 25.57772100775354], [83.08212128525875, 25.57768964826153], [83.08232030880659, 25.577628762919776], [83.0826848640135, 25.577446867564152], [83.08331324004632, 25.57681242914114], [83.08381126783644, 25.576780629425183], [83.08444239720563, 25.576808582708885], [83.08490769936996, 25.57689732449638], [83.08534030914619, 25.577106609942675], [83.08600550891913, 25.577345218370915], [83.08647070508228, 25.577403851270304], [83.08693564971712, 25.577402259874553], [83.08746663759338, 25.577310112029224], [83.08935669474778, 25.577092257364175], [83.08888598652204, 25.577732211505754], [83.08780163732914, 25.5792064126098], [83.08760205053761, 25.580984691712068], [83.08726300838309, 25.583069774694113], [83.08691692613165, 25.58503089086081]]]}}]}