{"type": "FeatureCollection", "features": [{"type": "Feature", "properties": {"premiumdata.sde.IN_Village_PCA.area": 0.28449485, "objectid": 449186, "id": "545325578498", "name": "Jassajunena", "subdistrict": "Bhikiasain", "district": "Almora", "state": "Uttarakhand", "country": "India", "censusname": "Jassajunena", "villagename_locallang": null, "lgd_villagename": "Jassajunena", "lgd_villagecode": 51756, "lgd_subdistrictcode": 325, "lgd_districtcode": 45, "lgd_statecode": 5, "censuscode2001": "01171700", "censuscode2011": "051756", "censuscode2021": null, "level": "Village", "tru": "Rural", "no_hh": 22, "tot_p": 94, "tot_m": 39, "tot_f": 55, "per_tot_m": 41.4893617, "per_tot_f": 58.5106383, "p_06": 18, "m_06": 8, "f_06": 10, "per_p_06": 19.14893617, "per_m_06": 44.44444444000001, "per_f_06": 55.55555556, "p_sc": 89, "m_sc": 38, "f_sc": 51, "per_p_sc": 94.68085106000001, "per_m_sc": 42.69662921, "per_f_sc": 57.30337079, "p_st": 0, "m_st": 0, "f_st": 0, "per_p_st": 0.0, "per_m_st": 0.0, "per_f_st": 0.0, "p_lit": 54, "m_lit": 28, "f_lit": 26, "per_p_lit": 57.44680851, "per_m_lit": 51.85185185, "per_f_lit": 48.14814815, "p_ill": 40, "m_ill": 11, "f_ill": 29, "per_p_ill": 42.55319149, "per_m_ill": 27.5, "per_f_ill": 72.5, "tot_work_p": 77, "tot_work_m": 29, "tot_work_f": 48, "per_tot_work_p": 81.91489362, "per_tot_work_m": 37.66233766, "per_tot_work_f": 62.33766234, "mainwork_p": 31, "mainwork_m": 10, "mainwork_f": 21, "per_mainwork_p": 32.9787234, "per_mainwork_m": 32.25806452, "per_mainwork_f": 67.74193548, "main_cl_p": 29, "main_cl_m": 8, "main_cl_f": 21, "per_main_cl_p": 93.5483871, "per_main_cl_m": 27.5862069, "per_main_cl_f": 72.4137931, "main_al_p": 0, "main_al_m": 0, "main_al_f": 0, "per_main_al_p": 0.0, "per_main_al_m": 0.0, "per_main_al_f": 0.0, "main_hh_p": 0, "main_hh_m": 0, "main_hh_f": 0, "per_main_hh_p": 0.0, "per_main_hh_m": 0.0, "per_main_hh_f": 0.0, "main_ot_p": 2, "main_ot_m": 2, "main_ot_f": 0, "per_main_ot_p": 6.4516129, "per_main_ot_m": 100.0, "per_main_ot_f": 0.0, "margwork_p": 46, "margwork_m": 19, "margwork_f": 27, "per_margwork_p": 48.93617021, "per_margwork_m": 41.30434783, "per_margwork_f": 58.69565217, "marg_cl_p": 46, "marg_cl_m": 19, "marg_cl_f": 27, "per_marg_cl_p": 100.0, "per_marg_cl_m": 41.30434783, "per_marg_cl_f": 58.69565217, "marg_al_p": 0, "marg_al_m": 0, "marg_al_f": 0, "per_marg_al_p": 0.0, "per_marg_al_m": 0.0, "per_marg_al_f": 0.0, "marg_hh_p": 0, "marg_hh_m": 0, "marg_hh_f": 0, "per_marg_hh_p": 0.0, "per_marg_hh_m": 0.0, "per_marg_hh_f": 0.0, "marg_ot_p": 0, "marg_ot_m": 0, "marg_ot_f": 0, "per_marg_ot_p": 0.0, "per_marg_ot_m": 0.0, "per_marg_ot_f": 0.0, "margwork_3_6_p": 15, "margwork_3_6_m": 4, "margwork_3_6_f": 11, "per_margwork_3_6_p": 32.60869565, "per_margwork_3_6_m": 26.66666667, "per_margwork_3_6_f": 73.33333332999999, "marg_cl_3_6_p": 15, "marg_cl_3_6_m": 4, "marg_cl_3_6_f": 11, "per_marg_cl_3_6_p": 32.60869565, "per_marg_cl_3_6_m": 26.66666667, "per_marg_cl_3_6_f": 73.33333332999999, "marg_al_3_6_p": 0, "marg_al_3_6_m": 0, "marg_al_3_6_f": 0, "per_marg_al_3_6_p": 0.0, "per_marg_al_3_6_m": 0.0, "per_marg_al_3_6_f": 0.0, "marg_hh_3_6_p": 0, "marg_hh_3_6_m": 0, "marg_hh_3_6_f": 0, "per_marg_hh_3_6_p": 0.0, "per_marg_hh_3_6_m": 0.0, "per_marg_hh_3_6_f": 0.0, "marg_ot_3_6_p": 0, "marg_ot_3_6_m": 0, "marg_ot_3_6_f": 0, "per_marg_ot_3_6_p": 0.0, "per_marg_ot_3_6_m": 0.0, "per_marg_ot_3_6_f": 0.0, "margwork_0_3_p": 31, "margwork_0_3_m": 15, "margwork_0_3_f": 16, "per_margwork_0_3_p": 67.39130435, "per_margwork_0_3_m": 48.38709677, "per_margwork_0_3_f": 51.61290323, "marg_cl_0_3_p": 31, "marg_cl_0_3_m": 15, "marg_cl_0_3_f": 16, "per_marg_cl_0_3_p": 67.39130435, "per_marg_cl_0_3_m": 48.38709677, "per_marg_cl_0_3_f": 51.61290323, "marg_al_0_3_p": 0, "marg_al_0_3_m": 0, "marg_al_0_3_f": 0, "per_marg_al_0_3_p": 0.0, "per_marg_al_0_3_m": 0.0, "per_marg_al_0_3_f": 0.0, "marg_hh_0_3_p": 0, "marg_hh_0_3_m": 0, "marg_hh_0_3_f": 0, "per_marg_hh_0_3_p": 0.0, "per_marg_hh_0_3_m": 0.0, "per_marg_hh_0_3_f": 0.0, "marg_ot_0_3_p": 0, "marg_ot_0_3_m": 0, "marg_ot_0_3_f": 0, "per_marg_ot_0_3_p": 0.0, "per_marg_ot_0_3_m": 0.0, "per_marg_ot_0_3_f": 0.0, "non_work_p": 17, "non_work_m": 10, "non_work_f": 7, "per_non_work_p": 18.08510638, "per_non_work_m": 58.82352941000001, "per_non_work_f": 41.17647059, "per_hc_tot_tot": 100, "per_hc_tot_god": 68.2, "per_hc_tot_liv": 31.8, "per_hc_tot_dil": 0.0, "per_hc_res_tot": 100.0, "per_hc_res_god": 68.2, "per_hc_res_liv": 31.8, "per_hc_res_dil": 0.0, "per_hc_oth_tot": 0.0, "per_hc_oth_god": 0.0, "per_hc_oth_liv": 0.0, "per_hc_oth_dil": 0.0, "per_mt_grsbam": 0.0, "per_mt_plastic": 0.0, "per_mt_h_tiles": 0.0, "per_mt_m_tiles": 0.0, "per_mt_b_brick": 0.0, "per_mt_stone": 100.0, "per_mt_asbstos": 0.0, "per_mt_concrte": 0.0, "per_mt_oth": 0.0, "per_mw_grsbam": 0.0, "per_mw_plastic": 0.0, "per_mw_mud": 0.0, "per_mw_wood": 0.0, "per_mw_no_mrtr": 0.0, "per_mw_st_mrtr": 100.0, "per_mw_asbstos": 0.0, "per_mw_b_brick": 0.0, "per_mw_concrte": 0.0, "per_mw_oth": 0.0, "per_mf_mud": 100.0, "per_mf_wood": 0.0, "per_mf_b_brick": 0.0, "per_mf_stone": 0.0, "per_mf_cement": 0.0, "per_mf_fl_tile": 0.0, "per_mf_oth": 0.0, "per_dw_n_exrm": 0.0, "per_dw_1_room": 36.4, "per_dw_2_room": 13.6, "per_dw_3_room": 18.2, "per_dw_4_room": 22.7, "per_dw_5_room": 4.5, "per_dw_6_room": 4.5, "per_hhsize_1": 18.2, "per_hhsize_2": 4.5, "per_hhsize_3": 13.6, "per_hhsize_4": 18.2, "per_hhsize_5": 13.6, "per_hhsize_6_8": 22.7, "per_hhsize_9p": 9.1, "per_ow_owned": 95.5, "per_ow_rented": 0.0, "per_ow_oth": 4.5, "per_mc_none": 36.4, "per_mcouple_1": 50.0, "per_mcouple_2": 9.1, "per_mcouple_3": 4.5, "per_mcouple_4": 0.0, "per_mcouple_5p": 0.0, "per_dw_t_ts": 100.0, "per_dw_t_unts": 0.0, "per_dw_c_well": 0.0, "per_dw_unc_wel": 0.0, "per_dw_hpump": 0.0, "per_dw_tw_bore": 0.0, "per_dw_spring": 0.0, "per_dw_rivcan": 0.0, "per_dw_tank": 0.0, "per_dw_oth": 0.0, "per_loc_dw_wp": 0.0, "per_loc_dw_np": 100.0, "per_loc_dw_aw": 0.0, "per_light_elec": 95.5, "per_light_kero": 4.5, "per_light_solr": 0.0, "per_light_oil": 0.0, "per_light_oth": 0.0, "per_light_no": 0.0, "per_hh_latrine": 50.0, "per_fl_sewer": 0.0, "per_fl_septict": 50.0, "per_fl_othsys": 0.0, "per_pl_wslab": 0.0, "per_pl_without": 0.0, "per_ns_open": 0.0, "per_sl_ns_hum": 0.0, "per_sl_ns_anml": 0.0, "per_hh_no_lat": 50.0, "per_as_pub": 0.0, "per_as_open": 50.0, "per_hh_bathrm": 50.0, "per_hh_en_wrf": 0.0, "per_hh_no_btrm": 50.0, "per_wwoc_drain": 0.0, "per_wwoc_open": 0.0, "per_wwoc_nodrn": 100.0, "per_cook_fire": 100.0, "per_cook_resdu": 0.0, "per_cook_cwdng": 0.0, "per_cook_coal": 0.0, "per_cook_kero": 0.0, "per_cook_lpng": 0.0, "per_cook_elec": 0.0, "per_cook_biogs": 0.0, "per_cook_oth": 0.0, "per_cook_no": 0.0, "per_kf_inside": 100.0, "per_kf_in_has": 0.0, "per_kf_in_does": 100.0, "per_kf_outside": 0.0, "per_kf_out_has": 0.0, "per_kf_out_dos": 0.0, "per_kf_no_cook": 0.0, "per_hh_banking": 72.7, "per_hh_radio": 18.2, "per_hh_tv": 50.0, "per_hh_cmp_int": 0.0, "per_hh_cmp_wnt": 0.0, "per_hh_ph_ll": 0.0, "per_hh_ph_mob": 54.5, "per_hh_ph_bth": 22.7, "per_hh_bcycl": 0.0, "per_hh_2wheel": 0.0, "per_hh_4wheel": 0.0, "per_hh_tvcomp": null, "per_hh_no_ast": 22.7, "per_hs_perma": 100.0, "per_hs_sperma": 0.0, "per_hs_temp": 0.0, "per_hs_servc": 0.0, "per_hs_nservc": 0.0, "per_hs_unclss": 0.0, "avghhsz_cy": 4.27272727, "st_areashape": 377887.3169383, "st_lengthshape": 2533.5044639263488}, "geometry": {"type": "Polygon", "coordinates": [[[79.29024735741372, 29.640903002888905], [79.28922118491519, 29.64068986902941], [79.28731645827219, 29.640177431957508], [79.28568126663863, 29.63984913122718], [79.2843853668912, 29.63964648717], [79.28329606887937, 29.6393877322987], [79.28275992736833, 29.638900054917926], [79.28284404471324, 29.63824428808545], [79.28295935605637, 29.637627625150497], [79.28505696805885, 29.63634679977142], [79.288342449311, 29.63498633820919], [79.28935817889435, 29.636754097252982], [79.29024735741372, 29.640903002888905]]]}}]}