{"type": "FeatureCollection", "features": [{"type": "Feature", "properties": {"premiumdata.sde.IN_Village_PCA.area": 0.53640223, "objectid": 449882, "id": "545325578425", "name": "Syautara", "subdistrict": "Bhikiasain", "district": "Almora", "state": "Uttarakhand", "country": "India", "censusname": "Syautara", "villagename_locallang": null, "lgd_villagename": "Syautara", "lgd_villagecode": 51636, "lgd_subdistrictcode": 325, "lgd_districtcode": 45, "lgd_statecode": 5, "censuscode2001": "01159700", "censuscode2011": "051636", "censuscode2021": null, "level": "Village", "tru": "Rural", "no_hh": 28, "tot_p": 129, "tot_m": 59, "tot_f": 70, "per_tot_m": 45.73643411, "per_tot_f": 54.26356589, "p_06": 17, "m_06": 8, "f_06": 9, "per_p_06": 13.17829457, "per_m_06": 47.05882353, "per_f_06": 52.94117647, "p_sc": 83, "m_sc": 42, "f_sc": 41, "per_p_sc": 64.34108527, "per_m_sc": 50.60240964, "per_f_sc": 49.39759036, "p_st": 0, "m_st": 0, "f_st": 0, "per_p_st": 0.0, "per_m_st": 0.0, "per_f_st": 0.0, "p_lit": 84, "m_lit": 43, "f_lit": 41, "per_p_lit": 65.11627907, "per_m_lit": 51.19047619, "per_f_lit": 48.80952381, "p_ill": 45, "m_ill": 16, "f_ill": 29, "per_p_ill": 34.88372093, "per_m_ill": 35.55555556, "per_f_ill": 64.44444444, "tot_work_p": 90, "tot_work_m": 38, "tot_work_f": 52, "per_tot_work_p": 69.76744186, "per_tot_work_m": 42.22222222, "per_tot_work_f": 57.77777778, "mainwork_p": 61, "mainwork_m": 24, "mainwork_f": 37, "per_mainwork_p": 47.28682171, "per_mainwork_m": 39.3442623, "per_mainwork_f": 60.6557377, "main_cl_p": 55, "main_cl_m": 20, "main_cl_f": 35, "per_main_cl_p": 90.16393443, "per_main_cl_m": 36.36363636, "per_main_cl_f": 63.63636364, "main_al_p": 0, "main_al_m": 0, "main_al_f": 0, "per_main_al_p": 0.0, "per_main_al_m": 0.0, "per_main_al_f": 0.0, "main_hh_p": 0, "main_hh_m": 0, "main_hh_f": 0, "per_main_hh_p": 0.0, "per_main_hh_m": 0.0, "per_main_hh_f": 0.0, "main_ot_p": 6, "main_ot_m": 4, "main_ot_f": 2, "per_main_ot_p": 9.83606557, "per_main_ot_m": 66.66666667, "per_main_ot_f": 33.33333333, "margwork_p": 29, "margwork_m": 14, "margwork_f": 15, "per_margwork_p": 22.48062016, "per_margwork_m": 48.27586207, "per_margwork_f": 51.72413793, "marg_cl_p": 29, "marg_cl_m": 14, "marg_cl_f": 15, "per_marg_cl_p": 100.0, "per_marg_cl_m": 48.27586207, "per_marg_cl_f": 51.72413793, "marg_al_p": 0, "marg_al_m": 0, "marg_al_f": 0, "per_marg_al_p": 0.0, "per_marg_al_m": 0.0, "per_marg_al_f": 0.0, "marg_hh_p": 0, "marg_hh_m": 0, "marg_hh_f": 0, "per_marg_hh_p": 0.0, "per_marg_hh_m": 0.0, "per_marg_hh_f": 0.0, "marg_ot_p": 0, "marg_ot_m": 0, "marg_ot_f": 0, "per_marg_ot_p": 0.0, "per_marg_ot_m": 0.0, "per_marg_ot_f": 0.0, "margwork_3_6_p": 4, "margwork_3_6_m": 2, "margwork_3_6_f": 2, "per_margwork_3_6_p": 13.79310345, "per_margwork_3_6_m": 50.0, "per_margwork_3_6_f": 50.0, "marg_cl_3_6_p": 4, "marg_cl_3_6_m": 2, "marg_cl_3_6_f": 2, "per_marg_cl_3_6_p": 13.79310345, "per_marg_cl_3_6_m": 50.0, "per_marg_cl_3_6_f": 50.0, "marg_al_3_6_p": 0, "marg_al_3_6_m": 0, "marg_al_3_6_f": 0, "per_marg_al_3_6_p": 0.0, "per_marg_al_3_6_m": 0.0, "per_marg_al_3_6_f": 0.0, "marg_hh_3_6_p": 0, "marg_hh_3_6_m": 0, "marg_hh_3_6_f": 0, "per_marg_hh_3_6_p": 0.0, "per_marg_hh_3_6_m": 0.0, "per_marg_hh_3_6_f": 0.0, "marg_ot_3_6_p": 0, "marg_ot_3_6_m": 0, "marg_ot_3_6_f": 0, "per_marg_ot_3_6_p": 0.0, "per_marg_ot_3_6_m": 0.0, "per_marg_ot_3_6_f": 0.0, "margwork_0_3_p": 25, "margwork_0_3_m": 12, "margwork_0_3_f": 13, "per_margwork_0_3_p": 86.20689655, "per_margwork_0_3_m": 48.0, "per_margwork_0_3_f": 52.0, "marg_cl_0_3_p": 25, "marg_cl_0_3_m": 12, "marg_cl_0_3_f": 13, "per_marg_cl_0_3_p": 86.20689655, "per_marg_cl_0_3_m": 48.0, "per_marg_cl_0_3_f": 52.0, "marg_al_0_3_p": 0, "marg_al_0_3_m": 0, "marg_al_0_3_f": 0, "per_marg_al_0_3_p": 0.0, "per_marg_al_0_3_m": 0.0, "per_marg_al_0_3_f": 0.0, "marg_hh_0_3_p": 0, "marg_hh_0_3_m": 0, "marg_hh_0_3_f": 0, "per_marg_hh_0_3_p": 0.0, "per_marg_hh_0_3_m": 0.0, "per_marg_hh_0_3_f": 0.0, "marg_ot_0_3_p": 0, "marg_ot_0_3_m": 0, "marg_ot_0_3_f": 0, "per_marg_ot_0_3_p": 0.0, "per_marg_ot_0_3_m": 0.0, "per_marg_ot_0_3_f": 0.0, "non_work_p": 39, "non_work_m": 21, "non_work_f": 18, "per_non_work_p": 30.23255814, "per_non_work_m": 53.84615385, "per_non_work_f": 46.15384615, "per_hc_tot_tot": 100, "per_hc_tot_god": 3.3, "per_hc_tot_liv": 96.7, "per_hc_tot_dil": 0.0, "per_hc_res_tot": 100.0, "per_hc_res_god": 3.3, "per_hc_res_liv": 96.7, "per_hc_res_dil": 0.0, "per_hc_oth_tot": 0.0, "per_hc_oth_god": 0.0, "per_hc_oth_liv": 0.0, "per_hc_oth_dil": 0.0, "per_mt_grsbam": 0.0, "per_mt_plastic": 0.0, "per_mt_h_tiles": 0.0, "per_mt_m_tiles": 0.0, "per_mt_b_brick": 0.0, "per_mt_stone": 93.3, "per_mt_asbstos": 0.0, "per_mt_concrte": 6.7, "per_mt_oth": 0.0, "per_mw_grsbam": 0.0, "per_mw_plastic": 0.0, "per_mw_mud": 0.0, "per_mw_wood": 0.0, "per_mw_no_mrtr": 3.3, "per_mw_st_mrtr": 96.7, "per_mw_asbstos": 0.0, "per_mw_b_brick": 0.0, "per_mw_concrte": 0.0, "per_mw_oth": 0.0, "per_mf_mud": 100.0, "per_mf_wood": 0.0, "per_mf_b_brick": 0.0, "per_mf_stone": 0.0, "per_mf_cement": 0.0, "per_mf_fl_tile": 0.0, "per_mf_oth": 0.0, "per_dw_n_exrm": 0.0, "per_dw_1_room": 0.0, "per_dw_2_room": 40.0, "per_dw_3_room": 30.0, "per_dw_4_room": 26.7, "per_dw_5_room": 0.0, "per_dw_6_room": 3.3, "per_hhsize_1": 16.7, "per_hhsize_2": 3.3, "per_hhsize_3": 13.3, "per_hhsize_4": 10.0, "per_hhsize_5": 13.3, "per_hhsize_6_8": 26.7, "per_hhsize_9p": 16.7, "per_ow_owned": 96.7, "per_ow_rented": 0.0, "per_ow_oth": 3.3, "per_mc_none": 16.7, "per_mcouple_1": 60.0, "per_mcouple_2": 20.0, "per_mcouple_3": 3.3, "per_mcouple_4": 0.0, "per_mcouple_5p": 0.0, "per_dw_t_ts": 100.0, "per_dw_t_unts": 0.0, "per_dw_c_well": 0.0, "per_dw_unc_wel": 0.0, "per_dw_hpump": 0.0, "per_dw_tw_bore": 0.0, "per_dw_spring": 0.0, "per_dw_rivcan": 0.0, "per_dw_tank": 0.0, "per_dw_oth": 0.0, "per_loc_dw_wp": 0.0, "per_loc_dw_np": 70.0, "per_loc_dw_aw": 30.0, "per_light_elec": 100.0, "per_light_kero": 0.0, "per_light_solr": 0.0, "per_light_oil": 0.0, "per_light_oth": 0.0, "per_light_no": 0.0, "per_hh_latrine": 13.3, "per_fl_sewer": 0.0, "per_fl_septict": 0.0, "per_fl_othsys": 0.0, "per_pl_wslab": 13.3, "per_pl_without": 0.0, "per_ns_open": 0.0, "per_sl_ns_hum": 0.0, "per_sl_ns_anml": 0.0, "per_hh_no_lat": 86.7, "per_as_pub": 0.0, "per_as_open": 86.7, "per_hh_bathrm": 10.0, "per_hh_en_wrf": 3.3, "per_hh_no_btrm": 86.7, "per_wwoc_drain": 0.0, "per_wwoc_open": 0.0, "per_wwoc_nodrn": 100.0, "per_cook_fire": 100.0, "per_cook_resdu": 0.0, "per_cook_cwdng": 0.0, "per_cook_coal": 0.0, "per_cook_kero": 0.0, "per_cook_lpng": 0.0, "per_cook_elec": 0.0, "per_cook_biogs": 0.0, "per_cook_oth": 0.0, "per_cook_no": 0.0, "per_kf_inside": 96.7, "per_kf_in_has": 90.0, "per_kf_in_does": 6.7, "per_kf_outside": 3.3, "per_kf_out_has": 3.3, "per_kf_out_dos": 0.0, "per_kf_no_cook": 0.0, "per_hh_banking": 6.7, "per_hh_radio": 6.7, "per_hh_tv": 30.0, "per_hh_cmp_int": 0.0, "per_hh_cmp_wnt": 0.0, "per_hh_ph_ll": 0.0, "per_hh_ph_mob": 73.3, "per_hh_ph_bth": 0.0, "per_hh_bcycl": 0.0, "per_hh_2wheel": 0.0, "per_hh_4wheel": 0.0, "per_hh_tvcomp": null, "per_hh_no_ast": 26.7, "per_hs_perma": 100.0, "per_hs_sperma": 0.0, "per_hs_temp": 0.0, "per_hs_servc": 0.0, "per_hs_nservc": 0.0, "per_hs_unclss": 0.0, "avghhsz_cy": 4.60714286, "st_areashape": 714042.581543535, "st_lengthshape": 3866.0684970097273}, "geometry": {"type": "Polygon", "coordinates": [[[79.26663749375668, 29.745764655383088], [79.26805534699041, 29.748248993713013], [79.26883476934836, 29.74960794993626], [79.2691964697093, 29.749936686948306], [79.26772329103385, 29.750120265926288], [79.26621441241069, 29.750190221967166], [79.26464743165326, 29.75035647782378], [79.26358261542786, 29.750531845898408], [79.26162503460847, 29.750690979042478], [79.26061600376221, 29.75086734325625], [79.25723846585471, 29.750878889816015], [79.25612109099868, 29.75089600726664], [79.25592606585214, 29.74973543078687], [79.25573778885008, 29.748271688890245], [79.25510406604467, 29.74719202013895], [79.25665847218477, 29.747120191713016], [79.25732803597337, 29.747132382933543], [79.25956803813493, 29.746832414989612], [79.26208935042264, 29.746440160101706], [79.26584280632709, 29.745875547720974], [79.26663749375668, 29.745764655383088]]]}}]}