{"type": "FeatureCollection", "features": [{"type": "Feature", "properties": {"premiumdata.sde.IN_Village_PCA.area": 2.72108715, "objectid": 28458, "id": "29525554292016", "name": "Harokyathanahalli", "subdistrict": "Bengaluru North", "district": "Bengaluru Urban", "state": "Karnataka", "country": "India", "censusname": "Harokyathanahalli", "villagename_locallang": null, "lgd_villagename": "Harokyathanahalli", "lgd_villagecode": 612789, "lgd_subdistrictcode": 5542, "lgd_districtcode": 525, "lgd_statecode": 29, "censuscode2001": "02033900", "censuscode2011": "612789", "censuscode2021": null, "level": "Village", "tru": "Rural", "no_hh": 670, "tot_p": 2513, "tot_m": 1347, "tot_f": 1166, "per_tot_m": 53.60127338, "per_tot_f": 46.39872662, "p_06": 299, "m_06": 171, "f_06": 128, "per_p_06": 11.89812973, "per_m_06": 57.19063545, "per_f_06": 42.80936455, "p_sc": 545, "m_sc": 291, "f_sc": 254, "per_p_sc": 21.68722642, "per_m_sc": 53.39449541, "per_f_sc": 46.60550459, "p_st": 53, "m_st": 26, "f_st": 27, "per_p_st": 2.10903303, "per_m_st": 49.05660377, "per_f_st": 50.94339623, "p_lit": 1889, "m_lit": 1081, "f_lit": 808, "per_p_lit": 75.16912057, "per_m_lit": 57.22604553, "per_f_lit": 42.77395447, "p_ill": 624, "m_ill": 266, "f_ill": 358, "per_p_ill": 24.83087943, "per_m_ill": 42.62820513, "per_f_ill": 57.37179487, "tot_work_p": 1303, "tot_work_m": 883, "tot_work_f": 420, "per_tot_work_p": 51.85037803, "per_tot_work_m": 67.76669225, "per_tot_work_f": 32.23330775, "mainwork_p": 1079, "mainwork_m": 795, "mainwork_f": 284, "per_mainwork_p": 42.93672901, "per_mainwork_m": 73.67933272, "per_mainwork_f": 26.32066728, "main_cl_p": 135, "main_cl_m": 112, "main_cl_f": 23, "per_main_cl_p": 12.5115848, "per_main_cl_m": 82.96296296, "per_main_cl_f": 17.03703704, "main_al_p": 79, "main_al_m": 40, "main_al_f": 39, "per_main_al_p": 7.32159407, "per_main_al_m": 50.63291139, "per_main_al_f": 49.36708861, "main_hh_p": 36, "main_hh_m": 32, "main_hh_f": 4, "per_main_hh_p": 3.33642261, "per_main_hh_m": 88.88888889, "per_main_hh_f": 11.11111111, "main_ot_p": 829, "main_ot_m": 611, "main_ot_f": 218, "per_main_ot_p": 76.83039851999999, "per_main_ot_m": 73.70325693999999, "per_main_ot_f": 26.29674306, "margwork_p": 224, "margwork_m": 88, "margwork_f": 136, "per_margwork_p": 8.91364903, "per_margwork_m": 39.28571429, "per_margwork_f": 60.71428571, "marg_cl_p": 48, "marg_cl_m": 3, "marg_cl_f": 45, "per_marg_cl_p": 21.42857143, "per_marg_cl_m": 6.25, "per_marg_cl_f": 93.75, "marg_al_p": 8, "marg_al_m": 1, "marg_al_f": 7, "per_marg_al_p": 3.57142857, "per_marg_al_m": 12.5, "per_marg_al_f": 87.5, "marg_hh_p": 2, "marg_hh_m": 1, "marg_hh_f": 1, "per_marg_hh_p": 0.89285714, "per_marg_hh_m": 50.0, "per_marg_hh_f": 50.0, "marg_ot_p": 166, "marg_ot_m": 83, "marg_ot_f": 83, "per_marg_ot_p": 74.10714286, "per_marg_ot_m": 50.0, "per_marg_ot_f": 50.0, "margwork_3_6_p": 215, "margwork_3_6_m": 83, "margwork_3_6_f": 132, "per_margwork_3_6_p": 95.98214286, "per_margwork_3_6_m": 38.60465116, "per_margwork_3_6_f": 61.39534884, "marg_cl_3_6_p": 48, "marg_cl_3_6_m": 3, "marg_cl_3_6_f": 45, "per_marg_cl_3_6_p": 21.42857143, "per_marg_cl_3_6_m": 6.25, "per_marg_cl_3_6_f": 93.75, "marg_al_3_6_p": 8, "marg_al_3_6_m": 1, "marg_al_3_6_f": 7, "per_marg_al_3_6_p": 3.57142857, "per_marg_al_3_6_m": 12.5, "per_marg_al_3_6_f": 87.5, "marg_hh_3_6_p": 2, "marg_hh_3_6_m": 1, "marg_hh_3_6_f": 1, "per_marg_hh_3_6_p": 0.89285714, "per_marg_hh_3_6_m": 50.0, "per_marg_hh_3_6_f": 50.0, "marg_ot_3_6_p": 157, "marg_ot_3_6_m": 78, "marg_ot_3_6_f": 79, "per_marg_ot_3_6_p": 70.08928571, "per_marg_ot_3_6_m": 49.68152866, "per_marg_ot_3_6_f": 50.31847134, "margwork_0_3_p": 9, "margwork_0_3_m": 5, "margwork_0_3_f": 4, "per_margwork_0_3_p": 4.01785714, "per_margwork_0_3_m": 55.55555556, "per_margwork_0_3_f": 44.44444444000001, "marg_cl_0_3_p": 0, "marg_cl_0_3_m": 0, "marg_cl_0_3_f": 0, "per_marg_cl_0_3_p": 0.0, "per_marg_cl_0_3_m": 0.0, "per_marg_cl_0_3_f": 0.0, "marg_al_0_3_p": 0, "marg_al_0_3_m": 0, "marg_al_0_3_f": 0, "per_marg_al_0_3_p": 0.0, "per_marg_al_0_3_m": 0.0, "per_marg_al_0_3_f": 0.0, "marg_hh_0_3_p": 0, "marg_hh_0_3_m": 0, "marg_hh_0_3_f": 0, "per_marg_hh_0_3_p": 0.0, "per_marg_hh_0_3_m": 0.0, "per_marg_hh_0_3_f": 0.0, "marg_ot_0_3_p": 9, "marg_ot_0_3_m": 5, "marg_ot_0_3_f": 4, "per_marg_ot_0_3_p": 4.01785714, "per_marg_ot_0_3_m": 55.55555556, "per_marg_ot_0_3_f": 44.44444444000001, "non_work_p": 1210, "non_work_m": 464, "non_work_f": 746, "per_non_work_p": 48.14962197, "per_non_work_m": 38.34710744, "per_non_work_f": 61.65289256, "per_hc_tot_tot": 100, "per_hc_tot_god": 81.6, "per_hc_tot_liv": 17.7, "per_hc_tot_dil": 0.7, "per_hc_res_tot": 99.7, "per_hc_res_god": 81.3, "per_hc_res_liv": 17.7, "per_hc_res_dil": 0.7, "per_hc_oth_tot": 0.3, "per_hc_oth_god": 0.3, "per_hc_oth_liv": 0.0, "per_hc_oth_dil": 0.0, "per_mt_grsbam": 1.8, "per_mt_plastic": 0.7, "per_mt_h_tiles": 4.9, "per_mt_m_tiles": 0.7, "per_mt_b_brick": 0.3, "per_mt_stone": 4.9, "per_mt_asbstos": 38.6, "per_mt_concrte": 48.1, "per_mt_oth": 0.0, "per_mw_grsbam": 0.3, "per_mw_plastic": 0.0, "per_mw_mud": 4.9, "per_mw_wood": 0.0, "per_mw_no_mrtr": 24.9, "per_mw_st_mrtr": 40.5, "per_mw_asbstos": 0.0, "per_mw_b_brick": 26.3, "per_mw_concrte": 3.0, "per_mw_oth": 0.1, "per_mf_mud": 1.0, "per_mf_wood": 0.0, "per_mf_b_brick": 0.1, "per_mf_stone": 0.4, "per_mf_cement": 60.4, "per_mf_fl_tile": 38.0, "per_mf_oth": 0.0, "per_dw_n_exrm": 16.2, "per_dw_1_room": 52.4, "per_dw_2_room": 27.7, "per_dw_3_room": 3.0, "per_dw_4_room": 0.4, "per_dw_5_room": 0.3, "per_dw_6_room": 0.0, "per_hhsize_1": 4.3, "per_hhsize_2": 14.4, "per_hhsize_3": 24.2, "per_hhsize_4": 31.2, "per_hhsize_5": 14.5, "per_hhsize_6_8": 10.2, "per_hhsize_9p": 1.2, "per_ow_owned": 41.5, "per_ow_rented": 57.3, "per_ow_oth": 1.2, "per_mc_none": 16.3, "per_mcouple_1": 72.1, "per_mcouple_2": 10.2, "per_mcouple_3": 1.2, "per_mcouple_4": 0.1, "per_mcouple_5p": 0.0, "per_dw_t_ts": 1.3, "per_dw_t_unts": 61.4, "per_dw_c_well": 0.0, "per_dw_unc_wel": 0.0, "per_dw_hpump": 0.4, "per_dw_tw_bore": 36.5, "per_dw_spring": 0.0, "per_dw_rivcan": 0.0, "per_dw_tank": 0.0, "per_dw_oth": 0.3, "per_loc_dw_wp": 49.4, "per_loc_dw_np": 48.5, "per_loc_dw_aw": 2.1, "per_light_elec": 96.4, "per_light_kero": 3.3, "per_light_solr": 0.0, "per_light_oil": 0.1, "per_light_oth": 0.1, "per_light_no": 0.0, "per_hh_latrine": 90.7, "per_fl_sewer": 0.1, "per_fl_septict": 1.2, "per_fl_othsys": 0.0, "per_pl_wslab": 89.3, "per_pl_without": 0.0, "per_ns_open": 0.0, "per_sl_ns_hum": 0.0, "per_sl_ns_anml": 0.0, "per_hh_no_lat": 9.3, "per_as_pub": 0.1, "per_as_open": 9.2, "per_hh_bathrm": 90.7, "per_hh_en_wrf": 4.3, "per_hh_no_btrm": 5.0, "per_wwoc_drain": 12.8, "per_wwoc_open": 76.4, "per_wwoc_nodrn": 10.8, "per_cook_fire": 6.2, "per_cook_resdu": 0.0, "per_cook_cwdng": 0.0, "per_cook_coal": 0.0, "per_cook_kero": 19.1, "per_cook_lpng": 74.2, "per_cook_elec": 0.1, "per_cook_biogs": 0.0, "per_cook_oth": 0.0, "per_cook_no": 0.3, "per_kf_inside": 90.7, "per_kf_in_has": 90.2, "per_kf_in_does": 0.4, "per_kf_outside": 9.1, "per_kf_out_has": 0.1, "per_kf_out_dos": 8.9, "per_kf_no_cook": 0.3, "per_hh_banking": 51.3, "per_hh_radio": 47.0, "per_hh_tv": 80.3, "per_hh_cmp_int": 1.9, "per_hh_cmp_wnt": 1.9, "per_hh_ph_ll": 2.1, "per_hh_ph_mob": 86.4, "per_hh_ph_bth": 1.6, "per_hh_bcycl": 23.7, "per_hh_2wheel": 24.2, "per_hh_4wheel": 3.6, "per_hh_tvcomp": 2.7, "per_hh_no_ast": 3.6, "per_hs_perma": 92.4, "per_hs_sperma": 7.1, "per_hs_temp": 0.3, "per_hs_servc": 0.1, "per_hs_nservc": 0.1, "per_hs_unclss": 0.1, "avghhsz_cy": 3.75074627, "st_areashape": 2884721.47138992, "st_lengthshape": 7161.68619709697}, "geometry": {"type": "Polygon", "coordinates": [[[77.45099823903408, 13.059730560804374], [77.44897796119774, 13.061003984119086], [77.44838376156993, 13.061930106678641], [77.4467200035103, 13.06250893063962], [77.4456504450785, 13.06250893063962], [77.44446204582285, 13.062393165780927], [77.44232292895927, 13.062393165780927], [77.4407780099269, 13.062393165780927], [77.43899541194173, 13.06250893063962], [77.43748491006284, 13.061266136583903], [77.4371996940618, 13.058765592031047], [77.43548840075059, 13.057654231354437], [77.43791273361519, 13.053764427866117], [77.43834055716759, 13.051958426141985], [77.43948142027334, 13.046818197989698], [77.44133532203425, 13.045428928768342], [77.4424761842417, 13.040983213587577], [77.44410552694445, 13.041901941818537], [77.44481856559952, 13.043870099346266], [77.44505624545066, 13.045143605260709], [77.44600696395689, 13.045838241211037], [77.44695768336142, 13.04664864837441], [77.44731420313813, 13.047459052006515], [77.4487402813466, 13.047690595663546], [77.45123591798688, 13.047806367410722], [77.45135475791247, 13.048964081025817], [77.45242431724253, 13.049658707117581], [77.45242431724253, 13.051858342655477], [77.4521866373914, 13.054057957742048], [77.45147359783802, 13.05556294657957], [77.45135475791247, 13.057530995342928], [77.45099823903408, 13.059730560804374]]]}}]}