{"type": "FeatureCollection", "features": [{"type": "Feature", "properties": {"premiumdata.sde.IN_Village_PCA.area": 3.40422285, "objectid": 390589, "id": "3651236339739", "name": "Chak Manewala", "subdistrict": "Jalalabad", "district": "Fazilka", "state": "Punjab", "country": "India", "censusname": "Chak Manewala (195)", "villagename_locallang": null, "lgd_villagename": "Chak Manewala (195)", "lgd_villagecode": 34930, "lgd_subdistrictcode": 236, "lgd_districtcode": 651, "lgd_statecode": 3, "censuscode2001": "00966400", "censuscode2011": "034930", "censuscode2021": null, "level": "Village", "tru": "Rural", "no_hh": 315, "tot_p": 1549, "tot_m": 808, "tot_f": 741, "per_tot_m": 52.1626856, "per_tot_f": 47.8373144, "p_06": 204, "m_06": 114, "f_06": 90, "per_p_06": 13.16978696, "per_m_06": 55.88235294, "per_f_06": 44.11764706, "p_sc": 815, "m_sc": 428, "f_sc": 387, "per_p_sc": 52.61459006, "per_m_sc": 52.51533742, "per_f_sc": 47.48466258, "p_st": 0, "m_st": 0, "f_st": 0, "per_p_st": 0.0, "per_m_st": 0.0, "per_f_st": 0.0, "p_lit": 958, "m_lit": 537, "f_lit": 421, "per_p_lit": 61.84635249, "per_m_lit": 56.05427975, "per_f_lit": 43.94572025, "p_ill": 591, "m_ill": 271, "f_ill": 320, "per_p_ill": 38.15364751, "per_m_ill": 45.85448393, "per_f_ill": 54.14551607, "tot_work_p": 521, "tot_work_m": 421, "tot_work_f": 100, "per_tot_work_p": 33.63460297, "per_tot_work_m": 80.80614203, "per_tot_work_f": 19.19385797, "mainwork_p": 383, "mainwork_m": 355, "mainwork_f": 28, "per_mainwork_p": 24.72562944, "per_mainwork_m": 92.68929504, "per_mainwork_f": 7.31070496, "main_cl_p": 99, "main_cl_m": 98, "main_cl_f": 1, "per_main_cl_p": 25.84856397, "per_main_cl_m": 98.98989899, "per_main_cl_f": 1.01010101, "main_al_p": 8, "main_al_m": 8, "main_al_f": 0, "per_main_al_p": 2.08877285, "per_main_al_m": 100.0, "per_main_al_f": 0.0, "main_hh_p": 3, "main_hh_m": 3, "main_hh_f": 0, "per_main_hh_p": 0.78328982, "per_main_hh_m": 100.0, "per_main_hh_f": 0.0, "main_ot_p": 273, "main_ot_m": 246, "main_ot_f": 27, "per_main_ot_p": 71.27937337, "per_main_ot_m": 90.10989011000001, "per_main_ot_f": 9.89010989, "margwork_p": 138, "margwork_m": 66, "margwork_f": 72, "per_margwork_p": 8.90897353, "per_margwork_m": 47.82608696, "per_margwork_f": 52.17391304, "marg_cl_p": 2, "marg_cl_m": 1, "marg_cl_f": 1, "per_marg_cl_p": 1.44927536, "per_marg_cl_m": 50.0, "per_marg_cl_f": 50.0, "marg_al_p": 22, "marg_al_m": 6, "marg_al_f": 16, "per_marg_al_p": 15.94202899, "per_marg_al_m": 27.27272727, "per_marg_al_f": 72.72727273, "marg_hh_p": 4, "marg_hh_m": 2, "marg_hh_f": 2, "per_marg_hh_p": 2.89855072, "per_marg_hh_m": 50.0, "per_marg_hh_f": 50.0, "marg_ot_p": 110, "marg_ot_m": 57, "marg_ot_f": 53, "per_marg_ot_p": 79.71014493, "per_marg_ot_m": 51.81818182, "per_marg_ot_f": 48.18181818, "margwork_3_6_p": 104, "margwork_3_6_m": 59, "margwork_3_6_f": 45, "per_margwork_3_6_p": 75.36231884, "per_margwork_3_6_m": 56.73076923, "per_margwork_3_6_f": 43.26923077, "marg_cl_3_6_p": 1, "marg_cl_3_6_m": 1, "marg_cl_3_6_f": 0, "per_marg_cl_3_6_p": 0.72463768, "per_marg_cl_3_6_m": 100.0, "per_marg_cl_3_6_f": 0.0, "marg_al_3_6_p": 7, "marg_al_3_6_m": 4, "marg_al_3_6_f": 3, "per_marg_al_3_6_p": 5.07246377, "per_marg_al_3_6_m": 57.14285714, "per_marg_al_3_6_f": 42.85714286, "marg_hh_3_6_p": 4, "marg_hh_3_6_m": 2, "marg_hh_3_6_f": 2, "per_marg_hh_3_6_p": 2.89855072, "per_marg_hh_3_6_m": 50.0, "per_marg_hh_3_6_f": 50.0, "marg_ot_3_6_p": 92, "marg_ot_3_6_m": 52, "marg_ot_3_6_f": 40, "per_marg_ot_3_6_p": 66.66666667, "per_marg_ot_3_6_m": 56.52173913, "per_marg_ot_3_6_f": 43.47826087, "margwork_0_3_p": 34, "margwork_0_3_m": 7, "margwork_0_3_f": 27, "per_margwork_0_3_p": 24.63768116, "per_margwork_0_3_m": 20.58823529, "per_margwork_0_3_f": 79.41176471, "marg_cl_0_3_p": 1, "marg_cl_0_3_m": 0, "marg_cl_0_3_f": 1, "per_marg_cl_0_3_p": 0.72463768, "per_marg_cl_0_3_m": 0.0, "per_marg_cl_0_3_f": 100.0, "marg_al_0_3_p": 15, "marg_al_0_3_m": 2, "marg_al_0_3_f": 13, "per_marg_al_0_3_p": 10.86956522, "per_marg_al_0_3_m": 13.33333333, "per_marg_al_0_3_f": 86.66666667, "marg_hh_0_3_p": 0, "marg_hh_0_3_m": 0, "marg_hh_0_3_f": 0, "per_marg_hh_0_3_p": 0.0, "per_marg_hh_0_3_m": 0.0, "per_marg_hh_0_3_f": 0.0, "marg_ot_0_3_p": 18, "marg_ot_0_3_m": 5, "marg_ot_0_3_f": 13, "per_marg_ot_0_3_p": 13.04347826, "per_marg_ot_0_3_m": 27.77777778, "per_marg_ot_0_3_f": 72.22222222, "non_work_p": 1028, "non_work_m": 387, "non_work_f": 641, "per_non_work_p": 66.36539703000001, "per_non_work_m": 37.6459144, "per_non_work_f": 62.3540856, "per_hc_tot_tot": 100, "per_hc_tot_god": 23.9, "per_hc_tot_liv": 61.5, "per_hc_tot_dil": 14.6, "per_hc_res_tot": 97.4, "per_hc_res_god": 22.3, "per_hc_res_liv": 60.8, "per_hc_res_dil": 14.2, "per_hc_oth_tot": 2.6, "per_hc_oth_god": 1.6, "per_hc_oth_liv": 0.6, "per_hc_oth_dil": 0.3, "per_mt_grsbam": 6.8, "per_mt_plastic": 0.3, "per_mt_h_tiles": 55.7, "per_mt_m_tiles": 0.0, "per_mt_b_brick": 2.3, "per_mt_stone": 0.0, "per_mt_asbstos": 0.0, "per_mt_concrte": 35.0, "per_mt_oth": 0.0, "per_mw_grsbam": 0.0, "per_mw_plastic": 0.0, "per_mw_mud": 20.7, "per_mw_wood": 0.0, "per_mw_no_mrtr": 0.3, "per_mw_st_mrtr": 0.0, "per_mw_asbstos": 0.0, "per_mw_b_brick": 79.0, "per_mw_concrte": 0.0, "per_mw_oth": 0.0, "per_mf_mud": 53.1, "per_mf_wood": 0.0, "per_mf_b_brick": 4.2, "per_mf_stone": 17.5, "per_mf_cement": 23.6, "per_mf_fl_tile": 0.0, "per_mf_oth": 1.6, "per_dw_n_exrm": 0.0, "per_dw_1_room": 34.0, "per_dw_2_room": 36.6, "per_dw_3_room": 18.8, "per_dw_4_room": 7.8, "per_dw_5_room": 1.6, "per_dw_6_room": 1.3, "per_hhsize_1": 0.6, "per_hhsize_2": 6.1, "per_hhsize_3": 11.3, "per_hhsize_4": 29.8, "per_hhsize_5": 22.7, "per_hhsize_6_8": 25.6, "per_hhsize_9p": 3.9, "per_ow_owned": 97.7, "per_ow_rented": 1.3, "per_ow_oth": 1.0, "per_mc_none": 7.8, "per_mcouple_1": 74.1, "per_mcouple_2": 15.5, "per_mcouple_3": 2.3, "per_mcouple_4": 0.3, "per_mcouple_5p": 0.0, "per_dw_t_ts": 0.6, "per_dw_t_unts": 6.5, "per_dw_c_well": 0.0, "per_dw_unc_wel": 0.0, "per_dw_hpump": 74.1, "per_dw_tw_bore": 15.2, "per_dw_spring": 0.0, "per_dw_rivcan": 0.0, "per_dw_tank": 0.0, "per_dw_oth": 3.6, "per_loc_dw_wp": 84.1, "per_loc_dw_np": 13.3, "per_loc_dw_aw": 2.6, "per_light_elec": 96.4, "per_light_kero": 2.9, "per_light_solr": 0.3, "per_light_oil": 0.0, "per_light_oth": 0.3, "per_light_no": 0.0, "per_hh_latrine": 73.5, "per_fl_sewer": 2.6, "per_fl_septict": 5.5, "per_fl_othsys": 0.3, "per_pl_wslab": 39.2, "per_pl_without": 25.9, "per_ns_open": 0.0, "per_sl_ns_hum": 0.0, "per_sl_ns_anml": 0.0, "per_hh_no_lat": 26.5, "per_as_pub": 0.0, "per_as_open": 26.5, "per_hh_bathrm": 56.3, "per_hh_en_wrf": 24.6, "per_hh_no_btrm": 19.1, "per_wwoc_drain": 2.9, "per_wwoc_open": 57.0, "per_wwoc_nodrn": 40.1, "per_cook_fire": 23.3, "per_cook_resdu": 3.9, "per_cook_cwdng": 27.8, "per_cook_coal": 0.0, "per_cook_kero": 5.8, "per_cook_lpng": 38.8, "per_cook_elec": 0.0, "per_cook_biogs": 0.3, "per_cook_oth": 0.0, "per_cook_no": 0.0, "per_kf_inside": 100.0, "per_kf_in_has": 47.6, "per_kf_in_does": 52.4, "per_kf_outside": 0.0, "per_kf_out_has": 0.0, "per_kf_out_dos": 0.0, "per_kf_no_cook": 0.0, "per_hh_banking": 51.5, "per_hh_radio": 3.6, "per_hh_tv": 73.8, "per_hh_cmp_int": 1.0, "per_hh_cmp_wnt": 3.2, "per_hh_ph_ll": 1.3, "per_hh_ph_mob": 81.2, "per_hh_ph_bth": 3.2, "per_hh_bcycl": 71.5, "per_hh_2wheel": 45.0, "per_hh_4wheel": 5.8, "per_hh_tvcomp": 3.2, "per_hh_no_ast": 4.5, "per_hs_perma": 78.6, "per_hs_sperma": 14.9, "per_hs_temp": 6.5, "per_hs_servc": 6.5, "per_hs_nservc": 0.0, "per_hs_unclss": 0.0, "avghhsz_cy": 4.91746032, "st_areashape": 4607692.90370203, "st_lengthshape": 9114.007160726622}, "geometry": {"type": "Polygon", "coordinates": [[[74.25960650908314, 30.582447303304487], [74.25974901153164, 30.5817404215639], [74.26121908652777, 30.578044816293986], [74.26342217062609, 30.573454227971396], [74.2658497904263, 30.570731007898253], [74.26874755251363, 30.567969444558816], [74.27223579250855, 30.568227117543053], [74.27454649387961, 30.568333028893907], [74.27928360322353, 30.568501201309335], [74.28401783885691, 30.56893016935919], [74.28298986433794, 30.571955248919053], [74.28175922809423, 30.574140982208352], [74.28112573346093, 30.574715605937254], [74.27847066741728, 30.57899187379562], [74.27470508874808, 30.585114259722655], [74.27264635942433, 30.58941764955658], [74.27030357741786, 30.59250970461061], [74.26862741362416, 30.588947295880708], [74.26653583201217, 30.586655701211164], [74.25960650908314, 30.582447303304487]]]}}]}