{"type": "FeatureCollection", "features": [{"type": "Feature", "properties": {"premiumdata.sde.IN_Village_PCA.area": 1.90845679, "objectid": 354550, "id": "9152983379088", "name": "Dharikpur", "subdistrict": "Machhlishahr", "district": "Jaunpur", "state": "Uttar Pradesh", "country": "India", "censusname": "Dharikpur", "villagename_locallang": null, "lgd_villagename": "Dharikpur", "lgd_villagecode": 201040, "lgd_subdistrictcode": 983, "lgd_districtcode": 152, "lgd_statecode": 9, "censuscode2001": "09410300", "censuscode2011": "201040", "censuscode2021": null, "level": "Village", "tru": "Rural", "no_hh": 337, "tot_p": 2345, "tot_m": 1127, "tot_f": 1218, "per_tot_m": 48.05970149, "per_tot_f": 51.94029851, "p_06": 370, "m_06": 196, "f_06": 174, "per_p_06": 15.7782516, "per_m_06": 52.97297297, "per_f_06": 47.02702703, "p_sc": 804, "m_sc": 398, "f_sc": 406, "per_p_sc": 34.28571429, "per_m_sc": 49.50248756, "per_f_sc": 50.49751244, "p_st": 0, "m_st": 0, "f_st": 0, "per_p_st": 0.0, "per_m_st": 0.0, "per_f_st": 0.0, "p_lit": 1451, "m_lit": 830, "f_lit": 621, "per_p_lit": 61.87633262, "per_m_lit": 57.2019297, "per_f_lit": 42.7980703, "p_ill": 894, "m_ill": 297, "f_ill": 597, "per_p_ill": 38.12366738, "per_m_ill": 33.22147651, "per_f_ill": 66.77852349, "tot_work_p": 760, "tot_work_m": 492, "tot_work_f": 268, "per_tot_work_p": 32.40938166, "per_tot_work_m": 64.73684211, "per_tot_work_f": 35.26315789, "mainwork_p": 238, "mainwork_m": 203, "mainwork_f": 35, "per_mainwork_p": 10.14925373, "per_mainwork_m": 85.29411765, "per_mainwork_f": 14.70588235, "main_cl_p": 104, "main_cl_m": 86, "main_cl_f": 18, "per_main_cl_p": 43.69747899, "per_main_cl_m": 82.69230769, "per_main_cl_f": 17.30769231, "main_al_p": 13, "main_al_m": 12, "main_al_f": 1, "per_main_al_p": 5.46218487, "per_main_al_m": 92.30769231, "per_main_al_f": 7.69230769, "main_hh_p": 18, "main_hh_m": 16, "main_hh_f": 2, "per_main_hh_p": 7.56302521, "per_main_hh_m": 88.88888889, "per_main_hh_f": 11.11111111, "main_ot_p": 103, "main_ot_m": 89, "main_ot_f": 14, "per_main_ot_p": 43.27731092, "per_main_ot_m": 86.40776699, "per_main_ot_f": 13.59223301, "margwork_p": 522, "margwork_m": 289, "margwork_f": 233, "per_margwork_p": 22.26012793, "per_margwork_m": 55.36398467, "per_margwork_f": 44.63601533, "marg_cl_p": 232, "marg_cl_m": 89, "marg_cl_f": 143, "per_marg_cl_p": 44.44444444000001, "per_marg_cl_m": 38.36206897, "per_marg_cl_f": 61.63793103, "marg_al_p": 259, "marg_al_m": 172, "marg_al_f": 87, "per_marg_al_p": 49.61685824, "per_marg_al_m": 66.40926641, "per_marg_al_f": 33.59073359, "marg_hh_p": 9, "marg_hh_m": 7, "marg_hh_f": 2, "per_marg_hh_p": 1.72413793, "per_marg_hh_m": 77.77777778, "per_marg_hh_f": 22.22222222, "marg_ot_p": 22, "marg_ot_m": 21, "marg_ot_f": 1, "per_marg_ot_p": 4.21455939, "per_marg_ot_m": 95.45454545, "per_marg_ot_f": 4.54545455, "margwork_3_6_p": 334, "margwork_3_6_m": 177, "margwork_3_6_f": 157, "per_margwork_3_6_p": 63.98467433, "per_margwork_3_6_m": 52.99401198, "per_margwork_3_6_f": 47.00598802, "marg_cl_3_6_p": 166, "marg_cl_3_6_m": 62, "marg_cl_3_6_f": 104, "per_marg_cl_3_6_p": 31.80076628, "per_marg_cl_3_6_m": 37.34939759, "per_marg_cl_3_6_f": 62.65060241, "marg_al_3_6_p": 141, "marg_al_3_6_m": 91, "marg_al_3_6_f": 50, "per_marg_al_3_6_p": 27.01149425, "per_marg_al_3_6_m": 64.53900709, "per_marg_al_3_6_f": 35.46099291, "marg_hh_3_6_p": 9, "marg_hh_3_6_m": 7, "marg_hh_3_6_f": 2, "per_marg_hh_3_6_p": 1.72413793, "per_marg_hh_3_6_m": 77.77777778, "per_marg_hh_3_6_f": 22.22222222, "marg_ot_3_6_p": 18, "marg_ot_3_6_m": 17, "marg_ot_3_6_f": 1, "per_marg_ot_3_6_p": 3.44827586, "per_marg_ot_3_6_m": 94.44444444, "per_marg_ot_3_6_f": 5.55555556, "margwork_0_3_p": 188, "margwork_0_3_m": 112, "margwork_0_3_f": 76, "per_margwork_0_3_p": 36.01532567, "per_margwork_0_3_m": 59.57446809, "per_margwork_0_3_f": 40.42553191, "marg_cl_0_3_p": 66, "marg_cl_0_3_m": 27, "marg_cl_0_3_f": 39, "per_marg_cl_0_3_p": 12.64367816, "per_marg_cl_0_3_m": 40.90909091, "per_marg_cl_0_3_f": 59.09090909, "marg_al_0_3_p": 118, "marg_al_0_3_m": 81, "marg_al_0_3_f": 37, "per_marg_al_0_3_p": 22.60536398, "per_marg_al_0_3_m": 68.6440678, "per_marg_al_0_3_f": 31.3559322, "marg_hh_0_3_p": 0, "marg_hh_0_3_m": 0, "marg_hh_0_3_f": 0, "per_marg_hh_0_3_p": 0.0, "per_marg_hh_0_3_m": 0.0, "per_marg_hh_0_3_f": 0.0, "marg_ot_0_3_p": 4, "marg_ot_0_3_m": 4, "marg_ot_0_3_f": 0, "per_marg_ot_0_3_p": 0.76628352, "per_marg_ot_0_3_m": 100.0, "per_marg_ot_0_3_f": 0.0, "non_work_p": 1585, "non_work_m": 635, "non_work_f": 950, "per_non_work_p": 67.59061834, "per_non_work_m": 40.06309148, "per_non_work_f": 59.93690852, "per_hc_tot_tot": 100, "per_hc_tot_god": 67.5, "per_hc_tot_liv": 31.6, "per_hc_tot_dil": 0.9, "per_hc_res_tot": 99.4, "per_hc_res_god": 67.2, "per_hc_res_liv": 31.3, "per_hc_res_dil": 0.9, "per_hc_oth_tot": 0.6, "per_hc_oth_god": 0.3, "per_hc_oth_liv": 0.3, "per_hc_oth_dil": 0.0, "per_mt_grsbam": 7.4, "per_mt_plastic": 0.0, "per_mt_h_tiles": 15.4, "per_mt_m_tiles": 0.9, "per_mt_b_brick": 43.3, "per_mt_stone": 2.8, "per_mt_asbstos": 1.7, "per_mt_concrte": 28.5, "per_mt_oth": 0.0, "per_mw_grsbam": 2.0, "per_mw_plastic": 0.0, "per_mw_mud": 22.8, "per_mw_wood": 0.0, "per_mw_no_mrtr": 0.3, "per_mw_st_mrtr": 0.0, "per_mw_asbstos": 0.0, "per_mw_b_brick": 72.4, "per_mw_concrte": 0.0, "per_mw_oth": 2.6, "per_mf_mud": 79.5, "per_mf_wood": 0.0, "per_mf_b_brick": 6.6, "per_mf_stone": 0.3, "per_mf_cement": 12.0, "per_mf_fl_tile": 1.4, "per_mf_oth": 0.3, "per_dw_n_exrm": 2.3, "per_dw_1_room": 24.2, "per_dw_2_room": 29.6, "per_dw_3_room": 15.7, "per_dw_4_room": 9.7, "per_dw_5_room": 6.6, "per_dw_6_room": 12.0, "per_hhsize_1": 2.8, "per_hhsize_2": 5.4, "per_hhsize_3": 5.4, "per_hhsize_4": 8.0, "per_hhsize_5": 11.1, "per_hhsize_6_8": 40.7, "per_hhsize_9p": 26.5, "per_ow_owned": 100.0, "per_ow_rented": 0.0, "per_ow_oth": 0.0, "per_mc_none": 7.7, "per_mcouple_1": 45.9, "per_mcouple_2": 25.9, "per_mcouple_3": 12.8, "per_mcouple_4": 5.1, "per_mcouple_5p": 2.6, "per_dw_t_ts": 7.4, "per_dw_t_unts": 23.9, "per_dw_c_well": 0.3, "per_dw_unc_wel": 25.1, "per_dw_hpump": 42.7, "per_dw_tw_bore": 0.3, "per_dw_spring": 0.0, "per_dw_rivcan": 0.3, "per_dw_tank": 0.0, "per_dw_oth": 0.0, "per_loc_dw_wp": 57.5, "per_loc_dw_np": 33.6, "per_loc_dw_aw": 8.8, "per_light_elec": 9.1, "per_light_kero": 90.9, "per_light_solr": 0.0, "per_light_oil": 0.0, "per_light_oth": 0.0, "per_light_no": 0.0, "per_hh_latrine": 8.0, "per_fl_sewer": 0.0, "per_fl_septict": 6.3, "per_fl_othsys": 0.3, "per_pl_wslab": 1.4, "per_pl_without": 0.0, "per_ns_open": 0.0, "per_sl_ns_hum": 0.0, "per_sl_ns_anml": 0.0, "per_hh_no_lat": 92.0, "per_as_pub": 0.0, "per_as_open": 92.0, "per_hh_bathrm": 9.4, "per_hh_en_wrf": 10.0, "per_hh_no_btrm": 80.6, "per_wwoc_drain": 1.1, "per_wwoc_open": 41.0, "per_wwoc_nodrn": 57.8, "per_cook_fire": 58.1, "per_cook_resdu": 1.1, "per_cook_cwdng": 38.5, "per_cook_coal": 0.0, "per_cook_kero": 0.3, "per_cook_lpng": 1.7, "per_cook_elec": 0.0, "per_cook_biogs": 0.0, "per_cook_oth": 0.0, "per_cook_no": 0.3, "per_kf_inside": 56.4, "per_kf_in_has": 27.1, "per_kf_in_does": 29.3, "per_kf_outside": 43.3, "per_kf_out_has": 21.7, "per_kf_out_dos": 21.7, "per_kf_no_cook": 0.3, "per_hh_banking": 95.4, "per_hh_radio": 24.8, "per_hh_tv": 28.2, "per_hh_cmp_int": 0.0, "per_hh_cmp_wnt": 2.0, "per_hh_ph_ll": 1.4, "per_hh_ph_mob": 74.1, "per_hh_ph_bth": 1.1, "per_hh_bcycl": 83.8, "per_hh_2wheel": 16.2, "per_hh_4wheel": 2.8, "per_hh_tvcomp": 0.6, "per_hh_no_ast": 7.4, "per_hs_perma": 71.2, "per_hs_sperma": 20.2, "per_hs_temp": 6.0, "per_hs_servc": 4.6, "per_hs_nservc": 1.4, "per_hs_unclss": 2.6, "avghhsz_cy": 6.95845697, "st_areashape": 2363791.20193184, "st_lengthshape": 6511.799545446538}, "geometry": {"type": "Polygon", "coordinates": [[[82.26780415845532, 25.793093943220057], [82.2667867355477, 25.793466639144487], [82.26616005733075, 25.793556505701808], [82.26558356170054, 25.793623739970524], [82.26490701351058, 25.79357746288151], [82.26405511238057, 25.79348560584745], [82.26355418303206, 25.79332614794959], [82.2627526432535, 25.793098283333222], [82.26210134670622, 25.792938642930313], [82.26139976785923, 25.79286961997482], [82.26077327559355, 25.792868748068194], [82.26022172078888, 25.793004049621086], [82.25972006290665, 25.793275474020746], [82.25946906103987, 25.79350191154786], [82.25895609965643, 25.794484302404765], [82.25894156581346, 25.794226845678363], [82.2588172605377, 25.793637067600567], [82.25841704670559, 25.793205610901044], [82.25784127421917, 25.792841969693363], [82.2572153460955, 25.792523607611958], [82.25676470443662, 25.792250813771368], [82.25631430981439, 25.791864677005723], [82.25526320457517, 25.791046771924986], [82.25411222823593, 25.790024639446095], [82.25353679082113, 25.789502228324235], [82.25256032749718, 25.789001906081523], [82.25198470053782, 25.78859287642958], [82.25055830971564, 25.787456916048935], [82.24965769923597, 25.786593853377376], [82.24843508494774, 25.785097437896276], [82.24941137759178, 25.784198781991105], [82.25049034767282, 25.78338394875317], [82.25121763360829, 25.783044838436236], [82.25224587582524, 25.782570086246423], [82.25422778481912, 25.7818952557249], [82.25430187247387, 25.781870023903664], [82.25585665680468, 25.781191892329478], [82.25713616589141, 25.78030927814831], [82.25803971206544, 25.779448792423587], [82.25861647988518, 25.779200142035382], [82.2589174119121, 25.7791309177535], [82.25969438995416, 25.778952191645228], [82.26039599844557, 25.778953172048602], [82.26057638105294, 25.779051481713875], [82.26064633915232, 25.779089594452984], [82.26077094805864, 25.779497972541723], [82.26099561940613, 25.779997210497545], [82.26142093486226, 25.780383306631972], [82.26204704264897, 25.780588285136417], [82.26257284185614, 25.780838475188908], [82.26299846992596, 25.78104315765852], [82.26314846791716, 25.781247458783987], [82.26334803674237, 25.781792010116643], [82.26334735042948, 25.782200211461554], [82.2633216864601, 25.782563027071806], [82.26347121283581, 25.78303948603895], [82.26397086657661, 25.783947282979135], [82.26539735172192, 25.785060453846203], [82.26574764258044, 25.785378413735096], [82.26600002695446, 25.785583417579897], [82.26622311367382, 25.785764594270834], [82.26652314738543, 25.786173203362164], [82.26674723213306, 25.78703526044844], [82.26699704642705, 25.78751185027892], [82.26770509224579, 25.788927705031053], [82.26768965110438, 25.788931188729237], [82.26746396735554, 25.78902158770884], [82.26726311393946, 25.789248090787904], [82.26711195442661, 25.78974678864988], [82.26698420141679, 25.79122066807855], [82.26693305403948, 25.791855585805404], [82.26695739658703, 25.79228648447726], [82.26703211575743, 25.79255872661993], [82.2671820355952, 25.79283105629874], [82.26750753924007, 25.792990236629134], [82.26780415845532, 25.793093943220057]]]}}]}