{"type": "FeatureCollection", "features": [{"type": "Feature", "properties": {"premiumdata.sde.IN_Village_PCA.area": 3.10630985, "objectid": 179446, "id": "21350294668893", "name": "Sankhameri", "subdistrict": "Badamba", "district": "Cuttack", "state": "Odisha", "country": "India", "censusname": "Sankhameri", "villagename_locallang": null, "lgd_villagename": "Sankhameri", "lgd_villagecode": 398807, "lgd_subdistrictcode": 2946, "lgd_districtcode": 350, "lgd_statecode": 21, "censuscode2001": "02037100", "censuscode2011": "398807", "censuscode2021": null, "level": "Village", "tru": "Rural", "no_hh": 719, "tot_p": 3034, "tot_m": 1571, "tot_f": 1463, "per_tot_m": 51.77982861, "per_tot_f": 48.22017139, "p_06": 340, "m_06": 170, "f_06": 170, "per_p_06": 11.20632828, "per_m_06": 50.0, "per_f_06": 50.0, "p_sc": 559, "m_sc": 268, "f_sc": 291, "per_p_sc": 18.42452208, "per_m_sc": 47.94275492, "per_f_sc": 52.05724508, "p_st": 0, "m_st": 0, "f_st": 0, "per_p_st": 0.0, "per_m_st": 0.0, "per_f_st": 0.0, "p_lit": 2274, "m_lit": 1275, "f_lit": 999, "per_p_lit": 74.95056032000001, "per_m_lit": 56.06860158000001, "per_f_lit": 43.93139842, "p_ill": 760, "m_ill": 296, "f_ill": 464, "per_p_ill": 25.04943968, "per_m_ill": 38.94736842, "per_f_ill": 61.05263158, "tot_work_p": 993, "tot_work_m": 899, "tot_work_f": 94, "per_tot_work_p": 32.72907053, "per_tot_work_m": 90.53373615, "per_tot_work_f": 9.46626385, "mainwork_p": 833, "mainwork_m": 776, "mainwork_f": 57, "per_mainwork_p": 27.45550428, "per_mainwork_m": 93.15726291, "per_mainwork_f": 6.84273709, "main_cl_p": 119, "main_cl_m": 119, "main_cl_f": 0, "per_main_cl_p": 14.28571429, "per_main_cl_m": 100.0, "per_main_cl_f": 0.0, "main_al_p": 303, "main_al_m": 300, "main_al_f": 3, "per_main_al_p": 36.37454982, "per_main_al_m": 99.00990099, "per_main_al_f": 0.99009901, "main_hh_p": 52, "main_hh_m": 40, "main_hh_f": 12, "per_main_hh_p": 6.242497, "per_main_hh_m": 76.92307692, "per_main_hh_f": 23.07692308, "main_ot_p": 359, "main_ot_m": 317, "main_ot_f": 42, "per_main_ot_p": 43.0972389, "per_main_ot_m": 88.30083565, "per_main_ot_f": 11.69916435, "margwork_p": 160, "margwork_m": 123, "margwork_f": 37, "per_margwork_p": 5.27356625, "per_margwork_m": 76.875, "per_margwork_f": 23.125, "marg_cl_p": 6, "marg_cl_m": 5, "marg_cl_f": 1, "per_marg_cl_p": 3.75, "per_marg_cl_m": 83.33333332999999, "per_marg_cl_f": 16.66666667, "marg_al_p": 66, "marg_al_m": 63, "marg_al_f": 3, "per_marg_al_p": 41.25, "per_marg_al_m": 95.45454545, "per_marg_al_f": 4.54545455, "marg_hh_p": 15, "marg_hh_m": 5, "marg_hh_f": 10, "per_marg_hh_p": 9.375, "per_marg_hh_m": 33.33333333, "per_marg_hh_f": 66.66666667, "marg_ot_p": 73, "marg_ot_m": 50, "marg_ot_f": 23, "per_marg_ot_p": 45.625, "per_marg_ot_m": 68.49315068, "per_marg_ot_f": 31.50684932, "margwork_3_6_p": 151, "margwork_3_6_m": 119, "margwork_3_6_f": 32, "per_margwork_3_6_p": 94.375, "per_margwork_3_6_m": 78.80794702, "per_margwork_3_6_f": 21.19205298, "marg_cl_3_6_p": 5, "marg_cl_3_6_m": 5, "marg_cl_3_6_f": 0, "per_marg_cl_3_6_p": 3.125, "per_marg_cl_3_6_m": 100.0, "per_marg_cl_3_6_f": 0.0, "marg_al_3_6_p": 66, "marg_al_3_6_m": 63, "marg_al_3_6_f": 3, "per_marg_al_3_6_p": 41.25, "per_marg_al_3_6_m": 95.45454545, "per_marg_al_3_6_f": 4.54545455, "marg_hh_3_6_p": 12, "marg_hh_3_6_m": 5, "marg_hh_3_6_f": 7, "per_marg_hh_3_6_p": 7.5, "per_marg_hh_3_6_m": 41.66666667000001, "per_marg_hh_3_6_f": 58.33333333, "marg_ot_3_6_p": 68, "marg_ot_3_6_m": 46, "marg_ot_3_6_f": 22, "per_marg_ot_3_6_p": 42.5, "per_marg_ot_3_6_m": 67.64705882000001, "per_marg_ot_3_6_f": 32.35294118, "margwork_0_3_p": 9, "margwork_0_3_m": 4, "margwork_0_3_f": 5, "per_margwork_0_3_p": 5.625, "per_margwork_0_3_m": 44.44444444000001, "per_margwork_0_3_f": 55.55555556, "marg_cl_0_3_p": 1, "marg_cl_0_3_m": 0, "marg_cl_0_3_f": 1, "per_marg_cl_0_3_p": 0.625, "per_marg_cl_0_3_m": 0.0, "per_marg_cl_0_3_f": 100.0, "marg_al_0_3_p": 0, "marg_al_0_3_m": 0, "marg_al_0_3_f": 0, "per_marg_al_0_3_p": 0.0, "per_marg_al_0_3_m": 0.0, "per_marg_al_0_3_f": 0.0, "marg_hh_0_3_p": 3, "marg_hh_0_3_m": 0, "marg_hh_0_3_f": 3, "per_marg_hh_0_3_p": 1.875, "per_marg_hh_0_3_m": 0.0, "per_marg_hh_0_3_f": 100.0, "marg_ot_0_3_p": 5, "marg_ot_0_3_m": 4, "marg_ot_0_3_f": 1, "per_marg_ot_0_3_p": 3.125, "per_marg_ot_0_3_m": 80.0, "per_marg_ot_0_3_f": 20.0, "non_work_p": 2041, "non_work_m": 672, "non_work_f": 1369, "per_non_work_p": 67.27092947, "per_non_work_m": 32.92503675, "per_non_work_f": 67.07496325, "per_hc_tot_tot": 100, "per_hc_tot_god": 27.4, "per_hc_tot_liv": 57.0, "per_hc_tot_dil": 15.6, "per_hc_res_tot": 96.0, "per_hc_res_god": 26.4, "per_hc_res_liv": 54.1, "per_hc_res_dil": 15.4, "per_hc_oth_tot": 4.0, "per_hc_oth_god": 1.0, "per_hc_oth_liv": 2.9, "per_hc_oth_dil": 0.1, "per_mt_grsbam": 35.5, "per_mt_plastic": 0.1, "per_mt_h_tiles": 9.5, "per_mt_m_tiles": 8.7, "per_mt_b_brick": 0.0, "per_mt_stone": 0.3, "per_mt_asbstos": 19.1, "per_mt_concrte": 26.7, "per_mt_oth": 0.0, "per_mw_grsbam": 15.8, "per_mw_plastic": 0.0, "per_mw_mud": 14.7, "per_mw_wood": 0.3, "per_mw_no_mrtr": 2.6, "per_mw_st_mrtr": 0.6, "per_mw_asbstos": 0.0, "per_mw_b_brick": 65.4, "per_mw_concrte": 0.6, "per_mw_oth": 0.0, "per_mf_mud": 40.6, "per_mf_wood": 0.0, "per_mf_b_brick": 0.7, "per_mf_stone": 0.0, "per_mf_cement": 58.7, "per_mf_fl_tile": 0.0, "per_mf_oth": 0.0, "per_dw_n_exrm": 0.6, "per_dw_1_room": 55.9, "per_dw_2_room": 28.5, "per_dw_3_room": 9.9, "per_dw_4_room": 4.1, "per_dw_5_room": 0.6, "per_dw_6_room": 0.4, "per_hhsize_1": 2.6, "per_hhsize_2": 11.0, "per_hhsize_3": 19.7, "per_hhsize_4": 28.2, "per_hhsize_5": 19.8, "per_hhsize_6_8": 16.4, "per_hhsize_9p": 2.2, "per_ow_owned": 97.5, "per_ow_rented": 1.5, "per_ow_oth": 1.0, "per_mc_none": 8.8, "per_mcouple_1": 78.4, "per_mcouple_2": 10.6, "per_mcouple_3": 2.1, "per_mcouple_4": 0.1, "per_mcouple_5p": 0.0, "per_dw_t_ts": 0.0, "per_dw_t_unts": 0.6, "per_dw_c_well": 2.2, "per_dw_unc_wel": 52.9, "per_dw_hpump": 0.6, "per_dw_tw_bore": 43.8, "per_dw_spring": 0.0, "per_dw_rivcan": 0.0, "per_dw_tank": 0.0, "per_dw_oth": 0.0, "per_loc_dw_wp": 17.5, "per_loc_dw_np": 15.3, "per_loc_dw_aw": 67.2, "per_light_elec": 57.2, "per_light_kero": 42.6, "per_light_solr": 0.1, "per_light_oil": 0.0, "per_light_oth": 0.0, "per_light_no": 0.1, "per_hh_latrine": 22.7, "per_fl_sewer": 0.3, "per_fl_septict": 20.5, "per_fl_othsys": 0.0, "per_pl_wslab": 1.9, "per_pl_without": 0.0, "per_ns_open": 0.0, "per_sl_ns_hum": 0.0, "per_sl_ns_anml": 0.0, "per_hh_no_lat": 77.3, "per_as_pub": 0.0, "per_as_open": 77.3, "per_hh_bathrm": 8.3, "per_hh_en_wrf": 4.8, "per_hh_no_btrm": 86.9, "per_wwoc_drain": 0.1, "per_wwoc_open": 0.6, "per_wwoc_nodrn": 99.3, "per_cook_fire": 18.0, "per_cook_resdu": 75.6, "per_cook_cwdng": 0.0, "per_cook_coal": 0.0, "per_cook_kero": 0.4, "per_cook_lpng": 5.6, "per_cook_elec": 0.0, "per_cook_biogs": 0.1, "per_cook_oth": 0.0, "per_cook_no": 0.1, "per_kf_inside": 96.4, "per_kf_in_has": 27.4, "per_kf_in_does": 69.0, "per_kf_outside": 3.4, "per_kf_out_has": 2.9, "per_kf_out_dos": 0.6, "per_kf_no_cook": 0.1, "per_hh_banking": 65.6, "per_hh_radio": 4.5, "per_hh_tv": 39.3, "per_hh_cmp_int": 0.7, "per_hh_cmp_wnt": 0.0, "per_hh_ph_ll": 1.5, "per_hh_ph_mob": 49.0, "per_hh_ph_bth": 2.1, "per_hh_bcycl": 65.6, "per_hh_2wheel": 13.8, "per_hh_4wheel": 1.1, "per_hh_tvcomp": 0.1, "per_hh_no_ast": 23.8, "per_hs_perma": 54.1, "per_hs_sperma": 25.2, "per_hs_temp": 20.7, "per_hs_servc": 5.9, "per_hs_nservc": 14.7, "per_hs_unclss": 0.0, "avghhsz_cy": 4.21974965, "st_areashape": 3553047.635040075, "st_lengthshape": 9852.78127455519}, "geometry": {"type": "Polygon", "coordinates": [[[85.32985176998281, 20.394803044894893], [85.3296076510077, 20.3948621753957], [85.3279063020467, 20.39447304414683], [85.32542672997869, 20.393246590871808], [85.32587689193724, 20.391610114881313], [85.32663986793895, 20.389868733230895], [85.32679245307817, 20.38861558779925], [85.32760874229538, 20.388159749587377], [85.32773081885091, 20.387928966616652], [85.3283945876076, 20.387349111047506], [85.32851666326484, 20.387118327705316], [85.3289973472818, 20.386771243896558], [85.32960005126043, 20.38590530558026], [85.33001968936394, 20.385500961066956], [85.33079785767373, 20.38365661779802], [85.331499838966, 20.380894749386723], [85.33155319979218, 20.37968931433568], [85.33094288079488, 20.379176267726958], [85.32881422840607, 20.37879090987095], [85.32826496700032, 20.378909135133895], [85.32717397386753, 20.378861472835727], [85.32680779899817, 20.37846280829209], [85.32655594912173, 20.37754538380956], [85.32660179823552, 20.37513256139554], [85.32707490136981, 20.367880868310657], [85.32867700355989, 20.367993464585297], [85.33668783880218, 20.368174818852403], [85.3416698603336, 20.369035086341647], [85.33996081730221, 20.375434182366494], [85.33936567444331, 20.376528982386056], [85.33912922438581, 20.37721947409169], [85.33798479227342, 20.378434375040253], [85.33713796662474, 20.378613685910068], [85.33713788487808, 20.379128646773697], [85.33732103968637, 20.37924308996003], [85.33828990775459, 20.379235515377214], [85.33860271461126, 20.379922108747287], [85.33836625467228, 20.38061260210467], [85.33802294372352, 20.38337061469846], [85.33812203418758, 20.387963448178933], [85.33789318836894, 20.39003294922007], [85.33804572679578, 20.390814986061226], [85.33657327665401, 20.391070473893624], [85.33650457439938, 20.390732870084825], [85.33601635261888, 20.390620399030862], [85.33577214291394, 20.390679448617902], [85.33432262406643, 20.39137940864811], [85.33383428640326, 20.391499619849156], [85.33335364011555, 20.391789490420926], [85.33262124186777, 20.392026059855915], [85.33087414620093, 20.393588133990452], [85.33069858844495, 20.394049650644106], [85.33033238213453, 20.39445595818165], [85.32985176998281, 20.394803044894893]]]}}]}