{"type": "FeatureCollection", "features": [{"type": "Feature", "properties": {"premiumdata.sde.IN_Village_PCA.area": 5.44999667, "objectid": 340455, "id": "9156846395596", "name": "Jahangirpur", "subdistrict": "Bhognipur", "district": "Kanpur Dehat", "state": "Uttar Pradesh", "country": "India", "censusname": "Jahangirpur", "villagename_locallang": null, "lgd_villagename": "Jahangirpur", "lgd_villagecode": 149564, "lgd_subdistrictcode": 846, "lgd_districtcode": 156, "lgd_statecode": 9, "censuscode2001": "04245200", "censuscode2011": "149564", "censuscode2021": null, "level": "Village", "tru": "Rural", "no_hh": 719, "tot_p": 3775, "tot_m": 2076, "tot_f": 1699, "per_tot_m": 54.99337748, "per_tot_f": 45.00662252, "p_06": 581, "m_06": 329, "f_06": 252, "per_p_06": 15.39072848, "per_m_06": 56.62650602, "per_f_06": 43.37349398, "p_sc": 1533, "m_sc": 853, "f_sc": 680, "per_p_sc": 40.60927152, "per_m_sc": 55.64253098, "per_f_sc": 44.35746902, "p_st": 0, "m_st": 0, "f_st": 0, "per_p_st": 0.0, "per_m_st": 0.0, "per_f_st": 0.0, "p_lit": 2379, "m_lit": 1450, "f_lit": 929, "per_p_lit": 63.01986755, "per_m_lit": 60.94997898, "per_f_lit": 39.05002102, "p_ill": 1396, "m_ill": 626, "f_ill": 770, "per_p_ill": 36.98013245, "per_m_ill": 44.84240688, "per_f_ill": 55.15759312, "tot_work_p": 1058, "tot_work_m": 906, "tot_work_f": 152, "per_tot_work_p": 28.02649007, "per_tot_work_m": 85.63327032000001, "per_tot_work_f": 14.36672968, "mainwork_p": 877, "mainwork_m": 755, "mainwork_f": 122, "per_mainwork_p": 23.23178808, "per_mainwork_m": 86.08893957, "per_mainwork_f": 13.91106043, "main_cl_p": 314, "main_cl_m": 290, "main_cl_f": 24, "per_main_cl_p": 35.80387685, "per_main_cl_m": 92.3566879, "per_main_cl_f": 7.6433121, "main_al_p": 460, "main_al_m": 379, "main_al_f": 81, "per_main_al_p": 52.45153934, "per_main_al_m": 82.39130435, "per_main_al_f": 17.60869565, "main_hh_p": 4, "main_hh_m": 4, "main_hh_f": 0, "per_main_hh_p": 0.45610034, "per_main_hh_m": 100.0, "per_main_hh_f": 0.0, "main_ot_p": 99, "main_ot_m": 82, "main_ot_f": 17, "per_main_ot_p": 11.28848347, "per_main_ot_m": 82.82828283, "per_main_ot_f": 17.17171717, "margwork_p": 181, "margwork_m": 151, "margwork_f": 30, "per_margwork_p": 4.79470199, "per_margwork_m": 83.42541436, "per_margwork_f": 16.57458564, "marg_cl_p": 41, "marg_cl_m": 36, "marg_cl_f": 5, "per_marg_cl_p": 22.6519337, "per_marg_cl_m": 87.80487805, "per_marg_cl_f": 12.19512195, "marg_al_p": 126, "marg_al_m": 103, "marg_al_f": 23, "per_marg_al_p": 69.61325967, "per_marg_al_m": 81.74603175, "per_marg_al_f": 18.25396825, "marg_hh_p": 0, "marg_hh_m": 0, "marg_hh_f": 0, "per_marg_hh_p": 0.0, "per_marg_hh_m": 0.0, "per_marg_hh_f": 0.0, "marg_ot_p": 14, "marg_ot_m": 12, "marg_ot_f": 2, "per_marg_ot_p": 7.73480663, "per_marg_ot_m": 85.71428571, "per_marg_ot_f": 14.28571429, "margwork_3_6_p": 160, "margwork_3_6_m": 147, "margwork_3_6_f": 13, "per_margwork_3_6_p": 88.39779006, "per_margwork_3_6_m": 91.875, "per_margwork_3_6_f": 8.125, "marg_cl_3_6_p": 39, "marg_cl_3_6_m": 35, "marg_cl_3_6_f": 4, "per_marg_cl_3_6_p": 21.54696133, "per_marg_cl_3_6_m": 89.74358974, "per_marg_cl_3_6_f": 10.25641026, "marg_al_3_6_p": 107, "marg_al_3_6_m": 100, "marg_al_3_6_f": 7, "per_marg_al_3_6_p": 59.1160221, "per_marg_al_3_6_m": 93.45794393, "per_marg_al_3_6_f": 6.54205607, "marg_hh_3_6_p": 0, "marg_hh_3_6_m": 0, "marg_hh_3_6_f": 0, "per_marg_hh_3_6_p": 0.0, "per_marg_hh_3_6_m": 0.0, "per_marg_hh_3_6_f": 0.0, "marg_ot_3_6_p": 14, "marg_ot_3_6_m": 12, "marg_ot_3_6_f": 2, "per_marg_ot_3_6_p": 7.73480663, "per_marg_ot_3_6_m": 85.71428571, "per_marg_ot_3_6_f": 14.28571429, "margwork_0_3_p": 21, "margwork_0_3_m": 4, "margwork_0_3_f": 17, "per_margwork_0_3_p": 11.60220994, "per_margwork_0_3_m": 19.04761905, "per_margwork_0_3_f": 80.95238095, "marg_cl_0_3_p": 2, "marg_cl_0_3_m": 1, "marg_cl_0_3_f": 1, "per_marg_cl_0_3_p": 1.10497238, "per_marg_cl_0_3_m": 50.0, "per_marg_cl_0_3_f": 50.0, "marg_al_0_3_p": 19, "marg_al_0_3_m": 3, "marg_al_0_3_f": 16, "per_marg_al_0_3_p": 10.49723757, "per_marg_al_0_3_m": 15.78947368, "per_marg_al_0_3_f": 84.21052632, "marg_hh_0_3_p": 0, "marg_hh_0_3_m": 0, "marg_hh_0_3_f": 0, "per_marg_hh_0_3_p": 0.0, "per_marg_hh_0_3_m": 0.0, "per_marg_hh_0_3_f": 0.0, "marg_ot_0_3_p": 0, "marg_ot_0_3_m": 0, "marg_ot_0_3_f": 0, "per_marg_ot_0_3_p": 0.0, "per_marg_ot_0_3_m": 0.0, "per_marg_ot_0_3_f": 0.0, "non_work_p": 2717, "non_work_m": 1170, "non_work_f": 1547, "per_non_work_p": 71.97350993, "per_non_work_m": 43.06220096, "per_non_work_f": 56.93779904, "per_hc_tot_tot": 100, "per_hc_tot_god": 35.1, "per_hc_tot_liv": 62.1, "per_hc_tot_dil": 2.8, "per_hc_res_tot": 99.3, "per_hc_res_god": 34.6, "per_hc_res_liv": 61.9, "per_hc_res_dil": 2.8, "per_hc_oth_tot": 0.7, "per_hc_oth_god": 0.6, "per_hc_oth_liv": 0.1, "per_hc_oth_dil": 0.0, "per_mt_grsbam": 47.5, "per_mt_plastic": 0.1, "per_mt_h_tiles": 0.1, "per_mt_m_tiles": 0.8, "per_mt_b_brick": 4.0, "per_mt_stone": 2.2, "per_mt_asbstos": 2.2, "per_mt_concrte": 42.2, "per_mt_oth": 0.7, "per_mw_grsbam": 2.8, "per_mw_plastic": 0.3, "per_mw_mud": 15.0, "per_mw_wood": 0.1, "per_mw_no_mrtr": 0.1, "per_mw_st_mrtr": 2.5, "per_mw_asbstos": 0.0, "per_mw_b_brick": 74.2, "per_mw_concrte": 0.4, "per_mw_oth": 4.6, "per_mf_mud": 90.7, "per_mf_wood": 0.0, "per_mf_b_brick": 0.3, "per_mf_stone": 0.1, "per_mf_cement": 8.9, "per_mf_fl_tile": 0.0, "per_mf_oth": 0.0, "per_dw_n_exrm": 3.1, "per_dw_1_room": 37.9, "per_dw_2_room": 29.6, "per_dw_3_room": 15.0, "per_dw_4_room": 9.0, "per_dw_5_room": 3.2, "per_dw_6_room": 2.2, "per_hhsize_1": 4.0, "per_hhsize_2": 10.6, "per_hhsize_3": 9.9, "per_hhsize_4": 16.8, "per_hhsize_5": 18.6, "per_hhsize_6_8": 32.8, "per_hhsize_9p": 7.4, "per_ow_owned": 99.3, "per_ow_rented": 0.3, "per_ow_oth": 0.4, "per_mc_none": 10.4, "per_mcouple_1": 74.0, "per_mcouple_2": 12.1, "per_mcouple_3": 2.5, "per_mcouple_4": 0.6, "per_mcouple_5p": 0.4, "per_dw_t_ts": 2.4, "per_dw_t_unts": 0.1, "per_dw_c_well": 0.4, "per_dw_unc_wel": 6.8, "per_dw_hpump": 90.3, "per_dw_tw_bore": 0.0, "per_dw_spring": 0.0, "per_dw_rivcan": 0.0, "per_dw_tank": 0.0, "per_dw_oth": 0.0, "per_loc_dw_wp": 8.6, "per_loc_dw_np": 66.7, "per_loc_dw_aw": 24.7, "per_light_elec": 5.4, "per_light_kero": 90.4, "per_light_solr": 3.9, "per_light_oil": 0.0, "per_light_oth": 0.3, "per_light_no": 0.0, "per_hh_latrine": 35.1, "per_fl_sewer": 3.5, "per_fl_septict": 19.2, "per_fl_othsys": 1.0, "per_pl_wslab": 11.4, "per_pl_without": 0.0, "per_ns_open": 0.0, "per_sl_ns_hum": 0.0, "per_sl_ns_anml": 0.1, "per_hh_no_lat": 64.9, "per_as_pub": 0.3, "per_as_open": 64.6, "per_hh_bathrm": 18.2, "per_hh_en_wrf": 37.6, "per_hh_no_btrm": 44.2, "per_wwoc_drain": 0.6, "per_wwoc_open": 66.2, "per_wwoc_nodrn": 33.2, "per_cook_fire": 26.9, "per_cook_resdu": 29.9, "per_cook_cwdng": 40.3, "per_cook_coal": 0.0, "per_cook_kero": 0.3, "per_cook_lpng": 2.6, "per_cook_elec": 0.0, "per_cook_biogs": 0.0, "per_cook_oth": 0.0, "per_cook_no": 0.0, "per_kf_inside": 93.5, "per_kf_in_has": 6.9, "per_kf_in_does": 86.5, "per_kf_outside": 6.5, "per_kf_out_has": 3.5, "per_kf_out_dos": 3.1, "per_kf_no_cook": 0.0, "per_hh_banking": 86.4, "per_hh_radio": 23.1, "per_hh_tv": 13.5, "per_hh_cmp_int": 0.7, "per_hh_cmp_wnt": 5.4, "per_hh_ph_ll": 8.2, "per_hh_ph_mob": 42.9, "per_hh_ph_bth": 0.6, "per_hh_bcycl": 68.1, "per_hh_2wheel": 12.4, "per_hh_4wheel": 3.5, "per_hh_tvcomp": 0.6, "per_hh_no_ast": 14.0, "per_hs_perma": 48.1, "per_hs_sperma": 29.7, "per_hs_temp": 16.9, "per_hs_servc": 14.0, "per_hs_nservc": 2.9, "per_hs_unclss": 5.3, "avghhsz_cy": 5.25034771, "st_areashape": 6804066.17297998, "st_lengthshape": 11979.919026754305}, "geometry": {"type": "Polygon", "coordinates": [[[79.76316315162771, 26.269449823091907], [79.76271765462045, 26.2693818137826], [79.76237738536723, 26.269291246074683], [79.76208192857199, 26.26940383724531], [79.76173644998842, 26.269534469964775], [79.76151601329917, 26.26973740761253], [79.76119531564105, 26.2700891063964], [79.76072454632988, 26.270332404334958], [79.76016400298249, 26.270246274250262], [79.75957350171869, 26.26997953987224], [79.7592532280654, 26.269888995991177], [79.75880783526267, 26.26982088383043], [79.75829226966326, 26.269797916357323], [79.75772660232549, 26.26988772727116], [79.75679594499616, 26.26942214313786], [79.7561308206817, 26.26886646195165], [79.75578578317095, 26.268446491831543], [79.75519573825133, 26.26784576200529], [79.75397029426999, 26.26700073785463], [79.75310974326209, 26.26664800987661], [79.75232420427537, 26.266335959256914], [79.75158842926044, 26.26624501216984], [79.75094776068127, 26.266244537693915], [79.75048225819262, 26.26624406805138], [79.74994194400709, 26.265999911675124], [79.74935181913739, 26.26551201869368], [79.74854814226678, 26.26509395772306], [79.74639844684242, 26.26453462832206], [79.74450998689257, 26.263490319802028], [79.74328057684924, 26.262694963006513], [79.74286383132095, 26.262198408130708], [79.74170080767543, 26.261224706889664], [79.7411743284436, 26.260668452356555], [79.74023086293498, 26.25979425974208], [79.739704921794, 26.258980179373776], [79.74003712687092, 26.257804117353615], [79.740347441801, 26.256554985784625], [79.74067946182494, 26.255464464290625], [79.74096692361415, 26.254661581003734], [79.74129913497927, 26.253471900047376], [79.74189613196093, 26.251786787001816], [79.74302344398063, 26.248783351049898], [79.74848309076546, 26.24484664184214], [79.75256538396282, 26.24770738632769], [79.7540336551419, 26.247787719271525], [79.75528494006073, 26.248413052140542], [79.75692427292775, 26.24935061570691], [79.75782617069322, 26.250432162212245], [79.75786099388525, 26.250572120157354], [79.75815564758662, 26.25123585461505], [79.75891534383926, 26.252278906929245], [79.75950527377454, 26.252857093698818], [79.76009555135784, 26.25325472227346], [79.7605108784463, 26.25327762212138], [79.76112665830223, 26.25307952185206], [79.76188758973834, 26.25288155176096], [79.7624784817693, 26.25257064121349], [79.76304437907581, 26.25225968874531], [79.76382994680863, 26.25241375800219], [79.76444569342685, 26.252283343691555], [79.76506147867265, 26.252130393323075], [79.76550189840195, 26.252153316756768], [79.76604228894425, 26.252284561041773], [79.76668272485975, 26.252483652013854], [79.76729822713622, 26.25259697570991], [79.76781363014061, 26.25272817679395], [79.76837908996755, 26.252818887130736], [79.7695803890307, 26.252666329016172], [79.77029626726039, 26.252441208369884], [79.77140282640043, 26.2519320703463], [79.77164835303556, 26.251647932667083], [79.77206405112824, 26.2512916566347], [79.77233451409734, 26.250980513022633], [79.77253488062654, 26.250849733746566], [79.77270518503472, 26.250646796928578], [79.77292554267224, 26.25051604466967], [79.77310074469534, 26.250425976266346], [79.7732209114326, 26.25036516819113], [79.77322246372142, 26.250364335931977], [79.77410725486894, 26.249890089052574], [79.77473749400764, 26.25031880981733], [79.77559725809135, 26.251492815031224], [79.77628674561461, 26.252982524396643], [79.77662654415063, 26.253555963192508], [79.77667634944493, 26.253889924708837], [79.77670106120009, 26.254223943271505], [79.77667575655686, 26.254575918652172], [79.77542913299601, 26.255030898063364], [79.77437228392887, 26.25591918886382], [79.77356058240782, 26.256961160674308], [79.77294470283893, 26.25727207719416], [79.77257415586907, 26.2574703966934], [79.77213346395025, 26.257758938154662], [79.77164266400489, 26.258002241790216], [79.77097696387032, 26.25804688515813], [79.77009112708382, 26.25797852194779], [79.76977076000573, 26.25806404886291], [79.76945520879586, 26.258307513788296], [79.76893438895031, 26.258618554796723], [79.76795278366968, 26.259263163207258], [79.76763217314819, 26.25959234233783], [79.76726122283472, 26.260169699989326], [79.76716568161439, 26.26070221667971], [79.76681966404168, 26.261365335781804], [79.76622847556666, 26.261987706710944], [79.76558713774263, 26.26269572509127], [79.76507101878096, 26.263318112251923], [79.76484986793106, 26.26424769712444], [79.76414821093061, 26.2652354197208], [79.76380215562865, 26.265903128818053], [79.76373171693062, 26.266367890086478], [79.76355595705368, 26.26696346877415], [79.76346029366245, 26.267495979280305], [79.76328468829578, 26.26789747995995], [79.76313920793214, 26.268226823111753], [79.76306384916127, 26.268538150907677], [79.76308861212038, 26.268827005612916], [79.76316338339305, 26.26916100699134], [79.76316315162771, 26.269449823091907]]]}}]}