{"type": "FeatureCollection", "features": [{"type": "Feature", "properties": {"premiumdata.sde.IN_Village_PCA.area": 2.56460116, "objectid": 340532, "id": "9156846396840", "name": "Saidalipur", "subdistrict": "Bhognipur", "district": "Kanpur Dehat", "state": "Uttar Pradesh", "country": "India", "censusname": "Saidalipur", "villagename_locallang": null, "lgd_villagename": "Saidalipur", "lgd_villagecode": 149473, "lgd_subdistrictcode": 846, "lgd_districtcode": 156, "lgd_statecode": 9, "censuscode2001": "04236100", "censuscode2011": "149473", "censuscode2021": null, "level": "Village", "tru": "Rural", "no_hh": 179, "tot_p": 824, "tot_m": 453, "tot_f": 371, "per_tot_m": 54.97572816, "per_tot_f": 45.02427184, "p_06": 94, "m_06": 52, "f_06": 42, "per_p_06": 11.40776699, "per_m_06": 55.31914894, "per_f_06": 44.68085106, "p_sc": 349, "m_sc": 200, "f_sc": 149, "per_p_sc": 42.35436893, "per_m_sc": 57.30659026, "per_f_sc": 42.69340974, "p_st": 1, "m_st": 0, "f_st": 1, "per_p_st": 0.12135922, "per_m_st": 0.0, "per_f_st": 100.0, "p_lit": 587, "m_lit": 354, "f_lit": 233, "per_p_lit": 71.23786408, "per_m_lit": 60.30664395, "per_f_lit": 39.69335605, "p_ill": 237, "m_ill": 99, "f_ill": 138, "per_p_ill": 28.76213592, "per_m_ill": 41.7721519, "per_f_ill": 58.2278481, "tot_work_p": 425, "tot_work_m": 249, "tot_work_f": 176, "per_tot_work_p": 51.5776699, "per_tot_work_m": 58.58823529, "per_tot_work_f": 41.41176471, "mainwork_p": 31, "mainwork_m": 20, "mainwork_f": 11, "per_mainwork_p": 3.76213592, "per_mainwork_m": 64.51612902999999, "per_mainwork_f": 35.48387097000001, "main_cl_p": 10, "main_cl_m": 8, "main_cl_f": 2, "per_main_cl_p": 32.25806452, "per_main_cl_m": 80.0, "per_main_cl_f": 20.0, "main_al_p": 10, "main_al_m": 6, "main_al_f": 4, "per_main_al_p": 32.25806452, "per_main_al_m": 60.0, "per_main_al_f": 40.0, "main_hh_p": 1, "main_hh_m": 1, "main_hh_f": 0, "per_main_hh_p": 3.22580645, "per_main_hh_m": 100.0, "per_main_hh_f": 0.0, "main_ot_p": 10, "main_ot_m": 5, "main_ot_f": 5, "per_main_ot_p": 32.25806452, "per_main_ot_m": 50.0, "per_main_ot_f": 50.0, "margwork_p": 394, "margwork_m": 229, "margwork_f": 165, "per_margwork_p": 47.81553398, "per_margwork_m": 58.12182741, "per_margwork_f": 41.87817259000001, "marg_cl_p": 33, "marg_cl_m": 24, "marg_cl_f": 9, "per_marg_cl_p": 8.37563452, "per_marg_cl_m": 72.72727273, "per_marg_cl_f": 27.27272727, "marg_al_p": 199, "marg_al_m": 114, "marg_al_f": 85, "per_marg_al_p": 50.50761421, "per_marg_al_m": 57.28643216, "per_marg_al_f": 42.71356784, "marg_hh_p": 4, "marg_hh_m": 1, "marg_hh_f": 3, "per_marg_hh_p": 1.01522843, "per_marg_hh_m": 25.0, "per_marg_hh_f": 75.0, "marg_ot_p": 158, "marg_ot_m": 90, "marg_ot_f": 68, "per_marg_ot_p": 40.10152284, "per_marg_ot_m": 56.96202532, "per_marg_ot_f": 43.03797468, "margwork_3_6_p": 190, "margwork_3_6_m": 105, "margwork_3_6_f": 85, "per_margwork_3_6_p": 48.22335025, "per_margwork_3_6_m": 55.26315789, "per_margwork_3_6_f": 44.73684211, "marg_cl_3_6_p": 16, "marg_cl_3_6_m": 12, "marg_cl_3_6_f": 4, "per_marg_cl_3_6_p": 4.06091371, "per_marg_cl_3_6_m": 75.0, "per_marg_cl_3_6_f": 25.0, "marg_al_3_6_p": 138, "marg_al_3_6_m": 75, "marg_al_3_6_f": 63, "per_marg_al_3_6_p": 35.02538071, "per_marg_al_3_6_m": 54.34782609, "per_marg_al_3_6_f": 45.65217391, "marg_hh_3_6_p": 4, "marg_hh_3_6_m": 1, "marg_hh_3_6_f": 3, "per_marg_hh_3_6_p": 1.01522843, "per_marg_hh_3_6_m": 25.0, "per_marg_hh_3_6_f": 75.0, "marg_ot_3_6_p": 32, "marg_ot_3_6_m": 17, "marg_ot_3_6_f": 15, "per_marg_ot_3_6_p": 8.12182741, "per_marg_ot_3_6_m": 53.125, "per_marg_ot_3_6_f": 46.875, "margwork_0_3_p": 204, "margwork_0_3_m": 124, "margwork_0_3_f": 80, "per_margwork_0_3_p": 51.77664975, "per_margwork_0_3_m": 60.78431373, "per_margwork_0_3_f": 39.21568627, "marg_cl_0_3_p": 17, "marg_cl_0_3_m": 12, "marg_cl_0_3_f": 5, "per_marg_cl_0_3_p": 4.31472081, "per_marg_cl_0_3_m": 70.58823529, "per_marg_cl_0_3_f": 29.41176471, "marg_al_0_3_p": 61, "marg_al_0_3_m": 39, "marg_al_0_3_f": 22, "per_marg_al_0_3_p": 15.4822335, "per_marg_al_0_3_m": 63.93442623, "per_marg_al_0_3_f": 36.06557377, "marg_hh_0_3_p": 0, "marg_hh_0_3_m": 0, "marg_hh_0_3_f": 0, "per_marg_hh_0_3_p": 0.0, "per_marg_hh_0_3_m": 0.0, "per_marg_hh_0_3_f": 0.0, "marg_ot_0_3_p": 126, "marg_ot_0_3_m": 73, "marg_ot_0_3_f": 53, "per_marg_ot_0_3_p": 31.97969543, "per_marg_ot_0_3_m": 57.93650794000001, "per_marg_ot_0_3_f": 42.06349206, "non_work_p": 399, "non_work_m": 204, "non_work_f": 195, "per_non_work_p": 48.4223301, "per_non_work_m": 51.12781955, "per_non_work_f": 48.87218045, "per_hc_tot_tot": 100, "per_hc_tot_god": 25.8, "per_hc_tot_liv": 68.0, "per_hc_tot_dil": 6.2, "per_hc_res_tot": 98.3, "per_hc_res_god": 25.8, "per_hc_res_liv": 66.3, "per_hc_res_dil": 6.2, "per_hc_oth_tot": 1.7, "per_hc_oth_god": 0.0, "per_hc_oth_liv": 1.7, "per_hc_oth_dil": 0.0, "per_mt_grsbam": 61.8, "per_mt_plastic": 0.6, "per_mt_h_tiles": 1.1, "per_mt_m_tiles": 0.0, "per_mt_b_brick": 5.6, "per_mt_stone": 6.7, "per_mt_asbstos": 2.8, "per_mt_concrte": 21.3, "per_mt_oth": 0.0, "per_mw_grsbam": 14.6, "per_mw_plastic": 0.0, "per_mw_mud": 25.3, "per_mw_wood": 0.0, "per_mw_no_mrtr": 0.6, "per_mw_st_mrtr": 0.0, "per_mw_asbstos": 0.0, "per_mw_b_brick": 56.2, "per_mw_concrte": 1.1, "per_mw_oth": 2.2, "per_mf_mud": 91.6, "per_mf_wood": 0.0, "per_mf_b_brick": 0.6, "per_mf_stone": 0.0, "per_mf_cement": 7.9, "per_mf_fl_tile": 0.0, "per_mf_oth": 0.0, "per_dw_n_exrm": 1.1, "per_dw_1_room": 27.0, "per_dw_2_room": 34.8, "per_dw_3_room": 13.5, "per_dw_4_room": 17.4, "per_dw_5_room": 2.2, "per_dw_6_room": 3.9, "per_hhsize_1": 4.5, "per_hhsize_2": 7.9, "per_hhsize_3": 14.0, "per_hhsize_4": 19.7, "per_hhsize_5": 20.2, "per_hhsize_6_8": 29.8, "per_hhsize_9p": 3.9, "per_ow_owned": 100.0, "per_ow_rented": 0.0, "per_ow_oth": 0.0, "per_mc_none": 5.6, "per_mcouple_1": 69.1, "per_mcouple_2": 23.0, "per_mcouple_3": 1.7, "per_mcouple_4": 0.6, "per_mcouple_5p": 0.0, "per_dw_t_ts": 1.1, "per_dw_t_unts": 24.7, "per_dw_c_well": 0.0, "per_dw_unc_wel": 0.6, "per_dw_hpump": 71.9, "per_dw_tw_bore": 1.1, "per_dw_spring": 0.0, "per_dw_rivcan": 0.0, "per_dw_tank": 0.0, "per_dw_oth": 0.6, "per_loc_dw_wp": 12.4, "per_loc_dw_np": 20.8, "per_loc_dw_aw": 66.9, "per_light_elec": 1.7, "per_light_kero": 92.1, "per_light_solr": 4.5, "per_light_oil": 0.0, "per_light_oth": 1.7, "per_light_no": 0.0, "per_hh_latrine": 24.2, "per_fl_sewer": 0.0, "per_fl_septict": 14.0, "per_fl_othsys": 0.6, "per_pl_wslab": 9.6, "per_pl_without": 0.0, "per_ns_open": 0.0, "per_sl_ns_hum": 0.0, "per_sl_ns_anml": 0.0, "per_hh_no_lat": 75.8, "per_as_pub": 2.8, "per_as_open": 73.0, "per_hh_bathrm": 20.2, "per_hh_en_wrf": 23.6, "per_hh_no_btrm": 56.2, "per_wwoc_drain": 5.1, "per_wwoc_open": 50.0, "per_wwoc_nodrn": 44.9, "per_cook_fire": 88.2, "per_cook_resdu": 1.7, "per_cook_cwdng": 0.0, "per_cook_coal": 0.0, "per_cook_kero": 0.0, "per_cook_lpng": 8.4, "per_cook_elec": 0.0, "per_cook_biogs": 0.6, "per_cook_oth": 0.6, "per_cook_no": 0.6, "per_kf_inside": 93.3, "per_kf_in_has": 52.2, "per_kf_in_does": 41.0, "per_kf_outside": 6.2, "per_kf_out_has": 6.2, "per_kf_out_dos": 0.0, "per_kf_no_cook": 0.6, "per_hh_banking": 83.1, "per_hh_radio": 26.4, "per_hh_tv": 11.2, "per_hh_cmp_int": 1.7, "per_hh_cmp_wnt": 4.5, "per_hh_ph_ll": 1.7, "per_hh_ph_mob": 44.4, "per_hh_ph_bth": 1.1, "per_hh_bcycl": 62.9, "per_hh_2wheel": 17.4, "per_hh_4wheel": 1.1, "per_hh_tvcomp": 0.6, "per_hh_no_ast": 23.6, "per_hs_perma": 34.8, "per_hs_sperma": 25.3, "per_hs_temp": 37.6, "per_hs_servc": 23.0, "per_hs_nservc": 14.6, "per_hs_unclss": 2.2, "avghhsz_cy": 4.60335196, "st_areashape": 3204342.036720815, "st_lengthshape": 7905.04596586778}, "geometry": {"type": "Polygon", "coordinates": [[[79.86135367892989, 26.302194131652435], [79.86413453157117, 26.299829001367566], [79.86527539467696, 26.29861445631887], [79.86731834599105, 26.29825539461189], [79.8682697193691, 26.297438620358196], [79.8693762767125, 26.296928714083528], [79.87032757642874, 26.296662412312504], [79.87134393573106, 26.29603063797513], [79.87209001711723, 26.295972022610176], [79.87268081662172, 26.295990080288497], [79.8732465297736, 26.296093925977875], [79.87374218511304, 26.295949467018126], [79.87410270957929, 26.29572837092422], [79.87464846126721, 26.2952771123368], [79.87589011534787, 26.29483027504893], [79.87677623600202, 26.294297787698994], [79.87787770079609, 26.293607264722482], [79.87794282955247, 26.294216485864773], [79.87812307831088, 26.295556836170654], [79.87846365388961, 26.297303390730853], [79.87879909020657, 26.298567058194926], [79.8787090089465, 26.299722316210847], [79.87843868521628, 26.30080099837115], [79.87837364539307, 26.302123302005132], [79.87857399036267, 26.303057488367195], [79.87889444367906, 26.304853591598892], [79.87900467594754, 26.305584709845174], [79.87911983188212, 26.306397049184906], [79.87959058412531, 26.307371820047887], [79.88020149960396, 26.308084930233363], [79.8809225997404, 26.30883849985179], [79.88155353687009, 26.309547020686868], [79.88227464239641, 26.310422544791113], [79.88350159105589, 26.31179447707091], [79.8824900727746, 26.311753884637547], [79.8812482578955, 26.311672731937932], [79.87994133312465, 26.311916470896577], [79.87840406234858, 26.312060868085133], [79.87783820816121, 26.31191647975428], [79.877092029757, 26.311875877700693], [79.87661636372923, 26.31197510960347], [79.876140636616, 26.312345211351627], [79.87589526628773, 26.312692683891072], [79.8756650047242, 26.3131395038586], [79.87530441468095, 26.313586310829756], [79.87473858564641, 26.314141391272972], [79.87176405083997, 26.312996410082814], [79.86855537464632, 26.310184079537258], [79.86541800222832, 26.306604650961223], [79.86135367892989, 26.302194131652435]]]}}]}