{"type": "FeatureCollection", "features": [{"type": "Feature", "properties": {"premiumdata.sde.IN_Village_PCA.area": 7.17264019, "objectid": 123383, "id": "226363379268844", "name": "Eramangi", "subdistrict": "Bhairamgarh", "district": "Bijapur", "state": "Chhattisgarh", "country": "India", "censusname": "Eramangi", "villagename_locallang": "\u0907\u0930\u093e\u092e\u093e\u0902\u0917\u0940", "lgd_villagename": "Eramangi", "lgd_villagecode": 451354, "lgd_subdistrictcode": 3379, "lgd_districtcode": 636, "lgd_statecode": 22, "censuscode2001": "01966600", "censuscode2011": "451354", "censuscode2021": null, "level": "Village", "tru": "Rural", "no_hh": 76, "tot_p": 329, "tot_m": 159, "tot_f": 170, "per_tot_m": 48.32826748, "per_tot_f": 51.67173252, "p_06": 74, "m_06": 42, "f_06": 32, "per_p_06": 22.49240122, "per_m_06": 56.75675676, "per_f_06": 43.24324324, "p_sc": 0, "m_sc": 0, "f_sc": 0, "per_p_sc": 0.0, "per_m_sc": 0.0, "per_f_sc": 0.0, "p_st": 326, "m_st": 158, "f_st": 168, "per_p_st": 99.0881459, "per_m_st": 48.46625767, "per_f_st": 51.53374233, "p_lit": 118, "m_lit": 72, "f_lit": 46, "per_p_lit": 35.8662614, "per_m_lit": 61.01694915, "per_f_lit": 38.98305085, "p_ill": 211, "m_ill": 87, "f_ill": 124, "per_p_ill": 64.1337386, "per_m_ill": 41.23222749, "per_f_ill": 58.76777251, "tot_work_p": 195, "tot_work_m": 91, "tot_work_f": 104, "per_tot_work_p": 59.27051672, "per_tot_work_m": 46.66666667000001, "per_tot_work_f": 53.33333333, "mainwork_p": 191, "mainwork_m": 89, "mainwork_f": 102, "per_mainwork_p": 58.05471125, "per_mainwork_m": 46.59685864, "per_mainwork_f": 53.40314136, "main_cl_p": 183, "main_cl_m": 85, "main_cl_f": 98, "per_main_cl_p": 95.81151832, "per_main_cl_m": 46.44808743, "per_main_cl_f": 53.55191257000001, "main_al_p": 0, "main_al_m": 0, "main_al_f": 0, "per_main_al_p": 0.0, "per_main_al_m": 0.0, "per_main_al_f": 0.0, "main_hh_p": 0, "main_hh_m": 0, "main_hh_f": 0, "per_main_hh_p": 0.0, "per_main_hh_m": 0.0, "per_main_hh_f": 0.0, "main_ot_p": 8, "main_ot_m": 4, "main_ot_f": 4, "per_main_ot_p": 4.18848168, "per_main_ot_m": 50.0, "per_main_ot_f": 50.0, "margwork_p": 4, "margwork_m": 2, "margwork_f": 2, "per_margwork_p": 1.21580547, "per_margwork_m": 50.0, "per_margwork_f": 50.0, "marg_cl_p": 0, "marg_cl_m": 0, "marg_cl_f": 0, "per_marg_cl_p": 0.0, "per_marg_cl_m": 0.0, "per_marg_cl_f": 0.0, "marg_al_p": 4, "marg_al_m": 2, "marg_al_f": 2, "per_marg_al_p": 100.0, "per_marg_al_m": 50.0, "per_marg_al_f": 50.0, "marg_hh_p": 0, "marg_hh_m": 0, "marg_hh_f": 0, "per_marg_hh_p": 0.0, "per_marg_hh_m": 0.0, "per_marg_hh_f": 0.0, "marg_ot_p": 0, "marg_ot_m": 0, "marg_ot_f": 0, "per_marg_ot_p": 0.0, "per_marg_ot_m": 0.0, "per_marg_ot_f": 0.0, "margwork_3_6_p": 2, "margwork_3_6_m": 0, "margwork_3_6_f": 2, "per_margwork_3_6_p": 50.0, "per_margwork_3_6_m": 0.0, "per_margwork_3_6_f": 100.0, "marg_cl_3_6_p": 0, "marg_cl_3_6_m": 0, "marg_cl_3_6_f": 0, "per_marg_cl_3_6_p": 0.0, "per_marg_cl_3_6_m": 0.0, "per_marg_cl_3_6_f": 0.0, "marg_al_3_6_p": 2, "marg_al_3_6_m": 0, "marg_al_3_6_f": 2, "per_marg_al_3_6_p": 50.0, "per_marg_al_3_6_m": 0.0, "per_marg_al_3_6_f": 100.0, "marg_hh_3_6_p": 0, "marg_hh_3_6_m": 0, "marg_hh_3_6_f": 0, "per_marg_hh_3_6_p": 0.0, "per_marg_hh_3_6_m": 0.0, "per_marg_hh_3_6_f": 0.0, "marg_ot_3_6_p": 0, "marg_ot_3_6_m": 0, "marg_ot_3_6_f": 0, "per_marg_ot_3_6_p": 0.0, "per_marg_ot_3_6_m": 0.0, "per_marg_ot_3_6_f": 0.0, "margwork_0_3_p": 2, "margwork_0_3_m": 2, "margwork_0_3_f": 0, "per_margwork_0_3_p": 50.0, "per_margwork_0_3_m": 100.0, "per_margwork_0_3_f": 0.0, "marg_cl_0_3_p": 0, "marg_cl_0_3_m": 0, "marg_cl_0_3_f": 0, "per_marg_cl_0_3_p": 0.0, "per_marg_cl_0_3_m": 0.0, "per_marg_cl_0_3_f": 0.0, "marg_al_0_3_p": 2, "marg_al_0_3_m": 2, "marg_al_0_3_f": 0, "per_marg_al_0_3_p": 50.0, "per_marg_al_0_3_m": 100.0, "per_marg_al_0_3_f": 0.0, "marg_hh_0_3_p": 0, "marg_hh_0_3_m": 0, "marg_hh_0_3_f": 0, "per_marg_hh_0_3_p": 0.0, "per_marg_hh_0_3_m": 0.0, "per_marg_hh_0_3_f": 0.0, "marg_ot_0_3_p": 0, "marg_ot_0_3_m": 0, "marg_ot_0_3_f": 0, "per_marg_ot_0_3_p": 0.0, "per_marg_ot_0_3_m": 0.0, "per_marg_ot_0_3_f": 0.0, "non_work_p": 134, "non_work_m": 68, "non_work_f": 66, "per_non_work_p": 40.72948328, "per_non_work_m": 50.74626866, "per_non_work_f": 49.25373134, "per_hc_tot_tot": 100, "per_hc_tot_god": 13.2, "per_hc_tot_liv": 65.8, "per_hc_tot_dil": 21.1, "per_hc_res_tot": 100.0, "per_hc_res_god": 13.2, "per_hc_res_liv": 65.8, "per_hc_res_dil": 21.1, "per_hc_oth_tot": 0.0, "per_hc_oth_god": 0.0, "per_hc_oth_liv": 0.0, "per_hc_oth_dil": 0.0, "per_mt_grsbam": 22.4, "per_mt_plastic": 0.0, "per_mt_h_tiles": 32.9, "per_mt_m_tiles": 2.6, "per_mt_b_brick": 1.3, "per_mt_stone": 40.8, "per_mt_asbstos": 0.0, "per_mt_concrte": 0.0, "per_mt_oth": 0.0, "per_mw_grsbam": 42.1, "per_mw_plastic": 0.0, "per_mw_mud": 56.6, "per_mw_wood": 1.3, "per_mw_no_mrtr": 0.0, "per_mw_st_mrtr": 0.0, "per_mw_asbstos": 0.0, "per_mw_b_brick": 0.0, "per_mw_concrte": 0.0, "per_mw_oth": 0.0, "per_mf_mud": 98.7, "per_mf_wood": 0.0, "per_mf_b_brick": 0.0, "per_mf_stone": 0.0, "per_mf_cement": 0.0, "per_mf_fl_tile": 1.3, "per_mf_oth": 0.0, "per_dw_n_exrm": 3.9, "per_dw_1_room": 38.2, "per_dw_2_room": 50.0, "per_dw_3_room": 2.6, "per_dw_4_room": 3.9, "per_dw_5_room": 1.3, "per_dw_6_room": 0.0, "per_hhsize_1": 10.5, "per_hhsize_2": 7.9, "per_hhsize_3": 11.8, "per_hhsize_4": 18.4, "per_hhsize_5": 19.7, "per_hhsize_6_8": 23.7, "per_hhsize_9p": 7.9, "per_ow_owned": 98.7, "per_ow_rented": 0.0, "per_ow_oth": 1.3, "per_mc_none": 21.1, "per_mcouple_1": 59.2, "per_mcouple_2": 17.1, "per_mcouple_3": 2.6, "per_mcouple_4": 0.0, "per_mcouple_5p": 0.0, "per_dw_t_ts": 0.0, "per_dw_t_unts": 0.0, "per_dw_c_well": 1.3, "per_dw_unc_wel": 0.0, "per_dw_hpump": 98.7, "per_dw_tw_bore": 0.0, "per_dw_spring": 0.0, "per_dw_rivcan": 0.0, "per_dw_tank": 0.0, "per_dw_oth": 0.0, "per_loc_dw_wp": 14.5, "per_loc_dw_np": 47.4, "per_loc_dw_aw": 38.2, "per_light_elec": 1.3, "per_light_kero": 93.4, "per_light_solr": 3.9, "per_light_oil": 0.0, "per_light_oth": 0.0, "per_light_no": 1.3, "per_hh_latrine": 6.6, "per_fl_sewer": 3.9, "per_fl_septict": 0.0, "per_fl_othsys": 0.0, "per_pl_wslab": 2.6, "per_pl_without": 0.0, "per_ns_open": 0.0, "per_sl_ns_hum": 0.0, "per_sl_ns_anml": 0.0, "per_hh_no_lat": 93.4, "per_as_pub": 92.1, "per_as_open": 1.3, "per_hh_bathrm": 0.0, "per_hh_en_wrf": 31.6, "per_hh_no_btrm": 68.4, "per_wwoc_drain": 0.0, "per_wwoc_open": 0.0, "per_wwoc_nodrn": 100.0, "per_cook_fire": 100.0, "per_cook_resdu": 0.0, "per_cook_cwdng": 0.0, "per_cook_coal": 0.0, "per_cook_kero": 0.0, "per_cook_lpng": 0.0, "per_cook_elec": 0.0, "per_cook_biogs": 0.0, "per_cook_oth": 0.0, "per_cook_no": 0.0, "per_kf_inside": 88.2, "per_kf_in_has": 82.9, "per_kf_in_does": 5.3, "per_kf_outside": 11.8, "per_kf_out_has": 2.6, "per_kf_out_dos": 9.2, "per_kf_no_cook": 0.0, "per_hh_banking": 19.7, "per_hh_radio": 10.5, "per_hh_tv": 5.3, "per_hh_cmp_int": 0.0, "per_hh_cmp_wnt": 13.2, "per_hh_ph_ll": 11.8, "per_hh_ph_mob": 15.8, "per_hh_ph_bth": 0.0, "per_hh_bcycl": 51.3, "per_hh_2wheel": 2.6, "per_hh_4wheel": 0.0, "per_hh_tvcomp": 0.0, "per_hh_no_ast": 35.5, "per_hs_perma": 0.0, "per_hs_sperma": 77.6, "per_hs_temp": 22.4, "per_hs_servc": 6.6, "per_hs_nservc": 15.8, "per_hs_unclss": 0.0, "avghhsz_cy": 4.32894737, "st_areashape": 8066239.517828235, "st_lengthshape": 14468.185874462002}, "geometry": {"type": "Polygon", "coordinates": [[[80.79401082064109, 19.017658700677252], [80.79394051669031, 19.017692111491098], [80.79387021273956, 19.017725522298246], [80.79379990878878, 19.017758933098655], [80.79372960483802, 19.01779234389237], [80.79365929998895, 19.01782575467933], [80.79358899603817, 19.017859165459612], [80.79351869208739, 19.017892575383904], [80.79344838813665, 19.01792598615075], [80.79339273480984, 19.017992107855992], [80.79333708148303, 19.01805822953495], [80.79328142815625, 19.018124350338326], [80.79322577482944, 19.01819047196465], [80.79317012150265, 19.018256593564708], [80.79311446817586, 19.01832271513844], [80.79305881574737, 19.018388835836614], [80.79300316242059, 19.018454957357754], [80.79294750909378, 19.018521078852608], [80.79289185576697, 19.01858720032114], [80.79283620333848, 19.018653320914115], [80.7927805500117, 19.01871944233003], [80.79272489668489, 19.01878556371967], [80.79266350132681, 19.018846043332363], [80.79260210596871, 19.018906522073788], [80.79254071061062, 19.018967000793193], [80.79247931525252, 19.01902747949062], [80.79241791989445, 19.01908795901529], [80.79235652453634, 19.019148437668715], [80.79229512917826, 19.01920891630009], [80.79223373382015, 19.01926939575877], [80.79217233846207, 19.019329875195425], [80.7921109440023, 19.0193903537608], [80.79204954864421, 19.01945083315345], [80.79198815418442, 19.01951131167482], [80.79192675882632, 19.01957179102346], [80.79186536346823, 19.019632270350094], [80.79180396811013, 19.019692749654695], [80.79174257365034, 19.019753227238777], [80.79168117829225, 19.019813706499395], [80.7916197838325, 19.019874185738004], [80.79156058395694, 19.01993561783777], [80.79150138408143, 19.01999704991481], [80.79144218420588, 19.02005848196916], [80.79138298343202, 19.02011991315152], [80.79132378355646, 19.020181345160463], [80.79126458368096, 19.020242776297412], [80.7912053829071, 19.02030420826093], [80.79114618303154, 19.020365640201746], [80.79108698315602, 19.02042707127063], [80.79102778238214, 19.020488503166035], [80.79096858250662, 19.02054993418945], [80.79090938173277, 19.020611366039454], [80.79085018185722, 19.020672797017486], [80.7907909819817, 19.020734228822068], [80.79073178120781, 19.020795660603955], [80.7906725813323, 19.020857091513836], [80.79061338145675, 19.020918523250305], [80.7905541806829, 19.020979954114782], [80.79049498080738, 19.021041385805844], [80.79043578003349, 19.02110281662494], [80.79037658015798, 19.021164248270583], [80.79031738028243, 19.021225679044235], [80.79025817950857, 19.02128711064446], [80.79019897963306, 19.021348542221993], [80.7901397797575, 19.021409972927554], [80.79008057898365, 19.021471404459664], [80.7900213791081, 19.021532835119782], [80.78996217833425, 19.021594266606478], [80.78990297845874, 19.02165569722119], [80.78984377858319, 19.02171712781322], [80.78978457780933, 19.021778560081042], [80.78972537793378, 19.021839990627655], [80.78966617715993, 19.021901421151544], [80.78960697728441, 19.02196285165275], [80.78954777651052, 19.02202428298049], [80.78948857663501, 19.02208571343626], [80.78942937586115, 19.022147144718573], [80.78937230139957, 19.02221247068617], [80.78931522693799, 19.02227779662808], [80.78925815247644, 19.022343122544317], [80.78920107891314, 19.02240844843487], [80.78914400445159, 19.02247377514902], [80.78908692999, 19.022539100988222], [80.78902985642674, 19.022604426801742], [80.78897278196516, 19.02266975343886], [80.7889157084019, 19.022735079201016], [80.78885863394031, 19.0228004049375], [80.78880155947876, 19.02286573149757], [80.78874448591547, 19.022931057182696], [80.78868741145392, 19.022996382842134], [80.78863033789065, 19.023061708475915], [80.78857326342907, 19.02312703493325], [80.78851618896749, 19.023192360515658], [80.78845911540424, 19.02325768607239], [80.78840204094264, 19.023323012452707], [80.78834496737939, 19.023388337958067], [80.78828789291784, 19.023453663437756], [80.78823081845624, 19.023518989741003], [80.78817374489299, 19.023584315169355], [80.7881166704314, 19.02364964057201], [80.78805959686815, 19.02371496679821], [80.78800252240656, 19.023780292149503], [80.78794544794498, 19.0238456174751], [80.78788837438172, 19.023910943624294], [80.78783129992017, 19.02397626889854], [80.78777422635687, 19.024041594147118], [80.78771715189532, 19.024106920219264], [80.78766007743374, 19.024172245416455], [80.78760300387047, 19.024237570587985], [80.78754592940889, 19.024302896583098], [80.78748885584564, 19.02436822170324], [80.78743178138404, 19.024433546797738], [80.78737470692249, 19.024498872715796], [80.78731763335925, 19.02456419775892], [80.78726055889766, 19.024629522776358], [80.7872034853344, 19.024694847768107], [80.78714641087282, 19.024760173583445], [80.78708933641123, 19.024825499373073], [80.78703226284796, 19.024890823438557], [80.78697518838639, 19.02495614917681], [80.78691811482312, 19.025021474040155], [80.78686104036157, 19.025086799727088], [80.78680396589998, 19.02515212538833], [80.78674689233674, 19.025217449325375], [80.78668981877347, 19.02528277493526], [80.78663274431189, 19.02534810051946], [80.78657567074863, 19.025413425228717], [80.7865200524561, 19.025473923660545], [80.78646443416362, 19.025534422919616], [80.78640881587113, 19.025594921307427], [80.78635319757863, 19.025655420522437], [80.7862975792861, 19.025715918866155], [80.7862419609936, 19.02577641718785], [80.78618634180279, 19.025836916336782], [80.7861307235103, 19.02589741461446], [80.78607510521782, 19.025957912870076], [80.78601948692528, 19.026018411952915], [80.78596386863279, 19.0260789101645], [80.7859082503403, 19.02613940920328], [80.7858526320478, 19.026199907370785], [80.78578804587383, 19.0262490189106], [80.78572345969985, 19.0262981304359], [80.78565887352586, 19.026347241946674], [80.78559428735187, 19.0263963542922], [80.78552970117791, 19.02644546577394], [80.78546511500392, 19.026494577241177], [80.78540052882992, 19.026543688693884], [80.78525019127555, 19.0260563144188], [80.78502050104053, 19.02352424577187], [80.7849409237811, 19.022215201907418], [80.78488927514385, 19.020105606331068], [80.78487600882374, 19.019563729716022], [80.78485464239468, 19.018690815707597], [80.78489573582738, 19.017057018670037], [80.78487595402649, 19.016350031014703], [80.78471230972781, 19.015911843355664], [80.78299697220119, 19.01258601619804], [80.78086199657112, 19.00862883561107], [80.78413632613733, 19.007025370635183], [80.78765142575922, 19.005976091860838], [80.7881561010825, 19.00569004893616], [80.78837724744082, 19.0052888400805], [80.78869892695754, 19.004524598633445], [80.78914120080957, 19.00360762521077], [80.78948315979385, 19.002518611314347], [80.79002725229341, 19.001621650628373], [80.79019371640379, 19.000901477150133], [80.79017769674732, 19.000869066917563], [80.78972697244342, 18.999924716706467], [80.78906282998757, 18.99877258591712], [80.78807087072497, 18.997715084855454], [80.78688889981346, 18.996833729600475], [80.78829469675779, 18.99650921730603], [80.78860346838218, 18.996292505089688], [80.78969093023758, 18.99613489680002], [80.79062173129734, 18.996117269335453], [80.79139572693265, 18.996018318348632], [80.79196567384442, 18.995910176003587], [80.79218410190073, 18.995919291706848], [80.79216986540008, 18.995910189593882], [80.7952517264251, 18.99572186170291], [80.79531734386504, 18.995714309726257], [80.79724270031855, 18.99549271838915], [80.79861387978507, 18.995334887649364], [80.80202351090443, 18.994983929782286], [80.80332468016928, 18.994858018166845], [80.80397533711609, 18.994645938982497], [80.80478713924848, 18.995043770807865], [80.80693353426246, 18.99508075873623], [80.8082395113107, 18.99464755029641], [80.81149742596176, 18.993614361916645], [80.81353490473914, 18.992562555664318], [80.81546340888941, 18.99101840374154], [80.81798553864401, 18.988882663704597], [80.81797992417349, 18.99153418667692], [80.81784619826537, 18.99360748936951], [80.81832526800974, 18.995260865180423], [80.81888998043837, 18.996399363754772], [80.81887558763091, 18.996760738958017], [80.81731273283555, 18.9982824682728], [80.81541769542122, 18.999424606990477], [80.81438216517239, 19.000282493957478], [80.81415892663775, 19.00043600434826], [80.81387878971137, 19.000913308013118], [80.81367615044451, 19.001614154128227], [80.8127116320189, 19.003142560027204], [80.81140548518907, 19.005358716675396], [80.8113048298598, 19.005931964224928], [80.81144477300799, 19.00757540181267], [80.81132353817388, 19.009562666784078], [80.8112507476864, 19.00960039634267], [80.81117795809726, 19.009638125892696], [80.8111051676098, 19.009675856283497], [80.81103237802064, 19.009713585816417], [80.81095958753318, 19.009751316190105], [80.8108867970457, 19.009789045705887], [80.81081400745653, 19.00982677521313], [80.81074121696905, 19.0098645047118], [80.81066842648157, 19.009902235051253], [80.81059563689243, 19.0099399645328], [80.81052284640496, 19.009977694005794], [80.81045005681578, 19.010015423470268], [80.81037726632832, 19.010053153775438], [80.81030049271087, 19.01009464317241], [80.81022371909344, 19.010136132558998], [80.81014694637433, 19.01017762108592], [80.81007017275687, 19.010219110451835], [80.80999339913943, 19.010260599807395], [80.80991662552199, 19.010302089152574], [80.80983985280285, 19.0103435776381], [80.8097630791854, 19.010385066962606], [80.8096863064663, 19.010426555427433], [80.80960953284884, 19.0104680447312], [80.8095327592314, 19.010509534024663], [80.80945598651229, 19.010551022458433], [80.80937921289485, 19.01059251173116], [80.80930243927739, 19.01063400099357], [80.80922566565995, 19.01067549024562], [80.80914889294084, 19.010716978637994], [80.80907211932337, 19.01075846786931], [80.80899534570594, 19.01079995624097], [80.8089185720885, 19.010841445451625], [80.80884179847106, 19.0108829338026], [80.80876502575192, 19.010924422143205], [80.80868825213449, 19.01096591132278], [80.80861147851705, 19.011007399642686], [80.80853470489961, 19.01104888880159], [80.80845793218047, 19.011090377950094], [80.80838115856304, 19.01113186623896], [80.8083043849456, 19.011173355366804], [80.80822761132816, 19.01121484363496], [80.80815083771073, 19.011256332742104], [80.80807406499159, 19.011297821838856], [80.80799729137415, 19.011339310075954], [80.80792051685839, 19.011380799152047], [80.80784374413928, 19.011422287368447], [80.8077669705218, 19.0114637755745], [80.80769019690437, 19.011505263770204], [80.80761342328692, 19.011546752804858], [80.80754154818274, 19.011595984181078], [80.80746967218025, 19.011645215542696], [80.80739779707605, 19.011694446889745], [80.80732592107351, 19.011743678222203], [80.80725404507098, 19.01179290954013], [80.8071821699668, 19.011842140843452], [80.8071102948626, 19.011891372132197], [80.8070384188601, 19.011940603406362], [80.80696654375589, 19.011989834665982], [80.80689466865171, 19.012039065911], [80.80682279264917, 19.01208829714144], [80.80675091754497, 19.012137528357297], [80.80667904244078, 19.012186759558624], [80.80660716643828, 19.012235991594622], [80.80653529133409, 19.012285222766792], [80.80646341622989, 19.012334453924343], [80.80639154112569, 19.01238368506734], [80.80631966512317, 19.012432916195745], [80.80624779001896, 19.01248214730961], [80.80617591401646, 19.012531379258153], [80.80610403891228, 19.01258061034287], [80.80603216380808, 19.01262984141297], [80.80596028870387, 19.0126790724685], [80.80588841359969, 19.012728303509455], [80.80581653849548, 19.012777534535864], [80.80574466249296, 19.012826766396955], [80.80567278649046, 19.01287599739422], [80.80560091138626, 19.012925228376854], [80.80552903628207, 19.012974459344935], [80.80545716117787, 19.013023690298436], [80.80538528607367, 19.01307292123738], [80.80531341007114, 19.013122153011018], [80.80524153496694, 19.013171383920806], [80.80516965896442, 19.013220614816], [80.80509778386022, 19.013269845696616], [80.80502590875602, 19.01331907656265], [80.80495403365182, 19.013368307414144], [80.80488215764933, 19.01341753910034], [80.80481028254513, 19.01346676992265], [80.80473840744094, 19.01351600073038], [80.80466653143841, 19.01356523152353], [80.8045946563342, 19.01361446230215], [80.80452278123, 19.013663693066153], [80.80445090522751, 19.013712924664887], [80.80437903012333, 19.013762155399743], [80.80430871808771, 19.013812102082674], [80.80423840605212, 19.013862048750592], [80.80416809401652, 19.0139119954035], [80.80409778108259, 19.013961942041444], [80.80402746904697, 19.01401188781504], [80.80395715701135, 19.014061834422936], [80.80388684407745, 19.01411178101587], [80.80381653204184, 19.014161726744444], [80.80374621910794, 19.014211673307344], [80.803675906174, 19.01426161985525], [80.80360559503673, 19.014311565538815], [80.80353528210281, 19.014361512056702], [80.80346496916891, 19.014411458559614], [80.80339465803159, 19.014461404198165], [80.80332434509768, 19.014511350671025], [80.8032540330621, 19.014561296279616], [80.80318372012815, 19.01461124272248], [80.80311340719425, 19.014661189150356], [80.80304309605695, 19.014711134713885], [80.80297278312304, 19.014761081111736], [80.80290247018912, 19.014811027494613], [80.80283215905185, 19.014860973013143], [80.8027618461179, 19.01491091936596], [80.80269153318399, 19.014960864854515], [80.80262122025009, 19.015010811177344], [80.80255090821447, 19.015060756635876], [80.80248011647849, 19.015106227984703], [80.80240932384423, 19.0151517001704], [80.80233853210827, 19.015197171494368], [80.80226773947398, 19.01524264280588], [80.80219694773801, 19.015288114104987], [80.80212615510375, 19.0153335862409], [80.80205536336778, 19.015379057515137], [80.80198457163182, 19.015424528776894], [80.80191377899753, 19.015470000875546], [80.80184298726155, 19.015515472112465], [80.80177219462728, 19.01556094418623], [80.8017014028913, 19.015606415398246], [80.80163061025704, 19.01565188659785], [80.80155981852107, 19.015697357785005], [80.8014890267851, 19.015742828959706], [80.80141823415082, 19.015788300971284], [80.80134744241485, 19.015833772121148], [80.80127664978059, 19.015879244107854], [80.80120585804463, 19.01592471523281], [80.80113506541034, 19.015970187194643], [80.80106427367436, 19.01601565829475], [80.80098164034632, 19.016047325842667], [80.80089900611996, 19.01607899423386], [80.80081637279191, 19.016110661769705], [80.8007337385656, 19.016142330148853], [80.80065110523755, 19.01617399767266], [80.80056847190947, 19.016205665190384], [80.80048583768315, 19.01623733355144], [80.8004032043551, 19.016269001057147], [80.80032057012875, 19.01630066940609], [80.80023793680071, 19.016332336899733], [80.80015530347268, 19.01636400438732], [80.8000726692463, 19.0163956727182], [80.79999003591827, 19.01642734019375], [80.7999074016919, 19.016459008512545], [80.79982476836386, 19.016490675976023], [80.79974213413752, 19.01652234428274], [80.79965950080948, 19.01655401173416], [80.79957686748142, 19.01658567917955], [80.79949423325509, 19.016617347468163], [80.79941159992705, 19.01664901490148], [80.79932896570068, 19.016680683178045], [80.79924633237265, 19.0167123505993], [80.79916369904461, 19.01674401801452], [80.79908106481824, 19.016775686272986], [80.7989984314902, 19.01680735367615], [80.79891579726383, 19.01683902192254], [80.7988331639358, 19.016870689313627], [80.79875052970947, 19.016902357547973], [80.79866789638143, 19.016934024927], [80.79858526215507, 19.016965693149256], [80.79850262882702, 19.016997360516225], [80.79841999460066, 19.017029028726423], [80.79833736217095, 19.017060696081327], [80.79825472794458, 19.01709236427949], [80.79817209461655, 19.017124031622284], [80.79808946039019, 19.0171556998084], [80.79800682706214, 19.01718736713912], [80.79792419283578, 19.017219035313172], [80.79784155950775, 19.017250702631873], [80.79775892617971, 19.01728237079381], [80.79767629195338, 19.01731403894971], [80.7975936586253, 19.017345706250307], [80.79751102439897, 19.017377374394158], [80.79742839107094, 19.017409041682704], [80.79735112607501, 19.017436307122427], [80.79727386197743, 19.01746357255767], [80.79719659698152, 19.01749083798845], [80.79711933198563, 19.017518103414762], [80.79704206788804, 19.017545368836586], [80.79696480289213, 19.017572634253955], [80.79688753789625, 19.017599899666845], [80.79681027379863, 19.01762716507526], [80.79673300880275, 19.01765443047922], [80.79665574380684, 19.017681695878675], [80.79657847970925, 19.017708960424383], [80.79650121471336, 19.01773622581492], [80.79642491181312, 19.01773619524071], [80.79634860891288, 19.017736163817247], [80.79627230511433, 19.01773613239376], [80.7961960022141, 19.01773610181956], [80.79611969931388, 19.017736070396086], [80.79603936207968, 19.017729661704823], [80.79595902574383, 19.017723253862577], [80.79587868850967, 19.017716846020143], [80.79579835127548, 19.01771043732814], [80.79571801493962, 19.01770402948516], [80.79563767770547, 19.017697620792664], [80.79555733867466, 19.017688030684113], [80.79547699874554, 19.017678440575004], [80.79539665971473, 19.017668850465338], [80.79531631978561, 19.017659260355124], [80.7952359807548, 19.017649670244385], [80.79515564082568, 19.017640080133063], [80.79507531437129, 19.017640038518167], [80.7949949879169, 19.01763999690324], [80.79491466146251, 19.01763995528834], [80.7948343341098, 19.017639913673456], [80.7947540076554, 19.017639872058542], [80.79467368120102, 19.01763983044363], [80.79459335474662, 19.01763978882872], [80.79451013571703, 19.017642490400185], [80.79442691668743, 19.017645191971603], [80.79434369765782, 19.017647893542943], [80.7942604777299, 19.017650595114283], [80.7941772587003, 19.01765329668553], [80.7940940396707, 19.01765599910604], [80.79401082064109, 19.017658700677252]]]}}]}