{"type": "FeatureCollection", "features": [{"type": "Feature", "properties": {"premiumdata.sde.IN_Village_PCA.area": 1.17173332, "objectid": 417371, "id": "552311581175", "name": "Busela", "subdistrict": "Satpuli", "district": "Pauri Garhwal", "state": "Uttarakhand", "country": "India", "censusname": "Busela", "villagename_locallang": null, "lgd_villagename": "Busela", "lgd_villagecode": 47830, "lgd_subdistrictcode": 311, "lgd_districtcode": 52, "lgd_statecode": 5, "censuscode2001": "00743400", "censuscode2011": "047830", "censuscode2021": null, "level": "Village", "tru": "Rural", "no_hh": 2, "tot_p": 11, "tot_m": 4, "tot_f": 7, "per_tot_m": 36.36363636, "per_tot_f": 63.63636364, "p_06": 2, "m_06": 1, "f_06": 1, "per_p_06": 18.18181818, "per_m_06": 50.0, "per_f_06": 50.0, "p_sc": 0, "m_sc": 0, "f_sc": 0, "per_p_sc": 0.0, "per_m_sc": 0.0, "per_f_sc": 0.0, "p_st": 0, "m_st": 0, "f_st": 0, "per_p_st": 0.0, "per_m_st": 0.0, "per_f_st": 0.0, "p_lit": 8, "m_lit": 3, "f_lit": 5, "per_p_lit": 72.72727273, "per_m_lit": 37.5, "per_f_lit": 62.5, "p_ill": 3, "m_ill": 1, "f_ill": 2, "per_p_ill": 27.27272727, "per_m_ill": 33.33333333, "per_f_ill": 66.66666667, "tot_work_p": 6, "tot_work_m": 2, "tot_work_f": 4, "per_tot_work_p": 54.54545455, "per_tot_work_m": 33.33333333, "per_tot_work_f": 66.66666667, "mainwork_p": 0, "mainwork_m": 0, "mainwork_f": 0, "per_mainwork_p": 0.0, "per_mainwork_m": 0.0, "per_mainwork_f": 0.0, "main_cl_p": 0, "main_cl_m": 0, "main_cl_f": 0, "per_main_cl_p": 0.0, "per_main_cl_m": 0.0, "per_main_cl_f": 0.0, "main_al_p": 0, "main_al_m": 0, "main_al_f": 0, "per_main_al_p": 0.0, "per_main_al_m": 0.0, "per_main_al_f": 0.0, "main_hh_p": 0, "main_hh_m": 0, "main_hh_f": 0, "per_main_hh_p": 0.0, "per_main_hh_m": 0.0, "per_main_hh_f": 0.0, "main_ot_p": 0, "main_ot_m": 0, "main_ot_f": 0, "per_main_ot_p": 0.0, "per_main_ot_m": 0.0, "per_main_ot_f": 0.0, "margwork_p": 6, "margwork_m": 2, "margwork_f": 4, "per_margwork_p": 54.54545455, "per_margwork_m": 33.33333333, "per_margwork_f": 66.66666667, "marg_cl_p": 0, "marg_cl_m": 0, "marg_cl_f": 0, "per_marg_cl_p": 0.0, "per_marg_cl_m": 0.0, "per_marg_cl_f": 0.0, "marg_al_p": 0, "marg_al_m": 0, "marg_al_f": 0, "per_marg_al_p": 0.0, "per_marg_al_m": 0.0, "per_marg_al_f": 0.0, "marg_hh_p": 6, "marg_hh_m": 2, "marg_hh_f": 4, "per_marg_hh_p": 100.0, "per_marg_hh_m": 33.33333333, "per_marg_hh_f": 66.66666667, "marg_ot_p": 0, "marg_ot_m": 0, "marg_ot_f": 0, "per_marg_ot_p": 0.0, "per_marg_ot_m": 0.0, "per_marg_ot_f": 0.0, "margwork_3_6_p": 6, "margwork_3_6_m": 2, "margwork_3_6_f": 4, "per_margwork_3_6_p": 100.0, "per_margwork_3_6_m": 33.33333333, "per_margwork_3_6_f": 66.66666667, "marg_cl_3_6_p": 0, "marg_cl_3_6_m": 0, "marg_cl_3_6_f": 0, "per_marg_cl_3_6_p": 0.0, "per_marg_cl_3_6_m": 0.0, "per_marg_cl_3_6_f": 0.0, "marg_al_3_6_p": 0, "marg_al_3_6_m": 0, "marg_al_3_6_f": 0, "per_marg_al_3_6_p": 0.0, "per_marg_al_3_6_m": 0.0, "per_marg_al_3_6_f": 0.0, "marg_hh_3_6_p": 6, "marg_hh_3_6_m": 2, "marg_hh_3_6_f": 4, "per_marg_hh_3_6_p": 100.0, "per_marg_hh_3_6_m": 33.33333333, "per_marg_hh_3_6_f": 66.66666667, "marg_ot_3_6_p": 0, "marg_ot_3_6_m": 0, "marg_ot_3_6_f": 0, "per_marg_ot_3_6_p": 0.0, "per_marg_ot_3_6_m": 0.0, "per_marg_ot_3_6_f": 0.0, "margwork_0_3_p": 0, "margwork_0_3_m": 0, "margwork_0_3_f": 0, "per_margwork_0_3_p": 0.0, "per_margwork_0_3_m": 0.0, "per_margwork_0_3_f": 0.0, "marg_cl_0_3_p": 0, "marg_cl_0_3_m": 0, "marg_cl_0_3_f": 0, "per_marg_cl_0_3_p": 0.0, "per_marg_cl_0_3_m": 0.0, "per_marg_cl_0_3_f": 0.0, "marg_al_0_3_p": 0, "marg_al_0_3_m": 0, "marg_al_0_3_f": 0, "per_marg_al_0_3_p": 0.0, "per_marg_al_0_3_m": 0.0, "per_marg_al_0_3_f": 0.0, "marg_hh_0_3_p": 0, "marg_hh_0_3_m": 0, "marg_hh_0_3_f": 0, "per_marg_hh_0_3_p": 0.0, "per_marg_hh_0_3_m": 0.0, "per_marg_hh_0_3_f": 0.0, "marg_ot_0_3_p": 0, "marg_ot_0_3_m": 0, "marg_ot_0_3_f": 0, "per_marg_ot_0_3_p": 0.0, "per_marg_ot_0_3_m": 0.0, "per_marg_ot_0_3_f": 0.0, "non_work_p": 5, "non_work_m": 2, "non_work_f": 3, "per_non_work_p": 45.45454545, "per_non_work_m": 40.0, "per_non_work_f": 60.0, "per_hc_tot_tot": 100, "per_hc_tot_god": 100.0, "per_hc_tot_liv": 0.0, "per_hc_tot_dil": 0.0, "per_hc_res_tot": 100.0, "per_hc_res_god": 100.0, "per_hc_res_liv": 0.0, "per_hc_res_dil": 0.0, "per_hc_oth_tot": 0.0, "per_hc_oth_god": 0.0, "per_hc_oth_liv": 0.0, "per_hc_oth_dil": 0.0, "per_mt_grsbam": 0.0, "per_mt_plastic": 0.0, "per_mt_h_tiles": 0.0, "per_mt_m_tiles": 0.0, "per_mt_b_brick": 0.0, "per_mt_stone": 50.0, "per_mt_asbstos": 0.0, "per_mt_concrte": 50.0, "per_mt_oth": 0.0, "per_mw_grsbam": 0.0, "per_mw_plastic": 0.0, "per_mw_mud": 0.0, "per_mw_wood": 0.0, "per_mw_no_mrtr": 0.0, "per_mw_st_mrtr": 100.0, "per_mw_asbstos": 0.0, "per_mw_b_brick": 0.0, "per_mw_concrte": 0.0, "per_mw_oth": 0.0, "per_mf_mud": 0.0, "per_mf_wood": 0.0, "per_mf_b_brick": 0.0, "per_mf_stone": 50.0, "per_mf_cement": 50.0, "per_mf_fl_tile": 0.0, "per_mf_oth": 0.0, "per_dw_n_exrm": 0.0, "per_dw_1_room": 0.0, "per_dw_2_room": 50.0, "per_dw_3_room": 50.0, "per_dw_4_room": 0.0, "per_dw_5_room": 0.0, "per_dw_6_room": 0.0, "per_hhsize_1": 0.0, "per_hhsize_2": 0.0, "per_hhsize_3": 50.0, "per_hhsize_4": 0.0, "per_hhsize_5": 0.0, "per_hhsize_6_8": 50.0, "per_hhsize_9p": 0.0, "per_ow_owned": 100.0, "per_ow_rented": 0.0, "per_ow_oth": 0.0, "per_mc_none": 0.0, "per_mcouple_1": 100.0, "per_mcouple_2": 0.0, "per_mcouple_3": 0.0, "per_mcouple_4": 0.0, "per_mcouple_5p": 0.0, "per_dw_t_ts": 100.0, "per_dw_t_unts": 0.0, "per_dw_c_well": 0.0, "per_dw_unc_wel": 0.0, "per_dw_hpump": 0.0, "per_dw_tw_bore": 0.0, "per_dw_spring": 0.0, "per_dw_rivcan": 0.0, "per_dw_tank": 0.0, "per_dw_oth": 0.0, "per_loc_dw_wp": 0.0, "per_loc_dw_np": 100.0, "per_loc_dw_aw": 0.0, "per_light_elec": 100.0, "per_light_kero": 0.0, "per_light_solr": 0.0, "per_light_oil": 0.0, "per_light_oth": 0.0, "per_light_no": 0.0, "per_hh_latrine": 0.0, "per_fl_sewer": 0.0, "per_fl_septict": 0.0, "per_fl_othsys": 0.0, "per_pl_wslab": 0.0, "per_pl_without": 0.0, "per_ns_open": 0.0, "per_sl_ns_hum": 0.0, "per_sl_ns_anml": 0.0, "per_hh_no_lat": 100.0, "per_as_pub": 0.0, "per_as_open": 100.0, "per_hh_bathrm": 50.0, "per_hh_en_wrf": 0.0, "per_hh_no_btrm": 50.0, "per_wwoc_drain": 0.0, "per_wwoc_open": 0.0, "per_wwoc_nodrn": 100.0, "per_cook_fire": 50.0, "per_cook_resdu": 0.0, "per_cook_cwdng": 0.0, "per_cook_coal": 0.0, "per_cook_kero": 0.0, "per_cook_lpng": 50.0, "per_cook_elec": 0.0, "per_cook_biogs": 0.0, "per_cook_oth": 0.0, "per_cook_no": 0.0, "per_kf_inside": 100.0, "per_kf_in_has": 100.0, "per_kf_in_does": 0.0, "per_kf_outside": 0.0, "per_kf_out_has": 0.0, "per_kf_out_dos": 0.0, "per_kf_no_cook": 0.0, "per_hh_banking": 100.0, "per_hh_radio": 100.0, "per_hh_tv": 100.0, "per_hh_cmp_int": 0.0, "per_hh_cmp_wnt": 0.0, "per_hh_ph_ll": 0.0, "per_hh_ph_mob": 100.0, "per_hh_ph_bth": 0.0, "per_hh_bcycl": 0.0, "per_hh_2wheel": 0.0, "per_hh_4wheel": 0.0, "per_hh_tvcomp": null, "per_hh_no_ast": 0.0, "per_hs_perma": 100.0, "per_hs_sperma": 0.0, "per_hs_temp": 0.0, "per_hs_servc": 0.0, "per_hs_nservc": 0.0, "per_hs_unclss": 0.0, "avghhsz_cy": 5.5, "st_areashape": 1563497.598648775, "st_lengthshape": 6829.192300801989}, "geometry": {"type": "Polygon", "coordinates": [[[78.81470995580713, 29.8737289236574], [78.8128502257767, 29.873297734712832], [78.80991446315625, 29.872617596222625], [78.80734403458206, 29.872001047845007], [78.80665337565564, 29.87183538281299], [78.80453261137332, 29.871362634636053], [78.80103463184408, 29.871242501761074], [78.79941630518165, 29.870958990095232], [78.79825796265708, 29.870756071194414], [78.79493563520691, 29.870210573724716], [78.79021098010608, 29.86888934283276], [78.79056223755184, 29.866628536623413], [78.79075133830904, 29.864516052164017], [78.79064414863439, 29.863983584875506], [78.79450187558713, 29.864840892085976], [78.80071217528463, 29.866550490969093], [78.80582857310446, 29.86764737868929], [78.81041144890067, 29.86844999015489], [78.81498652911682, 29.86953540591905], [78.8150138343082, 29.870526845057263], [78.81428685290159, 29.871361093053793], [78.81410134271059, 29.872206527783007], [78.8142393814304, 29.87310583190213], [78.81470995580713, 29.8737289236574]]]}}]}