{"type": "FeatureCollection", "features": [{"type": "Feature", "properties": {"premiumdata.sde.IN_Village_PCA.area": 2.82903582, "objectid": 38748, "id": "337305710170877", "name": "Lakshminarayanapuram", "subdistrict": "Maduranthakam", "district": "Chengalpattu", "state": "Tamil Nadu", "country": "India", "censusname": "Lakshminarayanapuram", "villagename_locallang": null, "lgd_villagename": "Lakshminarayanapuram", "lgd_villagecode": 629990, "lgd_subdistrictcode": 5710, "lgd_districtcode": 730, "lgd_statecode": 33, "censuscode2001": "00146000", "censuscode2011": "629990", "censuscode2021": null, "level": "Village", "tru": "Rural", "no_hh": 447, "tot_p": 1647, "tot_m": 832, "tot_f": 815, "per_tot_m": 50.51608986, "per_tot_f": 49.48391014, "p_06": 173, "m_06": 92, "f_06": 81, "per_p_06": 10.50394657, "per_m_06": 53.17919075, "per_f_06": 46.82080925, "p_sc": 883, "m_sc": 459, "f_sc": 424, "per_p_sc": 53.61262902, "per_m_sc": 51.98187995, "per_f_sc": 48.01812005, "p_st": 57, "m_st": 30, "f_st": 27, "per_p_st": 3.46083789, "per_m_st": 52.63157895000001, "per_f_st": 47.36842105, "p_lit": 1076, "m_lit": 619, "f_lit": 457, "per_p_lit": 65.33090468, "per_m_lit": 57.52788104, "per_f_lit": 42.47211896, "p_ill": 571, "m_ill": 213, "f_ill": 358, "per_p_ill": 34.66909532, "per_m_ill": 37.30297723, "per_f_ill": 62.69702277, "tot_work_p": 732, "tot_work_m": 477, "tot_work_f": 255, "per_tot_work_p": 44.44444444000001, "per_tot_work_m": 65.16393443, "per_tot_work_f": 34.83606557, "mainwork_p": 560, "mainwork_m": 393, "mainwork_f": 167, "per_mainwork_p": 34.00121433, "per_mainwork_m": 70.17857143, "per_mainwork_f": 29.82142857, "main_cl_p": 85, "main_cl_m": 80, "main_cl_f": 5, "per_main_cl_p": 15.17857143, "per_main_cl_m": 94.11764706, "per_main_cl_f": 5.88235294, "main_al_p": 157, "main_al_m": 98, "main_al_f": 59, "per_main_al_p": 28.03571429, "per_main_al_m": 62.42038217, "per_main_al_f": 37.57961783, "main_hh_p": 17, "main_hh_m": 10, "main_hh_f": 7, "per_main_hh_p": 3.03571429, "per_main_hh_m": 58.82352941000001, "per_main_hh_f": 41.17647059, "main_ot_p": 301, "main_ot_m": 205, "main_ot_f": 96, "per_main_ot_p": 53.75, "per_main_ot_m": 68.10631229, "per_main_ot_f": 31.89368771, "margwork_p": 172, "margwork_m": 84, "margwork_f": 88, "per_margwork_p": 10.44323012, "per_margwork_m": 48.8372093, "per_margwork_f": 51.1627907, "marg_cl_p": 29, "marg_cl_m": 27, "marg_cl_f": 2, "per_marg_cl_p": 16.86046512, "per_marg_cl_m": 93.10344828, "per_marg_cl_f": 6.89655172, "marg_al_p": 49, "marg_al_m": 17, "marg_al_f": 32, "per_marg_al_p": 28.48837209, "per_marg_al_m": 34.69387755, "per_marg_al_f": 65.30612245, "marg_hh_p": 60, "marg_hh_m": 20, "marg_hh_f": 40, "per_marg_hh_p": 34.88372093, "per_marg_hh_m": 33.33333333, "per_marg_hh_f": 66.66666667, "marg_ot_p": 34, "marg_ot_m": 20, "marg_ot_f": 14, "per_marg_ot_p": 19.76744186, "per_marg_ot_m": 58.82352941000001, "per_marg_ot_f": 41.17647059, "margwork_3_6_p": 158, "margwork_3_6_m": 76, "margwork_3_6_f": 82, "per_margwork_3_6_p": 91.86046512, "per_margwork_3_6_m": 48.10126582, "per_margwork_3_6_f": 51.89873418, "marg_cl_3_6_p": 29, "marg_cl_3_6_m": 27, "marg_cl_3_6_f": 2, "per_marg_cl_3_6_p": 16.86046512, "per_marg_cl_3_6_m": 93.10344828, "per_marg_cl_3_6_f": 6.89655172, "marg_al_3_6_p": 44, "marg_al_3_6_m": 16, "marg_al_3_6_f": 28, "per_marg_al_3_6_p": 25.58139535, "per_marg_al_3_6_m": 36.36363636, "per_marg_al_3_6_f": 63.63636364, "marg_hh_3_6_p": 60, "marg_hh_3_6_m": 20, "marg_hh_3_6_f": 40, "per_marg_hh_3_6_p": 34.88372093, "per_marg_hh_3_6_m": 33.33333333, "per_marg_hh_3_6_f": 66.66666667, "marg_ot_3_6_p": 25, "marg_ot_3_6_m": 13, "marg_ot_3_6_f": 12, "per_marg_ot_3_6_p": 14.53488372, "per_marg_ot_3_6_m": 52.0, "per_marg_ot_3_6_f": 48.0, "margwork_0_3_p": 14, "margwork_0_3_m": 8, "margwork_0_3_f": 6, "per_margwork_0_3_p": 8.13953488, "per_margwork_0_3_m": 57.14285714, "per_margwork_0_3_f": 42.85714286, "marg_cl_0_3_p": 0, "marg_cl_0_3_m": 0, "marg_cl_0_3_f": 0, "per_marg_cl_0_3_p": 0.0, "per_marg_cl_0_3_m": 0.0, "per_marg_cl_0_3_f": 0.0, "marg_al_0_3_p": 5, "marg_al_0_3_m": 1, "marg_al_0_3_f": 4, "per_marg_al_0_3_p": 2.90697674, "per_marg_al_0_3_m": 20.0, "per_marg_al_0_3_f": 80.0, "marg_hh_0_3_p": 0, "marg_hh_0_3_m": 0, "marg_hh_0_3_f": 0, "per_marg_hh_0_3_p": 0.0, "per_marg_hh_0_3_m": 0.0, "per_marg_hh_0_3_f": 0.0, "marg_ot_0_3_p": 9, "marg_ot_0_3_m": 7, "marg_ot_0_3_f": 2, "per_marg_ot_0_3_p": 5.23255814, "per_marg_ot_0_3_m": 77.77777778, "per_marg_ot_0_3_f": 22.22222222, "non_work_p": 915, "non_work_m": 355, "non_work_f": 560, "per_non_work_p": 55.55555556, "per_non_work_m": 38.79781421000001, "per_non_work_f": 61.20218579, "per_hc_tot_tot": 100, "per_hc_tot_god": 59.4, "per_hc_tot_liv": 39.5, "per_hc_tot_dil": 1.1, "per_hc_res_tot": 99.1, "per_hc_res_god": 58.7, "per_hc_res_liv": 39.3, "per_hc_res_dil": 1.1, "per_hc_oth_tot": 0.9, "per_hc_oth_god": 0.7, "per_hc_oth_liv": 0.2, "per_hc_oth_dil": 0.0, "per_mt_grsbam": 44.6, "per_mt_plastic": 0.0, "per_mt_h_tiles": 3.8, "per_mt_m_tiles": 2.5, "per_mt_b_brick": 7.1, "per_mt_stone": 0.2, "per_mt_asbstos": 10.3, "per_mt_concrte": 31.5, "per_mt_oth": 0.0, "per_mw_grsbam": 0.7, "per_mw_plastic": 0.0, "per_mw_mud": 40.8, "per_mw_wood": 0.0, "per_mw_no_mrtr": 1.6, "per_mw_st_mrtr": 11.8, "per_mw_asbstos": 0.0, "per_mw_b_brick": 44.6, "per_mw_concrte": 0.4, "per_mw_oth": 0.0, "per_mf_mud": 41.3, "per_mf_wood": 0.0, "per_mf_b_brick": 0.0, "per_mf_stone": 0.0, "per_mf_cement": 54.2, "per_mf_fl_tile": 4.5, "per_mf_oth": 0.0, "per_dw_n_exrm": 5.4, "per_dw_1_room": 35.0, "per_dw_2_room": 37.7, "per_dw_3_room": 13.2, "per_dw_4_room": 6.7, "per_dw_5_room": 1.1, "per_dw_6_room": 0.9, "per_hhsize_1": 5.1, "per_hhsize_2": 16.3, "per_hhsize_3": 19.4, "per_hhsize_4": 27.9, "per_hhsize_5": 20.3, "per_hhsize_6_8": 10.0, "per_hhsize_9p": 0.9, "per_ow_owned": 97.3, "per_ow_rented": 1.3, "per_ow_oth": 1.3, "per_mc_none": 17.9, "per_mcouple_1": 74.8, "per_mcouple_2": 7.1, "per_mcouple_3": 0.2, "per_mcouple_4": 0.0, "per_mcouple_5p": 0.0, "per_dw_t_ts": 99.3, "per_dw_t_unts": 0.0, "per_dw_c_well": 0.2, "per_dw_unc_wel": 0.4, "per_dw_hpump": 0.0, "per_dw_tw_bore": 0.0, "per_dw_spring": 0.0, "per_dw_rivcan": 0.0, "per_dw_tank": 0.0, "per_dw_oth": 0.0, "per_loc_dw_wp": 17.4, "per_loc_dw_np": 74.3, "per_loc_dw_aw": 8.3, "per_light_elec": 92.6, "per_light_kero": 6.9, "per_light_solr": 0.0, "per_light_oil": 0.0, "per_light_oth": 0.2, "per_light_no": 0.2, "per_hh_latrine": 9.6, "per_fl_sewer": 0.9, "per_fl_septict": 5.8, "per_fl_othsys": 0.2, "per_pl_wslab": 2.7, "per_pl_without": 0.0, "per_ns_open": 0.0, "per_sl_ns_hum": 0.0, "per_sl_ns_anml": 0.0, "per_hh_no_lat": 90.4, "per_as_pub": 0.0, "per_as_open": 90.4, "per_hh_bathrm": 13.4, "per_hh_en_wrf": 27.5, "per_hh_no_btrm": 59.2, "per_wwoc_drain": 4.0, "per_wwoc_open": 0.7, "per_wwoc_nodrn": 95.3, "per_cook_fire": 82.6, "per_cook_resdu": 0.2, "per_cook_cwdng": 0.4, "per_cook_coal": 0.0, "per_cook_kero": 3.8, "per_cook_lpng": 12.9, "per_cook_elec": 0.0, "per_cook_biogs": 0.0, "per_cook_oth": 0.0, "per_cook_no": 0.0, "per_kf_inside": 32.1, "per_kf_in_has": 26.8, "per_kf_in_does": 5.4, "per_kf_outside": 67.9, "per_kf_out_has": 33.5, "per_kf_out_dos": 34.4, "per_kf_no_cook": 0.0, "per_hh_banking": 28.3, "per_hh_radio": 8.9, "per_hh_tv": 87.3, "per_hh_cmp_int": 1.1, "per_hh_cmp_wnt": 3.6, "per_hh_ph_ll": 0.9, "per_hh_ph_mob": 62.5, "per_hh_ph_bth": 3.1, "per_hh_bcycl": 31.9, "per_hh_2wheel": 20.8, "per_hh_4wheel": 1.3, "per_hh_tvcomp": 0.4, "per_hh_no_ast": 7.8, "per_hs_perma": 54.0, "per_hs_sperma": 5.8, "per_hs_temp": 40.2, "per_hs_servc": 39.5, "per_hs_nservc": 0.7, "per_hs_unclss": 0.0, "avghhsz_cy": 3.68456376, "st_areashape": 2987208.119536405, "st_lengthshape": 8198.130079331835}, "geometry": {"type": "Polygon", "coordinates": [[[79.94381723975452, 12.555370350207983], [79.94383991952051, 12.5539092900998], [79.94362644028315, 12.552359579839225], [79.94389355972275, 12.550735439441885], [79.94445048016463, 12.549522419304509], [79.94464128053433, 12.548918700753044], [79.94464883985744, 12.548499119888097], [79.94376360045061, 12.547745729620374], [79.94258892026595, 12.547121040269332], [79.93985759983111, 12.546241739667956], [79.93879703982353, 12.545793539675158], [79.93812563987848, 12.545541720312672], [79.93823256005855, 12.543631559734854], [79.93869011964345, 12.541702229547866], [79.93769076005955, 12.540173490169689], [79.93701179989309, 12.538338660351904], [79.93681344020028, 12.537114119916247], [79.9369812005796, 12.537256229561088], [79.93930824050899, 12.537070290044946], [79.94086451963646, 12.536786069594884], [79.94308464028413, 12.535704629317163], [79.94405376077897, 12.535078049974222], [79.94525148005569, 12.534624089465744], [79.94567123943176, 12.534631740452799], [79.94655612041082, 12.534646949474306], [79.94757851998511, 12.534857729899645], [79.94911968046632, 12.535292609493261], [79.95043188014459, 12.53531457061837], [79.95225527960996, 12.535142939868587], [79.9531401596907, 12.535357500210473], [79.95581820014772, 12.53537658070895], [79.95526883992729, 12.536288279460416], [79.95439152006799, 12.537097020453517], [79.9539642004705, 12.5394592496192], [79.95301055974464, 12.54231648053916], [79.95149244015218, 12.546872100067292], [79.95093551971031, 12.54901976970582], [79.94944764010523, 12.554848710139229], [79.94875320016976, 12.557975760413262], [79.94728835965678, 12.557299590221678], [79.94555676082689, 12.556870469979126], [79.94503799991999, 12.55592727028735], [79.94381723975452, 12.555370350207983]]]}}]}