{"type": "FeatureCollection", "features": [{"type": "Feature", "properties": {"premiumdata.sde.IN_Village_PCA.area": 6.70940515, "objectid": 38553, "id": "337305710170858", "name": "Vellaputhur", "subdistrict": "Maduranthakam", "district": "Chengalpattu", "state": "Tamil Nadu", "country": "India", "censusname": "Vellaputhur", "villagename_locallang": null, "lgd_villagename": "Vellaputhur", "lgd_villagecode": 630002, "lgd_subdistrictcode": 5710, "lgd_districtcode": 730, "lgd_statecode": 33, "censuscode2001": "00147200", "censuscode2011": "630002", "censuscode2021": null, "level": "Village", "tru": "Rural", "no_hh": 354, "tot_p": 1363, "tot_m": 689, "tot_f": 674, "per_tot_m": 50.55025679, "per_tot_f": 49.44974321, "p_06": 146, "m_06": 70, "f_06": 76, "per_p_06": 10.71166544, "per_m_06": 47.94520548, "per_f_06": 52.05479452, "p_sc": 634, "m_sc": 316, "f_sc": 318, "per_p_sc": 46.51504035, "per_m_sc": 49.84227129, "per_f_sc": 50.15772871, "p_st": 143, "m_st": 71, "f_st": 72, "per_p_st": 10.49156273, "per_m_st": 49.65034965, "per_f_st": 50.34965035, "p_lit": 739, "m_lit": 433, "f_lit": 306, "per_p_lit": 54.21863536, "per_m_lit": 58.59269283, "per_f_lit": 41.40730717, "p_ill": 624, "m_ill": 256, "f_ill": 368, "per_p_ill": 45.78136464, "per_m_ill": 41.02564103, "per_f_ill": 58.97435897, "tot_work_p": 761, "tot_work_m": 418, "tot_work_f": 343, "per_tot_work_p": 55.83272194000001, "per_tot_work_m": 54.92772668, "per_tot_work_f": 45.07227332, "mainwork_p": 228, "mainwork_m": 146, "mainwork_f": 82, "per_mainwork_p": 16.72780631, "per_mainwork_m": 64.03508772, "per_mainwork_f": 35.96491228, "main_cl_p": 177, "main_cl_m": 103, "main_cl_f": 74, "per_main_cl_p": 77.63157895, "per_main_cl_m": 58.1920904, "per_main_cl_f": 41.8079096, "main_al_p": 1, "main_al_m": 1, "main_al_f": 0, "per_main_al_p": 0.43859649, "per_main_al_m": 100.0, "per_main_al_f": 0.0, "main_hh_p": 6, "main_hh_m": 4, "main_hh_f": 2, "per_main_hh_p": 2.63157895, "per_main_hh_m": 66.66666667, "per_main_hh_f": 33.33333333, "main_ot_p": 44, "main_ot_m": 38, "main_ot_f": 6, "per_main_ot_p": 19.29824561, "per_main_ot_m": 86.36363636, "per_main_ot_f": 13.63636364, "margwork_p": 533, "margwork_m": 272, "margwork_f": 261, "per_margwork_p": 39.10491563, "per_margwork_m": 51.03189493, "per_margwork_f": 48.96810507, "marg_cl_p": 28, "marg_cl_m": 17, "marg_cl_f": 11, "per_marg_cl_p": 5.2532833, "per_marg_cl_m": 60.71428571, "per_marg_cl_f": 39.28571429, "marg_al_p": 488, "marg_al_m": 243, "marg_al_f": 245, "per_marg_al_p": 91.55722326, "per_marg_al_m": 49.79508197, "per_marg_al_f": 50.20491803, "marg_hh_p": 0, "marg_hh_m": 0, "marg_hh_f": 0, "per_marg_hh_p": 0.0, "per_marg_hh_m": 0.0, "per_marg_hh_f": 0.0, "marg_ot_p": 17, "marg_ot_m": 12, "marg_ot_f": 5, "per_marg_ot_p": 3.18949343, "per_marg_ot_m": 70.58823529, "per_marg_ot_f": 29.41176471, "margwork_3_6_p": 531, "margwork_3_6_m": 272, "margwork_3_6_f": 259, "per_margwork_3_6_p": 99.62476548000001, "per_margwork_3_6_m": 51.22410546, "per_margwork_3_6_f": 48.77589454, "marg_cl_3_6_p": 28, "marg_cl_3_6_m": 17, "marg_cl_3_6_f": 11, "per_marg_cl_3_6_p": 5.2532833, "per_marg_cl_3_6_m": 60.71428571, "per_marg_cl_3_6_f": 39.28571429, "marg_al_3_6_p": 488, "marg_al_3_6_m": 243, "marg_al_3_6_f": 245, "per_marg_al_3_6_p": 91.55722326, "per_marg_al_3_6_m": 49.79508197, "per_marg_al_3_6_f": 50.20491803, "marg_hh_3_6_p": 0, "marg_hh_3_6_m": 0, "marg_hh_3_6_f": 0, "per_marg_hh_3_6_p": 0.0, "per_marg_hh_3_6_m": 0.0, "per_marg_hh_3_6_f": 0.0, "marg_ot_3_6_p": 15, "marg_ot_3_6_m": 12, "marg_ot_3_6_f": 3, "per_marg_ot_3_6_p": 2.81425891, "per_marg_ot_3_6_m": 80.0, "per_marg_ot_3_6_f": 20.0, "margwork_0_3_p": 2, "margwork_0_3_m": 0, "margwork_0_3_f": 2, "per_margwork_0_3_p": 0.37523452, "per_margwork_0_3_m": 0.0, "per_margwork_0_3_f": 100.0, "marg_cl_0_3_p": 0, "marg_cl_0_3_m": 0, "marg_cl_0_3_f": 0, "per_marg_cl_0_3_p": 0.0, "per_marg_cl_0_3_m": 0.0, "per_marg_cl_0_3_f": 0.0, "marg_al_0_3_p": 0, "marg_al_0_3_m": 0, "marg_al_0_3_f": 0, "per_marg_al_0_3_p": 0.0, "per_marg_al_0_3_m": 0.0, "per_marg_al_0_3_f": 0.0, "marg_hh_0_3_p": 0, "marg_hh_0_3_m": 0, "marg_hh_0_3_f": 0, "per_marg_hh_0_3_p": 0.0, "per_marg_hh_0_3_m": 0.0, "per_marg_hh_0_3_f": 0.0, "marg_ot_0_3_p": 2, "marg_ot_0_3_m": 0, "marg_ot_0_3_f": 2, "per_marg_ot_0_3_p": 0.37523452, "per_marg_ot_0_3_m": 0.0, "per_marg_ot_0_3_f": 100.0, "non_work_p": 602, "non_work_m": 271, "non_work_f": 331, "per_non_work_p": 44.16727806, "per_non_work_m": 45.0166113, "per_non_work_f": 54.9833887, "per_hc_tot_tot": 100, "per_hc_tot_god": 90.7, "per_hc_tot_liv": 9.0, "per_hc_tot_dil": 0.3, "per_hc_res_tot": 98.6, "per_hc_res_god": 89.5, "per_hc_res_liv": 8.8, "per_hc_res_dil": 0.3, "per_hc_oth_tot": 1.4, "per_hc_oth_god": 1.1, "per_hc_oth_liv": 0.3, "per_hc_oth_dil": 0.0, "per_mt_grsbam": 56.8, "per_mt_plastic": 0.0, "per_mt_h_tiles": 1.1, "per_mt_m_tiles": 1.4, "per_mt_b_brick": 0.6, "per_mt_stone": 2.8, "per_mt_asbstos": 5.1, "per_mt_concrte": 32.2, "per_mt_oth": 0.0, "per_mw_grsbam": 1.7, "per_mw_plastic": 0.3, "per_mw_mud": 50.8, "per_mw_wood": 0.0, "per_mw_no_mrtr": 0.0, "per_mw_st_mrtr": 46.3, "per_mw_asbstos": 0.3, "per_mw_b_brick": 0.0, "per_mw_concrte": 0.6, "per_mw_oth": 0.0, "per_mf_mud": 50.8, "per_mf_wood": 0.3, "per_mf_b_brick": 0.0, "per_mf_stone": 0.0, "per_mf_cement": 43.2, "per_mf_fl_tile": 5.6, "per_mf_oth": 0.0, "per_dw_n_exrm": 2.5, "per_dw_1_room": 40.7, "per_dw_2_room": 45.2, "per_dw_3_room": 7.6, "per_dw_4_room": 1.7, "per_dw_5_room": 2.0, "per_dw_6_room": 0.3, "per_hhsize_1": 6.8, "per_hhsize_2": 12.4, "per_hhsize_3": 18.9, "per_hhsize_4": 28.5, "per_hhsize_5": 20.1, "per_hhsize_6_8": 12.1, "per_hhsize_9p": 1.1, "per_ow_owned": 97.7, "per_ow_rented": 1.1, "per_ow_oth": 1.1, "per_mc_none": 9.6, "per_mcouple_1": 71.2, "per_mcouple_2": 17.2, "per_mcouple_3": 2.0, "per_mcouple_4": 0.0, "per_mcouple_5p": 0.0, "per_dw_t_ts": 91.8, "per_dw_t_unts": 0.8, "per_dw_c_well": 0.0, "per_dw_unc_wel": 5.9, "per_dw_hpump": 0.6, "per_dw_tw_bore": 0.8, "per_dw_spring": 0.0, "per_dw_rivcan": 0.0, "per_dw_tank": 0.0, "per_dw_oth": 0.0, "per_loc_dw_wp": 4.5, "per_loc_dw_np": 69.5, "per_loc_dw_aw": 26.0, "per_light_elec": 89.8, "per_light_kero": 9.3, "per_light_solr": 0.3, "per_light_oil": 0.3, "per_light_oth": 0.0, "per_light_no": 0.3, "per_hh_latrine": 28.8, "per_fl_sewer": 0.8, "per_fl_septict": 13.8, "per_fl_othsys": 13.0, "per_pl_wslab": 1.1, "per_pl_without": 0.0, "per_ns_open": 0.0, "per_sl_ns_hum": 0.0, "per_sl_ns_anml": 0.0, "per_hh_no_lat": 71.2, "per_as_pub": 0.0, "per_as_open": 71.2, "per_hh_bathrm": 10.5, "per_hh_en_wrf": 27.4, "per_hh_no_btrm": 62.1, "per_wwoc_drain": 0.6, "per_wwoc_open": 1.1, "per_wwoc_nodrn": 98.3, "per_cook_fire": 92.7, "per_cook_resdu": 0.6, "per_cook_cwdng": 1.1, "per_cook_coal": 0.3, "per_cook_kero": 0.6, "per_cook_lpng": 4.2, "per_cook_elec": 0.3, "per_cook_biogs": 0.0, "per_cook_oth": 0.0, "per_cook_no": 0.3, "per_kf_inside": 21.8, "per_kf_in_has": 16.9, "per_kf_in_does": 4.8, "per_kf_outside": 78.0, "per_kf_out_has": 32.8, "per_kf_out_dos": 45.2, "per_kf_no_cook": 0.3, "per_hh_banking": 25.1, "per_hh_radio": 20.1, "per_hh_tv": 81.1, "per_hh_cmp_int": 1.4, "per_hh_cmp_wnt": 1.1, "per_hh_ph_ll": 1.4, "per_hh_ph_mob": 57.1, "per_hh_ph_bth": 2.5, "per_hh_bcycl": 50.0, "per_hh_2wheel": 32.5, "per_hh_4wheel": 0.6, "per_hh_tvcomp": 1.7, "per_hh_no_ast": 9.9, "per_hs_perma": 41.8, "per_hs_sperma": 6.8, "per_hs_temp": 51.4, "per_hs_servc": 49.4, "per_hs_nservc": 2.0, "per_hs_unclss": 0.0, "avghhsz_cy": 3.85028249, "st_areashape": 7085410.634372225, "st_lengthshape": 12400.851396285752}, "geometry": {"type": "Polygon", "coordinates": [[[79.8214262397337, 12.571540829728985], [79.8204114767376, 12.571490949814], [79.8192358003213, 12.567800200286255], [79.81777660032998, 12.566041000059592], [79.81436286480807, 12.565852848136448], [79.8144303606253, 12.565353420244415], [79.81446059971438, 12.564103140009477], [79.81465140008409, 12.563345879621673], [79.81494911973557, 12.562337880278466], [79.81523891983944, 12.561935400699369], [79.81554420061066, 12.560961689788169], [79.81591788000593, 12.559950809520656], [79.81624620076757, 12.559190760014252], [79.81694028047856, 12.558277169513884], [79.81723800013002, 12.55780412986374], [79.81745903958883, 12.5571899701958], [79.81758108021177, 12.556436579944094], [79.81765740018001, 12.553939799686557], [79.81777943990458, 12.55311396058418], [79.81826003947992, 12.55249314061846], [79.81851960049475, 12.551733990643413], [79.81877915971292, 12.550645800018367], [79.81929000017398, 12.550325399918489], [79.82104500011698, 12.54889871985049], [79.82147987993595, 12.547808639882952], [79.82279963983561, 12.547291770393352], [79.82365427992892, 12.546429660413208], [79.8241957197035, 12.545934659811271], [79.82486712054683, 12.545137439678445], [79.82646948055341, 12.545211780552089], [79.82784287975701, 12.545531279459407], [79.82812511963951, 12.545809740649855], [79.82814024008236, 12.545821169719638], [79.8280488005696, 12.547620809583986], [79.82807939988311, 12.548996009565945], [79.8286665603124, 12.549696929701325], [79.82997119976918, 12.54983993994465], [79.83102420045365, 12.551067359937193], [79.83243576009053, 12.552342389320305], [79.83432755997657, 12.553382879689261], [79.83592991998316, 12.553816769613327], [79.83628092051077, 12.553986509729757], [79.83772272013503, 12.5533466091963], [79.83798228025154, 12.55256081974604], [79.83870696017439, 12.55182074925075], [79.83950796006548, 12.551083559703152], [79.83951551938858, 12.551103629874548], [79.84020996022234, 12.552161220208404], [79.84096523945873, 12.553036650377724], [79.84250639993995, 12.55389120004825], [79.84274292006603, 12.554183970072023], [79.84326168007462, 12.555306450095136], [79.84397880067438, 12.556123740074995], [79.84601603960155, 12.555765180056778], [79.84696212010597, 12.556037879916735], [79.84886939976101, 12.556402200326707], [79.84883124022605, 12.55684473068587], [79.84879307979278, 12.557362589338599], [79.84866348074506, 12.557724929754544], [79.84840391973023, 12.559049639256264], [79.84844208016351, 12.560329439293401], [79.84842696061895, 12.56110766967567], [79.84793843969948, 12.561899219970288], [79.84792332015493, 12.56285862045889], [79.84826675956278, 12.563746470108969], [79.8489608401721, 12.56480316059359], [79.84894571972923, 12.565763460361572], [79.84839636040712, 12.566556000252131], [79.84771740024064, 12.56777190010374], [79.84651175961973, 12.568285979706419], [79.84577952037377, 12.56856821977309], [79.84494036004945, 12.567995999902227], [79.84384919983, 12.567907350253547], [79.84270476053109, 12.567940740189808], [79.84132380020775, 12.568997340658331], [79.83978263972652, 12.56856345004462], [79.83734147962002, 12.567915000251157], [79.83592236066005, 12.567596399797598], [79.8340683600845, 12.567469590269843], [79.83228312015406, 12.567461039793502], [79.83025343965167, 12.567219750004032], [79.82958995925416, 12.567956939769717], [79.82830800046167, 12.56949045036999], [79.82786555952298, 12.57111927005491], [79.82794943971265, 12.571277580455547], [79.8273392401913, 12.571371089803007], [79.82620991953858, 12.571404480165947], [79.82321183988854, 12.571394939937464], [79.8214262397337, 12.571540829728985]]]}}]}