{"type": "FeatureCollection", "features": [{"type": "Feature", "properties": {"premiumdata.sde.IN_Village_PCA.area": 6.37493332, "objectid": 104788, "id": "274854105640434", "name": "Chitmogra", "subdistrict": "Biloli", "district": "Nanded", "state": "Maharashtra", "country": "India", "censusname": "Chitmogra", "villagename_locallang": "\u091a\u093f\u091f\u092e\u094b\u0917\u0930\u093e", "lgd_villagename": "Chitmogra", "lgd_villagecode": 545091, "lgd_subdistrictcode": 4105, "lgd_districtcode": 485, "lgd_statecode": 27, "censuscode2001": "02002200", "censuscode2011": "545091", "censuscode2021": null, "level": "Village", "tru": "Rural", "no_hh": 571, "tot_p": 2573, "tot_m": 1333, "tot_f": 1240, "per_tot_m": 51.80722892, "per_tot_f": 48.19277108, "p_06": 384, "m_06": 207, "f_06": 177, "per_p_06": 14.92421298, "per_m_06": 53.90625, "per_f_06": 46.09375, "p_sc": 650, "m_sc": 341, "f_sc": 309, "per_p_sc": 25.26233968, "per_m_sc": 52.46153846, "per_f_sc": 47.53846154, "p_st": 21, "m_st": 10, "f_st": 11, "per_p_st": 0.8161679, "per_m_st": 47.61904762, "per_f_st": 52.38095238, "p_lit": 1418, "m_lit": 841, "f_lit": 577, "per_p_lit": 55.11076564, "per_m_lit": 59.30888575, "per_f_lit": 40.69111425, "p_ill": 1155, "m_ill": 492, "f_ill": 663, "per_p_ill": 44.88923436, "per_m_ill": 42.5974026, "per_f_ill": 57.4025974, "tot_work_p": 1154, "tot_work_m": 712, "tot_work_f": 442, "per_tot_work_p": 44.85036922, "per_tot_work_m": 61.69844021, "per_tot_work_f": 38.30155979, "mainwork_p": 1128, "mainwork_m": 701, "mainwork_f": 427, "per_mainwork_p": 43.83987563, "per_mainwork_m": 62.14539007, "per_mainwork_f": 37.85460993, "main_cl_p": 358, "main_cl_m": 259, "main_cl_f": 99, "per_main_cl_p": 31.73758865, "per_main_cl_m": 72.34636872, "per_main_cl_f": 27.65363128, "main_al_p": 676, "main_al_m": 361, "main_al_f": 315, "per_main_al_p": 59.92907801, "per_main_al_m": 53.40236686, "per_main_al_f": 46.59763314, "main_hh_p": 7, "main_hh_m": 6, "main_hh_f": 1, "per_main_hh_p": 0.62056738, "per_main_hh_m": 85.71428571, "per_main_hh_f": 14.28571429, "main_ot_p": 87, "main_ot_m": 75, "main_ot_f": 12, "per_main_ot_p": 7.71276596, "per_main_ot_m": 86.20689655, "per_main_ot_f": 13.79310345, "margwork_p": 26, "margwork_m": 11, "margwork_f": 15, "per_margwork_p": 1.01049359, "per_margwork_m": 42.30769231, "per_margwork_f": 57.69230769, "marg_cl_p": 0, "marg_cl_m": 0, "marg_cl_f": 0, "per_marg_cl_p": 0.0, "per_marg_cl_m": 0.0, "per_marg_cl_f": 0.0, "marg_al_p": 22, "marg_al_m": 9, "marg_al_f": 13, "per_marg_al_p": 84.61538462, "per_marg_al_m": 40.90909091, "per_marg_al_f": 59.09090909, "marg_hh_p": 0, "marg_hh_m": 0, "marg_hh_f": 0, "per_marg_hh_p": 0.0, "per_marg_hh_m": 0.0, "per_marg_hh_f": 0.0, "marg_ot_p": 4, "marg_ot_m": 2, "marg_ot_f": 2, "per_marg_ot_p": 15.38461538, "per_marg_ot_m": 50.0, "per_marg_ot_f": 50.0, "margwork_3_6_p": 26, "margwork_3_6_m": 11, "margwork_3_6_f": 15, "per_margwork_3_6_p": 100.0, "per_margwork_3_6_m": 42.30769231, "per_margwork_3_6_f": 57.69230769, "marg_cl_3_6_p": 0, "marg_cl_3_6_m": 0, "marg_cl_3_6_f": 0, "per_marg_cl_3_6_p": 0.0, "per_marg_cl_3_6_m": 0.0, "per_marg_cl_3_6_f": 0.0, "marg_al_3_6_p": 22, "marg_al_3_6_m": 9, "marg_al_3_6_f": 13, "per_marg_al_3_6_p": 84.61538462, "per_marg_al_3_6_m": 40.90909091, "per_marg_al_3_6_f": 59.09090909, "marg_hh_3_6_p": 0, "marg_hh_3_6_m": 0, "marg_hh_3_6_f": 0, "per_marg_hh_3_6_p": 0.0, "per_marg_hh_3_6_m": 0.0, "per_marg_hh_3_6_f": 0.0, "marg_ot_3_6_p": 4, "marg_ot_3_6_m": 2, "marg_ot_3_6_f": 2, "per_marg_ot_3_6_p": 15.38461538, "per_marg_ot_3_6_m": 50.0, "per_marg_ot_3_6_f": 50.0, "margwork_0_3_p": 0, "margwork_0_3_m": 0, "margwork_0_3_f": 0, "per_margwork_0_3_p": 0.0, "per_margwork_0_3_m": 0.0, "per_margwork_0_3_f": 0.0, "marg_cl_0_3_p": 0, "marg_cl_0_3_m": 0, "marg_cl_0_3_f": 0, "per_marg_cl_0_3_p": 0.0, "per_marg_cl_0_3_m": 0.0, "per_marg_cl_0_3_f": 0.0, "marg_al_0_3_p": 0, "marg_al_0_3_m": 0, "marg_al_0_3_f": 0, "per_marg_al_0_3_p": 0.0, "per_marg_al_0_3_m": 0.0, "per_marg_al_0_3_f": 0.0, "marg_hh_0_3_p": 0, "marg_hh_0_3_m": 0, "marg_hh_0_3_f": 0, "per_marg_hh_0_3_p": 0.0, "per_marg_hh_0_3_m": 0.0, "per_marg_hh_0_3_f": 0.0, "marg_ot_0_3_p": 0, "marg_ot_0_3_m": 0, "marg_ot_0_3_f": 0, "per_marg_ot_0_3_p": 0.0, "per_marg_ot_0_3_m": 0.0, "per_marg_ot_0_3_f": 0.0, "non_work_p": 1419, "non_work_m": 621, "non_work_f": 798, "per_non_work_p": 55.14963078, "per_non_work_m": 43.76321353, "per_non_work_f": 56.23678647, "per_hc_tot_tot": 100, "per_hc_tot_god": 12.3, "per_hc_tot_liv": 87.0, "per_hc_tot_dil": 0.7, "per_hc_res_tot": 99.6, "per_hc_res_god": 12.3, "per_hc_res_liv": 86.6, "per_hc_res_dil": 0.7, "per_hc_oth_tot": 0.4, "per_hc_oth_god": 0.0, "per_hc_oth_liv": 0.4, "per_hc_oth_dil": 0.0, "per_mt_grsbam": 6.0, "per_mt_plastic": 0.0, "per_mt_h_tiles": 30.2, "per_mt_m_tiles": 7.1, "per_mt_b_brick": 0.0, "per_mt_stone": 0.0, "per_mt_asbstos": 54.8, "per_mt_concrte": 2.0, "per_mt_oth": 0.0, "per_mw_grsbam": 9.2, "per_mw_plastic": 0.0, "per_mw_mud": 34.5, "per_mw_wood": 0.4, "per_mw_no_mrtr": 0.5, "per_mw_st_mrtr": 47.4, "per_mw_asbstos": 0.0, "per_mw_b_brick": 8.0, "per_mw_concrte": 0.0, "per_mw_oth": 0.0, "per_mf_mud": 89.7, "per_mf_wood": 0.0, "per_mf_b_brick": 0.2, "per_mf_stone": 6.3, "per_mf_cement": 2.2, "per_mf_fl_tile": 1.6, "per_mf_oth": 0.0, "per_dw_n_exrm": 2.4, "per_dw_1_room": 80.5, "per_dw_2_room": 12.3, "per_dw_3_room": 2.5, "per_dw_4_room": 2.2, "per_dw_5_room": 0.0, "per_dw_6_room": 0.2, "per_hhsize_1": 1.8, "per_hhsize_2": 12.5, "per_hhsize_3": 15.4, "per_hhsize_4": 25.1, "per_hhsize_5": 20.8, "per_hhsize_6_8": 22.1, "per_hhsize_9p": 2.4, "per_ow_owned": 98.9, "per_ow_rented": 0.9, "per_ow_oth": 0.2, "per_mc_none": 6.0, "per_mcouple_1": 81.6, "per_mcouple_2": 10.5, "per_mcouple_3": 2.0, "per_mcouple_4": 0.0, "per_mcouple_5p": 0.0, "per_dw_t_ts": 1.3, "per_dw_t_unts": 38.7, "per_dw_c_well": 0.0, "per_dw_unc_wel": 0.4, "per_dw_hpump": 53.7, "per_dw_tw_bore": 6.0, "per_dw_spring": 0.0, "per_dw_rivcan": 0.0, "per_dw_tank": 0.0, "per_dw_oth": 0.0, "per_loc_dw_wp": 42.9, "per_loc_dw_np": 38.2, "per_loc_dw_aw": 19.0, "per_light_elec": 55.9, "per_light_kero": 43.8, "per_light_solr": 0.0, "per_light_oil": 0.0, "per_light_oth": 0.0, "per_light_no": 0.4, "per_hh_latrine": 6.9, "per_fl_sewer": 0.0, "per_fl_septict": 4.2, "per_fl_othsys": 0.7, "per_pl_wslab": 2.0, "per_pl_without": 0.0, "per_ns_open": 0.0, "per_sl_ns_hum": 0.0, "per_sl_ns_anml": 0.0, "per_hh_no_lat": 93.1, "per_as_pub": 0.0, "per_as_open": 93.1, "per_hh_bathrm": 19.9, "per_hh_en_wrf": 68.5, "per_hh_no_btrm": 11.6, "per_wwoc_drain": 0.0, "per_wwoc_open": 20.8, "per_wwoc_nodrn": 79.2, "per_cook_fire": 40.3, "per_cook_resdu": 57.7, "per_cook_cwdng": 0.0, "per_cook_coal": 0.2, "per_cook_kero": 0.0, "per_cook_lpng": 1.8, "per_cook_elec": 0.0, "per_cook_biogs": 0.0, "per_cook_oth": 0.0, "per_cook_no": 0.0, "per_kf_inside": 98.2, "per_kf_in_has": 41.6, "per_kf_in_does": 56.6, "per_kf_outside": 1.8, "per_kf_out_has": 0.5, "per_kf_out_dos": 1.3, "per_kf_no_cook": 0.0, "per_hh_banking": 16.8, "per_hh_radio": 6.5, "per_hh_tv": 9.2, "per_hh_cmp_int": 0.2, "per_hh_cmp_wnt": 0.5, "per_hh_ph_ll": 0.9, "per_hh_ph_mob": 43.9, "per_hh_ph_bth": 0.2, "per_hh_bcycl": 3.3, "per_hh_2wheel": 3.1, "per_hh_4wheel": 0.2, "per_hh_tvcomp": 0.4, "per_hh_no_ast": 50.5, "per_hs_perma": 55.2, "per_hs_sperma": 39.6, "per_hs_temp": 5.2, "per_hs_servc": 3.3, "per_hs_nservc": 2.0, "per_hs_unclss": 0.0, "avghhsz_cy": 4.5061296, "st_areashape": 7142294.397608875, "st_lengthshape": 12346.040539881962}, "geometry": {"type": "Polygon", "coordinates": [[[77.59676856267068, 18.691871789723585], [77.59656241368604, 18.69304850101031], [77.59572737483221, 18.694803730870035], [77.59425862125782, 18.695757491613513], [77.59173517816626, 18.695898320506032], [77.58731758160256, 18.695595443322702], [77.57827223569932, 18.694563266780534], [77.57533536276115, 18.695060011488103], [77.57177937362414, 18.696506914439148], [77.56862599771935, 18.696008769118297], [77.56672807132303, 18.695162462871185], [77.56394945099524, 18.69078459425503], [77.56204682730831, 18.68974615947232], [77.55909774806209, 18.689057057704137], [77.55010149778404, 18.68853043296383], [77.55397028928616, 18.686047413466856], [77.55686968990052, 18.68162151364666], [77.55847306769833, 18.678356862357184], [77.56718036588205, 18.678678326432742], [77.57434906108821, 18.6788779463745], [77.57941917770462, 18.679974089016977], [77.58267651923049, 18.68050973788605], [77.58765512626552, 18.68131914960872], [77.58913641942294, 18.682127921780747], [77.59041305929065, 18.684301170185023], [77.59423025695274, 18.689270523096933], [77.59676856267068, 18.691871789723585]]]}}]}