{"type": "FeatureCollection", "features": [{"type": "Feature", "properties": {"premiumdata.sde.IN_Village_PCA.area": 3.73789266, "objectid": 488333, "id": "203352641195651", "name": "Itke", "subdistrict": "Bariyatu", "district": "Latehar", "state": "Jharkhand", "country": "India", "censusname": "Itke", "villagename_locallang": "\u0907\u091f\u094d\u0915\u0947", "lgd_villagename": "Itke", "lgd_villagecode": 367448, "lgd_subdistrictcode": 2641, "lgd_districtcode": 335, "lgd_statecode": 20, "censuscode2001": "00336400", "censuscode2011": "367448", "censuscode2021": null, "level": "Village", "tru": "Rural", "no_hh": 350, "tot_p": 2175, "tot_m": 1106, "tot_f": 1069, "per_tot_m": 50.85057471, "per_tot_f": 49.14942529, "p_06": 389, "m_06": 202, "f_06": 187, "per_p_06": 17.88505747, "per_m_06": 51.92802057, "per_f_06": 48.07197943, "p_sc": 226, "m_sc": 124, "f_sc": 102, "per_p_sc": 10.3908046, "per_m_sc": 54.86725664, "per_f_sc": 45.13274336, "p_st": 1069, "m_st": 534, "f_st": 535, "per_p_st": 49.14942529, "per_m_st": 49.95322732, "per_f_st": 50.04677268, "p_lit": 1356, "m_lit": 768, "f_lit": 588, "per_p_lit": 62.34482759, "per_m_lit": 56.63716814, "per_f_lit": 43.36283186, "p_ill": 819, "m_ill": 338, "f_ill": 481, "per_p_ill": 37.65517241, "per_m_ill": 41.26984127, "per_f_ill": 58.73015873, "tot_work_p": 1034, "tot_work_m": 522, "tot_work_f": 512, "per_tot_work_p": 47.54022989, "per_tot_work_m": 50.48355899, "per_tot_work_f": 49.51644101, "mainwork_p": 681, "mainwork_m": 433, "mainwork_f": 248, "per_mainwork_p": 31.31034483, "per_mainwork_m": 63.58296623, "per_mainwork_f": 36.41703377, "main_cl_p": 513, "main_cl_m": 296, "main_cl_f": 217, "per_main_cl_p": 75.33039648, "per_main_cl_m": 57.69980507, "per_main_cl_f": 42.30019493, "main_al_p": 29, "main_al_m": 14, "main_al_f": 15, "per_main_al_p": 4.25844347, "per_main_al_m": 48.27586207, "per_main_al_f": 51.72413793, "main_hh_p": 2, "main_hh_m": 1, "main_hh_f": 1, "per_main_hh_p": 0.29368576, "per_main_hh_m": 50.0, "per_main_hh_f": 50.0, "main_ot_p": 137, "main_ot_m": 122, "main_ot_f": 15, "per_main_ot_p": 20.1174743, "per_main_ot_m": 89.05109489, "per_main_ot_f": 10.94890511, "margwork_p": 353, "margwork_m": 89, "margwork_f": 264, "per_margwork_p": 16.22988506, "per_margwork_m": 25.21246459, "per_margwork_f": 74.78753541, "marg_cl_p": 251, "marg_cl_m": 35, "marg_cl_f": 216, "per_marg_cl_p": 71.10481586, "per_marg_cl_m": 13.94422311, "per_marg_cl_f": 86.05577689, "marg_al_p": 81, "marg_al_m": 36, "marg_al_f": 45, "per_marg_al_p": 22.94617564, "per_marg_al_m": 44.44444444000001, "per_marg_al_f": 55.55555556, "marg_hh_p": 1, "marg_hh_m": 1, "marg_hh_f": 0, "per_marg_hh_p": 0.28328612, "per_marg_hh_m": 100.0, "per_marg_hh_f": 0.0, "marg_ot_p": 20, "marg_ot_m": 17, "marg_ot_f": 3, "per_marg_ot_p": 5.66572238, "per_marg_ot_m": 85.0, "per_marg_ot_f": 15.0, "margwork_3_6_p": 308, "margwork_3_6_m": 72, "margwork_3_6_f": 236, "per_margwork_3_6_p": 87.25212465, "per_margwork_3_6_m": 23.37662338, "per_margwork_3_6_f": 76.62337662, "marg_cl_3_6_p": 217, "marg_cl_3_6_m": 19, "marg_cl_3_6_f": 198, "per_marg_cl_3_6_p": 61.47308782, "per_marg_cl_3_6_m": 8.75576037, "per_marg_cl_3_6_f": 91.24423963000001, "marg_al_3_6_p": 70, "marg_al_3_6_m": 35, "marg_al_3_6_f": 35, "per_marg_al_3_6_p": 19.83002833, "per_marg_al_3_6_m": 50.0, "per_marg_al_3_6_f": 50.0, "marg_hh_3_6_p": 1, "marg_hh_3_6_m": 1, "marg_hh_3_6_f": 0, "per_marg_hh_3_6_p": 0.28328612, "per_marg_hh_3_6_m": 100.0, "per_marg_hh_3_6_f": 0.0, "marg_ot_3_6_p": 20, "marg_ot_3_6_m": 17, "marg_ot_3_6_f": 3, "per_marg_ot_3_6_p": 5.66572238, "per_marg_ot_3_6_m": 85.0, "per_marg_ot_3_6_f": 15.0, "margwork_0_3_p": 45, "margwork_0_3_m": 17, "margwork_0_3_f": 28, "per_margwork_0_3_p": 12.74787535, "per_margwork_0_3_m": 37.77777778, "per_margwork_0_3_f": 62.22222222, "marg_cl_0_3_p": 34, "marg_cl_0_3_m": 16, "marg_cl_0_3_f": 18, "per_marg_cl_0_3_p": 9.63172805, "per_marg_cl_0_3_m": 47.05882353, "per_marg_cl_0_3_f": 52.94117647, "marg_al_0_3_p": 11, "marg_al_0_3_m": 1, "marg_al_0_3_f": 10, "per_marg_al_0_3_p": 3.11614731, "per_marg_al_0_3_m": 9.09090909, "per_marg_al_0_3_f": 90.90909091, "marg_hh_0_3_p": 0, "marg_hh_0_3_m": 0, "marg_hh_0_3_f": 0, "per_marg_hh_0_3_p": 0.0, "per_marg_hh_0_3_m": 0.0, "per_marg_hh_0_3_f": 0.0, "marg_ot_0_3_p": 0, "marg_ot_0_3_m": 0, "marg_ot_0_3_f": 0, "per_marg_ot_0_3_p": 0.0, "per_marg_ot_0_3_m": 0.0, "per_marg_ot_0_3_f": 0.0, "non_work_p": 1141, "non_work_m": 584, "non_work_f": 557, "per_non_work_p": 52.45977011, "per_non_work_m": 51.18317266, "per_non_work_f": 48.81682734, "per_hc_tot_tot": 100, "per_hc_tot_god": 97.9, "per_hc_tot_liv": 2.1, "per_hc_tot_dil": 0.0, "per_hc_res_tot": 99.7, "per_hc_res_god": 97.9, "per_hc_res_liv": 1.8, "per_hc_res_dil": 0.0, "per_hc_oth_tot": 0.3, "per_hc_oth_god": 0.0, "per_hc_oth_liv": 0.3, "per_hc_oth_dil": 0.0, "per_mt_grsbam": 0.0, "per_mt_plastic": 0.0, "per_mt_h_tiles": 77.7, "per_mt_m_tiles": 0.0, "per_mt_b_brick": 0.0, "per_mt_stone": 0.0, "per_mt_asbstos": 1.2, "per_mt_concrte": 21.1, "per_mt_oth": 0.0, "per_mw_grsbam": 0.0, "per_mw_plastic": 0.0, "per_mw_mud": 76.5, "per_mw_wood": 0.0, "per_mw_no_mrtr": 0.0, "per_mw_st_mrtr": 0.0, "per_mw_asbstos": 0.0, "per_mw_b_brick": 23.2, "per_mw_concrte": 0.3, "per_mw_oth": 0.0, "per_mf_mud": 79.8, "per_mf_wood": 0.0, "per_mf_b_brick": 1.2, "per_mf_stone": 0.0, "per_mf_cement": 19.1, "per_mf_fl_tile": 0.0, "per_mf_oth": 0.0, "per_dw_n_exrm": 0.0, "per_dw_1_room": 2.3, "per_dw_2_room": 38.1, "per_dw_3_room": 37.5, "per_dw_4_room": 16.7, "per_dw_5_room": 2.9, "per_dw_6_room": 2.3, "per_hhsize_1": 0.3, "per_hhsize_2": 3.8, "per_hhsize_3": 8.8, "per_hhsize_4": 12.6, "per_hhsize_5": 16.4, "per_hhsize_6_8": 39.0, "per_hhsize_9p": 19.1, "per_ow_owned": 99.7, "per_ow_rented": 0.0, "per_ow_oth": 0.3, "per_mc_none": 6.2, "per_mcouple_1": 77.7, "per_mcouple_2": 12.6, "per_mcouple_3": 2.6, "per_mcouple_4": 0.6, "per_mcouple_5p": 0.3, "per_dw_t_ts": 0.0, "per_dw_t_unts": 0.0, "per_dw_c_well": 0.6, "per_dw_unc_wel": 74.2, "per_dw_hpump": 24.9, "per_dw_tw_bore": 0.0, "per_dw_spring": 0.0, "per_dw_rivcan": 0.0, "per_dw_tank": 0.3, "per_dw_oth": 0.0, "per_loc_dw_wp": 36.7, "per_loc_dw_np": 61.3, "per_loc_dw_aw": 2.1, "per_light_elec": 95.6, "per_light_kero": 4.4, "per_light_solr": 0.0, "per_light_oil": 0.0, "per_light_oth": 0.0, "per_light_no": 0.0, "per_hh_latrine": 23.2, "per_fl_sewer": 0.0, "per_fl_septict": 22.6, "per_fl_othsys": 0.6, "per_pl_wslab": 0.0, "per_pl_without": 0.0, "per_ns_open": 0.0, "per_sl_ns_hum": 0.0, "per_sl_ns_anml": 0.0, "per_hh_no_lat": 76.8, "per_as_pub": 0.0, "per_as_open": 76.8, "per_hh_bathrm": 33.4, "per_hh_en_wrf": 5.0, "per_hh_no_btrm": 61.6, "per_wwoc_drain": 0.3, "per_wwoc_open": 16.4, "per_wwoc_nodrn": 83.3, "per_cook_fire": 87.4, "per_cook_resdu": 0.3, "per_cook_cwdng": 0.0, "per_cook_coal": 12.3, "per_cook_kero": 0.0, "per_cook_lpng": 0.0, "per_cook_elec": 0.0, "per_cook_biogs": 0.0, "per_cook_oth": 0.0, "per_cook_no": 0.0, "per_kf_inside": 100.0, "per_kf_in_has": 100.0, "per_kf_in_does": 0.0, "per_kf_outside": 0.0, "per_kf_out_has": 0.0, "per_kf_out_dos": 0.0, "per_kf_no_cook": 0.0, "per_hh_banking": 46.0, "per_hh_radio": 78.9, "per_hh_tv": 1.2, "per_hh_cmp_int": 0.0, "per_hh_cmp_wnt": 0.0, "per_hh_ph_ll": 0.0, "per_hh_ph_mob": 40.5, "per_hh_ph_bth": 0.0, "per_hh_bcycl": 67.2, "per_hh_2wheel": 13.5, "per_hh_4wheel": 0.6, "per_hh_tvcomp": 0.0, "per_hh_no_ast": 11.4, "per_hs_perma": 23.5, "per_hs_sperma": 76.5, "per_hs_temp": 0.0, "per_hs_servc": 0.0, "per_hs_nservc": 0.0, "per_hs_unclss": 0.0, "avghhsz_cy": 6.21428571, "st_areashape": 4491804.76930762, "st_lengthshape": 8789.265631034037}, "geometry": {"type": "Polygon", "coordinates": [[[84.8363000001312, 23.90485000005092], [84.83614000029762, 23.90363999959072], [84.83534000023147, 23.901559999854662], [84.834370000286, 23.900710000205613], [84.83307000062763, 23.900259999964874], [84.83138000008363, 23.90021000002396], [84.8288300000973, 23.89973000042859], [84.82815999972746, 23.899360000533825], [84.8280000007922, 23.898469999891066], [84.82798999984816, 23.898059999877844], [84.82807999936153, 23.898059999877844], [84.82993999978487, 23.897060000082558], [84.83141000022086, 23.896389999934176], [84.83162999943055, 23.895759999300385], [84.83145000040382, 23.89374999944626], [84.8315199998257, 23.892170000306574], [84.83166999961354, 23.89146999993466], [84.83359999945874, 23.890470000106653], [84.8348200005478, 23.88961999984185], [84.83718000056331, 23.886979999982298], [84.83883000002602, 23.88497999956728], [84.83958999990922, 23.883809999756043], [84.84433000003176, 23.883900000369863], [84.84656999949837, 23.884310000092373], [84.84686999997234, 23.88438000039596], [84.84790000019227, 23.884630000115], [84.84839999978446, 23.885480000310658], [84.85023000007058, 23.88840999978334], [84.8505699998292, 23.889300000662416], [84.85065000019515, 23.890180000402456], [84.84990999950509, 23.89156999998505], [84.8498800002662, 23.892389999617595], [84.84998999987103, 23.89421999943186], [84.85050000040731, 23.897109999598932], [84.85102000009098, 23.899829999841053], [84.85085000021166, 23.90081999962471], [84.85052000049879, 23.901279999466684], [84.849809999946, 23.901789999485022], [84.84882999995477, 23.902070000411037], [84.84777999964336, 23.902380000200893], [84.84715999950227, 23.902429999302598], [84.8471200002176, 23.902690000068702], [84.84650999922391, 23.903349999854488], [84.84572999924923, 23.903919999794912], [84.84494000012712, 23.90437000043635], [84.84442000044344, 23.90452999995841], [84.84370999989065, 23.904389999771478], [84.84325000048142, 23.904309999948584], [84.8429099998245, 23.90431999962117], [84.84264000038607, 23.90437000043635], [84.84243999947122, 23.90447000036615], [84.84219000012425, 23.904660000348162], [84.84195999997051, 23.905150000136786], [84.84173999986245, 23.905700000402184], [84.84155999993742, 23.905860000741747], [84.84134999987512, 23.905930000058103], [84.84113999981285, 23.905919999688827], [84.84079000000847, 23.905839999991553], [84.84026000027905, 23.905619999747486], [84.83968999946835, 23.905299999918633], [84.83919999992187, 23.90502000023982], [84.83857000063334, 23.904789999785947], [84.83829000025088, 23.904650000701874], [84.83797999973116, 23.904640000233545], [84.83783999998909, 23.904640000233545], [84.83771999944015, 23.90469000010367], [84.83753000036769, 23.904829999965692], [84.83726000003095, 23.905119999666773], [84.83712999943629, 23.905230000261106], [84.83693999946547, 23.90525999988433], [84.83680999976914, 23.905270000304686], [84.83669000011855, 23.905219999837634], [84.83658999966111, 23.90511000005607], [84.836490000102, 23.90496999967605], [84.8363699995531, 23.904889999390832], [84.8363000001312, 23.90485000005092]]]}}]}