{"type": "FeatureCollection", "features": [{"type": "Feature", "properties": {"premiumdata.sde.IN_Village_PCA.area": 2.35985319, "objectid": 602410, "id": "102141136326189", "name": "Shahbaz", "subdistrict": "Srinagar", "district": "Purnia", "state": "Bihar", "country": "India", "censusname": "Shahbaz", "villagename_locallang": "\u0936\u093e\u0939\u092c\u093e\u095b", "lgd_villagename": "Shahbaz", "lgd_villagecode": 223610, "lgd_subdistrictcode": 1136, "lgd_districtcode": 214, "lgd_statecode": 10, "censuscode2001": "00764800", "censuscode2011": "223610", "censuscode2021": null, "level": "Village", "tru": "Rural", "no_hh": 234, "tot_p": 1137, "tot_m": 587, "tot_f": 550, "per_tot_m": 51.62708883000001, "per_tot_f": 48.37291117, "p_06": 219, "m_06": 120, "f_06": 99, "per_p_06": 19.26121372, "per_m_06": 54.79452055, "per_f_06": 45.20547945, "p_sc": 469, "m_sc": 220, "f_sc": 249, "per_p_sc": 41.24890062, "per_m_sc": 46.90831557, "per_f_sc": 53.09168443, "p_st": 0, "m_st": 0, "f_st": 0, "per_p_st": 0.0, "per_m_st": 0.0, "per_f_st": 0.0, "p_lit": 484, "m_lit": 277, "f_lit": 207, "per_p_lit": 42.56816183, "per_m_lit": 57.23140496, "per_f_lit": 42.76859504, "p_ill": 653, "m_ill": 310, "f_ill": 343, "per_p_ill": 57.43183817000001, "per_m_ill": 47.47320061, "per_f_ill": 52.52679939, "tot_work_p": 556, "tot_work_m": 293, "tot_work_f": 263, "per_tot_work_p": 48.90061566, "per_tot_work_m": 52.69784173, "per_tot_work_f": 47.30215827, "mainwork_p": 377, "mainwork_m": 262, "mainwork_f": 115, "per_mainwork_p": 33.15743184, "per_mainwork_m": 69.49602121999999, "per_mainwork_f": 30.50397878, "main_cl_p": 216, "main_cl_m": 159, "main_cl_f": 57, "per_main_cl_p": 57.29442971, "per_main_cl_m": 73.61111111, "per_main_cl_f": 26.38888889, "main_al_p": 145, "main_al_m": 95, "main_al_f": 50, "per_main_al_p": 38.46153846, "per_main_al_m": 65.51724138, "per_main_al_f": 34.48275862, "main_hh_p": 4, "main_hh_m": 2, "main_hh_f": 2, "per_main_hh_p": 1.06100796, "per_main_hh_m": 50.0, "per_main_hh_f": 50.0, "main_ot_p": 12, "main_ot_m": 6, "main_ot_f": 6, "per_main_ot_p": 3.18302387, "per_main_ot_m": 50.0, "per_main_ot_f": 50.0, "margwork_p": 179, "margwork_m": 31, "margwork_f": 148, "per_margwork_p": 15.74318382, "per_margwork_m": 17.31843575, "per_margwork_f": 82.68156425, "marg_cl_p": 108, "marg_cl_m": 17, "marg_cl_f": 91, "per_marg_cl_p": 60.33519553, "per_marg_cl_m": 15.74074074, "per_marg_cl_f": 84.25925926000001, "marg_al_p": 68, "marg_al_m": 12, "marg_al_f": 56, "per_marg_al_p": 37.98882682, "per_marg_al_m": 17.64705882, "per_marg_al_f": 82.35294118, "marg_hh_p": 0, "marg_hh_m": 0, "marg_hh_f": 0, "per_marg_hh_p": 0.0, "per_marg_hh_m": 0.0, "per_marg_hh_f": 0.0, "marg_ot_p": 3, "marg_ot_m": 2, "marg_ot_f": 1, "per_marg_ot_p": 1.67597765, "per_marg_ot_m": 66.66666667, "per_marg_ot_f": 33.33333333, "margwork_3_6_p": 164, "margwork_3_6_m": 26, "margwork_3_6_f": 138, "per_margwork_3_6_p": 91.62011173, "per_margwork_3_6_m": 15.85365854, "per_margwork_3_6_f": 84.14634146, "marg_cl_3_6_p": 95, "marg_cl_3_6_m": 13, "marg_cl_3_6_f": 82, "per_marg_cl_3_6_p": 53.0726257, "per_marg_cl_3_6_m": 13.68421053, "per_marg_cl_3_6_f": 86.31578947000001, "marg_al_3_6_p": 66, "marg_al_3_6_m": 11, "marg_al_3_6_f": 55, "per_marg_al_3_6_p": 36.87150838, "per_marg_al_3_6_m": 16.66666667, "per_marg_al_3_6_f": 83.33333332999999, "marg_hh_3_6_p": 0, "marg_hh_3_6_m": 0, "marg_hh_3_6_f": 0, "per_marg_hh_3_6_p": 0.0, "per_marg_hh_3_6_m": 0.0, "per_marg_hh_3_6_f": 0.0, "marg_ot_3_6_p": 3, "marg_ot_3_6_m": 2, "marg_ot_3_6_f": 1, "per_marg_ot_3_6_p": 1.67597765, "per_marg_ot_3_6_m": 66.66666667, "per_marg_ot_3_6_f": 33.33333333, "margwork_0_3_p": 15, "margwork_0_3_m": 5, "margwork_0_3_f": 10, "per_margwork_0_3_p": 8.37988827, "per_margwork_0_3_m": 33.33333333, "per_margwork_0_3_f": 66.66666667, "marg_cl_0_3_p": 13, "marg_cl_0_3_m": 4, "marg_cl_0_3_f": 9, "per_marg_cl_0_3_p": 7.26256983, "per_marg_cl_0_3_m": 30.76923077, "per_marg_cl_0_3_f": 69.23076923, "marg_al_0_3_p": 2, "marg_al_0_3_m": 1, "marg_al_0_3_f": 1, "per_marg_al_0_3_p": 1.11731844, "per_marg_al_0_3_m": 50.0, "per_marg_al_0_3_f": 50.0, "marg_hh_0_3_p": 0, "marg_hh_0_3_m": 0, "marg_hh_0_3_f": 0, "per_marg_hh_0_3_p": 0.0, "per_marg_hh_0_3_m": 0.0, "per_marg_hh_0_3_f": 0.0, "marg_ot_0_3_p": 0, "marg_ot_0_3_m": 0, "marg_ot_0_3_f": 0, "per_marg_ot_0_3_p": 0.0, "per_marg_ot_0_3_m": 0.0, "per_marg_ot_0_3_f": 0.0, "non_work_p": 581, "non_work_m": 294, "non_work_f": 287, "per_non_work_p": 51.09938434, "per_non_work_m": 50.60240964, "per_non_work_f": 49.39759036, "per_hc_tot_tot": 100, "per_hc_tot_god": 27.6, "per_hc_tot_liv": 65.9, "per_hc_tot_dil": 6.5, "per_hc_res_tot": 99.1, "per_hc_res_god": 26.7, "per_hc_res_liv": 65.9, "per_hc_res_dil": 6.5, "per_hc_oth_tot": 0.9, "per_hc_oth_god": 0.9, "per_hc_oth_liv": 0.0, "per_hc_oth_dil": 0.0, "per_mt_grsbam": 79.7, "per_mt_plastic": 0.4, "per_mt_h_tiles": 0.0, "per_mt_m_tiles": 0.0, "per_mt_b_brick": 0.0, "per_mt_stone": 4.3, "per_mt_asbstos": 9.5, "per_mt_concrte": 6.0, "per_mt_oth": 0.0, "per_mw_grsbam": 88.4, "per_mw_plastic": 0.0, "per_mw_mud": 0.0, "per_mw_wood": 0.0, "per_mw_no_mrtr": 0.0, "per_mw_st_mrtr": 0.0, "per_mw_asbstos": 0.0, "per_mw_b_brick": 11.6, "per_mw_concrte": 0.0, "per_mw_oth": 0.0, "per_mf_mud": 91.4, "per_mf_wood": 0.0, "per_mf_b_brick": 1.7, "per_mf_stone": 4.3, "per_mf_cement": 2.6, "per_mf_fl_tile": 0.0, "per_mf_oth": 0.0, "per_dw_n_exrm": 20.3, "per_dw_1_room": 52.2, "per_dw_2_room": 19.4, "per_dw_3_room": 5.2, "per_dw_4_room": 1.7, "per_dw_5_room": 0.4, "per_dw_6_room": 0.9, "per_hhsize_1": 2.6, "per_hhsize_2": 12.1, "per_hhsize_3": 11.6, "per_hhsize_4": 17.7, "per_hhsize_5": 20.7, "per_hhsize_6_8": 30.6, "per_hhsize_9p": 4.7, "per_ow_owned": 100.0, "per_ow_rented": 0.0, "per_ow_oth": 0.0, "per_mc_none": 6.0, "per_mcouple_1": 85.3, "per_mcouple_2": 8.2, "per_mcouple_3": 0.4, "per_mcouple_4": 0.0, "per_mcouple_5p": 0.0, "per_dw_t_ts": 0.9, "per_dw_t_unts": 0.0, "per_dw_c_well": 0.0, "per_dw_unc_wel": 0.0, "per_dw_hpump": 99.1, "per_dw_tw_bore": 0.0, "per_dw_spring": 0.0, "per_dw_rivcan": 0.0, "per_dw_tank": 0.0, "per_dw_oth": 0.0, "per_loc_dw_wp": 30.2, "per_loc_dw_np": 69.0, "per_loc_dw_aw": 0.9, "per_light_elec": 27.6, "per_light_kero": 72.0, "per_light_solr": 0.0, "per_light_oil": 0.0, "per_light_oth": 0.4, "per_light_no": 0.0, "per_hh_latrine": 7.8, "per_fl_sewer": 0.0, "per_fl_septict": 6.0, "per_fl_othsys": 0.4, "per_pl_wslab": 1.3, "per_pl_without": 0.0, "per_ns_open": 0.0, "per_sl_ns_hum": 0.0, "per_sl_ns_anml": 0.0, "per_hh_no_lat": 92.2, "per_as_pub": 0.0, "per_as_open": 92.2, "per_hh_bathrm": 1.3, "per_hh_en_wrf": 77.6, "per_hh_no_btrm": 21.1, "per_wwoc_drain": 0.4, "per_wwoc_open": 65.1, "per_wwoc_nodrn": 34.5, "per_cook_fire": 0.0, "per_cook_resdu": 96.1, "per_cook_cwdng": 3.0, "per_cook_coal": 0.0, "per_cook_kero": 0.0, "per_cook_lpng": 0.9, "per_cook_elec": 0.0, "per_cook_biogs": 0.0, "per_cook_oth": 0.0, "per_cook_no": 0.0, "per_kf_inside": 57.8, "per_kf_in_has": 36.6, "per_kf_in_does": 21.1, "per_kf_outside": 42.2, "per_kf_out_has": 3.4, "per_kf_out_dos": 38.8, "per_kf_no_cook": 0.0, "per_hh_banking": 28.9, "per_hh_radio": 6.9, "per_hh_tv": 3.9, "per_hh_cmp_int": 0.4, "per_hh_cmp_wnt": 2.2, "per_hh_ph_ll": 0.0, "per_hh_ph_mob": 23.7, "per_hh_ph_bth": 0.0, "per_hh_bcycl": 25.4, "per_hh_2wheel": 7.3, "per_hh_4wheel": 0.9, "per_hh_tvcomp": 0.0, "per_hh_no_ast": 61.2, "per_hs_perma": 10.8, "per_hs_sperma": 9.9, "per_hs_temp": 79.3, "per_hs_servc": 0.0, "per_hs_nservc": 79.3, "per_hs_unclss": 0.0, "avghhsz_cy": 4.85897436, "st_areashape": 2926614.751801045, "st_lengthshape": 8547.22614973852}, "geometry": {"type": "Polygon", "coordinates": [[[87.40684484507125, 25.870083192810622], [87.4061065772314, 25.870236821400137], [87.40528852192635, 25.870598044940607], [87.40368220394264, 25.870833047904565], [87.40276950932575, 25.871537264301132], [87.40127785140656, 25.87150595309493], [87.40089878571288, 25.871794859237788], [87.40034501835767, 25.871907804937045], [87.40008545913948, 25.871000733212576], [87.39988078429019, 25.870626170926176], [87.39945668155973, 25.87036440590162], [87.39732156040255, 25.870509227824108], [87.3966680333384, 25.87040550174992], [87.396019528755, 25.87031986914998], [87.39587477782338, 25.86999487806468], [87.39530096635923, 25.86962937922789], [87.3951362836081, 25.869196156087014], [87.39508620073438, 25.86823038230909], [87.39523580526347, 25.867625498625003], [87.39600874897161, 25.866163152742246], [87.39645260296022, 25.865648577134202], [87.39803869717194, 25.86423564191392], [87.39920574257499, 25.863170342985327], [87.40022311697362, 25.861888446878584], [87.40104574739843, 25.86003332289768], [87.4016739554463, 25.85879655228241], [87.40219763013776, 25.858597869695775], [87.40335458386694, 25.857428712970467], [87.4037934971215, 25.857180434820005], [87.40458665561846, 25.857306600161536], [87.40588859204458, 25.857568121686047], [87.40650706504968, 25.85740103006862], [87.407210320153, 25.856981131105865], [87.4073798789595, 25.85690432519625], [87.40859718959429, 25.85773455666623], [87.4092657787108, 25.858036804733096], [87.40990422755291, 25.858081765659524], [87.41062237762196, 25.85771144924364], [87.41095652216154, 25.857278154929826], [87.41134020699246, 25.856140698164637], [87.41164903521074, 25.8548001438211], [87.41182818443117, 25.853572548817596], [87.41282058027501, 25.852981016972674], [87.41351385958713, 25.85281383318094], [87.41507978931564, 25.851784392113093], [87.41699044124627, 25.8527632081496], [87.4174097793125, 25.853548399356708], [87.41724540198854, 25.8543608663872], [87.41631802440835, 25.85542171286597], [87.41614857789125, 25.855724165709706], [87.41617905503391, 25.857294839868228], [87.4160396131456, 25.85799886694247], [87.4153314756987, 25.858518178145957], [87.41462843080117, 25.85938035778432], [87.41387035780426, 25.8596648831462], [87.41316206674544, 25.859660580232354], [87.41279301367389, 25.860017225215266], [87.41247394196645, 25.860450540206976], [87.41256385703818, 25.86095604608481], [87.41312763432059, 25.861145428655497], [87.41382600438541, 25.861370963612416], [87.41434983987536, 25.861433993137677], [87.4144946680621, 25.8619800002614], [87.41393624204383, 25.862720387744524], [87.4133228597914, 25.86317638935761], [87.41302396783848, 25.86455295192946], [87.41307926992404, 25.865681285863612], [87.41289514044361, 25.86702630317073], [87.41250119775047, 25.867739498301063], [87.41197254010409, 25.8679562319655], [87.40950316391454, 25.86800197559986], [87.4087450424086, 25.868349678212148], [87.40770757090043, 25.86907203064869], [87.40684484507125, 25.870083192810622]]]}}]}