{"type": "FeatureCollection", "features": [{"type": "Feature", "properties": {"premiumdata.sde.IN_Village_PCA.area": 9.80002468, "objectid": 70964, "id": "274874147611965", "name": "Lodhare", "subdistrict": "Nandgaon", "district": "Nashik", "state": "Maharashtra", "country": "India", "censusname": "Lodhare", "villagename_locallang": null, "lgd_villagename": "Lodhare", "lgd_villagecode": 550398, "lgd_subdistrictcode": 4147, "lgd_districtcode": 487, "lgd_statecode": 27, "censuscode2001": "02530500", "censuscode2011": "550398", "censuscode2021": null, "level": "Village", "tru": "Rural", "no_hh": 393, "tot_p": 1996, "tot_m": 1022, "tot_f": 974, "per_tot_m": 51.20240481, "per_tot_f": 48.79759519, "p_06": 305, "m_06": 173, "f_06": 132, "per_p_06": 15.28056112, "per_m_06": 56.72131148, "per_f_06": 43.27868852, "p_sc": 173, "m_sc": 86, "f_sc": 87, "per_p_sc": 8.66733467, "per_m_sc": 49.71098266, "per_f_sc": 50.28901734, "p_st": 445, "m_st": 216, "f_st": 229, "per_p_st": 22.29458918, "per_m_st": 48.53932584, "per_f_st": 51.46067416, "p_lit": 1301, "m_lit": 720, "f_lit": 581, "per_p_lit": 65.18036072, "per_m_lit": 55.34204458, "per_f_lit": 44.65795542, "p_ill": 695, "m_ill": 302, "f_ill": 393, "per_p_ill": 34.81963928, "per_m_ill": 43.45323741, "per_f_ill": 56.54676259, "tot_work_p": 1039, "tot_work_m": 536, "tot_work_f": 503, "per_tot_work_p": 52.05410822, "per_tot_work_m": 51.58806545, "per_tot_work_f": 48.41193455000001, "mainwork_p": 1029, "mainwork_m": 530, "mainwork_f": 499, "per_mainwork_p": 51.55310621, "per_mainwork_m": 51.50631681, "per_mainwork_f": 48.49368319, "main_cl_p": 736, "main_cl_m": 384, "main_cl_f": 352, "per_main_cl_p": 71.52575316, "per_main_cl_m": 52.17391304, "per_main_cl_f": 47.82608696, "main_al_p": 248, "main_al_m": 116, "main_al_f": 132, "per_main_al_p": 24.101069, "per_main_al_m": 46.77419355, "per_main_al_f": 53.22580645, "main_hh_p": 6, "main_hh_m": 5, "main_hh_f": 1, "per_main_hh_p": 0.58309038, "per_main_hh_m": 83.33333332999999, "per_main_hh_f": 16.66666667, "main_ot_p": 39, "main_ot_m": 25, "main_ot_f": 14, "per_main_ot_p": 3.79008746, "per_main_ot_m": 64.1025641, "per_main_ot_f": 35.8974359, "margwork_p": 10, "margwork_m": 6, "margwork_f": 4, "per_margwork_p": 0.501002, "per_margwork_m": 60.0, "per_margwork_f": 40.0, "marg_cl_p": 3, "marg_cl_m": 3, "marg_cl_f": 0, "per_marg_cl_p": 30.0, "per_marg_cl_m": 100.0, "per_marg_cl_f": 0.0, "marg_al_p": 5, "marg_al_m": 1, "marg_al_f": 4, "per_marg_al_p": 50.0, "per_marg_al_m": 20.0, "per_marg_al_f": 80.0, "marg_hh_p": 0, "marg_hh_m": 0, "marg_hh_f": 0, "per_marg_hh_p": 0.0, "per_marg_hh_m": 0.0, "per_marg_hh_f": 0.0, "marg_ot_p": 2, "marg_ot_m": 2, "marg_ot_f": 0, "per_marg_ot_p": 20.0, "per_marg_ot_m": 100.0, "per_marg_ot_f": 0.0, "margwork_3_6_p": 10, "margwork_3_6_m": 6, "margwork_3_6_f": 4, "per_margwork_3_6_p": 100.0, "per_margwork_3_6_m": 60.0, "per_margwork_3_6_f": 40.0, "marg_cl_3_6_p": 3, "marg_cl_3_6_m": 3, "marg_cl_3_6_f": 0, "per_marg_cl_3_6_p": 30.0, "per_marg_cl_3_6_m": 100.0, "per_marg_cl_3_6_f": 0.0, "marg_al_3_6_p": 5, "marg_al_3_6_m": 1, "marg_al_3_6_f": 4, "per_marg_al_3_6_p": 50.0, "per_marg_al_3_6_m": 20.0, "per_marg_al_3_6_f": 80.0, "marg_hh_3_6_p": 0, "marg_hh_3_6_m": 0, "marg_hh_3_6_f": 0, "per_marg_hh_3_6_p": 0.0, "per_marg_hh_3_6_m": 0.0, "per_marg_hh_3_6_f": 0.0, "marg_ot_3_6_p": 2, "marg_ot_3_6_m": 2, "marg_ot_3_6_f": 0, "per_marg_ot_3_6_p": 20.0, "per_marg_ot_3_6_m": 100.0, "per_marg_ot_3_6_f": 0.0, "margwork_0_3_p": 0, "margwork_0_3_m": 0, "margwork_0_3_f": 0, "per_margwork_0_3_p": 0.0, "per_margwork_0_3_m": 0.0, "per_margwork_0_3_f": 0.0, "marg_cl_0_3_p": 0, "marg_cl_0_3_m": 0, "marg_cl_0_3_f": 0, "per_marg_cl_0_3_p": 0.0, "per_marg_cl_0_3_m": 0.0, "per_marg_cl_0_3_f": 0.0, "marg_al_0_3_p": 0, "marg_al_0_3_m": 0, "marg_al_0_3_f": 0, "per_marg_al_0_3_p": 0.0, "per_marg_al_0_3_m": 0.0, "per_marg_al_0_3_f": 0.0, "marg_hh_0_3_p": 0, "marg_hh_0_3_m": 0, "marg_hh_0_3_f": 0, "per_marg_hh_0_3_p": 0.0, "per_marg_hh_0_3_m": 0.0, "per_marg_hh_0_3_f": 0.0, "marg_ot_0_3_p": 0, "marg_ot_0_3_m": 0, "marg_ot_0_3_f": 0, "per_marg_ot_0_3_p": 0.0, "per_marg_ot_0_3_m": 0.0, "per_marg_ot_0_3_f": 0.0, "non_work_p": 957, "non_work_m": 486, "non_work_f": 471, "per_non_work_p": 47.94589178, "per_non_work_m": 50.78369906, "per_non_work_f": 49.21630094, "per_hc_tot_tot": 100, "per_hc_tot_god": 29.0, "per_hc_tot_liv": 62.6, "per_hc_tot_dil": 8.4, "per_hc_res_tot": 99.1, "per_hc_res_god": 28.5, "per_hc_res_liv": 62.2, "per_hc_res_dil": 8.4, "per_hc_oth_tot": 0.9, "per_hc_oth_god": 0.5, "per_hc_oth_liv": 0.5, "per_hc_oth_dil": 0.0, "per_mt_grsbam": 32.5, "per_mt_plastic": 0.5, "per_mt_h_tiles": 4.2, "per_mt_m_tiles": 0.9, "per_mt_b_brick": 0.9, "per_mt_stone": 0.5, "per_mt_asbstos": 50.6, "per_mt_concrte": 10.0, "per_mt_oth": 0.0, "per_mw_grsbam": 13.9, "per_mw_plastic": 0.0, "per_mw_mud": 43.9, "per_mw_wood": 0.2, "per_mw_no_mrtr": 0.0, "per_mw_st_mrtr": 0.0, "per_mw_asbstos": 0.0, "per_mw_b_brick": 42.0, "per_mw_concrte": 0.0, "per_mw_oth": 0.0, "per_mf_mud": 64.7, "per_mf_wood": 0.0, "per_mf_b_brick": 0.0, "per_mf_stone": 3.5, "per_mf_cement": 14.4, "per_mf_fl_tile": 17.4, "per_mf_oth": 0.0, "per_dw_n_exrm": 0.9, "per_dw_1_room": 61.5, "per_dw_2_room": 27.6, "per_dw_3_room": 7.4, "per_dw_4_room": 2.1, "per_dw_5_room": 0.0, "per_dw_6_room": 0.5, "per_hhsize_1": 1.6, "per_hhsize_2": 6.5, "per_hhsize_3": 8.6, "per_hhsize_4": 20.6, "per_hhsize_5": 24.8, "per_hhsize_6_8": 31.6, "per_hhsize_9p": 6.3, "per_ow_owned": 95.8, "per_ow_rented": 0.9, "per_ow_oth": 3.2, "per_mc_none": 8.6, "per_mcouple_1": 65.9, "per_mcouple_2": 20.6, "per_mcouple_3": 3.9, "per_mcouple_4": 0.7, "per_mcouple_5p": 0.2, "per_dw_t_ts": 0.7, "per_dw_t_unts": 3.9, "per_dw_c_well": 0.0, "per_dw_unc_wel": 54.5, "per_dw_hpump": 36.0, "per_dw_tw_bore": 4.2, "per_dw_spring": 0.7, "per_dw_rivcan": 0.0, "per_dw_tank": 0.0, "per_dw_oth": 0.0, "per_loc_dw_wp": 10.9, "per_loc_dw_np": 51.5, "per_loc_dw_aw": 37.6, "per_light_elec": 35.7, "per_light_kero": 64.3, "per_light_solr": 0.0, "per_light_oil": 0.0, "per_light_oth": 0.0, "per_light_no": 0.0, "per_hh_latrine": 3.9, "per_fl_sewer": 0.2, "per_fl_septict": 2.1, "per_fl_othsys": 1.4, "per_pl_wslab": 0.2, "per_pl_without": 0.0, "per_ns_open": 0.0, "per_sl_ns_hum": 0.0, "per_sl_ns_anml": 0.0, "per_hh_no_lat": 96.1, "per_as_pub": 0.0, "per_as_open": 96.1, "per_hh_bathrm": 29.9, "per_hh_en_wrf": 28.5, "per_hh_no_btrm": 41.5, "per_wwoc_drain": 0.2, "per_wwoc_open": 13.0, "per_wwoc_nodrn": 86.8, "per_cook_fire": 80.5, "per_cook_resdu": 13.5, "per_cook_cwdng": 1.4, "per_cook_coal": 0.0, "per_cook_kero": 0.0, "per_cook_lpng": 4.6, "per_cook_elec": 0.0, "per_cook_biogs": 0.0, "per_cook_oth": 0.0, "per_cook_no": 0.0, "per_kf_inside": 85.2, "per_kf_in_has": 49.7, "per_kf_in_does": 35.5, "per_kf_outside": 14.8, "per_kf_out_has": 11.1, "per_kf_out_dos": 3.7, "per_kf_no_cook": 0.0, "per_hh_banking": 76.3, "per_hh_radio": 5.6, "per_hh_tv": 28.8, "per_hh_cmp_int": 0.0, "per_hh_cmp_wnt": 2.8, "per_hh_ph_ll": 2.6, "per_hh_ph_mob": 65.2, "per_hh_ph_bth": 0.0, "per_hh_bcycl": 27.8, "per_hh_2wheel": 19.5, "per_hh_4wheel": 3.7, "per_hh_tvcomp": 0.0, "per_hh_no_ast": 23.7, "per_hs_perma": 38.1, "per_hs_sperma": 32.9, "per_hs_temp": 29.0, "per_hs_servc": 22.0, "per_hs_nservc": 7.0, "per_hs_unclss": 0.0, "avghhsz_cy": 5.07888041, "st_areashape": 11192400.44482948, "st_lengthshape": 13229.29182929349}, "geometry": {"type": "Polygon", "coordinates": [[[74.9175492977006, 20.275723656756064], [74.91754828889252, 20.275724362898373], [74.91749506191532, 20.27576158957112], [74.91708348619149, 20.27592880444822], [74.91587254730702, 20.27615490098203], [74.91541307251393, 20.27622084841071], [74.91495839741938, 20.27628613180401], [74.91428432678302, 20.27637273249083], [74.9136564969259, 20.276453453974504], [74.91290498342718, 20.27630907965934], [74.9126512668516, 20.276177619656128], [74.91239781797398, 20.27604639969682], [74.91232106771274, 20.276006662836902], [74.91211223096875, 20.275888499611412], [74.91173342758309, 20.275025235763547], [74.91131139636765, 20.274159566371214], [74.91129757219376, 20.27413103725686], [74.91099591073483, 20.273724548209277], [74.9109237104405, 20.273659900791113], [74.91080918153, 20.27355756605892], [74.91074239628018, 20.273522363778557], [74.91072593195764, 20.27350762053029], [74.91061139765725, 20.273405280641626], [74.91048152641999, 20.273336824245042], [74.91040565201614, 20.273296795971497], [74.9094194976669, 20.27305314337285], [74.9087477159379, 20.272907234766148], [74.90850532352476, 20.27285453266264], [74.90695442710249, 20.272574765106153], [74.9063865777569, 20.272538185681235], [74.90548505638554, 20.272480187274247], [74.90360880723533, 20.272475934320916], [74.90151720765704, 20.272494291876704], [74.9008923512235, 20.27248251304219], [74.90009564887276, 20.272467345832265], [74.89966519954478, 20.27240896229864], [74.89941952558596, 20.257313332926138], [74.89923350605017, 20.25312494938435], [74.90127972004537, 20.251205235906657], [74.90332593404058, 20.24928549869802], [74.90549670124656, 20.24632117240163], [74.90585550723564, 20.24637389615658], [74.90736807254476, 20.246596340867296], [74.91075137494143, 20.246767315755534], [74.91153604256233, 20.24573740292183], [74.91241370198482, 20.24579230807873], [74.91327173860822, 20.245958474757945], [74.9134508105736, 20.246034700481985], [74.91346950361635, 20.246111843991688], [74.91440266634697, 20.246509113370223], [74.91655157035557, 20.247163416170025], [74.91714497407604, 20.247344055733933], [74.91730770029649, 20.247393659917602], [74.9173145535438, 20.247392882007894], [74.91859014956917, 20.247244339949447], [74.9213993871768, 20.247415209616562], [74.92408898984986, 20.24792930672271], [74.92527412732272, 20.24824042371301], [74.9271137548537, 20.2487231676707], [74.93025341617904, 20.249779172116266], [74.93051549696824, 20.249919618418602], [74.9327445378867, 20.25134532610717], [74.9327582542628, 20.25136633419039], [74.93288497780327, 20.252605489185513], [74.93298891737322, 20.253606697172213], [74.93295608394959, 20.255318588673468], [74.93326791613416, 20.25699877545223], [74.93335137142071, 20.257636045056326], [74.93354668223147, 20.259830787800013], [74.93362872626467, 20.261474958058855], [74.93385925822108, 20.26334032484889], [74.934109724692, 20.265735091862503], [74.93436341521642, 20.266989820697393], [74.93477551555638, 20.268100818102166], [74.93488346969734, 20.269595083178555], [74.93473485690829, 20.270208630127975], [74.93473335312852, 20.27021477917767], [74.93458041495141, 20.270208669734036], [74.93372343295015, 20.270174340555016], [74.93285905601743, 20.270188719238796], [74.9327412931719, 20.270190678474435], [74.93210984759577, 20.27020116228081], [74.93039695438506, 20.2702296525119], [74.93000646122262, 20.270284648443525], [74.92962645139957, 20.270338252246304], [74.92871237158052, 20.270492105531947], [74.92688392178658, 20.270799694513187], [74.92504629210879, 20.271107409286103], [74.92313184299947, 20.27139694188432], [74.92291643777409, 20.271446743152456], [74.92285284334021, 20.271536850382656], [74.92279213698993, 20.27162282340085], [74.92235692659096, 20.272427042623963], [74.92180199412084, 20.27334852801749], [74.92162999459168, 20.273619671204372], [74.92128048526749, 20.274170784709224], [74.9211274383942, 20.274351497334877], [74.9208403538974, 20.27461348076189], [74.92050533709364, 20.274785240483624], [74.92047200061346, 20.27479017761115], [74.91983536636825, 20.274884792796776], [74.91891639701909, 20.275142466827553], [74.91828468643995, 20.27535039604661], [74.9180147400021, 20.275444424403673], [74.91788263016316, 20.275490522596815], [74.9175492977006, 20.275723656756064]]]}}]}