{"type": "FeatureCollection", "features": [{"type": "Feature", "properties": {"premiumdata.sde.IN_Village_PCA.area": 2.35882104, "objectid": 426411, "id": "335208336836", "name": "Dhak Jagpalpur", "subdistrict": "Phagwara", "district": "Kapurthala", "state": "Punjab", "country": "India", "censusname": "Dhak Jagpalpur (46)", "villagename_locallang": null, "lgd_villagename": "Dhak Jagpalpur (46)", "lgd_villagecode": 29638, "lgd_subdistrictcode": 208, "lgd_districtcode": 35, "lgd_statecode": 3, "censuscode2001": "00349500", "censuscode2011": "029638", "censuscode2021": null, "level": "Village", "tru": "Rural", "no_hh": 111, "tot_p": 619, "tot_m": 334, "tot_f": 285, "per_tot_m": 53.95799677, "per_tot_f": 46.04200323, "p_06": 61, "m_06": 34, "f_06": 27, "per_p_06": 9.8546042, "per_m_06": 55.73770492, "per_f_06": 44.26229508, "p_sc": 148, "m_sc": 78, "f_sc": 70, "per_p_sc": 23.9095315, "per_m_sc": 52.7027027, "per_f_sc": 47.2972973, "p_st": 0, "m_st": 0, "f_st": 0, "per_p_st": 0.0, "per_m_st": 0.0, "per_f_st": 0.0, "p_lit": 517, "m_lit": 279, "f_lit": 238, "per_p_lit": 83.52180937, "per_m_lit": 53.96518375, "per_f_lit": 46.03481625, "p_ill": 102, "m_ill": 55, "f_ill": 47, "per_p_ill": 16.47819063, "per_m_ill": 53.92156863, "per_f_ill": 46.07843137, "tot_work_p": 195, "tot_work_m": 179, "tot_work_f": 16, "per_tot_work_p": 31.50242326, "per_tot_work_m": 91.79487179, "per_tot_work_f": 8.20512821, "mainwork_p": 179, "mainwork_m": 163, "mainwork_f": 16, "per_mainwork_p": 28.91760905, "per_mainwork_m": 91.06145251000001, "per_mainwork_f": 8.93854749, "main_cl_p": 42, "main_cl_m": 36, "main_cl_f": 6, "per_main_cl_p": 23.46368715, "per_main_cl_m": 85.71428571, "per_main_cl_f": 14.28571429, "main_al_p": 4, "main_al_m": 4, "main_al_f": 0, "per_main_al_p": 2.23463687, "per_main_al_m": 100.0, "per_main_al_f": 0.0, "main_hh_p": 13, "main_hh_m": 12, "main_hh_f": 1, "per_main_hh_p": 7.26256983, "per_main_hh_m": 92.30769231, "per_main_hh_f": 7.69230769, "main_ot_p": 120, "main_ot_m": 111, "main_ot_f": 9, "per_main_ot_p": 67.03910615000001, "per_main_ot_m": 92.5, "per_main_ot_f": 7.5, "margwork_p": 16, "margwork_m": 16, "margwork_f": 0, "per_margwork_p": 2.58481422, "per_margwork_m": 100.0, "per_margwork_f": 0.0, "marg_cl_p": 3, "marg_cl_m": 3, "marg_cl_f": 0, "per_marg_cl_p": 18.75, "per_marg_cl_m": 100.0, "per_marg_cl_f": 0.0, "marg_al_p": 0, "marg_al_m": 0, "marg_al_f": 0, "per_marg_al_p": 0.0, "per_marg_al_m": 0.0, "per_marg_al_f": 0.0, "marg_hh_p": 0, "marg_hh_m": 0, "marg_hh_f": 0, "per_marg_hh_p": 0.0, "per_marg_hh_m": 0.0, "per_marg_hh_f": 0.0, "marg_ot_p": 13, "marg_ot_m": 13, "marg_ot_f": 0, "per_marg_ot_p": 81.25, "per_marg_ot_m": 100.0, "per_marg_ot_f": 0.0, "margwork_3_6_p": 11, "margwork_3_6_m": 11, "margwork_3_6_f": 0, "per_margwork_3_6_p": 68.75, "per_margwork_3_6_m": 100.0, "per_margwork_3_6_f": 0.0, "marg_cl_3_6_p": 3, "marg_cl_3_6_m": 3, "marg_cl_3_6_f": 0, "per_marg_cl_3_6_p": 18.75, "per_marg_cl_3_6_m": 100.0, "per_marg_cl_3_6_f": 0.0, "marg_al_3_6_p": 0, "marg_al_3_6_m": 0, "marg_al_3_6_f": 0, "per_marg_al_3_6_p": 0.0, "per_marg_al_3_6_m": 0.0, "per_marg_al_3_6_f": 0.0, "marg_hh_3_6_p": 0, "marg_hh_3_6_m": 0, "marg_hh_3_6_f": 0, "per_marg_hh_3_6_p": 0.0, "per_marg_hh_3_6_m": 0.0, "per_marg_hh_3_6_f": 0.0, "marg_ot_3_6_p": 8, "marg_ot_3_6_m": 8, "marg_ot_3_6_f": 0, "per_marg_ot_3_6_p": 50.0, "per_marg_ot_3_6_m": 100.0, "per_marg_ot_3_6_f": 0.0, "margwork_0_3_p": 5, "margwork_0_3_m": 5, "margwork_0_3_f": 0, "per_margwork_0_3_p": 31.25, "per_margwork_0_3_m": 100.0, "per_margwork_0_3_f": 0.0, "marg_cl_0_3_p": 0, "marg_cl_0_3_m": 0, "marg_cl_0_3_f": 0, "per_marg_cl_0_3_p": 0.0, "per_marg_cl_0_3_m": 0.0, "per_marg_cl_0_3_f": 0.0, "marg_al_0_3_p": 0, "marg_al_0_3_m": 0, "marg_al_0_3_f": 0, "per_marg_al_0_3_p": 0.0, "per_marg_al_0_3_m": 0.0, "per_marg_al_0_3_f": 0.0, "marg_hh_0_3_p": 0, "marg_hh_0_3_m": 0, "marg_hh_0_3_f": 0, "per_marg_hh_0_3_p": 0.0, "per_marg_hh_0_3_m": 0.0, "per_marg_hh_0_3_f": 0.0, "marg_ot_0_3_p": 5, "marg_ot_0_3_m": 5, "marg_ot_0_3_f": 0, "per_marg_ot_0_3_p": 31.25, "per_marg_ot_0_3_m": 100.0, "per_marg_ot_0_3_f": 0.0, "non_work_p": 424, "non_work_m": 155, "non_work_f": 269, "per_non_work_p": 68.49757674, "per_non_work_m": 36.55660377, "per_non_work_f": 63.44339623, "per_hc_tot_tot": 100, "per_hc_tot_god": 54.5, "per_hc_tot_liv": 39.3, "per_hc_tot_dil": 6.2, "per_hc_res_tot": 100.0, "per_hc_res_god": 54.5, "per_hc_res_liv": 39.3, "per_hc_res_dil": 6.2, "per_hc_oth_tot": 0.0, "per_hc_oth_god": 0.0, "per_hc_oth_liv": 0.0, "per_hc_oth_dil": 0.0, "per_mt_grsbam": 0.0, "per_mt_plastic": 0.0, "per_mt_h_tiles": 63.4, "per_mt_m_tiles": 0.9, "per_mt_b_brick": 0.0, "per_mt_stone": 0.0, "per_mt_asbstos": 0.0, "per_mt_concrte": 34.8, "per_mt_oth": 0.9, "per_mw_grsbam": 0.0, "per_mw_plastic": 0.0, "per_mw_mud": 1.8, "per_mw_wood": 0.0, "per_mw_no_mrtr": 0.0, "per_mw_st_mrtr": 0.0, "per_mw_asbstos": 0.0, "per_mw_b_brick": 98.2, "per_mw_concrte": 0.0, "per_mw_oth": 0.0, "per_mf_mud": 14.3, "per_mf_wood": 0.0, "per_mf_b_brick": 5.4, "per_mf_stone": 12.5, "per_mf_cement": 59.8, "per_mf_fl_tile": 8.0, "per_mf_oth": 0.0, "per_dw_n_exrm": 0.9, "per_dw_1_room": 8.0, "per_dw_2_room": 13.4, "per_dw_3_room": 33.9, "per_dw_4_room": 19.6, "per_dw_5_room": 9.8, "per_dw_6_room": 14.3, "per_hhsize_1": 0.9, "per_hhsize_2": 3.6, "per_hhsize_3": 8.0, "per_hhsize_4": 24.1, "per_hhsize_5": 25.0, "per_hhsize_6_8": 27.7, "per_hhsize_9p": 10.7, "per_ow_owned": 95.5, "per_ow_rented": 3.6, "per_ow_oth": 0.9, "per_mc_none": 6.2, "per_mcouple_1": 60.7, "per_mcouple_2": 19.6, "per_mcouple_3": 11.6, "per_mcouple_4": 0.9, "per_mcouple_5p": 0.9, "per_dw_t_ts": 0.9, "per_dw_t_unts": 0.0, "per_dw_c_well": 0.0, "per_dw_unc_wel": 0.0, "per_dw_hpump": 25.9, "per_dw_tw_bore": 73.2, "per_dw_spring": 0.0, "per_dw_rivcan": 0.0, "per_dw_tank": 0.0, "per_dw_oth": 0.0, "per_loc_dw_wp": 81.2, "per_loc_dw_np": 18.8, "per_loc_dw_aw": 0.0, "per_light_elec": 100.0, "per_light_kero": 0.0, "per_light_solr": 0.0, "per_light_oil": 0.0, "per_light_oth": 0.0, "per_light_no": 0.0, "per_hh_latrine": 82.1, "per_fl_sewer": 4.5, "per_fl_septict": 3.6, "per_fl_othsys": 0.0, "per_pl_wslab": 74.1, "per_pl_without": 0.0, "per_ns_open": 0.0, "per_sl_ns_hum": 0.0, "per_sl_ns_anml": 0.0, "per_hh_no_lat": 17.9, "per_as_pub": 0.0, "per_as_open": 17.9, "per_hh_bathrm": 79.5, "per_hh_en_wrf": 14.3, "per_hh_no_btrm": 6.2, "per_wwoc_drain": 78.6, "per_wwoc_open": 16.1, "per_wwoc_nodrn": 5.4, "per_cook_fire": 0.9, "per_cook_resdu": 0.0, "per_cook_cwdng": 43.8, "per_cook_coal": 0.0, "per_cook_kero": 0.0, "per_cook_lpng": 55.4, "per_cook_elec": 0.0, "per_cook_biogs": 0.0, "per_cook_oth": 0.0, "per_cook_no": 0.0, "per_kf_inside": 99.1, "per_kf_in_has": 88.4, "per_kf_in_does": 10.7, "per_kf_outside": 0.9, "per_kf_out_has": 0.0, "per_kf_out_dos": 0.9, "per_kf_no_cook": 0.0, "per_hh_banking": 93.8, "per_hh_radio": 66.1, "per_hh_tv": 98.2, "per_hh_cmp_int": 2.7, "per_hh_cmp_wnt": 8.0, "per_hh_ph_ll": 11.6, "per_hh_ph_mob": 44.6, "per_hh_ph_bth": 34.8, "per_hh_bcycl": 83.9, "per_hh_2wheel": 70.5, "per_hh_4wheel": 16.1, "per_hh_tvcomp": 10.7, "per_hh_no_ast": 0.9, "per_hs_perma": 97.3, "per_hs_sperma": 1.8, "per_hs_temp": 0.0, "per_hs_servc": 0.0, "per_hs_nservc": 0.0, "per_hs_unclss": 0.9, "avghhsz_cy": 5.57657658, "st_areashape": 3241723.518676485, "st_lengthshape": 7120.007827632358}, "geometry": {"type": "Polygon", "coordinates": [[[75.76050562845006, 31.32239384051545], [75.75787381978914, 31.32015196860883], [75.7560374396679, 31.31870278799674], [75.75536136129689, 31.318159812251324], [75.75408772539546, 31.317508253493635], [75.75321974711683, 31.31678551894534], [75.75254367233906, 31.316242513726447], [75.75003136745867, 31.31425025777927], [75.7493466167519, 31.31387952220458], [75.7487621710314, 31.313512526554355], [75.74858334969598, 31.313074356154548], [75.74844375239917, 31.31186095398687], [75.74848735213146, 31.310999593952232], [75.74854403043604, 31.309879813057], [75.74903247230377, 31.308172033683444], [75.7494855016847, 31.307471727893027], [75.74990468883395, 31.306823761627946], [75.7516229207324, 31.304644029496504], [75.75420246900336, 31.302679066453333], [75.75596116102221, 31.303672322884722], [75.7566681234727, 31.30413778621772], [75.75751457811715, 31.30473392859552], [75.75808206274677, 31.305068720568443], [75.75878587480554, 31.305596797317264], [75.76046301416963, 31.307102090048566], [75.7613666088527, 31.308013977794126], [75.7621275564585, 31.308857806237505], [75.76296141672267, 31.309704357867272], [75.76358919088425, 31.3102923012351], [75.76449915282603, 31.311078934093427], [75.764981113349, 31.311661442041785], [75.76545675602058, 31.31236917728706], [75.76608455264004, 31.312957106324035], [75.76649676616775, 31.313474286150683], [75.766915303835, 31.31386623593004], [75.76739728501924, 31.314448732012693], [75.76848497235177, 31.316057430542966], [75.76889404447091, 31.316637205552464], [75.7690082949037, 31.31726873727496], [75.76905772919378, 31.31745596228057], [75.76750249121373, 31.31824019005857], [75.76332094585557, 31.321089120266205], [75.76249162567686, 31.321520460367978], [75.76175184507404, 31.321955189610275], [75.76050562845006, 31.32239384051545]]]}}]}