{"type": "FeatureCollection", "features": [{"type": "Feature", "properties": {"premiumdata.sde.IN_Village_PCA.area": 1.17193926, "objectid": 25041, "id": "29532552897056", "name": "Lakshmisagara", "subdistrict": "Tarikere", "district": "Chikkamagaluru", "state": "Karnataka", "country": "India", "censusname": "Lakshmisagara", "villagename_locallang": null, "lgd_villagename": "Lakshmisagara", "lgd_villagecode": 609186, "lgd_subdistrictcode": 5528, "lgd_districtcode": 532, "lgd_statecode": 29, "censuscode2001": "01343300", "censuscode2011": "609186", "censuscode2021": null, "level": "Village", "tru": "Rural", "no_hh": 121, "tot_p": 515, "tot_m": 229, "tot_f": 286, "per_tot_m": 44.46601942, "per_tot_f": 55.53398058000001, "p_06": 45, "m_06": 15, "f_06": 30, "per_p_06": 8.73786408, "per_m_06": 33.33333333, "per_f_06": 66.66666667, "p_sc": 50, "m_sc": 23, "f_sc": 27, "per_p_sc": 9.70873786, "per_m_sc": 46.0, "per_f_sc": 54.0, "p_st": 5, "m_st": 2, "f_st": 3, "per_p_st": 0.97087379, "per_m_st": 40.0, "per_f_st": 60.0, "p_lit": 386, "m_lit": 189, "f_lit": 197, "per_p_lit": 74.95145631000001, "per_m_lit": 48.96373057, "per_f_lit": 51.03626943, "p_ill": 129, "m_ill": 40, "f_ill": 89, "per_p_ill": 25.04854369, "per_m_ill": 31.00775194, "per_f_ill": 68.99224806, "tot_work_p": 199, "tot_work_m": 158, "tot_work_f": 41, "per_tot_work_p": 38.6407767, "per_tot_work_m": 79.39698492000001, "per_tot_work_f": 20.60301508, "mainwork_p": 180, "mainwork_m": 145, "mainwork_f": 35, "per_mainwork_p": 34.95145631, "per_mainwork_m": 80.55555556, "per_mainwork_f": 19.44444444, "main_cl_p": 90, "main_cl_m": 85, "main_cl_f": 5, "per_main_cl_p": 50.0, "per_main_cl_m": 94.44444444, "per_main_cl_f": 5.55555556, "main_al_p": 69, "main_al_m": 43, "main_al_f": 26, "per_main_al_p": 38.33333333, "per_main_al_m": 62.31884058, "per_main_al_f": 37.68115942, "main_hh_p": 1, "main_hh_m": 1, "main_hh_f": 0, "per_main_hh_p": 0.55555556, "per_main_hh_m": 100.0, "per_main_hh_f": 0.0, "main_ot_p": 20, "main_ot_m": 16, "main_ot_f": 4, "per_main_ot_p": 11.11111111, "per_main_ot_m": 80.0, "per_main_ot_f": 20.0, "margwork_p": 19, "margwork_m": 13, "margwork_f": 6, "per_margwork_p": 3.68932039, "per_margwork_m": 68.42105263, "per_margwork_f": 31.57894737, "marg_cl_p": 1, "marg_cl_m": 1, "marg_cl_f": 0, "per_marg_cl_p": 5.26315789, "per_marg_cl_m": 100.0, "per_marg_cl_f": 0.0, "marg_al_p": 8, "marg_al_m": 7, "marg_al_f": 1, "per_marg_al_p": 42.10526316000001, "per_marg_al_m": 87.5, "per_marg_al_f": 12.5, "marg_hh_p": 0, "marg_hh_m": 0, "marg_hh_f": 0, "per_marg_hh_p": 0.0, "per_marg_hh_m": 0.0, "per_marg_hh_f": 0.0, "marg_ot_p": 10, "marg_ot_m": 5, "marg_ot_f": 5, "per_marg_ot_p": 52.63157895000001, "per_marg_ot_m": 50.0, "per_marg_ot_f": 50.0, "margwork_3_6_p": 18, "margwork_3_6_m": 12, "margwork_3_6_f": 6, "per_margwork_3_6_p": 94.73684211, "per_margwork_3_6_m": 66.66666667, "per_margwork_3_6_f": 33.33333333, "marg_cl_3_6_p": 1, "marg_cl_3_6_m": 1, "marg_cl_3_6_f": 0, "per_marg_cl_3_6_p": 5.26315789, "per_marg_cl_3_6_m": 100.0, "per_marg_cl_3_6_f": 0.0, "marg_al_3_6_p": 8, "marg_al_3_6_m": 7, "marg_al_3_6_f": 1, "per_marg_al_3_6_p": 42.10526316000001, "per_marg_al_3_6_m": 87.5, "per_marg_al_3_6_f": 12.5, "marg_hh_3_6_p": 0, "marg_hh_3_6_m": 0, "marg_hh_3_6_f": 0, "per_marg_hh_3_6_p": 0.0, "per_marg_hh_3_6_m": 0.0, "per_marg_hh_3_6_f": 0.0, "marg_ot_3_6_p": 9, "marg_ot_3_6_m": 4, "marg_ot_3_6_f": 5, "per_marg_ot_3_6_p": 47.36842105, "per_marg_ot_3_6_m": 44.44444444000001, "per_marg_ot_3_6_f": 55.55555556, "margwork_0_3_p": 1, "margwork_0_3_m": 1, "margwork_0_3_f": 0, "per_margwork_0_3_p": 5.26315789, "per_margwork_0_3_m": 100.0, "per_margwork_0_3_f": 0.0, "marg_cl_0_3_p": 0, "marg_cl_0_3_m": 0, "marg_cl_0_3_f": 0, "per_marg_cl_0_3_p": 0.0, "per_marg_cl_0_3_m": 0.0, "per_marg_cl_0_3_f": 0.0, "marg_al_0_3_p": 0, "marg_al_0_3_m": 0, "marg_al_0_3_f": 0, "per_marg_al_0_3_p": 0.0, "per_marg_al_0_3_m": 0.0, "per_marg_al_0_3_f": 0.0, "marg_hh_0_3_p": 0, "marg_hh_0_3_m": 0, "marg_hh_0_3_f": 0, "per_marg_hh_0_3_p": 0.0, "per_marg_hh_0_3_m": 0.0, "per_marg_hh_0_3_f": 0.0, "marg_ot_0_3_p": 1, "marg_ot_0_3_m": 1, "marg_ot_0_3_f": 0, "per_marg_ot_0_3_p": 5.26315789, "per_marg_ot_0_3_m": 100.0, "per_marg_ot_0_3_f": 0.0, "non_work_p": 316, "non_work_m": 71, "non_work_f": 245, "per_non_work_p": 61.3592233, "per_non_work_m": 22.46835443, "per_non_work_f": 77.53164557, "per_hc_tot_tot": 100, "per_hc_tot_god": 29.3, "per_hc_tot_liv": 64.7, "per_hc_tot_dil": 6.0, "per_hc_res_tot": 98.3, "per_hc_res_god": 27.6, "per_hc_res_liv": 64.7, "per_hc_res_dil": 6.0, "per_hc_oth_tot": 1.7, "per_hc_oth_god": 1.7, "per_hc_oth_liv": 0.0, "per_hc_oth_dil": 0.0, "per_mt_grsbam": 0.0, "per_mt_plastic": 0.0, "per_mt_h_tiles": 37.1, "per_mt_m_tiles": 58.6, "per_mt_b_brick": 0.0, "per_mt_stone": 0.0, "per_mt_asbstos": 0.9, "per_mt_concrte": 3.4, "per_mt_oth": 0.0, "per_mw_grsbam": 0.9, "per_mw_plastic": 0.0, "per_mw_mud": 59.5, "per_mw_wood": 0.0, "per_mw_no_mrtr": 1.7, "per_mw_st_mrtr": 0.0, "per_mw_asbstos": 0.0, "per_mw_b_brick": 28.4, "per_mw_concrte": 9.5, "per_mw_oth": 0.0, "per_mf_mud": 29.3, "per_mf_wood": 0.9, "per_mf_b_brick": 2.6, "per_mf_stone": 31.9, "per_mf_cement": 20.7, "per_mf_fl_tile": 14.7, "per_mf_oth": 0.0, "per_dw_n_exrm": 60.3, "per_dw_1_room": 19.0, "per_dw_2_room": 15.5, "per_dw_3_room": 3.4, "per_dw_4_room": 0.0, "per_dw_5_room": 0.0, "per_dw_6_room": 1.7, "per_hhsize_1": 1.7, "per_hhsize_2": 8.6, "per_hhsize_3": 12.1, "per_hhsize_4": 29.3, "per_hhsize_5": 21.6, "per_hhsize_6_8": 18.1, "per_hhsize_9p": 8.6, "per_ow_owned": 92.2, "per_ow_rented": 5.2, "per_ow_oth": 2.6, "per_mc_none": 3.4, "per_mcouple_1": 71.6, "per_mcouple_2": 14.7, "per_mcouple_3": 9.5, "per_mcouple_4": 0.0, "per_mcouple_5p": 0.9, "per_dw_t_ts": 8.6, "per_dw_t_unts": 88.8, "per_dw_c_well": 0.0, "per_dw_unc_wel": 0.0, "per_dw_hpump": 0.9, "per_dw_tw_bore": 1.7, "per_dw_spring": 0.0, "per_dw_rivcan": 0.0, "per_dw_tank": 0.0, "per_dw_oth": 0.0, "per_loc_dw_wp": 17.2, "per_loc_dw_np": 74.1, "per_loc_dw_aw": 8.6, "per_light_elec": 94.8, "per_light_kero": 5.2, "per_light_solr": 0.0, "per_light_oil": 0.0, "per_light_oth": 0.0, "per_light_no": 0.0, "per_hh_latrine": 60.3, "per_fl_sewer": 0.0, "per_fl_septict": 0.0, "per_fl_othsys": 0.0, "per_pl_wslab": 60.3, "per_pl_without": 0.0, "per_ns_open": 0.0, "per_sl_ns_hum": 0.0, "per_sl_ns_anml": 0.0, "per_hh_no_lat": 39.7, "per_as_pub": 0.0, "per_as_open": 39.7, "per_hh_bathrm": 88.8, "per_hh_en_wrf": 8.6, "per_hh_no_btrm": 2.6, "per_wwoc_drain": 0.9, "per_wwoc_open": 96.6, "per_wwoc_nodrn": 2.6, "per_cook_fire": 52.6, "per_cook_resdu": 0.0, "per_cook_cwdng": 0.0, "per_cook_coal": 0.0, "per_cook_kero": 0.0, "per_cook_lpng": 45.7, "per_cook_elec": 0.0, "per_cook_biogs": 0.0, "per_cook_oth": 0.0, "per_cook_no": 1.7, "per_kf_inside": 95.7, "per_kf_in_has": 95.7, "per_kf_in_does": 0.0, "per_kf_outside": 2.6, "per_kf_out_has": 0.0, "per_kf_out_dos": 2.6, "per_kf_no_cook": 1.7, "per_hh_banking": 85.3, "per_hh_radio": 10.3, "per_hh_tv": 74.1, "per_hh_cmp_int": 0.0, "per_hh_cmp_wnt": 3.4, "per_hh_ph_ll": 36.2, "per_hh_ph_mob": 16.4, "per_hh_ph_bth": 28.4, "per_hh_bcycl": 59.5, "per_hh_2wheel": 34.5, "per_hh_4wheel": 4.3, "per_hh_tvcomp": 0.0, "per_hh_no_ast": 5.2, "per_hs_perma": 39.7, "per_hs_sperma": 60.3, "per_hs_temp": 0.0, "per_hs_servc": 0.0, "per_hs_nservc": 0.0, "per_hs_unclss": 0.0, "avghhsz_cy": 4.25619835, "st_areashape": 1249264.97167962, "st_lengthshape": 5602.413198180272}, "geometry": {"type": "Polygon", "coordinates": [[[75.82695000083528, 13.733458000562317], [75.82662200077226, 13.730103000102819], [75.8265300007107, 13.726776999808012], [75.8254780007495, 13.72489099961383], [75.82543200071872, 13.724125999358842], [75.82645400144108, 13.72326599941339], [75.82640100173762, 13.7226530004971], [75.82564500025573, 13.719562999549902], [75.82527200088516, 13.71702699980381], [75.82537800119037, 13.71479100010623], [75.82601900124787, 13.71500900020971], [75.82746100119645, 13.715619999665146], [75.8288730010078, 13.716839999697564], [75.82948300110317, 13.717788000094723], [75.83062000055492, 13.717848999465392], [75.83113100091609, 13.719248999519818], [75.83161900081271, 13.721510999191866], [75.83184100146886, 13.721980000039036], [75.83344300035272, 13.722752000019087], [75.83406800051671, 13.723243999377479], [75.83408400130854, 13.724691999640395], [75.83412900061607, 13.725456999795018], [75.83470200090153, 13.726421000493717], [75.83442700054191, 13.72642299975599], [75.83435800094493, 13.727976999958349], [75.83394600121626, 13.728819999985575], [75.83346600081727, 13.729139999758386], [75.83301500073055, 13.729027000398428], [75.83126800118342, 13.728588999739173], [75.83120000051308, 13.730055999410277], [75.83054400128523, 13.730193999560234], [75.82970400103612, 13.73032199912088], [75.82827800098104, 13.733099999968058], [75.82706500136133, 13.733293999597425], [75.82695000083528, 13.733458000562317]]]}}]}