{"type": "FeatureCollection", "features": [{"type": "Feature", "properties": {"premiumdata.sde.IN_Village_PCA.area": 14.84693521, "objectid": 206980, "id": "244613907278229", "name": "Kandari", "subdistrict": "Karjan", "district": "Vadodara", "state": "Gujarat", "country": "India", "censusname": "Kandari", "villagename_locallang": null, "lgd_villagename": "Kandari", "lgd_villagecode": 521142, "lgd_subdistrictcode": 3907, "lgd_districtcode": 461, "lgd_statecode": 24, "censuscode2001": "01475100", "censuscode2011": "521142", "censuscode2021": null, "level": "Village", "tru": "Rural", "no_hh": 973, "tot_p": 4295, "tot_m": 2231, "tot_f": 2064, "per_tot_m": 51.94412107, "per_tot_f": 48.05587893, "p_06": 451, "m_06": 245, "f_06": 206, "per_p_06": 10.50058207, "per_m_06": 54.32372506, "per_f_06": 45.67627494, "p_sc": 319, "m_sc": 157, "f_sc": 162, "per_p_sc": 7.42724098, "per_m_sc": 49.21630094, "per_f_sc": 50.78369906, "p_st": 1694, "m_st": 850, "f_st": 844, "per_p_st": 39.44121071, "per_m_st": 50.17709563, "per_f_st": 49.82290437, "p_lit": 2959, "m_lit": 1653, "f_lit": 1306, "per_p_lit": 68.89406286, "per_m_lit": 55.86346739, "per_f_lit": 44.13653261, "p_ill": 1336, "m_ill": 578, "f_ill": 758, "per_p_ill": 31.10593714, "per_m_ill": 43.26347305, "per_f_ill": 56.73652695, "tot_work_p": 1993, "tot_work_m": 1405, "tot_work_f": 588, "per_tot_work_p": 46.40279395, "per_tot_work_m": 70.49673859, "per_tot_work_f": 29.50326141, "mainwork_p": 1871, "mainwork_m": 1388, "mainwork_f": 483, "per_mainwork_p": 43.56228172, "per_mainwork_m": 74.18492785, "per_mainwork_f": 25.81507215, "main_cl_p": 295, "main_cl_m": 273, "main_cl_f": 22, "per_main_cl_p": 15.76696954, "per_main_cl_m": 92.54237288, "per_main_cl_f": 7.45762712, "main_al_p": 1012, "main_al_m": 605, "main_al_f": 407, "per_main_al_p": 54.08872261, "per_main_al_m": 59.7826087, "per_main_al_f": 40.2173913, "main_hh_p": 32, "main_hh_m": 28, "main_hh_f": 4, "per_main_hh_p": 1.71031534, "per_main_hh_m": 87.5, "per_main_hh_f": 12.5, "main_ot_p": 532, "main_ot_m": 482, "main_ot_f": 50, "per_main_ot_p": 28.43399252, "per_main_ot_m": 90.60150376, "per_main_ot_f": 9.39849624, "margwork_p": 122, "margwork_m": 17, "margwork_f": 105, "per_margwork_p": 2.84051222, "per_margwork_m": 13.93442623, "per_margwork_f": 86.06557377, "marg_cl_p": 13, "marg_cl_m": 4, "marg_cl_f": 9, "per_marg_cl_p": 10.6557377, "per_marg_cl_m": 30.76923077, "per_marg_cl_f": 69.23076923, "marg_al_p": 91, "marg_al_m": 9, "marg_al_f": 82, "per_marg_al_p": 74.59016393, "per_marg_al_m": 9.89010989, "per_marg_al_f": 90.10989011000001, "marg_hh_p": 4, "marg_hh_m": 0, "marg_hh_f": 4, "per_marg_hh_p": 3.27868852, "per_marg_hh_m": 0.0, "per_marg_hh_f": 100.0, "marg_ot_p": 14, "marg_ot_m": 4, "marg_ot_f": 10, "per_marg_ot_p": 11.47540984, "per_marg_ot_m": 28.57142857, "per_marg_ot_f": 71.42857143, "margwork_3_6_p": 117, "margwork_3_6_m": 16, "margwork_3_6_f": 101, "per_margwork_3_6_p": 95.90163934, "per_margwork_3_6_m": 13.67521368, "per_margwork_3_6_f": 86.32478632, "marg_cl_3_6_p": 13, "marg_cl_3_6_m": 4, "marg_cl_3_6_f": 9, "per_marg_cl_3_6_p": 10.6557377, "per_marg_cl_3_6_m": 30.76923077, "per_marg_cl_3_6_f": 69.23076923, "marg_al_3_6_p": 88, "marg_al_3_6_m": 8, "marg_al_3_6_f": 80, "per_marg_al_3_6_p": 72.13114754, "per_marg_al_3_6_m": 9.09090909, "per_marg_al_3_6_f": 90.90909091, "marg_hh_3_6_p": 3, "marg_hh_3_6_m": 0, "marg_hh_3_6_f": 3, "per_marg_hh_3_6_p": 2.45901639, "per_marg_hh_3_6_m": 0.0, "per_marg_hh_3_6_f": 100.0, "marg_ot_3_6_p": 13, "marg_ot_3_6_m": 4, "marg_ot_3_6_f": 9, "per_marg_ot_3_6_p": 10.6557377, "per_marg_ot_3_6_m": 30.76923077, "per_marg_ot_3_6_f": 69.23076923, "margwork_0_3_p": 5, "margwork_0_3_m": 1, "margwork_0_3_f": 4, "per_margwork_0_3_p": 4.09836066, "per_margwork_0_3_m": 20.0, "per_margwork_0_3_f": 80.0, "marg_cl_0_3_p": 0, "marg_cl_0_3_m": 0, "marg_cl_0_3_f": 0, "per_marg_cl_0_3_p": 0.0, "per_marg_cl_0_3_m": 0.0, "per_marg_cl_0_3_f": 0.0, "marg_al_0_3_p": 3, "marg_al_0_3_m": 1, "marg_al_0_3_f": 2, "per_marg_al_0_3_p": 2.45901639, "per_marg_al_0_3_m": 33.33333333, "per_marg_al_0_3_f": 66.66666667, "marg_hh_0_3_p": 1, "marg_hh_0_3_m": 0, "marg_hh_0_3_f": 1, "per_marg_hh_0_3_p": 0.81967213, "per_marg_hh_0_3_m": 0.0, "per_marg_hh_0_3_f": 100.0, "marg_ot_0_3_p": 1, "marg_ot_0_3_m": 0, "marg_ot_0_3_f": 1, "per_marg_ot_0_3_p": 0.81967213, "per_marg_ot_0_3_m": 0.0, "per_marg_ot_0_3_f": 100.0, "non_work_p": 2302, "non_work_m": 826, "non_work_f": 1476, "per_non_work_p": 53.59720605, "per_non_work_m": 35.88184188, "per_non_work_f": 64.11815812, "per_hc_tot_tot": 100, "per_hc_tot_god": 61.4, "per_hc_tot_liv": 37.6, "per_hc_tot_dil": 1.0, "per_hc_res_tot": 98.5, "per_hc_res_god": 60.8, "per_hc_res_liv": 36.7, "per_hc_res_dil": 1.0, "per_hc_oth_tot": 1.5, "per_hc_oth_god": 0.6, "per_hc_oth_liv": 0.9, "per_hc_oth_dil": 0.0, "per_mt_grsbam": 2.5, "per_mt_plastic": 0.7, "per_mt_h_tiles": 0.7, "per_mt_m_tiles": 1.4, "per_mt_b_brick": 0.2, "per_mt_stone": 2.7, "per_mt_asbstos": 54.9, "per_mt_concrte": 36.8, "per_mt_oth": 0.1, "per_mw_grsbam": 5.2, "per_mw_plastic": 0.1, "per_mw_mud": 10.8, "per_mw_wood": 0.1, "per_mw_no_mrtr": 0.1, "per_mw_st_mrtr": 0.1, "per_mw_asbstos": 0.0, "per_mw_b_brick": 77.8, "per_mw_concrte": 5.7, "per_mw_oth": 0.1, "per_mf_mud": 24.5, "per_mf_wood": 0.1, "per_mf_b_brick": 0.3, "per_mf_stone": 19.5, "per_mf_cement": 24.9, "per_mf_fl_tile": 30.6, "per_mf_oth": 0.2, "per_dw_n_exrm": 3.2, "per_dw_1_room": 42.5, "per_dw_2_room": 32.5, "per_dw_3_room": 13.4, "per_dw_4_room": 5.1, "per_dw_5_room": 1.2, "per_dw_6_room": 2.2, "per_hhsize_1": 6.0, "per_hhsize_2": 14.2, "per_hhsize_3": 15.1, "per_hhsize_4": 22.0, "per_hhsize_5": 18.1, "per_hhsize_6_8": 21.0, "per_hhsize_9p": 3.7, "per_ow_owned": 75.8, "per_ow_rented": 20.2, "per_ow_oth": 4.0, "per_mc_none": 15.4, "per_mcouple_1": 62.6, "per_mcouple_2": 17.8, "per_mcouple_3": 4.0, "per_mcouple_4": 0.2, "per_mcouple_5p": 0.0, "per_dw_t_ts": 41.9, "per_dw_t_unts": 36.3, "per_dw_c_well": 0.1, "per_dw_unc_wel": 0.3, "per_dw_hpump": 0.0, "per_dw_tw_bore": 20.5, "per_dw_spring": 0.1, "per_dw_rivcan": 0.0, "per_dw_tank": 0.0, "per_dw_oth": 0.9, "per_loc_dw_wp": 86.8, "per_loc_dw_np": 10.9, "per_loc_dw_aw": 2.3, "per_light_elec": 91.4, "per_light_kero": 7.7, "per_light_solr": 0.0, "per_light_oil": 0.0, "per_light_oth": 0.0, "per_light_no": 0.9, "per_hh_latrine": 57.0, "per_fl_sewer": 15.4, "per_fl_septict": 26.4, "per_fl_othsys": 1.2, "per_pl_wslab": 13.1, "per_pl_without": 1.0, "per_ns_open": 0.0, "per_sl_ns_hum": 0.0, "per_sl_ns_anml": 0.0, "per_hh_no_lat": 43.0, "per_as_pub": 0.2, "per_as_open": 42.8, "per_hh_bathrm": 50.5, "per_hh_en_wrf": 26.4, "per_hh_no_btrm": 23.1, "per_wwoc_drain": 39.4, "per_wwoc_open": 7.8, "per_wwoc_nodrn": 52.8, "per_cook_fire": 25.5, "per_cook_resdu": 22.7, "per_cook_cwdng": 0.1, "per_cook_coal": 0.0, "per_cook_kero": 6.7, "per_cook_lpng": 37.2, "per_cook_elec": 0.0, "per_cook_biogs": 6.5, "per_cook_oth": 0.3, "per_cook_no": 1.1, "per_kf_inside": 91.6, "per_kf_in_has": 67.7, "per_kf_in_does": 23.9, "per_kf_outside": 7.3, "per_kf_out_has": 4.5, "per_kf_out_dos": 2.8, "per_kf_no_cook": 1.1, "per_hh_banking": 65.6, "per_hh_radio": 16.7, "per_hh_tv": 55.0, "per_hh_cmp_int": 1.0, "per_hh_cmp_wnt": 2.9, "per_hh_ph_ll": 2.1, "per_hh_ph_mob": 60.6, "per_hh_ph_bth": 4.1, "per_hh_bcycl": 18.3, "per_hh_2wheel": 30.7, "per_hh_4wheel": 3.9, "per_hh_tvcomp": 2.1, "per_hh_no_ast": 21.3, "per_hs_perma": 81.6, "per_hs_sperma": 17.1, "per_hs_temp": 1.1, "per_hs_servc": 0.3, "per_hs_nservc": 0.8, "per_hs_unclss": 0.2, "avghhsz_cy": 4.41418294, "st_areashape": 17372078.209774476, "st_lengthshape": 19892.054923084354}, "geometry": {"type": "Polygon", "coordinates": [[[73.16472735152088, 22.08894128283254], [73.16402786485017, 22.088393628972188], [73.16321909812514, 22.088463112148983], [73.16231056540299, 22.088326476435483], [73.16149835004559, 22.088500973910914], [73.16069446027426, 22.088849882479593], [73.16014195864528, 22.089505016920057], [73.15928684693644, 22.08973600043926], [73.15847819519577, 22.08963678542327], [73.15780346250104, 22.0901249464354], [73.15699221193422, 22.090735733811997], [73.15636997319145, 22.090248322382294], [73.1560665941537, 22.089497495563798], [73.15517273092013, 22.089550170020548], [73.1544855556604, 22.090107292633895], [73.15396096648394, 22.08948770764504], [73.15323819009116, 22.089927387543835], [73.15291298019534, 22.090713004297154], [73.15205108440949, 22.09071493456223], [73.15121791315315, 22.090591842861414], [73.15056269186637, 22.091005124938437], [73.15004718555575, 22.091616223140495], [73.15032326479201, 22.09231833231292], [73.15016655189406, 22.093117927655268], [73.14936167487423, 22.093029935174705], [73.1494208486986, 22.09383781004507], [73.14940490090737, 22.094649073767762], [73.14868067643037, 22.094971332951648], [73.14790686854296, 22.095124396858527], [73.147214296205, 22.095456390857496], [73.14643952262864, 22.095902365456332], [73.14617244630814, 22.096607024390444], [73.14499053558376, 22.09698144139946], [73.14466084938292, 22.095875950343416], [73.14427143958874, 22.095127384139627], [73.14399675723273, 22.094335471934716], [73.14384411100808, 22.09351534767603], [73.14381615992801, 22.09268276075066], [73.14391185296365, 22.09185465451789], [73.14413028551151, 22.09104676663248], [73.14414437019684, 22.09018649042182], [73.14406325232667, 22.08936817994718], [73.14389025387095, 22.088562461170927], [73.14362774099213, 22.08777827580926], [73.14327835114379, 22.087024123769467], [73.14284707626413, 22.08630838692428], [73.14233645589033, 22.085638275270394], [73.14175374571495, 22.085022274143114], [73.14110518992761, 22.084466402549307], [73.1403969464795, 22.083976905933937], [73.13963319074011, 22.083600936113765], [73.13890947740451, 22.08331761374445], [73.13817052774337, 22.08307006549598], [73.13741866749496, 22.082858774357742], [73.13665637600947, 22.08268430403874], [73.13588492350473, 22.082547166612333], [73.13510549036701, 22.08244801896538], [73.13432283497234, 22.082387229106903], [73.13353706242364, 22.082364348412728], [73.13275058020588, 22.082379788116114], [73.13196705793696, 22.082433111184827], [73.13118652615964, 22.082525224911432], [73.13030030758914, 22.08269550837021], [73.1295134040615, 22.083048498462958], [73.12878723383359, 22.08349938436798], [73.12813493925802, 22.08404008162457], [73.12738259571599, 22.08491003618736], [73.12572121370032, 22.077147273561636], [73.12736002284953, 22.076789277340424], [73.12826565131837, 22.076526118309843], [73.12915485858382, 22.07621909257788], [73.13002538897622, 22.075869532622253], [73.13087470295821, 22.07547793011083], [73.13170169111045, 22.07504536439717], [73.13250401511827, 22.074573165383605], [73.13327781132759, 22.074062365765336], [73.13402207093037, 22.073515261911155], [73.13473432894946, 22.07293249606955], [73.1354134391346, 22.07231582849047], [73.1360569715429, 22.07166681130871], [73.13666369188917, 22.070987351303803], [73.13723130138459, 22.070279610845816], [73.13775735391663, 22.069545440977425], [73.1382418225359, 22.068786880908977], [73.13868366519658, 22.068005316366122], [73.13908152364604, 22.067203480924153], [73.13977907804056, 22.06247398294402], [73.14048259994351, 22.058287944093863], [73.14126374616852, 22.054114423288226], [73.14712667273555, 22.05329520034711], [73.15338987511845, 22.052514739937898], [73.15742685280131, 22.05208702709686], [73.16148910278805, 22.060102146228697], [73.16207985288519, 22.06077951309123], [73.1627209823001, 22.061416648273532], [73.16340885555081, 22.062010217169327], [73.1641384043425, 22.06255802576364], [73.16490858483283, 22.06305677942449], [73.1657144149652, 22.063504138429447], [73.1665510591084, 22.063898071898965], [73.16741609360788, 22.064236882759957], [73.16830331649489, 22.064518327756748], [73.16921034903051, 22.064741392386832], [73.17005956509617, 22.064894110259438], [73.1811883871126, 22.064954271598477], [73.18110284234473, 22.066160962089313], [73.18107027482243, 22.06689059487753], [73.18105102662082, 22.067621131330366], [73.18104514984223, 22.068351516654335], [73.18105378624536, 22.069081652617015], [73.181075769817, 22.06981216275918], [73.18066222947765, 22.07105002915026], [73.17997415590263, 22.071527179890477], [73.17955205821187, 22.072223370952493], [73.17947065737242, 22.073017999489227], [73.17790741989477, 22.07582199681683], [73.17701870310947, 22.077510224435258], [73.17616287454499, 22.079212088846365], [73.17533864062742, 22.08092753627994], [73.1745461558669, 22.08265672356584], [73.17378656651383, 22.084397888824498], [73.17234977320061, 22.084914944872533], [73.17135408862453, 22.08531843538179], [73.17037565978677, 22.08575448735183], [73.1694134185904, 22.086221845227694], [73.16846860291389, 22.086720035899145], [73.16754351603768, 22.087248409775587], [73.16663826396294, 22.087806442946846], [73.16472735152088, 22.08894128283254]]]}}]}