{"type": "FeatureCollection", "features": [{"type": "Feature", "properties": {"premiumdata.sde.IN_Village_PCA.area": 1.09448911, "objectid": 167033, "id": "21358316046837", "name": "Govindpur", "subdistrict": "Madanpur Rampur", "district": "Kalahandi", "state": "Odisha", "country": "India", "censusname": "Govindpur", "villagename_locallang": null, "lgd_villagename": "Govindpur", "lgd_villagecode": 422643, "lgd_subdistrictcode": 3160, "lgd_districtcode": 358, "lgd_statecode": 21, "censuscode2001": "04367300", "censuscode2011": "422643", "censuscode2021": null, "level": "Village", "tru": "Rural", "no_hh": 64, "tot_p": 204, "tot_m": 104, "tot_f": 100, "per_tot_m": 50.98039216, "per_tot_f": 49.01960784, "p_06": 24, "m_06": 13, "f_06": 11, "per_p_06": 11.76470588, "per_m_06": 54.16666667000001, "per_f_06": 45.83333333, "p_sc": 43, "m_sc": 21, "f_sc": 22, "per_p_sc": 21.07843137, "per_m_sc": 48.8372093, "per_f_sc": 51.1627907, "p_st": 20, "m_st": 10, "f_st": 10, "per_p_st": 9.80392157, "per_m_st": 50.0, "per_f_st": 50.0, "p_lit": 119, "m_lit": 71, "f_lit": 48, "per_p_lit": 58.33333333, "per_m_lit": 59.66386555, "per_f_lit": 40.33613445, "p_ill": 85, "m_ill": 33, "f_ill": 52, "per_p_ill": 41.66666667000001, "per_m_ill": 38.82352941000001, "per_f_ill": 61.17647059, "tot_work_p": 84, "tot_work_m": 58, "tot_work_f": 26, "per_tot_work_p": 41.17647059, "per_tot_work_m": 69.04761905000001, "per_tot_work_f": 30.95238095, "mainwork_p": 7, "mainwork_m": 5, "mainwork_f": 2, "per_mainwork_p": 3.43137255, "per_mainwork_m": 71.42857143, "per_mainwork_f": 28.57142857, "main_cl_p": 0, "main_cl_m": 0, "main_cl_f": 0, "per_main_cl_p": 0.0, "per_main_cl_m": 0.0, "per_main_cl_f": 0.0, "main_al_p": 0, "main_al_m": 0, "main_al_f": 0, "per_main_al_p": 0.0, "per_main_al_m": 0.0, "per_main_al_f": 0.0, "main_hh_p": 0, "main_hh_m": 0, "main_hh_f": 0, "per_main_hh_p": 0.0, "per_main_hh_m": 0.0, "per_main_hh_f": 0.0, "main_ot_p": 7, "main_ot_m": 5, "main_ot_f": 2, "per_main_ot_p": 100.0, "per_main_ot_m": 71.42857143, "per_main_ot_f": 28.57142857, "margwork_p": 77, "margwork_m": 53, "margwork_f": 24, "per_margwork_p": 37.74509804, "per_margwork_m": 68.83116883000001, "per_margwork_f": 31.16883117, "marg_cl_p": 2, "marg_cl_m": 2, "marg_cl_f": 0, "per_marg_cl_p": 2.5974026, "per_marg_cl_m": 100.0, "per_marg_cl_f": 0.0, "marg_al_p": 61, "marg_al_m": 38, "marg_al_f": 23, "per_marg_al_p": 79.22077922, "per_marg_al_m": 62.29508197, "per_marg_al_f": 37.70491803, "marg_hh_p": 7, "marg_hh_m": 7, "marg_hh_f": 0, "per_marg_hh_p": 9.09090909, "per_marg_hh_m": 100.0, "per_marg_hh_f": 0.0, "marg_ot_p": 7, "marg_ot_m": 6, "marg_ot_f": 1, "per_marg_ot_p": 9.09090909, "per_marg_ot_m": 85.71428571, "per_marg_ot_f": 14.28571429, "margwork_3_6_p": 16, "margwork_3_6_m": 13, "margwork_3_6_f": 3, "per_margwork_3_6_p": 20.77922078, "per_margwork_3_6_m": 81.25, "per_margwork_3_6_f": 18.75, "marg_cl_3_6_p": 2, "marg_cl_3_6_m": 2, "marg_cl_3_6_f": 0, "per_marg_cl_3_6_p": 2.5974026, "per_marg_cl_3_6_m": 100.0, "per_marg_cl_3_6_f": 0.0, "marg_al_3_6_p": 11, "marg_al_3_6_m": 8, "marg_al_3_6_f": 3, "per_marg_al_3_6_p": 14.28571429, "per_marg_al_3_6_m": 72.72727273, "per_marg_al_3_6_f": 27.27272727, "marg_hh_3_6_p": 1, "marg_hh_3_6_m": 1, "marg_hh_3_6_f": 0, "per_marg_hh_3_6_p": 1.2987013, "per_marg_hh_3_6_m": 100.0, "per_marg_hh_3_6_f": 0.0, "marg_ot_3_6_p": 2, "marg_ot_3_6_m": 2, "marg_ot_3_6_f": 0, "per_marg_ot_3_6_p": 2.5974026, "per_marg_ot_3_6_m": 100.0, "per_marg_ot_3_6_f": 0.0, "margwork_0_3_p": 61, "margwork_0_3_m": 40, "margwork_0_3_f": 21, "per_margwork_0_3_p": 79.22077922, "per_margwork_0_3_m": 65.57377049, "per_margwork_0_3_f": 34.42622951, "marg_cl_0_3_p": 0, "marg_cl_0_3_m": 0, "marg_cl_0_3_f": 0, "per_marg_cl_0_3_p": 0.0, "per_marg_cl_0_3_m": 0.0, "per_marg_cl_0_3_f": 0.0, "marg_al_0_3_p": 50, "marg_al_0_3_m": 30, "marg_al_0_3_f": 20, "per_marg_al_0_3_p": 64.93506494, "per_marg_al_0_3_m": 60.0, "per_marg_al_0_3_f": 40.0, "marg_hh_0_3_p": 6, "marg_hh_0_3_m": 6, "marg_hh_0_3_f": 0, "per_marg_hh_0_3_p": 7.79220779, "per_marg_hh_0_3_m": 100.0, "per_marg_hh_0_3_f": 0.0, "marg_ot_0_3_p": 5, "marg_ot_0_3_m": 4, "marg_ot_0_3_f": 1, "per_marg_ot_0_3_p": 6.49350649, "per_marg_ot_0_3_m": 80.0, "per_marg_ot_0_3_f": 20.0, "non_work_p": 120, "non_work_m": 46, "non_work_f": 74, "per_non_work_p": 58.82352941000001, "per_non_work_m": 38.33333333, "per_non_work_f": 61.66666667000001, "per_hc_tot_tot": 100, "per_hc_tot_god": 92.3, "per_hc_tot_liv": 7.7, "per_hc_tot_dil": 0.0, "per_hc_res_tot": 100.0, "per_hc_res_god": 92.3, "per_hc_res_liv": 7.7, "per_hc_res_dil": 0.0, "per_hc_oth_tot": 0.0, "per_hc_oth_god": 0.0, "per_hc_oth_liv": 0.0, "per_hc_oth_dil": 0.0, "per_mt_grsbam": 0.0, "per_mt_plastic": 0.0, "per_mt_h_tiles": 84.6, "per_mt_m_tiles": 0.0, "per_mt_b_brick": 0.0, "per_mt_stone": 0.0, "per_mt_asbstos": 1.5, "per_mt_concrte": 13.8, "per_mt_oth": 0.0, "per_mw_grsbam": 0.0, "per_mw_plastic": 0.0, "per_mw_mud": 24.6, "per_mw_wood": 0.0, "per_mw_no_mrtr": 0.0, "per_mw_st_mrtr": 0.0, "per_mw_asbstos": 0.0, "per_mw_b_brick": 33.8, "per_mw_concrte": 41.5, "per_mw_oth": 0.0, "per_mf_mud": 75.4, "per_mf_wood": 0.0, "per_mf_b_brick": 0.0, "per_mf_stone": 0.0, "per_mf_cement": 24.6, "per_mf_fl_tile": 0.0, "per_mf_oth": 0.0, "per_dw_n_exrm": 1.5, "per_dw_1_room": 26.2, "per_dw_2_room": 49.2, "per_dw_3_room": 15.4, "per_dw_4_room": 4.6, "per_dw_5_room": 1.5, "per_dw_6_room": 1.5, "per_hhsize_1": 6.2, "per_hhsize_2": 29.2, "per_hhsize_3": 23.1, "per_hhsize_4": 29.2, "per_hhsize_5": 9.2, "per_hhsize_6_8": 3.1, "per_hhsize_9p": 0.0, "per_ow_owned": 98.5, "per_ow_rented": 1.5, "per_ow_oth": 0.0, "per_mc_none": 7.7, "per_mcouple_1": 92.3, "per_mcouple_2": 0.0, "per_mcouple_3": 0.0, "per_mcouple_4": 0.0, "per_mcouple_5p": 0.0, "per_dw_t_ts": 0.0, "per_dw_t_unts": 0.0, "per_dw_c_well": 3.1, "per_dw_unc_wel": 0.0, "per_dw_hpump": 0.0, "per_dw_tw_bore": 96.9, "per_dw_spring": 0.0, "per_dw_rivcan": 0.0, "per_dw_tank": 0.0, "per_dw_oth": 0.0, "per_loc_dw_wp": 0.0, "per_loc_dw_np": 9.2, "per_loc_dw_aw": 90.8, "per_light_elec": 24.6, "per_light_kero": 75.4, "per_light_solr": 0.0, "per_light_oil": 0.0, "per_light_oth": 0.0, "per_light_no": 0.0, "per_hh_latrine": 10.8, "per_fl_sewer": 0.0, "per_fl_septict": 10.8, "per_fl_othsys": 0.0, "per_pl_wslab": 0.0, "per_pl_without": 0.0, "per_ns_open": 0.0, "per_sl_ns_hum": 0.0, "per_sl_ns_anml": 0.0, "per_hh_no_lat": 89.2, "per_as_pub": 0.0, "per_as_open": 89.2, "per_hh_bathrm": 10.8, "per_hh_en_wrf": 0.0, "per_hh_no_btrm": 89.2, "per_wwoc_drain": 0.0, "per_wwoc_open": 24.6, "per_wwoc_nodrn": 75.4, "per_cook_fire": 100.0, "per_cook_resdu": 0.0, "per_cook_cwdng": 0.0, "per_cook_coal": 0.0, "per_cook_kero": 0.0, "per_cook_lpng": 0.0, "per_cook_elec": 0.0, "per_cook_biogs": 0.0, "per_cook_oth": 0.0, "per_cook_no": 0.0, "per_kf_inside": 100.0, "per_kf_in_has": 100.0, "per_kf_in_does": 0.0, "per_kf_outside": 0.0, "per_kf_out_has": 0.0, "per_kf_out_dos": 0.0, "per_kf_no_cook": 0.0, "per_hh_banking": 23.1, "per_hh_radio": 0.0, "per_hh_tv": 30.8, "per_hh_cmp_int": 0.0, "per_hh_cmp_wnt": 6.2, "per_hh_ph_ll": 0.0, "per_hh_ph_mob": 9.2, "per_hh_ph_bth": 0.0, "per_hh_bcycl": 64.6, "per_hh_2wheel": 0.0, "per_hh_4wheel": 0.0, "per_hh_tvcomp": 0.0, "per_hh_no_ast": 24.6, "per_hs_perma": 75.4, "per_hs_sperma": 24.6, "per_hs_temp": 0.0, "per_hs_servc": 0.0, "per_hs_nservc": 0.0, "per_hs_unclss": 0.0, "avghhsz_cy": 3.1875, "st_areashape": 1249675.03980141, "st_lengthshape": 5537.909431578453}, "geometry": {"type": "Polygon", "coordinates": [[[83.42217205292079, 20.24703887621404], [83.42119343723341, 20.247178915390123], [83.42059336801354, 20.24704719219727], [83.41975127828304, 20.24673369778022], [83.41902772305092, 20.246653350216636], [83.41847947224989, 20.246778364140376], [83.41848493221016, 20.246520949801237], [83.41855416986068, 20.246352834300943], [83.41868555206425, 20.24618403088386], [83.418868619736, 20.245960248880458], [83.41912743065755, 20.24568121666667], [83.41931921468252, 20.245398660978378], [83.41938835621332, 20.245230638659088], [83.41939339127048, 20.244941600872778], [83.4192807506187, 20.24476698383551], [83.41922540361739, 20.244596295833205], [83.41923146095736, 20.24436590213115], [83.41936274344793, 20.244197100769085], [83.41960511879307, 20.24408984812102], [83.41985217166585, 20.243982579385218], [83.4200438541812, 20.24370002397872], [83.41998869941938, 20.243529240407568], [83.41993425522496, 20.243412600730426], [83.41969793362654, 20.24328937005067], [83.4193915703854, 20.243280110741704], [83.41920969837128, 20.24327361000861], [83.41890435471801, 20.243322994671168], [83.41866022496315, 20.243312768640582], [83.41835385723041, 20.243303323910865], [83.41824112674713, 20.243128892140195], [83.41818972424824, 20.24289935510594], [83.41814043818016, 20.242498273637004], [83.4179762818418, 20.24208952302427], [83.41780818459424, 20.24173971511335], [83.41751477236458, 20.241328315148806], [83.41716490461255, 20.240971999637736], [83.41681403164571, 20.240561362098955], [83.41646407136724, 20.240205048200526], [83.41592232706377, 20.240131191382545], [83.41549645105896, 20.240119049354714], [83.41537671820798, 20.24011167361598], [83.41516584588157, 20.240087440969912], [83.4158147403338, 20.23966762838259], [83.416624311051, 20.239123676299553], [83.41713621960889, 20.2385069907749], [83.41732030417357, 20.238342041637313], [83.41841626588817, 20.23837662902559], [83.41913204081159, 20.238565387058227], [83.42003832594892, 20.23870637533872], [83.42059556619104, 20.238549607994223], [83.42178304916511, 20.237381978098057], [83.42211481586415, 20.236876165147365], [83.42268454628196, 20.235978872721507], [83.42282781858663, 20.235349288905308], [83.42322310785435, 20.23461691395878], [83.42408611755117, 20.23412640962709], [83.4243440849547, 20.233793228977355], [83.42454181043692, 20.233284787198194], [83.42449818824673, 20.232937741829215], [83.42495511002781, 20.23248440940381], [83.42505366240097, 20.232668171223295], [83.42537986583348, 20.23365250090435], [83.42558646038252, 20.23463387513276], [83.42580691324143, 20.23527203385037], [83.4262742977006, 20.235802826221267], [83.42662518504049, 20.23621334737554], [83.42721321863223, 20.236805734671936], [83.42767501467202, 20.237277984302207], [83.42814637417631, 20.23775451927354], [83.42860910536231, 20.238285411894502], [83.4289629391763, 20.238583033041262], [83.42937599801867, 20.238997272254505], [83.42954025856167, 20.239401316946662], [83.42952037704777, 20.239975017996155], [83.4294331102095, 20.240206449008486], [83.42918141574162, 20.24094143233475], [83.4289154012298, 20.241676557152392], [83.42860099267699, 20.242069161826215], [83.4281029675818, 20.24234248527603], [83.42754746018986, 20.242612071129273], [83.42692969326056, 20.2428779320479], [83.42618743420591, 20.243141039832647], [83.4256942698947, 20.243414244243763], [83.42532134328766, 20.24374455130214], [83.42476160842402, 20.244357306187407], [83.42398799187777, 20.245370370994376], [83.42322775214437, 20.246324459366754], [83.42279357929957, 20.246709773792468], [83.42217205292079, 20.24703887621404]]]}}]}