{"type": "FeatureCollection", "features": [{"type": "Feature", "properties": {"premiumdata.sde.IN_Village_PCA.area": 1.34176152, "objectid": 423377, "id": "547289575673", "name": "Bisauna", "subdistrict": "Gairsain", "district": "Chamoli", "state": "Uttarakhand", "country": "India", "censusname": "Bisauna", "villagename_locallang": null, "lgd_villagename": "Bisauna", "lgd_villagecode": 41820, "lgd_subdistrictcode": 289, "lgd_districtcode": 47, "lgd_statecode": 5, "censuscode2001": "00171000", "censuscode2011": "041820", "censuscode2021": null, "level": "Village", "tru": "Rural", "no_hh": 83, "tot_p": 407, "tot_m": 181, "tot_f": 226, "per_tot_m": 44.47174447, "per_tot_f": 55.52825553, "p_06": 57, "m_06": 25, "f_06": 32, "per_p_06": 14.004914, "per_m_06": 43.85964912, "per_f_06": 56.14035088000001, "p_sc": 0, "m_sc": 0, "f_sc": 0, "per_p_sc": 0.0, "per_m_sc": 0.0, "per_f_sc": 0.0, "p_st": 1, "m_st": 1, "f_st": 0, "per_p_st": 0.24570025, "per_m_st": 100.0, "per_f_st": 0.0, "p_lit": 266, "m_lit": 147, "f_lit": 119, "per_p_lit": 65.35626536, "per_m_lit": 55.26315789, "per_f_lit": 44.73684211, "p_ill": 141, "m_ill": 34, "f_ill": 107, "per_p_ill": 34.64373464000001, "per_m_ill": 24.11347518, "per_f_ill": 75.88652482, "tot_work_p": 189, "tot_work_m": 87, "tot_work_f": 102, "per_tot_work_p": 46.43734644, "per_tot_work_m": 46.03174603, "per_tot_work_f": 53.96825397000001, "mainwork_p": 186, "mainwork_m": 87, "mainwork_f": 99, "per_mainwork_p": 45.7002457, "per_mainwork_m": 46.77419355, "per_mainwork_f": 53.22580645, "main_cl_p": 180, "main_cl_m": 83, "main_cl_f": 97, "per_main_cl_p": 96.77419355, "per_main_cl_m": 46.11111111, "per_main_cl_f": 53.88888889, "main_al_p": 0, "main_al_m": 0, "main_al_f": 0, "per_main_al_p": 0.0, "per_main_al_m": 0.0, "per_main_al_f": 0.0, "main_hh_p": 1, "main_hh_m": 1, "main_hh_f": 0, "per_main_hh_p": 0.53763441, "per_main_hh_m": 100.0, "per_main_hh_f": 0.0, "main_ot_p": 5, "main_ot_m": 3, "main_ot_f": 2, "per_main_ot_p": 2.68817204, "per_main_ot_m": 60.0, "per_main_ot_f": 40.0, "margwork_p": 3, "margwork_m": 0, "margwork_f": 3, "per_margwork_p": 0.73710074, "per_margwork_m": 0.0, "per_margwork_f": 100.0, "marg_cl_p": 3, "marg_cl_m": 0, "marg_cl_f": 3, "per_marg_cl_p": 100.0, "per_marg_cl_m": 0.0, "per_marg_cl_f": 100.0, "marg_al_p": 0, "marg_al_m": 0, "marg_al_f": 0, "per_marg_al_p": 0.0, "per_marg_al_m": 0.0, "per_marg_al_f": 0.0, "marg_hh_p": 0, "marg_hh_m": 0, "marg_hh_f": 0, "per_marg_hh_p": 0.0, "per_marg_hh_m": 0.0, "per_marg_hh_f": 0.0, "marg_ot_p": 0, "marg_ot_m": 0, "marg_ot_f": 0, "per_marg_ot_p": 0.0, "per_marg_ot_m": 0.0, "per_marg_ot_f": 0.0, "margwork_3_6_p": 3, "margwork_3_6_m": 0, "margwork_3_6_f": 3, "per_margwork_3_6_p": 100.0, "per_margwork_3_6_m": 0.0, "per_margwork_3_6_f": 100.0, "marg_cl_3_6_p": 3, "marg_cl_3_6_m": 0, "marg_cl_3_6_f": 3, "per_marg_cl_3_6_p": 100.0, "per_marg_cl_3_6_m": 0.0, "per_marg_cl_3_6_f": 100.0, "marg_al_3_6_p": 0, "marg_al_3_6_m": 0, "marg_al_3_6_f": 0, "per_marg_al_3_6_p": 0.0, "per_marg_al_3_6_m": 0.0, "per_marg_al_3_6_f": 0.0, "marg_hh_3_6_p": 0, "marg_hh_3_6_m": 0, "marg_hh_3_6_f": 0, "per_marg_hh_3_6_p": 0.0, "per_marg_hh_3_6_m": 0.0, "per_marg_hh_3_6_f": 0.0, "marg_ot_3_6_p": 0, "marg_ot_3_6_m": 0, "marg_ot_3_6_f": 0, "per_marg_ot_3_6_p": 0.0, "per_marg_ot_3_6_m": 0.0, "per_marg_ot_3_6_f": 0.0, "margwork_0_3_p": 0, "margwork_0_3_m": 0, "margwork_0_3_f": 0, "per_margwork_0_3_p": 0.0, "per_margwork_0_3_m": 0.0, "per_margwork_0_3_f": 0.0, "marg_cl_0_3_p": 0, "marg_cl_0_3_m": 0, "marg_cl_0_3_f": 0, "per_marg_cl_0_3_p": 0.0, "per_marg_cl_0_3_m": 0.0, "per_marg_cl_0_3_f": 0.0, "marg_al_0_3_p": 0, "marg_al_0_3_m": 0, "marg_al_0_3_f": 0, "per_marg_al_0_3_p": 0.0, "per_marg_al_0_3_m": 0.0, "per_marg_al_0_3_f": 0.0, "marg_hh_0_3_p": 0, "marg_hh_0_3_m": 0, "marg_hh_0_3_f": 0, "per_marg_hh_0_3_p": 0.0, "per_marg_hh_0_3_m": 0.0, "per_marg_hh_0_3_f": 0.0, "marg_ot_0_3_p": 0, "marg_ot_0_3_m": 0, "marg_ot_0_3_f": 0, "per_marg_ot_0_3_p": 0.0, "per_marg_ot_0_3_m": 0.0, "per_marg_ot_0_3_f": 0.0, "non_work_p": 218, "non_work_m": 94, "non_work_f": 124, "per_non_work_p": 53.56265356, "per_non_work_m": 43.11926606, "per_non_work_f": 56.88073394, "per_hc_tot_tot": 100, "per_hc_tot_god": 0.0, "per_hc_tot_liv": 100.0, "per_hc_tot_dil": 0.0, "per_hc_res_tot": 98.8, "per_hc_res_god": 0.0, "per_hc_res_liv": 98.8, "per_hc_res_dil": 0.0, "per_hc_oth_tot": 1.2, "per_hc_oth_god": 0.0, "per_hc_oth_liv": 1.2, "per_hc_oth_dil": 0.0, "per_mt_grsbam": 0.0, "per_mt_plastic": 0.0, "per_mt_h_tiles": 0.0, "per_mt_m_tiles": 0.0, "per_mt_b_brick": 0.0, "per_mt_stone": 94.0, "per_mt_asbstos": 0.0, "per_mt_concrte": 6.0, "per_mt_oth": 0.0, "per_mw_grsbam": 0.0, "per_mw_plastic": 0.0, "per_mw_mud": 0.0, "per_mw_wood": 0.0, "per_mw_no_mrtr": 0.0, "per_mw_st_mrtr": 100.0, "per_mw_asbstos": 0.0, "per_mw_b_brick": 0.0, "per_mw_concrte": 0.0, "per_mw_oth": 0.0, "per_mf_mud": 94.0, "per_mf_wood": 0.0, "per_mf_b_brick": 0.0, "per_mf_stone": 0.0, "per_mf_cement": 6.0, "per_mf_fl_tile": 0.0, "per_mf_oth": 0.0, "per_dw_n_exrm": 0.0, "per_dw_1_room": 3.6, "per_dw_2_room": 33.7, "per_dw_3_room": 9.6, "per_dw_4_room": 45.8, "per_dw_5_room": 3.6, "per_dw_6_room": 3.6, "per_hhsize_1": 2.4, "per_hhsize_2": 3.6, "per_hhsize_3": 10.8, "per_hhsize_4": 20.5, "per_hhsize_5": 24.1, "per_hhsize_6_8": 37.3, "per_hhsize_9p": 1.2, "per_ow_owned": 94.0, "per_ow_rented": 6.0, "per_ow_oth": 0.0, "per_mc_none": 3.6, "per_mcouple_1": 60.2, "per_mcouple_2": 31.3, "per_mcouple_3": 4.8, "per_mcouple_4": 0.0, "per_mcouple_5p": 0.0, "per_dw_t_ts": 100.0, "per_dw_t_unts": 0.0, "per_dw_c_well": 0.0, "per_dw_unc_wel": 0.0, "per_dw_hpump": 0.0, "per_dw_tw_bore": 0.0, "per_dw_spring": 0.0, "per_dw_rivcan": 0.0, "per_dw_tank": 0.0, "per_dw_oth": 0.0, "per_loc_dw_wp": 60.2, "per_loc_dw_np": 37.3, "per_loc_dw_aw": 2.4, "per_light_elec": 84.3, "per_light_kero": 3.6, "per_light_solr": 12.0, "per_light_oil": 0.0, "per_light_oth": 0.0, "per_light_no": 0.0, "per_hh_latrine": 13.3, "per_fl_sewer": 0.0, "per_fl_septict": 0.0, "per_fl_othsys": 0.0, "per_pl_wslab": 13.3, "per_pl_without": 0.0, "per_ns_open": 0.0, "per_sl_ns_hum": 0.0, "per_sl_ns_anml": 0.0, "per_hh_no_lat": 86.7, "per_as_pub": 0.0, "per_as_open": 86.7, "per_hh_bathrm": 10.8, "per_hh_en_wrf": 2.4, "per_hh_no_btrm": 86.7, "per_wwoc_drain": 0.0, "per_wwoc_open": 96.4, "per_wwoc_nodrn": 3.6, "per_cook_fire": 95.2, "per_cook_resdu": 0.0, "per_cook_cwdng": 0.0, "per_cook_coal": 0.0, "per_cook_kero": 2.4, "per_cook_lpng": 2.4, "per_cook_elec": 0.0, "per_cook_biogs": 0.0, "per_cook_oth": 0.0, "per_cook_no": 0.0, "per_kf_inside": 100.0, "per_kf_in_has": 97.6, "per_kf_in_does": 2.4, "per_kf_outside": 0.0, "per_kf_out_has": 0.0, "per_kf_out_dos": 0.0, "per_kf_no_cook": 0.0, "per_hh_banking": 100.0, "per_hh_radio": 21.7, "per_hh_tv": 38.6, "per_hh_cmp_int": 0.0, "per_hh_cmp_wnt": 1.2, "per_hh_ph_ll": 0.0, "per_hh_ph_mob": 78.3, "per_hh_ph_bth": 0.0, "per_hh_bcycl": 0.0, "per_hh_2wheel": 1.2, "per_hh_4wheel": 1.2, "per_hh_tvcomp": null, "per_hh_no_ast": 16.9, "per_hs_perma": 100.0, "per_hs_sperma": 0.0, "per_hs_temp": 0.0, "per_hs_servc": 0.0, "per_hs_nservc": 0.0, "per_hs_unclss": 0.0, "avghhsz_cy": 4.90361446, "st_areashape": 1802618.459738825, "st_lengthshape": 5889.191165812907}, "geometry": {"type": "Polygon", "coordinates": [[[79.10121891010364, 30.20294069704235], [79.1047776687467, 30.20395230875702], [79.10919275990906, 30.20622890327614], [79.11359321392219, 30.209095559978127], [79.11558538167662, 30.211073020009806], [79.11573961971597, 30.21267846009149], [79.11565819911354, 30.216537002215905], [79.11539951665107, 30.216445030015752], [79.1130082453822, 30.21559491128372], [79.1094136313829, 30.214810240687996], [79.10622064696062, 30.214481002742158], [79.10489458088765, 30.213828822299053], [79.10137396560987, 30.212172828470035], [79.1013225846706, 30.212148660067204], [79.10027844586638, 30.211712806477404], [79.10019849131452, 30.21167943105428], [79.1000931359997, 30.211731586697983], [79.09986200486698, 30.211883838167676], [79.09967810894852, 30.211462206790017], [79.0996610741958, 30.211423144099808], [79.09971129181682, 30.211413236943887], [79.10036723265414, 30.211283828995217], [79.10069555970394, 30.211219055089842], [79.10122669400559, 30.211159809197262], [79.10137248159303, 30.210719166072863], [79.1014321602706, 30.210538787937658], [79.10079319040565, 30.209639365642268], [79.10048623697139, 30.20934399899033], [79.10061602736029, 30.208384409134876], [79.10058861526939, 30.20484813106337], [79.10121891010364, 30.20294069704235]]]}}]}