{"type": "FeatureCollection", "features": [{"type": "Feature", "properties": {"premiumdata.sde.IN_Village_PCA.area": 3.11444338, "objectid": 626697, "id": "182912121226162", "name": "Sitalmari", "subdistrict": "Goroimari", "district": "Kamrup", "state": "Assam", "country": "India", "censusname": "Sitalmari", "villagename_locallang": null, "lgd_villagename": "Sitalmari", "lgd_villagecode": 302867, "lgd_subdistrictcode": 2121, "lgd_districtcode": 291, "lgd_statecode": 18, "censuscode2001": "00563400", "censuscode2011": "302867", "censuscode2021": null, "level": "Village", "tru": "Rural", "no_hh": 25, "tot_p": 118, "tot_m": 58, "tot_f": 60, "per_tot_m": 49.15254237000001, "per_tot_f": 50.84745763, "p_06": 28, "m_06": 14, "f_06": 14, "per_p_06": 23.72881356, "per_m_06": 50.0, "per_f_06": 50.0, "p_sc": 0, "m_sc": 0, "f_sc": 0, "per_p_sc": 0.0, "per_m_sc": 0.0, "per_f_sc": 0.0, "p_st": 0, "m_st": 0, "f_st": 0, "per_p_st": 0.0, "per_m_st": 0.0, "per_f_st": 0.0, "p_lit": 25, "m_lit": 14, "f_lit": 11, "per_p_lit": 21.18644068, "per_m_lit": 56.0, "per_f_lit": 44.0, "p_ill": 93, "m_ill": 44, "f_ill": 49, "per_p_ill": 78.81355932000001, "per_m_ill": 47.31182796, "per_f_ill": 52.68817204, "tot_work_p": 56, "tot_work_m": 29, "tot_work_f": 27, "per_tot_work_p": 47.45762712, "per_tot_work_m": 51.78571429, "per_tot_work_f": 48.21428571, "mainwork_p": 31, "mainwork_m": 29, "mainwork_f": 2, "per_mainwork_p": 26.27118644, "per_mainwork_m": 93.5483871, "per_mainwork_f": 6.4516129, "main_cl_p": 27, "main_cl_m": 27, "main_cl_f": 0, "per_main_cl_p": 87.09677419, "per_main_cl_m": 100.0, "per_main_cl_f": 0.0, "main_al_p": 3, "main_al_m": 1, "main_al_f": 2, "per_main_al_p": 9.67741935, "per_main_al_m": 33.33333333, "per_main_al_f": 66.66666667, "main_hh_p": 0, "main_hh_m": 0, "main_hh_f": 0, "per_main_hh_p": 0.0, "per_main_hh_m": 0.0, "per_main_hh_f": 0.0, "main_ot_p": 1, "main_ot_m": 1, "main_ot_f": 0, "per_main_ot_p": 3.22580645, "per_main_ot_m": 100.0, "per_main_ot_f": 0.0, "margwork_p": 25, "margwork_m": 0, "margwork_f": 25, "per_margwork_p": 21.18644068, "per_margwork_m": 0.0, "per_margwork_f": 100.0, "marg_cl_p": 0, "marg_cl_m": 0, "marg_cl_f": 0, "per_marg_cl_p": 0.0, "per_marg_cl_m": 0.0, "per_marg_cl_f": 0.0, "marg_al_p": 25, "marg_al_m": 0, "marg_al_f": 25, "per_marg_al_p": 100.0, "per_marg_al_m": 0.0, "per_marg_al_f": 100.0, "marg_hh_p": 0, "marg_hh_m": 0, "marg_hh_f": 0, "per_marg_hh_p": 0.0, "per_marg_hh_m": 0.0, "per_marg_hh_f": 0.0, "marg_ot_p": 0, "marg_ot_m": 0, "marg_ot_f": 0, "per_marg_ot_p": 0.0, "per_marg_ot_m": 0.0, "per_marg_ot_f": 0.0, "margwork_3_6_p": 11, "margwork_3_6_m": 0, "margwork_3_6_f": 11, "per_margwork_3_6_p": 44.0, "per_margwork_3_6_m": 0.0, "per_margwork_3_6_f": 100.0, "marg_cl_3_6_p": 0, "marg_cl_3_6_m": 0, "marg_cl_3_6_f": 0, "per_marg_cl_3_6_p": 0.0, "per_marg_cl_3_6_m": 0.0, "per_marg_cl_3_6_f": 0.0, "marg_al_3_6_p": 11, "marg_al_3_6_m": 0, "marg_al_3_6_f": 11, "per_marg_al_3_6_p": 44.0, "per_marg_al_3_6_m": 0.0, "per_marg_al_3_6_f": 100.0, "marg_hh_3_6_p": 0, "marg_hh_3_6_m": 0, "marg_hh_3_6_f": 0, "per_marg_hh_3_6_p": 0.0, "per_marg_hh_3_6_m": 0.0, "per_marg_hh_3_6_f": 0.0, "marg_ot_3_6_p": 0, "marg_ot_3_6_m": 0, "marg_ot_3_6_f": 0, "per_marg_ot_3_6_p": 0.0, "per_marg_ot_3_6_m": 0.0, "per_marg_ot_3_6_f": 0.0, "margwork_0_3_p": 14, "margwork_0_3_m": 0, "margwork_0_3_f": 14, "per_margwork_0_3_p": 56.0, "per_margwork_0_3_m": 0.0, "per_margwork_0_3_f": 100.0, "marg_cl_0_3_p": 0, "marg_cl_0_3_m": 0, "marg_cl_0_3_f": 0, "per_marg_cl_0_3_p": 0.0, "per_marg_cl_0_3_m": 0.0, "per_marg_cl_0_3_f": 0.0, "marg_al_0_3_p": 14, "marg_al_0_3_m": 0, "marg_al_0_3_f": 14, "per_marg_al_0_3_p": 56.0, "per_marg_al_0_3_m": 0.0, "per_marg_al_0_3_f": 100.0, "marg_hh_0_3_p": 0, "marg_hh_0_3_m": 0, "marg_hh_0_3_f": 0, "per_marg_hh_0_3_p": 0.0, "per_marg_hh_0_3_m": 0.0, "per_marg_hh_0_3_f": 0.0, "marg_ot_0_3_p": 0, "marg_ot_0_3_m": 0, "marg_ot_0_3_f": 0, "per_marg_ot_0_3_p": 0.0, "per_marg_ot_0_3_m": 0.0, "per_marg_ot_0_3_f": 0.0, "non_work_p": 62, "non_work_m": 29, "non_work_f": 33, "per_non_work_p": 52.54237288, "per_non_work_m": 46.77419355, "per_non_work_f": 53.22580645, "per_hc_tot_tot": 100, "per_hc_tot_god": 0.0, "per_hc_tot_liv": 100.0, "per_hc_tot_dil": 0.0, "per_hc_res_tot": 100.0, "per_hc_res_god": 0.0, "per_hc_res_liv": 100.0, "per_hc_res_dil": 0.0, "per_hc_oth_tot": 0.0, "per_hc_oth_god": 0.0, "per_hc_oth_liv": 0.0, "per_hc_oth_dil": 0.0, "per_mt_grsbam": 89.5, "per_mt_plastic": 0.0, "per_mt_h_tiles": 0.0, "per_mt_m_tiles": 0.0, "per_mt_b_brick": 0.0, "per_mt_stone": 0.0, "per_mt_asbstos": 10.5, "per_mt_concrte": 0.0, "per_mt_oth": 0.0, "per_mw_grsbam": 100.0, "per_mw_plastic": 0.0, "per_mw_mud": 0.0, "per_mw_wood": 0.0, "per_mw_no_mrtr": 0.0, "per_mw_st_mrtr": 0.0, "per_mw_asbstos": 0.0, "per_mw_b_brick": 0.0, "per_mw_concrte": 0.0, "per_mw_oth": 0.0, "per_mf_mud": 100.0, "per_mf_wood": 0.0, "per_mf_b_brick": 0.0, "per_mf_stone": 0.0, "per_mf_cement": 0.0, "per_mf_fl_tile": 0.0, "per_mf_oth": 0.0, "per_dw_n_exrm": 18.4, "per_dw_1_room": 44.7, "per_dw_2_room": 28.9, "per_dw_3_room": 7.9, "per_dw_4_room": 0.0, "per_dw_5_room": 0.0, "per_dw_6_room": 0.0, "per_hhsize_1": 0.0, "per_hhsize_2": 5.3, "per_hhsize_3": 13.2, "per_hhsize_4": 26.3, "per_hhsize_5": 13.2, "per_hhsize_6_8": 36.8, "per_hhsize_9p": 5.3, "per_ow_owned": 100.0, "per_ow_rented": 0.0, "per_ow_oth": 0.0, "per_mc_none": 23.7, "per_mcouple_1": 65.8, "per_mcouple_2": 2.6, "per_mcouple_3": 7.9, "per_mcouple_4": 0.0, "per_mcouple_5p": 0.0, "per_dw_t_ts": 0.0, "per_dw_t_unts": 0.0, "per_dw_c_well": 0.0, "per_dw_unc_wel": 0.0, "per_dw_hpump": 36.8, "per_dw_tw_bore": 0.0, "per_dw_spring": 0.0, "per_dw_rivcan": 63.2, "per_dw_tank": 0.0, "per_dw_oth": 0.0, "per_loc_dw_wp": 0.0, "per_loc_dw_np": 34.2, "per_loc_dw_aw": 65.8, "per_light_elec": 0.0, "per_light_kero": 100.0, "per_light_solr": 0.0, "per_light_oil": 0.0, "per_light_oth": 0.0, "per_light_no": 0.0, "per_hh_latrine": 0.0, "per_fl_sewer": 0.0, "per_fl_septict": 0.0, "per_fl_othsys": 0.0, "per_pl_wslab": 0.0, "per_pl_without": 0.0, "per_ns_open": 0.0, "per_sl_ns_hum": 0.0, "per_sl_ns_anml": 0.0, "per_hh_no_lat": 100.0, "per_as_pub": 0.0, "per_as_open": 100.0, "per_hh_bathrm": 0.0, "per_hh_en_wrf": 0.0, "per_hh_no_btrm": 100.0, "per_wwoc_drain": 0.0, "per_wwoc_open": 0.0, "per_wwoc_nodrn": 100.0, "per_cook_fire": 100.0, "per_cook_resdu": 0.0, "per_cook_cwdng": 0.0, "per_cook_coal": 0.0, "per_cook_kero": 0.0, "per_cook_lpng": 0.0, "per_cook_elec": 0.0, "per_cook_biogs": 0.0, "per_cook_oth": 0.0, "per_cook_no": 0.0, "per_kf_inside": 0.0, "per_kf_in_has": 0.0, "per_kf_in_does": 0.0, "per_kf_outside": 100.0, "per_kf_out_has": 100.0, "per_kf_out_dos": 0.0, "per_kf_no_cook": 0.0, "per_hh_banking": 0.0, "per_hh_radio": 0.0, "per_hh_tv": 0.0, "per_hh_cmp_int": 0.0, "per_hh_cmp_wnt": 0.0, "per_hh_ph_ll": 2.6, "per_hh_ph_mob": 0.0, "per_hh_ph_bth": 0.0, "per_hh_bcycl": 7.9, "per_hh_2wheel": 0.0, "per_hh_4wheel": 0.0, "per_hh_tvcomp": 0.0, "per_hh_no_ast": 89.5, "per_hs_perma": 0.0, "per_hs_sperma": 10.5, "per_hs_temp": 89.5, "per_hs_servc": 0.0, "per_hs_nservc": 89.5, "per_hs_unclss": 0.0, "avghhsz_cy": 4.72, "st_areashape": 3879798.66379625, "st_lengthshape": 8254.643531772133}, "geometry": {"type": "Polygon", "coordinates": [[[91.23536219691088, 26.120405711899483], [91.23355507042686, 26.12216347842315], [91.23581397853191, 26.12513810098302], [91.24078357636293, 26.129059077390107], [91.24078357636293, 26.13352071864029], [91.23957882507413, 26.13757660823023], [91.23521160243833, 26.136900636952646], [91.23174794394282, 26.13663024686202], [91.22467003158098, 26.13568387782371], [91.21939924570316, 26.13419671029032], [91.21879687050793, 26.13014070330982], [91.21774271279337, 26.125543725390774], [91.21774271279337, 26.122974746485554], [91.22271231062444, 26.123109957819292], [91.22798309650227, 26.12216347842315], [91.23536219691088, 26.120405711899483]]]}}]}