{"type": "FeatureCollection", "features": [{"type": "Feature", "properties": {"premiumdata.sde.IN_Village_PCA.area": 1.01587723, "objectid": 153347, "id": "285194774670686", "name": "Santhoshapuram", "subdistrict": "Meliaputti", "district": "Srikakulam", "state": "Andhra Pradesh", "country": "India", "censusname": "Santhoshapuram", "villagename_locallang": null, "lgd_villagename": "Santhoshapuram", "lgd_villagecode": 580185, "lgd_subdistrictcode": 4774, "lgd_districtcode": 519, "lgd_statecode": 28, "censuscode2001": "01118900", "censuscode2011": "580185", "censuscode2021": null, "level": "Village", "tru": "Rural", "no_hh": 11, "tot_p": 42, "tot_m": 17, "tot_f": 25, "per_tot_m": 40.47619048, "per_tot_f": 59.52380952, "p_06": 7, "m_06": 3, "f_06": 4, "per_p_06": 16.66666667, "per_m_06": 42.85714286, "per_f_06": 57.14285714, "p_sc": 14, "m_sc": 7, "f_sc": 7, "per_p_sc": 33.33333333, "per_m_sc": 50.0, "per_f_sc": 50.0, "p_st": 24, "m_st": 10, "f_st": 14, "per_p_st": 57.14285714, "per_m_st": 41.66666667000001, "per_f_st": 58.33333333, "p_lit": 19, "m_lit": 8, "f_lit": 11, "per_p_lit": 45.23809524, "per_m_lit": 42.10526316000001, "per_f_lit": 57.89473684, "p_ill": 23, "m_ill": 9, "f_ill": 14, "per_p_ill": 54.76190476, "per_m_ill": 39.13043478, "per_f_ill": 60.86956522000001, "tot_work_p": 28, "tot_work_m": 13, "tot_work_f": 15, "per_tot_work_p": 66.66666667, "per_tot_work_m": 46.42857143, "per_tot_work_f": 53.57142857, "mainwork_p": 0, "mainwork_m": 0, "mainwork_f": 0, "per_mainwork_p": 0.0, "per_mainwork_m": 0.0, "per_mainwork_f": 0.0, "main_cl_p": 0, "main_cl_m": 0, "main_cl_f": 0, "per_main_cl_p": 0.0, "per_main_cl_m": 0.0, "per_main_cl_f": 0.0, "main_al_p": 0, "main_al_m": 0, "main_al_f": 0, "per_main_al_p": 0.0, "per_main_al_m": 0.0, "per_main_al_f": 0.0, "main_hh_p": 0, "main_hh_m": 0, "main_hh_f": 0, "per_main_hh_p": 0.0, "per_main_hh_m": 0.0, "per_main_hh_f": 0.0, "main_ot_p": 0, "main_ot_m": 0, "main_ot_f": 0, "per_main_ot_p": 0.0, "per_main_ot_m": 0.0, "per_main_ot_f": 0.0, "margwork_p": 28, "margwork_m": 13, "margwork_f": 15, "per_margwork_p": 66.66666667, "per_margwork_m": 46.42857143, "per_margwork_f": 53.57142857, "marg_cl_p": 0, "marg_cl_m": 0, "marg_cl_f": 0, "per_marg_cl_p": 0.0, "per_marg_cl_m": 0.0, "per_marg_cl_f": 0.0, "marg_al_p": 27, "marg_al_m": 13, "marg_al_f": 14, "per_marg_al_p": 96.42857143, "per_marg_al_m": 48.14814815, "per_marg_al_f": 51.85185185, "marg_hh_p": 1, "marg_hh_m": 0, "marg_hh_f": 1, "per_marg_hh_p": 3.57142857, "per_marg_hh_m": 0.0, "per_marg_hh_f": 100.0, "marg_ot_p": 0, "marg_ot_m": 0, "marg_ot_f": 0, "per_marg_ot_p": 0.0, "per_marg_ot_m": 0.0, "per_marg_ot_f": 0.0, "margwork_3_6_p": 26, "margwork_3_6_m": 13, "margwork_3_6_f": 13, "per_margwork_3_6_p": 92.85714286, "per_margwork_3_6_m": 50.0, "per_margwork_3_6_f": 50.0, "marg_cl_3_6_p": 0, "marg_cl_3_6_m": 0, "marg_cl_3_6_f": 0, "per_marg_cl_3_6_p": 0.0, "per_marg_cl_3_6_m": 0.0, "per_marg_cl_3_6_f": 0.0, "marg_al_3_6_p": 26, "marg_al_3_6_m": 13, "marg_al_3_6_f": 13, "per_marg_al_3_6_p": 92.85714286, "per_marg_al_3_6_m": 50.0, "per_marg_al_3_6_f": 50.0, "marg_hh_3_6_p": 0, "marg_hh_3_6_m": 0, "marg_hh_3_6_f": 0, "per_marg_hh_3_6_p": 0.0, "per_marg_hh_3_6_m": 0.0, "per_marg_hh_3_6_f": 0.0, "marg_ot_3_6_p": 0, "marg_ot_3_6_m": 0, "marg_ot_3_6_f": 0, "per_marg_ot_3_6_p": 0.0, "per_marg_ot_3_6_m": 0.0, "per_marg_ot_3_6_f": 0.0, "margwork_0_3_p": 2, "margwork_0_3_m": 0, "margwork_0_3_f": 2, "per_margwork_0_3_p": 7.14285714, "per_margwork_0_3_m": 0.0, "per_margwork_0_3_f": 100.0, "marg_cl_0_3_p": 0, "marg_cl_0_3_m": 0, "marg_cl_0_3_f": 0, "per_marg_cl_0_3_p": 0.0, "per_marg_cl_0_3_m": 0.0, "per_marg_cl_0_3_f": 0.0, "marg_al_0_3_p": 1, "marg_al_0_3_m": 0, "marg_al_0_3_f": 1, "per_marg_al_0_3_p": 3.57142857, "per_marg_al_0_3_m": 0.0, "per_marg_al_0_3_f": 100.0, "marg_hh_0_3_p": 1, "marg_hh_0_3_m": 0, "marg_hh_0_3_f": 1, "per_marg_hh_0_3_p": 0.0, "per_marg_hh_0_3_m": 0.0, "per_marg_hh_0_3_f": 100.0, "marg_ot_0_3_p": 0, "marg_ot_0_3_m": 0, "marg_ot_0_3_f": 0, "per_marg_ot_0_3_p": 0.0, "per_marg_ot_0_3_m": 0.0, "per_marg_ot_0_3_f": 0.0, "non_work_p": 14, "non_work_m": 4, "non_work_f": 10, "per_non_work_p": 33.33333333, "per_non_work_m": 28.57142857, "per_non_work_f": 71.42857143, "per_hc_tot_tot": 100, "per_hc_tot_god": 83.3, "per_hc_tot_liv": 0.0, "per_hc_tot_dil": 16.7, "per_hc_res_tot": 100.0, "per_hc_res_god": 83.3, "per_hc_res_liv": 0.0, "per_hc_res_dil": 16.7, "per_hc_oth_tot": 0.0, "per_hc_oth_god": 0.0, "per_hc_oth_liv": 0.0, "per_hc_oth_dil": 0.0, "per_mt_grsbam": 16.7, "per_mt_plastic": 0.0, "per_mt_h_tiles": 0.0, "per_mt_m_tiles": 0.0, "per_mt_b_brick": 0.0, "per_mt_stone": 0.0, "per_mt_asbstos": 0.0, "per_mt_concrte": 83.3, "per_mt_oth": 0.0, "per_mw_grsbam": 16.7, "per_mw_plastic": 0.0, "per_mw_mud": 0.0, "per_mw_wood": 0.0, "per_mw_no_mrtr": 0.0, "per_mw_st_mrtr": 0.0, "per_mw_asbstos": 0.0, "per_mw_b_brick": 83.3, "per_mw_concrte": 0.0, "per_mw_oth": 0.0, "per_mf_mud": 16.7, "per_mf_wood": 0.0, "per_mf_b_brick": 0.0, "per_mf_stone": 0.0, "per_mf_cement": 83.3, "per_mf_fl_tile": 0.0, "per_mf_oth": 0.0, "per_dw_n_exrm": 8.3, "per_dw_1_room": 91.7, "per_dw_2_room": 0.0, "per_dw_3_room": 0.0, "per_dw_4_room": 0.0, "per_dw_5_room": 0.0, "per_dw_6_room": 0.0, "per_hhsize_1": 8.3, "per_hhsize_2": 0.0, "per_hhsize_3": 33.3, "per_hhsize_4": 25.0, "per_hhsize_5": 16.7, "per_hhsize_6_8": 16.7, "per_hhsize_9p": 0.0, "per_ow_owned": 100.0, "per_ow_rented": 0.0, "per_ow_oth": 0.0, "per_mc_none": 16.7, "per_mcouple_1": 75.0, "per_mcouple_2": 8.3, "per_mcouple_3": 0.0, "per_mcouple_4": 0.0, "per_mcouple_5p": 0.0, "per_dw_t_ts": 0.0, "per_dw_t_unts": 0.0, "per_dw_c_well": 0.0, "per_dw_unc_wel": 100.0, "per_dw_hpump": 0.0, "per_dw_tw_bore": 0.0, "per_dw_spring": 0.0, "per_dw_rivcan": 0.0, "per_dw_tank": 0.0, "per_dw_oth": 0.0, "per_loc_dw_wp": 0.0, "per_loc_dw_np": 100.0, "per_loc_dw_aw": 0.0, "per_light_elec": 0.0, "per_light_kero": 100.0, "per_light_solr": 0.0, "per_light_oil": 0.0, "per_light_oth": 0.0, "per_light_no": 0.0, "per_hh_latrine": 0.0, "per_fl_sewer": 0.0, "per_fl_septict": 0.0, "per_fl_othsys": 0.0, "per_pl_wslab": 0.0, "per_pl_without": 0.0, "per_ns_open": 0.0, "per_sl_ns_hum": 0.0, "per_sl_ns_anml": 0.0, "per_hh_no_lat": 100.0, "per_as_pub": 0.0, "per_as_open": 100.0, "per_hh_bathrm": 0.0, "per_hh_en_wrf": 0.0, "per_hh_no_btrm": 100.0, "per_wwoc_drain": 0.0, "per_wwoc_open": 0.0, "per_wwoc_nodrn": 100.0, "per_cook_fire": 100.0, "per_cook_resdu": 0.0, "per_cook_cwdng": 0.0, "per_cook_coal": 0.0, "per_cook_kero": 0.0, "per_cook_lpng": 0.0, "per_cook_elec": 0.0, "per_cook_biogs": 0.0, "per_cook_oth": 0.0, "per_cook_no": 0.0, "per_kf_inside": 100.0, "per_kf_in_has": 100.0, "per_kf_in_does": 0.0, "per_kf_outside": 0.0, "per_kf_out_has": 0.0, "per_kf_out_dos": 0.0, "per_kf_no_cook": 0.0, "per_hh_banking": 0.0, "per_hh_radio": 0.0, "per_hh_tv": 0.0, "per_hh_cmp_int": 0.0, "per_hh_cmp_wnt": 0.0, "per_hh_ph_ll": 0.0, "per_hh_ph_mob": 0.0, "per_hh_ph_bth": 0.0, "per_hh_bcycl": 0.0, "per_hh_2wheel": 0.0, "per_hh_4wheel": 0.0, "per_hh_tvcomp": 0.0, "per_hh_no_ast": 100.0, "per_hs_perma": 83.3, "per_hs_sperma": 0.0, "per_hs_temp": 16.7, "per_hs_servc": 0.0, "per_hs_nservc": 16.7, "per_hs_unclss": 0.0, "avghhsz_cy": 3.81818182, "st_areashape": 1139237.675165535, "st_lengthshape": 4364.155621426343}, "geometry": {"type": "Polygon", "coordinates": [[[84.33147999961253, 18.76507999990289], [84.33127000044857, 18.766479999848634], [84.33127000044857, 18.76694000008859], [84.33141000019064, 18.767319999340355], [84.33192999987429, 18.768099999374293], [84.33223000034826, 18.768859998597375], [84.332409999375, 18.769679999333658], [84.33227999967869, 18.770310000146388], [84.33151999979549, 18.771339999360894], [84.33002999926802, 18.772270000660725], [84.32844999922717, 18.77272000076473], [84.3264299998686, 18.773240000409366], [84.32530999923696, 18.77329999980718], [84.32376000023166, 18.773160000045053], [84.32304000142977, 18.772810000131035], [84.32201999856062, 18.77187000041036], [84.3218400004322, 18.771419999738423], [84.32170999983755, 18.770369999736488], [84.32177999925943, 18.769699999841176], [84.32232999997868, 18.768769999673953], [84.32257000017816, 18.768400000193072], [84.32262000040689, 18.767940001384382], [84.3225799993256, 18.767250000393084], [84.32223000041955, 18.765699999125573], [84.3217399999748, 18.76484000068937], [84.3218199994424, 18.764779999982046], [84.3222699997042, 18.76412000014891], [84.32261000036112, 18.763559999682613], [84.3230099985976, 18.763189999827738], [84.32333000006136, 18.762989999683185], [84.32369999995723, 18.763020000357912], [84.3243600002813, 18.76316000003382], [84.32597999960679, 18.763839999722894], [84.3271899997518, 18.764060000036004], [84.32887000025008, 18.76404999987335], [84.3302100000914, 18.763810000044607], [84.33170000061885, 18.7632299998282], [84.3319999992962, 18.763069999769478], [84.33192999987429, 18.763479999828743], [84.33147999961253, 18.76507999990289]]]}}]}