{"type": "FeatureCollection", "features": [{"type": "Feature", "properties": {"premiumdata.sde.IN_Village_PCA.area": 10.91054614, "objectid": 236955, "id": "8110560491259", "name": "Dukosi", "subdistrict": "Nagaur", "district": "Nagaur", "state": "Rajasthan", "country": "India", "censusname": "Dukosi", "villagename_locallang": null, "lgd_villagename": "Dukosi", "lgd_villagecode": 82897, "lgd_subdistrictcode": 560, "lgd_districtcode": 110, "lgd_statecode": 8, "censuscode2001": "01808400", "censuscode2011": "082897", "censuscode2021": null, "level": "Village", "tru": "Rural", "no_hh": 397, "tot_p": 2562, "tot_m": 1307, "tot_f": 1255, "per_tot_m": 51.01483216, "per_tot_f": 48.98516784, "p_06": 517, "m_06": 262, "f_06": 255, "per_p_06": 20.17954723, "per_m_06": 50.67698259, "per_f_06": 49.32301741, "p_sc": 39, "m_sc": 20, "f_sc": 19, "per_p_sc": 1.52224824, "per_m_sc": 51.28205128, "per_f_sc": 48.71794872, "p_st": 0, "m_st": 0, "f_st": 0, "per_p_st": 0.0, "per_m_st": 0.0, "per_f_st": 0.0, "p_lit": 1238, "m_lit": 791, "f_lit": 447, "per_p_lit": 48.32162373, "per_m_lit": 63.89337641, "per_f_lit": 36.10662359, "p_ill": 1324, "m_ill": 516, "f_ill": 808, "per_p_ill": 51.67837627, "per_m_ill": 38.97280967, "per_f_ill": 61.02719033, "tot_work_p": 930, "tot_work_m": 616, "tot_work_f": 314, "per_tot_work_p": 36.29976581, "per_tot_work_m": 66.23655914000001, "per_tot_work_f": 33.76344086, "mainwork_p": 688, "mainwork_m": 581, "mainwork_f": 107, "per_mainwork_p": 26.8540203, "per_mainwork_m": 84.44767442, "per_mainwork_f": 15.55232558, "main_cl_p": 182, "main_cl_m": 122, "main_cl_f": 60, "per_main_cl_p": 26.45348837, "per_main_cl_m": 67.03296703, "per_main_cl_f": 32.96703297, "main_al_p": 105, "main_al_m": 68, "main_al_f": 37, "per_main_al_p": 15.26162791, "per_main_al_m": 64.76190476, "per_main_al_f": 35.23809524, "main_hh_p": 8, "main_hh_m": 7, "main_hh_f": 1, "per_main_hh_p": 1.1627907, "per_main_hh_m": 87.5, "per_main_hh_f": 12.5, "main_ot_p": 393, "main_ot_m": 384, "main_ot_f": 9, "per_main_ot_p": 57.12209302, "per_main_ot_m": 97.70992366, "per_main_ot_f": 2.29007634, "margwork_p": 242, "margwork_m": 35, "margwork_f": 207, "per_margwork_p": 9.44574551, "per_margwork_m": 14.46280992, "per_margwork_f": 85.53719008, "marg_cl_p": 33, "marg_cl_m": 7, "marg_cl_f": 26, "per_marg_cl_p": 13.63636364, "per_marg_cl_m": 21.21212121, "per_marg_cl_f": 78.78787879000001, "marg_al_p": 41, "marg_al_m": 13, "marg_al_f": 28, "per_marg_al_p": 16.94214876, "per_marg_al_m": 31.70731707, "per_marg_al_f": 68.29268293, "marg_hh_p": 146, "marg_hh_m": 2, "marg_hh_f": 144, "per_marg_hh_p": 60.33057851, "per_marg_hh_m": 1.36986301, "per_marg_hh_f": 98.63013699, "marg_ot_p": 22, "marg_ot_m": 13, "marg_ot_f": 9, "per_marg_ot_p": 9.09090909, "per_marg_ot_m": 59.09090909, "per_marg_ot_f": 40.90909091, "margwork_3_6_p": 85, "margwork_3_6_m": 33, "margwork_3_6_f": 52, "per_margwork_3_6_p": 35.12396694, "per_margwork_3_6_m": 38.82352941000001, "per_margwork_3_6_f": 61.17647059, "marg_cl_3_6_p": 31, "marg_cl_3_6_m": 7, "marg_cl_3_6_f": 24, "per_marg_cl_3_6_p": 12.80991736, "per_marg_cl_3_6_m": 22.58064516, "per_marg_cl_3_6_f": 77.41935484000001, "marg_al_3_6_p": 39, "marg_al_3_6_m": 12, "marg_al_3_6_f": 27, "per_marg_al_3_6_p": 16.11570248, "per_marg_al_3_6_m": 30.76923077, "per_marg_al_3_6_f": 69.23076923, "marg_hh_3_6_p": 1, "marg_hh_3_6_m": 1, "marg_hh_3_6_f": 0, "per_marg_hh_3_6_p": 0.41322314, "per_marg_hh_3_6_m": 100.0, "per_marg_hh_3_6_f": 0.0, "marg_ot_3_6_p": 14, "marg_ot_3_6_m": 13, "marg_ot_3_6_f": 1, "per_marg_ot_3_6_p": 5.78512397, "per_marg_ot_3_6_m": 92.85714286, "per_marg_ot_3_6_f": 7.14285714, "margwork_0_3_p": 157, "margwork_0_3_m": 2, "margwork_0_3_f": 155, "per_margwork_0_3_p": 64.87603306000001, "per_margwork_0_3_m": 1.27388535, "per_margwork_0_3_f": 98.72611465, "marg_cl_0_3_p": 2, "marg_cl_0_3_m": 0, "marg_cl_0_3_f": 2, "per_marg_cl_0_3_p": 0.82644628, "per_marg_cl_0_3_m": 0.0, "per_marg_cl_0_3_f": 100.0, "marg_al_0_3_p": 2, "marg_al_0_3_m": 1, "marg_al_0_3_f": 1, "per_marg_al_0_3_p": 0.82644628, "per_marg_al_0_3_m": 50.0, "per_marg_al_0_3_f": 50.0, "marg_hh_0_3_p": 145, "marg_hh_0_3_m": 1, "marg_hh_0_3_f": 144, "per_marg_hh_0_3_p": 59.91735537, "per_marg_hh_0_3_m": 0.68965517, "per_marg_hh_0_3_f": 99.31034483, "marg_ot_0_3_p": 8, "marg_ot_0_3_m": 0, "marg_ot_0_3_f": 8, "per_marg_ot_0_3_p": 3.30578512, "per_marg_ot_0_3_m": 0.0, "per_marg_ot_0_3_f": 100.0, "non_work_p": 1632, "non_work_m": 691, "non_work_f": 941, "per_non_work_p": 63.70023419, "per_non_work_m": 42.34068627, "per_non_work_f": 57.65931373, "per_hc_tot_tot": 100, "per_hc_tot_god": 42.6, "per_hc_tot_liv": 54.3, "per_hc_tot_dil": 3.0, "per_hc_res_tot": 99.0, "per_hc_res_god": 41.9, "per_hc_res_liv": 54.1, "per_hc_res_dil": 3.0, "per_hc_oth_tot": 1.0, "per_hc_oth_god": 0.8, "per_hc_oth_liv": 0.3, "per_hc_oth_dil": 0.0, "per_mt_grsbam": 4.3, "per_mt_plastic": 0.0, "per_mt_h_tiles": 0.3, "per_mt_m_tiles": 0.5, "per_mt_b_brick": 30.5, "per_mt_stone": 63.7, "per_mt_asbstos": 0.8, "per_mt_concrte": 0.0, "per_mt_oth": 0.0, "per_mw_grsbam": 2.0, "per_mw_plastic": 0.0, "per_mw_mud": 3.8, "per_mw_wood": 0.3, "per_mw_no_mrtr": 31.7, "per_mw_st_mrtr": 61.7, "per_mw_asbstos": 0.0, "per_mw_b_brick": 0.3, "per_mw_concrte": 0.0, "per_mw_oth": 0.3, "per_mf_mud": 1.8, "per_mf_wood": 0.8, "per_mf_b_brick": 11.2, "per_mf_stone": 39.1, "per_mf_cement": 42.4, "per_mf_fl_tile": 4.8, "per_mf_oth": 0.0, "per_dw_n_exrm": 1.8, "per_dw_1_room": 23.6, "per_dw_2_room": 47.0, "per_dw_3_room": 16.0, "per_dw_4_room": 8.9, "per_dw_5_room": 1.8, "per_dw_6_room": 1.0, "per_hhsize_1": 0.8, "per_hhsize_2": 3.6, "per_hhsize_3": 4.3, "per_hhsize_4": 11.4, "per_hhsize_5": 17.0, "per_hhsize_6_8": 44.9, "per_hhsize_9p": 18.0, "per_ow_owned": 98.5, "per_ow_rented": 1.0, "per_ow_oth": 0.5, "per_mc_none": 4.6, "per_mcouple_1": 59.1, "per_mcouple_2": 26.6, "per_mcouple_3": 7.1, "per_mcouple_4": 2.5, "per_mcouple_5p": 0.0, "per_dw_t_ts": 1.8, "per_dw_t_unts": 1.3, "per_dw_c_well": 17.0, "per_dw_unc_wel": 0.0, "per_dw_hpump": 0.0, "per_dw_tw_bore": 0.3, "per_dw_spring": 0.0, "per_dw_rivcan": 0.0, "per_dw_tank": 39.3, "per_dw_oth": 40.4, "per_loc_dw_wp": 4.8, "per_loc_dw_np": 49.5, "per_loc_dw_aw": 45.7, "per_light_elec": 82.2, "per_light_kero": 17.5, "per_light_solr": 0.0, "per_light_oil": 0.3, "per_light_oth": 0.0, "per_light_no": 0.0, "per_hh_latrine": 71.3, "per_fl_sewer": 0.0, "per_fl_septict": 48.0, "per_fl_othsys": 2.5, "per_pl_wslab": 20.6, "per_pl_without": 0.3, "per_ns_open": 0.0, "per_sl_ns_hum": 0.0, "per_sl_ns_anml": 0.0, "per_hh_no_lat": 28.7, "per_as_pub": 0.0, "per_as_open": 28.7, "per_hh_bathrm": 70.8, "per_hh_en_wrf": 16.0, "per_hh_no_btrm": 13.2, "per_wwoc_drain": 3.0, "per_wwoc_open": 48.0, "per_wwoc_nodrn": 49.0, "per_cook_fire": 89.1, "per_cook_resdu": 3.8, "per_cook_cwdng": 0.0, "per_cook_coal": 0.0, "per_cook_kero": 0.0, "per_cook_lpng": 6.9, "per_cook_elec": 0.0, "per_cook_biogs": 0.3, "per_cook_oth": 0.0, "per_cook_no": 0.0, "per_kf_inside": 98.2, "per_kf_in_has": 81.2, "per_kf_in_does": 17.0, "per_kf_outside": 1.8, "per_kf_out_has": 0.0, "per_kf_out_dos": 1.8, "per_kf_no_cook": 0.0, "per_hh_banking": 30.7, "per_hh_radio": 19.0, "per_hh_tv": 50.0, "per_hh_cmp_int": 0.3, "per_hh_cmp_wnt": 3.3, "per_hh_ph_ll": 23.6, "per_hh_ph_mob": 48.7, "per_hh_ph_bth": 0.5, "per_hh_bcycl": 27.4, "per_hh_2wheel": 15.7, "per_hh_4wheel": 7.6, "per_hh_tvcomp": 0.5, "per_hh_no_ast": 11.4, "per_hs_perma": 91.1, "per_hs_sperma": 7.1, "per_hs_temp": 1.5, "per_hs_servc": 0.0, "per_hs_nservc": 1.5, "per_hs_unclss": 0.3, "avghhsz_cy": 6.4534005, "st_areashape": 13840177.69403487, "st_lengthshape": 15038.412687833088}, "geometry": {"type": "Polygon", "coordinates": [[[73.69963611795227, 27.19113724342222], [73.69060428899908, 27.189657342324644], [73.68434934662523, 27.192968871375744], [73.67834188472224, 27.188728646889043], [73.666937093064, 27.179984954490198], [73.65865585593801, 27.174505158575005], [73.6772942236238, 27.155402717481333], [73.68204781795153, 27.153710859455277], [73.6925057260115, 27.166822094033055], [73.69773468004153, 27.169571028540958], [73.70106219616076, 27.171051196069246], [73.70415203332719, 27.174645807265843], [73.69963611795227, 27.19113724342222]]]}}]}