{"type": "FeatureCollection", "features": [{"type": "Feature", "properties": {"premiumdata.sde.IN_Village_PCA.area": 1.86313435, "objectid": 424330, "id": "555293583992", "name": "Vishan", "subdistrict": "Ghansali", "district": "Tehri Garhwal", "state": "Uttarakhand", "country": "India", "censusname": "Vishan", "villagename_locallang": null, "lgd_villagename": "Vishan", "lgd_villagecode": 42815, "lgd_subdistrictcode": 293, "lgd_districtcode": 55, "lgd_statecode": 5, "censuscode2001": "00270900", "censuscode2011": "042815", "censuscode2021": null, "level": "Village", "tru": "Rural", "no_hh": 54, "tot_p": 217, "tot_m": 88, "tot_f": 129, "per_tot_m": 40.55299539, "per_tot_f": 59.44700461, "p_06": 35, "m_06": 17, "f_06": 18, "per_p_06": 16.12903226, "per_m_06": 48.57142857, "per_f_06": 51.42857143, "p_sc": 0, "m_sc": 0, "f_sc": 0, "per_p_sc": 0.0, "per_m_sc": 0.0, "per_f_sc": 0.0, "p_st": 0, "m_st": 0, "f_st": 0, "per_p_st": 0.0, "per_m_st": 0.0, "per_f_st": 0.0, "p_lit": 133, "m_lit": 69, "f_lit": 64, "per_p_lit": 61.29032258, "per_m_lit": 51.87969925, "per_f_lit": 48.12030075, "p_ill": 84, "m_ill": 19, "f_ill": 65, "per_p_ill": 38.70967742, "per_m_ill": 22.61904762, "per_f_ill": 77.38095238, "tot_work_p": 99, "tot_work_m": 38, "tot_work_f": 61, "per_tot_work_p": 45.62211982, "per_tot_work_m": 38.38383838, "per_tot_work_f": 61.61616162, "mainwork_p": 6, "mainwork_m": 5, "mainwork_f": 1, "per_mainwork_p": 2.76497696, "per_mainwork_m": 83.33333332999999, "per_mainwork_f": 16.66666667, "main_cl_p": 0, "main_cl_m": 0, "main_cl_f": 0, "per_main_cl_p": 0.0, "per_main_cl_m": 0.0, "per_main_cl_f": 0.0, "main_al_p": 0, "main_al_m": 0, "main_al_f": 0, "per_main_al_p": 0.0, "per_main_al_m": 0.0, "per_main_al_f": 0.0, "main_hh_p": 0, "main_hh_m": 0, "main_hh_f": 0, "per_main_hh_p": 0.0, "per_main_hh_m": 0.0, "per_main_hh_f": 0.0, "main_ot_p": 6, "main_ot_m": 5, "main_ot_f": 1, "per_main_ot_p": 100.0, "per_main_ot_m": 83.33333332999999, "per_main_ot_f": 16.66666667, "margwork_p": 93, "margwork_m": 33, "margwork_f": 60, "per_margwork_p": 42.85714286, "per_margwork_m": 35.48387097000001, "per_margwork_f": 64.51612902999999, "marg_cl_p": 91, "marg_cl_m": 31, "marg_cl_f": 60, "per_marg_cl_p": 97.84946237, "per_marg_cl_m": 34.06593407, "per_marg_cl_f": 65.93406593, "marg_al_p": 2, "marg_al_m": 2, "marg_al_f": 0, "per_marg_al_p": 2.15053763, "per_marg_al_m": 100.0, "per_marg_al_f": 0.0, "marg_hh_p": 0, "marg_hh_m": 0, "marg_hh_f": 0, "per_marg_hh_p": 0.0, "per_marg_hh_m": 0.0, "per_marg_hh_f": 0.0, "marg_ot_p": 0, "marg_ot_m": 0, "marg_ot_f": 0, "per_marg_ot_p": 0.0, "per_marg_ot_m": 0.0, "per_marg_ot_f": 0.0, "margwork_3_6_p": 0, "margwork_3_6_m": 0, "margwork_3_6_f": 0, "per_margwork_3_6_p": 0.0, "per_margwork_3_6_m": 0.0, "per_margwork_3_6_f": 0.0, "marg_cl_3_6_p": 0, "marg_cl_3_6_m": 0, "marg_cl_3_6_f": 0, "per_marg_cl_3_6_p": 0.0, "per_marg_cl_3_6_m": 0.0, "per_marg_cl_3_6_f": 0.0, "marg_al_3_6_p": 0, "marg_al_3_6_m": 0, "marg_al_3_6_f": 0, "per_marg_al_3_6_p": 0.0, "per_marg_al_3_6_m": 0.0, "per_marg_al_3_6_f": 0.0, "marg_hh_3_6_p": 0, "marg_hh_3_6_m": 0, "marg_hh_3_6_f": 0, "per_marg_hh_3_6_p": 0.0, "per_marg_hh_3_6_m": 0.0, "per_marg_hh_3_6_f": 0.0, "marg_ot_3_6_p": 0, "marg_ot_3_6_m": 0, "marg_ot_3_6_f": 0, "per_marg_ot_3_6_p": 0.0, "per_marg_ot_3_6_m": 0.0, "per_marg_ot_3_6_f": 0.0, "margwork_0_3_p": 93, "margwork_0_3_m": 33, "margwork_0_3_f": 60, "per_margwork_0_3_p": 100.0, "per_margwork_0_3_m": 35.48387097000001, "per_margwork_0_3_f": 64.51612902999999, "marg_cl_0_3_p": 91, "marg_cl_0_3_m": 31, "marg_cl_0_3_f": 60, "per_marg_cl_0_3_p": 97.84946237, "per_marg_cl_0_3_m": 34.06593407, "per_marg_cl_0_3_f": 65.93406593, "marg_al_0_3_p": 2, "marg_al_0_3_m": 2, "marg_al_0_3_f": 0, "per_marg_al_0_3_p": 2.15053763, "per_marg_al_0_3_m": 100.0, "per_marg_al_0_3_f": 0.0, "marg_hh_0_3_p": 0, "marg_hh_0_3_m": 0, "marg_hh_0_3_f": 0, "per_marg_hh_0_3_p": 0.0, "per_marg_hh_0_3_m": 0.0, "per_marg_hh_0_3_f": 0.0, "marg_ot_0_3_p": 0, "marg_ot_0_3_m": 0, "marg_ot_0_3_f": 0, "per_marg_ot_0_3_p": 0.0, "per_marg_ot_0_3_m": 0.0, "per_marg_ot_0_3_f": 0.0, "non_work_p": 118, "non_work_m": 50, "non_work_f": 68, "per_non_work_p": 54.37788018, "per_non_work_m": 42.37288136, "per_non_work_f": 57.62711864, "per_hc_tot_tot": 100, "per_hc_tot_god": 63.0, "per_hc_tot_liv": 20.4, "per_hc_tot_dil": 16.7, "per_hc_res_tot": 74.1, "per_hc_res_god": 55.6, "per_hc_res_liv": 13.0, "per_hc_res_dil": 5.6, "per_hc_oth_tot": 25.9, "per_hc_oth_god": 7.4, "per_hc_oth_liv": 7.4, "per_hc_oth_dil": 11.1, "per_mt_grsbam": 1.9, "per_mt_plastic": 0.0, "per_mt_h_tiles": 0.0, "per_mt_m_tiles": 0.0, "per_mt_b_brick": 0.0, "per_mt_stone": 22.2, "per_mt_asbstos": 7.4, "per_mt_concrte": 68.5, "per_mt_oth": 0.0, "per_mw_grsbam": 0.0, "per_mw_plastic": 0.0, "per_mw_mud": 0.0, "per_mw_wood": 0.0, "per_mw_no_mrtr": 20.4, "per_mw_st_mrtr": 79.6, "per_mw_asbstos": 0.0, "per_mw_b_brick": 0.0, "per_mw_concrte": 0.0, "per_mw_oth": 0.0, "per_mf_mud": 22.2, "per_mf_wood": 0.0, "per_mf_b_brick": 0.0, "per_mf_stone": 0.0, "per_mf_cement": 77.8, "per_mf_fl_tile": 0.0, "per_mf_oth": 0.0, "per_dw_n_exrm": 0.0, "per_dw_1_room": 27.8, "per_dw_2_room": 25.9, "per_dw_3_room": 20.4, "per_dw_4_room": 13.0, "per_dw_5_room": 3.7, "per_dw_6_room": 9.3, "per_hhsize_1": 16.7, "per_hhsize_2": 16.7, "per_hhsize_3": 16.7, "per_hhsize_4": 13.0, "per_hhsize_5": 16.7, "per_hhsize_6_8": 16.7, "per_hhsize_9p": 3.7, "per_ow_owned": 88.9, "per_ow_rented": 11.1, "per_ow_oth": 0.0, "per_mc_none": 29.6, "per_mcouple_1": 51.9, "per_mcouple_2": 14.8, "per_mcouple_3": 3.7, "per_mcouple_4": 0.0, "per_mcouple_5p": 0.0, "per_dw_t_ts": 98.1, "per_dw_t_unts": 1.9, "per_dw_c_well": 0.0, "per_dw_unc_wel": 0.0, "per_dw_hpump": 0.0, "per_dw_tw_bore": 0.0, "per_dw_spring": 0.0, "per_dw_rivcan": 0.0, "per_dw_tank": 0.0, "per_dw_oth": 0.0, "per_loc_dw_wp": 48.1, "per_loc_dw_np": 50.0, "per_loc_dw_aw": 1.9, "per_light_elec": 90.7, "per_light_kero": 7.4, "per_light_solr": 0.0, "per_light_oil": 0.0, "per_light_oth": 0.0, "per_light_no": 1.9, "per_hh_latrine": 74.1, "per_fl_sewer": 0.0, "per_fl_septict": 74.1, "per_fl_othsys": 0.0, "per_pl_wslab": 0.0, "per_pl_without": 0.0, "per_ns_open": 0.0, "per_sl_ns_hum": 0.0, "per_sl_ns_anml": 0.0, "per_hh_no_lat": 25.9, "per_as_pub": 0.0, "per_as_open": 25.9, "per_hh_bathrm": 77.8, "per_hh_en_wrf": 0.0, "per_hh_no_btrm": 22.2, "per_wwoc_drain": 13.0, "per_wwoc_open": 31.5, "per_wwoc_nodrn": 55.6, "per_cook_fire": 90.7, "per_cook_resdu": 0.0, "per_cook_cwdng": 0.0, "per_cook_coal": 0.0, "per_cook_kero": 0.0, "per_cook_lpng": 9.3, "per_cook_elec": 0.0, "per_cook_biogs": 0.0, "per_cook_oth": 0.0, "per_cook_no": 0.0, "per_kf_inside": 70.4, "per_kf_in_has": 61.1, "per_kf_in_does": 9.3, "per_kf_outside": 29.6, "per_kf_out_has": 29.6, "per_kf_out_dos": 0.0, "per_kf_no_cook": 0.0, "per_hh_banking": 92.6, "per_hh_radio": 24.1, "per_hh_tv": 55.6, "per_hh_cmp_int": 0.0, "per_hh_cmp_wnt": 0.0, "per_hh_ph_ll": 0.0, "per_hh_ph_mob": 79.6, "per_hh_ph_bth": 3.7, "per_hh_bcycl": 0.0, "per_hh_2wheel": 3.7, "per_hh_4wheel": 0.0, "per_hh_tvcomp": null, "per_hh_no_ast": 14.8, "per_hs_perma": 98.1, "per_hs_sperma": 1.9, "per_hs_temp": 0.0, "per_hs_servc": 0.0, "per_hs_nservc": 0.0, "per_hs_unclss": 0.0, "avghhsz_cy": 4.01851852, "st_areashape": 2522429.113193485, "st_lengthshape": 6387.130220093203}, "geometry": {"type": "Polygon", "coordinates": [[[78.6675671663165, 30.5977051147328], [78.6657153306808, 30.596126139968632], [78.66350248998017, 30.594671602749184], [78.66032942390267, 30.59270061194317], [78.66143318928216, 30.591026817682625], [78.66212063762974, 30.59028278367721], [78.66258952137713, 30.589769541613865], [78.66278155962532, 30.589407362317313], [78.66291378983848, 30.58901774479737], [78.6632978456736, 30.588293380005663], [78.66370843684388, 30.58770039934819], [78.66411378275123, 30.58729045368857], [78.66424602643913, 30.586900819925916], [78.66441077207236, 30.586433405048687], [78.6643924365591, 30.586014410718075], [78.66425755721414, 30.585440822161466], [78.66652493912724, 30.582949456351837], [78.66747812171228, 30.582202553048305], [78.66757232713782, 30.58212873119447], [78.66846389966739, 30.58164191202947], [78.6699318492496, 30.581462442648085], [78.67163026610952, 30.58175156495663], [78.67292563495258, 30.582495775037398], [78.67402010726046, 30.58344646634217], [78.6746224716759, 30.58455527889166], [78.67521526184707, 30.586001117186196], [78.6753490757901, 30.58815375626007], [78.67573137002893, 30.59014307773483], [78.67577852080156, 30.591914473979582], [78.67571382143987, 30.594189325322567], [78.67575018973412, 30.59633983704527], [78.67580834127574, 30.59804555372225], [78.67535008998806, 30.597902680977334], [78.67289375643809, 30.59695650337497], [78.67124560301326, 30.59669791466446], [78.66984580681505, 30.596802157961363], [78.66814763878847, 30.597391669081336], [78.6675671663165, 30.5977051147328]]]}}]}