{"type": "FeatureCollection", "features": [{"type": "Feature", "properties": {"premiumdata.sde.IN_Village_PCA.area": 4.412407, "objectid": 530316, "id": "193032334126162", "name": "Petuadhanihati", "subdistrict": "Sandeshkhali - I", "district": "24 Paraganas North", "state": "West Bengal", "country": "India", "censusname": "Petuadhanihati", "villagename_locallang": null, "lgd_villagename": "Petuadhanihati", "lgd_villagecode": 323850, "lgd_subdistrictcode": 2334, "lgd_districtcode": 303, "lgd_statecode": 19, "censuscode2001": "01757600", "censuscode2011": "323850", "censuscode2021": null, "level": "Village", "tru": "Rural", "no_hh": 686, "tot_p": 2983, "tot_m": 1532, "tot_f": 1451, "per_tot_m": 51.3576936, "per_tot_f": 48.6423064, "p_06": 449, "m_06": 218, "f_06": 231, "per_p_06": 15.05196111, "per_m_06": 48.55233853, "per_f_06": 51.44766147, "p_sc": 633, "m_sc": 334, "f_sc": 299, "per_p_sc": 21.22024807, "per_m_sc": 52.76461295, "per_f_sc": 47.23538705, "p_st": 994, "m_st": 505, "f_st": 489, "per_p_st": 33.3221589, "per_m_st": 50.80482897, "per_f_st": 49.19517103, "p_lit": 1540, "m_lit": 909, "f_lit": 631, "per_p_lit": 51.62587999, "per_m_lit": 59.02597403, "per_f_lit": 40.97402597, "p_ill": 1443, "m_ill": 623, "f_ill": 820, "per_p_ill": 48.37412001, "per_m_ill": 43.17394317, "per_f_ill": 56.82605683, "tot_work_p": 1030, "tot_work_m": 805, "tot_work_f": 225, "per_tot_work_p": 34.52899765, "per_tot_work_m": 78.15533981, "per_tot_work_f": 21.84466019, "mainwork_p": 535, "mainwork_m": 512, "mainwork_f": 23, "per_mainwork_p": 17.9349648, "per_mainwork_m": 95.70093458000001, "per_mainwork_f": 4.29906542, "main_cl_p": 213, "main_cl_m": 208, "main_cl_f": 5, "per_main_cl_p": 39.81308411000001, "per_main_cl_m": 97.65258216000001, "per_main_cl_f": 2.34741784, "main_al_p": 216, "main_al_m": 211, "main_al_f": 5, "per_main_al_p": 40.37383178, "per_main_al_m": 97.68518519, "per_main_al_f": 2.31481481, "main_hh_p": 2, "main_hh_m": 2, "main_hh_f": 0, "per_main_hh_p": 0.37383178, "per_main_hh_m": 100.0, "per_main_hh_f": 0.0, "main_ot_p": 104, "main_ot_m": 91, "main_ot_f": 13, "per_main_ot_p": 19.43925234, "per_main_ot_m": 87.5, "per_main_ot_f": 12.5, "margwork_p": 495, "margwork_m": 293, "margwork_f": 202, "per_margwork_p": 16.59403285, "per_margwork_m": 59.19191919, "per_margwork_f": 40.80808081, "marg_cl_p": 65, "marg_cl_m": 28, "marg_cl_f": 37, "per_marg_cl_p": 13.13131313, "per_marg_cl_m": 43.07692308, "per_marg_cl_f": 56.92307692, "marg_al_p": 122, "marg_al_m": 110, "marg_al_f": 12, "per_marg_al_p": 24.64646465, "per_marg_al_m": 90.16393443, "per_marg_al_f": 9.83606557, "marg_hh_p": 97, "marg_hh_m": 7, "marg_hh_f": 90, "per_marg_hh_p": 19.5959596, "per_marg_hh_m": 7.21649485, "per_marg_hh_f": 92.78350515000001, "marg_ot_p": 211, "marg_ot_m": 148, "marg_ot_f": 63, "per_marg_ot_p": 42.62626263, "per_marg_ot_m": 70.14218009, "per_marg_ot_f": 29.85781991, "margwork_3_6_p": 246, "margwork_3_6_m": 183, "margwork_3_6_f": 63, "per_margwork_3_6_p": 49.6969697, "per_margwork_3_6_m": 74.3902439, "per_margwork_3_6_f": 25.6097561, "marg_cl_3_6_p": 24, "marg_cl_3_6_m": 16, "marg_cl_3_6_f": 8, "per_marg_cl_3_6_p": 4.84848485, "per_marg_cl_3_6_m": 66.66666667, "per_marg_cl_3_6_f": 33.33333333, "marg_al_3_6_p": 109, "marg_al_3_6_m": 100, "marg_al_3_6_f": 9, "per_marg_al_3_6_p": 22.02020202, "per_marg_al_3_6_m": 91.74311927, "per_marg_al_3_6_f": 8.25688073, "marg_hh_3_6_p": 39, "marg_hh_3_6_m": 6, "marg_hh_3_6_f": 33, "per_marg_hh_3_6_p": 7.87878788, "per_marg_hh_3_6_m": 15.38461538, "per_marg_hh_3_6_f": 84.61538462, "marg_ot_3_6_p": 74, "marg_ot_3_6_m": 61, "marg_ot_3_6_f": 13, "per_marg_ot_3_6_p": 14.94949495, "per_marg_ot_3_6_m": 82.43243243, "per_marg_ot_3_6_f": 17.56756757, "margwork_0_3_p": 249, "margwork_0_3_m": 110, "margwork_0_3_f": 139, "per_margwork_0_3_p": 50.3030303, "per_margwork_0_3_m": 44.17670683, "per_margwork_0_3_f": 55.82329317, "marg_cl_0_3_p": 41, "marg_cl_0_3_m": 12, "marg_cl_0_3_f": 29, "per_marg_cl_0_3_p": 8.28282828, "per_marg_cl_0_3_m": 29.26829268, "per_marg_cl_0_3_f": 70.73170732, "marg_al_0_3_p": 13, "marg_al_0_3_m": 10, "marg_al_0_3_f": 3, "per_marg_al_0_3_p": 2.62626263, "per_marg_al_0_3_m": 76.92307692, "per_marg_al_0_3_f": 23.07692308, "marg_hh_0_3_p": 58, "marg_hh_0_3_m": 1, "marg_hh_0_3_f": 57, "per_marg_hh_0_3_p": 11.71717172, "per_marg_hh_0_3_m": 1.72413793, "per_marg_hh_0_3_f": 98.27586207, "marg_ot_0_3_p": 137, "marg_ot_0_3_m": 87, "marg_ot_0_3_f": 50, "per_marg_ot_0_3_p": 27.67676768, "per_marg_ot_0_3_m": 63.50364964, "per_marg_ot_0_3_f": 36.49635036, "non_work_p": 1953, "non_work_m": 727, "non_work_f": 1226, "per_non_work_p": 65.47100235, "per_non_work_m": 37.22478239, "per_non_work_f": 62.77521761, "per_hc_tot_tot": 100, "per_hc_tot_god": 6.9, "per_hc_tot_liv": 37.4, "per_hc_tot_dil": 55.8, "per_hc_res_tot": 99.7, "per_hc_res_god": 6.9, "per_hc_res_liv": 37.1, "per_hc_res_dil": 55.8, "per_hc_oth_tot": 0.3, "per_hc_oth_god": 0.0, "per_hc_oth_liv": 0.3, "per_hc_oth_dil": 0.0, "per_mt_grsbam": 26.6, "per_mt_plastic": 14.2, "per_mt_h_tiles": 20.1, "per_mt_m_tiles": 2.0, "per_mt_b_brick": 0.3, "per_mt_stone": 4.5, "per_mt_asbstos": 29.3, "per_mt_concrte": 2.9, "per_mt_oth": 0.0, "per_mw_grsbam": 44.1, "per_mw_plastic": 6.4, "per_mw_mud": 27.2, "per_mw_wood": 0.4, "per_mw_no_mrtr": 4.1, "per_mw_st_mrtr": 5.4, "per_mw_asbstos": 0.0, "per_mw_b_brick": 11.8, "per_mw_concrte": 0.6, "per_mw_oth": 0.0, "per_mf_mud": 92.4, "per_mf_wood": 0.3, "per_mf_b_brick": 1.0, "per_mf_stone": 0.4, "per_mf_cement": 5.8, "per_mf_fl_tile": 0.0, "per_mf_oth": 0.0, "per_dw_n_exrm": 13.6, "per_dw_1_room": 81.8, "per_dw_2_room": 4.1, "per_dw_3_room": 0.0, "per_dw_4_room": 0.1, "per_dw_5_room": 0.0, "per_dw_6_room": 0.4, "per_hhsize_1": 2.0, "per_hhsize_2": 10.9, "per_hhsize_3": 17.7, "per_hhsize_4": 26.0, "per_hhsize_5": 20.7, "per_hhsize_6_8": 21.3, "per_hhsize_9p": 1.3, "per_ow_owned": 98.1, "per_ow_rented": 1.9, "per_ow_oth": 0.0, "per_mc_none": 11.7, "per_mcouple_1": 85.7, "per_mcouple_2": 2.3, "per_mcouple_3": 0.3, "per_mcouple_4": 0.0, "per_mcouple_5p": 0.0, "per_dw_t_ts": 12.3, "per_dw_t_unts": 10.9, "per_dw_c_well": 1.0, "per_dw_unc_wel": 0.0, "per_dw_hpump": 46.0, "per_dw_tw_bore": 26.9, "per_dw_spring": 0.3, "per_dw_rivcan": 0.1, "per_dw_tank": 0.0, "per_dw_oth": 2.5, "per_loc_dw_wp": 5.0, "per_loc_dw_np": 23.5, "per_loc_dw_aw": 71.5, "per_light_elec": 12.4, "per_light_kero": 87.6, "per_light_solr": 0.0, "per_light_oil": 0.0, "per_light_oth": 0.0, "per_light_no": 0.0, "per_hh_latrine": 74.5, "per_fl_sewer": 0.4, "per_fl_septict": 1.8, "per_fl_othsys": 7.2, "per_pl_wslab": 23.4, "per_pl_without": 40.7, "per_ns_open": 0.9, "per_sl_ns_hum": 0.0, "per_sl_ns_anml": 0.1, "per_hh_no_lat": 25.5, "per_as_pub": 0.4, "per_as_open": 25.1, "per_hh_bathrm": 2.0, "per_hh_en_wrf": 3.9, "per_hh_no_btrm": 94.0, "per_wwoc_drain": 2.0, "per_wwoc_open": 6.1, "per_wwoc_nodrn": 91.8, "per_cook_fire": 47.7, "per_cook_resdu": 29.6, "per_cook_cwdng": 20.4, "per_cook_coal": 0.0, "per_cook_kero": 0.0, "per_cook_lpng": 0.3, "per_cook_elec": 0.1, "per_cook_biogs": 1.2, "per_cook_oth": 0.3, "per_cook_no": 0.3, "per_kf_inside": 69.5, "per_kf_in_has": 35.2, "per_kf_in_does": 34.3, "per_kf_outside": 30.2, "per_kf_out_has": 6.3, "per_kf_out_dos": 23.9, "per_kf_no_cook": 0.3, "per_hh_banking": 26.7, "per_hh_radio": 11.1, "per_hh_tv": 2.9, "per_hh_cmp_int": 0.0, "per_hh_cmp_wnt": 13.0, "per_hh_ph_ll": 0.4, "per_hh_ph_mob": 16.5, "per_hh_ph_bth": 0.3, "per_hh_bcycl": 10.1, "per_hh_2wheel": 1.9, "per_hh_4wheel": 0.1, "per_hh_tvcomp": 0.0, "per_hh_no_ast": 59.3, "per_hs_perma": 21.8, "per_hs_sperma": 37.7, "per_hs_temp": 40.6, "per_hs_servc": 11.1, "per_hs_nservc": 29.5, "per_hs_unclss": 0.0, "avghhsz_cy": 4.3483965, "st_areashape": 5191383.414104845, "st_lengthshape": 15214.237531617775}, "geometry": {"type": "Polygon", "coordinates": [[[88.73414999933564, 22.466119998336293], [88.73590999930154, 22.46588999838515], [88.73860999907569, 22.46554999851598], [88.7412599986211, 22.464799999199595], [88.74428999900647, 22.463879998301838], [88.74554999848186, 22.46347999911036], [88.74753999860154, 22.462909999222223], [88.74899999809347, 22.46243999896358], [88.75005999845064, 22.461979998085376], [88.75067999859172, 22.46188999842076], [88.75251999892355, 22.46200999851403], [88.75341999944716, 22.461979998085376], [88.75431999907245, 22.461719999079264], [88.75553999926316, 22.46160999807572], [88.75664999895075, 22.461549998699038], [88.7576899992164, 22.461229998540855], [88.75828999926604, 22.46089999908256], [88.75967999933607, 22.460369998761], [88.75975999880369, 22.46029999941286], [88.76078999902361, 22.459429998515684], [88.761399999119, 22.45876999854356], [88.76204999849904, 22.457999999031657], [88.76323999855252, 22.455669998540767], [88.76401999852719, 22.454629998735467], [88.764429998606, 22.454199998132754], [88.76499999851842, 22.453869998541943], [88.76742999885414, 22.452839998490635], [88.7683499985709, 22.451879998573936], [88.76980999896115, 22.45089999925777], [88.77051999861564, 22.450729998061465], [88.77216999897665, 22.450889998314114], [88.77346999953335, 22.450799998921156], [88.77440999844329, 22.45056999928466], [88.77494999911676, 22.450609998165937], [88.77571999904569, 22.450849998683356], [88.77816999947292, 22.452259998834194], [88.77891999841202, 22.452719998760774], [88.77913999852005, 22.452929999050067], [88.77925999906898, 22.453329998800296], [88.77904999810839, 22.45321999861043], [88.77879999876143, 22.45326999833019], [88.7785299984247, 22.453409999109954], [88.77831999926072, 22.45370999923747], [88.77826999813371, 22.45456999799776], [88.77800999874103, 22.454889998588012], [88.77702999874981, 22.45555999854715], [88.77686999891623, 22.455669998540767], [88.77661999867097, 22.455729998802394], [88.7756999989542, 22.455249999303128], [88.77543999956153, 22.45525999827189], [88.77516999832649, 22.455469998034637], [88.77495999826418, 22.456219998859954], [88.77487999879658, 22.45668999862622], [88.77479999843064, 22.458829998293524], [88.77463999949538, 22.45911999879439], [88.77441999848901, 22.45940999868849], [88.77402999850169, 22.45966999870747], [88.77350999881801, 22.45985999866835], [88.77322999933382, 22.459889998725767], [88.77211999874795, 22.460019998346013], [88.77186999940102, 22.460159998950136], [88.77118999898546, 22.460999998774962], [88.7711299996093, 22.46119999794334], [88.77163999834895, 22.461999998371883], [88.77159999906428, 22.462149998768265], [88.77148999856111, 22.46243999896358], [88.76998999888619, 22.463509998384126], [88.76973999864096, 22.463649998783268], [88.76938999883659, 22.463659997976222], [88.76919999886579, 22.46357999860138], [88.76848999921131, 22.463099998892016], [88.76816999864586, 22.4631699984862], [88.7675899986877, 22.463769999012843], [88.76721999879187, 22.46461999849397], [88.76722999883759, 22.465059999068146], [88.76745999899137, 22.465159998249103], [88.76809999922398, 22.465489998354805], [88.76823999896605, 22.46578999890091], [88.76806999908673, 22.466789998797093], [88.7678499989787, 22.467239998886097], [88.7674399988999, 22.467889998647987], [88.76635999845125, 22.46886999820721], [88.76589999904202, 22.469829998321536], [88.76584999881331, 22.470059998372776], [88.76632999921232, 22.470499999103076], [88.76633999835974, 22.470869998616617], [88.76609999905857, 22.47118999809435], [88.76566999888824, 22.4715599982552], [88.76538999850575, 22.471659998555253], [88.76499999851842, 22.471669998830322], [88.76417999925908, 22.471389998326444], [88.76377999922599, 22.47124999827732], [88.76338999923865, 22.47132999903425], [88.76222999842406, 22.47206999844974], [88.76199999916862, 22.47240999891976], [88.76186999857397, 22.472769998117087], [88.76197999907713, 22.47315999854364], [88.76217999909369, 22.47374999884698], [88.76204999849904, 22.473949998703056], [88.76183999843673, 22.47408999851344], [88.76156999899833, 22.474099998613067], [88.76143999840367, 22.47405999904031], [88.76101999917739, 22.473639999093585], [88.76079999817108, 22.473119998699417], [88.76059999905283, 22.471849998677488], [88.76031999867033, 22.471239998802044], [88.76008999941489, 22.471069998480594], [88.75799999883779, 22.470949998762883], [88.75671999927093, 22.470729998872034], [88.75586999897602, 22.470469998852433], [88.75539999862275, 22.47015999892562], [88.75445999881453, 22.46871999844446], [88.7541699983863, 22.46808999866364], [88.75403999868995, 22.46766999887842], [88.7540499987357, 22.46736999825232], [88.75444999876876, 22.466429998171684], [88.75441999863153, 22.466249998753398], [88.75426999884372, 22.466099998644474], [88.75345999873181, 22.465799998769555], [88.75321999853229, 22.465809998637486], [88.75289999886517, 22.46590999893745], [88.7517199988574, 22.4666799984977], [88.75006999939468, 22.467309998879262], [88.74952999872117, 22.467499998326687], [88.74907999845941, 22.46755999844758], [88.7466299989305, 22.46720999875962], [88.74618999871446, 22.46721999852579], [88.74584999895582, 22.467389998590974], [88.74455999844487, 22.46875999872911], [88.74402999871548, 22.469719998775602], [88.74385999883616, 22.471019998541667], [88.74387999892762, 22.471659998555253], [88.74402999871548, 22.472049998786748], [88.74464999885659, 22.472849998826245], [88.74468999814124, 22.473369998573908], [88.74448999902299, 22.473779998387254], [88.7441799994016, 22.47408999851344], [88.74355999836219, 22.474399998775862], [88.74058999914962, 22.47502999808165], [88.73940999914184, 22.475399998775707], [88.73895999888005, 22.474729999283486], [88.73712999859397, 22.472529998202777], [88.73589999835748, 22.46994999900947], [88.73552999846163, 22.468429998940724], [88.73414999933564, 22.466119998336293]]]}}]}