{"type": "FeatureCollection", "features": [{"type": "Feature", "properties": {"premiumdata.sde.IN_Village_PCA.area": 0.89684262, "objectid": 624835, "id": "182872015242185", "name": "Korua Bari", "subdistrict": "Matia", "district": "Goalpara", "state": "Assam", "country": "India", "censusname": "Korua Bari", "villagename_locallang": null, "lgd_villagename": "Korua Bari", "lgd_villagecode": 282300, "lgd_subdistrictcode": 2015, "lgd_districtcode": 287, "lgd_statecode": 18, "censuscode2001": "00284900", "censuscode2011": "282300", "censuscode2021": null, "level": "Village", "tru": "Rural", "no_hh": 47, "tot_p": 210, "tot_m": 111, "tot_f": 99, "per_tot_m": 52.85714286, "per_tot_f": 47.14285714, "p_06": 24, "m_06": 10, "f_06": 14, "per_p_06": 11.42857143, "per_m_06": 41.66666667000001, "per_f_06": 58.33333333, "p_sc": 27, "m_sc": 16, "f_sc": 11, "per_p_sc": 12.85714286, "per_m_sc": 59.25925926, "per_f_sc": 40.74074074, "p_st": 0, "m_st": 0, "f_st": 0, "per_p_st": 0.0, "per_m_st": 0.0, "per_f_st": 0.0, "p_lit": 172, "m_lit": 98, "f_lit": 74, "per_p_lit": 81.9047619, "per_m_lit": 56.97674419, "per_f_lit": 43.02325581, "p_ill": 38, "m_ill": 13, "f_ill": 25, "per_p_ill": 18.0952381, "per_m_ill": 34.21052632000001, "per_f_ill": 65.78947368, "tot_work_p": 64, "tot_work_m": 57, "tot_work_f": 7, "per_tot_work_p": 30.47619048, "per_tot_work_m": 89.0625, "per_tot_work_f": 10.9375, "mainwork_p": 63, "mainwork_m": 57, "mainwork_f": 6, "per_mainwork_p": 30.0, "per_mainwork_m": 90.47619048, "per_mainwork_f": 9.52380952, "main_cl_p": 9, "main_cl_m": 9, "main_cl_f": 0, "per_main_cl_p": 14.28571429, "per_main_cl_m": 100.0, "per_main_cl_f": 0.0, "main_al_p": 1, "main_al_m": 1, "main_al_f": 0, "per_main_al_p": 1.58730159, "per_main_al_m": 100.0, "per_main_al_f": 0.0, "main_hh_p": 4, "main_hh_m": 4, "main_hh_f": 0, "per_main_hh_p": 6.34920635, "per_main_hh_m": 100.0, "per_main_hh_f": 0.0, "main_ot_p": 49, "main_ot_m": 43, "main_ot_f": 6, "per_main_ot_p": 77.77777778, "per_main_ot_m": 87.75510204, "per_main_ot_f": 12.24489796, "margwork_p": 1, "margwork_m": 0, "margwork_f": 1, "per_margwork_p": 0.47619048, "per_margwork_m": 0.0, "per_margwork_f": 100.0, "marg_cl_p": 0, "marg_cl_m": 0, "marg_cl_f": 0, "per_marg_cl_p": 0.0, "per_marg_cl_m": 0.0, "per_marg_cl_f": 0.0, "marg_al_p": 0, "marg_al_m": 0, "marg_al_f": 0, "per_marg_al_p": 0.0, "per_marg_al_m": 0.0, "per_marg_al_f": 0.0, "marg_hh_p": 1, "marg_hh_m": 0, "marg_hh_f": 1, "per_marg_hh_p": 100.0, "per_marg_hh_m": 0.0, "per_marg_hh_f": 100.0, "marg_ot_p": 0, "marg_ot_m": 0, "marg_ot_f": 0, "per_marg_ot_p": 0.0, "per_marg_ot_m": 0.0, "per_marg_ot_f": 0.0, "margwork_3_6_p": 1, "margwork_3_6_m": 0, "margwork_3_6_f": 1, "per_margwork_3_6_p": 100.0, "per_margwork_3_6_m": 0.0, "per_margwork_3_6_f": 100.0, "marg_cl_3_6_p": 0, "marg_cl_3_6_m": 0, "marg_cl_3_6_f": 0, "per_marg_cl_3_6_p": 0.0, "per_marg_cl_3_6_m": 0.0, "per_marg_cl_3_6_f": 0.0, "marg_al_3_6_p": 0, "marg_al_3_6_m": 0, "marg_al_3_6_f": 0, "per_marg_al_3_6_p": 0.0, "per_marg_al_3_6_m": 0.0, "per_marg_al_3_6_f": 0.0, "marg_hh_3_6_p": 1, "marg_hh_3_6_m": 0, "marg_hh_3_6_f": 1, "per_marg_hh_3_6_p": 100.0, "per_marg_hh_3_6_m": 0.0, "per_marg_hh_3_6_f": 100.0, "marg_ot_3_6_p": 0, "marg_ot_3_6_m": 0, "marg_ot_3_6_f": 0, "per_marg_ot_3_6_p": 0.0, "per_marg_ot_3_6_m": 0.0, "per_marg_ot_3_6_f": 0.0, "margwork_0_3_p": 0, "margwork_0_3_m": 0, "margwork_0_3_f": 0, "per_margwork_0_3_p": 0.0, "per_margwork_0_3_m": 0.0, "per_margwork_0_3_f": 0.0, "marg_cl_0_3_p": 0, "marg_cl_0_3_m": 0, "marg_cl_0_3_f": 0, "per_marg_cl_0_3_p": 0.0, "per_marg_cl_0_3_m": 0.0, "per_marg_cl_0_3_f": 0.0, "marg_al_0_3_p": 0, "marg_al_0_3_m": 0, "marg_al_0_3_f": 0, "per_marg_al_0_3_p": 0.0, "per_marg_al_0_3_m": 0.0, "per_marg_al_0_3_f": 0.0, "marg_hh_0_3_p": 0, "marg_hh_0_3_m": 0, "marg_hh_0_3_f": 0, "per_marg_hh_0_3_p": 0.0, "per_marg_hh_0_3_m": 0.0, "per_marg_hh_0_3_f": 0.0, "marg_ot_0_3_p": 0, "marg_ot_0_3_m": 0, "marg_ot_0_3_f": 0, "per_marg_ot_0_3_p": 0.0, "per_marg_ot_0_3_m": 0.0, "per_marg_ot_0_3_f": 0.0, "non_work_p": 146, "non_work_m": 54, "non_work_f": 92, "per_non_work_p": 69.52380952, "per_non_work_m": 36.98630137, "per_non_work_f": 63.01369863, "per_hc_tot_tot": 100, "per_hc_tot_god": 95.7, "per_hc_tot_liv": 4.3, "per_hc_tot_dil": 0.0, "per_hc_res_tot": 100.0, "per_hc_res_god": 95.7, "per_hc_res_liv": 4.3, "per_hc_res_dil": 0.0, "per_hc_oth_tot": 0.0, "per_hc_oth_god": 0.0, "per_hc_oth_liv": 0.0, "per_hc_oth_dil": 0.0, "per_mt_grsbam": 0.0, "per_mt_plastic": 0.0, "per_mt_h_tiles": 0.0, "per_mt_m_tiles": 0.0, "per_mt_b_brick": 0.0, "per_mt_stone": 0.0, "per_mt_asbstos": 100.0, "per_mt_concrte": 0.0, "per_mt_oth": 0.0, "per_mw_grsbam": 32.6, "per_mw_plastic": 0.0, "per_mw_mud": 4.3, "per_mw_wood": 0.0, "per_mw_no_mrtr": 0.0, "per_mw_st_mrtr": 2.2, "per_mw_asbstos": 0.0, "per_mw_b_brick": 8.7, "per_mw_concrte": 52.2, "per_mw_oth": 0.0, "per_mf_mud": 43.5, "per_mf_wood": 0.0, "per_mf_b_brick": 0.0, "per_mf_stone": 0.0, "per_mf_cement": 56.5, "per_mf_fl_tile": 0.0, "per_mf_oth": 0.0, "per_dw_n_exrm": 0.0, "per_dw_1_room": 43.5, "per_dw_2_room": 54.3, "per_dw_3_room": 2.2, "per_dw_4_room": 0.0, "per_dw_5_room": 0.0, "per_dw_6_room": 0.0, "per_hhsize_1": 2.2, "per_hhsize_2": 2.2, "per_hhsize_3": 26.1, "per_hhsize_4": 39.1, "per_hhsize_5": 13.0, "per_hhsize_6_8": 15.2, "per_hhsize_9p": 2.2, "per_ow_owned": 97.8, "per_ow_rented": 2.2, "per_ow_oth": 0.0, "per_mc_none": 10.9, "per_mcouple_1": 76.1, "per_mcouple_2": 8.7, "per_mcouple_3": 4.3, "per_mcouple_4": 0.0, "per_mcouple_5p": 0.0, "per_dw_t_ts": 0.0, "per_dw_t_unts": 0.0, "per_dw_c_well": 0.0, "per_dw_unc_wel": 4.3, "per_dw_hpump": 93.5, "per_dw_tw_bore": 0.0, "per_dw_spring": 0.0, "per_dw_rivcan": 2.2, "per_dw_tank": 0.0, "per_dw_oth": 0.0, "per_loc_dw_wp": 95.7, "per_loc_dw_np": 4.3, "per_loc_dw_aw": 0.0, "per_light_elec": 78.3, "per_light_kero": 19.6, "per_light_solr": 2.2, "per_light_oil": 0.0, "per_light_oth": 0.0, "per_light_no": 0.0, "per_hh_latrine": 97.8, "per_fl_sewer": 91.3, "per_fl_septict": 0.0, "per_fl_othsys": 4.3, "per_pl_wslab": 0.0, "per_pl_without": 2.2, "per_ns_open": 0.0, "per_sl_ns_hum": 0.0, "per_sl_ns_anml": 0.0, "per_hh_no_lat": 2.2, "per_as_pub": 0.0, "per_as_open": 2.2, "per_hh_bathrm": 56.5, "per_hh_en_wrf": 10.9, "per_hh_no_btrm": 32.6, "per_wwoc_drain": 2.2, "per_wwoc_open": 0.0, "per_wwoc_nodrn": 97.8, "per_cook_fire": 54.3, "per_cook_resdu": 0.0, "per_cook_cwdng": 0.0, "per_cook_coal": 0.0, "per_cook_kero": 2.2, "per_cook_lpng": 43.5, "per_cook_elec": 0.0, "per_cook_biogs": 0.0, "per_cook_oth": 0.0, "per_cook_no": 0.0, "per_kf_inside": 100.0, "per_kf_in_has": 97.8, "per_kf_in_does": 2.2, "per_kf_outside": 0.0, "per_kf_out_has": 0.0, "per_kf_out_dos": 0.0, "per_kf_no_cook": 0.0, "per_hh_banking": 93.5, "per_hh_radio": 71.7, "per_hh_tv": 63.0, "per_hh_cmp_int": 0.0, "per_hh_cmp_wnt": 0.0, "per_hh_ph_ll": 0.0, "per_hh_ph_mob": 84.8, "per_hh_ph_bth": 0.0, "per_hh_bcycl": 87.0, "per_hh_2wheel": 26.1, "per_hh_4wheel": 4.3, "per_hh_tvcomp": 0.0, "per_hh_no_ast": 0.0, "per_hs_perma": 63.0, "per_hs_sperma": 37.0, "per_hs_temp": 0.0, "per_hs_servc": 0.0, "per_hs_nservc": 0.0, "per_hs_unclss": 0.0, "avghhsz_cy": 4.46808511, "st_areashape": 1115867.90126577, "st_lengthshape": 5226.631361028284}, "geometry": {"type": "Polygon", "coordinates": [[[90.77823000256316, 26.0642599961495], [90.77731000284638, 26.06326999539808], [90.77706000260112, 26.061529996299974], [90.77732000289214, 26.05645999589075], [90.77774000301672, 26.05453999534949], [90.78105000198791, 26.054259995197878], [90.78079000259523, 26.053759995626613], [90.78500000298833, 26.05342999551577], [90.78970000292787, 26.054299995491093], [90.79291000233998, 26.05472999556139], [90.79230000314293, 26.055829995448303], [90.79147000293953, 26.056979995331176], [90.78857000314882, 26.05802999571819], [90.78435000271, 26.0591399955572], [90.78220000275674, 26.059909995585844], [90.78061000267014, 26.060469995656145], [90.77830000198503, 26.06284999595065], [90.77823000256316, 26.0642599961495]]]}}]}