{"type": "FeatureCollection", "features": [{"type": "Feature", "properties": {"premiumdata.sde.IN_Village_PCA.area": 7.65844408, "objectid": 280764, "id": "223753294261905", "name": "Dhandhan", "subdistrict": "Takhatpur", "district": "Bilaspur", "state": "Chhattisgarh", "country": "India", "censusname": "Dhandhan", "villagename_locallang": "\u0927\u0928\u0927\u093e\u0928", "lgd_villagename": "Dhandhan", "lgd_villagecode": 438580, "lgd_subdistrictcode": 3294, "lgd_districtcode": 375, "lgd_statecode": 22, "censuscode2001": "00745500", "censuscode2011": "438580", "censuscode2021": null, "level": "Village", "tru": "Rural", "no_hh": 436, "tot_p": 2054, "tot_m": 1053, "tot_f": 1001, "per_tot_m": 51.26582278, "per_tot_f": 48.73417722, "p_06": 366, "m_06": 179, "f_06": 187, "per_p_06": 17.81888997, "per_m_06": 48.90710383, "per_f_06": 51.09289617, "p_sc": 774, "m_sc": 386, "f_sc": 388, "per_p_sc": 37.68257059, "per_m_sc": 49.87080103, "per_f_sc": 50.12919897, "p_st": 194, "m_st": 101, "f_st": 93, "per_p_st": 9.44498539, "per_m_st": 52.06185567, "per_f_st": 47.93814433, "p_lit": 1184, "m_lit": 724, "f_lit": 460, "per_p_lit": 57.6436222, "per_m_lit": 61.14864865, "per_f_lit": 38.85135135, "p_ill": 870, "m_ill": 329, "f_ill": 541, "per_p_ill": 42.3563778, "per_m_ill": 37.81609195, "per_f_ill": 62.18390805, "tot_work_p": 978, "tot_work_m": 537, "tot_work_f": 441, "per_tot_work_p": 47.61441091, "per_tot_work_m": 54.90797546, "per_tot_work_f": 45.09202454, "mainwork_p": 890, "mainwork_m": 512, "mainwork_f": 378, "per_mainwork_p": 43.33008763, "per_mainwork_m": 57.52808989, "per_mainwork_f": 42.47191011, "main_cl_p": 206, "main_cl_m": 138, "main_cl_f": 68, "per_main_cl_p": 23.14606742, "per_main_cl_m": 66.99029126, "per_main_cl_f": 33.00970874, "main_al_p": 649, "main_al_m": 347, "main_al_f": 302, "per_main_al_p": 72.92134831, "per_main_al_m": 53.46687211, "per_main_al_f": 46.53312789, "main_hh_p": 0, "main_hh_m": 0, "main_hh_f": 0, "per_main_hh_p": 0.0, "per_main_hh_m": 0.0, "per_main_hh_f": 0.0, "main_ot_p": 35, "main_ot_m": 27, "main_ot_f": 8, "per_main_ot_p": 3.93258427, "per_main_ot_m": 77.14285714, "per_main_ot_f": 22.85714286, "margwork_p": 88, "margwork_m": 25, "margwork_f": 63, "per_margwork_p": 4.28432327, "per_margwork_m": 28.40909091, "per_margwork_f": 71.59090909000001, "marg_cl_p": 3, "marg_cl_m": 1, "marg_cl_f": 2, "per_marg_cl_p": 3.40909091, "per_marg_cl_m": 33.33333333, "per_marg_cl_f": 66.66666667, "marg_al_p": 85, "marg_al_m": 24, "marg_al_f": 61, "per_marg_al_p": 96.59090909000001, "per_marg_al_m": 28.23529412, "per_marg_al_f": 71.76470588000001, "marg_hh_p": 0, "marg_hh_m": 0, "marg_hh_f": 0, "per_marg_hh_p": 0.0, "per_marg_hh_m": 0.0, "per_marg_hh_f": 0.0, "marg_ot_p": 0, "marg_ot_m": 0, "marg_ot_f": 0, "per_marg_ot_p": 0.0, "per_marg_ot_m": 0.0, "per_marg_ot_f": 0.0, "margwork_3_6_p": 63, "margwork_3_6_m": 18, "margwork_3_6_f": 45, "per_margwork_3_6_p": 71.59090909000001, "per_margwork_3_6_m": 28.57142857, "per_margwork_3_6_f": 71.42857143, "marg_cl_3_6_p": 3, "marg_cl_3_6_m": 1, "marg_cl_3_6_f": 2, "per_marg_cl_3_6_p": 3.40909091, "per_marg_cl_3_6_m": 33.33333333, "per_marg_cl_3_6_f": 66.66666667, "marg_al_3_6_p": 60, "marg_al_3_6_m": 17, "marg_al_3_6_f": 43, "per_marg_al_3_6_p": 68.18181818, "per_marg_al_3_6_m": 28.33333333, "per_marg_al_3_6_f": 71.66666667, "marg_hh_3_6_p": 0, "marg_hh_3_6_m": 0, "marg_hh_3_6_f": 0, "per_marg_hh_3_6_p": 0.0, "per_marg_hh_3_6_m": 0.0, "per_marg_hh_3_6_f": 0.0, "marg_ot_3_6_p": 0, "marg_ot_3_6_m": 0, "marg_ot_3_6_f": 0, "per_marg_ot_3_6_p": 0.0, "per_marg_ot_3_6_m": 0.0, "per_marg_ot_3_6_f": 0.0, "margwork_0_3_p": 25, "margwork_0_3_m": 7, "margwork_0_3_f": 18, "per_margwork_0_3_p": 28.40909091, "per_margwork_0_3_m": 28.0, "per_margwork_0_3_f": 72.0, "marg_cl_0_3_p": 0, "marg_cl_0_3_m": 0, "marg_cl_0_3_f": 0, "per_marg_cl_0_3_p": 0.0, "per_marg_cl_0_3_m": 0.0, "per_marg_cl_0_3_f": 0.0, "marg_al_0_3_p": 25, "marg_al_0_3_m": 7, "marg_al_0_3_f": 18, "per_marg_al_0_3_p": 28.40909091, "per_marg_al_0_3_m": 28.0, "per_marg_al_0_3_f": 72.0, "marg_hh_0_3_p": 0, "marg_hh_0_3_m": 0, "marg_hh_0_3_f": 0, "per_marg_hh_0_3_p": 0.0, "per_marg_hh_0_3_m": 0.0, "per_marg_hh_0_3_f": 0.0, "marg_ot_0_3_p": 0, "marg_ot_0_3_m": 0, "marg_ot_0_3_f": 0, "per_marg_ot_0_3_p": 0.0, "per_marg_ot_0_3_m": 0.0, "per_marg_ot_0_3_f": 0.0, "non_work_p": 1076, "non_work_m": 516, "non_work_f": 560, "per_non_work_p": 52.38558909, "per_non_work_m": 47.95539033, "per_non_work_f": 52.04460967, "per_hc_tot_tot": 100, "per_hc_tot_god": 41.3, "per_hc_tot_liv": 44.0, "per_hc_tot_dil": 14.7, "per_hc_res_tot": 97.5, "per_hc_res_god": 39.5, "per_hc_res_liv": 43.8, "per_hc_res_dil": 14.3, "per_hc_oth_tot": 2.5, "per_hc_oth_god": 1.8, "per_hc_oth_liv": 0.2, "per_hc_oth_dil": 0.5, "per_mt_grsbam": 6.1, "per_mt_plastic": 0.2, "per_mt_h_tiles": 84.4, "per_mt_m_tiles": 0.0, "per_mt_b_brick": 0.0, "per_mt_stone": 0.0, "per_mt_asbstos": 0.0, "per_mt_concrte": 9.3, "per_mt_oth": 0.0, "per_mw_grsbam": 1.4, "per_mw_plastic": 0.0, "per_mw_mud": 51.9, "per_mw_wood": 0.0, "per_mw_no_mrtr": 0.0, "per_mw_st_mrtr": 0.0, "per_mw_asbstos": 0.0, "per_mw_b_brick": 43.1, "per_mw_concrte": 3.6, "per_mw_oth": 0.0, "per_mf_mud": 88.0, "per_mf_wood": 0.0, "per_mf_b_brick": 0.0, "per_mf_stone": 1.4, "per_mf_cement": 10.7, "per_mf_fl_tile": 0.0, "per_mf_oth": 0.0, "per_dw_n_exrm": 0.9, "per_dw_1_room": 37.6, "per_dw_2_room": 45.4, "per_dw_3_room": 10.0, "per_dw_4_room": 3.4, "per_dw_5_room": 1.8, "per_dw_6_room": 0.9, "per_hhsize_1": 4.1, "per_hhsize_2": 11.1, "per_hhsize_3": 14.5, "per_hhsize_4": 16.1, "per_hhsize_5": 20.9, "per_hhsize_6_8": 31.5, "per_hhsize_9p": 1.8, "per_ow_owned": 95.2, "per_ow_rented": 1.8, "per_ow_oth": 2.9, "per_mc_none": 8.8, "per_mcouple_1": 79.8, "per_mcouple_2": 8.8, "per_mcouple_3": 2.0, "per_mcouple_4": 0.5, "per_mcouple_5p": 0.0, "per_dw_t_ts": 0.0, "per_dw_t_unts": 15.2, "per_dw_c_well": 0.0, "per_dw_unc_wel": 0.0, "per_dw_hpump": 69.2, "per_dw_tw_bore": 15.4, "per_dw_spring": 0.0, "per_dw_rivcan": 0.0, "per_dw_tank": 0.0, "per_dw_oth": 0.2, "per_loc_dw_wp": 8.4, "per_loc_dw_np": 67.1, "per_loc_dw_aw": 24.5, "per_light_elec": 92.3, "per_light_kero": 7.0, "per_light_solr": 0.0, "per_light_oil": 0.5, "per_light_oth": 0.2, "per_light_no": 0.0, "per_hh_latrine": 7.3, "per_fl_sewer": 0.0, "per_fl_septict": 7.3, "per_fl_othsys": 0.0, "per_pl_wslab": 0.0, "per_pl_without": 0.0, "per_ns_open": 0.0, "per_sl_ns_hum": 0.0, "per_sl_ns_anml": 0.0, "per_hh_no_lat": 92.7, "per_as_pub": 0.0, "per_as_open": 92.7, "per_hh_bathrm": 2.0, "per_hh_en_wrf": 1.8, "per_hh_no_btrm": 96.1, "per_wwoc_drain": 0.2, "per_wwoc_open": 4.8, "per_wwoc_nodrn": 95.0, "per_cook_fire": 98.9, "per_cook_resdu": 0.2, "per_cook_cwdng": 0.0, "per_cook_coal": 0.0, "per_cook_kero": 0.0, "per_cook_lpng": 0.7, "per_cook_elec": 0.0, "per_cook_biogs": 0.0, "per_cook_oth": 0.0, "per_cook_no": 0.2, "per_kf_inside": 98.0, "per_kf_in_has": 43.8, "per_kf_in_does": 54.2, "per_kf_outside": 1.8, "per_kf_out_has": 0.5, "per_kf_out_dos": 1.4, "per_kf_no_cook": 0.2, "per_hh_banking": 47.2, "per_hh_radio": 12.9, "per_hh_tv": 23.6, "per_hh_cmp_int": 0.5, "per_hh_cmp_wnt": 1.6, "per_hh_ph_ll": 0.9, "per_hh_ph_mob": 21.1, "per_hh_ph_bth": 0.2, "per_hh_bcycl": 58.7, "per_hh_2wheel": 7.9, "per_hh_4wheel": 0.7, "per_hh_tvcomp": 0.0, "per_hh_no_ast": 30.4, "per_hs_perma": 46.7, "per_hs_sperma": 46.9, "per_hs_temp": 6.3, "per_hs_servc": 5.0, "per_hs_nservc": 1.4, "per_hs_unclss": 0.0, "avghhsz_cy": 4.71100917, "st_areashape": 8974768.01934826, "st_lengthshape": 11854.8920443408}, "geometry": {"type": "Polygon", "coordinates": [[[81.94089754003053, 22.19088779654701], [81.93502685112112, 22.1932205716721], [81.92956021724, 22.19652160149004], [81.92516314179065, 22.19707176599824], [81.92195446559698, 22.19773196056277], [81.9197559278723, 22.19929532489729], [81.91737913115762, 22.198470090394924], [81.91381393518725, 22.197507311510492], [81.91169408898315, 22.197180188391798], [81.91381393518725, 22.193105950407556], [81.91307118565244, 22.18925464733179], [81.9139624850942, 22.183064831208142], [81.91574508307939, 22.17426106693482], [81.9180327498499, 22.170001131309846], [81.9223109853737, 22.16735981489435], [81.92623270112077, 22.165929081052024], [81.9306536403156, 22.165870591693636], [81.9316993350019, 22.168130203627182], [81.93407613171658, 22.171541876445055], [81.93776016761252, 22.174953466479565], [81.93843738953892, 22.176469027593566], [81.93918624582099, 22.178144878870548], [81.93847320716593, 22.18210653094129], [81.93847320716593, 22.18474757110826], [81.9402558051511, 22.189699386681788], [81.94089754003053, 22.19088779654701]]]}}]}