{"type": "FeatureCollection", "features": [{"type": "Feature", "properties": {"premiumdata.sde.IN_Village_PCA.area": 1.49419813, "objectid": 152617, "id": "21353310645589", "name": "Singipur", "subdistrict": "Gurandi", "district": "Gajapati", "state": "Odisha", "country": "India", "censusname": "Singipur", "villagename_locallang": null, "lgd_villagename": "Singipur", "lgd_villagecode": 414667, "lgd_subdistrictcode": 3106, "lgd_districtcode": 353, "lgd_statecode": 21, "censuscode2001": "03469400", "censuscode2011": "414667", "censuscode2021": null, "level": "Village", "tru": "Rural", "no_hh": 127, "tot_p": 499, "tot_m": 234, "tot_f": 265, "per_tot_m": 46.89378758, "per_tot_f": 53.10621242, "p_06": 66, "m_06": 31, "f_06": 35, "per_p_06": 13.22645291, "per_m_06": 46.96969697, "per_f_06": 53.03030303, "p_sc": 71, "m_sc": 28, "f_sc": 43, "per_p_sc": 14.22845691, "per_m_sc": 39.43661972, "per_f_sc": 60.56338028, "p_st": 64, "m_st": 33, "f_st": 31, "per_p_st": 12.8256513, "per_m_st": 51.5625, "per_f_st": 48.4375, "p_lit": 189, "m_lit": 111, "f_lit": 78, "per_p_lit": 37.8757515, "per_m_lit": 58.73015873, "per_f_lit": 41.26984127, "p_ill": 310, "m_ill": 123, "f_ill": 187, "per_p_ill": 62.1242485, "per_m_ill": 39.67741935, "per_f_ill": 60.32258065, "tot_work_p": 254, "tot_work_m": 137, "tot_work_f": 117, "per_tot_work_p": 50.90180361, "per_tot_work_m": 53.93700787, "per_tot_work_f": 46.06299213, "mainwork_p": 139, "mainwork_m": 117, "mainwork_f": 22, "per_mainwork_p": 27.85571142, "per_mainwork_m": 84.17266187, "per_mainwork_f": 15.82733813, "main_cl_p": 29, "main_cl_m": 27, "main_cl_f": 2, "per_main_cl_p": 20.86330935, "per_main_cl_m": 93.10344828, "per_main_cl_f": 6.89655172, "main_al_p": 8, "main_al_m": 2, "main_al_f": 6, "per_main_al_p": 5.75539568, "per_main_al_m": 25.0, "per_main_al_f": 75.0, "main_hh_p": 1, "main_hh_m": 1, "main_hh_f": 0, "per_main_hh_p": 0.71942446, "per_main_hh_m": 100.0, "per_main_hh_f": 0.0, "main_ot_p": 101, "main_ot_m": 87, "main_ot_f": 14, "per_main_ot_p": 72.6618705, "per_main_ot_m": 86.13861386, "per_main_ot_f": 13.86138614, "margwork_p": 115, "margwork_m": 20, "margwork_f": 95, "per_margwork_p": 23.04609218, "per_margwork_m": 17.39130435, "per_margwork_f": 82.60869565, "marg_cl_p": 0, "marg_cl_m": 0, "marg_cl_f": 0, "per_marg_cl_p": 0.0, "per_marg_cl_m": 0.0, "per_marg_cl_f": 0.0, "marg_al_p": 22, "marg_al_m": 5, "marg_al_f": 17, "per_marg_al_p": 19.13043478, "per_marg_al_m": 22.72727273, "per_marg_al_f": 77.27272727, "marg_hh_p": 1, "marg_hh_m": 0, "marg_hh_f": 1, "per_marg_hh_p": 0.86956522, "per_marg_hh_m": 0.0, "per_marg_hh_f": 100.0, "marg_ot_p": 92, "marg_ot_m": 15, "marg_ot_f": 77, "per_marg_ot_p": 80.0, "per_marg_ot_m": 16.30434783, "per_marg_ot_f": 83.69565217, "margwork_3_6_p": 111, "margwork_3_6_m": 20, "margwork_3_6_f": 91, "per_margwork_3_6_p": 96.52173913, "per_margwork_3_6_m": 18.01801802, "per_margwork_3_6_f": 81.98198198, "marg_cl_3_6_p": 0, "marg_cl_3_6_m": 0, "marg_cl_3_6_f": 0, "per_marg_cl_3_6_p": 0.0, "per_marg_cl_3_6_m": 0.0, "per_marg_cl_3_6_f": 0.0, "marg_al_3_6_p": 22, "marg_al_3_6_m": 5, "marg_al_3_6_f": 17, "per_marg_al_3_6_p": 19.13043478, "per_marg_al_3_6_m": 22.72727273, "per_marg_al_3_6_f": 77.27272727, "marg_hh_3_6_p": 1, "marg_hh_3_6_m": 0, "marg_hh_3_6_f": 1, "per_marg_hh_3_6_p": 0.86956522, "per_marg_hh_3_6_m": 0.0, "per_marg_hh_3_6_f": 100.0, "marg_ot_3_6_p": 88, "marg_ot_3_6_m": 15, "marg_ot_3_6_f": 73, "per_marg_ot_3_6_p": 76.52173913, "per_marg_ot_3_6_m": 17.04545455, "per_marg_ot_3_6_f": 82.95454545, "margwork_0_3_p": 4, "margwork_0_3_m": 0, "margwork_0_3_f": 4, "per_margwork_0_3_p": 3.47826087, "per_margwork_0_3_m": 0.0, "per_margwork_0_3_f": 100.0, "marg_cl_0_3_p": 0, "marg_cl_0_3_m": 0, "marg_cl_0_3_f": 0, "per_marg_cl_0_3_p": 0.0, "per_marg_cl_0_3_m": 0.0, "per_marg_cl_0_3_f": 0.0, "marg_al_0_3_p": 0, "marg_al_0_3_m": 0, "marg_al_0_3_f": 0, "per_marg_al_0_3_p": 0.0, "per_marg_al_0_3_m": 0.0, "per_marg_al_0_3_f": 0.0, "marg_hh_0_3_p": 0, "marg_hh_0_3_m": 0, "marg_hh_0_3_f": 0, "per_marg_hh_0_3_p": 0.0, "per_marg_hh_0_3_m": 0.0, "per_marg_hh_0_3_f": 0.0, "marg_ot_0_3_p": 4, "marg_ot_0_3_m": 0, "marg_ot_0_3_f": 4, "per_marg_ot_0_3_p": 3.47826087, "per_marg_ot_0_3_m": 0.0, "per_marg_ot_0_3_f": 100.0, "non_work_p": 245, "non_work_m": 97, "non_work_f": 148, "per_non_work_p": 49.09819639000001, "per_non_work_m": 39.59183673, "per_non_work_f": 60.40816327, "per_hc_tot_tot": 100, "per_hc_tot_god": 42.2, "per_hc_tot_liv": 48.9, "per_hc_tot_dil": 8.9, "per_hc_res_tot": 91.9, "per_hc_res_god": 36.3, "per_hc_res_liv": 46.7, "per_hc_res_dil": 8.9, "per_hc_oth_tot": 8.1, "per_hc_oth_god": 5.9, "per_hc_oth_liv": 2.2, "per_hc_oth_dil": 0.0, "per_mt_grsbam": 51.1, "per_mt_plastic": 0.0, "per_mt_h_tiles": 1.5, "per_mt_m_tiles": 0.0, "per_mt_b_brick": 0.0, "per_mt_stone": 0.0, "per_mt_asbstos": 14.1, "per_mt_concrte": 33.3, "per_mt_oth": 0.0, "per_mw_grsbam": 17.8, "per_mw_plastic": 0.0, "per_mw_mud": 27.4, "per_mw_wood": 0.0, "per_mw_no_mrtr": 0.0, "per_mw_st_mrtr": 0.0, "per_mw_asbstos": 0.0, "per_mw_b_brick": 54.8, "per_mw_concrte": 0.0, "per_mw_oth": 0.0, "per_mf_mud": 45.2, "per_mf_wood": 0.0, "per_mf_b_brick": 0.0, "per_mf_stone": 0.0, "per_mf_cement": 52.6, "per_mf_fl_tile": 2.2, "per_mf_oth": 0.0, "per_dw_n_exrm": 5.2, "per_dw_1_room": 49.6, "per_dw_2_room": 26.7, "per_dw_3_room": 14.1, "per_dw_4_room": 3.7, "per_dw_5_room": 0.0, "per_dw_6_room": 0.7, "per_hhsize_1": 8.1, "per_hhsize_2": 14.8, "per_hhsize_3": 14.8, "per_hhsize_4": 24.4, "per_hhsize_5": 16.3, "per_hhsize_6_8": 17.0, "per_hhsize_9p": 4.4, "per_ow_owned": 94.1, "per_ow_rented": 5.2, "per_ow_oth": 0.7, "per_mc_none": 23.0, "per_mcouple_1": 65.2, "per_mcouple_2": 8.9, "per_mcouple_3": 2.2, "per_mcouple_4": 0.7, "per_mcouple_5p": 0.0, "per_dw_t_ts": 0.0, "per_dw_t_unts": 0.0, "per_dw_c_well": 0.0, "per_dw_unc_wel": 5.9, "per_dw_hpump": 0.0, "per_dw_tw_bore": 74.1, "per_dw_spring": 0.0, "per_dw_rivcan": 17.8, "per_dw_tank": 0.0, "per_dw_oth": 2.2, "per_loc_dw_wp": 11.1, "per_loc_dw_np": 88.9, "per_loc_dw_aw": 0.0, "per_light_elec": 47.4, "per_light_kero": 52.6, "per_light_solr": 0.0, "per_light_oil": 0.0, "per_light_oth": 0.0, "per_light_no": 0.0, "per_hh_latrine": 10.4, "per_fl_sewer": 0.7, "per_fl_septict": 8.9, "per_fl_othsys": 0.7, "per_pl_wslab": 0.0, "per_pl_without": 0.0, "per_ns_open": 0.0, "per_sl_ns_hum": 0.0, "per_sl_ns_anml": 0.0, "per_hh_no_lat": 89.6, "per_as_pub": 0.0, "per_as_open": 89.6, "per_hh_bathrm": 8.9, "per_hh_en_wrf": 0.0, "per_hh_no_btrm": 91.1, "per_wwoc_drain": 3.7, "per_wwoc_open": 0.7, "per_wwoc_nodrn": 95.6, "per_cook_fire": 83.7, "per_cook_resdu": 0.0, "per_cook_cwdng": 0.0, "per_cook_coal": 0.0, "per_cook_kero": 0.0, "per_cook_lpng": 16.3, "per_cook_elec": 0.0, "per_cook_biogs": 0.0, "per_cook_oth": 0.0, "per_cook_no": 0.0, "per_kf_inside": 65.9, "per_kf_in_has": 63.0, "per_kf_in_does": 3.0, "per_kf_outside": 34.1, "per_kf_out_has": 31.1, "per_kf_out_dos": 3.0, "per_kf_no_cook": 0.0, "per_hh_banking": 20.7, "per_hh_radio": 0.7, "per_hh_tv": 25.9, "per_hh_cmp_int": 0.0, "per_hh_cmp_wnt": 0.7, "per_hh_ph_ll": 0.0, "per_hh_ph_mob": 43.7, "per_hh_ph_bth": 0.7, "per_hh_bcycl": 14.1, "per_hh_2wheel": 12.6, "per_hh_4wheel": 2.2, "per_hh_tvcomp": 0.0, "per_hh_no_ast": 45.9, "per_hs_perma": 48.9, "per_hs_sperma": 5.9, "per_hs_temp": 45.2, "per_hs_servc": 27.4, "per_hs_nservc": 17.8, "per_hs_unclss": 0.0, "avghhsz_cy": 3.92913386, "st_areashape": 1677399.81028277, "st_lengthshape": 5632.338095060024}, "geometry": {"type": "Polygon", "coordinates": [[[84.17608381807479, 18.861989069277545], [84.17521554604701, 18.862321248815277], [84.17421689074231, 18.862861396084536], [84.17370669976322, 18.862585919179924], [84.17353358272985, 18.862827691601392], [84.17303544444694, 18.86296100996829], [84.17281465382145, 18.86269683408756], [84.17207231391842, 18.86358020724378], [84.1714698991973, 18.86436404861188], [84.17053048059907, 18.86471666403648], [84.17042139098758, 18.86475049734934], [84.17026950833093, 18.864441127274883], [84.17046626722592, 18.864066201309537], [84.1706512231564, 18.863569214167573], [84.17073402087615, 18.862674783213127], [84.17074346216978, 18.862476008135506], [84.16967814917604, 18.86220073631592], [84.16819289265156, 18.862002293906116], [84.16746923680812, 18.862013769927994], [84.16693539767918, 18.861957369948303], [84.16583460841824, 18.861980190235656], [84.16459381492363, 18.86189235527676], [84.16357354705148, 18.861849632137577], [84.16287125134888, 18.861617168357068], [84.16232790355265, 18.86147498515465], [84.16267900289492, 18.861330322150916], [84.16286400194453, 18.86098925220529], [84.16280687807561, 18.860205548078927], [84.16258129493808, 18.859046829996625], [84.16277808168088, 18.85870350096242], [84.16287040783084, 18.85783167533988], [84.16287033237235, 18.857590018130825], [84.16270178057725, 18.85681753137081], [84.1629579037395, 18.856397428287945], [84.16313089231376, 18.85567914741765], [84.16321125380247, 18.854210949618366], [84.16317080356352, 18.854057376235595], [84.16373778423826, 18.853790766048423], [84.1636214434258, 18.85330521232723], [84.16348367689551, 18.85258925180769], [84.16414313373883, 18.852421951684835], [84.16492120772556, 18.852279498850347], [84.16522251165499, 18.852168735178136], [84.16545492198867, 18.851969932349057], [84.16621884391641, 18.851949435796392], [84.16694715123636, 18.85178211208221], [84.16734320137716, 18.851517823382306], [84.16777724306792, 18.850921373619187], [84.16807837631747, 18.850501282977874], [84.16868332159272, 18.85060047913441], [84.16908898730031, 18.85041294808078], [84.16984108919553, 18.850546005971395], [84.17085162831314, 18.850588681831393], [84.17154710580272, 18.851672703185827], [84.17168717022352, 18.85200241483176], [84.1720170827998, 18.852743158081992], [84.17259631918998, 18.85391529374021], [84.17314222538812, 18.854809523170335], [84.17399413729791, 18.855604405925906], [84.17490059670843, 18.85647826892072], [84.17559601311255, 18.857372499992014], [84.17618700934808, 18.85833229408461], [84.17643721979914, 18.859054900757585], [84.176441142742, 18.85906626561926], [84.17659307211103, 18.859497652043167], [84.17659326435052, 18.859915504834273], [84.17639658540556, 18.86077835296209], [84.176233018362, 18.861187149212423], [84.17608381807479, 18.861989069277545]]]}}]}