{"type": "FeatureCollection", "features": [{"type": "Feature", "properties": {"premiumdata.sde.IN_Village_PCA.area": 1.39159828, "objectid": 33563, "id": "29630559595728", "name": "Kadaranahalli", "subdistrict": "Gauribidanur", "district": "Chikkaballapura", "state": "Karnataka", "country": "India", "censusname": "Kadaranahalli", "villagename_locallang": null, "lgd_villagename": "Kadaranahalli", "lgd_villagecode": 623248, "lgd_subdistrictcode": 5595, "lgd_districtcode": 630, "lgd_statecode": 29, "censuscode2001": "01704300", "censuscode2011": "623248", "censuscode2021": null, "level": "Village", "tru": "Rural", "no_hh": 227, "tot_p": 883, "tot_m": 445, "tot_f": 438, "per_tot_m": 50.39637599, "per_tot_f": 49.60362401, "p_06": 74, "m_06": 36, "f_06": 38, "per_p_06": 8.38052095, "per_m_06": 48.64864865, "per_f_06": 51.35135135, "p_sc": 99, "m_sc": 43, "f_sc": 56, "per_p_sc": 11.21177803, "per_m_sc": 43.43434343, "per_f_sc": 56.56565657, "p_st": 212, "m_st": 108, "f_st": 104, "per_p_st": 24.00906002, "per_m_st": 50.94339623, "per_f_st": 49.05660377, "p_lit": 670, "m_lit": 373, "f_lit": 297, "per_p_lit": 75.87768969, "per_m_lit": 55.67164179, "per_f_lit": 44.32835821, "p_ill": 213, "m_ill": 72, "f_ill": 141, "per_p_ill": 24.12231031, "per_m_ill": 33.8028169, "per_f_ill": 66.1971831, "tot_work_p": 355, "tot_work_m": 251, "tot_work_f": 104, "per_tot_work_p": 40.20385051, "per_tot_work_m": 70.70422535, "per_tot_work_f": 29.29577465, "mainwork_p": 61, "mainwork_m": 50, "mainwork_f": 11, "per_mainwork_p": 6.90826727, "per_mainwork_m": 81.96721311, "per_mainwork_f": 18.03278689, "main_cl_p": 13, "main_cl_m": 10, "main_cl_f": 3, "per_main_cl_p": 21.31147541, "per_main_cl_m": 76.92307692, "per_main_cl_f": 23.07692308, "main_al_p": 32, "main_al_m": 28, "main_al_f": 4, "per_main_al_p": 52.45901639, "per_main_al_m": 87.5, "per_main_al_f": 12.5, "main_hh_p": 1, "main_hh_m": 1, "main_hh_f": 0, "per_main_hh_p": 1.63934426, "per_main_hh_m": 100.0, "per_main_hh_f": 0.0, "main_ot_p": 15, "main_ot_m": 11, "main_ot_f": 4, "per_main_ot_p": 24.59016393, "per_main_ot_m": 73.33333332999999, "per_main_ot_f": 26.66666667, "margwork_p": 294, "margwork_m": 201, "margwork_f": 93, "per_margwork_p": 33.29558324, "per_margwork_m": 68.36734694, "per_margwork_f": 31.63265306, "marg_cl_p": 8, "marg_cl_m": 5, "marg_cl_f": 3, "per_marg_cl_p": 2.72108844, "per_marg_cl_m": 62.5, "per_marg_cl_f": 37.5, "marg_al_p": 80, "marg_al_m": 64, "marg_al_f": 16, "per_marg_al_p": 27.21088435, "per_marg_al_m": 80.0, "per_marg_al_f": 20.0, "marg_hh_p": 3, "marg_hh_m": 1, "marg_hh_f": 2, "per_marg_hh_p": 1.02040816, "per_marg_hh_m": 33.33333333, "per_marg_hh_f": 66.66666667, "marg_ot_p": 203, "marg_ot_m": 131, "marg_ot_f": 72, "per_marg_ot_p": 69.04761905000001, "per_marg_ot_m": 64.5320197, "per_marg_ot_f": 35.4679803, "margwork_3_6_p": 293, "margwork_3_6_m": 200, "margwork_3_6_f": 93, "per_margwork_3_6_p": 99.65986395, "per_margwork_3_6_m": 68.25938567, "per_margwork_3_6_f": 31.74061433, "marg_cl_3_6_p": 7, "marg_cl_3_6_m": 4, "marg_cl_3_6_f": 3, "per_marg_cl_3_6_p": 2.38095238, "per_marg_cl_3_6_m": 57.14285714, "per_marg_cl_3_6_f": 42.85714286, "marg_al_3_6_p": 80, "marg_al_3_6_m": 64, "marg_al_3_6_f": 16, "per_marg_al_3_6_p": 27.21088435, "per_marg_al_3_6_m": 80.0, "per_marg_al_3_6_f": 20.0, "marg_hh_3_6_p": 3, "marg_hh_3_6_m": 1, "marg_hh_3_6_f": 2, "per_marg_hh_3_6_p": 1.02040816, "per_marg_hh_3_6_m": 33.33333333, "per_marg_hh_3_6_f": 66.66666667, "marg_ot_3_6_p": 203, "marg_ot_3_6_m": 131, "marg_ot_3_6_f": 72, "per_marg_ot_3_6_p": 69.04761905000001, "per_marg_ot_3_6_m": 64.5320197, "per_marg_ot_3_6_f": 35.4679803, "margwork_0_3_p": 1, "margwork_0_3_m": 1, "margwork_0_3_f": 0, "per_margwork_0_3_p": 0.34013605, "per_margwork_0_3_m": 100.0, "per_margwork_0_3_f": 0.0, "marg_cl_0_3_p": 1, "marg_cl_0_3_m": 1, "marg_cl_0_3_f": 0, "per_marg_cl_0_3_p": 0.34013605, "per_marg_cl_0_3_m": 100.0, "per_marg_cl_0_3_f": 0.0, "marg_al_0_3_p": 0, "marg_al_0_3_m": 0, "marg_al_0_3_f": 0, "per_marg_al_0_3_p": 0.0, "per_marg_al_0_3_m": 0.0, "per_marg_al_0_3_f": 0.0, "marg_hh_0_3_p": 0, "marg_hh_0_3_m": 0, "marg_hh_0_3_f": 0, "per_marg_hh_0_3_p": 0.0, "per_marg_hh_0_3_m": 0.0, "per_marg_hh_0_3_f": 0.0, "marg_ot_0_3_p": 0, "marg_ot_0_3_m": 0, "marg_ot_0_3_f": 0, "per_marg_ot_0_3_p": 0.0, "per_marg_ot_0_3_m": 0.0, "per_marg_ot_0_3_f": 0.0, "non_work_p": 528, "non_work_m": 194, "non_work_f": 334, "per_non_work_p": 59.79614949, "per_non_work_m": 36.74242424000001, "per_non_work_f": 63.25757576, "per_hc_tot_tot": 100, "per_hc_tot_god": 63.3, "per_hc_tot_liv": 33.5, "per_hc_tot_dil": 3.2, "per_hc_res_tot": 99.1, "per_hc_res_god": 62.4, "per_hc_res_liv": 33.5, "per_hc_res_dil": 3.2, "per_hc_oth_tot": 0.9, "per_hc_oth_god": 0.9, "per_hc_oth_liv": 0.0, "per_hc_oth_dil": 0.0, "per_mt_grsbam": 4.5, "per_mt_plastic": 0.0, "per_mt_h_tiles": 0.9, "per_mt_m_tiles": 2.3, "per_mt_b_brick": 8.1, "per_mt_stone": 26.7, "per_mt_asbstos": 11.8, "per_mt_concrte": 44.8, "per_mt_oth": 0.9, "per_mw_grsbam": 0.0, "per_mw_plastic": 0.0, "per_mw_mud": 0.9, "per_mw_wood": 0.0, "per_mw_no_mrtr": 1.4, "per_mw_st_mrtr": 4.5, "per_mw_asbstos": 0.5, "per_mw_b_brick": 90.0, "per_mw_concrte": 2.7, "per_mw_oth": 0.0, "per_mf_mud": 4.5, "per_mf_wood": 0.0, "per_mf_b_brick": 0.0, "per_mf_stone": 20.8, "per_mf_cement": 54.3, "per_mf_fl_tile": 19.9, "per_mf_oth": 0.5, "per_dw_n_exrm": 56.1, "per_dw_1_room": 27.1, "per_dw_2_room": 11.8, "per_dw_3_room": 4.1, "per_dw_4_room": 0.5, "per_dw_5_room": 0.0, "per_dw_6_room": 0.5, "per_hhsize_1": 9.5, "per_hhsize_2": 13.1, "per_hhsize_3": 17.2, "per_hhsize_4": 33.5, "per_hhsize_5": 12.7, "per_hhsize_6_8": 13.1, "per_hhsize_9p": 0.9, "per_ow_owned": 76.0, "per_ow_rented": 20.4, "per_ow_oth": 3.6, "per_mc_none": 14.9, "per_mcouple_1": 44.3, "per_mcouple_2": 34.4, "per_mcouple_3": 5.4, "per_mcouple_4": 0.5, "per_mcouple_5p": 0.5, "per_dw_t_ts": 0.9, "per_dw_t_unts": 95.0, "per_dw_c_well": 0.5, "per_dw_unc_wel": 0.0, "per_dw_hpump": 0.0, "per_dw_tw_bore": 3.2, "per_dw_spring": 0.0, "per_dw_rivcan": 0.0, "per_dw_tank": 0.0, "per_dw_oth": 0.5, "per_loc_dw_wp": 6.3, "per_loc_dw_np": 89.1, "per_loc_dw_aw": 4.5, "per_light_elec": 90.5, "per_light_kero": 8.1, "per_light_solr": 0.0, "per_light_oil": 0.0, "per_light_oth": 0.0, "per_light_no": 1.4, "per_hh_latrine": 45.2, "per_fl_sewer": 1.8, "per_fl_septict": 38.9, "per_fl_othsys": 4.5, "per_pl_wslab": 0.0, "per_pl_without": 0.0, "per_ns_open": 0.0, "per_sl_ns_hum": 0.0, "per_sl_ns_anml": 0.0, "per_hh_no_lat": 54.8, "per_as_pub": 0.0, "per_as_open": 54.8, "per_hh_bathrm": 65.6, "per_hh_en_wrf": 15.4, "per_hh_no_btrm": 19.0, "per_wwoc_drain": 1.8, "per_wwoc_open": 27.1, "per_wwoc_nodrn": 71.0, "per_cook_fire": 65.6, "per_cook_resdu": 6.3, "per_cook_cwdng": 0.0, "per_cook_coal": 0.0, "per_cook_kero": 3.2, "per_cook_lpng": 23.5, "per_cook_elec": 0.5, "per_cook_biogs": 0.0, "per_cook_oth": 0.0, "per_cook_no": 0.9, "per_kf_inside": 90.0, "per_kf_in_has": 86.4, "per_kf_in_does": 3.6, "per_kf_outside": 9.0, "per_kf_out_has": 0.9, "per_kf_out_dos": 8.1, "per_kf_no_cook": 0.9, "per_hh_banking": 66.5, "per_hh_radio": 11.3, "per_hh_tv": 50.2, "per_hh_cmp_int": 4.1, "per_hh_cmp_wnt": 95.9, "per_hh_ph_ll": 9.0, "per_hh_ph_mob": 71.0, "per_hh_ph_bth": 4.5, "per_hh_bcycl": 33.9, "per_hh_2wheel": 14.9, "per_hh_4wheel": 2.3, "per_hh_tvcomp": 12.2, "per_hh_no_ast": 0.0, "per_hs_perma": 94.6, "per_hs_sperma": 3.6, "per_hs_temp": 0.9, "per_hs_servc": 0.9, "per_hs_nservc": 0.0, "per_hs_unclss": 0.9, "avghhsz_cy": 3.88986784, "st_areashape": 1482689.47210083, "st_lengthshape": 5719.959381571418}, "geometry": {"type": "Polygon", "coordinates": [[[77.50564600068523, 13.669951999547397], [77.50250200049707, 13.672607999756494], [77.49849700014336, 13.67421200021455], [77.49885600016856, 13.673175999870681], [77.4991380002009, 13.669196000486947], [77.49918400023164, 13.666508000377556], [77.49658999986437, 13.662957000332842], [77.49455299988907, 13.6594460001661], [77.4945980000949, 13.659435999261296], [77.4946060004908, 13.658952999659906], [77.49462100055945, 13.658371999903785], [77.49977099986248, 13.660045000080853], [77.50403599960883, 13.660825000152865], [77.50546300038712, 13.661341000299595], [77.50809500038922, 13.66228900006138], [77.50817099965886, 13.667426000353998], [77.50823199975824, 13.66978999939185], [77.50808000032059, 13.670329000043859], [77.50791200009111, 13.669918000429192], [77.50564600068523, 13.669951999547397]]]}}]}