{"type": "FeatureCollection", "features": [{"type": "Feature", "properties": {"premiumdata.sde.IN_Village_PCA.area": 5.67712685, "objectid": 27581, "id": "29630559595937", "name": "Ranganahalli", "subdistrict": "Gauribidanur", "district": "Chikkaballapura", "state": "Karnataka", "country": "India", "censusname": "Ranganahalli", "villagename_locallang": null, "lgd_villagename": "Ranganahalli", "lgd_villagecode": 623201, "lgd_subdistrictcode": 5595, "lgd_districtcode": 630, "lgd_statecode": 29, "censuscode2001": "01699600", "censuscode2011": "623201", "censuscode2021": null, "level": "Village", "tru": "Rural", "no_hh": 119, "tot_p": 460, "tot_m": 237, "tot_f": 223, "per_tot_m": 51.52173913, "per_tot_f": 48.47826087, "p_06": 42, "m_06": 19, "f_06": 23, "per_p_06": 9.13043478, "per_m_06": 45.23809524, "per_f_06": 54.76190476, "p_sc": 238, "m_sc": 119, "f_sc": 119, "per_p_sc": 51.73913043, "per_m_sc": 50.0, "per_f_sc": 50.0, "p_st": 55, "m_st": 30, "f_st": 25, "per_p_st": 11.95652174, "per_m_st": 54.54545455, "per_f_st": 45.45454545, "p_lit": 265, "m_lit": 155, "f_lit": 110, "per_p_lit": 57.60869565, "per_m_lit": 58.49056604, "per_f_lit": 41.50943396, "p_ill": 195, "m_ill": 82, "f_ill": 113, "per_p_ill": 42.39130435, "per_m_ill": 42.05128205, "per_f_ill": 57.94871795, "tot_work_p": 244, "tot_work_m": 141, "tot_work_f": 103, "per_tot_work_p": 53.04347826, "per_tot_work_m": 57.78688525, "per_tot_work_f": 42.21311475, "mainwork_p": 228, "mainwork_m": 131, "mainwork_f": 97, "per_mainwork_p": 49.56521739, "per_mainwork_m": 57.45614035, "per_mainwork_f": 42.54385965, "main_cl_p": 3, "main_cl_m": 2, "main_cl_f": 1, "per_main_cl_p": 1.31578947, "per_main_cl_m": 66.66666667, "per_main_cl_f": 33.33333333, "main_al_p": 206, "main_al_m": 115, "main_al_f": 91, "per_main_al_p": 90.35087719, "per_main_al_m": 55.82524272000001, "per_main_al_f": 44.17475728, "main_hh_p": 0, "main_hh_m": 0, "main_hh_f": 0, "per_main_hh_p": 0.0, "per_main_hh_m": 0.0, "per_main_hh_f": 0.0, "main_ot_p": 19, "main_ot_m": 14, "main_ot_f": 5, "per_main_ot_p": 8.33333333, "per_main_ot_m": 73.68421053, "per_main_ot_f": 26.31578947, "margwork_p": 16, "margwork_m": 10, "margwork_f": 6, "per_margwork_p": 3.47826087, "per_margwork_m": 62.5, "per_margwork_f": 37.5, "marg_cl_p": 1, "marg_cl_m": 1, "marg_cl_f": 0, "per_marg_cl_p": 6.25, "per_marg_cl_m": 100.0, "per_marg_cl_f": 0.0, "marg_al_p": 8, "marg_al_m": 5, "marg_al_f": 3, "per_marg_al_p": 50.0, "per_marg_al_m": 62.5, "per_marg_al_f": 37.5, "marg_hh_p": 0, "marg_hh_m": 0, "marg_hh_f": 0, "per_marg_hh_p": 0.0, "per_marg_hh_m": 0.0, "per_marg_hh_f": 0.0, "marg_ot_p": 7, "marg_ot_m": 4, "marg_ot_f": 3, "per_marg_ot_p": 43.75, "per_marg_ot_m": 57.14285714, "per_marg_ot_f": 42.85714286, "margwork_3_6_p": 16, "margwork_3_6_m": 10, "margwork_3_6_f": 6, "per_margwork_3_6_p": 100.0, "per_margwork_3_6_m": 62.5, "per_margwork_3_6_f": 37.5, "marg_cl_3_6_p": 1, "marg_cl_3_6_m": 1, "marg_cl_3_6_f": 0, "per_marg_cl_3_6_p": 6.25, "per_marg_cl_3_6_m": 100.0, "per_marg_cl_3_6_f": 0.0, "marg_al_3_6_p": 8, "marg_al_3_6_m": 5, "marg_al_3_6_f": 3, "per_marg_al_3_6_p": 50.0, "per_marg_al_3_6_m": 62.5, "per_marg_al_3_6_f": 37.5, "marg_hh_3_6_p": 0, "marg_hh_3_6_m": 0, "marg_hh_3_6_f": 0, "per_marg_hh_3_6_p": 0.0, "per_marg_hh_3_6_m": 0.0, "per_marg_hh_3_6_f": 0.0, "marg_ot_3_6_p": 7, "marg_ot_3_6_m": 4, "marg_ot_3_6_f": 3, "per_marg_ot_3_6_p": 43.75, "per_marg_ot_3_6_m": 57.14285714, "per_marg_ot_3_6_f": 42.85714286, "margwork_0_3_p": 0, "margwork_0_3_m": 0, "margwork_0_3_f": 0, "per_margwork_0_3_p": 0.0, "per_margwork_0_3_m": 0.0, "per_margwork_0_3_f": 0.0, "marg_cl_0_3_p": 0, "marg_cl_0_3_m": 0, "marg_cl_0_3_f": 0, "per_marg_cl_0_3_p": 0.0, "per_marg_cl_0_3_m": 0.0, "per_marg_cl_0_3_f": 0.0, "marg_al_0_3_p": 0, "marg_al_0_3_m": 0, "marg_al_0_3_f": 0, "per_marg_al_0_3_p": 0.0, "per_marg_al_0_3_m": 0.0, "per_marg_al_0_3_f": 0.0, "marg_hh_0_3_p": 0, "marg_hh_0_3_m": 0, "marg_hh_0_3_f": 0, "per_marg_hh_0_3_p": 0.0, "per_marg_hh_0_3_m": 0.0, "per_marg_hh_0_3_f": 0.0, "marg_ot_0_3_p": 0, "marg_ot_0_3_m": 0, "marg_ot_0_3_f": 0, "per_marg_ot_0_3_p": 0.0, "per_marg_ot_0_3_m": 0.0, "per_marg_ot_0_3_f": 0.0, "non_work_p": 216, "non_work_m": 96, "non_work_f": 120, "per_non_work_p": 46.95652174, "per_non_work_m": 44.44444444000001, "per_non_work_f": 55.55555556, "per_hc_tot_tot": 100, "per_hc_tot_god": 96.7, "per_hc_tot_liv": 3.3, "per_hc_tot_dil": 0.0, "per_hc_res_tot": 100.0, "per_hc_res_god": 96.7, "per_hc_res_liv": 3.3, "per_hc_res_dil": 0.0, "per_hc_oth_tot": 0.0, "per_hc_oth_god": 0.0, "per_hc_oth_liv": 0.0, "per_hc_oth_dil": 0.0, "per_mt_grsbam": 6.7, "per_mt_plastic": 0.0, "per_mt_h_tiles": 7.5, "per_mt_m_tiles": 42.5, "per_mt_b_brick": 0.8, "per_mt_stone": 31.7, "per_mt_asbstos": 0.0, "per_mt_concrte": 10.8, "per_mt_oth": 0.0, "per_mw_grsbam": 0.0, "per_mw_plastic": 0.0, "per_mw_mud": 3.3, "per_mw_wood": 0.0, "per_mw_no_mrtr": 5.8, "per_mw_st_mrtr": 1.7, "per_mw_asbstos": 0.0, "per_mw_b_brick": 89.2, "per_mw_concrte": 0.0, "per_mw_oth": 0.0, "per_mf_mud": 6.7, "per_mf_wood": 0.8, "per_mf_b_brick": 0.0, "per_mf_stone": 34.2, "per_mf_cement": 55.8, "per_mf_fl_tile": 2.5, "per_mf_oth": 0.0, "per_dw_n_exrm": 0.0, "per_dw_1_room": 9.2, "per_dw_2_room": 76.7, "per_dw_3_room": 11.7, "per_dw_4_room": 1.7, "per_dw_5_room": 0.0, "per_dw_6_room": 0.8, "per_hhsize_1": 3.3, "per_hhsize_2": 9.2, "per_hhsize_3": 21.7, "per_hhsize_4": 30.8, "per_hhsize_5": 18.3, "per_hhsize_6_8": 15.8, "per_hhsize_9p": 0.8, "per_ow_owned": 99.2, "per_ow_rented": 0.8, "per_ow_oth": 0.0, "per_mc_none": 13.3, "per_mcouple_1": 74.2, "per_mcouple_2": 11.7, "per_mcouple_3": 0.8, "per_mcouple_4": 0.0, "per_mcouple_5p": 0.0, "per_dw_t_ts": 0.0, "per_dw_t_unts": 0.0, "per_dw_c_well": 0.0, "per_dw_unc_wel": 0.0, "per_dw_hpump": 0.0, "per_dw_tw_bore": 100.0, "per_dw_spring": 0.0, "per_dw_rivcan": 0.0, "per_dw_tank": 0.0, "per_dw_oth": 0.0, "per_loc_dw_wp": 0.0, "per_loc_dw_np": 5.8, "per_loc_dw_aw": 94.2, "per_light_elec": 95.8, "per_light_kero": 0.8, "per_light_solr": 0.0, "per_light_oil": 0.0, "per_light_oth": 0.0, "per_light_no": 3.3, "per_hh_latrine": 0.0, "per_fl_sewer": 0.0, "per_fl_septict": 0.0, "per_fl_othsys": 0.0, "per_pl_wslab": 0.0, "per_pl_without": 0.0, "per_ns_open": 0.0, "per_sl_ns_hum": 0.0, "per_sl_ns_anml": 0.0, "per_hh_no_lat": 100.0, "per_as_pub": 0.0, "per_as_open": 100.0, "per_hh_bathrm": 19.2, "per_hh_en_wrf": 0.0, "per_hh_no_btrm": 80.8, "per_wwoc_drain": 0.0, "per_wwoc_open": 0.0, "per_wwoc_nodrn": 100.0, "per_cook_fire": 100.0, "per_cook_resdu": 0.0, "per_cook_cwdng": 0.0, "per_cook_coal": 0.0, "per_cook_kero": 0.0, "per_cook_lpng": 0.0, "per_cook_elec": 0.0, "per_cook_biogs": 0.0, "per_cook_oth": 0.0, "per_cook_no": 0.0, "per_kf_inside": 100.0, "per_kf_in_has": 97.5, "per_kf_in_does": 2.5, "per_kf_outside": 0.0, "per_kf_out_has": 0.0, "per_kf_out_dos": 0.0, "per_kf_no_cook": 0.0, "per_hh_banking": 33.3, "per_hh_radio": 0.0, "per_hh_tv": 0.0, "per_hh_cmp_int": 0.0, "per_hh_cmp_wnt": 0.0, "per_hh_ph_ll": 0.0, "per_hh_ph_mob": 0.8, "per_hh_ph_bth": 0.8, "per_hh_bcycl": 41.7, "per_hh_2wheel": 0.0, "per_hh_4wheel": 0.0, "per_hh_tvcomp": 0.0, "per_hh_no_ast": 58.3, "per_hs_perma": 92.5, "per_hs_sperma": 5.0, "per_hs_temp": 2.5, "per_hs_servc": 2.5, "per_hs_nservc": 0.0, "per_hs_unclss": 0.0, "avghhsz_cy": 3.86554622, "st_areashape": 6045539.064875415, "st_lengthshape": 11862.132016456078}, "geometry": {"type": "Polygon", "coordinates": [[[77.38668799965924, 13.616138000206037], [77.3859250003013, 13.614087000303394], [77.38383500062253, 13.609198999299826], [77.3821869999113, 13.606836000115786], [77.376891999945, 13.607773000206905], [77.37615999965091, 13.607228999684988], [77.36191107442947, 13.60560697633997], [77.36211895806096, 13.604938535348028], [77.36223724911588, 13.603910158017916], [77.36218475067233, 13.602393309651925], [77.3627235449084, 13.602303361829941], [77.36272358982416, 13.602303353098772], [77.36372239245259, 13.602091292497452], [77.36361735603967, 13.599822415446218], [77.3634991736809, 13.597984191690172], [77.36313133782659, 13.595528883593275], [77.36300003018319, 13.59362639492789], [77.3847429997454, 13.593362999203459], [77.38797800017015, 13.59633099937477], [77.38935100052178, 13.59704200047356], [77.39022800058083, 13.598417999613547], [77.39115100067063, 13.596891999627259], [77.39215900025096, 13.596045000138638], [77.39355500016876, 13.596466000023831], [77.3940430000654, 13.601896999707645], [77.3953020006142, 13.60870199990868], [77.39540100034839, 13.613444999980079], [77.39359299980362, 13.614272999353538], [77.3923869998566, 13.614437000281676], [77.3914790007337, 13.615285999654088], [77.38900800039008, 13.614451999695456], [77.38668799965924, 13.616138000206037]]]}}]}