{"type": "FeatureCollection", "features": [{"type": "Feature", "properties": {"premiumdata.sde.IN_Village_PCA.area": 0.899705, "objectid": 506476, "id": "21365287752075", "name": "Telia", "subdistrict": "Suliapada", "district": "Mayurbhanj", "state": "Odisha", "country": "India", "censusname": "Telia", "villagename_locallang": null, "lgd_villagename": "Telia", "lgd_villagecode": 389803, "lgd_subdistrictcode": 2877, "lgd_districtcode": 365, "lgd_statecode": 21, "censuscode2001": "00937200", "censuscode2011": "389803", "censuscode2021": null, "level": "Village", "tru": "Rural", "no_hh": 86, "tot_p": 303, "tot_m": 142, "tot_f": 161, "per_tot_m": 46.86468647, "per_tot_f": 53.13531353, "p_06": 36, "m_06": 21, "f_06": 15, "per_p_06": 11.88118812, "per_m_06": 58.33333333, "per_f_06": 41.66666667000001, "p_sc": 0, "m_sc": 0, "f_sc": 0, "per_p_sc": 0.0, "per_m_sc": 0.0, "per_f_sc": 0.0, "p_st": 303, "m_st": 142, "f_st": 161, "per_p_st": 100.0, "per_m_st": 46.86468647, "per_f_st": 53.13531353, "p_lit": 136, "m_lit": 76, "f_lit": 60, "per_p_lit": 44.88448845, "per_m_lit": 55.88235294, "per_f_lit": 44.11764706, "p_ill": 167, "m_ill": 66, "f_ill": 101, "per_p_ill": 55.11551155, "per_m_ill": 39.52095808, "per_f_ill": 60.47904192, "tot_work_p": 182, "tot_work_m": 84, "tot_work_f": 98, "per_tot_work_p": 60.0660066, "per_tot_work_m": 46.15384615, "per_tot_work_f": 53.84615385, "mainwork_p": 7, "mainwork_m": 4, "mainwork_f": 3, "per_mainwork_p": 2.31023102, "per_mainwork_m": 57.14285714, "per_mainwork_f": 42.85714286, "main_cl_p": 0, "main_cl_m": 0, "main_cl_f": 0, "per_main_cl_p": 0.0, "per_main_cl_m": 0.0, "per_main_cl_f": 0.0, "main_al_p": 0, "main_al_m": 0, "main_al_f": 0, "per_main_al_p": 0.0, "per_main_al_m": 0.0, "per_main_al_f": 0.0, "main_hh_p": 0, "main_hh_m": 0, "main_hh_f": 0, "per_main_hh_p": 0.0, "per_main_hh_m": 0.0, "per_main_hh_f": 0.0, "main_ot_p": 7, "main_ot_m": 4, "main_ot_f": 3, "per_main_ot_p": 100.0, "per_main_ot_m": 57.14285714, "per_main_ot_f": 42.85714286, "margwork_p": 175, "margwork_m": 80, "margwork_f": 95, "per_margwork_p": 57.75577558, "per_margwork_m": 45.71428571, "per_margwork_f": 54.28571429, "marg_cl_p": 1, "marg_cl_m": 1, "marg_cl_f": 0, "per_marg_cl_p": 0.57142857, "per_marg_cl_m": 100.0, "per_marg_cl_f": 0.0, "marg_al_p": 85, "marg_al_m": 78, "marg_al_f": 7, "per_marg_al_p": 48.57142857, "per_marg_al_m": 91.76470588000001, "per_marg_al_f": 8.23529412, "marg_hh_p": 87, "marg_hh_m": 0, "marg_hh_f": 87, "per_marg_hh_p": 49.71428571, "per_marg_hh_m": 0.0, "per_marg_hh_f": 100.0, "marg_ot_p": 2, "marg_ot_m": 1, "marg_ot_f": 1, "per_marg_ot_p": 1.14285714, "per_marg_ot_m": 50.0, "per_marg_ot_f": 50.0, "margwork_3_6_p": 175, "margwork_3_6_m": 80, "margwork_3_6_f": 95, "per_margwork_3_6_p": 100.0, "per_margwork_3_6_m": 45.71428571, "per_margwork_3_6_f": 54.28571429, "marg_cl_3_6_p": 1, "marg_cl_3_6_m": 1, "marg_cl_3_6_f": 0, "per_marg_cl_3_6_p": 0.57142857, "per_marg_cl_3_6_m": 100.0, "per_marg_cl_3_6_f": 0.0, "marg_al_3_6_p": 85, "marg_al_3_6_m": 78, "marg_al_3_6_f": 7, "per_marg_al_3_6_p": 48.57142857, "per_marg_al_3_6_m": 91.76470588000001, "per_marg_al_3_6_f": 8.23529412, "marg_hh_3_6_p": 87, "marg_hh_3_6_m": 0, "marg_hh_3_6_f": 87, "per_marg_hh_3_6_p": 49.71428571, "per_marg_hh_3_6_m": 0.0, "per_marg_hh_3_6_f": 100.0, "marg_ot_3_6_p": 2, "marg_ot_3_6_m": 1, "marg_ot_3_6_f": 1, "per_marg_ot_3_6_p": 1.14285714, "per_marg_ot_3_6_m": 50.0, "per_marg_ot_3_6_f": 50.0, "margwork_0_3_p": 0, "margwork_0_3_m": 0, "margwork_0_3_f": 0, "per_margwork_0_3_p": 0.0, "per_margwork_0_3_m": 0.0, "per_margwork_0_3_f": 0.0, "marg_cl_0_3_p": 0, "marg_cl_0_3_m": 0, "marg_cl_0_3_f": 0, "per_marg_cl_0_3_p": 0.0, "per_marg_cl_0_3_m": 0.0, "per_marg_cl_0_3_f": 0.0, "marg_al_0_3_p": 0, "marg_al_0_3_m": 0, "marg_al_0_3_f": 0, "per_marg_al_0_3_p": 0.0, "per_marg_al_0_3_m": 0.0, "per_marg_al_0_3_f": 0.0, "marg_hh_0_3_p": 0, "marg_hh_0_3_m": 0, "marg_hh_0_3_f": 0, "per_marg_hh_0_3_p": 0.0, "per_marg_hh_0_3_m": 0.0, "per_marg_hh_0_3_f": 0.0, "marg_ot_0_3_p": 0, "marg_ot_0_3_m": 0, "marg_ot_0_3_f": 0, "per_marg_ot_0_3_p": 0.0, "per_marg_ot_0_3_m": 0.0, "per_marg_ot_0_3_f": 0.0, "non_work_p": 121, "non_work_m": 58, "non_work_f": 63, "per_non_work_p": 39.9339934, "per_non_work_m": 47.9338843, "per_non_work_f": 52.0661157, "per_hc_tot_tot": 100, "per_hc_tot_god": 0.0, "per_hc_tot_liv": 84.0, "per_hc_tot_dil": 16.0, "per_hc_res_tot": 1.2, "per_hc_res_god": 0.0, "per_hc_res_liv": 1.2, "per_hc_res_dil": 0.0, "per_hc_oth_tot": 98.8, "per_hc_oth_god": 0.0, "per_hc_oth_liv": 82.7, "per_hc_oth_dil": 16.0, "per_mt_grsbam": 77.8, "per_mt_plastic": 0.0, "per_mt_h_tiles": 12.3, "per_mt_m_tiles": 0.0, "per_mt_b_brick": 0.0, "per_mt_stone": 0.0, "per_mt_asbstos": 9.9, "per_mt_concrte": 0.0, "per_mt_oth": 0.0, "per_mw_grsbam": 2.5, "per_mw_plastic": 0.0, "per_mw_mud": 95.1, "per_mw_wood": 0.0, "per_mw_no_mrtr": 0.0, "per_mw_st_mrtr": 0.0, "per_mw_asbstos": 0.0, "per_mw_b_brick": 2.5, "per_mw_concrte": 0.0, "per_mw_oth": 0.0, "per_mf_mud": 97.5, "per_mf_wood": 0.0, "per_mf_b_brick": 0.0, "per_mf_stone": 0.0, "per_mf_cement": 2.5, "per_mf_fl_tile": 0.0, "per_mf_oth": 0.0, "per_dw_n_exrm": 4.9, "per_dw_1_room": 33.3, "per_dw_2_room": 58.0, "per_dw_3_room": 2.5, "per_dw_4_room": 0.0, "per_dw_5_room": 0.0, "per_dw_6_room": 1.2, "per_hhsize_1": 11.1, "per_hhsize_2": 12.3, "per_hhsize_3": 18.5, "per_hhsize_4": 30.9, "per_hhsize_5": 9.9, "per_hhsize_6_8": 17.3, "per_hhsize_9p": 0.0, "per_ow_owned": 88.9, "per_ow_rented": 0.0, "per_ow_oth": 11.1, "per_mc_none": 29.6, "per_mcouple_1": 64.2, "per_mcouple_2": 6.2, "per_mcouple_3": 0.0, "per_mcouple_4": 0.0, "per_mcouple_5p": 0.0, "per_dw_t_ts": 0.0, "per_dw_t_unts": 0.0, "per_dw_c_well": 0.0, "per_dw_unc_wel": 91.4, "per_dw_hpump": 0.0, "per_dw_tw_bore": 0.0, "per_dw_spring": 8.6, "per_dw_rivcan": 0.0, "per_dw_tank": 0.0, "per_dw_oth": 0.0, "per_loc_dw_wp": 27.2, "per_loc_dw_np": 64.2, "per_loc_dw_aw": 8.6, "per_light_elec": 0.0, "per_light_kero": 100.0, "per_light_solr": 0.0, "per_light_oil": 0.0, "per_light_oth": 0.0, "per_light_no": 0.0, "per_hh_latrine": 4.9, "per_fl_sewer": 0.0, "per_fl_septict": 0.0, "per_fl_othsys": 0.0, "per_pl_wslab": 4.9, "per_pl_without": 0.0, "per_ns_open": 0.0, "per_sl_ns_hum": 0.0, "per_sl_ns_anml": 0.0, "per_hh_no_lat": 95.1, "per_as_pub": 0.0, "per_as_open": 95.1, "per_hh_bathrm": 0.0, "per_hh_en_wrf": 0.0, "per_hh_no_btrm": 100.0, "per_wwoc_drain": 0.0, "per_wwoc_open": 0.0, "per_wwoc_nodrn": 100.0, "per_cook_fire": 100.0, "per_cook_resdu": 0.0, "per_cook_cwdng": 0.0, "per_cook_coal": 0.0, "per_cook_kero": 0.0, "per_cook_lpng": 0.0, "per_cook_elec": 0.0, "per_cook_biogs": 0.0, "per_cook_oth": 0.0, "per_cook_no": 0.0, "per_kf_inside": 87.7, "per_kf_in_has": 84.0, "per_kf_in_does": 3.7, "per_kf_outside": 12.3, "per_kf_out_has": 2.5, "per_kf_out_dos": 9.9, "per_kf_no_cook": 0.0, "per_hh_banking": 75.3, "per_hh_radio": 14.8, "per_hh_tv": 0.0, "per_hh_cmp_int": 0.0, "per_hh_cmp_wnt": 0.0, "per_hh_ph_ll": 0.0, "per_hh_ph_mob": 4.9, "per_hh_ph_bth": 0.0, "per_hh_bcycl": 79.0, "per_hh_2wheel": 1.2, "per_hh_4wheel": 1.2, "per_hh_tvcomp": 0.0, "per_hh_no_ast": 19.8, "per_hs_perma": 2.5, "per_hs_sperma": 19.8, "per_hs_temp": 77.8, "per_hs_servc": 75.3, "per_hs_nservc": 2.5, "per_hs_unclss": 0.0, "avghhsz_cy": 3.52325581, "st_areashape": 1052560.55906004, "st_lengthshape": 6243.0266460588555}, "geometry": {"type": "Polygon", "coordinates": [[[86.98575764492361, 22.06223806951711], [86.98436018704005, 22.06337050981847], [86.98261385763615, 22.064741565551532], [86.98166140987301, 22.06551271835586], [86.98154775412497, 22.065604739882485], [86.98104345070423, 22.06601304503547], [86.98069431328257, 22.06629572028066], [86.97856829475414, 22.067938900059662], [86.97846916835746, 22.06801551120269], [86.97768841649292, 22.068618928334303], [86.97727749653924, 22.068882971220344], [86.97523118462766, 22.07019785280895], [86.97302255073751, 22.072083224779472], [86.9722448288904, 22.072520045193993], [86.97118905600497, 22.0714166852538], [86.97290035021449, 22.070095109290293], [86.97518207552773, 22.067504784449874], [86.97809127496521, 22.064861546999882], [86.98031595725794, 22.061583863449275], [86.98293994159272, 22.058094632535877], [86.98493645180326, 22.054393839446806], [86.98584914192857, 22.053547930332964], [86.98733226315758, 22.052913495593643], [86.98790269426134, 22.058781912290755], [86.9875022854948, 22.06082427408639], [86.98575764492361, 22.06223806951711]]]}}]}