{"type": "FeatureCollection", "features": [{"type": "Feature", "properties": {"premiumdata.sde.IN_Village_PCA.area": 2.77301147, "objectid": 406771, "id": "336226342631", "name": "Rara", "subdistrict": "Payal", "district": "Ludhiana", "state": "Punjab", "country": "India", "censusname": "Rara (211)", "villagename_locallang": null, "lgd_villagename": "Rara (211)", "lgd_villagecode": 33319, "lgd_subdistrictcode": 226, "lgd_districtcode": 36, "lgd_statecode": 3, "censuscode2001": "00805200", "censuscode2011": "033319", "censuscode2021": null, "level": "Village", "tru": "Rural", "no_hh": 250, "tot_p": 1309, "tot_m": 668, "tot_f": 641, "per_tot_m": 51.03132162, "per_tot_f": 48.96867838, "p_06": 175, "m_06": 80, "f_06": 95, "per_p_06": 13.36898396, "per_m_06": 45.71428571, "per_f_06": 54.28571429, "p_sc": 935, "m_sc": 467, "f_sc": 468, "per_p_sc": 71.42857143, "per_m_sc": 49.94652406, "per_f_sc": 50.05347594000001, "p_st": 0, "m_st": 0, "f_st": 0, "per_p_st": 0.0, "per_m_st": 0.0, "per_f_st": 0.0, "p_lit": 869, "m_lit": 475, "f_lit": 394, "per_p_lit": 66.38655462, "per_m_lit": 54.66052934, "per_f_lit": 45.33947066, "p_ill": 440, "m_ill": 193, "f_ill": 247, "per_p_ill": 33.61344538, "per_m_ill": 43.86363636, "per_f_ill": 56.13636364, "tot_work_p": 384, "tot_work_m": 343, "tot_work_f": 41, "per_tot_work_p": 29.33537051, "per_tot_work_m": 89.32291667, "per_tot_work_f": 10.67708333, "mainwork_p": 332, "mainwork_m": 298, "mainwork_f": 34, "per_mainwork_p": 25.36287242, "per_mainwork_m": 89.75903614, "per_mainwork_f": 10.24096386, "main_cl_p": 12, "main_cl_m": 8, "main_cl_f": 4, "per_main_cl_p": 3.61445783, "per_main_cl_m": 66.66666667, "per_main_cl_f": 33.33333333, "main_al_p": 2, "main_al_m": 2, "main_al_f": 0, "per_main_al_p": 0.60240964, "per_main_al_m": 100.0, "per_main_al_f": 0.0, "main_hh_p": 0, "main_hh_m": 0, "main_hh_f": 0, "per_main_hh_p": 0.0, "per_main_hh_m": 0.0, "per_main_hh_f": 0.0, "main_ot_p": 318, "main_ot_m": 288, "main_ot_f": 30, "per_main_ot_p": 95.78313253, "per_main_ot_m": 90.56603774, "per_main_ot_f": 9.43396226, "margwork_p": 52, "margwork_m": 45, "margwork_f": 7, "per_margwork_p": 3.97249809, "per_margwork_m": 86.53846154, "per_margwork_f": 13.46153846, "marg_cl_p": 1, "marg_cl_m": 0, "marg_cl_f": 1, "per_marg_cl_p": 1.92307692, "per_marg_cl_m": 0.0, "per_marg_cl_f": 100.0, "marg_al_p": 4, "marg_al_m": 3, "marg_al_f": 1, "per_marg_al_p": 7.69230769, "per_marg_al_m": 75.0, "per_marg_al_f": 25.0, "marg_hh_p": 0, "marg_hh_m": 0, "marg_hh_f": 0, "per_marg_hh_p": 0.0, "per_marg_hh_m": 0.0, "per_marg_hh_f": 0.0, "marg_ot_p": 47, "marg_ot_m": 42, "marg_ot_f": 5, "per_marg_ot_p": 90.38461538, "per_marg_ot_m": 89.36170213, "per_marg_ot_f": 10.63829787, "margwork_3_6_p": 46, "margwork_3_6_m": 41, "margwork_3_6_f": 5, "per_margwork_3_6_p": 88.46153846, "per_margwork_3_6_m": 89.13043477999999, "per_margwork_3_6_f": 10.86956522, "marg_cl_3_6_p": 1, "marg_cl_3_6_m": 0, "marg_cl_3_6_f": 1, "per_marg_cl_3_6_p": 1.92307692, "per_marg_cl_3_6_m": 0.0, "per_marg_cl_3_6_f": 100.0, "marg_al_3_6_p": 4, "marg_al_3_6_m": 3, "marg_al_3_6_f": 1, "per_marg_al_3_6_p": 7.69230769, "per_marg_al_3_6_m": 75.0, "per_marg_al_3_6_f": 25.0, "marg_hh_3_6_p": 0, "marg_hh_3_6_m": 0, "marg_hh_3_6_f": 0, "per_marg_hh_3_6_p": 0.0, "per_marg_hh_3_6_m": 0.0, "per_marg_hh_3_6_f": 0.0, "marg_ot_3_6_p": 41, "marg_ot_3_6_m": 38, "marg_ot_3_6_f": 3, "per_marg_ot_3_6_p": 78.84615385000001, "per_marg_ot_3_6_m": 92.68292683, "per_marg_ot_3_6_f": 7.31707317, "margwork_0_3_p": 6, "margwork_0_3_m": 4, "margwork_0_3_f": 2, "per_margwork_0_3_p": 11.53846154, "per_margwork_0_3_m": 66.66666667, "per_margwork_0_3_f": 33.33333333, "marg_cl_0_3_p": 0, "marg_cl_0_3_m": 0, "marg_cl_0_3_f": 0, "per_marg_cl_0_3_p": 0.0, "per_marg_cl_0_3_m": 0.0, "per_marg_cl_0_3_f": 0.0, "marg_al_0_3_p": 0, "marg_al_0_3_m": 0, "marg_al_0_3_f": 0, "per_marg_al_0_3_p": 0.0, "per_marg_al_0_3_m": 0.0, "per_marg_al_0_3_f": 0.0, "marg_hh_0_3_p": 0, "marg_hh_0_3_m": 0, "marg_hh_0_3_f": 0, "per_marg_hh_0_3_p": 0.0, "per_marg_hh_0_3_m": 0.0, "per_marg_hh_0_3_f": 0.0, "marg_ot_0_3_p": 6, "marg_ot_0_3_m": 4, "marg_ot_0_3_f": 2, "per_marg_ot_0_3_p": 11.53846154, "per_marg_ot_0_3_m": 66.66666667, "per_marg_ot_0_3_f": 33.33333333, "non_work_p": 925, "non_work_m": 325, "non_work_f": 600, "per_non_work_p": 70.66462949000001, "per_non_work_m": 35.13513514, "per_non_work_f": 64.86486486, "per_hc_tot_tot": 100, "per_hc_tot_god": 62.6, "per_hc_tot_liv": 37.4, "per_hc_tot_dil": 0.0, "per_hc_res_tot": 100.0, "per_hc_res_god": 62.6, "per_hc_res_liv": 37.4, "per_hc_res_dil": 0.0, "per_hc_oth_tot": 0.0, "per_hc_oth_god": 0.0, "per_hc_oth_liv": 0.0, "per_hc_oth_dil": 0.0, "per_mt_grsbam": 0.5, "per_mt_plastic": 5.1, "per_mt_h_tiles": 0.0, "per_mt_m_tiles": 0.0, "per_mt_b_brick": 20.6, "per_mt_stone": 0.0, "per_mt_asbstos": 30.8, "per_mt_concrte": 43.0, "per_mt_oth": 0.0, "per_mw_grsbam": 0.0, "per_mw_plastic": 5.6, "per_mw_mud": 0.5, "per_mw_wood": 0.0, "per_mw_no_mrtr": 0.5, "per_mw_st_mrtr": 5.1, "per_mw_asbstos": 0.0, "per_mw_b_brick": 88.3, "per_mw_concrte": 0.0, "per_mw_oth": 0.0, "per_mf_mud": 18.7, "per_mf_wood": 0.0, "per_mf_b_brick": 9.8, "per_mf_stone": 1.4, "per_mf_cement": 53.7, "per_mf_fl_tile": 16.4, "per_mf_oth": 0.0, "per_dw_n_exrm": 0.9, "per_dw_1_room": 25.7, "per_dw_2_room": 36.9, "per_dw_3_room": 22.9, "per_dw_4_room": 7.9, "per_dw_5_room": 4.2, "per_dw_6_room": 1.4, "per_hhsize_1": 1.4, "per_hhsize_2": 3.3, "per_hhsize_3": 6.1, "per_hhsize_4": 18.7, "per_hhsize_5": 31.3, "per_hhsize_6_8": 30.8, "per_hhsize_9p": 8.4, "per_ow_owned": 95.8, "per_ow_rented": 3.7, "per_ow_oth": 0.5, "per_mc_none": 5.6, "per_mcouple_1": 68.2, "per_mcouple_2": 20.1, "per_mcouple_3": 4.7, "per_mcouple_4": 0.5, "per_mcouple_5p": 0.9, "per_dw_t_ts": 7.0, "per_dw_t_unts": 0.5, "per_dw_c_well": 0.0, "per_dw_unc_wel": 0.0, "per_dw_hpump": 59.3, "per_dw_tw_bore": 29.4, "per_dw_spring": 0.0, "per_dw_rivcan": 0.0, "per_dw_tank": 0.0, "per_dw_oth": 3.7, "per_loc_dw_wp": 90.2, "per_loc_dw_np": 9.3, "per_loc_dw_aw": 0.5, "per_light_elec": 99.5, "per_light_kero": 0.5, "per_light_solr": 0.0, "per_light_oil": 0.0, "per_light_oth": 0.0, "per_light_no": 0.0, "per_hh_latrine": 85.5, "per_fl_sewer": 0.5, "per_fl_septict": 54.2, "per_fl_othsys": 0.0, "per_pl_wslab": 30.8, "per_pl_without": 0.0, "per_ns_open": 0.0, "per_sl_ns_hum": 0.0, "per_sl_ns_anml": 0.0, "per_hh_no_lat": 14.5, "per_as_pub": 0.0, "per_as_open": 14.5, "per_hh_bathrm": 58.9, "per_hh_en_wrf": 26.2, "per_hh_no_btrm": 15.0, "per_wwoc_drain": 0.5, "per_wwoc_open": 99.5, "per_wwoc_nodrn": 0.0, "per_cook_fire": 0.0, "per_cook_resdu": 0.5, "per_cook_cwdng": 69.2, "per_cook_coal": 1.4, "per_cook_kero": 0.5, "per_cook_lpng": 28.0, "per_cook_elec": 0.0, "per_cook_biogs": 0.0, "per_cook_oth": 0.0, "per_cook_no": 0.5, "per_kf_inside": 57.0, "per_kf_in_has": 32.7, "per_kf_in_does": 24.3, "per_kf_outside": 42.5, "per_kf_out_has": 9.3, "per_kf_out_dos": 33.2, "per_kf_no_cook": 0.5, "per_hh_banking": 47.2, "per_hh_radio": 3.7, "per_hh_tv": 85.0, "per_hh_cmp_int": 2.3, "per_hh_cmp_wnt": 4.7, "per_hh_ph_ll": 4.2, "per_hh_ph_mob": 58.9, "per_hh_ph_bth": 8.9, "per_hh_bcycl": 68.2, "per_hh_2wheel": 43.5, "per_hh_4wheel": 10.3, "per_hh_tvcomp": 6.5, "per_hh_no_ast": 7.9, "per_hs_perma": 93.5, "per_hs_sperma": 1.4, "per_hs_temp": 5.1, "per_hs_servc": 0.0, "per_hs_nservc": 5.1, "per_hs_unclss": 0.0, "avghhsz_cy": 5.236, "st_areashape": 3764519.384337015, "st_lengthshape": 8795.275945353427}, "geometry": {"type": "Polygon", "coordinates": [[[75.9497574741949, 30.7264752017027], [75.94954235104056, 30.726061112835996], [75.9493404232394, 30.725376667700086], [75.9493668130475, 30.724835954900254], [75.94908328498092, 30.724216244391762], [75.94878326564233, 30.723934478555424], [75.94840166130965, 30.72371744783435], [75.94801014227113, 30.72370318400026], [75.94723370591319, 30.723539475251226], [75.94685210607207, 30.723322441324243], [75.94431519633608, 30.721275800215714], [75.94451254811915, 30.72096822875957], [75.94509308796478, 30.72028115114113], [75.94539293752179, 30.719741229130776], [75.94591727427164, 30.718734674381665], [75.9461181564338, 30.717957713604346], [75.94835175181076, 30.718213991063756], [75.94906303425948, 30.718104498191877], [75.94946443207111, 30.71791598836791], [75.94971912242048, 30.7175190011367], [75.94973891320451, 30.717113443036922], [75.94977189574847, 30.716437536110295], [75.94986998459096, 30.716034843292167], [75.95012796816417, 30.71557026259513], [75.95038265312363, 30.715173273430157], [75.95086561796307, 30.71492001839096], [75.95173349742707, 30.714816202816575], [75.95533849145947, 30.714879734495277], [75.95643795031548, 30.714852034432123], [75.95705776720028, 30.715010010487994], [75.9578275605167, 30.715308863194316], [75.96042712684545, 30.716689926066746], [75.96225692411228, 30.71777213196459], [75.9633886261988, 30.71869349238642], [75.96375105239851, 30.719393334472894], [75.96402805510289, 30.72014821180448], [75.9643833468826, 30.720905932832554], [75.96490842743752, 30.721398982200594], [75.97029360208867, 30.7251831820295], [75.97136684091817, 30.725696107129377], [75.97244008783252, 30.726209039538766], [75.97464963800425, 30.726951470426403], [75.97446470542998, 30.72732827213457], [75.97445074561045, 30.727615401000282], [75.97455233069606, 30.72781084239394], [75.97465856905482, 30.727910575282195], [75.97475548469754, 30.72820172553687], [75.97484776503345, 30.72858858475958], [75.97481617667478, 30.729699525077177], [75.97376931417867, 30.729733175157545], [75.97322116129396, 30.72971328301796], [75.97250654968882, 30.729890456580197], [75.9719419567361, 30.73020851815955], [75.97114901473316, 30.730382857700874], [75.97044097250767, 30.73042484625865], [75.96903473538886, 30.730306093424414], [75.96738699878233, 30.73031394413486], [75.965667533497, 30.73018378688669], [75.96426786935112, 30.72992980450115], [75.96225164381504, 30.729450274894983], [75.9572220088786, 30.727830258481468], [75.95652384362968, 30.727669440896456], [75.95598230863371, 30.72751431954874], [75.95543746244759, 30.727426785448014], [75.95480773624689, 30.727471576057365], [75.95433129137977, 30.727589653622285], [75.95300340442171, 30.727473609255888], [75.9508405396953, 30.726785481469943], [75.9497574741949, 30.7264752017027]]]}}]}