{"type": "FeatureCollection", "features": [{"type": "Feature", "properties": {"premiumdata.sde.IN_Village_PCA.area": 0.87635843, "objectid": 484401, "id": "101891481293587", "name": "Dhobaul", "subdistrict": "Aurangabad", "district": "Aurangabad", "state": "Bihar", "country": "India", "censusname": "Dhobaul", "villagename_locallang": "\u0927\u094b\u092c\u094c\u0932", "lgd_villagename": "Dhobaul", "lgd_villagecode": 253469, "lgd_subdistrictcode": 1481, "lgd_districtcode": 189, "lgd_statecode": 10, "censuscode2001": "03853900", "censuscode2011": "253469", "censuscode2021": null, "level": "Village", "tru": "Rural", "no_hh": 233, "tot_p": 1476, "tot_m": 806, "tot_f": 670, "per_tot_m": 54.60704607, "per_tot_f": 45.39295393, "p_06": 266, "m_06": 145, "f_06": 121, "per_p_06": 18.02168022, "per_m_06": 54.5112782, "per_f_06": 45.4887218, "p_sc": 659, "m_sc": 352, "f_sc": 307, "per_p_sc": 44.64769648, "per_m_sc": 53.41426404, "per_f_sc": 46.58573596, "p_st": 0, "m_st": 0, "f_st": 0, "per_p_st": 0.0, "per_m_st": 0.0, "per_f_st": 0.0, "p_lit": 946, "m_lit": 568, "f_lit": 378, "per_p_lit": 64.09214092, "per_m_lit": 60.0422833, "per_f_lit": 39.9577167, "p_ill": 530, "m_ill": 238, "f_ill": 292, "per_p_ill": 35.90785908, "per_m_ill": 44.90566038, "per_f_ill": 55.09433962, "tot_work_p": 336, "tot_work_m": 297, "tot_work_f": 39, "per_tot_work_p": 22.76422764, "per_tot_work_m": 88.39285714, "per_tot_work_f": 11.60714286, "mainwork_p": 139, "mainwork_m": 126, "mainwork_f": 13, "per_mainwork_p": 9.41734417, "per_mainwork_m": 90.64748201, "per_mainwork_f": 9.35251799, "main_cl_p": 10, "main_cl_m": 9, "main_cl_f": 1, "per_main_cl_p": 7.1942446, "per_main_cl_m": 90.0, "per_main_cl_f": 10.0, "main_al_p": 42, "main_al_m": 39, "main_al_f": 3, "per_main_al_p": 30.21582734, "per_main_al_m": 92.85714286, "per_main_al_f": 7.14285714, "main_hh_p": 8, "main_hh_m": 7, "main_hh_f": 1, "per_main_hh_p": 5.75539568, "per_main_hh_m": 87.5, "per_main_hh_f": 12.5, "main_ot_p": 79, "main_ot_m": 71, "main_ot_f": 8, "per_main_ot_p": 56.83453237, "per_main_ot_m": 89.87341772, "per_main_ot_f": 10.12658228, "margwork_p": 197, "margwork_m": 171, "margwork_f": 26, "per_margwork_p": 13.34688347, "per_margwork_m": 86.80203046000001, "per_margwork_f": 13.19796954, "marg_cl_p": 35, "marg_cl_m": 31, "marg_cl_f": 4, "per_marg_cl_p": 17.76649746, "per_marg_cl_m": 88.57142857, "per_marg_cl_f": 11.42857143, "marg_al_p": 140, "marg_al_m": 123, "marg_al_f": 17, "per_marg_al_p": 71.06598985, "per_marg_al_m": 87.85714286, "per_marg_al_f": 12.14285714, "marg_hh_p": 6, "marg_hh_m": 5, "marg_hh_f": 1, "per_marg_hh_p": 3.04568528, "per_marg_hh_m": 83.33333332999999, "per_marg_hh_f": 16.66666667, "marg_ot_p": 16, "marg_ot_m": 12, "marg_ot_f": 4, "per_marg_ot_p": 8.12182741, "per_marg_ot_m": 75.0, "per_marg_ot_f": 25.0, "margwork_3_6_p": 195, "margwork_3_6_m": 169, "margwork_3_6_f": 26, "per_margwork_3_6_p": 98.98477157, "per_margwork_3_6_m": 86.66666667, "per_margwork_3_6_f": 13.33333333, "marg_cl_3_6_p": 35, "marg_cl_3_6_m": 31, "marg_cl_3_6_f": 4, "per_marg_cl_3_6_p": 17.76649746, "per_marg_cl_3_6_m": 88.57142857, "per_marg_cl_3_6_f": 11.42857143, "marg_al_3_6_p": 140, "marg_al_3_6_m": 123, "marg_al_3_6_f": 17, "per_marg_al_3_6_p": 71.06598985, "per_marg_al_3_6_m": 87.85714286, "per_marg_al_3_6_f": 12.14285714, "marg_hh_3_6_p": 6, "marg_hh_3_6_m": 5, "marg_hh_3_6_f": 1, "per_marg_hh_3_6_p": 3.04568528, "per_marg_hh_3_6_m": 83.33333332999999, "per_marg_hh_3_6_f": 16.66666667, "marg_ot_3_6_p": 14, "marg_ot_3_6_m": 10, "marg_ot_3_6_f": 4, "per_marg_ot_3_6_p": 7.10659898, "per_marg_ot_3_6_m": 71.42857143, "per_marg_ot_3_6_f": 28.57142857, "margwork_0_3_p": 2, "margwork_0_3_m": 2, "margwork_0_3_f": 0, "per_margwork_0_3_p": 1.01522843, "per_margwork_0_3_m": 100.0, "per_margwork_0_3_f": 0.0, "marg_cl_0_3_p": 0, "marg_cl_0_3_m": 0, "marg_cl_0_3_f": 0, "per_marg_cl_0_3_p": 0.0, "per_marg_cl_0_3_m": 0.0, "per_marg_cl_0_3_f": 0.0, "marg_al_0_3_p": 0, "marg_al_0_3_m": 0, "marg_al_0_3_f": 0, "per_marg_al_0_3_p": 0.0, "per_marg_al_0_3_m": 0.0, "per_marg_al_0_3_f": 0.0, "marg_hh_0_3_p": 0, "marg_hh_0_3_m": 0, "marg_hh_0_3_f": 0, "per_marg_hh_0_3_p": 0.0, "per_marg_hh_0_3_m": 0.0, "per_marg_hh_0_3_f": 0.0, "marg_ot_0_3_p": 2, "marg_ot_0_3_m": 2, "marg_ot_0_3_f": 0, "per_marg_ot_0_3_p": 1.01522843, "per_marg_ot_0_3_m": 100.0, "per_marg_ot_0_3_f": 0.0, "non_work_p": 1140, "non_work_m": 509, "non_work_f": 631, "per_non_work_p": 77.23577236, "per_non_work_m": 44.64912281, "per_non_work_f": 55.35087719, "per_hc_tot_tot": 100, "per_hc_tot_god": 31.1, "per_hc_tot_liv": 46.2, "per_hc_tot_dil": 22.7, "per_hc_res_tot": 100.0, "per_hc_res_god": 31.1, "per_hc_res_liv": 46.2, "per_hc_res_dil": 22.7, "per_hc_oth_tot": 0.0, "per_hc_oth_god": 0.0, "per_hc_oth_liv": 0.0, "per_hc_oth_dil": 0.0, "per_mt_grsbam": 23.9, "per_mt_plastic": 1.3, "per_mt_h_tiles": 8.4, "per_mt_m_tiles": 0.0, "per_mt_b_brick": 0.0, "per_mt_stone": 0.4, "per_mt_asbstos": 5.9, "per_mt_concrte": 60.1, "per_mt_oth": 0.0, "per_mw_grsbam": 0.4, "per_mw_plastic": 0.0, "per_mw_mud": 25.6, "per_mw_wood": 0.0, "per_mw_no_mrtr": 0.4, "per_mw_st_mrtr": 0.0, "per_mw_asbstos": 0.0, "per_mw_b_brick": 58.8, "per_mw_concrte": 14.7, "per_mw_oth": 0.0, "per_mf_mud": 58.4, "per_mf_wood": 0.0, "per_mf_b_brick": 13.4, "per_mf_stone": 0.0, "per_mf_cement": 24.8, "per_mf_fl_tile": 3.4, "per_mf_oth": 0.0, "per_dw_n_exrm": 0.0, "per_dw_1_room": 17.2, "per_dw_2_room": 31.9, "per_dw_3_room": 21.4, "per_dw_4_room": 12.6, "per_dw_5_room": 8.8, "per_dw_6_room": 8.0, "per_hhsize_1": 0.4, "per_hhsize_2": 5.0, "per_hhsize_3": 6.3, "per_hhsize_4": 16.0, "per_hhsize_5": 12.6, "per_hhsize_6_8": 39.5, "per_hhsize_9p": 20.2, "per_ow_owned": 99.6, "per_ow_rented": 0.4, "per_ow_oth": 0.0, "per_mc_none": 2.5, "per_mcouple_1": 60.9, "per_mcouple_2": 25.2, "per_mcouple_3": 6.7, "per_mcouple_4": 3.8, "per_mcouple_5p": 0.8, "per_dw_t_ts": 0.4, "per_dw_t_unts": 0.4, "per_dw_c_well": 0.4, "per_dw_unc_wel": 0.0, "per_dw_hpump": 89.9, "per_dw_tw_bore": 8.8, "per_dw_spring": 0.0, "per_dw_rivcan": 0.0, "per_dw_tank": 0.0, "per_dw_oth": 0.0, "per_loc_dw_wp": 56.7, "per_loc_dw_np": 31.9, "per_loc_dw_aw": 11.3, "per_light_elec": 71.0, "per_light_kero": 28.2, "per_light_solr": 0.4, "per_light_oil": 0.0, "per_light_oth": 0.4, "per_light_no": 0.0, "per_hh_latrine": 43.7, "per_fl_sewer": 0.0, "per_fl_septict": 43.3, "per_fl_othsys": 0.4, "per_pl_wslab": 0.0, "per_pl_without": 0.0, "per_ns_open": 0.0, "per_sl_ns_hum": 0.0, "per_sl_ns_anml": 0.0, "per_hh_no_lat": 56.3, "per_as_pub": 0.0, "per_as_open": 56.3, "per_hh_bathrm": 33.2, "per_hh_en_wrf": 9.7, "per_hh_no_btrm": 57.1, "per_wwoc_drain": 0.4, "per_wwoc_open": 26.5, "per_wwoc_nodrn": 73.1, "per_cook_fire": 0.0, "per_cook_resdu": 0.8, "per_cook_cwdng": 64.7, "per_cook_coal": 0.0, "per_cook_kero": 0.0, "per_cook_lpng": 33.2, "per_cook_elec": 0.0, "per_cook_biogs": 1.3, "per_cook_oth": 0.0, "per_cook_no": 0.0, "per_kf_inside": 97.9, "per_kf_in_has": 39.9, "per_kf_in_does": 58.0, "per_kf_outside": 2.1, "per_kf_out_has": 0.8, "per_kf_out_dos": 1.3, "per_kf_no_cook": 0.0, "per_hh_banking": 52.1, "per_hh_radio": 31.9, "per_hh_tv": 46.6, "per_hh_cmp_int": 0.8, "per_hh_cmp_wnt": 5.5, "per_hh_ph_ll": 0.4, "per_hh_ph_mob": 70.6, "per_hh_ph_bth": 1.3, "per_hh_bcycl": 46.6, "per_hh_2wheel": 18.9, "per_hh_4wheel": 1.7, "per_hh_tvcomp": 0.8, "per_hh_no_ast": 12.6, "per_hs_perma": 69.3, "per_hs_sperma": 10.1, "per_hs_temp": 20.6, "per_hs_servc": 20.2, "per_hs_nservc": 0.4, "per_hs_unclss": 0.0, "avghhsz_cy": 6.33476395, "st_areashape": 1067640.57939277, "st_lengthshape": 5260.913113457954}, "geometry": {"type": "Polygon", "coordinates": [[[84.35654878118987, 24.775332851870175], [84.35502763157993, 24.77645502421005], [84.353649088623, 24.777145586008757], [84.35175635628569, 24.77736039745644], [84.35127643224347, 24.77475513474304], [84.35051063463342, 24.773318141611895], [84.3501532623555, 24.771927487971727], [84.35137853835191, 24.771556644207184], [84.35740281132712, 24.77081495335522], [84.36067021308587, 24.77039775040598], [84.36536710395622, 24.767894503273244], [84.36689869917632, 24.767662718216233], [84.36786870900325, 24.76845078450292], [84.3681750273286, 24.770073258072824], [84.36771554894226, 24.771232154902666], [84.36781765594901, 24.77271552719163], [84.36194654213651, 24.773549916112007], [84.35878124648619, 24.774106172004956], [84.35704543904923, 24.77489419739596], [84.35654878118987, 24.775332851870175]]]}}]}