{"type": "FeatureCollection", "features": [{"type": "Feature", "properties": {"premiumdata.sde.IN_Village_PCA.area": 1.32646993, "objectid": 176670, "id": "21371279281137", "name": "Patabandha", "subdistrict": "Jamankira", "district": "Sambalpur", "state": "Odisha", "country": "India", "censusname": "Patabandha", "villagename_locallang": null, "lgd_villagename": "Patabandha", "lgd_villagecode": 381949, "lgd_subdistrictcode": 2792, "lgd_districtcode": 371, "lgd_statecode": 21, "censuscode2001": "00200400", "censuscode2011": "381949", "censuscode2021": null, "level": "Village", "tru": "Rural", "no_hh": 52, "tot_p": 200, "tot_m": 100, "tot_f": 100, "per_tot_m": 50.0, "per_tot_f": 50.0, "p_06": 21, "m_06": 9, "f_06": 12, "per_p_06": 10.5, "per_m_06": 42.85714286, "per_f_06": 57.14285714, "p_sc": 1, "m_sc": 1, "f_sc": 0, "per_p_sc": 0.5, "per_m_sc": 100.0, "per_f_sc": 0.0, "p_st": 190, "m_st": 95, "f_st": 95, "per_p_st": 95.0, "per_m_st": 50.0, "per_f_st": 50.0, "p_lit": 125, "m_lit": 72, "f_lit": 53, "per_p_lit": 62.5, "per_m_lit": 57.6, "per_f_lit": 42.4, "p_ill": 75, "m_ill": 28, "f_ill": 47, "per_p_ill": 37.5, "per_m_ill": 37.33333333, "per_f_ill": 62.66666667000001, "tot_work_p": 102, "tot_work_m": 59, "tot_work_f": 43, "per_tot_work_p": 51.0, "per_tot_work_m": 57.84313725, "per_tot_work_f": 42.15686275, "mainwork_p": 27, "mainwork_m": 23, "mainwork_f": 4, "per_mainwork_p": 13.5, "per_mainwork_m": 85.18518519, "per_mainwork_f": 14.81481481, "main_cl_p": 10, "main_cl_m": 10, "main_cl_f": 0, "per_main_cl_p": 37.03703704, "per_main_cl_m": 100.0, "per_main_cl_f": 0.0, "main_al_p": 10, "main_al_m": 10, "main_al_f": 0, "per_main_al_p": 37.03703704, "per_main_al_m": 100.0, "per_main_al_f": 0.0, "main_hh_p": 3, "main_hh_m": 1, "main_hh_f": 2, "per_main_hh_p": 11.11111111, "per_main_hh_m": 33.33333333, "per_main_hh_f": 66.66666667, "main_ot_p": 4, "main_ot_m": 2, "main_ot_f": 2, "per_main_ot_p": 14.81481481, "per_main_ot_m": 50.0, "per_main_ot_f": 50.0, "margwork_p": 75, "margwork_m": 36, "margwork_f": 39, "per_margwork_p": 37.5, "per_margwork_m": 48.0, "per_margwork_f": 52.0, "marg_cl_p": 25, "marg_cl_m": 7, "marg_cl_f": 18, "per_marg_cl_p": 33.33333333, "per_marg_cl_m": 28.0, "per_marg_cl_f": 72.0, "marg_al_p": 50, "marg_al_m": 29, "marg_al_f": 21, "per_marg_al_p": 66.66666667, "per_marg_al_m": 58.0, "per_marg_al_f": 42.0, "marg_hh_p": 0, "marg_hh_m": 0, "marg_hh_f": 0, "per_marg_hh_p": 0.0, "per_marg_hh_m": 0.0, "per_marg_hh_f": 0.0, "marg_ot_p": 0, "marg_ot_m": 0, "marg_ot_f": 0, "per_marg_ot_p": 0.0, "per_marg_ot_m": 0.0, "per_marg_ot_f": 0.0, "margwork_3_6_p": 53, "margwork_3_6_m": 36, "margwork_3_6_f": 17, "per_margwork_3_6_p": 70.66666667, "per_margwork_3_6_m": 67.9245283, "per_margwork_3_6_f": 32.0754717, "marg_cl_3_6_p": 15, "marg_cl_3_6_m": 7, "marg_cl_3_6_f": 8, "per_marg_cl_3_6_p": 20.0, "per_marg_cl_3_6_m": 46.66666667000001, "per_marg_cl_3_6_f": 53.33333333, "marg_al_3_6_p": 38, "marg_al_3_6_m": 29, "marg_al_3_6_f": 9, "per_marg_al_3_6_p": 50.66666667000001, "per_marg_al_3_6_m": 76.31578947000001, "per_marg_al_3_6_f": 23.68421053, "marg_hh_3_6_p": 0, "marg_hh_3_6_m": 0, "marg_hh_3_6_f": 0, "per_marg_hh_3_6_p": 0.0, "per_marg_hh_3_6_m": 0.0, "per_marg_hh_3_6_f": 0.0, "marg_ot_3_6_p": 0, "marg_ot_3_6_m": 0, "marg_ot_3_6_f": 0, "per_marg_ot_3_6_p": 0.0, "per_marg_ot_3_6_m": 0.0, "per_marg_ot_3_6_f": 0.0, "margwork_0_3_p": 22, "margwork_0_3_m": 0, "margwork_0_3_f": 22, "per_margwork_0_3_p": 29.33333333, "per_margwork_0_3_m": 0.0, "per_margwork_0_3_f": 100.0, "marg_cl_0_3_p": 10, "marg_cl_0_3_m": 0, "marg_cl_0_3_f": 10, "per_marg_cl_0_3_p": 13.33333333, "per_marg_cl_0_3_m": 0.0, "per_marg_cl_0_3_f": 100.0, "marg_al_0_3_p": 12, "marg_al_0_3_m": 0, "marg_al_0_3_f": 12, "per_marg_al_0_3_p": 16.0, "per_marg_al_0_3_m": 0.0, "per_marg_al_0_3_f": 100.0, "marg_hh_0_3_p": 0, "marg_hh_0_3_m": 0, "marg_hh_0_3_f": 0, "per_marg_hh_0_3_p": 0.0, "per_marg_hh_0_3_m": 0.0, "per_marg_hh_0_3_f": 0.0, "marg_ot_0_3_p": 0, "marg_ot_0_3_m": 0, "marg_ot_0_3_f": 0, "per_marg_ot_0_3_p": 0.0, "per_marg_ot_0_3_m": 0.0, "per_marg_ot_0_3_f": 0.0, "non_work_p": 98, "non_work_m": 41, "non_work_f": 57, "per_non_work_p": 49.0, "per_non_work_m": 41.83673469, "per_non_work_f": 58.16326531, "per_hc_tot_tot": 100, "per_hc_tot_god": 2.0, "per_hc_tot_liv": 98.0, "per_hc_tot_dil": 0.0, "per_hc_res_tot": 100.0, "per_hc_res_god": 2.0, "per_hc_res_liv": 98.0, "per_hc_res_dil": 0.0, "per_hc_oth_tot": 0.0, "per_hc_oth_god": 0.0, "per_hc_oth_liv": 0.0, "per_hc_oth_dil": 0.0, "per_mt_grsbam": 0.0, "per_mt_plastic": 0.0, "per_mt_h_tiles": 92.2, "per_mt_m_tiles": 0.0, "per_mt_b_brick": 0.0, "per_mt_stone": 0.0, "per_mt_asbstos": 5.9, "per_mt_concrte": 2.0, "per_mt_oth": 0.0, "per_mw_grsbam": 0.0, "per_mw_plastic": 0.0, "per_mw_mud": 72.5, "per_mw_wood": 0.0, "per_mw_no_mrtr": 0.0, "per_mw_st_mrtr": 0.0, "per_mw_asbstos": 0.0, "per_mw_b_brick": 27.5, "per_mw_concrte": 0.0, "per_mw_oth": 0.0, "per_mf_mud": 96.1, "per_mf_wood": 0.0, "per_mf_b_brick": 0.0, "per_mf_stone": 0.0, "per_mf_cement": 3.9, "per_mf_fl_tile": 0.0, "per_mf_oth": 0.0, "per_dw_n_exrm": 0.0, "per_dw_1_room": 56.9, "per_dw_2_room": 37.3, "per_dw_3_room": 5.9, "per_dw_4_room": 0.0, "per_dw_5_room": 0.0, "per_dw_6_room": 0.0, "per_hhsize_1": 9.8, "per_hhsize_2": 17.6, "per_hhsize_3": 9.8, "per_hhsize_4": 17.6, "per_hhsize_5": 21.6, "per_hhsize_6_8": 23.5, "per_hhsize_9p": 0.0, "per_ow_owned": 100.0, "per_ow_rented": 0.0, "per_ow_oth": 0.0, "per_mc_none": 27.5, "per_mcouple_1": 64.7, "per_mcouple_2": 5.9, "per_mcouple_3": 2.0, "per_mcouple_4": 0.0, "per_mcouple_5p": 0.0, "per_dw_t_ts": 0.0, "per_dw_t_unts": 0.0, "per_dw_c_well": 2.0, "per_dw_unc_wel": 9.8, "per_dw_hpump": 88.2, "per_dw_tw_bore": 0.0, "per_dw_spring": 0.0, "per_dw_rivcan": 0.0, "per_dw_tank": 0.0, "per_dw_oth": 0.0, "per_loc_dw_wp": 3.9, "per_loc_dw_np": 33.3, "per_loc_dw_aw": 62.7, "per_light_elec": 62.7, "per_light_kero": 37.3, "per_light_solr": 0.0, "per_light_oil": 0.0, "per_light_oth": 0.0, "per_light_no": 0.0, "per_hh_latrine": 0.0, "per_fl_sewer": 0.0, "per_fl_septict": 0.0, "per_fl_othsys": 0.0, "per_pl_wslab": 0.0, "per_pl_without": 0.0, "per_ns_open": 0.0, "per_sl_ns_hum": 0.0, "per_sl_ns_anml": 0.0, "per_hh_no_lat": 100.0, "per_as_pub": 0.0, "per_as_open": 100.0, "per_hh_bathrm": 2.0, "per_hh_en_wrf": 2.0, "per_hh_no_btrm": 96.1, "per_wwoc_drain": 0.0, "per_wwoc_open": 0.0, "per_wwoc_nodrn": 100.0, "per_cook_fire": 98.0, "per_cook_resdu": 2.0, "per_cook_cwdng": 0.0, "per_cook_coal": 0.0, "per_cook_kero": 0.0, "per_cook_lpng": 0.0, "per_cook_elec": 0.0, "per_cook_biogs": 0.0, "per_cook_oth": 0.0, "per_cook_no": 0.0, "per_kf_inside": 100.0, "per_kf_in_has": 100.0, "per_kf_in_does": 0.0, "per_kf_outside": 0.0, "per_kf_out_has": 0.0, "per_kf_out_dos": 0.0, "per_kf_no_cook": 0.0, "per_hh_banking": 82.4, "per_hh_radio": 13.7, "per_hh_tv": 0.0, "per_hh_cmp_int": 0.0, "per_hh_cmp_wnt": 2.0, "per_hh_ph_ll": 2.0, "per_hh_ph_mob": 11.8, "per_hh_ph_bth": 0.0, "per_hh_bcycl": 76.5, "per_hh_2wheel": 2.0, "per_hh_4wheel": 0.0, "per_hh_tvcomp": 0.0, "per_hh_no_ast": 23.5, "per_hs_perma": 27.5, "per_hs_sperma": 72.5, "per_hs_temp": 0.0, "per_hs_servc": 0.0, "per_hs_nservc": 0.0, "per_hs_unclss": 0.0, "avghhsz_cy": 3.84615385, "st_areashape": 1540426.568967735, "st_lengthshape": 5295.5152348756965}, "geometry": {"type": "Polygon", "coordinates": [[[84.41835961369517, 21.537068292927565], [84.41603854396915, 21.537584210178697], [84.41489768176167, 21.53639035127823], [84.41461246576067, 21.533206677320763], [84.41446985820932, 21.529359645380975], [84.41322573106667, 21.526057842407734], [84.41322573106667, 21.524067913628528], [84.41351094706768, 21.521812626834887], [84.41493702527617, 21.51955730586873], [84.41721875058943, 21.518363297949247], [84.41950047590268, 21.52048597163342], [84.42135437766353, 21.524067913628528], [84.42149698611318, 21.526057842407734], [84.42149698611318, 21.52910901515038], [84.42064133900843, 21.53295605372946], [84.41835961369517, 21.537068292927565]]]}}]}