{"type": "FeatureCollection", "features": [{"type": "Feature", "properties": {"premiumdata.sde.IN_Village_PCA.area": 11.31577718, "objectid": 53977, "id": "274964248638149", "name": "Kothale", "subdistrict": "Mohol", "district": "Solapur", "state": "Maharashtra", "country": "India", "censusname": "Kothale", "villagename_locallang": "\u0915\u094b\u0925\u0932\u0947", "lgd_villagename": "Kothale", "lgd_villagecode": 562281, "lgd_subdistrictcode": 4248, "lgd_districtcode": 496, "lgd_statecode": 27, "censuscode2001": "03710100", "censuscode2011": "562281", "censuscode2021": null, "level": "Village", "tru": "Rural", "no_hh": 369, "tot_p": 1874, "tot_m": 988, "tot_f": 886, "per_tot_m": 52.72145144, "per_tot_f": 47.27854856, "p_06": 254, "m_06": 123, "f_06": 131, "per_p_06": 13.55389541, "per_m_06": 48.42519685, "per_f_06": 51.57480315, "p_sc": 233, "m_sc": 123, "f_sc": 110, "per_p_sc": 12.43329776, "per_m_sc": 52.78969957, "per_f_sc": 47.21030043, "p_st": 58, "m_st": 31, "f_st": 27, "per_p_st": 3.09498399, "per_m_st": 53.44827586, "per_f_st": 46.55172414, "p_lit": 1245, "m_lit": 748, "f_lit": 497, "per_p_lit": 66.43543223, "per_m_lit": 60.08032129, "per_f_lit": 39.91967871, "p_ill": 629, "m_ill": 240, "f_ill": 389, "per_p_ill": 33.56456777, "per_m_ill": 38.15580286, "per_f_ill": 61.84419714, "tot_work_p": 1007, "tot_work_m": 579, "tot_work_f": 428, "per_tot_work_p": 53.73532551, "per_tot_work_m": 57.49751738000001, "per_tot_work_f": 42.50248262, "mainwork_p": 920, "mainwork_m": 560, "mainwork_f": 360, "per_mainwork_p": 49.09284952, "per_mainwork_m": 60.86956522000001, "per_mainwork_f": 39.13043478, "main_cl_p": 423, "main_cl_m": 275, "main_cl_f": 148, "per_main_cl_p": 45.97826087, "per_main_cl_m": 65.01182033, "per_main_cl_f": 34.98817967, "main_al_p": 439, "main_al_m": 233, "main_al_f": 206, "per_main_al_p": 47.7173913, "per_main_al_m": 53.07517084, "per_main_al_f": 46.92482916, "main_hh_p": 4, "main_hh_m": 3, "main_hh_f": 1, "per_main_hh_p": 0.43478261, "per_main_hh_m": 75.0, "per_main_hh_f": 25.0, "main_ot_p": 54, "main_ot_m": 49, "main_ot_f": 5, "per_main_ot_p": 5.86956522, "per_main_ot_m": 90.74074074, "per_main_ot_f": 9.25925926, "margwork_p": 87, "margwork_m": 19, "margwork_f": 68, "per_margwork_p": 4.64247599, "per_margwork_m": 21.83908046, "per_margwork_f": 78.16091954, "marg_cl_p": 58, "marg_cl_m": 7, "marg_cl_f": 51, "per_marg_cl_p": 66.66666667, "per_marg_cl_m": 12.06896552, "per_marg_cl_f": 87.93103448, "marg_al_p": 27, "marg_al_m": 10, "marg_al_f": 17, "per_marg_al_p": 31.03448276, "per_marg_al_m": 37.03703704, "per_marg_al_f": 62.96296296, "marg_hh_p": 0, "marg_hh_m": 0, "marg_hh_f": 0, "per_marg_hh_p": 0.0, "per_marg_hh_m": 0.0, "per_marg_hh_f": 0.0, "marg_ot_p": 2, "marg_ot_m": 2, "marg_ot_f": 0, "per_marg_ot_p": 2.29885057, "per_marg_ot_m": 100.0, "per_marg_ot_f": 0.0, "margwork_3_6_p": 37, "margwork_3_6_m": 11, "margwork_3_6_f": 26, "per_margwork_3_6_p": 42.52873563, "per_margwork_3_6_m": 29.72972973, "per_margwork_3_6_f": 70.27027027, "marg_cl_3_6_p": 23, "marg_cl_3_6_m": 4, "marg_cl_3_6_f": 19, "per_marg_cl_3_6_p": 26.43678161, "per_marg_cl_3_6_m": 17.39130435, "per_marg_cl_3_6_f": 82.60869565, "marg_al_3_6_p": 12, "marg_al_3_6_m": 5, "marg_al_3_6_f": 7, "per_marg_al_3_6_p": 13.79310345, "per_marg_al_3_6_m": 41.66666667000001, "per_marg_al_3_6_f": 58.33333333, "marg_hh_3_6_p": 0, "marg_hh_3_6_m": 0, "marg_hh_3_6_f": 0, "per_marg_hh_3_6_p": 0.0, "per_marg_hh_3_6_m": 0.0, "per_marg_hh_3_6_f": 0.0, "marg_ot_3_6_p": 2, "marg_ot_3_6_m": 2, "marg_ot_3_6_f": 0, "per_marg_ot_3_6_p": 2.29885057, "per_marg_ot_3_6_m": 100.0, "per_marg_ot_3_6_f": 0.0, "margwork_0_3_p": 50, "margwork_0_3_m": 8, "margwork_0_3_f": 42, "per_margwork_0_3_p": 57.47126437, "per_margwork_0_3_m": 16.0, "per_margwork_0_3_f": 84.0, "marg_cl_0_3_p": 35, "marg_cl_0_3_m": 3, "marg_cl_0_3_f": 32, "per_marg_cl_0_3_p": 40.22988506, "per_marg_cl_0_3_m": 8.57142857, "per_marg_cl_0_3_f": 91.42857143, "marg_al_0_3_p": 15, "marg_al_0_3_m": 5, "marg_al_0_3_f": 10, "per_marg_al_0_3_p": 17.24137931, "per_marg_al_0_3_m": 33.33333333, "per_marg_al_0_3_f": 66.66666667, "marg_hh_0_3_p": 0, "marg_hh_0_3_m": 0, "marg_hh_0_3_f": 0, "per_marg_hh_0_3_p": 0.0, "per_marg_hh_0_3_m": 0.0, "per_marg_hh_0_3_f": 0.0, "marg_ot_0_3_p": 0, "marg_ot_0_3_m": 0, "marg_ot_0_3_f": 0, "per_marg_ot_0_3_p": 0.0, "per_marg_ot_0_3_m": 0.0, "per_marg_ot_0_3_f": 0.0, "non_work_p": 867, "non_work_m": 409, "non_work_f": 458, "per_non_work_p": 46.26467449, "per_non_work_m": 47.17416378, "per_non_work_f": 52.82583622, "per_hc_tot_tot": 100, "per_hc_tot_god": 83.3, "per_hc_tot_liv": 13.7, "per_hc_tot_dil": 3.0, "per_hc_res_tot": 99.7, "per_hc_res_god": 83.0, "per_hc_res_liv": 13.7, "per_hc_res_dil": 3.0, "per_hc_oth_tot": 0.3, "per_hc_oth_god": 0.3, "per_hc_oth_liv": 0.0, "per_hc_oth_dil": 0.0, "per_mt_grsbam": 12.1, "per_mt_plastic": 0.3, "per_mt_h_tiles": 0.0, "per_mt_m_tiles": 0.0, "per_mt_b_brick": 0.5, "per_mt_stone": 0.0, "per_mt_asbstos": 66.8, "per_mt_concrte": 19.7, "per_mt_oth": 0.5, "per_mw_grsbam": 7.1, "per_mw_plastic": 0.5, "per_mw_mud": 4.9, "per_mw_wood": 0.3, "per_mw_no_mrtr": 9.9, "per_mw_st_mrtr": 21.9, "per_mw_asbstos": 27.1, "per_mw_b_brick": 27.1, "per_mw_concrte": 1.1, "per_mw_oth": 0.0, "per_mf_mud": 57.5, "per_mf_wood": 0.0, "per_mf_b_brick": 0.0, "per_mf_stone": 3.6, "per_mf_cement": 18.6, "per_mf_fl_tile": 15.3, "per_mf_oth": 4.9, "per_dw_n_exrm": 1.4, "per_dw_1_room": 46.6, "per_dw_2_room": 31.8, "per_dw_3_room": 10.1, "per_dw_4_room": 6.6, "per_dw_5_room": 1.6, "per_dw_6_room": 1.9, "per_hhsize_1": 3.8, "per_hhsize_2": 11.5, "per_hhsize_3": 5.2, "per_hhsize_4": 22.2, "per_hhsize_5": 24.1, "per_hhsize_6_8": 26.0, "per_hhsize_9p": 7.1, "per_ow_owned": 93.2, "per_ow_rented": 1.6, "per_ow_oth": 5.2, "per_mc_none": 9.3, "per_mcouple_1": 57.8, "per_mcouple_2": 24.1, "per_mcouple_3": 7.7, "per_mcouple_4": 1.1, "per_mcouple_5p": 0.0, "per_dw_t_ts": 0.3, "per_dw_t_unts": 43.0, "per_dw_c_well": 16.2, "per_dw_unc_wel": 30.1, "per_dw_hpump": 7.7, "per_dw_tw_bore": 2.5, "per_dw_spring": 0.3, "per_dw_rivcan": 0.0, "per_dw_tank": 0.0, "per_dw_oth": 0.0, "per_loc_dw_wp": 45.8, "per_loc_dw_np": 43.6, "per_loc_dw_aw": 10.7, "per_light_elec": 70.4, "per_light_kero": 29.3, "per_light_solr": 0.3, "per_light_oil": 0.0, "per_light_oth": 0.0, "per_light_no": 0.0, "per_hh_latrine": 19.7, "per_fl_sewer": 0.0, "per_fl_septict": 6.8, "per_fl_othsys": 0.3, "per_pl_wslab": 11.5, "per_pl_without": 0.0, "per_ns_open": 0.8, "per_sl_ns_hum": 0.0, "per_sl_ns_anml": 0.3, "per_hh_no_lat": 80.3, "per_as_pub": 12.3, "per_as_open": 67.9, "per_hh_bathrm": 22.7, "per_hh_en_wrf": 45.2, "per_hh_no_btrm": 32.1, "per_wwoc_drain": 10.4, "per_wwoc_open": 12.3, "per_wwoc_nodrn": 77.3, "per_cook_fire": 88.2, "per_cook_resdu": 1.6, "per_cook_cwdng": 0.8, "per_cook_coal": 0.0, "per_cook_kero": 1.1, "per_cook_lpng": 7.1, "per_cook_elec": 0.0, "per_cook_biogs": 0.5, "per_cook_oth": 0.3, "per_cook_no": 0.3, "per_kf_inside": 61.9, "per_kf_in_has": 37.0, "per_kf_in_does": 24.9, "per_kf_outside": 37.8, "per_kf_out_has": 5.8, "per_kf_out_dos": 32.1, "per_kf_no_cook": 0.3, "per_hh_banking": 77.5, "per_hh_radio": 30.1, "per_hh_tv": 34.5, "per_hh_cmp_int": 0.0, "per_hh_cmp_wnt": 5.2, "per_hh_ph_ll": 4.1, "per_hh_ph_mob": 66.6, "per_hh_ph_bth": 4.1, "per_hh_bcycl": 42.7, "per_hh_2wheel": 33.4, "per_hh_4wheel": 4.1, "per_hh_tvcomp": 0.3, "per_hh_no_ast": 13.7, "per_hs_perma": 78.9, "per_hs_sperma": 15.9, "per_hs_temp": 4.7, "per_hs_servc": 2.2, "per_hs_nservc": 2.5, "per_hs_unclss": 0.5, "avghhsz_cy": 5.07859079, "st_areashape": 12528556.94442811, "st_lengthshape": 14289.433202961347}, "geometry": {"type": "Polygon", "coordinates": [[[75.578313915611, 17.65622242642627], [75.57289521493514, 17.65694534078379], [75.57346564603887, 17.65495228322432], [75.5713816704624, 17.64354142339875], [75.56903734335361, 17.638035999366693], [75.57273854066474, 17.635693705824906], [75.57618489670955, 17.635127431433443], [75.57796749469473, 17.631276720959235], [75.58307760879917, 17.62957785167647], [75.59127755917167, 17.62651984594326], [75.5981702712613, 17.624367886005757], [75.60969773775305, 17.62595354359173], [75.60981657767864, 17.629804367763807], [75.61112381685987, 17.63342859844046], [75.61278757491948, 17.63841179642425], [75.6124310551428, 17.645206844398754], [75.60815281961901, 17.646679070896873], [75.60494414342533, 17.648264532194876], [75.59852679103801, 17.65075594366615], [75.59258479745462, 17.652001636047395], [75.58890076155869, 17.653360563439268], [75.5842660071565, 17.655059208468895], [75.57939357290323, 17.65607838830687], [75.578313915611, 17.65622242642627]]]}}]}