{"type": "FeatureCollection", "features": [{"type": "Feature", "properties": {"premiumdata.sde.IN_Village_PCA.area": 4.69783767, "objectid": 518178, "id": "193132405125711", "name": "Jala Bishwanathpur", "subdistrict": "Panchla", "district": "Howrah", "state": "West Bengal", "country": "India", "censusname": "Jala Bishwanathpur", "villagename_locallang": null, "lgd_villagename": "Jala Bishwanathpur", "lgd_villagecode": 332882, "lgd_subdistrictcode": 2405, "lgd_districtcode": 313, "lgd_statecode": 19, "censuscode2001": "03827900", "censuscode2011": "332882", "censuscode2021": null, "level": "Village", "tru": "Rural", "no_hh": 1873, "tot_p": 8569, "tot_m": 4460, "tot_f": 4109, "per_tot_m": 52.04808029, "per_tot_f": 47.95191971, "p_06": 1112, "m_06": 586, "f_06": 526, "per_p_06": 12.97701015, "per_m_06": 52.69784173, "per_f_06": 47.30215827, "p_sc": 3544, "m_sc": 1828, "f_sc": 1716, "per_p_sc": 41.35838488, "per_m_sc": 51.58013544, "per_f_sc": 48.41986456, "p_st": 0, "m_st": 0, "f_st": 0, "per_p_st": 0.0, "per_m_st": 0.0, "per_f_st": 0.0, "p_lit": 5283, "m_lit": 2897, "f_lit": 2386, "per_p_lit": 61.6524682, "per_m_lit": 54.83626727, "per_f_lit": 45.16373273, "p_ill": 3286, "m_ill": 1563, "f_ill": 1723, "per_p_ill": 38.3475318, "per_m_ill": 47.56542909, "per_f_ill": 52.43457091, "tot_work_p": 3917, "tot_work_m": 2833, "tot_work_f": 1084, "per_tot_work_p": 45.71128486, "per_tot_work_m": 72.32575951, "per_tot_work_f": 27.67424049, "mainwork_p": 2335, "mainwork_m": 2001, "mainwork_f": 334, "per_mainwork_p": 27.24938733, "per_mainwork_m": 85.69593148, "per_mainwork_f": 14.30406852, "main_cl_p": 214, "main_cl_m": 202, "main_cl_f": 12, "per_main_cl_p": 9.16488223, "per_main_cl_m": 94.39252336, "per_main_cl_f": 5.60747664, "main_al_p": 207, "main_al_m": 200, "main_al_f": 7, "per_main_al_p": 8.86509636, "per_main_al_m": 96.61835749000001, "per_main_al_f": 3.38164251, "main_hh_p": 1206, "main_hh_m": 981, "main_hh_f": 225, "per_main_hh_p": 51.64882227, "per_main_hh_m": 81.34328358, "per_main_hh_f": 18.65671642, "main_ot_p": 708, "main_ot_m": 618, "main_ot_f": 90, "per_main_ot_p": 30.32119914, "per_main_ot_m": 87.28813559, "per_main_ot_f": 12.71186441, "margwork_p": 1582, "margwork_m": 832, "margwork_f": 750, "per_margwork_p": 18.46189754, "per_margwork_m": 52.59165613, "per_margwork_f": 47.40834387, "marg_cl_p": 46, "marg_cl_m": 25, "marg_cl_f": 21, "per_marg_cl_p": 2.90771176, "per_marg_cl_m": 54.34782609, "per_marg_cl_f": 45.65217391, "marg_al_p": 252, "marg_al_m": 184, "marg_al_f": 68, "per_marg_al_p": 15.92920354, "per_marg_al_m": 73.01587302, "per_marg_al_f": 26.98412698, "marg_hh_p": 882, "marg_hh_m": 511, "marg_hh_f": 371, "per_marg_hh_p": 55.75221239, "per_marg_hh_m": 57.93650794000001, "per_marg_hh_f": 42.06349206, "marg_ot_p": 402, "marg_ot_m": 112, "marg_ot_f": 290, "per_marg_ot_p": 25.41087231, "per_marg_ot_m": 27.86069652, "per_marg_ot_f": 72.13930348000001, "margwork_3_6_p": 949, "margwork_3_6_m": 540, "margwork_3_6_f": 409, "per_margwork_3_6_p": 59.98735777, "per_margwork_3_6_m": 56.90200211, "per_margwork_3_6_f": 43.09799789, "marg_cl_3_6_p": 24, "marg_cl_3_6_m": 12, "marg_cl_3_6_f": 12, "per_marg_cl_3_6_p": 1.517067, "per_marg_cl_3_6_m": 50.0, "per_marg_cl_3_6_f": 50.0, "marg_al_3_6_p": 93, "marg_al_3_6_m": 58, "marg_al_3_6_f": 35, "per_marg_al_3_6_p": 5.87863464, "per_marg_al_3_6_m": 62.3655914, "per_marg_al_3_6_f": 37.6344086, "marg_hh_3_6_p": 613, "marg_hh_3_6_m": 387, "marg_hh_3_6_f": 226, "per_marg_hh_3_6_p": 38.74841972, "per_marg_hh_3_6_m": 63.13213703, "per_marg_hh_3_6_f": 36.86786297, "marg_ot_3_6_p": 219, "marg_ot_3_6_m": 83, "marg_ot_3_6_f": 136, "per_marg_ot_3_6_p": 13.84323641, "per_marg_ot_3_6_m": 37.89954338, "per_marg_ot_3_6_f": 62.10045662, "margwork_0_3_p": 633, "margwork_0_3_m": 292, "margwork_0_3_f": 341, "per_margwork_0_3_p": 40.01264223, "per_margwork_0_3_m": 46.12954186, "per_margwork_0_3_f": 53.87045814, "marg_cl_0_3_p": 22, "marg_cl_0_3_m": 13, "marg_cl_0_3_f": 9, "per_marg_cl_0_3_p": 1.39064475, "per_marg_cl_0_3_m": 59.09090909, "per_marg_cl_0_3_f": 40.90909091, "marg_al_0_3_p": 159, "marg_al_0_3_m": 126, "marg_al_0_3_f": 33, "per_marg_al_0_3_p": 10.0505689, "per_marg_al_0_3_m": 79.24528302, "per_marg_al_0_3_f": 20.75471698, "marg_hh_0_3_p": 269, "marg_hh_0_3_m": 124, "marg_hh_0_3_f": 145, "per_marg_hh_0_3_p": 17.00379267, "per_marg_hh_0_3_m": 46.09665428, "per_marg_hh_0_3_f": 53.90334572, "marg_ot_0_3_p": 183, "marg_ot_0_3_m": 29, "marg_ot_0_3_f": 154, "per_marg_ot_0_3_p": 11.5676359, "per_marg_ot_0_3_m": 15.84699454, "per_marg_ot_0_3_f": 84.15300546, "non_work_p": 4652, "non_work_m": 1627, "non_work_f": 3025, "per_non_work_p": 54.28871514, "per_non_work_m": 34.97420464, "per_non_work_f": 65.02579536, "per_hc_tot_tot": 100, "per_hc_tot_god": 42.4, "per_hc_tot_liv": 32.9, "per_hc_tot_dil": 24.7, "per_hc_res_tot": 96.8, "per_hc_res_god": 41.9, "per_hc_res_liv": 31.6, "per_hc_res_dil": 23.3, "per_hc_oth_tot": 3.2, "per_hc_oth_god": 0.6, "per_hc_oth_liv": 1.3, "per_hc_oth_dil": 1.3, "per_mt_grsbam": 2.2, "per_mt_plastic": 1.3, "per_mt_h_tiles": 13.8, "per_mt_m_tiles": 39.8, "per_mt_b_brick": 0.4, "per_mt_stone": 1.4, "per_mt_asbstos": 1.6, "per_mt_concrte": 39.4, "per_mt_oth": 0.1, "per_mw_grsbam": 12.0, "per_mw_plastic": 0.3, "per_mw_mud": 18.2, "per_mw_wood": 0.0, "per_mw_no_mrtr": 0.4, "per_mw_st_mrtr": 0.7, "per_mw_asbstos": 0.0, "per_mw_b_brick": 66.9, "per_mw_concrte": 1.5, "per_mw_oth": 0.1, "per_mf_mud": 56.6, "per_mf_wood": 0.1, "per_mf_b_brick": 1.1, "per_mf_stone": 0.6, "per_mf_cement": 40.9, "per_mf_fl_tile": 0.8, "per_mf_oth": 0.0, "per_dw_n_exrm": 1.4, "per_dw_1_room": 63.7, "per_dw_2_room": 27.6, "per_dw_3_room": 4.1, "per_dw_4_room": 2.2, "per_dw_5_room": 0.1, "per_dw_6_room": 0.9, "per_hhsize_1": 2.5, "per_hhsize_2": 7.7, "per_hhsize_3": 19.2, "per_hhsize_4": 27.5, "per_hhsize_5": 20.7, "per_hhsize_6_8": 18.3, "per_hhsize_9p": 4.1, "per_ow_owned": 91.8, "per_ow_rented": 0.1, "per_ow_oth": 8.2, "per_mc_none": 9.4, "per_mcouple_1": 77.3, "per_mcouple_2": 10.8, "per_mcouple_3": 1.7, "per_mcouple_4": 0.5, "per_mcouple_5p": 0.3, "per_dw_t_ts": 0.8, "per_dw_t_unts": 0.2, "per_dw_c_well": 0.5, "per_dw_unc_wel": 0.0, "per_dw_hpump": 76.7, "per_dw_tw_bore": 21.8, "per_dw_spring": 0.0, "per_dw_rivcan": 0.0, "per_dw_tank": 0.0, "per_dw_oth": 0.1, "per_loc_dw_wp": 3.3, "per_loc_dw_np": 29.9, "per_loc_dw_aw": 66.8, "per_light_elec": 68.0, "per_light_kero": 30.0, "per_light_solr": 0.3, "per_light_oil": 0.0, "per_light_oth": 0.1, "per_light_no": 1.6, "per_hh_latrine": 41.0, "per_fl_sewer": 0.9, "per_fl_septict": 4.8, "per_fl_othsys": 2.5, "per_pl_wslab": 29.5, "per_pl_without": 0.0, "per_ns_open": 0.9, "per_sl_ns_hum": 0.0, "per_sl_ns_anml": 2.4, "per_hh_no_lat": 59.0, "per_as_pub": 7.9, "per_as_open": 51.2, "per_hh_bathrm": 11.5, "per_hh_en_wrf": 5.6, "per_hh_no_btrm": 82.8, "per_wwoc_drain": 8.2, "per_wwoc_open": 14.9, "per_wwoc_nodrn": 76.9, "per_cook_fire": 80.4, "per_cook_resdu": 8.0, "per_cook_cwdng": 0.5, "per_cook_coal": 0.7, "per_cook_kero": 0.3, "per_cook_lpng": 9.9, "per_cook_elec": 0.1, "per_cook_biogs": 0.1, "per_cook_oth": 0.0, "per_cook_no": 0.1, "per_kf_inside": 91.2, "per_kf_in_has": 43.6, "per_kf_in_does": 47.6, "per_kf_outside": 8.8, "per_kf_out_has": 6.6, "per_kf_out_dos": 2.2, "per_kf_no_cook": 0.1, "per_hh_banking": 31.4, "per_hh_radio": 31.0, "per_hh_tv": 34.1, "per_hh_cmp_int": 0.4, "per_hh_cmp_wnt": 3.0, "per_hh_ph_ll": 1.3, "per_hh_ph_mob": 40.4, "per_hh_ph_bth": 2.4, "per_hh_bcycl": 31.7, "per_hh_2wheel": 6.9, "per_hh_4wheel": 0.6, "per_hh_tvcomp": 0.4, "per_hh_no_ast": 35.8, "per_hs_perma": 69.0, "per_hs_sperma": 27.5, "per_hs_temp": 3.2, "per_hs_servc": 1.5, "per_hs_nservc": 1.7, "per_hs_unclss": 0.2, "avghhsz_cy": 4.57501335, "st_areashape": 5534494.607178615, "st_lengthshape": 12577.370079080447}, "geometry": {"type": "Polygon", "coordinates": [[[88.10347999896368, 22.569729999095497], [88.10418999951648, 22.568409999541995], [88.10493999935395, 22.56717999900785], [88.10515999946196, 22.566719999819323], [88.10523999892959, 22.566379999035966], [88.10499999873008, 22.565659999488908], [88.10418999951648, 22.563939999361907], [88.1036199996041, 22.563149999135483], [88.10353999923815, 22.562639998958446], [88.10382999876806, 22.56123999943114], [88.10403999972867, 22.560259999186446], [88.10380999867657, 22.559959998684334], [88.10325999975396, 22.55961999948332], [88.10263999871454, 22.55936999960926], [88.10183999864839, 22.559189999220255], [88.10123999949708, 22.559099998937644], [88.10074999905233, 22.558899999481998], [88.10034999991754, 22.55859999933998], [88.10027999869904, 22.558299998545433], [88.10030999973456, 22.557639999146215], [88.10035999906495, 22.556699998773336], [88.10008999962655, 22.55588999940337], [88.09965999945622, 22.55519999913823], [88.09947999863284, 22.554769999199216], [88.09945999854138, 22.55429999999003], [88.09960999922751, 22.553779999299216], [88.09987999956425, 22.553369999430657], [88.10056999912726, 22.5525199994841], [88.10102999943479, 22.551929999282397], [88.10119999931409, 22.551439998898513], [88.10117999922262, 22.550529999731708], [88.10112999989224, 22.549599999478637], [88.10093999902311, 22.54927999891449], [88.10058999921874, 22.54893999910941], [88.09988999871167, 22.548459999422462], [88.09932999884502, 22.548000000022455], [88.09935999898225, 22.547989999459343], [88.09988999871167, 22.547909999076712], [88.10010999971803, 22.5479399999516], [88.10071999981339, 22.548000000022455], [88.10105999867372, 22.54776999850296], [88.10129999887322, 22.54758999957142], [88.1014599996051, 22.547299998678742], [88.10159999934719, 22.54662999909225], [88.10151999987959, 22.546459999348503], [88.10103999858221, 22.546319999792704], [88.10063999944745, 22.546119999232747], [88.10035999906495, 22.545859999067055], [88.10019999923139, 22.545339998925602], [88.10022999936864, 22.5449899994185], [88.10045999952241, 22.544699999699713], [88.10086999960123, 22.54457999915148], [88.10168999886055, 22.544499999281147], [88.10191999901433, 22.54435999939647], [88.10212999907661, 22.543919999664148], [88.10211999903089, 22.543299999810216], [88.10183999864839, 22.54289999877442], [88.10124999954282, 22.54244999923116], [88.10016999909416, 22.54194999903214], [88.09996999907762, 22.541729999233695], [88.09994999898613, 22.541329999456103], [88.0999800000217, 22.54073999953533], [88.1002499994601, 22.540119999502956], [88.10060999931021, 22.539829998679192], [88.10094999906885, 22.539689999865914], [88.10120999935985, 22.539489999655576], [88.10142999856954, 22.539229998617113], [88.10172999904354, 22.538779998726106], [88.10284999967514, 22.537009999361263], [88.10308999897634, 22.53628999920239], [88.10338999945031, 22.536509999372708], [88.10550999926632, 22.53760999911467], [88.10696999875825, 22.538149999401494], [88.10811999862878, 22.53801999934111], [88.10834999878256, 22.53776999932765], [88.10853999965168, 22.538679998827693], [88.10894999973048, 22.53969999937102], [88.11027999952606, 22.542049999880575], [88.11211999895961, 22.545499999305445], [88.11297999930024, 22.546969998781226], [88.11331999995718, 22.54815999897769], [88.11338999937904, 22.548589998776613], [88.11326999883015, 22.54886999894793], [88.11307999975764, 22.549029999383357], [88.11268999977031, 22.549439999704127], [88.11252999903841, 22.549769999502438], [88.11264999958735, 22.550949999263295], [88.11279999937517, 22.551549999813382], [88.11295999920875, 22.55167999957486], [88.11314999917954, 22.551779999180397], [88.11377999936639, 22.55193999955995], [88.11394999924569, 22.552289999691478], [88.1145699993868, 22.55367999865449], [88.11532999927, 22.555719999454084], [88.11565999988122, 22.556979999077715], [88.11605999901597, 22.55876999905813], [88.11622999889528, 22.55959999921143], [88.11645999994737, 22.560129999214887], [88.11726000001354, 22.560989999175415], [88.11756999963495, 22.561329999146785], [88.11780999893611, 22.561629999157372], [88.11801999989672, 22.561749998978907], [88.11775999960574, 22.5622399992402], [88.11749999931472, 22.562779999373795], [88.11752999945196, 22.563059998948518], [88.1178499991191, 22.563829999202586], [88.11806000007971, 22.564379999951235], [88.11812999950159, 22.565329999545998], [88.11804999913565, 22.56641999926921], [88.11780999893611, 22.566899998674717], [88.11743999904029, 22.567159999002907], [88.11654999946073, 22.567459999601848], [88.11560999875417, 22.56781999929294], [88.11468999903741, 22.568139999150876], [88.1141699993537, 22.56823999926521], [88.11355999925836, 22.568249999189717], [88.11311999904231, 22.56826999903652], [88.1127599991922, 22.56846999900407], [88.11200999935477, 22.56936999941503], [88.11148999877277, 22.570189999853678], [88.11131999889345, 22.570589998904552], [88.11111999887692, 22.571209998872312], [88.11093999985017, 22.571889999831317], [88.11081999930124, 22.574149999872365], [88.11080999925552, 22.574909999296583], [88.11068999960492, 22.575169998617685], [88.11037999908518, 22.57542999910722], [88.11007999950955, 22.575569998976228], [88.10984999935577, 22.575569998976228], [88.10943999927696, 22.57384999890232], [88.10849999946869, 22.572639998840526], [88.10763999912808, 22.57202999914879], [88.10641999893734, 22.57196999874771], [88.10557999958654, 22.572249999566438], [88.10393999927122, 22.572149999043084], [88.10360999955833, 22.57152999915596], [88.10366999893448, 22.57037999892544], [88.10347999896368, 22.569729999095497]]]}}]}