{"type": "FeatureCollection", "features": [{"type": "Feature", "properties": {"premiumdata.sde.IN_Village_PCA.area": 6.51288979, "objectid": 325379, "id": "664407350711", "name": "Chhochhi", "subdistrict": "Beri", "district": "Jhajjar", "state": "Haryana", "country": "India", "censusname": "Chhochhi(13)", "villagename_locallang": null, "lgd_villagename": "Chhochhi", "lgd_villagecode": 61735, "lgd_subdistrictcode": 407, "lgd_districtcode": 64, "lgd_statecode": 6, "censuscode2001": "00479000", "censuscode2011": "061735", "censuscode2021": null, "level": "Village", "tru": "Rural", "no_hh": 385, "tot_p": 2056, "tot_m": 1085, "tot_f": 971, "per_tot_m": 52.77237354, "per_tot_f": 47.22762646, "p_06": 279, "m_06": 152, "f_06": 127, "per_p_06": 13.57003891, "per_m_06": 54.48028674, "per_f_06": 45.51971326, "p_sc": 248, "m_sc": 134, "f_sc": 114, "per_p_sc": 12.06225681, "per_m_sc": 54.03225806, "per_f_sc": 45.96774194, "p_st": 0, "m_st": 0, "f_st": 0, "per_p_st": 0.0, "per_m_st": 0.0, "per_f_st": 0.0, "p_lit": 1370, "m_lit": 793, "f_lit": 577, "per_p_lit": 66.63424125, "per_m_lit": 57.88321168, "per_f_lit": 42.11678832, "p_ill": 686, "m_ill": 292, "f_ill": 394, "per_p_ill": 33.36575875, "per_m_ill": 42.56559767, "per_f_ill": 57.43440233, "tot_work_p": 757, "tot_work_m": 539, "tot_work_f": 218, "per_tot_work_p": 36.81906615, "per_tot_work_m": 71.20211361, "per_tot_work_f": 28.79788639, "mainwork_p": 650, "mainwork_m": 438, "mainwork_f": 212, "per_mainwork_p": 31.61478599, "per_mainwork_m": 67.38461538, "per_mainwork_f": 32.61538462, "main_cl_p": 496, "main_cl_m": 310, "main_cl_f": 186, "per_main_cl_p": 76.30769231, "per_main_cl_m": 62.5, "per_main_cl_f": 37.5, "main_al_p": 22, "main_al_m": 9, "main_al_f": 13, "per_main_al_p": 3.38461538, "per_main_al_m": 40.90909091, "per_main_al_f": 59.09090909, "main_hh_p": 1, "main_hh_m": 1, "main_hh_f": 0, "per_main_hh_p": 0.15384615, "per_main_hh_m": 100.0, "per_main_hh_f": 0.0, "main_ot_p": 131, "main_ot_m": 118, "main_ot_f": 13, "per_main_ot_p": 20.15384615, "per_main_ot_m": 90.07633588, "per_main_ot_f": 9.92366412, "margwork_p": 107, "margwork_m": 101, "margwork_f": 6, "per_margwork_p": 5.20428016, "per_margwork_m": 94.39252336, "per_margwork_f": 5.60747664, "marg_cl_p": 4, "marg_cl_m": 2, "marg_cl_f": 2, "per_marg_cl_p": 3.73831776, "per_marg_cl_m": 50.0, "per_marg_cl_f": 50.0, "marg_al_p": 93, "marg_al_m": 89, "marg_al_f": 4, "per_marg_al_p": 86.91588785, "per_marg_al_m": 95.69892473, "per_marg_al_f": 4.30107527, "marg_hh_p": 6, "marg_hh_m": 6, "marg_hh_f": 0, "per_marg_hh_p": 5.60747664, "per_marg_hh_m": 100.0, "per_marg_hh_f": 0.0, "marg_ot_p": 4, "marg_ot_m": 4, "marg_ot_f": 0, "per_marg_ot_p": 3.73831776, "per_marg_ot_m": 100.0, "per_marg_ot_f": 0.0, "margwork_3_6_p": 106, "margwork_3_6_m": 100, "margwork_3_6_f": 6, "per_margwork_3_6_p": 99.06542056, "per_margwork_3_6_m": 94.33962264, "per_margwork_3_6_f": 5.66037736, "marg_cl_3_6_p": 4, "marg_cl_3_6_m": 2, "marg_cl_3_6_f": 2, "per_marg_cl_3_6_p": 3.73831776, "per_marg_cl_3_6_m": 50.0, "per_marg_cl_3_6_f": 50.0, "marg_al_3_6_p": 93, "marg_al_3_6_m": 89, "marg_al_3_6_f": 4, "per_marg_al_3_6_p": 86.91588785, "per_marg_al_3_6_m": 95.69892473, "per_marg_al_3_6_f": 4.30107527, "marg_hh_3_6_p": 5, "marg_hh_3_6_m": 5, "marg_hh_3_6_f": 0, "per_marg_hh_3_6_p": 4.6728972, "per_marg_hh_3_6_m": 100.0, "per_marg_hh_3_6_f": 0.0, "marg_ot_3_6_p": 4, "marg_ot_3_6_m": 4, "marg_ot_3_6_f": 0, "per_marg_ot_3_6_p": 3.73831776, "per_marg_ot_3_6_m": 100.0, "per_marg_ot_3_6_f": 0.0, "margwork_0_3_p": 1, "margwork_0_3_m": 1, "margwork_0_3_f": 0, "per_margwork_0_3_p": 0.93457944, "per_margwork_0_3_m": 100.0, "per_margwork_0_3_f": 0.0, "marg_cl_0_3_p": 0, "marg_cl_0_3_m": 0, "marg_cl_0_3_f": 0, "per_marg_cl_0_3_p": 0.0, "per_marg_cl_0_3_m": 0.0, "per_marg_cl_0_3_f": 0.0, "marg_al_0_3_p": 0, "marg_al_0_3_m": 0, "marg_al_0_3_f": 0, "per_marg_al_0_3_p": 0.0, "per_marg_al_0_3_m": 0.0, "per_marg_al_0_3_f": 0.0, "marg_hh_0_3_p": 1, "marg_hh_0_3_m": 1, "marg_hh_0_3_f": 0, "per_marg_hh_0_3_p": 0.93457944, "per_marg_hh_0_3_m": 100.0, "per_marg_hh_0_3_f": 0.0, "marg_ot_0_3_p": 0, "marg_ot_0_3_m": 0, "marg_ot_0_3_f": 0, "per_marg_ot_0_3_p": 0.0, "per_marg_ot_0_3_m": 0.0, "per_marg_ot_0_3_f": 0.0, "non_work_p": 1299, "non_work_m": 546, "non_work_f": 753, "per_non_work_p": 63.18093385, "per_non_work_m": 42.03233256, "per_non_work_f": 57.96766744, "per_hc_tot_tot": 100, "per_hc_tot_god": 60.9, "per_hc_tot_liv": 34.4, "per_hc_tot_dil": 4.6, "per_hc_res_tot": 98.7, "per_hc_res_god": 60.2, "per_hc_res_liv": 33.9, "per_hc_res_dil": 4.6, "per_hc_oth_tot": 1.3, "per_hc_oth_god": 0.8, "per_hc_oth_liv": 0.5, "per_hc_oth_dil": 0.0, "per_mt_grsbam": 12.6, "per_mt_plastic": 0.0, "per_mt_h_tiles": 0.0, "per_mt_m_tiles": 0.0, "per_mt_b_brick": 26.2, "per_mt_stone": 58.4, "per_mt_asbstos": 0.3, "per_mt_concrte": 2.6, "per_mt_oth": 0.0, "per_mw_grsbam": 0.0, "per_mw_plastic": 0.0, "per_mw_mud": 0.0, "per_mw_wood": 0.0, "per_mw_no_mrtr": 0.0, "per_mw_st_mrtr": 0.0, "per_mw_asbstos": 0.0, "per_mw_b_brick": 99.2, "per_mw_concrte": 0.8, "per_mw_oth": 0.0, "per_mf_mud": 9.8, "per_mf_wood": 0.0, "per_mf_b_brick": 56.6, "per_mf_stone": 14.4, "per_mf_cement": 18.8, "per_mf_fl_tile": 0.5, "per_mf_oth": 0.0, "per_dw_n_exrm": 1.3, "per_dw_1_room": 10.5, "per_dw_2_room": 36.0, "per_dw_3_room": 32.4, "per_dw_4_room": 13.9, "per_dw_5_room": 3.9, "per_dw_6_room": 2.1, "per_hhsize_1": 2.6, "per_hhsize_2": 5.7, "per_hhsize_3": 10.8, "per_hhsize_4": 20.6, "per_hhsize_5": 18.5, "per_hhsize_6_8": 32.1, "per_hhsize_9p": 9.8, "per_ow_owned": 99.5, "per_ow_rented": 0.5, "per_ow_oth": 0.0, "per_mc_none": 14.7, "per_mcouple_1": 54.2, "per_mcouple_2": 22.4, "per_mcouple_3": 6.9, "per_mcouple_4": 1.8, "per_mcouple_5p": 0.0, "per_dw_t_ts": 17.0, "per_dw_t_unts": 0.0, "per_dw_c_well": 0.0, "per_dw_unc_wel": 0.3, "per_dw_hpump": 82.8, "per_dw_tw_bore": 0.0, "per_dw_spring": 0.0, "per_dw_rivcan": 0.0, "per_dw_tank": 0.0, "per_dw_oth": 0.0, "per_loc_dw_wp": 28.0, "per_loc_dw_np": 23.7, "per_loc_dw_aw": 48.3, "per_light_elec": 98.2, "per_light_kero": 1.8, "per_light_solr": 0.0, "per_light_oil": 0.0, "per_light_oth": 0.0, "per_light_no": 0.0, "per_hh_latrine": 52.4, "per_fl_sewer": 0.3, "per_fl_septict": 52.2, "per_fl_othsys": 0.0, "per_pl_wslab": 0.0, "per_pl_without": 0.0, "per_ns_open": 0.0, "per_sl_ns_hum": 0.0, "per_sl_ns_anml": 0.0, "per_hh_no_lat": 47.6, "per_as_pub": 0.0, "per_as_open": 47.6, "per_hh_bathrm": 76.1, "per_hh_en_wrf": 3.1, "per_hh_no_btrm": 20.8, "per_wwoc_drain": 0.3, "per_wwoc_open": 92.5, "per_wwoc_nodrn": 7.2, "per_cook_fire": 29.6, "per_cook_resdu": 19.8, "per_cook_cwdng": 36.0, "per_cook_coal": 0.0, "per_cook_kero": 0.3, "per_cook_lpng": 13.9, "per_cook_elec": 0.0, "per_cook_biogs": 0.0, "per_cook_oth": 0.0, "per_cook_no": 0.5, "per_kf_inside": 94.9, "per_kf_in_has": 71.0, "per_kf_in_does": 23.9, "per_kf_outside": 4.6, "per_kf_out_has": 0.5, "per_kf_out_dos": 4.1, "per_kf_no_cook": 0.5, "per_hh_banking": 76.1, "per_hh_radio": 54.0, "per_hh_tv": 87.1, "per_hh_cmp_int": 0.0, "per_hh_cmp_wnt": 0.3, "per_hh_ph_ll": 4.6, "per_hh_ph_mob": 55.8, "per_hh_ph_bth": 2.1, "per_hh_bcycl": 64.8, "per_hh_2wheel": 30.1, "per_hh_4wheel": 2.6, "per_hh_tvcomp": null, "per_hh_no_ast": 4.9, "per_hs_perma": 87.4, "per_hs_sperma": 12.6, "per_hs_temp": 0.0, "per_hs_servc": 0.0, "per_hs_nservc": 0.0, "per_hs_unclss": 0.0, "avghhsz_cy": 5.34025974, "st_areashape": 8498555.50091746, "st_lengthshape": 11100.80801398521}, "geometry": {"type": "Polygon", "coordinates": [[[76.69352184833991, 28.723972012296837], [76.69078479575523, 28.723876580614483], [76.68892097300036, 28.72444459955006], [76.68553250079923, 28.72579818235071], [76.6823466202542, 28.727760866683965], [76.67833995442398, 28.732173487728478], [76.67767349880626, 28.733074071186817], [76.67401811647292, 28.730331756467532], [76.67264369318993, 28.729457995286204], [76.67127840487503, 28.72898203792015], [76.66927831397977, 28.727577042358938], [76.66761584949417, 28.7257032714693], [76.66430943480097, 28.722551025924858], [76.66419600722494, 28.72202882942319], [76.66403717250634, 28.72126106270959], [76.66339470100839, 28.716834831428628], [76.66345606312879, 28.71577254686833], [76.66592670234968, 28.71041562394452], [76.66736195056058, 28.70666562136071], [76.66747378362693, 28.706646836161074], [76.66903285202332, 28.70511959413564], [76.67439684260347, 28.703314291369768], [76.67761791375142, 28.70331231130455], [76.68052231888026, 28.704305119814226], [76.68364696037408, 28.705003855623907], [76.68379510244587, 28.70547664441573], [76.6855779842987, 28.70717807340352], [76.69048825738838, 28.712060745994176], [76.6915948740206, 28.713807073043508], [76.69302058481811, 28.716044200696793], [76.69389071007032, 28.720499130315627], [76.69352184833991, 28.723972012296837]]]}}]}