{"type": "FeatureCollection", "features": [{"type": "Feature", "properties": {"premiumdata.sde.IN_Village_PCA.area": 0.02201612, "objectid": 637000, "id": "122426560166880", "name": "Dringshingpam", "subdistrict": "Rupa SDO", "district": "West Kameng", "state": "Arunachal Pradesh", "country": "India", "censusname": "Dringshingpam", "villagename_locallang": null, "lgd_villagename": "Dringshingpam", "lgd_villagecode": 261801, "lgd_subdistrictcode": 6560, "lgd_districtcode": 242, "lgd_statecode": 12, "censuscode2001": "00032400", "censuscode2011": "261801", "censuscode2021": null, "level": "Village", "tru": "Rural", "no_hh": 7, "tot_p": 35, "tot_m": 19, "tot_f": 16, "per_tot_m": 54.28571429, "per_tot_f": 45.71428571, "p_06": 4, "m_06": 1, "f_06": 3, "per_p_06": 11.42857143, "per_m_06": 25.0, "per_f_06": 75.0, "p_sc": 0, "m_sc": 0, "f_sc": 0, "per_p_sc": 0.0, "per_m_sc": 0.0, "per_f_sc": 0.0, "p_st": 0, "m_st": 0, "f_st": 0, "per_p_st": 0.0, "per_m_st": 0.0, "per_f_st": 0.0, "p_lit": 24, "m_lit": 15, "f_lit": 9, "per_p_lit": 68.57142857, "per_m_lit": 62.5, "per_f_lit": 37.5, "p_ill": 11, "m_ill": 4, "f_ill": 7, "per_p_ill": 31.42857143, "per_m_ill": 36.36363636, "per_f_ill": 63.63636364, "tot_work_p": 22, "tot_work_m": 13, "tot_work_f": 9, "per_tot_work_p": 62.85714286, "per_tot_work_m": 59.09090909, "per_tot_work_f": 40.90909091, "mainwork_p": 17, "mainwork_m": 12, "mainwork_f": 5, "per_mainwork_p": 48.57142857, "per_mainwork_m": 70.58823529, "per_mainwork_f": 29.41176471, "main_cl_p": 0, "main_cl_m": 0, "main_cl_f": 0, "per_main_cl_p": 0.0, "per_main_cl_m": 0.0, "per_main_cl_f": 0.0, "main_al_p": 13, "main_al_m": 9, "main_al_f": 4, "per_main_al_p": 76.47058824, "per_main_al_m": 69.23076923, "per_main_al_f": 30.76923077, "main_hh_p": 0, "main_hh_m": 0, "main_hh_f": 0, "per_main_hh_p": 0.0, "per_main_hh_m": 0.0, "per_main_hh_f": 0.0, "main_ot_p": 4, "main_ot_m": 3, "main_ot_f": 1, "per_main_ot_p": 23.52941176, "per_main_ot_m": 75.0, "per_main_ot_f": 25.0, "margwork_p": 5, "margwork_m": 1, "margwork_f": 4, "per_margwork_p": 14.28571429, "per_margwork_m": 20.0, "per_margwork_f": 80.0, "marg_cl_p": 0, "marg_cl_m": 0, "marg_cl_f": 0, "per_marg_cl_p": 0.0, "per_marg_cl_m": 0.0, "per_marg_cl_f": 0.0, "marg_al_p": 4, "marg_al_m": 0, "marg_al_f": 4, "per_marg_al_p": 80.0, "per_marg_al_m": 0.0, "per_marg_al_f": 100.0, "marg_hh_p": 0, "marg_hh_m": 0, "marg_hh_f": 0, "per_marg_hh_p": 0.0, "per_marg_hh_m": 0.0, "per_marg_hh_f": 0.0, "marg_ot_p": 1, "marg_ot_m": 1, "marg_ot_f": 0, "per_marg_ot_p": 20.0, "per_marg_ot_m": 100.0, "per_marg_ot_f": 0.0, "margwork_3_6_p": 5, "margwork_3_6_m": 1, "margwork_3_6_f": 4, "per_margwork_3_6_p": 100.0, "per_margwork_3_6_m": 20.0, "per_margwork_3_6_f": 80.0, "marg_cl_3_6_p": 0, "marg_cl_3_6_m": 0, "marg_cl_3_6_f": 0, "per_marg_cl_3_6_p": 0.0, "per_marg_cl_3_6_m": 0.0, "per_marg_cl_3_6_f": 0.0, "marg_al_3_6_p": 4, "marg_al_3_6_m": 0, "marg_al_3_6_f": 4, "per_marg_al_3_6_p": 80.0, "per_marg_al_3_6_m": 0.0, "per_marg_al_3_6_f": 100.0, "marg_hh_3_6_p": 0, "marg_hh_3_6_m": 0, "marg_hh_3_6_f": 0, "per_marg_hh_3_6_p": 0.0, "per_marg_hh_3_6_m": 0.0, "per_marg_hh_3_6_f": 0.0, "marg_ot_3_6_p": 1, "marg_ot_3_6_m": 1, "marg_ot_3_6_f": 0, "per_marg_ot_3_6_p": 20.0, "per_marg_ot_3_6_m": 100.0, "per_marg_ot_3_6_f": 0.0, "margwork_0_3_p": 0, "margwork_0_3_m": 0, "margwork_0_3_f": 0, "per_margwork_0_3_p": 0.0, "per_margwork_0_3_m": 0.0, "per_margwork_0_3_f": 0.0, "marg_cl_0_3_p": 0, "marg_cl_0_3_m": 0, "marg_cl_0_3_f": 0, "per_marg_cl_0_3_p": 0.0, "per_marg_cl_0_3_m": 0.0, "per_marg_cl_0_3_f": 0.0, "marg_al_0_3_p": 0, "marg_al_0_3_m": 0, "marg_al_0_3_f": 0, "per_marg_al_0_3_p": 0.0, "per_marg_al_0_3_m": 0.0, "per_marg_al_0_3_f": 0.0, "marg_hh_0_3_p": 0, "marg_hh_0_3_m": 0, "marg_hh_0_3_f": 0, "per_marg_hh_0_3_p": 0.0, "per_marg_hh_0_3_m": 0.0, "per_marg_hh_0_3_f": 0.0, "marg_ot_0_3_p": 0, "marg_ot_0_3_m": 0, "marg_ot_0_3_f": 0, "per_marg_ot_0_3_p": 0.0, "per_marg_ot_0_3_m": 0.0, "per_marg_ot_0_3_f": 0.0, "non_work_p": 13, "non_work_m": 6, "non_work_f": 7, "per_non_work_p": 37.14285714, "per_non_work_m": 46.15384615, "per_non_work_f": 53.84615385, "per_hc_tot_tot": 100, "per_hc_tot_god": 44.4, "per_hc_tot_liv": 55.6, "per_hc_tot_dil": 0.0, "per_hc_res_tot": 100.0, "per_hc_res_god": 44.4, "per_hc_res_liv": 55.6, "per_hc_res_dil": 0.0, "per_hc_oth_tot": 0.0, "per_hc_oth_god": 0.0, "per_hc_oth_liv": 0.0, "per_hc_oth_dil": 0.0, "per_mt_grsbam": 77.8, "per_mt_plastic": 0.0, "per_mt_h_tiles": 0.0, "per_mt_m_tiles": 0.0, "per_mt_b_brick": 0.0, "per_mt_stone": 0.0, "per_mt_asbstos": 22.2, "per_mt_concrte": 0.0, "per_mt_oth": 0.0, "per_mw_grsbam": 88.9, "per_mw_plastic": 0.0, "per_mw_mud": 0.0, "per_mw_wood": 11.1, "per_mw_no_mrtr": 0.0, "per_mw_st_mrtr": 0.0, "per_mw_asbstos": 0.0, "per_mw_b_brick": 0.0, "per_mw_concrte": 0.0, "per_mw_oth": 0.0, "per_mf_mud": 100.0, "per_mf_wood": 0.0, "per_mf_b_brick": 0.0, "per_mf_stone": 0.0, "per_mf_cement": 0.0, "per_mf_fl_tile": 0.0, "per_mf_oth": 0.0, "per_dw_n_exrm": 0.0, "per_dw_1_room": 22.2, "per_dw_2_room": 66.7, "per_dw_3_room": 11.1, "per_dw_4_room": 0.0, "per_dw_5_room": 0.0, "per_dw_6_room": 0.0, "per_hhsize_1": 22.2, "per_hhsize_2": 0.0, "per_hhsize_3": 11.1, "per_hhsize_4": 22.2, "per_hhsize_5": 0.0, "per_hhsize_6_8": 44.4, "per_hhsize_9p": 0.0, "per_ow_owned": 100.0, "per_ow_rented": 0.0, "per_ow_oth": 0.0, "per_mc_none": 33.3, "per_mcouple_1": 66.7, "per_mcouple_2": 0.0, "per_mcouple_3": 0.0, "per_mcouple_4": 0.0, "per_mcouple_5p": 0.0, "per_dw_t_ts": 0.0, "per_dw_t_unts": 0.0, "per_dw_c_well": 0.0, "per_dw_unc_wel": 0.0, "per_dw_hpump": 0.0, "per_dw_tw_bore": 0.0, "per_dw_spring": 0.0, "per_dw_rivcan": 33.3, "per_dw_tank": 55.6, "per_dw_oth": 11.1, "per_loc_dw_wp": 0.0, "per_loc_dw_np": 88.9, "per_loc_dw_aw": 11.1, "per_light_elec": 88.9, "per_light_kero": 11.1, "per_light_solr": 0.0, "per_light_oil": 0.0, "per_light_oth": 0.0, "per_light_no": 0.0, "per_hh_latrine": 0.0, "per_fl_sewer": 0.0, "per_fl_septict": 0.0, "per_fl_othsys": 0.0, "per_pl_wslab": 0.0, "per_pl_without": 0.0, "per_ns_open": 0.0, "per_sl_ns_hum": 0.0, "per_sl_ns_anml": 0.0, "per_hh_no_lat": 100.0, "per_as_pub": 0.0, "per_as_open": 100.0, "per_hh_bathrm": 0.0, "per_hh_en_wrf": 0.0, "per_hh_no_btrm": 100.0, "per_wwoc_drain": 0.0, "per_wwoc_open": 0.0, "per_wwoc_nodrn": 100.0, "per_cook_fire": 100.0, "per_cook_resdu": 0.0, "per_cook_cwdng": 0.0, "per_cook_coal": 0.0, "per_cook_kero": 0.0, "per_cook_lpng": 0.0, "per_cook_elec": 0.0, "per_cook_biogs": 0.0, "per_cook_oth": 0.0, "per_cook_no": 0.0, "per_kf_inside": 88.9, "per_kf_in_has": 88.9, "per_kf_in_does": 0.0, "per_kf_outside": 11.1, "per_kf_out_has": 0.0, "per_kf_out_dos": 11.1, "per_kf_no_cook": 0.0, "per_hh_banking": 11.1, "per_hh_radio": 11.1, "per_hh_tv": 22.2, "per_hh_cmp_int": 0.0, "per_hh_cmp_wnt": 0.0, "per_hh_ph_ll": 0.0, "per_hh_ph_mob": 11.1, "per_hh_ph_bth": 0.0, "per_hh_bcycl": 0.0, "per_hh_2wheel": 0.0, "per_hh_4wheel": 0.0, "per_hh_tvcomp": 0.0, "per_hh_no_ast": 66.7, "per_hs_perma": 0.0, "per_hs_sperma": 22.2, "per_hs_temp": 77.8, "per_hs_servc": 11.1, "per_hs_nservc": 66.7, "per_hs_unclss": 0.0, "avghhsz_cy": 5.0, "st_areashape": 31363.87350204, "st_lengthshape": 628.0581775956349}, "geometry": {"type": "Polygon", "coordinates": [[[92.41183992391744, 27.196488329517212], [92.41175048046124, 27.196484359278767], [92.41166192633716, 27.196472486914608], [92.41157514099588, 27.196452832272502], [92.41149098682006, 27.19642558870679], [92.41141030103957, 27.196391028671634], [92.4113338849516, 27.196349494133333], [92.41126249763259, 27.196301398168544], [92.41119684964994, 27.196247220170672], [92.41113759318054, 27.1961874970614], [92.41108531572259, 27.196122822491716], [92.41104053829893, 27.196053840450855], [92.41100370557568, 27.195981234879113], [92.4109751840654, 27.195905728070624], [92.41095525583913, 27.195828071085263], [92.41094412032287, 27.19574903496011], [92.41094188800939, 27.195669405116472], [92.41094858045827, 27.195589973369934], [92.41096413119415, 27.195511529141324], [92.41098838660511, 27.19543485146651], [92.4110211041461, 27.195360703403267], [92.41106196042352, 27.195289820844966], [92.41111054760229, 27.195222908525153], [92.41116638418542, 27.1951606320271], [92.41122891411571, 27.195103609793374], [92.41129751755565, 27.19505240833148], [92.41137151088726, 27.19500753741909], [92.41145015928872, 27.19496944211377], [92.41153268212398, 27.19493850115441], [92.4116182583329, 27.194915022965915], [92.41170603721088, 27.19489923926671], [92.41179514649379, 27.194891308264655], [92.4118847013411, 27.194891308264655], [92.41197381062405, 27.19489923926671], [92.41206158950202, 27.194915022965915], [92.41214716571095, 27.19493850115441], [92.4122296885462, 27.19496944211377], [92.41230833694762, 27.19500753741909], [92.41238233027927, 27.19505240833148], [92.41245093371921, 27.195103609793374], [92.41251346364949, 27.1951606320271], [92.41256930023262, 27.195222908525153], [92.4126178874114, 27.195289820844966], [92.41265874368882, 27.195360703403267], [92.41269146122977, 27.19543485146651], [92.41271571664076, 27.195511529141324], [92.41273126737664, 27.195589973369934], [92.41273795982552, 27.195669405116472], [92.41273572751204, 27.19574903496011], [92.41272459199578, 27.195828071085263], [92.41270466376952, 27.195905728070624], [92.41267614225923, 27.195981234879113], [92.41263930953598, 27.196053840450855], [92.41259453211232, 27.196122822491716], [92.41254225465434, 27.1961874970614], [92.41248299818493, 27.196247220170672], [92.41241735020232, 27.196301398168544], [92.41234596288331, 27.196349494133333], [92.41226954679536, 27.196391028671634], [92.41218886101485, 27.19642558870679], [92.41210470683903, 27.196452832272502], [92.41201792149775, 27.196472486914608], [92.41192936737367, 27.196484359278767], [92.41183992391744, 27.196488329517212]]]}}]}