{"type": "FeatureCollection", "features": [{"type": "Feature", "properties": {"premiumdata.sde.IN_Village_PCA.area": 3.7433685, "objectid": 170747, "id": "21359311144907", "name": "Pundali", "subdistrict": "Phulabani", "district": "Kandhamal", "state": "Odisha", "country": "India", "censusname": "Pundali", "villagename_locallang": null, "lgd_villagename": "Pundali", "lgd_villagecode": 415442, "lgd_subdistrictcode": 3111, "lgd_districtcode": 359, "lgd_statecode": 21, "censuscode2001": "03567500", "censuscode2011": "415442", "censuscode2021": null, "level": "Village", "tru": "Rural", "no_hh": 65, "tot_p": 282, "tot_m": 147, "tot_f": 135, "per_tot_m": 52.12765957, "per_tot_f": 47.87234043, "p_06": 37, "m_06": 19, "f_06": 18, "per_p_06": 13.12056738, "per_m_06": 51.35135135, "per_f_06": 48.64864865, "p_sc": 0, "m_sc": 0, "f_sc": 0, "per_p_sc": 0.0, "per_m_sc": 0.0, "per_f_sc": 0.0, "p_st": 282, "m_st": 147, "f_st": 135, "per_p_st": 100.0, "per_m_st": 52.12765957, "per_f_st": 47.87234043, "p_lit": 198, "m_lit": 119, "f_lit": 79, "per_p_lit": 70.21276596, "per_m_lit": 60.1010101, "per_f_lit": 39.8989899, "p_ill": 84, "m_ill": 28, "f_ill": 56, "per_p_ill": 29.78723404, "per_m_ill": 33.33333333, "per_f_ill": 66.66666667, "tot_work_p": 115, "tot_work_m": 74, "tot_work_f": 41, "per_tot_work_p": 40.78014184, "per_tot_work_m": 64.34782609000001, "per_tot_work_f": 35.65217391, "mainwork_p": 57, "mainwork_m": 53, "mainwork_f": 4, "per_mainwork_p": 20.21276596, "per_mainwork_m": 92.98245614, "per_mainwork_f": 7.01754386, "main_cl_p": 24, "main_cl_m": 24, "main_cl_f": 0, "per_main_cl_p": 42.10526316000001, "per_main_cl_m": 100.0, "per_main_cl_f": 0.0, "main_al_p": 13, "main_al_m": 12, "main_al_f": 1, "per_main_al_p": 22.80701754, "per_main_al_m": 92.30769231, "per_main_al_f": 7.69230769, "main_hh_p": 1, "main_hh_m": 1, "main_hh_f": 0, "per_main_hh_p": 1.75438596, "per_main_hh_m": 100.0, "per_main_hh_f": 0.0, "main_ot_p": 19, "main_ot_m": 16, "main_ot_f": 3, "per_main_ot_p": 33.33333333, "per_main_ot_m": 84.21052632, "per_main_ot_f": 15.78947368, "margwork_p": 58, "margwork_m": 21, "margwork_f": 37, "per_margwork_p": 20.56737589, "per_margwork_m": 36.20689655, "per_margwork_f": 63.79310345, "marg_cl_p": 0, "marg_cl_m": 0, "marg_cl_f": 0, "per_marg_cl_p": 0.0, "per_marg_cl_m": 0.0, "per_marg_cl_f": 0.0, "marg_al_p": 57, "marg_al_m": 21, "marg_al_f": 36, "per_marg_al_p": 98.27586207, "per_marg_al_m": 36.84210526, "per_marg_al_f": 63.15789474, "marg_hh_p": 0, "marg_hh_m": 0, "marg_hh_f": 0, "per_marg_hh_p": 0.0, "per_marg_hh_m": 0.0, "per_marg_hh_f": 0.0, "marg_ot_p": 1, "marg_ot_m": 0, "marg_ot_f": 1, "per_marg_ot_p": 1.72413793, "per_marg_ot_m": 0.0, "per_marg_ot_f": 100.0, "margwork_3_6_p": 57, "margwork_3_6_m": 21, "margwork_3_6_f": 36, "per_margwork_3_6_p": 98.27586207, "per_margwork_3_6_m": 36.84210526, "per_margwork_3_6_f": 63.15789474, "marg_cl_3_6_p": 0, "marg_cl_3_6_m": 0, "marg_cl_3_6_f": 0, "per_marg_cl_3_6_p": 0.0, "per_marg_cl_3_6_m": 0.0, "per_marg_cl_3_6_f": 0.0, "marg_al_3_6_p": 56, "marg_al_3_6_m": 21, "marg_al_3_6_f": 35, "per_marg_al_3_6_p": 96.55172414, "per_marg_al_3_6_m": 37.5, "per_marg_al_3_6_f": 62.5, "marg_hh_3_6_p": 0, "marg_hh_3_6_m": 0, "marg_hh_3_6_f": 0, "per_marg_hh_3_6_p": 0.0, "per_marg_hh_3_6_m": 0.0, "per_marg_hh_3_6_f": 0.0, "marg_ot_3_6_p": 1, "marg_ot_3_6_m": 0, "marg_ot_3_6_f": 1, "per_marg_ot_3_6_p": 1.72413793, "per_marg_ot_3_6_m": 0.0, "per_marg_ot_3_6_f": 100.0, "margwork_0_3_p": 1, "margwork_0_3_m": 0, "margwork_0_3_f": 1, "per_margwork_0_3_p": 1.72413793, "per_margwork_0_3_m": 0.0, "per_margwork_0_3_f": 100.0, "marg_cl_0_3_p": 0, "marg_cl_0_3_m": 0, "marg_cl_0_3_f": 0, "per_marg_cl_0_3_p": 0.0, "per_marg_cl_0_3_m": 0.0, "per_marg_cl_0_3_f": 0.0, "marg_al_0_3_p": 1, "marg_al_0_3_m": 0, "marg_al_0_3_f": 1, "per_marg_al_0_3_p": 1.72413793, "per_marg_al_0_3_m": 0.0, "per_marg_al_0_3_f": 100.0, "marg_hh_0_3_p": 0, "marg_hh_0_3_m": 0, "marg_hh_0_3_f": 0, "per_marg_hh_0_3_p": 0.0, "per_marg_hh_0_3_m": 0.0, "per_marg_hh_0_3_f": 0.0, "marg_ot_0_3_p": 0, "marg_ot_0_3_m": 0, "marg_ot_0_3_f": 0, "per_marg_ot_0_3_p": 0.0, "per_marg_ot_0_3_m": 0.0, "per_marg_ot_0_3_f": 0.0, "non_work_p": 167, "non_work_m": 73, "non_work_f": 94, "per_non_work_p": 59.21985816, "per_non_work_m": 43.71257485, "per_non_work_f": 56.28742515, "per_hc_tot_tot": 100, "per_hc_tot_god": 7.8, "per_hc_tot_liv": 90.6, "per_hc_tot_dil": 1.6, "per_hc_res_tot": 100.0, "per_hc_res_god": 7.8, "per_hc_res_liv": 90.6, "per_hc_res_dil": 1.6, "per_hc_oth_tot": 0.0, "per_hc_oth_god": 0.0, "per_hc_oth_liv": 0.0, "per_hc_oth_dil": 0.0, "per_mt_grsbam": 54.7, "per_mt_plastic": 0.0, "per_mt_h_tiles": 0.0, "per_mt_m_tiles": 0.0, "per_mt_b_brick": 0.0, "per_mt_stone": 0.0, "per_mt_asbstos": 45.3, "per_mt_concrte": 0.0, "per_mt_oth": 0.0, "per_mw_grsbam": 0.0, "per_mw_plastic": 0.0, "per_mw_mud": 75.0, "per_mw_wood": 3.1, "per_mw_no_mrtr": 3.1, "per_mw_st_mrtr": 18.8, "per_mw_asbstos": 0.0, "per_mw_b_brick": 0.0, "per_mw_concrte": 0.0, "per_mw_oth": 0.0, "per_mf_mud": 81.2, "per_mf_wood": 0.0, "per_mf_b_brick": 0.0, "per_mf_stone": 0.0, "per_mf_cement": 18.8, "per_mf_fl_tile": 0.0, "per_mf_oth": 0.0, "per_dw_n_exrm": 0.0, "per_dw_1_room": 9.4, "per_dw_2_room": 81.2, "per_dw_3_room": 7.8, "per_dw_4_room": 1.6, "per_dw_5_room": 0.0, "per_dw_6_room": 0.0, "per_hhsize_1": 6.2, "per_hhsize_2": 6.2, "per_hhsize_3": 28.1, "per_hhsize_4": 12.5, "per_hhsize_5": 25.0, "per_hhsize_6_8": 21.9, "per_hhsize_9p": 0.0, "per_ow_owned": 100.0, "per_ow_rented": 0.0, "per_ow_oth": 0.0, "per_mc_none": 10.9, "per_mcouple_1": 87.5, "per_mcouple_2": 1.6, "per_mcouple_3": 0.0, "per_mcouple_4": 0.0, "per_mcouple_5p": 0.0, "per_dw_t_ts": 0.0, "per_dw_t_unts": 0.0, "per_dw_c_well": 0.0, "per_dw_unc_wel": 53.1, "per_dw_hpump": 0.0, "per_dw_tw_bore": 0.0, "per_dw_spring": 0.0, "per_dw_rivcan": 46.9, "per_dw_tank": 0.0, "per_dw_oth": 0.0, "per_loc_dw_wp": 0.0, "per_loc_dw_np": 1.6, "per_loc_dw_aw": 98.4, "per_light_elec": 0.0, "per_light_kero": 100.0, "per_light_solr": 0.0, "per_light_oil": 0.0, "per_light_oth": 0.0, "per_light_no": 0.0, "per_hh_latrine": 1.6, "per_fl_sewer": 0.0, "per_fl_septict": 1.6, "per_fl_othsys": 0.0, "per_pl_wslab": 0.0, "per_pl_without": 0.0, "per_ns_open": 0.0, "per_sl_ns_hum": 0.0, "per_sl_ns_anml": 0.0, "per_hh_no_lat": 98.4, "per_as_pub": 0.0, "per_as_open": 98.4, "per_hh_bathrm": 0.0, "per_hh_en_wrf": 0.0, "per_hh_no_btrm": 100.0, "per_wwoc_drain": 0.0, "per_wwoc_open": 0.0, "per_wwoc_nodrn": 100.0, "per_cook_fire": 100.0, "per_cook_resdu": 0.0, "per_cook_cwdng": 0.0, "per_cook_coal": 0.0, "per_cook_kero": 0.0, "per_cook_lpng": 0.0, "per_cook_elec": 0.0, "per_cook_biogs": 0.0, "per_cook_oth": 0.0, "per_cook_no": 0.0, "per_kf_inside": 92.2, "per_kf_in_has": 73.4, "per_kf_in_does": 18.8, "per_kf_outside": 7.8, "per_kf_out_has": 7.8, "per_kf_out_dos": 0.0, "per_kf_no_cook": 0.0, "per_hh_banking": 85.9, "per_hh_radio": 6.2, "per_hh_tv": 0.0, "per_hh_cmp_int": 0.0, "per_hh_cmp_wnt": 0.0, "per_hh_ph_ll": 0.0, "per_hh_ph_mob": 9.4, "per_hh_ph_bth": 0.0, "per_hh_bcycl": 64.1, "per_hh_2wheel": 1.6, "per_hh_4wheel": 0.0, "per_hh_tvcomp": 0.0, "per_hh_no_ast": 26.6, "per_hs_perma": 21.9, "per_hs_sperma": 23.4, "per_hs_temp": 54.7, "per_hs_servc": 54.7, "per_hs_nservc": 0.0, "per_hs_unclss": 0.0, "avghhsz_cy": 4.33846154, "st_areashape": 4287639.2940631, "st_lengthshape": 9110.208691897216}, "geometry": {"type": "Polygon", "coordinates": [[[84.18677976890528, 20.494197991236256], [84.18575334937005, 20.495655401883074], [84.18498033020344, 20.49681455319083], [84.18359721482175, 20.49733696812541], [84.18136689200736, 20.49733523728011], [84.18035885110459, 20.497745478204905], [84.17977642928841, 20.498730187919932], [84.17943939037698, 20.50001346014359], [84.1788761808298, 20.49992837587629], [84.17779501885951, 20.499381598588666], [84.17645149043572, 20.498750055014835], [84.17492592021627, 20.497679069274916], [84.17419523056417, 20.496794796915726], [84.17410641862362, 20.496237216041926], [84.17431105574364, 20.494970905375315], [84.17473862327617, 20.49317520222976], [84.17465652534405, 20.492325261915948], [84.17438092670646, 20.491531137723406], [84.17356068400368, 20.490635570918894], [84.1722528070186, 20.48951985323924], [84.17094469287824, 20.48866300086504], [84.1701700711172, 20.48836962463959], [84.16931714590774, 20.488346311135597], [84.16825162360652, 20.48840187308759], [84.16743151385441, 20.488254638246552], [84.16661943593925, 20.487775447685948], [84.16655865502881, 20.487555990089064], [84.16707713206809, 20.486734573239357], [84.16775447975861, 20.485811858404915], [84.16851089536382, 20.484590810693444], [84.16854820688917, 20.48428683791745], [84.16819963181284, 20.483526756917737], [84.16818346932423, 20.482946915858868], [84.16836103391657, 20.482564242330795], [84.16899161980498, 20.482080621873173], [84.17009347626448, 20.481496002197925], [84.17025059340432, 20.481214721038683], [84.17009655389266, 20.48061232488005], [84.17002044323188, 20.479013404868518], [84.17010244863755, 20.478355026344847], [84.17036250911568, 20.478028741045552], [84.1717262128024, 20.477061385011925], [84.17362374393998, 20.4756274278374], [84.17439960537614, 20.47485124266685], [84.17461552533615, 20.474615049708255], [84.17629803123573, 20.47463879786427], [84.17639135361736, 20.477284748958972], [84.17648530032808, 20.477881456694007], [84.17780526504365, 20.47849054796794], [84.17870195437708, 20.478699610322078], [84.18025163537878, 20.478756926179283], [84.18183100300564, 20.478814408640634], [84.18390331575482, 20.479136907857164], [84.18694585931647, 20.479854092202352], [84.18747856566984, 20.482235778020677], [84.18792525204654, 20.484189533716513], [84.18841491741972, 20.484826027288978], [84.1879300283889, 20.48575457884402], [84.18748862320777, 20.4873868612313], [84.18735029433209, 20.489159960846834], [84.18757660420668, 20.490004748644076], [84.18779636536286, 20.490629582117347], [84.18788292792193, 20.49204837626634], [84.18755847889919, 20.492802523079348], [84.18677976890528, 20.494197991236256]]]}}]}