{"type": "FeatureCollection", "features": [{"type": "Feature", "properties": {"premiumdata.sde.IN_Village_PCA.area": 4.21015005, "objectid": 387509, "id": "8100465513902", "name": "168 Rdl", "subdistrict": "Suratgarh", "district": "Ganganagar", "state": "Rajasthan", "country": "India", "censusname": "168 Rdl", "villagename_locallang": null, "lgd_villagename": "168 Rdl", "lgd_villagecode": 67021, "lgd_subdistrictcode": 465, "lgd_districtcode": 100, "lgd_statecode": 8, "censuscode2001": "00292700", "censuscode2011": "067021", "censuscode2021": null, "level": "Village", "tru": "Rural", "no_hh": 4, "tot_p": 27, "tot_m": 17, "tot_f": 10, "per_tot_m": 62.96296296, "per_tot_f": 37.03703704, "p_06": 3, "m_06": 1, "f_06": 2, "per_p_06": 11.11111111, "per_m_06": 33.33333333, "per_f_06": 66.66666667, "p_sc": 7, "m_sc": 5, "f_sc": 2, "per_p_sc": 25.92592593, "per_m_sc": 71.42857143, "per_f_sc": 28.57142857, "p_st": 0, "m_st": 0, "f_st": 0, "per_p_st": 0.0, "per_m_st": 0.0, "per_f_st": 0.0, "p_lit": 11, "m_lit": 9, "f_lit": 2, "per_p_lit": 40.74074074, "per_m_lit": 81.81818182, "per_f_lit": 18.18181818, "p_ill": 16, "m_ill": 8, "f_ill": 8, "per_p_ill": 59.25925926, "per_m_ill": 50.0, "per_f_ill": 50.0, "tot_work_p": 16, "tot_work_m": 9, "tot_work_f": 7, "per_tot_work_p": 59.25925926, "per_tot_work_m": 56.25, "per_tot_work_f": 43.75, "mainwork_p": 6, "mainwork_m": 6, "mainwork_f": 0, "per_mainwork_p": 22.22222222, "per_mainwork_m": 100.0, "per_mainwork_f": 0.0, "main_cl_p": 4, "main_cl_m": 4, "main_cl_f": 0, "per_main_cl_p": 66.66666667, "per_main_cl_m": 100.0, "per_main_cl_f": 0.0, "main_al_p": 2, "main_al_m": 2, "main_al_f": 0, "per_main_al_p": 33.33333333, "per_main_al_m": 100.0, "per_main_al_f": 0.0, "main_hh_p": 0, "main_hh_m": 0, "main_hh_f": 0, "per_main_hh_p": 0.0, "per_main_hh_m": 0.0, "per_main_hh_f": 0.0, "main_ot_p": 0, "main_ot_m": 0, "main_ot_f": 0, "per_main_ot_p": 0.0, "per_main_ot_m": 0.0, "per_main_ot_f": 0.0, "margwork_p": 10, "margwork_m": 3, "margwork_f": 7, "per_margwork_p": 37.03703704, "per_margwork_m": 30.0, "per_margwork_f": 70.0, "marg_cl_p": 3, "marg_cl_m": 0, "marg_cl_f": 3, "per_marg_cl_p": 30.0, "per_marg_cl_m": 0.0, "per_marg_cl_f": 100.0, "marg_al_p": 2, "marg_al_m": 1, "marg_al_f": 1, "per_marg_al_p": 20.0, "per_marg_al_m": 50.0, "per_marg_al_f": 50.0, "marg_hh_p": 0, "marg_hh_m": 0, "marg_hh_f": 0, "per_marg_hh_p": 0.0, "per_marg_hh_m": 0.0, "per_marg_hh_f": 0.0, "marg_ot_p": 5, "marg_ot_m": 2, "marg_ot_f": 3, "per_marg_ot_p": 50.0, "per_marg_ot_m": 40.0, "per_marg_ot_f": 60.0, "margwork_3_6_p": 9, "margwork_3_6_m": 2, "margwork_3_6_f": 7, "per_margwork_3_6_p": 90.0, "per_margwork_3_6_m": 22.22222222, "per_margwork_3_6_f": 77.77777778, "marg_cl_3_6_p": 3, "marg_cl_3_6_m": 0, "marg_cl_3_6_f": 3, "per_marg_cl_3_6_p": 30.0, "per_marg_cl_3_6_m": 0.0, "per_marg_cl_3_6_f": 100.0, "marg_al_3_6_p": 1, "marg_al_3_6_m": 0, "marg_al_3_6_f": 1, "per_marg_al_3_6_p": 10.0, "per_marg_al_3_6_m": 0.0, "per_marg_al_3_6_f": 100.0, "marg_hh_3_6_p": 0, "marg_hh_3_6_m": 0, "marg_hh_3_6_f": 0, "per_marg_hh_3_6_p": 0.0, "per_marg_hh_3_6_m": 0.0, "per_marg_hh_3_6_f": 0.0, "marg_ot_3_6_p": 5, "marg_ot_3_6_m": 2, "marg_ot_3_6_f": 3, "per_marg_ot_3_6_p": 50.0, "per_marg_ot_3_6_m": 40.0, "per_marg_ot_3_6_f": 60.0, "margwork_0_3_p": 1, "margwork_0_3_m": 1, "margwork_0_3_f": 0, "per_margwork_0_3_p": 10.0, "per_margwork_0_3_m": 100.0, "per_margwork_0_3_f": 0.0, "marg_cl_0_3_p": 0, "marg_cl_0_3_m": 0, "marg_cl_0_3_f": 0, "per_marg_cl_0_3_p": 0.0, "per_marg_cl_0_3_m": 0.0, "per_marg_cl_0_3_f": 0.0, "marg_al_0_3_p": 1, "marg_al_0_3_m": 1, "marg_al_0_3_f": 0, "per_marg_al_0_3_p": 10.0, "per_marg_al_0_3_m": 100.0, "per_marg_al_0_3_f": 0.0, "marg_hh_0_3_p": 0, "marg_hh_0_3_m": 0, "marg_hh_0_3_f": 0, "per_marg_hh_0_3_p": 0.0, "per_marg_hh_0_3_m": 0.0, "per_marg_hh_0_3_f": 0.0, "marg_ot_0_3_p": 0, "marg_ot_0_3_m": 0, "marg_ot_0_3_f": 0, "per_marg_ot_0_3_p": 0.0, "per_marg_ot_0_3_m": 0.0, "per_marg_ot_0_3_f": 0.0, "non_work_p": 11, "non_work_m": 8, "non_work_f": 3, "per_non_work_p": 40.74074074, "per_non_work_m": 72.72727273, "per_non_work_f": 27.27272727, "per_hc_tot_tot": 100, "per_hc_tot_god": 0.0, "per_hc_tot_liv": 100.0, "per_hc_tot_dil": 0.0, "per_hc_res_tot": 100.0, "per_hc_res_god": 0.0, "per_hc_res_liv": 100.0, "per_hc_res_dil": 0.0, "per_hc_oth_tot": 0.0, "per_hc_oth_god": 0.0, "per_hc_oth_liv": 0.0, "per_hc_oth_dil": 0.0, "per_mt_grsbam": 100.0, "per_mt_plastic": 0.0, "per_mt_h_tiles": 0.0, "per_mt_m_tiles": 0.0, "per_mt_b_brick": 0.0, "per_mt_stone": 0.0, "per_mt_asbstos": 0.0, "per_mt_concrte": 0.0, "per_mt_oth": 0.0, "per_mw_grsbam": 0.0, "per_mw_plastic": 0.0, "per_mw_mud": 33.3, "per_mw_wood": 0.0, "per_mw_no_mrtr": 0.0, "per_mw_st_mrtr": 0.0, "per_mw_asbstos": 0.0, "per_mw_b_brick": 66.7, "per_mw_concrte": 0.0, "per_mw_oth": 0.0, "per_mf_mud": 66.7, "per_mf_wood": 0.0, "per_mf_b_brick": 33.3, "per_mf_stone": 0.0, "per_mf_cement": 0.0, "per_mf_fl_tile": 0.0, "per_mf_oth": 0.0, "per_dw_n_exrm": 0.0, "per_dw_1_room": 0.0, "per_dw_2_room": 33.3, "per_dw_3_room": 33.3, "per_dw_4_room": 0.0, "per_dw_5_room": 0.0, "per_dw_6_room": 33.3, "per_hhsize_1": 0.0, "per_hhsize_2": 0.0, "per_hhsize_3": 0.0, "per_hhsize_4": 0.0, "per_hhsize_5": 33.3, "per_hhsize_6_8": 0.0, "per_hhsize_9p": 66.7, "per_ow_owned": 66.7, "per_ow_rented": 0.0, "per_ow_oth": 33.3, "per_mc_none": 0.0, "per_mcouple_1": 66.7, "per_mcouple_2": 0.0, "per_mcouple_3": 33.3, "per_mcouple_4": 0.0, "per_mcouple_5p": 0.0, "per_dw_t_ts": 0.0, "per_dw_t_unts": 0.0, "per_dw_c_well": 0.0, "per_dw_unc_wel": 0.0, "per_dw_hpump": 0.0, "per_dw_tw_bore": 66.7, "per_dw_spring": 0.0, "per_dw_rivcan": 33.3, "per_dw_tank": 0.0, "per_dw_oth": 0.0, "per_loc_dw_wp": 0.0, "per_loc_dw_np": 66.7, "per_loc_dw_aw": 33.3, "per_light_elec": 0.0, "per_light_kero": 66.7, "per_light_solr": 33.3, "per_light_oil": 0.0, "per_light_oth": 0.0, "per_light_no": 0.0, "per_hh_latrine": 0.0, "per_fl_sewer": 0.0, "per_fl_septict": 0.0, "per_fl_othsys": 0.0, "per_pl_wslab": 0.0, "per_pl_without": 0.0, "per_ns_open": 0.0, "per_sl_ns_hum": 0.0, "per_sl_ns_anml": 0.0, "per_hh_no_lat": 100.0, "per_as_pub": 0.0, "per_as_open": 100.0, "per_hh_bathrm": 33.3, "per_hh_en_wrf": 33.3, "per_hh_no_btrm": 33.3, "per_wwoc_drain": 0.0, "per_wwoc_open": 0.0, "per_wwoc_nodrn": 100.0, "per_cook_fire": 100.0, "per_cook_resdu": 0.0, "per_cook_cwdng": 0.0, "per_cook_coal": 0.0, "per_cook_kero": 0.0, "per_cook_lpng": 0.0, "per_cook_elec": 0.0, "per_cook_biogs": 0.0, "per_cook_oth": 0.0, "per_cook_no": 0.0, "per_kf_inside": 100.0, "per_kf_in_has": 66.7, "per_kf_in_does": 33.3, "per_kf_outside": 0.0, "per_kf_out_has": 0.0, "per_kf_out_dos": 0.0, "per_kf_no_cook": 0.0, "per_hh_banking": 66.7, "per_hh_radio": 66.7, "per_hh_tv": 33.3, "per_hh_cmp_int": 0.0, "per_hh_cmp_wnt": 0.0, "per_hh_ph_ll": 0.0, "per_hh_ph_mob": 100.0, "per_hh_ph_bth": 0.0, "per_hh_bcycl": 33.3, "per_hh_2wheel": 0.0, "per_hh_4wheel": 0.0, "per_hh_tvcomp": 0.0, "per_hh_no_ast": 0.0, "per_hs_perma": 0.0, "per_hs_sperma": 66.7, "per_hs_temp": 33.3, "per_hs_servc": 33.3, "per_hs_nservc": 0.0, "per_hs_unclss": 0.0, "avghhsz_cy": 6.75, "st_areashape": 5543455.47243776, "st_lengthshape": 12545.973726835555}, "geometry": {"type": "Polygon", "coordinates": [[[74.07977133954239, 29.187912633645745], [74.0800187211986, 29.189333388269073], [74.08022872844738, 29.190771168448432], [74.08041337086584, 29.1922273191856], [74.08057706457187, 29.193681116229353], [74.08075418629473, 29.195135328675992], [74.0809464464268, 29.196579275117383], [74.0813270051205, 29.199471518699028], [74.07991746848965, 29.199245961723282], [74.07852658986725, 29.199093965338133], [74.07710194716658, 29.19898541550967], [74.07565920790452, 29.198900680740714], [74.07420276394451, 29.19881963462931], [74.07273642773656, 29.198721678634453], [74.07126384374583, 29.198586210993962], [74.06979761713235, 29.198414673650365], [74.06832622071441, 29.1982064139907], [74.06685129661234, 29.1979504478536], [74.06536812058606, 29.197664934856814], [74.06387464717173, 29.197360392168584], [74.0614617920815, 29.196810454283227], [74.0613874582884, 29.194597744131823], [74.06144718906826, 29.192389384907734], [74.06174313634365, 29.190188782042693], [74.06238320035665, 29.188041856282485], [74.06340308824142, 29.186039112987107], [74.06467122824994, 29.18412067922591], [74.06580519049768, 29.182358444237643], [74.067378829568, 29.181068025984093], [74.06929781696613, 29.180696693441128], [74.07191068375099, 29.180764243414895], [74.07408455912784, 29.180808701025402], [74.07560792039001, 29.180639685297653], [74.07753158890911, 29.18044508122098], [74.07890955335097, 29.180424403702425], [74.0808917866367, 29.180118759625525], [74.08212655513071, 29.17854324109535], [74.08249363101031, 29.17679234358436], [74.08269385560567, 29.174134279167387], [74.08499256356934, 29.175710949357125], [74.08647128035852, 29.176891879784147], [74.08762236988551, 29.17832483740961], [74.08849357221773, 29.179631079210882], [74.08958205905085, 29.181065314645117], [74.09073466493403, 29.18207240392097], [74.09229187202118, 29.182984301214095], [74.09413168101187, 29.183888623644837], [74.09585995248192, 29.18478386011422], [74.09399033918676, 29.185745884919392], [74.09118661723494, 29.18581405976699], [74.08894949237724, 29.185366340735456], [74.08640444210816, 29.1848602814691], [74.08442661326225, 29.184298224531133], [74.0823072925726, 29.18368373670931], [74.08059104235768, 29.184211027535397], [74.07981161640647, 29.185869218085678], [74.07977133954239, 29.187912633645745]]]}}]}