{"type": "FeatureCollection", "features": [{"type": "Feature", "properties": {"premiumdata.sde.IN_Village_PCA.area": 1.00418096, "objectid": 276691, "id": "234113629555483", "name": "Hinauta Baroda", "subdistrict": "Patan", "district": "Jabalpur", "state": "Madhya Pradesh", "country": "India", "censusname": "Hinauta (Baroda)", "villagename_locallang": null, "lgd_villagename": "Hinauta (Baroda)", "lgd_villagecode": 489448, "lgd_subdistrictcode": 3629, "lgd_districtcode": 411, "lgd_statecode": 23, "censuscode2001": "04620100", "censuscode2011": "489448", "censuscode2021": null, "level": "Village", "tru": "Rural", "no_hh": 81, "tot_p": 342, "tot_m": 173, "tot_f": 169, "per_tot_m": 50.58479532, "per_tot_f": 49.41520468, "p_06": 42, "m_06": 25, "f_06": 17, "per_p_06": 12.28070175, "per_m_06": 59.52380952, "per_f_06": 40.47619048, "p_sc": 38, "m_sc": 19, "f_sc": 19, "per_p_sc": 11.11111111, "per_m_sc": 50.0, "per_f_sc": 50.0, "p_st": 0, "m_st": 0, "f_st": 0, "per_p_st": 0.0, "per_m_st": 0.0, "per_f_st": 0.0, "p_lit": 247, "m_lit": 134, "f_lit": 113, "per_p_lit": 72.22222222, "per_m_lit": 54.25101215, "per_f_lit": 45.74898785, "p_ill": 95, "m_ill": 39, "f_ill": 56, "per_p_ill": 27.77777778, "per_m_ill": 41.05263158, "per_f_ill": 58.94736842, "tot_work_p": 131, "tot_work_m": 99, "tot_work_f": 32, "per_tot_work_p": 38.30409357, "per_tot_work_m": 75.57251908, "per_tot_work_f": 24.42748092, "mainwork_p": 121, "mainwork_m": 95, "mainwork_f": 26, "per_mainwork_p": 35.38011696, "per_mainwork_m": 78.51239669, "per_mainwork_f": 21.48760331, "main_cl_p": 50, "main_cl_m": 48, "main_cl_f": 2, "per_main_cl_p": 41.32231405, "per_main_cl_m": 96.0, "per_main_cl_f": 4.0, "main_al_p": 69, "main_al_m": 47, "main_al_f": 22, "per_main_al_p": 57.02479339000001, "per_main_al_m": 68.11594203, "per_main_al_f": 31.88405797, "main_hh_p": 0, "main_hh_m": 0, "main_hh_f": 0, "per_main_hh_p": 0.0, "per_main_hh_m": 0.0, "per_main_hh_f": 0.0, "main_ot_p": 2, "main_ot_m": 0, "main_ot_f": 2, "per_main_ot_p": 1.65289256, "per_main_ot_m": 0.0, "per_main_ot_f": 100.0, "margwork_p": 10, "margwork_m": 4, "margwork_f": 6, "per_margwork_p": 2.92397661, "per_margwork_m": 40.0, "per_margwork_f": 60.0, "marg_cl_p": 0, "marg_cl_m": 0, "marg_cl_f": 0, "per_marg_cl_p": 0.0, "per_marg_cl_m": 0.0, "per_marg_cl_f": 0.0, "marg_al_p": 10, "marg_al_m": 4, "marg_al_f": 6, "per_marg_al_p": 100.0, "per_marg_al_m": 40.0, "per_marg_al_f": 60.0, "marg_hh_p": 0, "marg_hh_m": 0, "marg_hh_f": 0, "per_marg_hh_p": 0.0, "per_marg_hh_m": 0.0, "per_marg_hh_f": 0.0, "marg_ot_p": 0, "marg_ot_m": 0, "marg_ot_f": 0, "per_marg_ot_p": 0.0, "per_marg_ot_m": 0.0, "per_marg_ot_f": 0.0, "margwork_3_6_p": 10, "margwork_3_6_m": 4, "margwork_3_6_f": 6, "per_margwork_3_6_p": 100.0, "per_margwork_3_6_m": 40.0, "per_margwork_3_6_f": 60.0, "marg_cl_3_6_p": 0, "marg_cl_3_6_m": 0, "marg_cl_3_6_f": 0, "per_marg_cl_3_6_p": 0.0, "per_marg_cl_3_6_m": 0.0, "per_marg_cl_3_6_f": 0.0, "marg_al_3_6_p": 10, "marg_al_3_6_m": 4, "marg_al_3_6_f": 6, "per_marg_al_3_6_p": 100.0, "per_marg_al_3_6_m": 40.0, "per_marg_al_3_6_f": 60.0, "marg_hh_3_6_p": 0, "marg_hh_3_6_m": 0, "marg_hh_3_6_f": 0, "per_marg_hh_3_6_p": 0.0, "per_marg_hh_3_6_m": 0.0, "per_marg_hh_3_6_f": 0.0, "marg_ot_3_6_p": 0, "marg_ot_3_6_m": 0, "marg_ot_3_6_f": 0, "per_marg_ot_3_6_p": 0.0, "per_marg_ot_3_6_m": 0.0, "per_marg_ot_3_6_f": 0.0, "margwork_0_3_p": 0, "margwork_0_3_m": 0, "margwork_0_3_f": 0, "per_margwork_0_3_p": 0.0, "per_margwork_0_3_m": 0.0, "per_margwork_0_3_f": 0.0, "marg_cl_0_3_p": 0, "marg_cl_0_3_m": 0, "marg_cl_0_3_f": 0, "per_marg_cl_0_3_p": 0.0, "per_marg_cl_0_3_m": 0.0, "per_marg_cl_0_3_f": 0.0, "marg_al_0_3_p": 0, "marg_al_0_3_m": 0, "marg_al_0_3_f": 0, "per_marg_al_0_3_p": 0.0, "per_marg_al_0_3_m": 0.0, "per_marg_al_0_3_f": 0.0, "marg_hh_0_3_p": 0, "marg_hh_0_3_m": 0, "marg_hh_0_3_f": 0, "per_marg_hh_0_3_p": 0.0, "per_marg_hh_0_3_m": 0.0, "per_marg_hh_0_3_f": 0.0, "marg_ot_0_3_p": 0, "marg_ot_0_3_m": 0, "marg_ot_0_3_f": 0, "per_marg_ot_0_3_p": 0.0, "per_marg_ot_0_3_m": 0.0, "per_marg_ot_0_3_f": 0.0, "non_work_p": 211, "non_work_m": 74, "non_work_f": 137, "per_non_work_p": 61.69590643, "per_non_work_m": 35.07109005, "per_non_work_f": 64.92890995, "per_hc_tot_tot": 100, "per_hc_tot_god": 54.9, "per_hc_tot_liv": 43.9, "per_hc_tot_dil": 1.2, "per_hc_res_tot": 100.0, "per_hc_res_god": 54.9, "per_hc_res_liv": 43.9, "per_hc_res_dil": 1.2, "per_hc_oth_tot": 0.0, "per_hc_oth_god": 0.0, "per_hc_oth_liv": 0.0, "per_hc_oth_dil": 0.0, "per_mt_grsbam": 0.0, "per_mt_plastic": 0.0, "per_mt_h_tiles": 59.8, "per_mt_m_tiles": 0.0, "per_mt_b_brick": 0.0, "per_mt_stone": 3.7, "per_mt_asbstos": 1.2, "per_mt_concrte": 35.4, "per_mt_oth": 0.0, "per_mw_grsbam": 0.0, "per_mw_plastic": 0.0, "per_mw_mud": 37.8, "per_mw_wood": 0.0, "per_mw_no_mrtr": 1.2, "per_mw_st_mrtr": 0.0, "per_mw_asbstos": 0.0, "per_mw_b_brick": 61.0, "per_mw_concrte": 0.0, "per_mw_oth": 0.0, "per_mf_mud": 57.3, "per_mf_wood": 0.0, "per_mf_b_brick": 0.0, "per_mf_stone": 0.0, "per_mf_cement": 42.7, "per_mf_fl_tile": 0.0, "per_mf_oth": 0.0, "per_dw_n_exrm": 1.2, "per_dw_1_room": 62.2, "per_dw_2_room": 29.3, "per_dw_3_room": 2.4, "per_dw_4_room": 3.7, "per_dw_5_room": 1.2, "per_dw_6_room": 0.0, "per_hhsize_1": 6.1, "per_hhsize_2": 7.3, "per_hhsize_3": 15.9, "per_hhsize_4": 28.0, "per_hhsize_5": 20.7, "per_hhsize_6_8": 22.0, "per_hhsize_9p": 0.0, "per_ow_owned": 100.0, "per_ow_rented": 0.0, "per_ow_oth": 0.0, "per_mc_none": 9.8, "per_mcouple_1": 80.5, "per_mcouple_2": 9.8, "per_mcouple_3": 0.0, "per_mcouple_4": 0.0, "per_mcouple_5p": 0.0, "per_dw_t_ts": 1.2, "per_dw_t_unts": 0.0, "per_dw_c_well": 1.2, "per_dw_unc_wel": 0.0, "per_dw_hpump": 85.4, "per_dw_tw_bore": 12.2, "per_dw_spring": 0.0, "per_dw_rivcan": 0.0, "per_dw_tank": 0.0, "per_dw_oth": 0.0, "per_loc_dw_wp": 30.5, "per_loc_dw_np": 64.6, "per_loc_dw_aw": 4.9, "per_light_elec": 91.5, "per_light_kero": 8.5, "per_light_solr": 0.0, "per_light_oil": 0.0, "per_light_oth": 0.0, "per_light_no": 0.0, "per_hh_latrine": 35.4, "per_fl_sewer": 0.0, "per_fl_septict": 35.4, "per_fl_othsys": 0.0, "per_pl_wslab": 0.0, "per_pl_without": 0.0, "per_ns_open": 0.0, "per_sl_ns_hum": 0.0, "per_sl_ns_anml": 0.0, "per_hh_no_lat": 64.6, "per_as_pub": 0.0, "per_as_open": 64.6, "per_hh_bathrm": 29.3, "per_hh_en_wrf": 14.6, "per_hh_no_btrm": 56.1, "per_wwoc_drain": 0.0, "per_wwoc_open": 0.0, "per_wwoc_nodrn": 100.0, "per_cook_fire": 100.0, "per_cook_resdu": 0.0, "per_cook_cwdng": 0.0, "per_cook_coal": 0.0, "per_cook_kero": 0.0, "per_cook_lpng": 0.0, "per_cook_elec": 0.0, "per_cook_biogs": 0.0, "per_cook_oth": 0.0, "per_cook_no": 0.0, "per_kf_inside": 98.8, "per_kf_in_has": 2.4, "per_kf_in_does": 96.3, "per_kf_outside": 1.2, "per_kf_out_has": 1.2, "per_kf_out_dos": 0.0, "per_kf_no_cook": 0.0, "per_hh_banking": 50.0, "per_hh_radio": 2.4, "per_hh_tv": 26.8, "per_hh_cmp_int": 0.0, "per_hh_cmp_wnt": 2.4, "per_hh_ph_ll": 0.0, "per_hh_ph_mob": 39.0, "per_hh_ph_bth": 0.0, "per_hh_bcycl": 41.5, "per_hh_2wheel": 31.7, "per_hh_4wheel": 1.2, "per_hh_tvcomp": 1.2, "per_hh_no_ast": 37.8, "per_hs_perma": 62.2, "per_hs_sperma": 37.8, "per_hs_temp": 0.0, "per_hs_servc": 0.0, "per_hs_nservc": 0.0, "per_hs_unclss": 0.0, "avghhsz_cy": 4.22222222, "st_areashape": 1195826.672932705, "st_lengthshape": 4586.095386711975}, "geometry": {"type": "Polygon", "coordinates": [[[79.76064999963606, 23.298530000251713], [79.7592799996575, 23.295429999936246], [79.75843999940835, 23.292630000150893], [79.75838000003222, 23.292429999856815], [79.75884999948717, 23.292349999655045], [79.76134000009735, 23.29165000037622], [79.7636599999299, 23.29056999964195], [79.76546000007876, 23.289860000481607], [79.76685000014882, 23.289420000181977], [79.76746000024418, 23.28923999930263], [79.77170999992194, 23.289310000086086], [79.77296999939732, 23.28929999962278], [79.77302000052437, 23.291269999650304], [79.77304999976327, 23.29448000038003], [79.77216000018375, 23.294970000650626], [79.77085999962705, 23.295409999928633], [79.76926000039303, 23.295939999939993], [79.76735999978676, 23.296189999648522], [79.76516999965054, 23.29670999994697], [79.76385999994645, 23.29725000042251], [79.7620600006959, 23.297769999878692], [79.76064999963606, 23.298530000251713]]]}}]}