{"type": "FeatureCollection", "features": [{"type": "Feature", "properties": {"premiumdata.sde.IN_Village_PCA.area": 1.76902977, "objectid": 257092, "id": "234213597547958", "name": "Mohad Kalan", "subdistrict": "Udaipura", "district": "Raisen", "state": "Madhya Pradesh", "country": "India", "censusname": "Mohad Kalan", "villagename_locallang": null, "lgd_villagename": "Mohad Kalan", "lgd_villagecode": 484987, "lgd_subdistrictcode": 3597, "lgd_districtcode": 421, "lgd_statecode": 23, "censuscode2001": "04171900", "censuscode2011": "484987", "censuscode2021": null, "level": "Village", "tru": "Rural", "no_hh": 169, "tot_p": 896, "tot_m": 463, "tot_f": 433, "per_tot_m": 51.67410714, "per_tot_f": 48.32589286, "p_06": 173, "m_06": 96, "f_06": 77, "per_p_06": 19.30803571, "per_m_06": 55.49132948, "per_f_06": 44.50867052, "p_sc": 72, "m_sc": 39, "f_sc": 33, "per_p_sc": 8.03571429, "per_m_sc": 54.16666667000001, "per_f_sc": 45.83333333, "p_st": 0, "m_st": 0, "f_st": 0, "per_p_st": 0.0, "per_m_st": 0.0, "per_f_st": 0.0, "p_lit": 390, "m_lit": 232, "f_lit": 158, "per_p_lit": 43.52678571, "per_m_lit": 59.48717949, "per_f_lit": 40.51282051, "p_ill": 506, "m_ill": 231, "f_ill": 275, "per_p_ill": 56.47321429, "per_m_ill": 45.65217391, "per_f_ill": 54.34782609, "tot_work_p": 353, "tot_work_m": 247, "tot_work_f": 106, "per_tot_work_p": 39.39732143, "per_tot_work_m": 69.97167139, "per_tot_work_f": 30.02832861, "mainwork_p": 349, "mainwork_m": 244, "mainwork_f": 105, "per_mainwork_p": 38.95089286, "per_mainwork_m": 69.91404011, "per_mainwork_f": 30.08595989, "main_cl_p": 79, "main_cl_m": 76, "main_cl_f": 3, "per_main_cl_p": 22.63610315, "per_main_cl_m": 96.20253165, "per_main_cl_f": 3.79746835, "main_al_p": 263, "main_al_m": 165, "main_al_f": 98, "per_main_al_p": 75.35816619, "per_main_al_m": 62.73764259, "per_main_al_f": 37.26235741, "main_hh_p": 0, "main_hh_m": 0, "main_hh_f": 0, "per_main_hh_p": 0.0, "per_main_hh_m": 0.0, "per_main_hh_f": 0.0, "main_ot_p": 7, "main_ot_m": 3, "main_ot_f": 4, "per_main_ot_p": 2.00573066, "per_main_ot_m": 42.85714286, "per_main_ot_f": 57.14285714, "margwork_p": 4, "margwork_m": 3, "margwork_f": 1, "per_margwork_p": 0.44642857, "per_margwork_m": 75.0, "per_margwork_f": 25.0, "marg_cl_p": 1, "marg_cl_m": 1, "marg_cl_f": 0, "per_marg_cl_p": 25.0, "per_marg_cl_m": 100.0, "per_marg_cl_f": 0.0, "marg_al_p": 3, "marg_al_m": 2, "marg_al_f": 1, "per_marg_al_p": 75.0, "per_marg_al_m": 66.66666667, "per_marg_al_f": 33.33333333, "marg_hh_p": 0, "marg_hh_m": 0, "marg_hh_f": 0, "per_marg_hh_p": 0.0, "per_marg_hh_m": 0.0, "per_marg_hh_f": 0.0, "marg_ot_p": 0, "marg_ot_m": 0, "marg_ot_f": 0, "per_marg_ot_p": 0.0, "per_marg_ot_m": 0.0, "per_marg_ot_f": 0.0, "margwork_3_6_p": 4, "margwork_3_6_m": 3, "margwork_3_6_f": 1, "per_margwork_3_6_p": 100.0, "per_margwork_3_6_m": 75.0, "per_margwork_3_6_f": 25.0, "marg_cl_3_6_p": 1, "marg_cl_3_6_m": 1, "marg_cl_3_6_f": 0, "per_marg_cl_3_6_p": 25.0, "per_marg_cl_3_6_m": 100.0, "per_marg_cl_3_6_f": 0.0, "marg_al_3_6_p": 3, "marg_al_3_6_m": 2, "marg_al_3_6_f": 1, "per_marg_al_3_6_p": 75.0, "per_marg_al_3_6_m": 66.66666667, "per_marg_al_3_6_f": 33.33333333, "marg_hh_3_6_p": 0, "marg_hh_3_6_m": 0, "marg_hh_3_6_f": 0, "per_marg_hh_3_6_p": 0.0, "per_marg_hh_3_6_m": 0.0, "per_marg_hh_3_6_f": 0.0, "marg_ot_3_6_p": 0, "marg_ot_3_6_m": 0, "marg_ot_3_6_f": 0, "per_marg_ot_3_6_p": 0.0, "per_marg_ot_3_6_m": 0.0, "per_marg_ot_3_6_f": 0.0, "margwork_0_3_p": 0, "margwork_0_3_m": 0, "margwork_0_3_f": 0, "per_margwork_0_3_p": 0.0, "per_margwork_0_3_m": 0.0, "per_margwork_0_3_f": 0.0, "marg_cl_0_3_p": 0, "marg_cl_0_3_m": 0, "marg_cl_0_3_f": 0, "per_marg_cl_0_3_p": 0.0, "per_marg_cl_0_3_m": 0.0, "per_marg_cl_0_3_f": 0.0, "marg_al_0_3_p": 0, "marg_al_0_3_m": 0, "marg_al_0_3_f": 0, "per_marg_al_0_3_p": 0.0, "per_marg_al_0_3_m": 0.0, "per_marg_al_0_3_f": 0.0, "marg_hh_0_3_p": 0, "marg_hh_0_3_m": 0, "marg_hh_0_3_f": 0, "per_marg_hh_0_3_p": 0.0, "per_marg_hh_0_3_m": 0.0, "per_marg_hh_0_3_f": 0.0, "marg_ot_0_3_p": 0, "marg_ot_0_3_m": 0, "marg_ot_0_3_f": 0, "per_marg_ot_0_3_p": 0.0, "per_marg_ot_0_3_m": 0.0, "per_marg_ot_0_3_f": 0.0, "non_work_p": 543, "non_work_m": 216, "non_work_f": 327, "per_non_work_p": 60.60267857, "per_non_work_m": 39.77900552000001, "per_non_work_f": 60.22099448, "per_hc_tot_tot": 100, "per_hc_tot_god": 75.6, "per_hc_tot_liv": 23.2, "per_hc_tot_dil": 1.2, "per_hc_res_tot": 99.4, "per_hc_res_god": 75.0, "per_hc_res_liv": 23.2, "per_hc_res_dil": 1.2, "per_hc_oth_tot": 0.6, "per_hc_oth_god": 0.6, "per_hc_oth_liv": 0.0, "per_hc_oth_dil": 0.0, "per_mt_grsbam": 2.4, "per_mt_plastic": 12.8, "per_mt_h_tiles": 70.7, "per_mt_m_tiles": 12.8, "per_mt_b_brick": 0.0, "per_mt_stone": 0.0, "per_mt_asbstos": 0.0, "per_mt_concrte": 1.2, "per_mt_oth": 0.0, "per_mw_grsbam": 15.2, "per_mw_plastic": 1.8, "per_mw_mud": 70.1, "per_mw_wood": 0.0, "per_mw_no_mrtr": 0.0, "per_mw_st_mrtr": 0.0, "per_mw_asbstos": 0.0, "per_mw_b_brick": 12.8, "per_mw_concrte": 0.0, "per_mw_oth": 0.0, "per_mf_mud": 99.4, "per_mf_wood": 0.0, "per_mf_b_brick": 0.6, "per_mf_stone": 0.0, "per_mf_cement": 0.0, "per_mf_fl_tile": 0.0, "per_mf_oth": 0.0, "per_dw_n_exrm": 12.2, "per_dw_1_room": 63.4, "per_dw_2_room": 21.3, "per_dw_3_room": 3.0, "per_dw_4_room": 0.0, "per_dw_5_room": 0.0, "per_dw_6_room": 0.0, "per_hhsize_1": 1.8, "per_hhsize_2": 11.0, "per_hhsize_3": 10.4, "per_hhsize_4": 15.2, "per_hhsize_5": 20.1, "per_hhsize_6_8": 32.9, "per_hhsize_9p": 8.5, "per_ow_owned": 100.0, "per_ow_rented": 0.0, "per_ow_oth": 0.0, "per_mc_none": 14.6, "per_mcouple_1": 66.5, "per_mcouple_2": 15.2, "per_mcouple_3": 3.7, "per_mcouple_4": 0.0, "per_mcouple_5p": 0.0, "per_dw_t_ts": 0.0, "per_dw_t_unts": 0.0, "per_dw_c_well": 0.0, "per_dw_unc_wel": 0.0, "per_dw_hpump": 98.8, "per_dw_tw_bore": 1.2, "per_dw_spring": 0.0, "per_dw_rivcan": 0.0, "per_dw_tank": 0.0, "per_dw_oth": 0.0, "per_loc_dw_wp": 9.1, "per_loc_dw_np": 30.5, "per_loc_dw_aw": 60.4, "per_light_elec": 88.4, "per_light_kero": 7.9, "per_light_solr": 1.2, "per_light_oil": 0.0, "per_light_oth": 0.0, "per_light_no": 2.4, "per_hh_latrine": 6.7, "per_fl_sewer": 0.0, "per_fl_septict": 5.5, "per_fl_othsys": 1.2, "per_pl_wslab": 0.0, "per_pl_without": 0.0, "per_ns_open": 0.0, "per_sl_ns_hum": 0.0, "per_sl_ns_anml": 0.0, "per_hh_no_lat": 93.3, "per_as_pub": 0.0, "per_as_open": 93.3, "per_hh_bathrm": 4.9, "per_hh_en_wrf": 38.4, "per_hh_no_btrm": 56.7, "per_wwoc_drain": 0.0, "per_wwoc_open": 4.3, "per_wwoc_nodrn": 95.7, "per_cook_fire": 97.0, "per_cook_resdu": 1.8, "per_cook_cwdng": 0.0, "per_cook_coal": 0.0, "per_cook_kero": 0.0, "per_cook_lpng": 0.6, "per_cook_elec": 0.6, "per_cook_biogs": 0.0, "per_cook_oth": 0.0, "per_cook_no": 0.0, "per_kf_inside": 92.1, "per_kf_in_has": 50.0, "per_kf_in_does": 42.1, "per_kf_outside": 7.9, "per_kf_out_has": 1.2, "per_kf_out_dos": 6.7, "per_kf_no_cook": 0.0, "per_hh_banking": 12.8, "per_hh_radio": 35.4, "per_hh_tv": 37.2, "per_hh_cmp_int": 0.6, "per_hh_cmp_wnt": 0.0, "per_hh_ph_ll": 5.5, "per_hh_ph_mob": 67.7, "per_hh_ph_bth": 1.8, "per_hh_bcycl": 39.0, "per_hh_2wheel": 14.6, "per_hh_4wheel": 2.4, "per_hh_tvcomp": 0.0, "per_hh_no_ast": 7.9, "per_hs_perma": 12.2, "per_hs_sperma": 73.2, "per_hs_temp": 14.6, "per_hs_servc": 0.0, "per_hs_nservc": 14.6, "per_hs_unclss": 0.0, "avghhsz_cy": 5.30177515, "st_areashape": 2097432.37156042, "st_lengthshape": 8212.151961968277}, "geometry": {"type": "Polygon", "coordinates": [[[78.44310722743299, 22.985473648486966], [78.44443445412932, 22.987102915689018], [78.44714728723562, 22.9898016818276], [78.45219238038145, 22.994332285657116], [78.45970197366151, 23.000552180385732], [78.46085802368549, 23.00130873654265], [78.46275119529899, 23.00258545146256], [78.45893000013389, 23.00669000024579], [78.45882999967647, 23.007720000024783], [78.4531300005525, 23.00335999994679], [78.45169000025376, 23.00199000001902], [78.44727999984411, 22.997809999331878], [78.44523999949573, 22.99425999965357], [78.44174000055375, 22.98984999979087], [78.44034000043796, 22.98809999992756], [78.43884999991046, 22.986359999645803], [78.43876999954452, 22.98487999968289], [78.43878999963603, 22.983499999826563], [78.43989726395355, 22.98280213017087], [78.44310722743299, 22.985473648486966]]]}}]}