{"type": "FeatureCollection", "features": [{"type": "Feature", "properties": {"premiumdata.sde.IN_Village_PCA.area": 13.04065714, "objectid": 221376, "id": "244583762285696", "name": "Chorivad", "subdistrict": "Vadali", "district": "Sabar Kantha", "state": "Gujarat", "country": "India", "censusname": "Chorivad", "villagename_locallang": null, "lgd_villagename": "Chorivad", "lgd_villagecode": 509986, "lgd_subdistrictcode": 3762, "lgd_districtcode": 458, "lgd_statecode": 24, "censuscode2001": "00357300", "censuscode2011": "509986", "censuscode2021": null, "level": "Village", "tru": "Rural", "no_hh": 1038, "tot_p": 4717, "tot_m": 2450, "tot_f": 2267, "per_tot_m": 51.93979224, "per_tot_f": 48.06020776, "p_06": 532, "m_06": 282, "f_06": 250, "per_p_06": 11.27835489, "per_m_06": 53.0075188, "per_f_06": 46.9924812, "p_sc": 592, "m_sc": 306, "f_sc": 286, "per_p_sc": 12.5503498, "per_m_sc": 51.68918919, "per_f_sc": 48.31081081, "p_st": 1264, "m_st": 690, "f_st": 574, "per_p_st": 26.79669281, "per_m_st": 54.58860759, "per_f_st": 45.41139241, "p_lit": 3358, "m_lit": 1911, "f_lit": 1447, "per_p_lit": 71.18931524, "per_m_lit": 56.90887433, "per_f_lit": 43.09112567, "p_ill": 1359, "m_ill": 539, "f_ill": 820, "per_p_ill": 28.81068476, "per_m_ill": 39.66151582, "per_f_ill": 60.33848418, "tot_work_p": 2069, "tot_work_m": 1358, "tot_work_f": 711, "per_tot_work_p": 43.86262455, "per_tot_work_m": 65.63557273999999, "per_tot_work_f": 34.36442726000001, "mainwork_p": 1784, "mainwork_m": 1272, "mainwork_f": 512, "per_mainwork_p": 37.82064872, "per_mainwork_m": 71.30044843, "per_mainwork_f": 28.69955157, "main_cl_p": 446, "main_cl_m": 415, "main_cl_f": 31, "per_main_cl_p": 25.0, "per_main_cl_m": 93.04932735, "per_main_cl_f": 6.95067265, "main_al_p": 593, "main_al_m": 375, "main_al_f": 218, "per_main_al_p": 33.23991031, "per_main_al_m": 63.23777403, "per_main_al_f": 36.76222597, "main_hh_p": 30, "main_hh_m": 23, "main_hh_f": 7, "per_main_hh_p": 1.68161435, "per_main_hh_m": 76.66666667, "per_main_hh_f": 23.33333333, "main_ot_p": 715, "main_ot_m": 459, "main_ot_f": 256, "per_main_ot_p": 40.07847534, "per_main_ot_m": 64.1958042, "per_main_ot_f": 35.8041958, "margwork_p": 285, "margwork_m": 86, "margwork_f": 199, "per_margwork_p": 6.04197583, "per_margwork_m": 30.1754386, "per_margwork_f": 69.8245614, "marg_cl_p": 6, "marg_cl_m": 5, "marg_cl_f": 1, "per_marg_cl_p": 2.10526316, "per_marg_cl_m": 83.33333332999999, "per_marg_cl_f": 16.66666667, "marg_al_p": 209, "marg_al_m": 42, "marg_al_f": 167, "per_marg_al_p": 73.33333332999999, "per_marg_al_m": 20.09569378, "per_marg_al_f": 79.90430622000001, "marg_hh_p": 13, "marg_hh_m": 5, "marg_hh_f": 8, "per_marg_hh_p": 4.56140351, "per_marg_hh_m": 38.46153846, "per_marg_hh_f": 61.53846154, "marg_ot_p": 57, "marg_ot_m": 34, "marg_ot_f": 23, "per_marg_ot_p": 20.0, "per_marg_ot_m": 59.64912281, "per_marg_ot_f": 40.35087719, "margwork_3_6_p": 277, "margwork_3_6_m": 84, "margwork_3_6_f": 193, "per_margwork_3_6_p": 97.19298246, "per_margwork_3_6_m": 30.32490975, "per_margwork_3_6_f": 69.67509025, "marg_cl_3_6_p": 6, "marg_cl_3_6_m": 5, "marg_cl_3_6_f": 1, "per_marg_cl_3_6_p": 2.10526316, "per_marg_cl_3_6_m": 83.33333332999999, "per_marg_cl_3_6_f": 16.66666667, "marg_al_3_6_p": 201, "marg_al_3_6_m": 40, "marg_al_3_6_f": 161, "per_marg_al_3_6_p": 70.52631579000001, "per_marg_al_3_6_m": 19.90049751, "per_marg_al_3_6_f": 80.09950249, "marg_hh_3_6_p": 13, "marg_hh_3_6_m": 5, "marg_hh_3_6_f": 8, "per_marg_hh_3_6_p": 4.56140351, "per_marg_hh_3_6_m": 38.46153846, "per_marg_hh_3_6_f": 61.53846154, "marg_ot_3_6_p": 57, "marg_ot_3_6_m": 34, "marg_ot_3_6_f": 23, "per_marg_ot_3_6_p": 20.0, "per_marg_ot_3_6_m": 59.64912281, "per_marg_ot_3_6_f": 40.35087719, "margwork_0_3_p": 8, "margwork_0_3_m": 2, "margwork_0_3_f": 6, "per_margwork_0_3_p": 2.80701754, "per_margwork_0_3_m": 25.0, "per_margwork_0_3_f": 75.0, "marg_cl_0_3_p": 0, "marg_cl_0_3_m": 0, "marg_cl_0_3_f": 0, "per_marg_cl_0_3_p": 0.0, "per_marg_cl_0_3_m": 0.0, "per_marg_cl_0_3_f": 0.0, "marg_al_0_3_p": 8, "marg_al_0_3_m": 2, "marg_al_0_3_f": 6, "per_marg_al_0_3_p": 2.80701754, "per_marg_al_0_3_m": 25.0, "per_marg_al_0_3_f": 75.0, "marg_hh_0_3_p": 0, "marg_hh_0_3_m": 0, "marg_hh_0_3_f": 0, "per_marg_hh_0_3_p": 0.0, "per_marg_hh_0_3_m": 0.0, "per_marg_hh_0_3_f": 0.0, "marg_ot_0_3_p": 0, "marg_ot_0_3_m": 0, "marg_ot_0_3_f": 0, "per_marg_ot_0_3_p": 0.0, "per_marg_ot_0_3_m": 0.0, "per_marg_ot_0_3_f": 0.0, "non_work_p": 2648, "non_work_m": 1092, "non_work_f": 1556, "per_non_work_p": 56.13737545, "per_non_work_m": 41.23867069, "per_non_work_f": 58.76132931, "per_hc_tot_tot": 100, "per_hc_tot_god": 74.3, "per_hc_tot_liv": 25.0, "per_hc_tot_dil": 0.7, "per_hc_res_tot": 98.5, "per_hc_res_god": 73.0, "per_hc_res_liv": 24.8, "per_hc_res_dil": 0.7, "per_hc_oth_tot": 1.5, "per_hc_oth_god": 1.3, "per_hc_oth_liv": 0.2, "per_hc_oth_dil": 0.0, "per_mt_grsbam": 0.3, "per_mt_plastic": 0.2, "per_mt_h_tiles": 11.5, "per_mt_m_tiles": 11.9, "per_mt_b_brick": 0.1, "per_mt_stone": 1.5, "per_mt_asbstos": 9.1, "per_mt_concrte": 65.3, "per_mt_oth": 0.0, "per_mw_grsbam": 0.0, "per_mw_plastic": 0.2, "per_mw_mud": 20.0, "per_mw_wood": 0.0, "per_mw_no_mrtr": 0.0, "per_mw_st_mrtr": 0.1, "per_mw_asbstos": 0.1, "per_mw_b_brick": 79.3, "per_mw_concrte": 0.2, "per_mw_oth": 0.0, "per_mf_mud": 16.3, "per_mf_wood": 0.0, "per_mf_b_brick": 0.1, "per_mf_stone": 4.2, "per_mf_cement": 41.5, "per_mf_fl_tile": 37.9, "per_mf_oth": 0.0, "per_dw_n_exrm": 0.1, "per_dw_1_room": 11.6, "per_dw_2_room": 58.7, "per_dw_3_room": 26.7, "per_dw_4_room": 2.6, "per_dw_5_room": 0.1, "per_dw_6_room": 0.2, "per_hhsize_1": 4.1, "per_hhsize_2": 9.8, "per_hhsize_3": 13.1, "per_hhsize_4": 23.6, "per_hhsize_5": 21.6, "per_hhsize_6_8": 23.7, "per_hhsize_9p": 4.2, "per_ow_owned": 86.3, "per_ow_rented": 10.9, "per_ow_oth": 2.8, "per_mc_none": 9.1, "per_mcouple_1": 69.9, "per_mcouple_2": 17.2, "per_mcouple_3": 3.3, "per_mcouple_4": 0.4, "per_mcouple_5p": 0.0, "per_dw_t_ts": 36.8, "per_dw_t_unts": 47.9, "per_dw_c_well": 15.1, "per_dw_unc_wel": 0.2, "per_dw_hpump": 0.0, "per_dw_tw_bore": 0.0, "per_dw_spring": 0.0, "per_dw_rivcan": 0.0, "per_dw_tank": 0.0, "per_dw_oth": 0.0, "per_loc_dw_wp": 78.6, "per_loc_dw_np": 20.6, "per_loc_dw_aw": 0.8, "per_light_elec": 98.9, "per_light_kero": 0.7, "per_light_solr": 0.0, "per_light_oil": 0.0, "per_light_oth": 0.0, "per_light_no": 0.4, "per_hh_latrine": 73.3, "per_fl_sewer": 16.0, "per_fl_septict": 37.6, "per_fl_othsys": 5.9, "per_pl_wslab": 13.9, "per_pl_without": 0.0, "per_ns_open": 0.0, "per_sl_ns_hum": 0.0, "per_sl_ns_anml": 0.0, "per_hh_no_lat": 26.7, "per_as_pub": 13.8, "per_as_open": 12.9, "per_hh_bathrm": 71.1, "per_hh_en_wrf": 16.9, "per_hh_no_btrm": 12.0, "per_wwoc_drain": 39.1, "per_wwoc_open": 7.9, "per_wwoc_nodrn": 53.0, "per_cook_fire": 43.2, "per_cook_resdu": 0.0, "per_cook_cwdng": 0.0, "per_cook_coal": 0.0, "per_cook_kero": 10.4, "per_cook_lpng": 46.0, "per_cook_elec": 0.0, "per_cook_biogs": 0.2, "per_cook_oth": 0.0, "per_cook_no": 0.2, "per_kf_inside": 97.5, "per_kf_in_has": 90.3, "per_kf_in_does": 7.2, "per_kf_outside": 2.3, "per_kf_out_has": 1.1, "per_kf_out_dos": 1.2, "per_kf_no_cook": 0.2, "per_hh_banking": 89.3, "per_hh_radio": 12.1, "per_hh_tv": 67.7, "per_hh_cmp_int": 1.4, "per_hh_cmp_wnt": 2.3, "per_hh_ph_ll": 2.0, "per_hh_ph_mob": 68.0, "per_hh_ph_bth": 12.9, "per_hh_bcycl": 47.1, "per_hh_2wheel": 48.9, "per_hh_4wheel": 8.3, "per_hh_tvcomp": 2.6, "per_hh_no_ast": 8.6, "per_hs_perma": 79.7, "per_hs_sperma": 19.7, "per_hs_temp": 0.6, "per_hs_servc": 0.3, "per_hs_nservc": 0.2, "per_hs_unclss": 0.0, "avghhsz_cy": 4.54431599, "st_areashape": 15672329.024863355, "st_lengthshape": 16770.0489061397}, "geometry": {"type": "Polygon", "coordinates": [[[73.12406618187535, 23.918815375443486], [73.12201144107146, 23.918019320516546], [73.11892182668726, 23.916773258811354], [73.11585623235538, 23.91547828734133], [73.11281710957834, 23.914133156415005], [73.10932145938064, 23.912561676769023], [73.10862027040244, 23.91233404742971], [73.1079060100386, 23.912140570223904], [73.1071823856362, 23.911981034253465], [73.10644941785652, 23.911856573739215], [73.10571186777058, 23.911767252015974], [73.10496877867261, 23.911714082534502], [73.10489028927299, 23.908344985697298], [73.10373249561907, 23.90289815519659], [73.10477236922227, 23.902431375755942], [73.10550484742014, 23.902048864071972], [73.10621471502223, 23.901632701861327], [73.10690072426874, 23.901183134361943], [73.10755945706998, 23.900701144302186], [73.10818937551011, 23.900187791601144], [73.10879059367528, 23.89964557753635], [73.10935842864782, 23.89907451570678], [73.10989500584179, 23.89847787696014], [73.11039572857777, 23.89785560427261], [73.11086040012479, 23.8972113898661], [73.11128804221747, 23.89654511596546], [73.11167714119459, 23.89585897924635], [73.11202559769329, 23.895155378465848], [73.11233450765825, 23.89443534492148], [73.11260254068452, 23.893702295064763], [73.11282749769627, 23.89295741139409], [73.11301057075792, 23.89220301562717], [73.11315049683817, 23.891441240624687], [73.11318002446156, 23.890790514661603], [73.11328516867229, 23.890188356823867], [73.11352227539828, 23.88961947581786], [73.11388424255885, 23.889107647919644], [73.11435417643682, 23.88867552363794], [73.1149101644274, 23.88834281482619], [73.11553044843613, 23.88812319385141], [73.11618544604241, 23.88802620636494], [73.11932536338757, 23.887836597553182], [73.1217046169946, 23.887647045959216], [73.12408098700955, 23.887420393713146], [73.12645182519896, 23.887155389673723], [73.12881724295397, 23.886853020894094], [73.13117725913918, 23.886511323207266], [73.13364748962658, 23.88641751487471], [73.13398881709519, 23.887047331851207], [73.13442308426309, 23.887628521673612], [73.13494123880717, 23.88814745857632], [73.13553215599097, 23.888595560089097], [73.13618605136436, 23.888963626091602], [73.13689027036, 23.88924406464672], [73.1376301407943, 23.88943153422879], [73.1383908934657, 23.889522653724168], [73.13915891081282, 23.889515452906057], [73.14150937700823, 23.88937906274858], [73.14275013996013, 23.889335994952532], [73.14399227104619, 23.889312086919144], [73.14523348674899, 23.88930852141194], [73.14647502764191, 23.88932520069121], [73.14771678413051, 23.889361066021426], [73.14895639544223, 23.88941729274641], [73.15019616485742, 23.88949383402232], [73.1514327021342, 23.889589556344017], [73.15266805722808, 23.889704551660557], [73.15390020353979, 23.88983986139591], [73.15512996123113, 23.889995523268542], [73.15635769681478, 23.890169286703934], [73.15758068300549, 23.89036458076336], [73.1587990473641, 23.890578993871188], [73.15904887603115, 23.89141780443114], [73.1593546589606, 23.89258442052993], [73.15961631754162, 23.89376069395769], [73.15983265791317, 23.894944308326657], [73.15993924302163, 23.895646204382302], [73.15985704178325, 23.896295480939276], [73.15930368675477, 23.896999768700177], [73.15909281802156, 23.897588766287953], [73.1588788743552, 23.898312067470588], [73.15849673821985, 23.899046810987254], [73.15813955818142, 23.899626400400535], [73.15781688333138, 23.900221426589045], [73.1575276563526, 23.900831694695448], [73.15727436647677, 23.901455198119134], [73.15705673971773, 23.902089359507478], [73.1568749135177, 23.902733125834214], [73.15654590195163, 23.90431163590032], [73.1563434459411, 23.905435601306117], [73.15616201499978, 23.906562695743443], [73.15527885698947, 23.906607740290877], [73.1545658138428, 23.906597317853354], [73.15385291622322, 23.906598151418457], [73.1531401811987, 23.906611451502965], [73.15242756115855, 23.906634950642463], [73.15171519803657, 23.906670693733734], [73.15100288791514, 23.906717840632343], [73.15029316224684, 23.906775144675528], [73.14958368541186, 23.906844768187415], [73.14887557760936, 23.906925779857065], [73.14816876877076, 23.90701794807231], [73.14746458570775, 23.907122541629793], [73.14676183815256, 23.907237242953556], [73.1460616957117, 23.90736323542572], [73.14536415658853, 23.907500519013297], [73.14466923156282, 23.9076489450359], [73.14397680565025, 23.907807524683722], [73.14328708815827, 23.907978533568855], [73.14260244075773, 23.90816079398889], [73.14192038320016, 23.90835306254607], [73.14124084362035, 23.908556694231784], [73.14056643701407, 23.908770370913995], [73.1398958760955, 23.90899516999814], [73.13923037718354, 23.90923137146552], [73.13856861346657, 23.90947763090323], [73.13791198811302, 23.909733861203755], [73.13726042835935, 23.910001419792295], [73.1366127080052, 23.910280173560416], [73.13597116446695, 23.910567889535322], [73.13533598639081, 23.910865629493625], [73.13470587481287, 23.911174698280398], [73.13408186099905, 23.9114926477716], [73.13346306100716, 23.9118206481304], [73.13285179338892, 23.912159935202958], [73.13224677085854, 23.91250690215117], [73.13164788112663, 23.912865169612907], [73.13105665043082, 23.91323231247813], [73.1304715920593, 23.9136084916267], [73.12989405528167, 23.91399459880222], [73.1293240904036, 23.914389654227797], [73.12876144949, 23.91479372187445], [73.12820646761251, 23.915206666161033], [73.12766004578138, 23.915628528061834], [73.12712126142678, 23.916058131550717], [73.1265899887846, 23.916497815280973], [73.12606846376158, 23.916944202454943], [73.1255546184359, 23.917400601528268], [73.12504928644417, 23.9178637252321], [73.12455407936405, 23.918335686369115], [73.12406618187535, 23.918815375443486]]]}}]}