{"type": "FeatureCollection", "features": [{"type": "Feature", "properties": {"premiumdata.sde.IN_Village_PCA.area": 2.56949294, "objectid": 32515, "id": "335935724184052", "name": "Vilankuppam", "subdistrict": "Polur", "district": "Tiruvannamalai", "state": "Tamil Nadu", "country": "India", "censusname": "Vilankuppam", "villagename_locallang": null, "lgd_villagename": "Vilankuppam", "lgd_villagecode": 631681, "lgd_subdistrictcode": 5724, "lgd_districtcode": 593, "lgd_statecode": 33, "censuscode2001": "00429400", "censuscode2011": "631681", "censuscode2021": null, "level": "Village", "tru": "Rural", "no_hh": 485, "tot_p": 1960, "tot_m": 1009, "tot_f": 951, "per_tot_m": 51.47959184, "per_tot_f": 48.52040816, "p_06": 229, "m_06": 115, "f_06": 114, "per_p_06": 11.68367347, "per_m_06": 50.21834061, "per_f_06": 49.78165939, "p_sc": 466, "m_sc": 241, "f_sc": 225, "per_p_sc": 23.7755102, "per_m_sc": 51.7167382, "per_f_sc": 48.2832618, "p_st": 8, "m_st": 4, "f_st": 4, "per_p_st": 0.40816327, "per_m_st": 50.0, "per_f_st": 50.0, "p_lit": 1241, "m_lit": 776, "f_lit": 465, "per_p_lit": 63.31632653, "per_m_lit": 62.53021757, "per_f_lit": 37.46978243, "p_ill": 719, "m_ill": 233, "f_ill": 486, "per_p_ill": 36.68367347, "per_m_ill": 32.40611961, "per_f_ill": 67.59388039, "tot_work_p": 1067, "tot_work_m": 631, "tot_work_f": 436, "per_tot_work_p": 54.43877551, "per_tot_work_m": 59.13776945, "per_tot_work_f": 40.86223055, "mainwork_p": 759, "mainwork_m": 487, "mainwork_f": 272, "per_mainwork_p": 38.7244898, "per_mainwork_m": 64.16337286000001, "per_mainwork_f": 35.83662714, "main_cl_p": 403, "main_cl_m": 264, "main_cl_f": 139, "per_main_cl_p": 53.09617918, "per_main_cl_m": 65.50868486, "per_main_cl_f": 34.49131514, "main_al_p": 197, "main_al_m": 102, "main_al_f": 95, "per_main_al_p": 25.95520422, "per_main_al_m": 51.77664975, "per_main_al_f": 48.22335025, "main_hh_p": 26, "main_hh_m": 20, "main_hh_f": 6, "per_main_hh_p": 3.42555995, "per_main_hh_m": 76.92307692, "per_main_hh_f": 23.07692308, "main_ot_p": 133, "main_ot_m": 101, "main_ot_f": 32, "per_main_ot_p": 17.52305665, "per_main_ot_m": 75.93984962, "per_main_ot_f": 24.06015038, "margwork_p": 308, "margwork_m": 144, "margwork_f": 164, "per_margwork_p": 15.71428571, "per_margwork_m": 46.75324675, "per_margwork_f": 53.24675325, "marg_cl_p": 53, "marg_cl_m": 31, "marg_cl_f": 22, "per_marg_cl_p": 17.20779221, "per_marg_cl_m": 58.49056604, "per_marg_cl_f": 41.50943396, "marg_al_p": 222, "marg_al_m": 100, "marg_al_f": 122, "per_marg_al_p": 72.07792208, "per_marg_al_m": 45.04504505, "per_marg_al_f": 54.95495495, "marg_hh_p": 4, "marg_hh_m": 0, "marg_hh_f": 4, "per_marg_hh_p": 1.2987013, "per_marg_hh_m": 0.0, "per_marg_hh_f": 100.0, "marg_ot_p": 29, "marg_ot_m": 13, "marg_ot_f": 16, "per_marg_ot_p": 9.41558442, "per_marg_ot_m": 44.82758621, "per_marg_ot_f": 55.17241379, "margwork_3_6_p": 296, "margwork_3_6_m": 144, "margwork_3_6_f": 152, "per_margwork_3_6_p": 96.1038961, "per_margwork_3_6_m": 48.64864865, "per_margwork_3_6_f": 51.35135135, "marg_cl_3_6_p": 53, "marg_cl_3_6_m": 31, "marg_cl_3_6_f": 22, "per_marg_cl_3_6_p": 17.20779221, "per_marg_cl_3_6_m": 58.49056604, "per_marg_cl_3_6_f": 41.50943396, "marg_al_3_6_p": 210, "marg_al_3_6_m": 100, "marg_al_3_6_f": 110, "per_marg_al_3_6_p": 68.18181818, "per_marg_al_3_6_m": 47.61904762, "per_marg_al_3_6_f": 52.38095238, "marg_hh_3_6_p": 4, "marg_hh_3_6_m": 0, "marg_hh_3_6_f": 4, "per_marg_hh_3_6_p": 1.2987013, "per_marg_hh_3_6_m": 0.0, "per_marg_hh_3_6_f": 100.0, "marg_ot_3_6_p": 29, "marg_ot_3_6_m": 13, "marg_ot_3_6_f": 16, "per_marg_ot_3_6_p": 9.41558442, "per_marg_ot_3_6_m": 44.82758621, "per_marg_ot_3_6_f": 55.17241379, "margwork_0_3_p": 12, "margwork_0_3_m": 0, "margwork_0_3_f": 12, "per_margwork_0_3_p": 3.8961039, "per_margwork_0_3_m": 0.0, "per_margwork_0_3_f": 100.0, "marg_cl_0_3_p": 0, "marg_cl_0_3_m": 0, "marg_cl_0_3_f": 0, "per_marg_cl_0_3_p": 0.0, "per_marg_cl_0_3_m": 0.0, "per_marg_cl_0_3_f": 0.0, "marg_al_0_3_p": 12, "marg_al_0_3_m": 0, "marg_al_0_3_f": 12, "per_marg_al_0_3_p": 3.8961039, "per_marg_al_0_3_m": 0.0, "per_marg_al_0_3_f": 100.0, "marg_hh_0_3_p": 0, "marg_hh_0_3_m": 0, "marg_hh_0_3_f": 0, "per_marg_hh_0_3_p": 0.0, "per_marg_hh_0_3_m": 0.0, "per_marg_hh_0_3_f": 0.0, "marg_ot_0_3_p": 0, "marg_ot_0_3_m": 0, "marg_ot_0_3_f": 0, "per_marg_ot_0_3_p": 0.0, "per_marg_ot_0_3_m": 0.0, "per_marg_ot_0_3_f": 0.0, "non_work_p": 893, "non_work_m": 378, "non_work_f": 515, "per_non_work_p": 45.56122449, "per_non_work_m": 42.32922732, "per_non_work_f": 57.67077268, "per_hc_tot_tot": 100, "per_hc_tot_god": 97.3, "per_hc_tot_liv": 1.6, "per_hc_tot_dil": 1.0, "per_hc_res_tot": 99.8, "per_hc_res_god": 97.1, "per_hc_res_liv": 1.6, "per_hc_res_dil": 1.0, "per_hc_oth_tot": 0.2, "per_hc_oth_god": 0.2, "per_hc_oth_liv": 0.0, "per_hc_oth_dil": 0.0, "per_mt_grsbam": 24.4, "per_mt_plastic": 0.0, "per_mt_h_tiles": 8.0, "per_mt_m_tiles": 8.6, "per_mt_b_brick": 0.6, "per_mt_stone": 3.3, "per_mt_asbstos": 4.7, "per_mt_concrte": 50.2, "per_mt_oth": 0.2, "per_mw_grsbam": 4.9, "per_mw_plastic": 0.0, "per_mw_mud": 18.9, "per_mw_wood": 0.0, "per_mw_no_mrtr": 0.8, "per_mw_st_mrtr": 0.8, "per_mw_asbstos": 0.2, "per_mw_b_brick": 73.6, "per_mw_concrte": 0.6, "per_mw_oth": 0.2, "per_mf_mud": 19.7, "per_mf_wood": 0.0, "per_mf_b_brick": 0.6, "per_mf_stone": 0.0, "per_mf_cement": 76.6, "per_mf_fl_tile": 3.1, "per_mf_oth": 0.0, "per_dw_n_exrm": 3.1, "per_dw_1_room": 28.5, "per_dw_2_room": 38.7, "per_dw_3_room": 18.0, "per_dw_4_room": 7.8, "per_dw_5_room": 2.7, "per_dw_6_room": 1.2, "per_hhsize_1": 7.8, "per_hhsize_2": 11.7, "per_hhsize_3": 12.3, "per_hhsize_4": 27.0, "per_hhsize_5": 21.9, "per_hhsize_6_8": 18.9, "per_hhsize_9p": 0.4, "per_ow_owned": 98.6, "per_ow_rented": 0.8, "per_ow_oth": 0.6, "per_mc_none": 17.2, "per_mcouple_1": 64.3, "per_mcouple_2": 17.2, "per_mcouple_3": 1.2, "per_mcouple_4": 0.0, "per_mcouple_5p": 0.0, "per_dw_t_ts": 0.8, "per_dw_t_unts": 77.7, "per_dw_c_well": 0.0, "per_dw_unc_wel": 18.9, "per_dw_hpump": 0.2, "per_dw_tw_bore": 2.5, "per_dw_spring": 0.0, "per_dw_rivcan": 0.0, "per_dw_tank": 0.0, "per_dw_oth": 0.0, "per_loc_dw_wp": 18.2, "per_loc_dw_np": 79.9, "per_loc_dw_aw": 1.8, "per_light_elec": 96.3, "per_light_kero": 3.3, "per_light_solr": 0.0, "per_light_oil": 0.0, "per_light_oth": 0.0, "per_light_no": 0.4, "per_hh_latrine": 3.1, "per_fl_sewer": 0.0, "per_fl_septict": 2.5, "per_fl_othsys": 0.2, "per_pl_wslab": 0.2, "per_pl_without": 0.0, "per_ns_open": 0.2, "per_sl_ns_hum": 0.0, "per_sl_ns_anml": 0.0, "per_hh_no_lat": 96.9, "per_as_pub": 0.0, "per_as_open": 96.9, "per_hh_bathrm": 2.0, "per_hh_en_wrf": 4.9, "per_hh_no_btrm": 93.0, "per_wwoc_drain": 0.8, "per_wwoc_open": 0.2, "per_wwoc_nodrn": 99.0, "per_cook_fire": 92.8, "per_cook_resdu": 0.0, "per_cook_cwdng": 0.4, "per_cook_coal": 0.0, "per_cook_kero": 0.2, "per_cook_lpng": 6.1, "per_cook_elec": 0.0, "per_cook_biogs": 0.2, "per_cook_oth": 0.0, "per_cook_no": 0.2, "per_kf_inside": 18.4, "per_kf_in_has": 15.6, "per_kf_in_does": 2.9, "per_kf_outside": 81.4, "per_kf_out_has": 79.1, "per_kf_out_dos": 2.3, "per_kf_no_cook": 0.2, "per_hh_banking": 52.9, "per_hh_radio": 8.0, "per_hh_tv": 88.3, "per_hh_cmp_int": 0.6, "per_hh_cmp_wnt": 0.2, "per_hh_ph_ll": 2.5, "per_hh_ph_mob": 68.0, "per_hh_ph_bth": 1.6, "per_hh_bcycl": 76.6, "per_hh_2wheel": 27.7, "per_hh_4wheel": 0.2, "per_hh_tvcomp": 0.6, "per_hh_no_ast": 7.2, "per_hs_perma": 73.8, "per_hs_sperma": 3.5, "per_hs_temp": 22.3, "per_hs_servc": 17.8, "per_hs_nservc": 4.5, "per_hs_unclss": 0.4, "avghhsz_cy": 4.04123711, "st_areashape": 2714678.295869325, "st_lengthshape": 7422.709312837781}, "geometry": {"type": "Polygon", "coordinates": [[[79.13554471839447, 12.607359049109972], [79.13554471839447, 12.608170868759894], [79.13590123817114, 12.610374367771337], [79.13697079660294, 12.61280979208262], [79.13827803488584, 12.6142014523422], [79.13863455466256, 12.615825046563813], [79.13934759421596, 12.616984750167305], [79.14006063287103, 12.618376387731251], [79.14053599257332, 12.620695767440191], [79.14209462259187, 12.622600318526436], [79.14184323085624, 12.623826896130002], [79.14051123410576, 12.624947908240273], [79.13932283574843, 12.625817656084555], [79.1376887876702, 12.62639748546117], [79.13531199005716, 12.625382782532096], [79.13234099371462, 12.625237824516983], [79.13115259445897, 12.624657991635013], [79.12936999737208, 12.623498322804908], [79.12847869793032, 12.621178968498523], [79.12773594839555, 12.620164244871532], [79.12491350195997, 12.620164244871532], [79.12544333011117, 12.617680570333379], [79.12627520869182, 12.617100720326324], [79.1263940486174, 12.615477134195318], [79.12675056839409, 12.614085480869754], [79.12698824824521, 12.612113958678098], [79.12746360704918, 12.610606314025205], [79.12698824824521, 12.608286842910813], [79.12663172846852, 12.606431251072237], [79.12793896675146, 12.606199301037783], [79.12841432645371, 12.607011125239612], [79.12865200630485, 12.607822946868767], [79.13007808451331, 12.607938920300539], [79.13138532279626, 12.606895150511129], [79.13209836234965, 12.605735401215572], [79.13281140100473, 12.60631527608128], [79.13518819861775, 12.605851376469024], [79.13554471839447, 12.607359049109972]]]}}]}