{"type": "FeatureCollection", "features": [{"type": "Feature", "properties": {"premiumdata.sde.IN_Village_PCA.area": 4.12813927, "objectid": 607993, "id": "182856014245414", "name": "Gauripur", "subdistrict": "Dhubri", "district": "Dhubri", "state": "Assam", "country": "India", "censusname": "Gauripur (TC)", "villagename_locallang": null, "lgd_villagename": "Gauripur", "lgd_villagecode": 249826, "lgd_subdistrictcode": 6014, "lgd_districtcode": 285, "lgd_statecode": 18, "censuscode2001": null, "censuscode2011": "801548", "censuscode2021": null, "level": "Town", "tru": "Urban", "no_hh": 5216, "tot_p": 25124, "tot_m": 12923, "tot_f": 12201, "per_tot_m": 51.43687311, "per_tot_f": 48.56312689, "p_06": 2481, "m_06": 1279, "f_06": 1202, "per_p_06": 9.8750199, "per_m_06": 51.55179363, "per_f_06": 48.44820637, "p_sc": 2789, "m_sc": 1438, "f_sc": 1351, "per_p_sc": 11.10093934, "per_m_sc": 51.55969882, "per_f_sc": 48.44030118, "p_st": 177, "m_st": 99, "f_st": 78, "per_p_st": 0.70450565, "per_m_st": 55.93220339000001, "per_f_st": 44.06779661, "p_lit": 19876, "m_lit": 10714, "f_lit": 9162, "per_p_lit": 79.11160643, "per_m_lit": 53.90420608, "per_f_lit": 46.09579392, "p_ill": 5248, "m_ill": 2209, "f_ill": 3039, "per_p_ill": 20.88839357, "per_m_ill": 42.09222561, "per_f_ill": 57.90777439, "tot_work_p": 8787, "tot_work_m": 7287, "tot_work_f": 1500, "per_tot_work_p": 34.97452635, "per_tot_work_m": 82.92932742, "per_tot_work_f": 17.07067258, "mainwork_p": 8021, "mainwork_m": 6856, "mainwork_f": 1165, "per_mainwork_p": 31.92564878, "per_mainwork_m": 85.47562648, "per_mainwork_f": 14.52437352, "main_cl_p": 63, "main_cl_m": 57, "main_cl_f": 6, "per_main_cl_p": 0.78543822, "per_main_cl_m": 90.47619048, "per_main_cl_f": 9.52380952, "main_al_p": 35, "main_al_m": 21, "main_al_f": 14, "per_main_al_p": 0.43635457, "per_main_al_m": 60.0, "per_main_al_f": 40.0, "main_hh_p": 325, "main_hh_m": 187, "main_hh_f": 138, "per_main_hh_p": 4.05186386, "per_main_hh_m": 57.53846154, "per_main_hh_f": 42.46153846, "main_ot_p": 7598, "main_ot_m": 6591, "main_ot_f": 1007, "per_main_ot_p": 94.72634335, "per_main_ot_m": 86.74651224, "per_main_ot_f": 13.25348776, "margwork_p": 766, "margwork_m": 431, "margwork_f": 335, "per_margwork_p": 3.04887757, "per_margwork_m": 56.26631854, "per_margwork_f": 43.73368146, "marg_cl_p": 26, "marg_cl_m": 21, "marg_cl_f": 5, "per_marg_cl_p": 3.39425587, "per_marg_cl_m": 80.76923077, "per_marg_cl_f": 19.23076923, "marg_al_p": 18, "marg_al_m": 14, "marg_al_f": 4, "per_marg_al_p": 2.34986945, "per_marg_al_m": 77.77777778, "per_marg_al_f": 22.22222222, "marg_hh_p": 88, "marg_hh_m": 24, "marg_hh_f": 64, "per_marg_hh_p": 11.48825065, "per_marg_hh_m": 27.27272727, "per_marg_hh_f": 72.72727273, "marg_ot_p": 634, "marg_ot_m": 372, "marg_ot_f": 262, "per_marg_ot_p": 82.76762402, "per_marg_ot_m": 58.67507886, "per_marg_ot_f": 41.32492114, "margwork_3_6_p": 678, "margwork_3_6_m": 397, "margwork_3_6_f": 281, "per_margwork_3_6_p": 88.51174935, "per_margwork_3_6_m": 58.55457227, "per_margwork_3_6_f": 41.44542773, "marg_cl_3_6_p": 26, "marg_cl_3_6_m": 21, "marg_cl_3_6_f": 5, "per_marg_cl_3_6_p": 3.39425587, "per_marg_cl_3_6_m": 80.76923077, "per_marg_cl_3_6_f": 19.23076923, "marg_al_3_6_p": 17, "marg_al_3_6_m": 13, "marg_al_3_6_f": 4, "per_marg_al_3_6_p": 2.21932115, "per_marg_al_3_6_m": 76.47058824, "per_marg_al_3_6_f": 23.52941176, "marg_hh_3_6_p": 73, "marg_hh_3_6_m": 21, "marg_hh_3_6_f": 52, "per_marg_hh_3_6_p": 9.53002611, "per_marg_hh_3_6_m": 28.76712329, "per_marg_hh_3_6_f": 71.23287671, "marg_ot_3_6_p": 562, "marg_ot_3_6_m": 342, "marg_ot_3_6_f": 220, "per_marg_ot_3_6_p": 73.36814621, "per_marg_ot_3_6_m": 60.85409253, "per_marg_ot_3_6_f": 39.14590747, "margwork_0_3_p": 88, "margwork_0_3_m": 34, "margwork_0_3_f": 54, "per_margwork_0_3_p": 11.48825065, "per_margwork_0_3_m": 38.63636364, "per_margwork_0_3_f": 61.36363636, "marg_cl_0_3_p": 0, "marg_cl_0_3_m": 0, "marg_cl_0_3_f": 0, "per_marg_cl_0_3_p": 0.0, "per_marg_cl_0_3_m": 0.0, "per_marg_cl_0_3_f": 0.0, "marg_al_0_3_p": 1, "marg_al_0_3_m": 1, "marg_al_0_3_f": 0, "per_marg_al_0_3_p": 0.1305483, "per_marg_al_0_3_m": 100.0, "per_marg_al_0_3_f": 0.0, "marg_hh_0_3_p": 15, "marg_hh_0_3_m": 3, "marg_hh_0_3_f": 12, "per_marg_hh_0_3_p": 1.95822454, "per_marg_hh_0_3_m": 20.0, "per_marg_hh_0_3_f": 80.0, "marg_ot_0_3_p": 72, "marg_ot_0_3_m": 30, "marg_ot_0_3_f": 42, "per_marg_ot_0_3_p": 9.39947781, "per_marg_ot_0_3_m": 41.66666667000001, "per_marg_ot_0_3_f": 58.33333333, "non_work_p": 16337, "non_work_m": 5636, "non_work_f": 10701, "per_non_work_p": 65.02547365000001, "per_non_work_m": 34.49837792, "per_non_work_f": 65.50162208, "per_hc_tot_tot": 100, "per_hc_tot_god": 62.2, "per_hc_tot_liv": 28.2, "per_hc_tot_dil": 9.6, "per_hc_res_tot": 98.3, "per_hc_res_god": 61.2, "per_hc_res_liv": 27.6, "per_hc_res_dil": 9.5, "per_hc_oth_tot": 1.7, "per_hc_oth_god": 1.0, "per_hc_oth_liv": 0.6, "per_hc_oth_dil": 0.1, "per_mt_grsbam": 1.3, "per_mt_plastic": 0.5, "per_mt_h_tiles": 2.4, "per_mt_m_tiles": 1.4, "per_mt_b_brick": 0.5, "per_mt_stone": 0.7, "per_mt_asbstos": 81.1, "per_mt_concrte": 11.6, "per_mt_oth": 0.4, "per_mw_grsbam": 27.5, "per_mw_plastic": 1.2, "per_mw_mud": 1.9, "per_mw_wood": 1.4, "per_mw_no_mrtr": 2.8, "per_mw_st_mrtr": 1.4, "per_mw_asbstos": 3.3, "per_mw_b_brick": 52.2, "per_mw_concrte": 2.0, "per_mw_oth": 6.2, "per_mf_mud": 36.3, "per_mf_wood": 0.7, "per_mf_b_brick": 1.6, "per_mf_stone": 0.0, "per_mf_cement": 60.4, "per_mf_fl_tile": 0.9, "per_mf_oth": 0.0, "per_dw_n_exrm": 1.1, "per_dw_1_room": 26.9, "per_dw_2_room": 30.0, "per_dw_3_room": 18.0, "per_dw_4_room": 12.1, "per_dw_5_room": 6.0, "per_dw_6_room": 5.9, "per_hhsize_1": 3.3, "per_hhsize_2": 7.7, "per_hhsize_3": 17.8, "per_hhsize_4": 26.0, "per_hhsize_5": 17.5, "per_hhsize_6_8": 20.7, "per_hhsize_9p": 7.1, "per_ow_owned": 84.7, "per_ow_rented": 11.9, "per_ow_oth": 3.5, "per_mc_none": 15.5, "per_mcouple_1": 69.2, "per_mcouple_2": 11.0, "per_mcouple_3": 3.4, "per_mcouple_4": 0.8, "per_mcouple_5p": 0.1, "per_dw_t_ts": 4.7, "per_dw_t_unts": 1.0, "per_dw_c_well": 0.7, "per_dw_unc_wel": 0.8, "per_dw_hpump": 66.0, "per_dw_tw_bore": 25.4, "per_dw_spring": 0.0, "per_dw_rivcan": 0.1, "per_dw_tank": 0.1, "per_dw_oth": 1.0, "per_loc_dw_wp": 93.2, "per_loc_dw_np": 3.7, "per_loc_dw_aw": 3.1, "per_light_elec": 78.6, "per_light_kero": 21.1, "per_light_solr": 0.0, "per_light_oil": 0.0, "per_light_oth": 0.1, "per_light_no": 0.2, "per_hh_latrine": 88.7, "per_fl_sewer": 5.8, "per_fl_septict": 54.3, "per_fl_othsys": 6.7, "per_pl_wslab": 15.4, "per_pl_without": 5.0, "per_ns_open": 0.2, "per_sl_ns_hum": 1.0, "per_sl_ns_anml": 0.4, "per_hh_no_lat": 11.3, "per_as_pub": 1.3, "per_as_open": 10.0, "per_hh_bathrm": 63.0, "per_hh_en_wrf": 8.8, "per_hh_no_btrm": 28.2, "per_wwoc_drain": 5.9, "per_wwoc_open": 37.5, "per_wwoc_nodrn": 56.6, "per_cook_fire": 37.0, "per_cook_resdu": 1.4, "per_cook_cwdng": 0.5, "per_cook_coal": 0.0, "per_cook_kero": 1.0, "per_cook_lpng": 59.1, "per_cook_elec": 0.2, "per_cook_biogs": 0.2, "per_cook_oth": 0.1, "per_cook_no": 0.5, "per_kf_inside": 86.6, "per_kf_in_has": 78.2, "per_kf_in_does": 8.4, "per_kf_outside": 12.9, "per_kf_out_has": 11.0, "per_kf_out_dos": 1.9, "per_kf_no_cook": 0.5, "per_hh_banking": 67.2, "per_hh_radio": 12.8, "per_hh_tv": 63.8, "per_hh_cmp_int": 3.6, "per_hh_cmp_wnt": 13.2, "per_hh_ph_ll": 2.2, "per_hh_ph_mob": 68.3, "per_hh_ph_bth": 8.3, "per_hh_bcycl": 45.0, "per_hh_2wheel": 15.6, "per_hh_4wheel": 5.7, "per_hh_tvcomp": 5.6, "per_hh_no_ast": 14.3, "per_hs_perma": 61.6, "per_hs_sperma": 30.3, "per_hs_temp": 1.6, "per_hs_servc": 0.0, "per_hs_nservc": 1.6, "per_hs_unclss": 6.6, "avghhsz_cy": 4.81671779, "st_areashape": 5138929.859152615, "st_lengthshape": 12347.131875671155}, "geometry": {"type": "Polygon", "coordinates": [[[89.96584000189434, 26.097759997936027], [89.9646000016121, 26.09698999754405], [89.9640900019742, 26.093449997851774], [89.96318000230318, 26.092619996778833], [89.96102000230417, 26.09270999758804], [89.95802000205609, 26.094829997701204], [89.9569100014702, 26.095619996928946], [89.95566000204055, 26.09599999765942], [89.95538000165806, 26.095989998123066], [89.95412000218266, 26.095969997434334], [89.95216000220023, 26.094569997197], [89.95065000158125, 26.093049997331086], [89.95050000179346, 26.091769997285137], [89.9506800017185, 26.091689997271104], [89.95290000199195, 26.089969997050343], [89.95480000169992, 26.088509997389544], [89.95744000119961, 26.088149997757014], [89.95947000150225, 26.08764999764017], [89.9614800017134, 26.087419997320808], [89.9620000013971, 26.08579999735], [89.95992000176405, 26.082899997289097], [89.95766000220594, 26.081089997776388], [89.95570000132521, 26.079559997760988], [89.95548000211548, 26.0786499973594], [89.95528000209896, 26.077779997489927], [89.9557900017369, 26.076159997226657], [89.95723000203564, 26.07455999665034], [89.95930000162294, 26.072699997737896], [89.96150000180488, 26.071379996932095], [89.96383000258152, 26.071159997771893], [89.96475000139995, 26.07144999789861], [89.96635000153229, 26.075009996828676], [89.96729000134052, 26.07964999731879], [89.96835000169769, 26.08129999765736], [89.96861000109035, 26.081719997095888], [89.96944000219207, 26.085129997161594], [89.97031000168013, 26.086779997701296], [89.97247000257744, 26.087229997698227], [89.97447000184451, 26.087539997263196], [89.9776500020177, 26.08949999692088], [89.97803000106096, 26.09048999775735], [89.9783700017179, 26.091419997122397], [89.9788400020712, 26.096599997318506], [89.97881000103567, 26.09761999758173], [89.97881000103567, 26.097679997177874], [89.97816000165561, 26.098349997299906], [89.9707100017132, 26.097939998030093], [89.97028000154289, 26.097919997674772], [89.96766000123637, 26.098009997633334], [89.96596000154494, 26.097839997832757], [89.96584000189434, 26.097759997936027]]]}}]}