{"type": "FeatureCollection", "features": [{"type": "Feature", "properties": {"premiumdata.sde.IN_Village_PCA.area": 13.38864266, "objectid": 54295, "id": "274964245637717", "name": "Chavhanwadi", "subdistrict": "Madha", "district": "Solapur", "state": "Maharashtra", "country": "India", "censusname": "Chavhanwadi", "villagename_locallang": "\u091a\u0935\u094d\u0939\u093e\u0923\u0935\u093e\u0921\u0940", "lgd_villagename": "Chavhanwadi", "lgd_villagecode": 561948, "lgd_subdistrictcode": 4245, "lgd_districtcode": 496, "lgd_statecode": 27, "censuscode2001": "03676800", "censuscode2011": "561948", "censuscode2021": null, "level": "Village", "tru": "Rural", "no_hh": 218, "tot_p": 1113, "tot_m": 602, "tot_f": 511, "per_tot_m": 54.08805031, "per_tot_f": 45.91194969, "p_06": 140, "m_06": 94, "f_06": 46, "per_p_06": 12.57861635, "per_m_06": 67.14285714, "per_f_06": 32.85714286, "p_sc": 43, "m_sc": 23, "f_sc": 20, "per_p_sc": 3.86343217, "per_m_sc": 53.48837209000001, "per_f_sc": 46.51162791, "p_st": 0, "m_st": 0, "f_st": 0, "per_p_st": 0.0, "per_m_st": 0.0, "per_f_st": 0.0, "p_lit": 771, "m_lit": 430, "f_lit": 341, "per_p_lit": 69.2722372, "per_m_lit": 55.77172503000001, "per_f_lit": 44.22827497, "p_ill": 342, "m_ill": 172, "f_ill": 170, "per_p_ill": 30.7277628, "per_m_ill": 50.29239766, "per_f_ill": 49.70760234, "tot_work_p": 650, "tot_work_m": 352, "tot_work_f": 298, "per_tot_work_p": 58.40071878, "per_tot_work_m": 54.15384615, "per_tot_work_f": 45.84615385, "mainwork_p": 648, "mainwork_m": 352, "mainwork_f": 296, "per_mainwork_p": 58.22102426, "per_mainwork_m": 54.32098765, "per_mainwork_f": 45.67901235, "main_cl_p": 440, "main_cl_m": 246, "main_cl_f": 194, "per_main_cl_p": 67.90123457, "per_main_cl_m": 55.90909091, "per_main_cl_f": 44.09090909, "main_al_p": 163, "main_al_m": 66, "main_al_f": 97, "per_main_al_p": 25.15432099, "per_main_al_m": 40.49079755, "per_main_al_f": 59.50920245, "main_hh_p": 2, "main_hh_m": 1, "main_hh_f": 1, "per_main_hh_p": 0.30864198, "per_main_hh_m": 50.0, "per_main_hh_f": 50.0, "main_ot_p": 43, "main_ot_m": 39, "main_ot_f": 4, "per_main_ot_p": 6.63580247, "per_main_ot_m": 90.69767442, "per_main_ot_f": 9.30232558, "margwork_p": 2, "margwork_m": 0, "margwork_f": 2, "per_margwork_p": 0.17969452, "per_margwork_m": 0.0, "per_margwork_f": 100.0, "marg_cl_p": 1, "marg_cl_m": 0, "marg_cl_f": 1, "per_marg_cl_p": 50.0, "per_marg_cl_m": 0.0, "per_marg_cl_f": 100.0, "marg_al_p": 0, "marg_al_m": 0, "marg_al_f": 0, "per_marg_al_p": 0.0, "per_marg_al_m": 0.0, "per_marg_al_f": 0.0, "marg_hh_p": 0, "marg_hh_m": 0, "marg_hh_f": 0, "per_marg_hh_p": 0.0, "per_marg_hh_m": 0.0, "per_marg_hh_f": 0.0, "marg_ot_p": 1, "marg_ot_m": 0, "marg_ot_f": 1, "per_marg_ot_p": 50.0, "per_marg_ot_m": 0.0, "per_marg_ot_f": 100.0, "margwork_3_6_p": 1, "margwork_3_6_m": 0, "margwork_3_6_f": 1, "per_margwork_3_6_p": 50.0, "per_margwork_3_6_m": 0.0, "per_margwork_3_6_f": 100.0, "marg_cl_3_6_p": 0, "marg_cl_3_6_m": 0, "marg_cl_3_6_f": 0, "per_marg_cl_3_6_p": 0.0, "per_marg_cl_3_6_m": 0.0, "per_marg_cl_3_6_f": 0.0, "marg_al_3_6_p": 0, "marg_al_3_6_m": 0, "marg_al_3_6_f": 0, "per_marg_al_3_6_p": 0.0, "per_marg_al_3_6_m": 0.0, "per_marg_al_3_6_f": 0.0, "marg_hh_3_6_p": 0, "marg_hh_3_6_m": 0, "marg_hh_3_6_f": 0, "per_marg_hh_3_6_p": 0.0, "per_marg_hh_3_6_m": 0.0, "per_marg_hh_3_6_f": 0.0, "marg_ot_3_6_p": 1, "marg_ot_3_6_m": 0, "marg_ot_3_6_f": 1, "per_marg_ot_3_6_p": 50.0, "per_marg_ot_3_6_m": 0.0, "per_marg_ot_3_6_f": 100.0, "margwork_0_3_p": 1, "margwork_0_3_m": 0, "margwork_0_3_f": 1, "per_margwork_0_3_p": 50.0, "per_margwork_0_3_m": 0.0, "per_margwork_0_3_f": 100.0, "marg_cl_0_3_p": 1, "marg_cl_0_3_m": 0, "marg_cl_0_3_f": 1, "per_marg_cl_0_3_p": 50.0, "per_marg_cl_0_3_m": 0.0, "per_marg_cl_0_3_f": 100.0, "marg_al_0_3_p": 0, "marg_al_0_3_m": 0, "marg_al_0_3_f": 0, "per_marg_al_0_3_p": 0.0, "per_marg_al_0_3_m": 0.0, "per_marg_al_0_3_f": 0.0, "marg_hh_0_3_p": 0, "marg_hh_0_3_m": 0, "marg_hh_0_3_f": 0, "per_marg_hh_0_3_p": 0.0, "per_marg_hh_0_3_m": 0.0, "per_marg_hh_0_3_f": 0.0, "marg_ot_0_3_p": 0, "marg_ot_0_3_m": 0, "marg_ot_0_3_f": 0, "per_marg_ot_0_3_p": 0.0, "per_marg_ot_0_3_m": 0.0, "per_marg_ot_0_3_f": 0.0, "non_work_p": 463, "non_work_m": 250, "non_work_f": 213, "per_non_work_p": 41.59928122, "per_non_work_m": 53.99568035, "per_non_work_f": 46.00431965, "per_hc_tot_tot": 100, "per_hc_tot_god": 81.7, "per_hc_tot_liv": 9.1, "per_hc_tot_dil": 9.1, "per_hc_res_tot": 100.0, "per_hc_res_god": 81.7, "per_hc_res_liv": 9.1, "per_hc_res_dil": 9.1, "per_hc_oth_tot": 0.0, "per_hc_oth_god": 0.0, "per_hc_oth_liv": 0.0, "per_hc_oth_dil": 0.0, "per_mt_grsbam": 12.8, "per_mt_plastic": 0.0, "per_mt_h_tiles": 0.0, "per_mt_m_tiles": 1.8, "per_mt_b_brick": 0.0, "per_mt_stone": 1.8, "per_mt_asbstos": 37.9, "per_mt_concrte": 45.7, "per_mt_oth": 0.0, "per_mw_grsbam": 4.6, "per_mw_plastic": 0.0, "per_mw_mud": 4.6, "per_mw_wood": 0.0, "per_mw_no_mrtr": 4.1, "per_mw_st_mrtr": 41.6, "per_mw_asbstos": 4.1, "per_mw_b_brick": 25.1, "per_mw_concrte": 14.6, "per_mw_oth": 1.4, "per_mf_mud": 35.2, "per_mf_wood": 0.0, "per_mf_b_brick": 0.0, "per_mf_stone": 34.7, "per_mf_cement": 16.0, "per_mf_fl_tile": 11.9, "per_mf_oth": 2.3, "per_dw_n_exrm": 0.0, "per_dw_1_room": 32.9, "per_dw_2_room": 38.4, "per_dw_3_room": 11.4, "per_dw_4_room": 13.2, "per_dw_5_room": 1.4, "per_dw_6_room": 2.7, "per_hhsize_1": 3.2, "per_hhsize_2": 7.8, "per_hhsize_3": 11.4, "per_hhsize_4": 22.4, "per_hhsize_5": 25.6, "per_hhsize_6_8": 20.1, "per_hhsize_9p": 9.6, "per_ow_owned": 94.1, "per_ow_rented": 2.7, "per_ow_oth": 3.2, "per_mc_none": 7.3, "per_mcouple_1": 61.2, "per_mcouple_2": 20.5, "per_mcouple_3": 9.6, "per_mcouple_4": 1.4, "per_mcouple_5p": 0.0, "per_dw_t_ts": 33.8, "per_dw_t_unts": 36.5, "per_dw_c_well": 0.0, "per_dw_unc_wel": 26.9, "per_dw_hpump": 1.4, "per_dw_tw_bore": 1.4, "per_dw_spring": 0.0, "per_dw_rivcan": 0.0, "per_dw_tank": 0.0, "per_dw_oth": 0.0, "per_loc_dw_wp": 90.0, "per_loc_dw_np": 9.1, "per_loc_dw_aw": 0.9, "per_light_elec": 79.0, "per_light_kero": 19.2, "per_light_solr": 0.0, "per_light_oil": 1.8, "per_light_oth": 0.0, "per_light_no": 0.0, "per_hh_latrine": 80.4, "per_fl_sewer": 1.4, "per_fl_septict": 4.1, "per_fl_othsys": 0.0, "per_pl_wslab": 74.0, "per_pl_without": 0.9, "per_ns_open": 0.0, "per_sl_ns_hum": 0.0, "per_sl_ns_anml": 0.0, "per_hh_no_lat": 19.6, "per_as_pub": 13.2, "per_as_open": 6.4, "per_hh_bathrm": 35.6, "per_hh_en_wrf": 62.1, "per_hh_no_btrm": 2.3, "per_wwoc_drain": 64.8, "per_wwoc_open": 3.2, "per_wwoc_nodrn": 32.0, "per_cook_fire": 85.4, "per_cook_resdu": 4.6, "per_cook_cwdng": 1.8, "per_cook_coal": 0.0, "per_cook_kero": 0.0, "per_cook_lpng": 7.8, "per_cook_elec": 0.0, "per_cook_biogs": 0.0, "per_cook_oth": 0.0, "per_cook_no": 0.5, "per_kf_inside": 82.6, "per_kf_in_has": 18.3, "per_kf_in_does": 64.4, "per_kf_outside": 16.9, "per_kf_out_has": 4.1, "per_kf_out_dos": 12.8, "per_kf_no_cook": 0.5, "per_hh_banking": 84.5, "per_hh_radio": 12.3, "per_hh_tv": 43.8, "per_hh_cmp_int": 0.9, "per_hh_cmp_wnt": 2.3, "per_hh_ph_ll": 2.3, "per_hh_ph_mob": 84.9, "per_hh_ph_bth": 1.4, "per_hh_bcycl": 54.8, "per_hh_2wheel": 52.1, "per_hh_4wheel": 3.2, "per_hh_tvcomp": 0.5, "per_hh_no_ast": 6.4, "per_hs_perma": 82.2, "per_hs_sperma": 11.4, "per_hs_temp": 5.0, "per_hs_servc": 1.4, "per_hs_nservc": 3.7, "per_hs_unclss": 1.4, "avghhsz_cy": 5.10550459, "st_areashape": 14883341.594624275, "st_lengthshape": 17968.788512367428}, "geometry": {"type": "Polygon", "coordinates": [[[75.23060926008147, 17.99516278571633], [75.23433996704968, 17.999467361960484], [75.22824942355933, 18.00314059636941], [75.22498132740287, 18.00893284825681], [75.2255755270307, 18.01896288375493], [75.22676392538806, 18.028286066169024], [75.2252784272168, 18.03012239254389], [75.21963353344731, 18.028427322789838], [75.212057492684, 18.027297267504174], [75.209680695071, 18.024895874977098], [75.20893794553619, 18.022635711820335], [75.20849229671363, 18.020516781767927], [75.20388725139458, 18.018539090775572], [75.20210465340935, 18.014866177287583], [75.20448145102239, 18.00978047940911], [75.20626404900756, 18.00582483419727], [75.20626404900756, 18.004694633912447], [75.20433290111544, 18.003705701971796], [75.19601411081734, 18.002999319472163], [75.19586556091039, 18.00130398873013], [75.19868800734595, 17.994805070033923], [75.20136659308037, 17.985110350950283], [75.21382686118001, 17.98495337841552], [75.21976885386508, 17.982268822971463], [75.23046444177619, 17.981421059598755], [75.23106104170247, 17.98413394530638], [75.23226579299124, 17.986998645660552], [75.23166341689772, 17.99000653068576], [75.23045866650725, 17.99158206847561], [75.22940450879267, 17.993444050784824], [75.23060926008147, 17.99516278571633]]]}}]}