{"type": "FeatureCollection", "features": [{"type": "Feature", "properties": {"premiumdata.sde.IN_Village_PCA.area": 4.90027259, "objectid": 535677, "id": "203332681219598", "name": "Katna", "subdistrict": "Kundhit", "district": "Jamtara", "state": "Jharkhand", "country": "India", "censusname": "Katna", "villagename_locallang": "\u0915\u091f\u0928\u093e", "lgd_villagename": "Katna", "lgd_villagecode": 373291, "lgd_subdistrictcode": 2681, "lgd_districtcode": 333, "lgd_statecode": 20, "censuscode2001": "02224700", "censuscode2011": "373291", "censuscode2021": null, "level": "Village", "tru": "Rural", "no_hh": 76, "tot_p": 353, "tot_m": 194, "tot_f": 159, "per_tot_m": 54.95750708000001, "per_tot_f": 45.04249292, "p_06": 39, "m_06": 17, "f_06": 22, "per_p_06": 11.04815864, "per_m_06": 43.58974359, "per_f_06": 56.41025641, "p_sc": 46, "m_sc": 24, "f_sc": 22, "per_p_sc": 13.03116147, "per_m_sc": 52.17391304, "per_f_sc": 47.82608696, "p_st": 53, "m_st": 29, "f_st": 24, "per_p_st": 15.01416431, "per_m_st": 54.71698113, "per_f_st": 45.28301887, "p_lit": 224, "m_lit": 138, "f_lit": 86, "per_p_lit": 63.45609065, "per_m_lit": 61.60714286, "per_f_lit": 38.39285714, "p_ill": 129, "m_ill": 56, "f_ill": 73, "per_p_ill": 36.54390935, "per_m_ill": 43.41085271, "per_f_ill": 56.58914729, "tot_work_p": 158, "tot_work_m": 113, "tot_work_f": 45, "per_tot_work_p": 44.7592068, "per_tot_work_m": 71.51898734, "per_tot_work_f": 28.48101266, "mainwork_p": 125, "mainwork_m": 105, "mainwork_f": 20, "per_mainwork_p": 35.41076487, "per_mainwork_m": 84.0, "per_mainwork_f": 16.0, "main_cl_p": 47, "main_cl_m": 39, "main_cl_f": 8, "per_main_cl_p": 37.6, "per_main_cl_m": 82.9787234, "per_main_cl_f": 17.0212766, "main_al_p": 67, "main_al_m": 58, "main_al_f": 9, "per_main_al_p": 53.6, "per_main_al_m": 86.56716418, "per_main_al_f": 13.43283582, "main_hh_p": 1, "main_hh_m": 1, "main_hh_f": 0, "per_main_hh_p": 0.8, "per_main_hh_m": 100.0, "per_main_hh_f": 0.0, "main_ot_p": 10, "main_ot_m": 7, "main_ot_f": 3, "per_main_ot_p": 8.0, "per_main_ot_m": 70.0, "per_main_ot_f": 30.0, "margwork_p": 33, "margwork_m": 8, "margwork_f": 25, "per_margwork_p": 9.34844193, "per_margwork_m": 24.24242424, "per_margwork_f": 75.75757576, "marg_cl_p": 5, "marg_cl_m": 1, "marg_cl_f": 4, "per_marg_cl_p": 15.15151515, "per_marg_cl_m": 20.0, "per_marg_cl_f": 80.0, "marg_al_p": 27, "marg_al_m": 7, "marg_al_f": 20, "per_marg_al_p": 81.81818182, "per_marg_al_m": 25.92592593, "per_marg_al_f": 74.07407407, "marg_hh_p": 0, "marg_hh_m": 0, "marg_hh_f": 0, "per_marg_hh_p": 0.0, "per_marg_hh_m": 0.0, "per_marg_hh_f": 0.0, "marg_ot_p": 1, "marg_ot_m": 0, "marg_ot_f": 1, "per_marg_ot_p": 3.03030303, "per_marg_ot_m": 0.0, "per_marg_ot_f": 100.0, "margwork_3_6_p": 32, "margwork_3_6_m": 8, "margwork_3_6_f": 24, "per_margwork_3_6_p": 96.96969697, "per_margwork_3_6_m": 25.0, "per_margwork_3_6_f": 75.0, "marg_cl_3_6_p": 5, "marg_cl_3_6_m": 1, "marg_cl_3_6_f": 4, "per_marg_cl_3_6_p": 15.15151515, "per_marg_cl_3_6_m": 20.0, "per_marg_cl_3_6_f": 80.0, "marg_al_3_6_p": 26, "marg_al_3_6_m": 7, "marg_al_3_6_f": 19, "per_marg_al_3_6_p": 78.78787879000001, "per_marg_al_3_6_m": 26.92307692, "per_marg_al_3_6_f": 73.07692308, "marg_hh_3_6_p": 0, "marg_hh_3_6_m": 0, "marg_hh_3_6_f": 0, "per_marg_hh_3_6_p": 0.0, "per_marg_hh_3_6_m": 0.0, "per_marg_hh_3_6_f": 0.0, "marg_ot_3_6_p": 1, "marg_ot_3_6_m": 0, "marg_ot_3_6_f": 1, "per_marg_ot_3_6_p": 3.03030303, "per_marg_ot_3_6_m": 0.0, "per_marg_ot_3_6_f": 100.0, "margwork_0_3_p": 1, "margwork_0_3_m": 0, "margwork_0_3_f": 1, "per_margwork_0_3_p": 3.03030303, "per_margwork_0_3_m": 0.0, "per_margwork_0_3_f": 100.0, "marg_cl_0_3_p": 0, "marg_cl_0_3_m": 0, "marg_cl_0_3_f": 0, "per_marg_cl_0_3_p": 0.0, "per_marg_cl_0_3_m": 0.0, "per_marg_cl_0_3_f": 0.0, "marg_al_0_3_p": 1, "marg_al_0_3_m": 0, "marg_al_0_3_f": 1, "per_marg_al_0_3_p": 3.03030303, "per_marg_al_0_3_m": 0.0, "per_marg_al_0_3_f": 100.0, "marg_hh_0_3_p": 0, "marg_hh_0_3_m": 0, "marg_hh_0_3_f": 0, "per_marg_hh_0_3_p": 0.0, "per_marg_hh_0_3_m": 0.0, "per_marg_hh_0_3_f": 0.0, "marg_ot_0_3_p": 0, "marg_ot_0_3_m": 0, "marg_ot_0_3_f": 0, "per_marg_ot_0_3_p": 0.0, "per_marg_ot_0_3_m": 0.0, "per_marg_ot_0_3_f": 0.0, "non_work_p": 195, "non_work_m": 81, "non_work_f": 114, "per_non_work_p": 55.2407932, "per_non_work_m": 41.53846154, "per_non_work_f": 58.46153846, "per_hc_tot_tot": 100, "per_hc_tot_god": 16.0, "per_hc_tot_liv": 73.3, "per_hc_tot_dil": 10.7, "per_hc_res_tot": 100.0, "per_hc_res_god": 16.0, "per_hc_res_liv": 73.3, "per_hc_res_dil": 10.7, "per_hc_oth_tot": 0.0, "per_hc_oth_god": 0.0, "per_hc_oth_liv": 0.0, "per_hc_oth_dil": 0.0, "per_mt_grsbam": 66.7, "per_mt_plastic": 0.0, "per_mt_h_tiles": 0.0, "per_mt_m_tiles": 12.0, "per_mt_b_brick": 0.0, "per_mt_stone": 0.0, "per_mt_asbstos": 14.7, "per_mt_concrte": 6.7, "per_mt_oth": 0.0, "per_mw_grsbam": 0.0, "per_mw_plastic": 0.0, "per_mw_mud": 76.0, "per_mw_wood": 0.0, "per_mw_no_mrtr": 0.0, "per_mw_st_mrtr": 0.0, "per_mw_asbstos": 0.0, "per_mw_b_brick": 24.0, "per_mw_concrte": 0.0, "per_mw_oth": 0.0, "per_mf_mud": 86.7, "per_mf_wood": 0.0, "per_mf_b_brick": 0.0, "per_mf_stone": 0.0, "per_mf_cement": 13.3, "per_mf_fl_tile": 0.0, "per_mf_oth": 0.0, "per_dw_n_exrm": 0.0, "per_dw_1_room": 53.3, "per_dw_2_room": 41.3, "per_dw_3_room": 5.3, "per_dw_4_room": 0.0, "per_dw_5_room": 0.0, "per_dw_6_room": 0.0, "per_hhsize_1": 2.7, "per_hhsize_2": 5.3, "per_hhsize_3": 18.7, "per_hhsize_4": 28.0, "per_hhsize_5": 16.0, "per_hhsize_6_8": 26.7, "per_hhsize_9p": 2.7, "per_ow_owned": 100.0, "per_ow_rented": 0.0, "per_ow_oth": 0.0, "per_mc_none": 12.0, "per_mcouple_1": 69.3, "per_mcouple_2": 17.3, "per_mcouple_3": 1.3, "per_mcouple_4": 0.0, "per_mcouple_5p": 0.0, "per_dw_t_ts": 0.0, "per_dw_t_unts": 0.0, "per_dw_c_well": 0.0, "per_dw_unc_wel": 0.0, "per_dw_hpump": 100.0, "per_dw_tw_bore": 0.0, "per_dw_spring": 0.0, "per_dw_rivcan": 0.0, "per_dw_tank": 0.0, "per_dw_oth": 0.0, "per_loc_dw_wp": 0.0, "per_loc_dw_np": 88.0, "per_loc_dw_aw": 12.0, "per_light_elec": 0.0, "per_light_kero": 100.0, "per_light_solr": 0.0, "per_light_oil": 0.0, "per_light_oth": 0.0, "per_light_no": 0.0, "per_hh_latrine": 20.0, "per_fl_sewer": 2.7, "per_fl_septict": 0.0, "per_fl_othsys": 4.0, "per_pl_wslab": 13.3, "per_pl_without": 0.0, "per_ns_open": 0.0, "per_sl_ns_hum": 0.0, "per_sl_ns_anml": 0.0, "per_hh_no_lat": 80.0, "per_as_pub": 0.0, "per_as_open": 80.0, "per_hh_bathrm": 1.3, "per_hh_en_wrf": 1.3, "per_hh_no_btrm": 97.3, "per_wwoc_drain": 0.0, "per_wwoc_open": 10.7, "per_wwoc_nodrn": 89.3, "per_cook_fire": 97.3, "per_cook_resdu": 0.0, "per_cook_cwdng": 0.0, "per_cook_coal": 2.7, "per_cook_kero": 0.0, "per_cook_lpng": 0.0, "per_cook_elec": 0.0, "per_cook_biogs": 0.0, "per_cook_oth": 0.0, "per_cook_no": 0.0, "per_kf_inside": 94.7, "per_kf_in_has": 92.0, "per_kf_in_does": 2.7, "per_kf_outside": 5.3, "per_kf_out_has": 2.7, "per_kf_out_dos": 2.7, "per_kf_no_cook": 0.0, "per_hh_banking": 96.0, "per_hh_radio": 49.3, "per_hh_tv": 13.3, "per_hh_cmp_int": 0.0, "per_hh_cmp_wnt": 0.0, "per_hh_ph_ll": 0.0, "per_hh_ph_mob": 48.0, "per_hh_ph_bth": 0.0, "per_hh_bcycl": 85.3, "per_hh_2wheel": 8.0, "per_hh_4wheel": 0.0, "per_hh_tvcomp": 0.0, "per_hh_no_ast": 10.7, "per_hs_perma": 20.0, "per_hs_sperma": 17.3, "per_hs_temp": 62.7, "per_hs_servc": 62.7, "per_hs_nservc": 0.0, "per_hs_unclss": 0.0, "avghhsz_cy": 4.64473684, "st_areashape": 5897897.75748686, "st_lengthshape": 12665.891624775873}, "geometry": {"type": "Polygon", "coordinates": [[[87.24614564969654, 24.002248705391473], [87.24603594384081, 24.00302475696338], [87.24464441034657, 24.005429542396033], [87.24299802300959, 24.008295475080875], [87.24244537765016, 24.00927782755132], [87.23628000000508, 24.002919999071636], [87.23553000016764, 24.00252999910535], [87.23473000010145, 24.0020699999614], [87.23373000001875, 24.002139999598242], [87.2330499996032, 24.002439999955268], [87.23191999982414, 24.002569999345663], [87.23032999973756, 24.0028199999505], [87.23014999981248, 24.002829999373738], [87.22890999953029, 24.00292999930775], [87.22677999966854, 24.003009999527244], [87.22467999994402, 24.003449999024866], [87.2226099994584, 24.00325999927716], [87.22130999980003, 24.00266999948174], [87.21960000006284, 24.00182999904163], [87.2183699998264, 24.001819999540693], [87.2176600001719, 24.00200000028647], [87.2176400000804, 24.00200000028647], [87.21710000030527, 24.00126999953147], [87.21657999972327, 24.00029999988897], [87.21613000035975, 23.999859999468036], [87.21525999997341, 23.999620000171046], [87.21422999975348, 23.999479999758965], [87.21342000053987, 23.999629999842952], [87.21260999952966, 23.999989999823587], [87.21127999973406, 24.0006599996366], [87.21030999978859, 24.000849999940826], [87.21024999951413, 24.00079999958564], [87.20975999996767, 24.000360000053643], [87.20897999999299, 24.000019999571347], [87.20844000021782, 23.999529998985714], [87.20811000050494, 23.998789999254395], [87.20710999952392, 23.998250000025493], [87.20658999984026, 23.997879999473717], [87.20597000059747, 23.99742000012133], [87.20573999954537, 23.997059999517], [87.2052899992836, 23.996749999853854], [87.2052499991006, 23.99584000042151], [87.20537999969525, 23.994839999938677], [87.20579999981983, 23.994759999564444], [87.20575999963687, 23.993819999649553], [87.20601999992785, 23.992939999776986], [87.20630999945776, 23.992019999409568], [87.20694999969037, 23.99147999968226], [87.20696999978183, 23.99147999968226], [87.20778999993951, 23.99147999968226], [87.20875999988496, 23.991470000197875], [87.20895999990152, 23.991769999163882], [87.21002999940612, 23.99196999972754], [87.21006000044164, 23.99215000029748], [87.21100000024991, 23.99213999922374], [87.21190999992093, 23.992469998956654], [87.21262000047372, 23.992689999676482], [87.21375000025277, 23.992579999773934], [87.21449000004446, 23.992310000136836], [87.21519999969895, 23.991860000030467], [87.21607000008532, 23.991160000203646], [87.21735999969793, 23.990629999702318], [87.2186899994935, 23.990549999994588], [87.21936999990909, 23.990579999480474], [87.21940000004632, 23.990599999407387], [87.22010999970078, 23.99097999989095], [87.22088999967546, 23.991530000375295], [87.2216300003655, 23.99209999902453], [87.22262999954987, 23.99269999988682], [87.2236999999528, 23.993139999343654], [87.22467999994402, 23.993289999430264], [87.22580999972304, 23.992939999776986], [87.22615999952743, 23.992600000210853], [87.22710000023397, 23.991769999163882], [87.22799999985926, 23.99071000018108], [87.22892999962177, 23.989589999624496], [87.22948000034098, 23.989229999281694], [87.23037999996626, 23.98940999957891], [87.23108999962075, 23.989719999683263], [87.23225999958277, 23.990399999177573], [87.23284999958666, 23.990799999326555], [87.23366000059686, 23.991339999444016], [87.23475999934038, 23.99190999975519], [87.23563000062505, 23.991780000266324], [87.23620999968489, 23.991550000154643], [87.23708000007123, 23.991329999948757], [87.2376199998464, 23.99129999899625], [87.23805000001673, 23.99126999967813], [87.23828000017048, 23.990989999413358], [87.2390199999622, 23.990929998984317], [87.23972999961669, 23.990599999407387], [87.24025000019867, 23.990340000114937], [87.24095999985316, 23.990309999752427], [87.24167999955337, 23.99005999946898], [87.24176999996507, 23.990320000147605], [87.24196999998159, 23.990859999816227], [87.24212999981518, 23.991249999855313], [87.24235999996891, 23.991689999343812], [87.24277000004776, 23.992159999729015], [87.24300000020152, 23.99275999949094], [87.24317000008084, 23.99335999973913], [87.24368999976453, 23.994339999245973], [87.24614564969654, 24.002248705391473]]]}}]}