{"type": "FeatureCollection", "features": [{"type": "Feature", "properties": {"premiumdata.sde.IN_Village_PCA.area": 1.43533951, "objectid": 509436, "id": "197032441133362", "name": "Adargeria", "subdistrict": "Binpur - II", "district": "Jhargram", "state": "West Bengal", "country": "India", "censusname": "Adargeria", "villagename_locallang": null, "lgd_villagename": "Adargeria", "lgd_villagecode": 335459, "lgd_subdistrictcode": 2441, "lgd_districtcode": 703, "lgd_statecode": 19, "censuscode2001": "02621800", "censuscode2011": "335459", "censuscode2021": null, "level": "Village", "tru": "Rural", "no_hh": 105, "tot_p": 410, "tot_m": 207, "tot_f": 203, "per_tot_m": 50.48780488, "per_tot_f": 49.51219512, "p_06": 42, "m_06": 18, "f_06": 24, "per_p_06": 10.24390244, "per_m_06": 42.85714286, "per_f_06": 57.14285714, "p_sc": 0, "m_sc": 0, "f_sc": 0, "per_p_sc": 0.0, "per_m_sc": 0.0, "per_f_sc": 0.0, "p_st": 14, "m_st": 8, "f_st": 6, "per_p_st": 3.41463415, "per_m_st": 57.14285714, "per_f_st": 42.85714286, "p_lit": 280, "m_lit": 163, "f_lit": 117, "per_p_lit": 68.29268293, "per_m_lit": 58.21428571, "per_f_lit": 41.78571429, "p_ill": 130, "m_ill": 44, "f_ill": 86, "per_p_ill": 31.70731707, "per_m_ill": 33.84615385, "per_f_ill": 66.15384615, "tot_work_p": 240, "tot_work_m": 126, "tot_work_f": 114, "per_tot_work_p": 58.53658537, "per_tot_work_m": 52.5, "per_tot_work_f": 47.5, "mainwork_p": 1, "mainwork_m": 1, "mainwork_f": 0, "per_mainwork_p": 0.24390244, "per_mainwork_m": 100.0, "per_mainwork_f": 0.0, "main_cl_p": 0, "main_cl_m": 0, "main_cl_f": 0, "per_main_cl_p": 0.0, "per_main_cl_m": 0.0, "per_main_cl_f": 0.0, "main_al_p": 0, "main_al_m": 0, "main_al_f": 0, "per_main_al_p": 0.0, "per_main_al_m": 0.0, "per_main_al_f": 0.0, "main_hh_p": 0, "main_hh_m": 0, "main_hh_f": 0, "per_main_hh_p": 0.0, "per_main_hh_m": 0.0, "per_main_hh_f": 0.0, "main_ot_p": 1, "main_ot_m": 1, "main_ot_f": 0, "per_main_ot_p": 100.0, "per_main_ot_m": 100.0, "per_main_ot_f": 0.0, "margwork_p": 239, "margwork_m": 125, "margwork_f": 114, "per_margwork_p": 58.29268293, "per_margwork_m": 52.30125523, "per_margwork_f": 47.69874477, "marg_cl_p": 16, "marg_cl_m": 9, "marg_cl_f": 7, "per_marg_cl_p": 6.69456067, "per_marg_cl_m": 56.25, "per_marg_cl_f": 43.75, "marg_al_p": 223, "marg_al_m": 116, "marg_al_f": 107, "per_marg_al_p": 93.30543933000001, "per_marg_al_m": 52.01793722, "per_marg_al_f": 47.98206278, "marg_hh_p": 0, "marg_hh_m": 0, "marg_hh_f": 0, "per_marg_hh_p": 0.0, "per_marg_hh_m": 0.0, "per_marg_hh_f": 0.0, "marg_ot_p": 0, "marg_ot_m": 0, "marg_ot_f": 0, "per_marg_ot_p": 0.0, "per_marg_ot_m": 0.0, "per_marg_ot_f": 0.0, "margwork_3_6_p": 3, "margwork_3_6_m": 2, "margwork_3_6_f": 1, "per_margwork_3_6_p": 1.25523013, "per_margwork_3_6_m": 66.66666667, "per_margwork_3_6_f": 33.33333333, "marg_cl_3_6_p": 3, "marg_cl_3_6_m": 2, "marg_cl_3_6_f": 1, "per_marg_cl_3_6_p": 1.25523013, "per_marg_cl_3_6_m": 66.66666667, "per_marg_cl_3_6_f": 33.33333333, "marg_al_3_6_p": 0, "marg_al_3_6_m": 0, "marg_al_3_6_f": 0, "per_marg_al_3_6_p": 0.0, "per_marg_al_3_6_m": 0.0, "per_marg_al_3_6_f": 0.0, "marg_hh_3_6_p": 0, "marg_hh_3_6_m": 0, "marg_hh_3_6_f": 0, "per_marg_hh_3_6_p": 0.0, "per_marg_hh_3_6_m": 0.0, "per_marg_hh_3_6_f": 0.0, "marg_ot_3_6_p": 0, "marg_ot_3_6_m": 0, "marg_ot_3_6_f": 0, "per_marg_ot_3_6_p": 0.0, "per_marg_ot_3_6_m": 0.0, "per_marg_ot_3_6_f": 0.0, "margwork_0_3_p": 236, "margwork_0_3_m": 123, "margwork_0_3_f": 113, "per_margwork_0_3_p": 98.74476987, "per_margwork_0_3_m": 52.11864407, "per_margwork_0_3_f": 47.88135593000001, "marg_cl_0_3_p": 13, "marg_cl_0_3_m": 7, "marg_cl_0_3_f": 6, "per_marg_cl_0_3_p": 5.43933054, "per_marg_cl_0_3_m": 53.84615385, "per_marg_cl_0_3_f": 46.15384615, "marg_al_0_3_p": 223, "marg_al_0_3_m": 116, "marg_al_0_3_f": 107, "per_marg_al_0_3_p": 93.30543933000001, "per_marg_al_0_3_m": 52.01793722, "per_marg_al_0_3_f": 47.98206278, "marg_hh_0_3_p": 0, "marg_hh_0_3_m": 0, "marg_hh_0_3_f": 0, "per_marg_hh_0_3_p": 0.0, "per_marg_hh_0_3_m": 0.0, "per_marg_hh_0_3_f": 0.0, "marg_ot_0_3_p": 0, "marg_ot_0_3_m": 0, "marg_ot_0_3_f": 0, "per_marg_ot_0_3_p": 0.0, "per_marg_ot_0_3_m": 0.0, "per_marg_ot_0_3_f": 0.0, "non_work_p": 170, "non_work_m": 81, "non_work_f": 89, "per_non_work_p": 41.46341463, "per_non_work_m": 47.64705882, "per_non_work_f": 52.35294118, "per_hc_tot_tot": null, "per_hc_tot_god": null, "per_hc_tot_liv": null, "per_hc_tot_dil": null, "per_hc_res_tot": null, "per_hc_res_god": null, "per_hc_res_liv": null, "per_hc_res_dil": null, "per_hc_oth_tot": null, "per_hc_oth_god": null, "per_hc_oth_liv": null, "per_hc_oth_dil": null, "per_mt_grsbam": null, "per_mt_plastic": null, "per_mt_h_tiles": null, "per_mt_m_tiles": null, "per_mt_b_brick": null, "per_mt_stone": null, "per_mt_asbstos": null, "per_mt_concrte": null, "per_mt_oth": null, "per_mw_grsbam": null, "per_mw_plastic": null, "per_mw_mud": null, "per_mw_wood": null, "per_mw_no_mrtr": null, "per_mw_st_mrtr": null, "per_mw_asbstos": null, "per_mw_b_brick": null, "per_mw_concrte": null, "per_mw_oth": null, "per_mf_mud": null, "per_mf_wood": null, "per_mf_b_brick": null, "per_mf_stone": null, "per_mf_cement": null, "per_mf_fl_tile": null, "per_mf_oth": null, "per_dw_n_exrm": null, "per_dw_1_room": null, "per_dw_2_room": null, "per_dw_3_room": null, "per_dw_4_room": null, "per_dw_5_room": null, "per_dw_6_room": null, "per_hhsize_1": null, "per_hhsize_2": null, "per_hhsize_3": null, "per_hhsize_4": null, "per_hhsize_5": null, "per_hhsize_6_8": null, "per_hhsize_9p": null, "per_ow_owned": null, "per_ow_rented": null, "per_ow_oth": null, "per_mc_none": null, "per_mcouple_1": null, "per_mcouple_2": null, "per_mcouple_3": null, "per_mcouple_4": null, "per_mcouple_5p": null, "per_dw_t_ts": null, "per_dw_t_unts": null, "per_dw_c_well": null, "per_dw_unc_wel": null, "per_dw_hpump": null, "per_dw_tw_bore": null, "per_dw_spring": null, "per_dw_rivcan": null, "per_dw_tank": null, "per_dw_oth": null, "per_loc_dw_wp": null, "per_loc_dw_np": null, "per_loc_dw_aw": null, "per_light_elec": null, "per_light_kero": null, "per_light_solr": null, "per_light_oil": null, "per_light_oth": null, "per_light_no": null, "per_hh_latrine": null, "per_fl_sewer": null, "per_fl_septict": null, "per_fl_othsys": null, "per_pl_wslab": null, "per_pl_without": null, "per_ns_open": null, "per_sl_ns_hum": null, "per_sl_ns_anml": null, "per_hh_no_lat": null, "per_as_pub": null, "per_as_open": null, "per_hh_bathrm": null, "per_hh_en_wrf": null, "per_hh_no_btrm": null, "per_wwoc_drain": null, "per_wwoc_open": null, "per_wwoc_nodrn": null, "per_cook_fire": null, "per_cook_resdu": null, "per_cook_cwdng": null, "per_cook_coal": null, "per_cook_kero": null, "per_cook_lpng": null, "per_cook_elec": null, "per_cook_biogs": null, "per_cook_oth": null, "per_cook_no": null, "per_kf_inside": null, "per_kf_in_has": null, "per_kf_in_does": null, "per_kf_outside": null, "per_kf_out_has": null, "per_kf_out_dos": null, "per_kf_no_cook": null, "per_hh_banking": null, "per_hh_radio": null, "per_hh_tv": null, "per_hh_cmp_int": null, "per_hh_cmp_wnt": null, "per_hh_ph_ll": null, "per_hh_ph_mob": null, "per_hh_ph_bth": null, "per_hh_bcycl": null, "per_hh_2wheel": null, "per_hh_4wheel": null, "per_hh_tvcomp": null, "per_hh_no_ast": null, "per_hs_perma": null, "per_hs_sperma": null, "per_hs_temp": null, "per_hs_servc": null, "per_hs_nservc": null, "per_hs_unclss": null, "avghhsz_cy": 3.9047619, "st_areashape": 1694693.31156508, "st_lengthshape": 5868.626475669122}, "geometry": {"type": "Polygon", "coordinates": [[[86.6756100000326, 22.71351999972062], [86.67550999957518, 22.713550000098245], [86.67536999983311, 22.713649999652205], [86.67518999990803, 22.71376999935199], [86.67490999952555, 22.71382999999105], [86.67455000057373, 22.71388000050353], [86.67433999961314, 22.7139599996282], [86.67419999987106, 22.71403999953478], [86.67418999982534, 22.71340999993706], [86.67418999982534, 22.713399999801695], [86.67412999955087, 22.713389999665576], [86.67312999946817, 22.71238999976774], [86.67191000017574, 22.711110000110594], [86.67152000018841, 22.710039999965907], [86.67104999983512, 22.709189999729883], [86.67059000042589, 22.708440000062442], [86.67000999956944, 22.707870000318692], [86.6697799994157, 22.707270000598076], [86.669949999295, 22.705269999390833], [86.67005999979814, 22.704750000242083], [86.6700699998439, 22.7047300003629], [86.67135999945651, 22.704369999551684], [86.67271999938936, 22.703870000307912], [86.67359999982146, 22.70393999948323], [86.67477999982923, 22.704249999070946], [86.67542999920924, 22.704249999070946], [86.67622999927539, 22.7039599994778], [86.67710999970748, 22.703849999471487], [86.67772999984861, 22.704050000245992], [86.67921000033034, 22.704229999118752], [86.68051999913614, 22.704759999351882], [86.68139999956824, 22.704750000242083], [86.68196999948064, 22.704750000242083], [86.68223999981737, 22.705710000124267], [86.68258999962173, 22.70666999990559], [86.68311999935118, 22.70666999990559], [86.68391999941733, 22.70666999990559], [86.6844199990095, 22.70666999990559], [86.68479999984943, 22.707059999784654], [86.68525999925866, 22.707270000598076], [86.68612999964503, 22.707299999859302], [86.68696999989417, 22.707480000260727], [86.68763000021825, 22.707870000318692], [86.6882400003136, 22.708829999871902], [86.68828999964401, 22.70898999983358], [86.68843999943182, 22.70953999988126], [86.68806000038853, 22.710290000152096], [86.6872699994698, 22.711039999628806], [86.68722999928686, 22.711069999721275], [86.68701999922456, 22.711010000358407], [86.68689999957395, 22.710909999704523], [86.68677999902505, 22.71073999999973], [86.68668999951169, 22.71060000027931], [86.68661000004404, 22.710569999255167], [86.68651999963237, 22.710579999597268], [86.68644999931219, 22.710609999790535], [86.68635999979878, 22.710709999834926], [86.68625999934136, 22.710909999704523], [86.68615999978226, 22.710989999736288], [86.68599999905037, 22.711039999628806], [86.68590999953702, 22.711080000026875], [86.68562000000709, 22.71109000033173], [86.6855500005852, 22.711099999807207], [86.68551999954967, 22.71113999935907], [86.68551000040225, 22.711199999493655], [86.68551999954967, 22.71136999945584], [86.68549000031074, 22.71154000003563], [86.68545000012779, 22.711589999727263], [86.68539999989906, 22.711609999433065], [86.68531999953312, 22.711619999699227], [86.68518999983677, 22.711609999433065], [86.6850800002319, 22.711589999727263], [86.6849099994543, 22.71159999999489], [86.68464000001586, 22.711629999964625], [86.68449000022802, 22.7116499996646], [86.6843400004402, 22.7116499996646], [86.68419999979982, 22.711609999433065], [86.68408000014922, 22.711549999478233], [86.68395000045285, 22.711469999773733], [86.68393999950881, 22.71146000032528], [86.68387999923434, 22.711449999218786], [86.68383999994971, 22.711469999773733], [86.68382999990396, 22.711480000050088], [86.68380999981248, 22.71149999977197], [86.68379999976672, 22.711549999478233], [86.68379999976672, 22.711619999699227], [86.68383999994971, 22.7116799996234], [86.68397999969179, 22.711859999238154], [86.6840099989307, 22.71193000012928], [86.68399999978328, 22.711960000026718], [86.68393999950881, 22.711960000026718], [86.68384999999545, 22.711960000026718], [86.68377999967525, 22.711970000267296], [86.68373000034484, 22.71198999991759], [86.6836700000704, 22.71204999967958], [86.68360999979593, 22.712109999415297], [86.68339999973364, 22.712279999904744], [86.68330999932196, 22.71232999932612], [86.68322999895602, 22.71234999975244], [86.68313999944266, 22.712340000368286], [86.68309999925967, 22.712309999725466], [86.68303999988353, 22.71224999924877], [86.6830099997463, 22.712180000178602], [86.68295999951759, 22.712149999500717], [86.68289999924315, 22.712149999500717], [86.68283999896869, 22.71216999995334], [86.68274999945532, 22.712229999636474], [86.68266999998767, 22.712319999940487], [86.68258999962173, 22.712370000175877], [86.6824599999254, 22.712429999771306], [86.68231999928499, 22.712509999743457], [86.68228000000033, 22.712539999513773], [86.68225999990885, 22.712610000057186], [86.6822499998631, 22.7126899999241], [86.68228000000033, 22.71277999992569], [86.68231999928499, 22.712899999559507], [86.68231000013756, 22.713080000055953], [86.6822900000461, 22.713149999494558], [86.68225999990885, 22.713179999124637], [86.68220999968015, 22.713179999124637], [86.68209999917697, 22.713169999801117], [86.68200000051617, 22.713169999801117], [86.6818199996928, 22.71314000016886], [86.6817000000422, 22.713109999701377], [86.68159000043735, 22.713109999701377], [86.68150000002566, 22.71314000016886], [86.6812200005415, 22.713229999874542], [86.68107999990109, 22.713269999632676], [86.68101999962666, 22.713339999802756], [86.68094000015901, 22.713439999510133], [86.68081999961011, 22.71349999946523], [86.68073000009674, 22.713529999847246], [86.68066999982227, 22.713529999847246], [86.68059000035467, 22.713529999847246], [86.6804899998972, 22.713510000421916], [86.68026999978918, 22.71341999924305], [86.68003999963544, 22.713329999662275], [86.67985999971036, 22.71323999919369], [86.67977999934442, 22.713169999801117], [86.67975999925295, 22.713089999386053], [86.67975999925295, 22.712949999583053], [86.679730000014, 22.712840000170065], [86.67968999983104, 22.71277999992569], [86.67962999955658, 22.71275999956215], [86.67956999928215, 22.71275999956215], [86.67946999972303, 22.71278999927767], [86.67927999975224, 22.712849999517697], [86.67897999927827, 22.712889999386853], [86.67862999947388, 22.712899999559507], [86.67841999941162, 22.71292999924436], [86.67821999939507, 22.71300000041696], [86.67810999979022, 22.71300000041696], [86.67787999963645, 22.71295999975129], [86.67769999971138, 22.712880000042176], [86.67754999992357, 22.71285999969325], [86.67745999951187, 22.71285999969325], [86.67733999986127, 22.712899999559507], [86.67720000011919, 22.71296999991881], [86.67692999978246, 22.713179999124637], [86.67672999976591, 22.713450000471234], [86.67657999907978, 22.713609999176477], [86.67646000032747, 22.713649999652205], [86.6763499998243, 22.713680000001332], [86.67624999936687, 22.713669999057036], [86.67609000043161, 22.713629999415783], [86.67591999965401, 22.71355999939402], [86.67577999991192, 22.713510000421916], [86.6756100000326, 22.71351999972062]]]}}]}