{"type": "FeatureCollection", "features": [{"type": "Feature", "properties": {"premiumdata.sde.IN_Village_PCA.area": 0.02317765, "objectid": 613200, "id": "172771978162334", "name": "Bandrasora", "subdistrict": "Rongara", "district": "South Garo Hills", "state": "Meghalaya", "country": "India", "censusname": "Bandrasora", "villagename_locallang": null, "lgd_villagename": "Bandrasora", "lgd_villagecode": 276317, "lgd_subdistrictcode": 1978, "lgd_districtcode": 277, "lgd_statecode": 17, "censuscode2001": "00304900", "censuscode2011": "276317", "censuscode2021": null, "level": "Village", "tru": "Rural", "no_hh": 46, "tot_p": 246, "tot_m": 145, "tot_f": 101, "per_tot_m": 58.94308943, "per_tot_f": 41.05691057, "p_06": 47, "m_06": 28, "f_06": 19, "per_p_06": 19.10569106, "per_m_06": 59.57446809, "per_f_06": 40.42553191, "p_sc": 0, "m_sc": 0, "f_sc": 0, "per_p_sc": 0.0, "per_m_sc": 0.0, "per_f_sc": 0.0, "p_st": 227, "m_st": 130, "f_st": 97, "per_p_st": 92.27642275999999, "per_m_st": 57.26872247, "per_f_st": 42.73127753, "p_lit": 136, "m_lit": 89, "f_lit": 47, "per_p_lit": 55.28455285, "per_m_lit": 65.44117647, "per_f_lit": 34.55882353, "p_ill": 110, "m_ill": 56, "f_ill": 54, "per_p_ill": 44.71544715, "per_m_ill": 50.90909091, "per_f_ill": 49.09090909, "tot_work_p": 74, "tot_work_m": 66, "tot_work_f": 8, "per_tot_work_p": 30.08130081, "per_tot_work_m": 89.18918919, "per_tot_work_f": 10.81081081, "mainwork_p": 70, "mainwork_m": 66, "mainwork_f": 4, "per_mainwork_p": 28.45528455, "per_mainwork_m": 94.28571429, "per_mainwork_f": 5.71428571, "main_cl_p": 31, "main_cl_m": 30, "main_cl_f": 1, "per_main_cl_p": 44.28571429, "per_main_cl_m": 96.77419355, "per_main_cl_f": 3.22580645, "main_al_p": 1, "main_al_m": 1, "main_al_f": 0, "per_main_al_p": 1.42857143, "per_main_al_m": 100.0, "per_main_al_f": 0.0, "main_hh_p": 0, "main_hh_m": 0, "main_hh_f": 0, "per_main_hh_p": 0.0, "per_main_hh_m": 0.0, "per_main_hh_f": 0.0, "main_ot_p": 38, "main_ot_m": 35, "main_ot_f": 3, "per_main_ot_p": 54.28571429, "per_main_ot_m": 92.10526316, "per_main_ot_f": 7.89473684, "margwork_p": 4, "margwork_m": 0, "margwork_f": 4, "per_margwork_p": 1.62601626, "per_margwork_m": 0.0, "per_margwork_f": 100.0, "marg_cl_p": 2, "marg_cl_m": 0, "marg_cl_f": 2, "per_marg_cl_p": 50.0, "per_marg_cl_m": 0.0, "per_marg_cl_f": 100.0, "marg_al_p": 1, "marg_al_m": 0, "marg_al_f": 1, "per_marg_al_p": 25.0, "per_marg_al_m": 0.0, "per_marg_al_f": 100.0, "marg_hh_p": 0, "marg_hh_m": 0, "marg_hh_f": 0, "per_marg_hh_p": 0.0, "per_marg_hh_m": 0.0, "per_marg_hh_f": 0.0, "marg_ot_p": 1, "marg_ot_m": 0, "marg_ot_f": 1, "per_marg_ot_p": 25.0, "per_marg_ot_m": 0.0, "per_marg_ot_f": 100.0, "margwork_3_6_p": 2, "margwork_3_6_m": 0, "margwork_3_6_f": 2, "per_margwork_3_6_p": 50.0, "per_margwork_3_6_m": 0.0, "per_margwork_3_6_f": 100.0, "marg_cl_3_6_p": 1, "marg_cl_3_6_m": 0, "marg_cl_3_6_f": 1, "per_marg_cl_3_6_p": 25.0, "per_marg_cl_3_6_m": 0.0, "per_marg_cl_3_6_f": 100.0, "marg_al_3_6_p": 0, "marg_al_3_6_m": 0, "marg_al_3_6_f": 0, "per_marg_al_3_6_p": 0.0, "per_marg_al_3_6_m": 0.0, "per_marg_al_3_6_f": 0.0, "marg_hh_3_6_p": 0, "marg_hh_3_6_m": 0, "marg_hh_3_6_f": 0, "per_marg_hh_3_6_p": 0.0, "per_marg_hh_3_6_m": 0.0, "per_marg_hh_3_6_f": 0.0, "marg_ot_3_6_p": 1, "marg_ot_3_6_m": 0, "marg_ot_3_6_f": 1, "per_marg_ot_3_6_p": 25.0, "per_marg_ot_3_6_m": 0.0, "per_marg_ot_3_6_f": 100.0, "margwork_0_3_p": 2, "margwork_0_3_m": 0, "margwork_0_3_f": 2, "per_margwork_0_3_p": 50.0, "per_margwork_0_3_m": 0.0, "per_margwork_0_3_f": 100.0, "marg_cl_0_3_p": 1, "marg_cl_0_3_m": 0, "marg_cl_0_3_f": 1, "per_marg_cl_0_3_p": 25.0, "per_marg_cl_0_3_m": 0.0, "per_marg_cl_0_3_f": 100.0, "marg_al_0_3_p": 1, "marg_al_0_3_m": 0, "marg_al_0_3_f": 1, "per_marg_al_0_3_p": 25.0, "per_marg_al_0_3_m": 0.0, "per_marg_al_0_3_f": 100.0, "marg_hh_0_3_p": 0, "marg_hh_0_3_m": 0, "marg_hh_0_3_f": 0, "per_marg_hh_0_3_p": 0.0, "per_marg_hh_0_3_m": 0.0, "per_marg_hh_0_3_f": 0.0, "marg_ot_0_3_p": 0, "marg_ot_0_3_m": 0, "marg_ot_0_3_f": 0, "per_marg_ot_0_3_p": 0.0, "per_marg_ot_0_3_m": 0.0, "per_marg_ot_0_3_f": 0.0, "non_work_p": 172, "non_work_m": 79, "non_work_f": 93, "per_non_work_p": 69.91869919, "per_non_work_m": 45.93023256, "per_non_work_f": 54.06976744, "per_hc_tot_tot": 100, "per_hc_tot_god": 2.4, "per_hc_tot_liv": 90.5, "per_hc_tot_dil": 7.1, "per_hc_res_tot": 100.0, "per_hc_res_god": 2.4, "per_hc_res_liv": 90.5, "per_hc_res_dil": 7.1, "per_hc_oth_tot": 0.0, "per_hc_oth_god": 0.0, "per_hc_oth_liv": 0.0, "per_hc_oth_dil": 0.0, "per_mt_grsbam": 0.0, "per_mt_plastic": 0.0, "per_mt_h_tiles": 0.0, "per_mt_m_tiles": 0.0, "per_mt_b_brick": 0.0, "per_mt_stone": 0.0, "per_mt_asbstos": 100.0, "per_mt_concrte": 0.0, "per_mt_oth": 0.0, "per_mw_grsbam": 71.4, "per_mw_plastic": 0.0, "per_mw_mud": 23.8, "per_mw_wood": 0.0, "per_mw_no_mrtr": 0.0, "per_mw_st_mrtr": 0.0, "per_mw_asbstos": 0.0, "per_mw_b_brick": 2.4, "per_mw_concrte": 0.0, "per_mw_oth": 2.4, "per_mf_mud": 95.2, "per_mf_wood": 0.0, "per_mf_b_brick": 0.0, "per_mf_stone": 0.0, "per_mf_cement": 4.8, "per_mf_fl_tile": 0.0, "per_mf_oth": 0.0, "per_dw_n_exrm": 4.8, "per_dw_1_room": 2.4, "per_dw_2_room": 57.1, "per_dw_3_room": 35.7, "per_dw_4_room": 0.0, "per_dw_5_room": 0.0, "per_dw_6_room": 0.0, "per_hhsize_1": 4.8, "per_hhsize_2": 4.8, "per_hhsize_3": 16.7, "per_hhsize_4": 28.6, "per_hhsize_5": 9.5, "per_hhsize_6_8": 31.0, "per_hhsize_9p": 4.8, "per_ow_owned": 100.0, "per_ow_rented": 0.0, "per_ow_oth": 0.0, "per_mc_none": 7.1, "per_mcouple_1": 85.7, "per_mcouple_2": 7.1, "per_mcouple_3": 0.0, "per_mcouple_4": 0.0, "per_mcouple_5p": 0.0, "per_dw_t_ts": 0.0, "per_dw_t_unts": 52.4, "per_dw_c_well": 0.0, "per_dw_unc_wel": 31.0, "per_dw_hpump": 0.0, "per_dw_tw_bore": 0.0, "per_dw_spring": 14.3, "per_dw_rivcan": 0.0, "per_dw_tank": 2.4, "per_dw_oth": 0.0, "per_loc_dw_wp": 28.6, "per_loc_dw_np": 59.5, "per_loc_dw_aw": 11.9, "per_light_elec": 33.3, "per_light_kero": 66.7, "per_light_solr": 0.0, "per_light_oil": 0.0, "per_light_oth": 0.0, "per_light_no": 0.0, "per_hh_latrine": 9.5, "per_fl_sewer": 0.0, "per_fl_septict": 0.0, "per_fl_othsys": 0.0, "per_pl_wslab": 0.0, "per_pl_without": 9.5, "per_ns_open": 0.0, "per_sl_ns_hum": 0.0, "per_sl_ns_anml": 0.0, "per_hh_no_lat": 90.5, "per_as_pub": 0.0, "per_as_open": 90.5, "per_hh_bathrm": 0.0, "per_hh_en_wrf": 0.0, "per_hh_no_btrm": 100.0, "per_wwoc_drain": 0.0, "per_wwoc_open": 0.0, "per_wwoc_nodrn": 100.0, "per_cook_fire": 100.0, "per_cook_resdu": 0.0, "per_cook_cwdng": 0.0, "per_cook_coal": 0.0, "per_cook_kero": 0.0, "per_cook_lpng": 0.0, "per_cook_elec": 0.0, "per_cook_biogs": 0.0, "per_cook_oth": 0.0, "per_cook_no": 0.0, "per_kf_inside": 97.6, "per_kf_in_has": 97.6, "per_kf_in_does": 0.0, "per_kf_outside": 2.4, "per_kf_out_has": 0.0, "per_kf_out_dos": 2.4, "per_kf_no_cook": 0.0, "per_hh_banking": 7.1, "per_hh_radio": 9.5, "per_hh_tv": 33.3, "per_hh_cmp_int": 0.0, "per_hh_cmp_wnt": 0.0, "per_hh_ph_ll": 0.0, "per_hh_ph_mob": 0.0, "per_hh_ph_bth": 0.0, "per_hh_bcycl": 7.1, "per_hh_2wheel": 0.0, "per_hh_4wheel": 0.0, "per_hh_tvcomp": 0.0, "per_hh_no_ast": 61.9, "per_hs_perma": 2.4, "per_hs_sperma": 95.2, "per_hs_temp": 0.0, "per_hs_servc": 0.0, "per_hs_nservc": 0.0, "per_hs_unclss": 2.4, "avghhsz_cy": 5.34782609, "st_areashape": 31363.87350204, "st_lengthshape": 628.0581775956349}, "geometry": {"type": "Polygon", "coordinates": [[[90.96576790676332, 25.18593279939726], [90.96567846330713, 25.185928760028226], [90.96558990918305, 25.185916680940288], [90.96550312384176, 25.185896684068133], [90.96541896966593, 25.18586896613311], [90.96533828388543, 25.18583380433379], [90.96526186779748, 25.18579154659132], [90.96519048047847, 25.18574261317534], [90.96512483249582, 25.18568749182719], [90.96506557602642, 25.1856267288179], [90.96501329856846, 25.185560928135903], [90.96496852114481, 25.185490744983934], [90.96493168842153, 25.185416875211708], [90.96490316691124, 25.185340053690123], [90.964883238685, 25.1852610445569], [90.96487210316874, 25.18518063227446], [90.96486987085527, 25.185099615939855], [90.96487656330414, 25.185018801155497], [90.96489211404, 25.184938991087297], [90.96491636945098, 25.184860978335152], [90.96494908699194, 25.184785539242576], [90.9649899432694, 25.18471342251553], [90.96503853044818, 25.184645345157463], [90.9650943670313, 25.18458198433993], [90.96515689696157, 25.18452396927285], [90.96522550040152, 25.18447187632676], [90.96529949373314, 25.18442622415465], [90.96537814213458, 25.184387465562537], [90.96546066496984, 25.184355985883155], [90.96554624117877, 25.184332098911018], [90.96563402005675, 25.184316040398723], [90.96572312933966, 25.184307971308492], [90.96581268418697, 25.184307971308492], [90.96590179346988, 25.184316040398723], [90.9659895723479, 25.184332098911018], [90.9660751485568, 25.184355985883155], [90.96615767139205, 25.184387465562537], [90.9662363197935, 25.18442622415465], [90.96631031312515, 25.18447187632676], [90.96637891656508, 25.18452396927285], [90.96644144649538, 25.18458198433993], [90.9664972830785, 25.184645345157463], [90.96654587025725, 25.18471342251553], [90.96658672653469, 25.184785539242576], [90.96661944407565, 25.184860978335152], [90.96664369948664, 25.184938991087297], [90.96665925022253, 25.185018801155497], [90.96666594267138, 25.185099615939855], [90.96666371035792, 25.18518063227446], [90.96665257484163, 25.1852610445569], [90.96663264661538, 25.185340053690123], [90.96660412510512, 25.185416875211708], [90.96656729238181, 25.185490744983934], [90.96652251495817, 25.185560928135903], [90.96647023750022, 25.1856267288179], [90.9664109810308, 25.18568749182719], [90.96634533304815, 25.18574261317534], [90.96627394572918, 25.18579154659132], [90.96619752964124, 25.18583380433379], [90.9661168438607, 25.18586896613311], [90.96603268968487, 25.185896684068133], [90.96594590434363, 25.185916680940288], [90.96585735021952, 25.185928760028226], [90.96576790676332, 25.18593279939726]]]}}]}