{"type": "FeatureCollection", "features": [{"type": "Feature", "properties": {"premiumdata.sde.IN_Village_PCA.area": 0.02311238, "objectid": 612762, "id": "172771978162208", "name": "Rewak Watregittim", "subdistrict": "Rongara", "district": "South Garo Hills", "state": "Meghalaya", "country": "India", "censusname": "Rewak Watregittim", "villagename_locallang": null, "lgd_villagename": "Rewak Watregittim", "lgd_villagecode": 276185, "lgd_subdistrictcode": 1978, "lgd_districtcode": 277, "lgd_statecode": 17, "censuscode2001": "00293800", "censuscode2011": "276185", "censuscode2021": null, "level": "Village", "tru": "Rural", "no_hh": 33, "tot_p": 199, "tot_m": 104, "tot_f": 95, "per_tot_m": 52.26130653, "per_tot_f": 47.73869347, "p_06": 57, "m_06": 30, "f_06": 27, "per_p_06": 28.64321608, "per_m_06": 52.63157895000001, "per_f_06": 47.36842105, "p_sc": 0, "m_sc": 0, "f_sc": 0, "per_p_sc": 0.0, "per_m_sc": 0.0, "per_f_sc": 0.0, "p_st": 199, "m_st": 104, "f_st": 95, "per_p_st": 100.0, "per_m_st": 52.26130653, "per_f_st": 47.73869347, "p_lit": 90, "m_lit": 53, "f_lit": 37, "per_p_lit": 45.22613065, "per_m_lit": 58.88888889, "per_f_lit": 41.11111111, "p_ill": 109, "m_ill": 51, "f_ill": 58, "per_p_ill": 54.77386935, "per_m_ill": 46.78899083, "per_f_ill": 53.21100917, "tot_work_p": 57, "tot_work_m": 36, "tot_work_f": 21, "per_tot_work_p": 28.64321608, "per_tot_work_m": 63.15789474, "per_tot_work_f": 36.84210526, "mainwork_p": 49, "mainwork_m": 35, "mainwork_f": 14, "per_mainwork_p": 24.62311558, "per_mainwork_m": 71.42857143, "per_mainwork_f": 28.57142857, "main_cl_p": 37, "main_cl_m": 26, "main_cl_f": 11, "per_main_cl_p": 75.51020408, "per_main_cl_m": 70.27027027, "per_main_cl_f": 29.72972973, "main_al_p": 1, "main_al_m": 0, "main_al_f": 1, "per_main_al_p": 2.04081633, "per_main_al_m": 0.0, "per_main_al_f": 100.0, "main_hh_p": 3, "main_hh_m": 3, "main_hh_f": 0, "per_main_hh_p": 6.12244898, "per_main_hh_m": 100.0, "per_main_hh_f": 0.0, "main_ot_p": 8, "main_ot_m": 6, "main_ot_f": 2, "per_main_ot_p": 16.32653061, "per_main_ot_m": 75.0, "per_main_ot_f": 25.0, "margwork_p": 8, "margwork_m": 1, "margwork_f": 7, "per_margwork_p": 4.0201005, "per_margwork_m": 12.5, "per_margwork_f": 87.5, "marg_cl_p": 7, "marg_cl_m": 0, "marg_cl_f": 7, "per_marg_cl_p": 87.5, "per_marg_cl_m": 0.0, "per_marg_cl_f": 100.0, "marg_al_p": 0, "marg_al_m": 0, "marg_al_f": 0, "per_marg_al_p": 0.0, "per_marg_al_m": 0.0, "per_marg_al_f": 0.0, "marg_hh_p": 0, "marg_hh_m": 0, "marg_hh_f": 0, "per_marg_hh_p": 0.0, "per_marg_hh_m": 0.0, "per_marg_hh_f": 0.0, "marg_ot_p": 1, "marg_ot_m": 1, "marg_ot_f": 0, "per_marg_ot_p": 12.5, "per_marg_ot_m": 100.0, "per_marg_ot_f": 0.0, "margwork_3_6_p": 7, "margwork_3_6_m": 1, "margwork_3_6_f": 6, "per_margwork_3_6_p": 87.5, "per_margwork_3_6_m": 14.28571429, "per_margwork_3_6_f": 85.71428571, "marg_cl_3_6_p": 6, "marg_cl_3_6_m": 0, "marg_cl_3_6_f": 6, "per_marg_cl_3_6_p": 75.0, "per_marg_cl_3_6_m": 0.0, "per_marg_cl_3_6_f": 100.0, "marg_al_3_6_p": 0, "marg_al_3_6_m": 0, "marg_al_3_6_f": 0, "per_marg_al_3_6_p": 0.0, "per_marg_al_3_6_m": 0.0, "per_marg_al_3_6_f": 0.0, "marg_hh_3_6_p": 0, "marg_hh_3_6_m": 0, "marg_hh_3_6_f": 0, "per_marg_hh_3_6_p": 0.0, "per_marg_hh_3_6_m": 0.0, "per_marg_hh_3_6_f": 0.0, "marg_ot_3_6_p": 1, "marg_ot_3_6_m": 1, "marg_ot_3_6_f": 0, "per_marg_ot_3_6_p": 12.5, "per_marg_ot_3_6_m": 100.0, "per_marg_ot_3_6_f": 0.0, "margwork_0_3_p": 1, "margwork_0_3_m": 0, "margwork_0_3_f": 1, "per_margwork_0_3_p": 12.5, "per_margwork_0_3_m": 0.0, "per_margwork_0_3_f": 100.0, "marg_cl_0_3_p": 1, "marg_cl_0_3_m": 0, "marg_cl_0_3_f": 1, "per_marg_cl_0_3_p": 12.5, "per_marg_cl_0_3_m": 0.0, "per_marg_cl_0_3_f": 100.0, "marg_al_0_3_p": 0, "marg_al_0_3_m": 0, "marg_al_0_3_f": 0, "per_marg_al_0_3_p": 0.0, "per_marg_al_0_3_m": 0.0, "per_marg_al_0_3_f": 0.0, "marg_hh_0_3_p": 0, "marg_hh_0_3_m": 0, "marg_hh_0_3_f": 0, "per_marg_hh_0_3_p": 0.0, "per_marg_hh_0_3_m": 0.0, "per_marg_hh_0_3_f": 0.0, "marg_ot_0_3_p": 0, "marg_ot_0_3_m": 0, "marg_ot_0_3_f": 0, "per_marg_ot_0_3_p": 0.0, "per_marg_ot_0_3_m": 0.0, "per_marg_ot_0_3_f": 0.0, "non_work_p": 142, "non_work_m": 68, "non_work_f": 74, "per_non_work_p": 71.35678392, "per_non_work_m": 47.88732394, "per_non_work_f": 52.11267606, "per_hc_tot_tot": 100, "per_hc_tot_god": 2.9, "per_hc_tot_liv": 97.1, "per_hc_tot_dil": 0.0, "per_hc_res_tot": 100.0, "per_hc_res_god": 2.9, "per_hc_res_liv": 97.1, "per_hc_res_dil": 0.0, "per_hc_oth_tot": 0.0, "per_hc_oth_god": 0.0, "per_hc_oth_liv": 0.0, "per_hc_oth_dil": 0.0, "per_mt_grsbam": 0.0, "per_mt_plastic": 0.0, "per_mt_h_tiles": 0.0, "per_mt_m_tiles": 0.0, "per_mt_b_brick": 0.0, "per_mt_stone": 0.0, "per_mt_asbstos": 100.0, "per_mt_concrte": 0.0, "per_mt_oth": 0.0, "per_mw_grsbam": 100.0, "per_mw_plastic": 0.0, "per_mw_mud": 0.0, "per_mw_wood": 0.0, "per_mw_no_mrtr": 0.0, "per_mw_st_mrtr": 0.0, "per_mw_asbstos": 0.0, "per_mw_b_brick": 0.0, "per_mw_concrte": 0.0, "per_mw_oth": 0.0, "per_mf_mud": 50.0, "per_mf_wood": 50.0, "per_mf_b_brick": 0.0, "per_mf_stone": 0.0, "per_mf_cement": 0.0, "per_mf_fl_tile": 0.0, "per_mf_oth": 0.0, "per_dw_n_exrm": 8.8, "per_dw_1_room": 14.7, "per_dw_2_room": 32.4, "per_dw_3_room": 44.1, "per_dw_4_room": 0.0, "per_dw_5_room": 0.0, "per_dw_6_room": 0.0, "per_hhsize_1": 0.0, "per_hhsize_2": 0.0, "per_hhsize_3": 20.6, "per_hhsize_4": 8.8, "per_hhsize_5": 17.6, "per_hhsize_6_8": 50.0, "per_hhsize_9p": 2.9, "per_ow_owned": 100.0, "per_ow_rented": 0.0, "per_ow_oth": 0.0, "per_mc_none": 2.9, "per_mcouple_1": 88.2, "per_mcouple_2": 5.9, "per_mcouple_3": 2.9, "per_mcouple_4": 0.0, "per_mcouple_5p": 0.0, "per_dw_t_ts": 0.0, "per_dw_t_unts": 0.0, "per_dw_c_well": 0.0, "per_dw_unc_wel": 20.6, "per_dw_hpump": 0.0, "per_dw_tw_bore": 0.0, "per_dw_spring": 79.4, "per_dw_rivcan": 0.0, "per_dw_tank": 0.0, "per_dw_oth": 0.0, "per_loc_dw_wp": 11.8, "per_loc_dw_np": 38.2, "per_loc_dw_aw": 50.0, "per_light_elec": 52.9, "per_light_kero": 47.1, "per_light_solr": 0.0, "per_light_oil": 0.0, "per_light_oth": 0.0, "per_light_no": 0.0, "per_hh_latrine": 70.6, "per_fl_sewer": 2.9, "per_fl_septict": 0.0, "per_fl_othsys": 52.9, "per_pl_wslab": 5.9, "per_pl_without": 8.8, "per_ns_open": 0.0, "per_sl_ns_hum": 0.0, "per_sl_ns_anml": 0.0, "per_hh_no_lat": 29.4, "per_as_pub": 0.0, "per_as_open": 29.4, "per_hh_bathrm": 0.0, "per_hh_en_wrf": 0.0, "per_hh_no_btrm": 100.0, "per_wwoc_drain": 0.0, "per_wwoc_open": 0.0, "per_wwoc_nodrn": 100.0, "per_cook_fire": 97.1, "per_cook_resdu": 0.0, "per_cook_cwdng": 0.0, "per_cook_coal": 0.0, "per_cook_kero": 0.0, "per_cook_lpng": 0.0, "per_cook_elec": 0.0, "per_cook_biogs": 0.0, "per_cook_oth": 0.0, "per_cook_no": 2.9, "per_kf_inside": 8.8, "per_kf_in_has": 0.0, "per_kf_in_does": 8.8, "per_kf_outside": 88.2, "per_kf_out_has": 88.2, "per_kf_out_dos": 0.0, "per_kf_no_cook": 2.9, "per_hh_banking": 29.4, "per_hh_radio": 8.8, "per_hh_tv": 17.6, "per_hh_cmp_int": 0.0, "per_hh_cmp_wnt": 0.0, "per_hh_ph_ll": 2.9, "per_hh_ph_mob": 5.9, "per_hh_ph_bth": 2.9, "per_hh_bcycl": 0.0, "per_hh_2wheel": 0.0, "per_hh_4wheel": 0.0, "per_hh_tvcomp": 0.0, "per_hh_no_ast": 76.5, "per_hs_perma": 0.0, "per_hs_sperma": 100.0, "per_hs_temp": 0.0, "per_hs_servc": 0.0, "per_hs_nservc": 0.0, "per_hs_unclss": 0.0, "avghhsz_cy": 6.03030303, "st_areashape": 31363.87350204, "st_lengthshape": 628.0581775956349}, "geometry": {"type": "Polygon", "coordinates": [[[90.66722945619031, 25.300994032360364], [90.66714001273411, 25.300989996814216], [90.66705145861005, 25.300977929157916], [90.66696467326877, 25.300957951210762], [90.66688051909293, 25.30093025950795], [90.66679983331244, 25.30089513098564], [90.66672341722447, 25.300852913235655], [90.66665202990548, 25.300804026130002], [90.66658638192281, 25.30074895694823], [90.66652712545341, 25.300688251444438], [90.66647484799546, 25.300622513035385], [90.66643007057182, 25.30055239630375], [90.66639323784851, 25.300478596440577], [90.66636471633825, 25.300401847621398], [90.666344788112, 25.300322913260622], [90.66633365259575, 25.300242577078347], [90.66633142028226, 25.300161637415297], [90.6663381127311, 25.300080899111563], [90.66635366346699, 25.30000116457291], [90.66637791887798, 25.299923225649188], [90.66641063641895, 25.299847857949203], [90.66645149269638, 25.299775809470383], [90.66650007987518, 25.299707796537735], [90.66655591645825, 25.2996444956819], [90.66661844638858, 25.29958653551749], [90.66668704982851, 25.29953449186952], [90.66676104316014, 25.29948888290024], [90.66683969156158, 25.299450160987178], [90.66692221439683, 25.299418711098422], [90.66700779060574, 25.299394846731566], [90.66709556948375, 25.299378803416154], [90.66718467876666, 25.29937074196204], [90.66727423361397, 25.29937074196204], [90.66736334289689, 25.299378803416154], [90.66745112177489, 25.299394846731566], [90.66753669798379, 25.299418711098422], [90.66761922081905, 25.299450160987178], [90.66769786922049, 25.29948888290024], [90.66777186255212, 25.29953449186952], [90.66784046599206, 25.29958653551749], [90.66790299592238, 25.2996444956819], [90.66795883250545, 25.299707796537735], [90.66800741968423, 25.299775809470383], [90.6680482759617, 25.299847857949203], [90.66808099350266, 25.299923225649188], [90.66810524891363, 25.30000116457291], [90.66812079964953, 25.300080899111563], [90.66812749209836, 25.300161637415297], [90.66812525978492, 25.300242577078347], [90.66811412426863, 25.300322913260622], [90.66809419604239, 25.300401847621398], [90.6680656745321, 25.300478596440577], [90.66802884180882, 25.30055239630375], [90.66798406438517, 25.300622513035385], [90.66793178692721, 25.300688251444438], [90.66787253045781, 25.30074895694823], [90.66780688247516, 25.300804026130002], [90.66773549515615, 25.300852913235655], [90.6676590790682, 25.30089513098564], [90.6675783932877, 25.30093025950795], [90.66749423911187, 25.300957951210762], [90.66740745377058, 25.300977929157916], [90.66731889964652, 25.300989996814216], [90.66722945619031, 25.300994032360364]]]}}]}