{"type": "FeatureCollection", "features": [{"type": "Feature", "properties": {"premiumdata.sde.IN_Village_PCA.area": 3.28049026, "objectid": 256317, "id": "234373579524597", "name": "Kachnariya", "subdistrict": "Vidisha", "district": "Vidisha", "state": "Madhya Pradesh", "country": "India", "censusname": "Kachnariya", "villagename_locallang": null, "lgd_villagename": "Kachnariya", "lgd_villagecode": 481865, "lgd_subdistrictcode": 3579, "lgd_districtcode": 437, "lgd_statecode": 23, "censuscode2001": "03856100", "censuscode2011": "481865", "censuscode2021": null, "level": "Village", "tru": "Rural", "no_hh": 41, "tot_p": 288, "tot_m": 153, "tot_f": 135, "per_tot_m": 53.125, "per_tot_f": 46.875, "p_06": 38, "m_06": 18, "f_06": 20, "per_p_06": 13.19444444, "per_m_06": 47.36842105, "per_f_06": 52.63157895000001, "p_sc": 0, "m_sc": 0, "f_sc": 0, "per_p_sc": 0.0, "per_m_sc": 0.0, "per_f_sc": 0.0, "p_st": 0, "m_st": 0, "f_st": 0, "per_p_st": 0.0, "per_m_st": 0.0, "per_f_st": 0.0, "p_lit": 189, "m_lit": 123, "f_lit": 66, "per_p_lit": 65.625, "per_m_lit": 65.07936508, "per_f_lit": 34.92063492, "p_ill": 99, "m_ill": 30, "f_ill": 69, "per_p_ill": 34.375, "per_m_ill": 30.3030303, "per_f_ill": 69.6969697, "tot_work_p": 111, "tot_work_m": 83, "tot_work_f": 28, "per_tot_work_p": 38.54166667000001, "per_tot_work_m": 74.77477477, "per_tot_work_f": 25.22522523, "mainwork_p": 85, "mainwork_m": 80, "mainwork_f": 5, "per_mainwork_p": 29.51388889, "per_mainwork_m": 94.11764706, "per_mainwork_f": 5.88235294, "main_cl_p": 79, "main_cl_m": 74, "main_cl_f": 5, "per_main_cl_p": 92.94117647, "per_main_cl_m": 93.67088608, "per_main_cl_f": 6.32911392, "main_al_p": 6, "main_al_m": 6, "main_al_f": 0, "per_main_al_p": 7.05882353, "per_main_al_m": 100.0, "per_main_al_f": 0.0, "main_hh_p": 0, "main_hh_m": 0, "main_hh_f": 0, "per_main_hh_p": 0.0, "per_main_hh_m": 0.0, "per_main_hh_f": 0.0, "main_ot_p": 0, "main_ot_m": 0, "main_ot_f": 0, "per_main_ot_p": 0.0, "per_main_ot_m": 0.0, "per_main_ot_f": 0.0, "margwork_p": 26, "margwork_m": 3, "margwork_f": 23, "per_margwork_p": 9.02777778, "per_margwork_m": 11.53846154, "per_margwork_f": 88.46153846, "marg_cl_p": 21, "marg_cl_m": 2, "marg_cl_f": 19, "per_marg_cl_p": 80.76923077, "per_marg_cl_m": 9.52380952, "per_marg_cl_f": 90.47619048, "marg_al_p": 5, "marg_al_m": 1, "marg_al_f": 4, "per_marg_al_p": 19.23076923, "per_marg_al_m": 20.0, "per_marg_al_f": 80.0, "marg_hh_p": 0, "marg_hh_m": 0, "marg_hh_f": 0, "per_marg_hh_p": 0.0, "per_marg_hh_m": 0.0, "per_marg_hh_f": 0.0, "marg_ot_p": 0, "marg_ot_m": 0, "marg_ot_f": 0, "per_marg_ot_p": 0.0, "per_marg_ot_m": 0.0, "per_marg_ot_f": 0.0, "margwork_3_6_p": 25, "margwork_3_6_m": 3, "margwork_3_6_f": 22, "per_margwork_3_6_p": 96.15384615, "per_margwork_3_6_m": 12.0, "per_margwork_3_6_f": 88.0, "marg_cl_3_6_p": 20, "marg_cl_3_6_m": 2, "marg_cl_3_6_f": 18, "per_marg_cl_3_6_p": 76.92307692, "per_marg_cl_3_6_m": 10.0, "per_marg_cl_3_6_f": 90.0, "marg_al_3_6_p": 5, "marg_al_3_6_m": 1, "marg_al_3_6_f": 4, "per_marg_al_3_6_p": 19.23076923, "per_marg_al_3_6_m": 20.0, "per_marg_al_3_6_f": 80.0, "marg_hh_3_6_p": 0, "marg_hh_3_6_m": 0, "marg_hh_3_6_f": 0, "per_marg_hh_3_6_p": 0.0, "per_marg_hh_3_6_m": 0.0, "per_marg_hh_3_6_f": 0.0, "marg_ot_3_6_p": 0, "marg_ot_3_6_m": 0, "marg_ot_3_6_f": 0, "per_marg_ot_3_6_p": 0.0, "per_marg_ot_3_6_m": 0.0, "per_marg_ot_3_6_f": 0.0, "margwork_0_3_p": 1, "margwork_0_3_m": 0, "margwork_0_3_f": 1, "per_margwork_0_3_p": 3.84615385, "per_margwork_0_3_m": 0.0, "per_margwork_0_3_f": 100.0, "marg_cl_0_3_p": 1, "marg_cl_0_3_m": 0, "marg_cl_0_3_f": 1, "per_marg_cl_0_3_p": 3.84615385, "per_marg_cl_0_3_m": 0.0, "per_marg_cl_0_3_f": 100.0, "marg_al_0_3_p": 0, "marg_al_0_3_m": 0, "marg_al_0_3_f": 0, "per_marg_al_0_3_p": 0.0, "per_marg_al_0_3_m": 0.0, "per_marg_al_0_3_f": 0.0, "marg_hh_0_3_p": 0, "marg_hh_0_3_m": 0, "marg_hh_0_3_f": 0, "per_marg_hh_0_3_p": 0.0, "per_marg_hh_0_3_m": 0.0, "per_marg_hh_0_3_f": 0.0, "marg_ot_0_3_p": 0, "marg_ot_0_3_m": 0, "marg_ot_0_3_f": 0, "per_marg_ot_0_3_p": 0.0, "per_marg_ot_0_3_m": 0.0, "per_marg_ot_0_3_f": 0.0, "non_work_p": 177, "non_work_m": 70, "non_work_f": 107, "per_non_work_p": 61.45833333, "per_non_work_m": 39.5480226, "per_non_work_f": 60.4519774, "per_hc_tot_tot": 100, "per_hc_tot_god": 97.6, "per_hc_tot_liv": 2.4, "per_hc_tot_dil": 0.0, "per_hc_res_tot": 100.0, "per_hc_res_god": 97.6, "per_hc_res_liv": 2.4, "per_hc_res_dil": 0.0, "per_hc_oth_tot": 0.0, "per_hc_oth_god": 0.0, "per_hc_oth_liv": 0.0, "per_hc_oth_dil": 0.0, "per_mt_grsbam": 0.0, "per_mt_plastic": 0.0, "per_mt_h_tiles": 78.0, "per_mt_m_tiles": 0.0, "per_mt_b_brick": 0.0, "per_mt_stone": 0.0, "per_mt_asbstos": 0.0, "per_mt_concrte": 22.0, "per_mt_oth": 0.0, "per_mw_grsbam": 0.0, "per_mw_plastic": 0.0, "per_mw_mud": 80.5, "per_mw_wood": 0.0, "per_mw_no_mrtr": 0.0, "per_mw_st_mrtr": 0.0, "per_mw_asbstos": 0.0, "per_mw_b_brick": 19.5, "per_mw_concrte": 0.0, "per_mw_oth": 0.0, "per_mf_mud": 75.6, "per_mf_wood": 0.0, "per_mf_b_brick": 0.0, "per_mf_stone": 2.4, "per_mf_cement": 22.0, "per_mf_fl_tile": 0.0, "per_mf_oth": 0.0, "per_dw_n_exrm": 0.0, "per_dw_1_room": 29.3, "per_dw_2_room": 34.1, "per_dw_3_room": 24.4, "per_dw_4_room": 2.4, "per_dw_5_room": 7.3, "per_dw_6_room": 2.4, "per_hhsize_1": 2.4, "per_hhsize_2": 4.9, "per_hhsize_3": 2.4, "per_hhsize_4": 12.2, "per_hhsize_5": 22.0, "per_hhsize_6_8": 34.1, "per_hhsize_9p": 22.0, "per_ow_owned": 92.7, "per_ow_rented": 0.0, "per_ow_oth": 7.3, "per_mc_none": 4.9, "per_mcouple_1": 53.7, "per_mcouple_2": 29.3, "per_mcouple_3": 9.8, "per_mcouple_4": 0.0, "per_mcouple_5p": 2.4, "per_dw_t_ts": 0.0, "per_dw_t_unts": 0.0, "per_dw_c_well": 0.0, "per_dw_unc_wel": 0.0, "per_dw_hpump": 100.0, "per_dw_tw_bore": 0.0, "per_dw_spring": 0.0, "per_dw_rivcan": 0.0, "per_dw_tank": 0.0, "per_dw_oth": 0.0, "per_loc_dw_wp": 19.5, "per_loc_dw_np": 34.1, "per_loc_dw_aw": 46.3, "per_light_elec": 100.0, "per_light_kero": 0.0, "per_light_solr": 0.0, "per_light_oil": 0.0, "per_light_oth": 0.0, "per_light_no": 0.0, "per_hh_latrine": 12.2, "per_fl_sewer": 0.0, "per_fl_septict": 0.0, "per_fl_othsys": 7.3, "per_pl_wslab": 4.9, "per_pl_without": 0.0, "per_ns_open": 0.0, "per_sl_ns_hum": 0.0, "per_sl_ns_anml": 0.0, "per_hh_no_lat": 87.8, "per_as_pub": 0.0, "per_as_open": 87.8, "per_hh_bathrm": 14.6, "per_hh_en_wrf": 46.3, "per_hh_no_btrm": 39.0, "per_wwoc_drain": 14.6, "per_wwoc_open": 0.0, "per_wwoc_nodrn": 85.4, "per_cook_fire": 0.0, "per_cook_resdu": 0.0, "per_cook_cwdng": 97.6, "per_cook_coal": 0.0, "per_cook_kero": 0.0, "per_cook_lpng": 2.4, "per_cook_elec": 0.0, "per_cook_biogs": 0.0, "per_cook_oth": 0.0, "per_cook_no": 0.0, "per_kf_inside": 100.0, "per_kf_in_has": 17.1, "per_kf_in_does": 82.9, "per_kf_outside": 0.0, "per_kf_out_has": 0.0, "per_kf_out_dos": 0.0, "per_kf_no_cook": 0.0, "per_hh_banking": 4.9, "per_hh_radio": 2.4, "per_hh_tv": 39.0, "per_hh_cmp_int": 0.0, "per_hh_cmp_wnt": 0.0, "per_hh_ph_ll": 0.0, "per_hh_ph_mob": 36.6, "per_hh_ph_bth": 4.9, "per_hh_bcycl": 4.9, "per_hh_2wheel": 31.7, "per_hh_4wheel": 0.0, "per_hh_tvcomp": 0.0, "per_hh_no_ast": 46.3, "per_hs_perma": 19.5, "per_hs_sperma": 80.5, "per_hs_temp": 0.0, "per_hs_servc": 0.0, "per_hs_nservc": 0.0, "per_hs_unclss": 0.0, "avghhsz_cy": 7.02439024, "st_areashape": 3925381.739369885, "st_lengthshape": 8522.638692966997}, "geometry": {"type": "Polygon", "coordinates": [[[77.69069999934442, 23.62164000049585], [77.68980000061747, 23.621649999690497], [77.6836500003334, 23.61756000037761], [77.67841000061868, 23.61429999974858], [77.67632000004158, 23.613399999762592], [77.67705999983329, 23.611110000345146], [77.67708999997049, 23.610099999892963], [77.67991999944098, 23.610560000094164], [77.68857999952843, 23.608059999875216], [77.69723999961582, 23.60543999954333], [77.69902999971895, 23.605389999847866], [77.70175999963031, 23.614170000397717], [77.70405000022396, 23.619730000405298], [77.70463000018208, 23.62191999987965], [77.69475999994968, 23.621629999654353], [77.69069999934442, 23.62164000049585]]]}}]}