{"type": "FeatureCollection", "features": [{"type": "Feature", "properties": {"premiumdata.sde.IN_Village_PCA.area": 0.42416538, "objectid": 590283, "id": "102241268323223", "name": "Chak Kutubpur", "subdistrict": "Vaishali", "district": "Vaishali", "state": "Bihar", "country": "India", "censusname": "Chak Kutubpur", "villagename_locallang": null, "lgd_villagename": "Chak Kutubpur", "lgd_villagecode": 234670, "lgd_subdistrictcode": 1268, "lgd_districtcode": 224, "lgd_statecode": 10, "censuscode2001": "01873000", "censuscode2011": "234670", "censuscode2021": null, "level": "Village", "tru": "Rural", "no_hh": 199, "tot_p": 1014, "tot_m": 552, "tot_f": 462, "per_tot_m": 54.43786982, "per_tot_f": 45.56213018, "p_06": 149, "m_06": 85, "f_06": 64, "per_p_06": 14.69428008, "per_m_06": 57.04697987, "per_f_06": 42.95302013000001, "p_sc": 48, "m_sc": 22, "f_sc": 26, "per_p_sc": 4.73372781, "per_m_sc": 45.83333333, "per_f_sc": 54.16666667000001, "p_st": 0, "m_st": 0, "f_st": 0, "per_p_st": 0.0, "per_m_st": 0.0, "per_f_st": 0.0, "p_lit": 589, "m_lit": 364, "f_lit": 225, "per_p_lit": 58.08678501, "per_m_lit": 61.79966044, "per_f_lit": 38.20033956, "p_ill": 425, "m_ill": 188, "f_ill": 237, "per_p_ill": 41.91321499, "per_m_ill": 44.23529412, "per_f_ill": 55.76470588, "tot_work_p": 302, "tot_work_m": 252, "tot_work_f": 50, "per_tot_work_p": 29.78303748, "per_tot_work_m": 83.44370861, "per_tot_work_f": 16.55629139, "mainwork_p": 267, "mainwork_m": 237, "mainwork_f": 30, "per_mainwork_p": 26.33136095, "per_mainwork_m": 88.76404494, "per_mainwork_f": 11.23595506, "main_cl_p": 45, "main_cl_m": 42, "main_cl_f": 3, "per_main_cl_p": 16.85393258, "per_main_cl_m": 93.33333332999999, "per_main_cl_f": 6.66666667, "main_al_p": 134, "main_al_m": 111, "main_al_f": 23, "per_main_al_p": 50.18726592, "per_main_al_m": 82.8358209, "per_main_al_f": 17.1641791, "main_hh_p": 0, "main_hh_m": 0, "main_hh_f": 0, "per_main_hh_p": 0.0, "per_main_hh_m": 0.0, "per_main_hh_f": 0.0, "main_ot_p": 88, "main_ot_m": 84, "main_ot_f": 4, "per_main_ot_p": 32.9588015, "per_main_ot_m": 95.45454545, "per_main_ot_f": 4.54545455, "margwork_p": 35, "margwork_m": 15, "margwork_f": 20, "per_margwork_p": 3.45167653, "per_margwork_m": 42.85714286, "per_margwork_f": 57.14285714, "marg_cl_p": 0, "marg_cl_m": 0, "marg_cl_f": 0, "per_marg_cl_p": 0.0, "per_marg_cl_m": 0.0, "per_marg_cl_f": 0.0, "marg_al_p": 32, "marg_al_m": 12, "marg_al_f": 20, "per_marg_al_p": 91.42857143, "per_marg_al_m": 37.5, "per_marg_al_f": 62.5, "marg_hh_p": 0, "marg_hh_m": 0, "marg_hh_f": 0, "per_marg_hh_p": 0.0, "per_marg_hh_m": 0.0, "per_marg_hh_f": 0.0, "marg_ot_p": 3, "marg_ot_m": 3, "marg_ot_f": 0, "per_marg_ot_p": 8.57142857, "per_marg_ot_m": 100.0, "per_marg_ot_f": 0.0, "margwork_3_6_p": 35, "margwork_3_6_m": 15, "margwork_3_6_f": 20, "per_margwork_3_6_p": 100.0, "per_margwork_3_6_m": 42.85714286, "per_margwork_3_6_f": 57.14285714, "marg_cl_3_6_p": 0, "marg_cl_3_6_m": 0, "marg_cl_3_6_f": 0, "per_marg_cl_3_6_p": 0.0, "per_marg_cl_3_6_m": 0.0, "per_marg_cl_3_6_f": 0.0, "marg_al_3_6_p": 32, "marg_al_3_6_m": 12, "marg_al_3_6_f": 20, "per_marg_al_3_6_p": 91.42857143, "per_marg_al_3_6_m": 37.5, "per_marg_al_3_6_f": 62.5, "marg_hh_3_6_p": 0, "marg_hh_3_6_m": 0, "marg_hh_3_6_f": 0, "per_marg_hh_3_6_p": 0.0, "per_marg_hh_3_6_m": 0.0, "per_marg_hh_3_6_f": 0.0, "marg_ot_3_6_p": 3, "marg_ot_3_6_m": 3, "marg_ot_3_6_f": 0, "per_marg_ot_3_6_p": 8.57142857, "per_marg_ot_3_6_m": 100.0, "per_marg_ot_3_6_f": 0.0, "margwork_0_3_p": 0, "margwork_0_3_m": 0, "margwork_0_3_f": 0, "per_margwork_0_3_p": 0.0, "per_margwork_0_3_m": 0.0, "per_margwork_0_3_f": 0.0, "marg_cl_0_3_p": 0, "marg_cl_0_3_m": 0, "marg_cl_0_3_f": 0, "per_marg_cl_0_3_p": 0.0, "per_marg_cl_0_3_m": 0.0, "per_marg_cl_0_3_f": 0.0, "marg_al_0_3_p": 0, "marg_al_0_3_m": 0, "marg_al_0_3_f": 0, "per_marg_al_0_3_p": 0.0, "per_marg_al_0_3_m": 0.0, "per_marg_al_0_3_f": 0.0, "marg_hh_0_3_p": 0, "marg_hh_0_3_m": 0, "marg_hh_0_3_f": 0, "per_marg_hh_0_3_p": 0.0, "per_marg_hh_0_3_m": 0.0, "per_marg_hh_0_3_f": 0.0, "marg_ot_0_3_p": 0, "marg_ot_0_3_m": 0, "marg_ot_0_3_f": 0, "per_marg_ot_0_3_p": 0.0, "per_marg_ot_0_3_m": 0.0, "per_marg_ot_0_3_f": 0.0, "non_work_p": 712, "non_work_m": 300, "non_work_f": 412, "per_non_work_p": 70.21696252, "per_non_work_m": 42.13483146, "per_non_work_f": 57.86516854, "per_hc_tot_tot": 100, "per_hc_tot_god": 18.1, "per_hc_tot_liv": 79.4, "per_hc_tot_dil": 2.5, "per_hc_res_tot": 100.0, "per_hc_res_god": 18.1, "per_hc_res_liv": 79.4, "per_hc_res_dil": 2.5, "per_hc_oth_tot": 0.0, "per_hc_oth_god": 0.0, "per_hc_oth_liv": 0.0, "per_hc_oth_dil": 0.0, "per_mt_grsbam": 33.2, "per_mt_plastic": 0.0, "per_mt_h_tiles": 14.6, "per_mt_m_tiles": 0.0, "per_mt_b_brick": 0.5, "per_mt_stone": 0.5, "per_mt_asbstos": 15.6, "per_mt_concrte": 35.7, "per_mt_oth": 0.0, "per_mw_grsbam": 13.6, "per_mw_plastic": 0.0, "per_mw_mud": 0.0, "per_mw_wood": 0.0, "per_mw_no_mrtr": 0.0, "per_mw_st_mrtr": 0.0, "per_mw_asbstos": 0.0, "per_mw_b_brick": 86.4, "per_mw_concrte": 0.0, "per_mw_oth": 0.0, "per_mf_mud": 95.5, "per_mf_wood": 0.5, "per_mf_b_brick": 0.0, "per_mf_stone": 0.5, "per_mf_cement": 3.5, "per_mf_fl_tile": 0.0, "per_mf_oth": 0.0, "per_dw_n_exrm": 0.0, "per_dw_1_room": 65.3, "per_dw_2_room": 33.2, "per_dw_3_room": 1.0, "per_dw_4_room": 0.5, "per_dw_5_room": 0.0, "per_dw_6_room": 0.0, "per_hhsize_1": 0.5, "per_hhsize_2": 12.6, "per_hhsize_3": 10.1, "per_hhsize_4": 12.6, "per_hhsize_5": 20.6, "per_hhsize_6_8": 41.2, "per_hhsize_9p": 2.5, "per_ow_owned": 100.0, "per_ow_rented": 0.0, "per_ow_oth": 0.0, "per_mc_none": 4.0, "per_mcouple_1": 82.9, "per_mcouple_2": 12.6, "per_mcouple_3": 0.0, "per_mcouple_4": 0.5, "per_mcouple_5p": 0.0, "per_dw_t_ts": 0.0, "per_dw_t_unts": 0.0, "per_dw_c_well": 0.0, "per_dw_unc_wel": 0.0, "per_dw_hpump": 100.0, "per_dw_tw_bore": 0.0, "per_dw_spring": 0.0, "per_dw_rivcan": 0.0, "per_dw_tank": 0.0, "per_dw_oth": 0.0, "per_loc_dw_wp": 30.7, "per_loc_dw_np": 55.3, "per_loc_dw_aw": 14.1, "per_light_elec": 23.6, "per_light_kero": 76.4, "per_light_solr": 0.0, "per_light_oil": 0.0, "per_light_oth": 0.0, "per_light_no": 0.0, "per_hh_latrine": 50.3, "per_fl_sewer": 0.0, "per_fl_septict": 31.2, "per_fl_othsys": 14.1, "per_pl_wslab": 5.0, "per_pl_without": 0.0, "per_ns_open": 0.0, "per_sl_ns_hum": 0.0, "per_sl_ns_anml": 0.0, "per_hh_no_lat": 49.7, "per_as_pub": 0.0, "per_as_open": 49.7, "per_hh_bathrm": 3.5, "per_hh_en_wrf": 10.1, "per_hh_no_btrm": 86.4, "per_wwoc_drain": 9.0, "per_wwoc_open": 57.3, "per_wwoc_nodrn": 33.7, "per_cook_fire": 65.8, "per_cook_resdu": 33.7, "per_cook_cwdng": 0.0, "per_cook_coal": 0.0, "per_cook_kero": 0.0, "per_cook_lpng": 0.5, "per_cook_elec": 0.0, "per_cook_biogs": 0.0, "per_cook_oth": 0.0, "per_cook_no": 0.0, "per_kf_inside": 99.0, "per_kf_in_has": 0.0, "per_kf_in_does": 99.0, "per_kf_outside": 1.0, "per_kf_out_has": 0.5, "per_kf_out_dos": 0.5, "per_kf_no_cook": 0.0, "per_hh_banking": 6.5, "per_hh_radio": 10.1, "per_hh_tv": 12.1, "per_hh_cmp_int": 0.0, "per_hh_cmp_wnt": 1.5, "per_hh_ph_ll": 0.0, "per_hh_ph_mob": 51.3, "per_hh_ph_bth": 1.0, "per_hh_bcycl": 48.2, "per_hh_2wheel": 3.5, "per_hh_4wheel": 0.0, "per_hh_tvcomp": 0.0, "per_hh_no_ast": 29.1, "per_hs_perma": 66.8, "per_hs_sperma": 19.6, "per_hs_temp": 13.6, "per_hs_servc": 0.0, "per_hs_nservc": 13.6, "per_hs_unclss": 0.0, "avghhsz_cy": 5.09547739, "st_areashape": 526509.708039525, "st_lengthshape": 3121.772568003158}, "geometry": {"type": "Polygon", "coordinates": [[[85.18557038506499, 25.919787664126], [85.18509118326827, 25.9199454010903], [85.18335927092636, 25.920179354858885], [85.18123764965125, 25.921234419061676], [85.18104295508478, 25.921333606707694], [85.1799364857763, 25.918688313283244], [85.17926877521212, 25.91695489108072], [85.17847146829517, 25.91492811881593], [85.17831213501155, 25.91424199195463], [85.17814810084404, 25.913172283271106], [85.17947562757763, 25.913037545775946], [85.18092289434873, 25.913128522184937], [85.18121237105913, 25.91295712901979], [85.18331333826923, 25.91295360210956], [85.18326295895147, 25.9138968533172], [85.1833870162922, 25.915201279387553], [85.18381080640896, 25.915878415955056], [85.1844345983389, 25.916036723733146], [85.18468363469184, 25.916889814706693], [85.18497739456953, 25.918153602729173], [85.18540106341372, 25.919187314651975], [85.18557038506499, 25.919787664126]]]}}]}