{"type": "FeatureCollection", "features": [{"type": "Feature", "properties": {"premiumdata.sde.IN_Village_PCA.area": 1.83647282, "objectid": 379539, "id": "9173791457839", "name": "Purainia Ramgulam", "subdistrict": "Bisalpur", "district": "Pilibhit", "state": "Uttar Pradesh", "country": "India", "censusname": "Purainia Ramgulam", "villagename_locallang": null, "lgd_villagename": "Purainia Ramgulam", "lgd_villagecode": 131793, "lgd_subdistrictcode": 791, "lgd_districtcode": 173, "lgd_statecode": 9, "censuscode2001": "02460300", "censuscode2011": "131793", "censuscode2021": null, "level": "Village", "tru": "Rural", "no_hh": 221, "tot_p": 1065, "tot_m": 578, "tot_f": 487, "per_tot_m": 54.27230047, "per_tot_f": 45.72769953, "p_06": 154, "m_06": 90, "f_06": 64, "per_p_06": 14.4600939, "per_m_06": 58.44155844, "per_f_06": 41.55844156, "p_sc": 78, "m_sc": 39, "f_sc": 39, "per_p_sc": 7.32394366, "per_m_sc": 50.0, "per_f_sc": 50.0, "p_st": 0, "m_st": 0, "f_st": 0, "per_p_st": 0.0, "per_m_st": 0.0, "per_f_st": 0.0, "p_lit": 700, "m_lit": 441, "f_lit": 259, "per_p_lit": 65.72769953, "per_m_lit": 63.0, "per_f_lit": 37.0, "p_ill": 365, "m_ill": 137, "f_ill": 228, "per_p_ill": 34.27230047, "per_m_ill": 37.53424658, "per_f_ill": 62.46575342, "tot_work_p": 289, "tot_work_m": 279, "tot_work_f": 10, "per_tot_work_p": 27.13615023, "per_tot_work_m": 96.53979239, "per_tot_work_f": 3.46020761, "mainwork_p": 235, "mainwork_m": 229, "mainwork_f": 6, "per_mainwork_p": 22.0657277, "per_mainwork_m": 97.44680851, "per_mainwork_f": 2.55319149, "main_cl_p": 169, "main_cl_m": 168, "main_cl_f": 1, "per_main_cl_p": 71.91489362, "per_main_cl_m": 99.40828402, "per_main_cl_f": 0.59171598, "main_al_p": 49, "main_al_m": 48, "main_al_f": 1, "per_main_al_p": 20.85106383, "per_main_al_m": 97.95918367, "per_main_al_f": 2.04081633, "main_hh_p": 3, "main_hh_m": 3, "main_hh_f": 0, "per_main_hh_p": 1.27659574, "per_main_hh_m": 100.0, "per_main_hh_f": 0.0, "main_ot_p": 14, "main_ot_m": 10, "main_ot_f": 4, "per_main_ot_p": 5.95744681, "per_main_ot_m": 71.42857143, "per_main_ot_f": 28.57142857, "margwork_p": 54, "margwork_m": 50, "margwork_f": 4, "per_margwork_p": 5.07042254, "per_margwork_m": 92.59259259, "per_margwork_f": 7.40740741, "marg_cl_p": 2, "marg_cl_m": 2, "marg_cl_f": 0, "per_marg_cl_p": 3.7037037, "per_marg_cl_m": 100.0, "per_marg_cl_f": 0.0, "marg_al_p": 52, "marg_al_m": 48, "marg_al_f": 4, "per_marg_al_p": 96.2962963, "per_marg_al_m": 92.30769231, "per_marg_al_f": 7.69230769, "marg_hh_p": 0, "marg_hh_m": 0, "marg_hh_f": 0, "per_marg_hh_p": 0.0, "per_marg_hh_m": 0.0, "per_marg_hh_f": 0.0, "marg_ot_p": 0, "marg_ot_m": 0, "marg_ot_f": 0, "per_marg_ot_p": 0.0, "per_marg_ot_m": 0.0, "per_marg_ot_f": 0.0, "margwork_3_6_p": 51, "margwork_3_6_m": 47, "margwork_3_6_f": 4, "per_margwork_3_6_p": 94.44444444, "per_margwork_3_6_m": 92.15686275, "per_margwork_3_6_f": 7.84313725, "marg_cl_3_6_p": 2, "marg_cl_3_6_m": 2, "marg_cl_3_6_f": 0, "per_marg_cl_3_6_p": 3.7037037, "per_marg_cl_3_6_m": 100.0, "per_marg_cl_3_6_f": 0.0, "marg_al_3_6_p": 49, "marg_al_3_6_m": 45, "marg_al_3_6_f": 4, "per_marg_al_3_6_p": 90.74074074, "per_marg_al_3_6_m": 91.83673469, "per_marg_al_3_6_f": 8.16326531, "marg_hh_3_6_p": 0, "marg_hh_3_6_m": 0, "marg_hh_3_6_f": 0, "per_marg_hh_3_6_p": 0.0, "per_marg_hh_3_6_m": 0.0, "per_marg_hh_3_6_f": 0.0, "marg_ot_3_6_p": 0, "marg_ot_3_6_m": 0, "marg_ot_3_6_f": 0, "per_marg_ot_3_6_p": 0.0, "per_marg_ot_3_6_m": 0.0, "per_marg_ot_3_6_f": 0.0, "margwork_0_3_p": 3, "margwork_0_3_m": 3, "margwork_0_3_f": 0, "per_margwork_0_3_p": 5.55555556, "per_margwork_0_3_m": 100.0, "per_margwork_0_3_f": 0.0, "marg_cl_0_3_p": 0, "marg_cl_0_3_m": 0, "marg_cl_0_3_f": 0, "per_marg_cl_0_3_p": 0.0, "per_marg_cl_0_3_m": 0.0, "per_marg_cl_0_3_f": 0.0, "marg_al_0_3_p": 3, "marg_al_0_3_m": 3, "marg_al_0_3_f": 0, "per_marg_al_0_3_p": 5.55555556, "per_marg_al_0_3_m": 100.0, "per_marg_al_0_3_f": 0.0, "marg_hh_0_3_p": 0, "marg_hh_0_3_m": 0, "marg_hh_0_3_f": 0, "per_marg_hh_0_3_p": 0.0, "per_marg_hh_0_3_m": 0.0, "per_marg_hh_0_3_f": 0.0, "marg_ot_0_3_p": 0, "marg_ot_0_3_m": 0, "marg_ot_0_3_f": 0, "per_marg_ot_0_3_p": 0.0, "per_marg_ot_0_3_m": 0.0, "per_marg_ot_0_3_f": 0.0, "non_work_p": 776, "non_work_m": 299, "non_work_f": 477, "per_non_work_p": 72.86384977, "per_non_work_m": 38.53092784, "per_non_work_f": 61.46907216, "per_hc_tot_tot": 100, "per_hc_tot_god": 60.9, "per_hc_tot_liv": 31.6, "per_hc_tot_dil": 7.4, "per_hc_res_tot": 87.9, "per_hc_res_god": 55.8, "per_hc_res_liv": 25.1, "per_hc_res_dil": 7.0, "per_hc_oth_tot": 12.1, "per_hc_oth_god": 5.1, "per_hc_oth_liv": 6.5, "per_hc_oth_dil": 0.5, "per_mt_grsbam": 19.1, "per_mt_plastic": 0.0, "per_mt_h_tiles": 5.1, "per_mt_m_tiles": 0.0, "per_mt_b_brick": 74.9, "per_mt_stone": 0.0, "per_mt_asbstos": 0.9, "per_mt_concrte": 0.0, "per_mt_oth": 0.0, "per_mw_grsbam": 6.0, "per_mw_plastic": 0.0, "per_mw_mud": 6.0, "per_mw_wood": 0.0, "per_mw_no_mrtr": 0.5, "per_mw_st_mrtr": 0.0, "per_mw_asbstos": 0.0, "per_mw_b_brick": 87.0, "per_mw_concrte": 0.0, "per_mw_oth": 0.5, "per_mf_mud": 93.5, "per_mf_wood": 0.5, "per_mf_b_brick": 0.9, "per_mf_stone": 0.0, "per_mf_cement": 5.1, "per_mf_fl_tile": 0.0, "per_mf_oth": 0.0, "per_dw_n_exrm": 7.4, "per_dw_1_room": 54.0, "per_dw_2_room": 28.8, "per_dw_3_room": 5.6, "per_dw_4_room": 2.3, "per_dw_5_room": 0.9, "per_dw_6_room": 0.9, "per_hhsize_1": 5.6, "per_hhsize_2": 5.6, "per_hhsize_3": 13.0, "per_hhsize_4": 20.5, "per_hhsize_5": 18.6, "per_hhsize_6_8": 32.1, "per_hhsize_9p": 4.7, "per_ow_owned": 100.0, "per_ow_rented": 0.0, "per_ow_oth": 0.0, "per_mc_none": 12.1, "per_mcouple_1": 67.4, "per_mcouple_2": 15.3, "per_mcouple_3": 3.7, "per_mcouple_4": 0.5, "per_mcouple_5p": 0.9, "per_dw_t_ts": 26.0, "per_dw_t_unts": 0.0, "per_dw_c_well": 0.0, "per_dw_unc_wel": 0.0, "per_dw_hpump": 74.0, "per_dw_tw_bore": 0.0, "per_dw_spring": 0.0, "per_dw_rivcan": 0.0, "per_dw_tank": 0.0, "per_dw_oth": 0.0, "per_loc_dw_wp": 81.9, "per_loc_dw_np": 8.8, "per_loc_dw_aw": 9.3, "per_light_elec": 5.6, "per_light_kero": 90.2, "per_light_solr": 3.7, "per_light_oil": 0.0, "per_light_oth": 0.5, "per_light_no": 0.0, "per_hh_latrine": 34.4, "per_fl_sewer": 6.0, "per_fl_septict": 21.9, "per_fl_othsys": 0.0, "per_pl_wslab": 6.5, "per_pl_without": 0.0, "per_ns_open": 0.0, "per_sl_ns_hum": 0.0, "per_sl_ns_anml": 0.0, "per_hh_no_lat": 65.6, "per_as_pub": 0.0, "per_as_open": 65.6, "per_hh_bathrm": 14.0, "per_hh_en_wrf": 53.5, "per_hh_no_btrm": 32.6, "per_wwoc_drain": 0.5, "per_wwoc_open": 98.6, "per_wwoc_nodrn": 0.9, "per_cook_fire": 88.4, "per_cook_resdu": 6.0, "per_cook_cwdng": 0.0, "per_cook_coal": 0.0, "per_cook_kero": 0.0, "per_cook_lpng": 5.6, "per_cook_elec": 0.0, "per_cook_biogs": 0.0, "per_cook_oth": 0.0, "per_cook_no": 0.0, "per_kf_inside": 98.6, "per_kf_in_has": 12.1, "per_kf_in_does": 86.5, "per_kf_outside": 1.4, "per_kf_out_has": 0.0, "per_kf_out_dos": 1.4, "per_kf_no_cook": 0.0, "per_hh_banking": 99.5, "per_hh_radio": 24.7, "per_hh_tv": 23.7, "per_hh_cmp_int": 0.0, "per_hh_cmp_wnt": 11.6, "per_hh_ph_ll": 1.9, "per_hh_ph_mob": 75.3, "per_hh_ph_bth": 0.0, "per_hh_bcycl": 73.5, "per_hh_2wheel": 19.5, "per_hh_4wheel": 1.4, "per_hh_tvcomp": 0.0, "per_hh_no_ast": 9.8, "per_hs_perma": 80.0, "per_hs_sperma": 8.4, "per_hs_temp": 11.2, "per_hs_servc": 5.1, "per_hs_nservc": 6.0, "per_hs_unclss": 0.5, "avghhsz_cy": 4.81900452, "st_areashape": 2381307.023963025, "st_lengthshape": 6677.67075838215}, "geometry": {"type": "Polygon", "coordinates": [[[79.7966038256146, 28.387663550702953], [79.7967456678013, 28.38737683728081], [79.79679526288983, 28.38670291744792], [79.79656358378477, 28.385542747017077], [79.79569794382081, 28.383344705063408], [79.79538287770123, 28.382729417158963], [79.79488732836293, 28.38204710129543], [79.79460796578432, 28.381464484052387], [79.79447206146159, 28.38098046375361], [79.79441267743144, 28.38030485697132], [79.79472857988256, 28.379717936169214], [79.79479001027494, 28.379603832061562], [79.79516670800956, 28.378934920333037], [79.79560914355834, 28.378620451121623], [79.79670888987525, 28.3781554379687], [79.79718575335733, 28.377937868550276], [79.79748342988962, 28.377589027990545], [79.797455309028, 28.3771709268039], [79.79735323525888, 28.37681593855959], [79.7973927207072, 28.376655906555634], [79.79769041071425, 28.37630706494117], [79.79860779184197, 28.37587137350214], [79.80077277659245, 28.37484437748203], [79.80147837450204, 28.3740841064327], [79.80163175824353, 28.37374089347559], [79.80460965364745, 28.377169365819324], [79.80521929082346, 28.377596382372126], [79.80576253531343, 28.377701114875613], [79.80699940856015, 28.37765580702133], [79.80867873262702, 28.377295972264186], [79.81153596362701, 28.376207596566953], [79.81156130060961, 28.376431166128462], [79.81195037173896, 28.376983315261715], [79.81248671267595, 28.3774413095363], [79.81287959086545, 28.377800734390146], [79.81315400013361, 28.378640278119132], [79.81335134473017, 28.379703528824262], [79.81343653107025, 28.38092573086832], [79.81343983597218, 28.381165468789884], [79.81345153652876, 28.382018313317438], [79.813331197315, 28.382594789013055], [79.81295771734572, 28.383103129814536], [79.81236929119021, 28.383447546174473], [79.8115666150428, 28.383595907490015], [79.81043428144066, 28.3838677335671], [79.8092254940213, 28.384331157632595], [79.80849295563634, 28.384609090181314], [79.80793647267403, 28.385178894992574], [79.80726463435114, 28.3860681869655], [79.80703273785382, 28.38677145548049], [79.80698883718587, 28.38734750386492], [79.80613184170988, 28.38734958787569], [79.80530065123874, 28.387336846721634], [79.80470115424566, 28.387286832026486], [79.80217263477444, 28.386676440784054], [79.80120292049321, 28.386661554671644], [79.80055405658369, 28.38677407532623], [79.79882865972256, 28.38760497490555], [79.79836448314727, 28.387720325389566], [79.79776256339788, 28.38779273440879], [79.7966038256146, 28.387663550702953]]]}}]}