{"type": "FeatureCollection", "features": [{"type": "Feature", "properties": {"premiumdata.sde.IN_Village_PCA.area": 1.51723361, "objectid": 379599, "id": "9173791460003", "name": "Qabulpur", "subdistrict": "Bisalpur", "district": "Pilibhit", "state": "Uttar Pradesh", "country": "India", "censusname": "Qabulpur", "villagename_locallang": null, "lgd_villagename": "Qabulpur", "lgd_villagecode": 131741, "lgd_subdistrictcode": 791, "lgd_districtcode": 173, "lgd_statecode": 9, "censuscode2001": "02455100", "censuscode2011": "131741", "censuscode2021": null, "level": "Village", "tru": "Rural", "no_hh": 282, "tot_p": 1560, "tot_m": 885, "tot_f": 675, "per_tot_m": 56.73076923, "per_tot_f": 43.26923077, "p_06": 272, "m_06": 164, "f_06": 108, "per_p_06": 17.43589744, "per_m_06": 60.29411765, "per_f_06": 39.70588235, "p_sc": 393, "m_sc": 229, "f_sc": 164, "per_p_sc": 25.19230769, "per_m_sc": 58.2697201, "per_f_sc": 41.7302799, "p_st": 0, "m_st": 0, "f_st": 0, "per_p_st": 0.0, "per_m_st": 0.0, "per_f_st": 0.0, "p_lit": 775, "m_lit": 533, "f_lit": 242, "per_p_lit": 49.67948718, "per_m_lit": 68.77419355, "per_f_lit": 31.22580645, "p_ill": 785, "m_ill": 352, "f_ill": 433, "per_p_ill": 50.32051282, "per_m_ill": 44.84076433, "per_f_ill": 55.15923567, "tot_work_p": 504, "tot_work_m": 385, "tot_work_f": 119, "per_tot_work_p": 32.30769231, "per_tot_work_m": 76.38888889, "per_tot_work_f": 23.61111111, "mainwork_p": 397, "mainwork_m": 295, "mainwork_f": 102, "per_mainwork_p": 25.44871795, "per_mainwork_m": 74.30730479, "per_mainwork_f": 25.69269521, "main_cl_p": 205, "main_cl_m": 197, "main_cl_f": 8, "per_main_cl_p": 51.6372796, "per_main_cl_m": 96.09756098, "per_main_cl_f": 3.90243902, "main_al_p": 181, "main_al_m": 89, "main_al_f": 92, "per_main_al_p": 45.59193955, "per_main_al_m": 49.17127072, "per_main_al_f": 50.82872928, "main_hh_p": 0, "main_hh_m": 0, "main_hh_f": 0, "per_main_hh_p": 0.0, "per_main_hh_m": 0.0, "per_main_hh_f": 0.0, "main_ot_p": 11, "main_ot_m": 9, "main_ot_f": 2, "per_main_ot_p": 2.77078086, "per_main_ot_m": 81.81818182, "per_main_ot_f": 18.18181818, "margwork_p": 107, "margwork_m": 90, "margwork_f": 17, "per_margwork_p": 6.85897436, "per_margwork_m": 84.11214953, "per_margwork_f": 15.88785047, "marg_cl_p": 15, "marg_cl_m": 14, "marg_cl_f": 1, "per_marg_cl_p": 14.01869159, "per_marg_cl_m": 93.33333332999999, "per_marg_cl_f": 6.66666667, "marg_al_p": 77, "marg_al_m": 67, "marg_al_f": 10, "per_marg_al_p": 71.96261682, "per_marg_al_m": 87.01298701, "per_marg_al_f": 12.98701299, "marg_hh_p": 0, "marg_hh_m": 0, "marg_hh_f": 0, "per_marg_hh_p": 0.0, "per_marg_hh_m": 0.0, "per_marg_hh_f": 0.0, "marg_ot_p": 15, "marg_ot_m": 9, "marg_ot_f": 6, "per_marg_ot_p": 14.01869159, "per_marg_ot_m": 60.0, "per_marg_ot_f": 40.0, "margwork_3_6_p": 99, "margwork_3_6_m": 83, "margwork_3_6_f": 16, "per_margwork_3_6_p": 92.52336449, "per_margwork_3_6_m": 83.83838384, "per_margwork_3_6_f": 16.16161616, "marg_cl_3_6_p": 14, "marg_cl_3_6_m": 13, "marg_cl_3_6_f": 1, "per_marg_cl_3_6_p": 13.08411215, "per_marg_cl_3_6_m": 92.85714286, "per_marg_cl_3_6_f": 7.14285714, "marg_al_3_6_p": 73, "marg_al_3_6_m": 63, "marg_al_3_6_f": 10, "per_marg_al_3_6_p": 68.22429907, "per_marg_al_3_6_m": 86.30136986, "per_marg_al_3_6_f": 13.69863014, "marg_hh_3_6_p": 0, "marg_hh_3_6_m": 0, "marg_hh_3_6_f": 0, "per_marg_hh_3_6_p": 0.0, "per_marg_hh_3_6_m": 0.0, "per_marg_hh_3_6_f": 0.0, "marg_ot_3_6_p": 12, "marg_ot_3_6_m": 7, "marg_ot_3_6_f": 5, "per_marg_ot_3_6_p": 11.21495327, "per_marg_ot_3_6_m": 58.33333333, "per_marg_ot_3_6_f": 41.66666667000001, "margwork_0_3_p": 8, "margwork_0_3_m": 7, "margwork_0_3_f": 1, "per_margwork_0_3_p": 7.47663551, "per_margwork_0_3_m": 87.5, "per_margwork_0_3_f": 12.5, "marg_cl_0_3_p": 1, "marg_cl_0_3_m": 1, "marg_cl_0_3_f": 0, "per_marg_cl_0_3_p": 0.93457944, "per_marg_cl_0_3_m": 100.0, "per_marg_cl_0_3_f": 0.0, "marg_al_0_3_p": 4, "marg_al_0_3_m": 4, "marg_al_0_3_f": 0, "per_marg_al_0_3_p": 3.73831776, "per_marg_al_0_3_m": 100.0, "per_marg_al_0_3_f": 0.0, "marg_hh_0_3_p": 0, "marg_hh_0_3_m": 0, "marg_hh_0_3_f": 0, "per_marg_hh_0_3_p": 0.0, "per_marg_hh_0_3_m": 0.0, "per_marg_hh_0_3_f": 0.0, "marg_ot_0_3_p": 3, "marg_ot_0_3_m": 2, "marg_ot_0_3_f": 1, "per_marg_ot_0_3_p": 2.80373832, "per_marg_ot_0_3_m": 66.66666667, "per_marg_ot_0_3_f": 33.33333333, "non_work_p": 1056, "non_work_m": 500, "non_work_f": 556, "per_non_work_p": 67.69230769, "per_non_work_m": 47.34848485, "per_non_work_f": 52.65151515, "per_hc_tot_tot": 100, "per_hc_tot_god": 2.5, "per_hc_tot_liv": 82.9, "per_hc_tot_dil": 14.6, "per_hc_res_tot": 91.4, "per_hc_res_god": 2.5, "per_hc_res_liv": 75.4, "per_hc_res_dil": 13.6, "per_hc_oth_tot": 8.6, "per_hc_oth_god": 0.0, "per_hc_oth_liv": 7.5, "per_hc_oth_dil": 1.1, "per_mt_grsbam": 35.0, "per_mt_plastic": 1.1, "per_mt_h_tiles": 12.1, "per_mt_m_tiles": 0.0, "per_mt_b_brick": 42.9, "per_mt_stone": 0.0, "per_mt_asbstos": 1.8, "per_mt_concrte": 0.0, "per_mt_oth": 7.1, "per_mw_grsbam": 8.9, "per_mw_plastic": 0.4, "per_mw_mud": 18.6, "per_mw_wood": 0.0, "per_mw_no_mrtr": 0.0, "per_mw_st_mrtr": 0.0, "per_mw_asbstos": 0.0, "per_mw_b_brick": 68.6, "per_mw_concrte": 0.7, "per_mw_oth": 2.9, "per_mf_mud": 97.9, "per_mf_wood": 0.0, "per_mf_b_brick": 0.0, "per_mf_stone": 0.0, "per_mf_cement": 2.1, "per_mf_fl_tile": 0.0, "per_mf_oth": 0.0, "per_dw_n_exrm": 21.8, "per_dw_1_room": 43.6, "per_dw_2_room": 24.3, "per_dw_3_room": 6.4, "per_dw_4_room": 2.5, "per_dw_5_room": 0.0, "per_dw_6_room": 1.4, "per_hhsize_1": 3.9, "per_hhsize_2": 8.6, "per_hhsize_3": 9.6, "per_hhsize_4": 15.0, "per_hhsize_5": 14.3, "per_hhsize_6_8": 35.4, "per_hhsize_9p": 13.2, "per_ow_owned": 100.0, "per_ow_rented": 0.0, "per_ow_oth": 0.0, "per_mc_none": 13.6, "per_mcouple_1": 70.0, "per_mcouple_2": 13.6, "per_mcouple_3": 2.1, "per_mcouple_4": 0.7, "per_mcouple_5p": 0.0, "per_dw_t_ts": 48.2, "per_dw_t_unts": 14.6, "per_dw_c_well": 1.1, "per_dw_unc_wel": 0.0, "per_dw_hpump": 35.7, "per_dw_tw_bore": 0.0, "per_dw_spring": 0.0, "per_dw_rivcan": 0.0, "per_dw_tank": 0.0, "per_dw_oth": 0.4, "per_loc_dw_wp": 70.0, "per_loc_dw_np": 24.6, "per_loc_dw_aw": 5.4, "per_light_elec": 0.7, "per_light_kero": 98.9, "per_light_solr": 0.4, "per_light_oil": 0.0, "per_light_oth": 0.0, "per_light_no": 0.0, "per_hh_latrine": 29.6, "per_fl_sewer": 1.1, "per_fl_septict": 8.6, "per_fl_othsys": 3.9, "per_pl_wslab": 16.1, "per_pl_without": 0.0, "per_ns_open": 0.0, "per_sl_ns_hum": 0.0, "per_sl_ns_anml": 0.0, "per_hh_no_lat": 70.4, "per_as_pub": 0.0, "per_as_open": 70.4, "per_hh_bathrm": 5.7, "per_hh_en_wrf": 8.6, "per_hh_no_btrm": 85.7, "per_wwoc_drain": 0.7, "per_wwoc_open": 67.5, "per_wwoc_nodrn": 31.8, "per_cook_fire": 0.0, "per_cook_resdu": 0.0, "per_cook_cwdng": 96.8, "per_cook_coal": 0.0, "per_cook_kero": 0.0, "per_cook_lpng": 2.5, "per_cook_elec": 0.7, "per_cook_biogs": 0.0, "per_cook_oth": 0.0, "per_cook_no": 0.0, "per_kf_inside": 91.4, "per_kf_in_has": 3.6, "per_kf_in_does": 87.9, "per_kf_outside": 8.6, "per_kf_out_has": 7.9, "per_kf_out_dos": 0.7, "per_kf_no_cook": 0.0, "per_hh_banking": 77.1, "per_hh_radio": 12.9, "per_hh_tv": 13.6, "per_hh_cmp_int": 0.0, "per_hh_cmp_wnt": 5.7, "per_hh_ph_ll": 0.4, "per_hh_ph_mob": 49.6, "per_hh_ph_bth": 0.7, "per_hh_bcycl": 57.1, "per_hh_2wheel": 5.4, "per_hh_4wheel": 0.4, "per_hh_tvcomp": 0.0, "per_hh_no_ast": 26.4, "per_hs_perma": 53.2, "per_hs_sperma": 12.9, "per_hs_temp": 24.3, "per_hs_servc": 15.4, "per_hs_nservc": 8.9, "per_hs_unclss": 9.6, "avghhsz_cy": 5.53191489, "st_areashape": 1968642.581742885, "st_lengthshape": 7015.551252958605}, "geometry": {"type": "Polygon", "coordinates": [[[79.77770252643502, 28.408364213877565], [79.77324720512098, 28.413497301069626], [79.77090962166506, 28.41577689751812], [79.77068449487169, 28.41590287634938], [79.77039672765527, 28.419212686727835], [79.76656504555754, 28.419970725338164], [79.76674166422387, 28.420230525187495], [79.7665508503794, 28.420677316960155], [79.76577834774412, 28.421114987366998], [79.76493699373384, 28.421358796321087], [79.76401839628723, 28.421826287884937], [79.76353540000673, 28.422332746665933], [79.76266090534902, 28.42241538668154], [79.76131893640058, 28.422233628808357], [79.75907839165657, 28.421523680417543], [79.75385474307666, 28.421473425094998], [79.75426362475295, 28.420852686821632], [79.75475618539629, 28.42056761564589], [79.75498283124078, 28.41968561939551], [79.75521047331695, 28.4182940991737], [79.75630986569763, 28.416779635088616], [79.75738092611256, 28.415364536033387], [79.77236161537117, 28.409984125487185], [79.77627912790103, 28.408631301983867], [79.77719361106361, 28.408356333027143], [79.77770252643502, 28.408364213877565]]]}}]}