{"type": "FeatureCollection", "features": [{"type": "Feature", "properties": {"premiumdata.sde.IN_Village_PCA.area": 4.08969707, "objectid": 593542, "id": "102171299298978", "name": "Kishunpur Tabhka", "subdistrict": "Bibhutpur", "district": "Samastipur", "state": "Bihar", "country": "India", "censusname": "KIshunpur Tabhka", "villagename_locallang": null, "lgd_villagename": "Kishunpur Tabhka", "lgd_villagecode": 237146, "lgd_subdistrictcode": 1299, "lgd_districtcode": 217, "lgd_statecode": 10, "censuscode2001": "02120300", "censuscode2011": "237146", "censuscode2021": null, "level": "Village", "tru": "Rural", "no_hh": 538, "tot_p": 3135, "tot_m": 1662, "tot_f": 1473, "per_tot_m": 53.01435407, "per_tot_f": 46.98564593, "p_06": 491, "m_06": 255, "f_06": 236, "per_p_06": 15.66188198, "per_m_06": 51.93482688, "per_f_06": 48.06517312, "p_sc": 97, "m_sc": 58, "f_sc": 39, "per_p_sc": 3.09409888, "per_m_sc": 59.79381443, "per_f_sc": 40.20618557, "p_st": 0, "m_st": 0, "f_st": 0, "per_p_st": 0.0, "per_m_st": 0.0, "per_f_st": 0.0, "p_lit": 1870, "m_lit": 1093, "f_lit": 777, "per_p_lit": 59.64912281, "per_m_lit": 58.44919786, "per_f_lit": 41.55080214, "p_ill": 1265, "m_ill": 569, "f_ill": 696, "per_p_ill": 40.35087719, "per_m_ill": 44.98023715, "per_f_ill": 55.01976285, "tot_work_p": 1011, "tot_work_m": 789, "tot_work_f": 222, "per_tot_work_p": 32.24880383, "per_tot_work_m": 78.04154303, "per_tot_work_f": 21.95845697, "mainwork_p": 805, "mainwork_m": 744, "mainwork_f": 61, "per_mainwork_p": 25.67783094, "per_mainwork_m": 92.42236025000001, "per_mainwork_f": 7.57763975, "main_cl_p": 317, "main_cl_m": 314, "main_cl_f": 3, "per_main_cl_p": 39.37888199, "per_main_cl_m": 99.05362776, "per_main_cl_f": 0.94637224, "main_al_p": 354, "main_al_m": 312, "main_al_f": 42, "per_main_al_p": 43.97515528, "per_main_al_m": 88.13559322, "per_main_al_f": 11.86440678, "main_hh_p": 3, "main_hh_m": 2, "main_hh_f": 1, "per_main_hh_p": 0.37267081, "per_main_hh_m": 66.66666667, "per_main_hh_f": 33.33333333, "main_ot_p": 131, "main_ot_m": 116, "main_ot_f": 15, "per_main_ot_p": 16.27329193, "per_main_ot_m": 88.54961832, "per_main_ot_f": 11.45038168, "margwork_p": 206, "margwork_m": 45, "margwork_f": 161, "per_margwork_p": 6.57097289, "per_margwork_m": 21.84466019, "per_margwork_f": 78.15533981, "marg_cl_p": 6, "marg_cl_m": 2, "marg_cl_f": 4, "per_marg_cl_p": 2.91262136, "per_marg_cl_m": 33.33333333, "per_marg_cl_f": 66.66666667, "marg_al_p": 130, "marg_al_m": 14, "marg_al_f": 116, "per_marg_al_p": 63.10679612, "per_marg_al_m": 10.76923077, "per_marg_al_f": 89.23076923, "marg_hh_p": 17, "marg_hh_m": 3, "marg_hh_f": 14, "per_marg_hh_p": 8.25242718, "per_marg_hh_m": 17.64705882, "per_marg_hh_f": 82.35294118, "marg_ot_p": 53, "marg_ot_m": 26, "marg_ot_f": 27, "per_marg_ot_p": 25.72815534, "per_marg_ot_m": 49.05660377, "per_marg_ot_f": 50.94339623, "margwork_3_6_p": 201, "margwork_3_6_m": 42, "margwork_3_6_f": 159, "per_margwork_3_6_p": 97.57281553, "per_margwork_3_6_m": 20.89552239, "per_margwork_3_6_f": 79.10447761, "marg_cl_3_6_p": 6, "marg_cl_3_6_m": 2, "marg_cl_3_6_f": 4, "per_marg_cl_3_6_p": 2.91262136, "per_marg_cl_3_6_m": 33.33333333, "per_marg_cl_3_6_f": 66.66666667, "marg_al_3_6_p": 129, "marg_al_3_6_m": 13, "marg_al_3_6_f": 116, "per_marg_al_3_6_p": 62.62135922, "per_marg_al_3_6_m": 10.07751938, "per_marg_al_3_6_f": 89.92248062, "marg_hh_3_6_p": 17, "marg_hh_3_6_m": 3, "marg_hh_3_6_f": 14, "per_marg_hh_3_6_p": 8.25242718, "per_marg_hh_3_6_m": 17.64705882, "per_marg_hh_3_6_f": 82.35294118, "marg_ot_3_6_p": 49, "marg_ot_3_6_m": 24, "marg_ot_3_6_f": 25, "per_marg_ot_3_6_p": 23.78640777, "per_marg_ot_3_6_m": 48.97959184, "per_marg_ot_3_6_f": 51.02040816, "margwork_0_3_p": 5, "margwork_0_3_m": 3, "margwork_0_3_f": 2, "per_margwork_0_3_p": 2.42718447, "per_margwork_0_3_m": 60.0, "per_margwork_0_3_f": 40.0, "marg_cl_0_3_p": 0, "marg_cl_0_3_m": 0, "marg_cl_0_3_f": 0, "per_marg_cl_0_3_p": 0.0, "per_marg_cl_0_3_m": 0.0, "per_marg_cl_0_3_f": 0.0, "marg_al_0_3_p": 1, "marg_al_0_3_m": 1, "marg_al_0_3_f": 0, "per_marg_al_0_3_p": 0.48543689, "per_marg_al_0_3_m": 100.0, "per_marg_al_0_3_f": 0.0, "marg_hh_0_3_p": 0, "marg_hh_0_3_m": 0, "marg_hh_0_3_f": 0, "per_marg_hh_0_3_p": 0.0, "per_marg_hh_0_3_m": 0.0, "per_marg_hh_0_3_f": 0.0, "marg_ot_0_3_p": 4, "marg_ot_0_3_m": 2, "marg_ot_0_3_f": 2, "per_marg_ot_0_3_p": 1.94174757, "per_marg_ot_0_3_m": 50.0, "per_marg_ot_0_3_f": 50.0, "non_work_p": 2124, "non_work_m": 873, "non_work_f": 1251, "per_non_work_p": 67.75119617, "per_non_work_m": 41.10169492, "per_non_work_f": 58.89830508, "per_hc_tot_tot": 100, "per_hc_tot_god": 45.1, "per_hc_tot_liv": 43.8, "per_hc_tot_dil": 11.0, "per_hc_res_tot": 98.3, "per_hc_res_god": 44.9, "per_hc_res_liv": 42.7, "per_hc_res_dil": 10.7, "per_hc_oth_tot": 1.7, "per_hc_oth_god": 0.2, "per_hc_oth_liv": 1.1, "per_hc_oth_dil": 0.4, "per_mt_grsbam": 21.4, "per_mt_plastic": 0.0, "per_mt_h_tiles": 29.7, "per_mt_m_tiles": 0.2, "per_mt_b_brick": 0.4, "per_mt_stone": 0.2, "per_mt_asbstos": 3.1, "per_mt_concrte": 45.1, "per_mt_oth": 0.0, "per_mw_grsbam": 24.1, "per_mw_plastic": 0.2, "per_mw_mud": 3.9, "per_mw_wood": 0.2, "per_mw_no_mrtr": 0.0, "per_mw_st_mrtr": 0.0, "per_mw_asbstos": 0.0, "per_mw_b_brick": 71.5, "per_mw_concrte": 0.2, "per_mw_oth": 0.0, "per_mf_mud": 88.2, "per_mf_wood": 0.0, "per_mf_b_brick": 6.6, "per_mf_stone": 0.0, "per_mf_cement": 5.2, "per_mf_fl_tile": 0.0, "per_mf_oth": 0.0, "per_dw_n_exrm": 1.1, "per_dw_1_room": 41.1, "per_dw_2_room": 43.6, "per_dw_3_room": 7.4, "per_dw_4_room": 4.8, "per_dw_5_room": 1.3, "per_dw_6_room": 0.7, "per_hhsize_1": 0.6, "per_hhsize_2": 6.6, "per_hhsize_3": 10.5, "per_hhsize_4": 15.3, "per_hhsize_5": 22.3, "per_hhsize_6_8": 35.2, "per_hhsize_9p": 9.6, "per_ow_owned": 99.6, "per_ow_rented": 0.2, "per_ow_oth": 0.2, "per_mc_none": 4.2, "per_mcouple_1": 72.4, "per_mcouple_2": 18.0, "per_mcouple_3": 4.2, "per_mcouple_4": 0.9, "per_mcouple_5p": 0.2, "per_dw_t_ts": 1.7, "per_dw_t_unts": 34.3, "per_dw_c_well": 0.0, "per_dw_unc_wel": 0.0, "per_dw_hpump": 64.1, "per_dw_tw_bore": 0.0, "per_dw_spring": 0.0, "per_dw_rivcan": 0.0, "per_dw_tank": 0.0, "per_dw_oth": 0.0, "per_loc_dw_wp": 21.5, "per_loc_dw_np": 76.6, "per_loc_dw_aw": 1.8, "per_light_elec": 0.2, "per_light_kero": 99.4, "per_light_solr": 0.0, "per_light_oil": 0.0, "per_light_oth": 0.2, "per_light_no": 0.2, "per_hh_latrine": 11.2, "per_fl_sewer": 0.2, "per_fl_septict": 9.2, "per_fl_othsys": 1.3, "per_pl_wslab": 0.6, "per_pl_without": 0.0, "per_ns_open": 0.0, "per_sl_ns_hum": 0.0, "per_sl_ns_anml": 0.0, "per_hh_no_lat": 88.8, "per_as_pub": 0.0, "per_as_open": 88.8, "per_hh_bathrm": 0.4, "per_hh_en_wrf": 14.2, "per_hh_no_btrm": 85.5, "per_wwoc_drain": 0.2, "per_wwoc_open": 20.8, "per_wwoc_nodrn": 79.0, "per_cook_fire": 16.0, "per_cook_resdu": 67.2, "per_cook_cwdng": 15.8, "per_cook_coal": 0.0, "per_cook_kero": 0.0, "per_cook_lpng": 0.4, "per_cook_elec": 0.2, "per_cook_biogs": 0.0, "per_cook_oth": 0.0, "per_cook_no": 0.4, "per_kf_inside": 93.9, "per_kf_in_has": 10.1, "per_kf_in_does": 83.8, "per_kf_outside": 5.7, "per_kf_out_has": 5.2, "per_kf_out_dos": 0.6, "per_kf_no_cook": 0.4, "per_hh_banking": 54.7, "per_hh_radio": 14.7, "per_hh_tv": 2.2, "per_hh_cmp_int": 0.4, "per_hh_cmp_wnt": 11.4, "per_hh_ph_ll": 0.2, "per_hh_ph_mob": 66.9, "per_hh_ph_bth": 0.9, "per_hh_bcycl": 71.3, "per_hh_2wheel": 4.6, "per_hh_4wheel": 0.4, "per_hh_tvcomp": 0.2, "per_hh_no_ast": 14.5, "per_hs_perma": 70.3, "per_hs_sperma": 9.6, "per_hs_temp": 20.1, "per_hs_servc": 0.0, "per_hs_nservc": 20.1, "per_hs_unclss": 0.0, "avghhsz_cy": 5.82713755, "st_areashape": 5056090.79510987, "st_lengthshape": 10759.60754302796}, "geometry": {"type": "Polygon", "coordinates": [[[85.92695289779373, 25.666983468276587], [85.92876143642935, 25.668857094735955], [85.9293524093087, 25.669436526952968], [85.92924186622311, 25.67015011287566], [85.92860115362647, 25.670459984911083], [85.92664008824212, 25.670672205846483], [85.92563258004027, 25.671286172809282], [85.92420837212421, 25.67220439005149], [85.92417571566868, 25.673486309889913], [85.92480197796564, 25.67503138675993], [85.92570379308611, 25.675966003851418], [85.92668782381801, 25.67647141683797], [85.92806610626347, 25.677101411673206], [85.92834737327051, 25.677528809668758], [85.92819913507894, 25.678608185002926], [85.92806922521413, 25.680287637700484], [85.92818910179555, 25.682114962011376], [85.92526680402287, 25.685588618349765], [85.9262204016296, 25.688760452300944], [85.92592798652989, 25.689770582303737], [85.92358878880138, 25.689537890179935], [85.92297407883899, 25.68918416561251], [85.92054669978727, 25.688901986795546], [85.91861279586384, 25.688680645798947], [85.91681901295503, 25.688589611888744], [85.91533391722902, 25.688465440626096], [85.91429385408127, 25.68773460066536], [85.91364179037274, 25.686925165280446], [85.91330327283431, 25.686064655816878], [85.91282103293527, 25.685331184657855], [85.91176860178271, 25.68506517076961], [85.91186957691222, 25.68441036301588], [85.9121262902676, 25.683100317356], [85.91262471241814, 25.68136956897964], [85.91278692570057, 25.680073523261395], [85.91359195812896, 25.678851288817878], [85.91371149065561, 25.6779481093108], [85.91308389795373, 25.676150226653565], [85.9117831419139, 25.67419743297429], [85.91044234257197, 25.672208664951388], [85.90925673887347, 25.671248189862197], [85.91068171215414, 25.67045644916076], [85.91171229538072, 25.669485913709767], [85.91128842441559, 25.668494999179146], [85.91130799960393, 25.667529028883667], [85.91150274537436, 25.6667158216064], [85.91230059577205, 25.666901723398936], [85.9138133470324, 25.666691821955354], [85.9153814641587, 25.666558269610313], [85.91571340962248, 25.66624989262978], [85.91573688619413, 25.665107949280383], [85.91575429913757, 25.663762871218783], [85.9160802447536, 25.661473236904676], [85.91747787601197, 25.661164433009038], [85.92013614005803, 25.66008265436607], [85.92192338502817, 25.66176237535941], [85.92386876403104, 25.664091264631793], [85.92695289779373, 25.666983468276587]]]}}]}