{"type": "FeatureCollection", "features": [{"type": "Feature", "properties": {"premiumdata.sde.IN_Village_PCA.area": 0.4903012, "objectid": 196730, "id": "21346289559034", "name": "Batitanki", "subdistrict": "Basta", "district": "Baleshwar", "state": "Odisha", "country": "India", "censusname": "Batitanki", "villagename_locallang": null, "lgd_villagename": "Batitanki", "lgd_villagecode": 392580, "lgd_subdistrictcode": 2895, "lgd_districtcode": 346, "lgd_statecode": 21, "censuscode2001": "01285200", "censuscode2011": "392580", "censuscode2021": null, "level": "Village", "tru": "Rural", "no_hh": 24, "tot_p": 117, "tot_m": 61, "tot_f": 56, "per_tot_m": 52.13675214, "per_tot_f": 47.86324786, "p_06": 20, "m_06": 11, "f_06": 9, "per_p_06": 17.09401709, "per_m_06": 55.0, "per_f_06": 45.0, "p_sc": 52, "m_sc": 26, "f_sc": 26, "per_p_sc": 44.44444444000001, "per_m_sc": 50.0, "per_f_sc": 50.0, "p_st": 0, "m_st": 0, "f_st": 0, "per_p_st": 0.0, "per_m_st": 0.0, "per_f_st": 0.0, "p_lit": 66, "m_lit": 37, "f_lit": 29, "per_p_lit": 56.41025641, "per_m_lit": 56.06060606, "per_f_lit": 43.93939394, "p_ill": 51, "m_ill": 24, "f_ill": 27, "per_p_ill": 43.58974359, "per_m_ill": 47.05882353, "per_f_ill": 52.94117647, "tot_work_p": 34, "tot_work_m": 33, "tot_work_f": 1, "per_tot_work_p": 29.05982906, "per_tot_work_m": 97.05882353000001, "per_tot_work_f": 2.94117647, "mainwork_p": 15, "mainwork_m": 14, "mainwork_f": 1, "per_mainwork_p": 12.82051282, "per_mainwork_m": 93.33333332999999, "per_mainwork_f": 6.66666667, "main_cl_p": 5, "main_cl_m": 5, "main_cl_f": 0, "per_main_cl_p": 33.33333333, "per_main_cl_m": 100.0, "per_main_cl_f": 0.0, "main_al_p": 2, "main_al_m": 2, "main_al_f": 0, "per_main_al_p": 13.33333333, "per_main_al_m": 100.0, "per_main_al_f": 0.0, "main_hh_p": 0, "main_hh_m": 0, "main_hh_f": 0, "per_main_hh_p": 0.0, "per_main_hh_m": 0.0, "per_main_hh_f": 0.0, "main_ot_p": 8, "main_ot_m": 7, "main_ot_f": 1, "per_main_ot_p": 53.33333333, "per_main_ot_m": 87.5, "per_main_ot_f": 12.5, "margwork_p": 19, "margwork_m": 19, "margwork_f": 0, "per_margwork_p": 16.23931624, "per_margwork_m": 100.0, "per_margwork_f": 0.0, "marg_cl_p": 0, "marg_cl_m": 0, "marg_cl_f": 0, "per_marg_cl_p": 0.0, "per_marg_cl_m": 0.0, "per_marg_cl_f": 0.0, "marg_al_p": 9, "marg_al_m": 9, "marg_al_f": 0, "per_marg_al_p": 47.36842105, "per_marg_al_m": 100.0, "per_marg_al_f": 0.0, "marg_hh_p": 0, "marg_hh_m": 0, "marg_hh_f": 0, "per_marg_hh_p": 0.0, "per_marg_hh_m": 0.0, "per_marg_hh_f": 0.0, "marg_ot_p": 10, "marg_ot_m": 10, "marg_ot_f": 0, "per_marg_ot_p": 52.63157895000001, "per_marg_ot_m": 100.0, "per_marg_ot_f": 0.0, "margwork_3_6_p": 19, "margwork_3_6_m": 19, "margwork_3_6_f": 0, "per_margwork_3_6_p": 100.0, "per_margwork_3_6_m": 100.0, "per_margwork_3_6_f": 0.0, "marg_cl_3_6_p": 0, "marg_cl_3_6_m": 0, "marg_cl_3_6_f": 0, "per_marg_cl_3_6_p": 0.0, "per_marg_cl_3_6_m": 0.0, "per_marg_cl_3_6_f": 0.0, "marg_al_3_6_p": 9, "marg_al_3_6_m": 9, "marg_al_3_6_f": 0, "per_marg_al_3_6_p": 47.36842105, "per_marg_al_3_6_m": 100.0, "per_marg_al_3_6_f": 0.0, "marg_hh_3_6_p": 0, "marg_hh_3_6_m": 0, "marg_hh_3_6_f": 0, "per_marg_hh_3_6_p": 0.0, "per_marg_hh_3_6_m": 0.0, "per_marg_hh_3_6_f": 0.0, "marg_ot_3_6_p": 10, "marg_ot_3_6_m": 10, "marg_ot_3_6_f": 0, "per_marg_ot_3_6_p": 52.63157895000001, "per_marg_ot_3_6_m": 100.0, "per_marg_ot_3_6_f": 0.0, "margwork_0_3_p": 0, "margwork_0_3_m": 0, "margwork_0_3_f": 0, "per_margwork_0_3_p": 0.0, "per_margwork_0_3_m": 0.0, "per_margwork_0_3_f": 0.0, "marg_cl_0_3_p": 0, "marg_cl_0_3_m": 0, "marg_cl_0_3_f": 0, "per_marg_cl_0_3_p": 0.0, "per_marg_cl_0_3_m": 0.0, "per_marg_cl_0_3_f": 0.0, "marg_al_0_3_p": 0, "marg_al_0_3_m": 0, "marg_al_0_3_f": 0, "per_marg_al_0_3_p": 0.0, "per_marg_al_0_3_m": 0.0, "per_marg_al_0_3_f": 0.0, "marg_hh_0_3_p": 0, "marg_hh_0_3_m": 0, "marg_hh_0_3_f": 0, "per_marg_hh_0_3_p": 0.0, "per_marg_hh_0_3_m": 0.0, "per_marg_hh_0_3_f": 0.0, "marg_ot_0_3_p": 0, "marg_ot_0_3_m": 0, "marg_ot_0_3_f": 0, "per_marg_ot_0_3_p": 0.0, "per_marg_ot_0_3_m": 0.0, "per_marg_ot_0_3_f": 0.0, "non_work_p": 83, "non_work_m": 28, "non_work_f": 55, "per_non_work_p": 70.94017094, "per_non_work_m": 33.73493976, "per_non_work_f": 66.26506024, "per_hc_tot_tot": 100, "per_hc_tot_god": 13.0, "per_hc_tot_liv": 87.0, "per_hc_tot_dil": 0.0, "per_hc_res_tot": 100.0, "per_hc_res_god": 13.0, "per_hc_res_liv": 87.0, "per_hc_res_dil": 0.0, "per_hc_oth_tot": 0.0, "per_hc_oth_god": 0.0, "per_hc_oth_liv": 0.0, "per_hc_oth_dil": 0.0, "per_mt_grsbam": 21.7, "per_mt_plastic": 0.0, "per_mt_h_tiles": 0.0, "per_mt_m_tiles": 13.0, "per_mt_b_brick": 0.0, "per_mt_stone": 4.3, "per_mt_asbstos": 34.8, "per_mt_concrte": 26.1, "per_mt_oth": 0.0, "per_mw_grsbam": 0.0, "per_mw_plastic": 0.0, "per_mw_mud": 60.9, "per_mw_wood": 0.0, "per_mw_no_mrtr": 0.0, "per_mw_st_mrtr": 0.0, "per_mw_asbstos": 0.0, "per_mw_b_brick": 39.1, "per_mw_concrte": 0.0, "per_mw_oth": 0.0, "per_mf_mud": 73.9, "per_mf_wood": 0.0, "per_mf_b_brick": 0.0, "per_mf_stone": 0.0, "per_mf_cement": 26.1, "per_mf_fl_tile": 0.0, "per_mf_oth": 0.0, "per_dw_n_exrm": 0.0, "per_dw_1_room": 60.9, "per_dw_2_room": 21.7, "per_dw_3_room": 8.7, "per_dw_4_room": 8.7, "per_dw_5_room": 0.0, "per_dw_6_room": 0.0, "per_hhsize_1": 4.3, "per_hhsize_2": 4.3, "per_hhsize_3": 17.4, "per_hhsize_4": 26.1, "per_hhsize_5": 8.7, "per_hhsize_6_8": 34.8, "per_hhsize_9p": 4.3, "per_ow_owned": 91.3, "per_ow_rented": 8.7, "per_ow_oth": 0.0, "per_mc_none": 4.3, "per_mcouple_1": 65.2, "per_mcouple_2": 21.7, "per_mcouple_3": 8.7, "per_mcouple_4": 0.0, "per_mcouple_5p": 0.0, "per_dw_t_ts": 0.0, "per_dw_t_unts": 0.0, "per_dw_c_well": 0.0, "per_dw_unc_wel": 0.0, "per_dw_hpump": 100.0, "per_dw_tw_bore": 0.0, "per_dw_spring": 0.0, "per_dw_rivcan": 0.0, "per_dw_tank": 0.0, "per_dw_oth": 0.0, "per_loc_dw_wp": 0.0, "per_loc_dw_np": 100.0, "per_loc_dw_aw": 0.0, "per_light_elec": 47.8, "per_light_kero": 52.2, "per_light_solr": 0.0, "per_light_oil": 0.0, "per_light_oth": 0.0, "per_light_no": 0.0, "per_hh_latrine": 8.7, "per_fl_sewer": 0.0, "per_fl_septict": 4.3, "per_fl_othsys": 0.0, "per_pl_wslab": 0.0, "per_pl_without": 4.3, "per_ns_open": 0.0, "per_sl_ns_hum": 0.0, "per_sl_ns_anml": 0.0, "per_hh_no_lat": 91.3, "per_as_pub": 0.0, "per_as_open": 91.3, "per_hh_bathrm": 0.0, "per_hh_en_wrf": 0.0, "per_hh_no_btrm": 100.0, "per_wwoc_drain": 0.0, "per_wwoc_open": 0.0, "per_wwoc_nodrn": 100.0, "per_cook_fire": 47.8, "per_cook_resdu": 0.0, "per_cook_cwdng": 52.2, "per_cook_coal": 0.0, "per_cook_kero": 0.0, "per_cook_lpng": 0.0, "per_cook_elec": 0.0, "per_cook_biogs": 0.0, "per_cook_oth": 0.0, "per_cook_no": 0.0, "per_kf_inside": 69.6, "per_kf_in_has": 60.9, "per_kf_in_does": 8.7, "per_kf_outside": 30.4, "per_kf_out_has": 8.7, "per_kf_out_dos": 21.7, "per_kf_no_cook": 0.0, "per_hh_banking": 91.3, "per_hh_radio": 8.7, "per_hh_tv": 34.8, "per_hh_cmp_int": 0.0, "per_hh_cmp_wnt": 0.0, "per_hh_ph_ll": 0.0, "per_hh_ph_mob": 73.9, "per_hh_ph_bth": 0.0, "per_hh_bcycl": 82.6, "per_hh_2wheel": 17.4, "per_hh_4wheel": 0.0, "per_hh_tvcomp": 0.0, "per_hh_no_ast": 8.7, "per_hs_perma": 39.1, "per_hs_sperma": 39.1, "per_hs_temp": 21.7, "per_hs_servc": 21.7, "per_hs_nservc": 0.0, "per_hs_unclss": 0.0, "avghhsz_cy": 4.875, "st_areashape": 569701.77690355, "st_lengthshape": 4173.72371126753}, "geometry": {"type": "Polygon", "coordinates": [[[87.05758164755805, 21.57133072483153], [87.0578639278647, 21.570955091904143], [87.05823770517632, 21.570325649249394], [87.05861151662394, 21.569812669604747], [87.05922940662244, 21.569242449215857], [87.05984728673951, 21.568672133017344], [87.06033559385995, 21.56833078281577], [87.06058730090425, 21.568046605235782], [87.06096106204619, 21.56741724685875], [87.06114422493937, 21.566843179109927], [87.0616476480111, 21.565984936655546], [87.0620748373529, 21.565529152826223], [87.06275376787494, 21.564960843769352], [87.06295212127957, 21.56474910023286], [87.0633106703505, 21.56484827978659], [87.06428712738624, 21.564798764371965], [87.06551531841572, 21.564634779162997], [87.06662137809246, 21.564527934328872], [87.06765891338098, 21.56453366876833], [87.06852086396411, 21.56465581962682], [87.06864296297752, 21.56482745907019], [87.0688183500536, 21.56528896113574], [87.06881075300124, 21.565862995774324], [87.06881078893386, 21.566265470803167], [87.06881073593324, 21.56672314371817], [87.06874205433988, 21.567240061613052], [87.06868101201968, 21.567642457630797], [87.06830720865692, 21.56804102298113], [87.06812420656217, 21.568098268232095], [87.06763592998445, 21.568151697279692], [87.06726219399533, 21.568149712331], [87.06683497141589, 21.568145907010457], [87.0662246533169, 21.56791131277612], [87.06579746577175, 21.567680556911633], [87.06512625986281, 21.567388740642777], [87.06469904896149, 21.567096893711184], [87.06433284085443, 21.56686612903142], [87.06396666239179, 21.566747867264255], [87.06347847025569, 21.56674405772982], [87.06298260021886, 21.566742174683593], [87.06267749012754, 21.566969064869173], [87.06249438472656, 21.5673696287264], [87.06254781562133, 21.567886434876165], [87.06290629192871, 21.56863595795403], [87.06327245691664, 21.569040324172796], [87.06369965075, 21.569618186830983], [87.06406582022946, 21.570022551144838], [87.06450830967718, 21.570610013668016], [87.06442439265662, 21.57071300616048], [87.0638064370811, 21.571342315975457], [87.06331824225003, 21.571739049154125], [87.06238757593758, 21.572250159890398], [87.06159417759046, 21.572589612878375], [87.06012189812859, 21.572751652654674], [87.05932091710213, 21.572745916034144], [87.05852763912922, 21.57239695164335], [87.05791734618307, 21.571876220184908], [87.05758164755805, 21.57133072483153]]]}}]}