{"type": "FeatureCollection", "features": [{"type": "Feature", "properties": {"premiumdata.sde.IN_Village_PCA.area": 0.01927538, "objectid": 437641, "id": "217143596229", "name": "Lambera", "subdistrict": "Hamirpur", "district": "Hamirpur", "state": "Himachal Pradesh", "country": "India", "censusname": "Lambera (52/27)", "villagename_locallang": null, "lgd_villagename": "Lambera", "lgd_villagecode": 17068, "lgd_subdistrictcode": 143, "lgd_districtcode": 17, "lgd_statecode": 2, "censuscode2001": "01020600", "censuscode2011": "017068", "censuscode2021": null, "level": "Village", "tru": "Rural", "no_hh": 66, "tot_p": 299, "tot_m": 148, "tot_f": 151, "per_tot_m": 49.49832776, "per_tot_f": 50.50167224, "p_06": 39, "m_06": 19, "f_06": 20, "per_p_06": 13.04347826, "per_m_06": 48.71794872, "per_f_06": 51.28205128, "p_sc": 296, "m_sc": 146, "f_sc": 150, "per_p_sc": 98.99665552, "per_m_sc": 49.32432432, "per_f_sc": 50.67567568, "p_st": 0, "m_st": 0, "f_st": 0, "per_p_st": 0.0, "per_m_st": 0.0, "per_f_st": 0.0, "p_lit": 231, "m_lit": 117, "f_lit": 114, "per_p_lit": 77.25752508, "per_m_lit": 50.64935065, "per_f_lit": 49.35064935, "p_ill": 68, "m_ill": 31, "f_ill": 37, "per_p_ill": 22.74247492, "per_m_ill": 45.58823529, "per_f_ill": 54.41176471, "tot_work_p": 205, "tot_work_m": 101, "tot_work_f": 104, "per_tot_work_p": 68.56187291, "per_tot_work_m": 49.26829268, "per_tot_work_f": 50.73170732000001, "mainwork_p": 80, "mainwork_m": 52, "mainwork_f": 28, "per_mainwork_p": 26.75585284, "per_mainwork_m": 65.0, "per_mainwork_f": 35.0, "main_cl_p": 29, "main_cl_m": 1, "main_cl_f": 28, "per_main_cl_p": 36.25, "per_main_cl_m": 3.44827586, "per_main_cl_f": 96.55172414, "main_al_p": 0, "main_al_m": 0, "main_al_f": 0, "per_main_al_p": 0.0, "per_main_al_m": 0.0, "per_main_al_f": 0.0, "main_hh_p": 0, "main_hh_m": 0, "main_hh_f": 0, "per_main_hh_p": 0.0, "per_main_hh_m": 0.0, "per_main_hh_f": 0.0, "main_ot_p": 51, "main_ot_m": 51, "main_ot_f": 0, "per_main_ot_p": 63.75, "per_main_ot_m": 100.0, "per_main_ot_f": 0.0, "margwork_p": 125, "margwork_m": 49, "margwork_f": 76, "per_margwork_p": 41.80602007, "per_margwork_m": 39.2, "per_margwork_f": 60.8, "marg_cl_p": 110, "marg_cl_m": 35, "marg_cl_f": 75, "per_marg_cl_p": 88.0, "per_marg_cl_m": 31.81818182, "per_marg_cl_f": 68.18181818, "marg_al_p": 0, "marg_al_m": 0, "marg_al_f": 0, "per_marg_al_p": 0.0, "per_marg_al_m": 0.0, "per_marg_al_f": 0.0, "marg_hh_p": 0, "marg_hh_m": 0, "marg_hh_f": 0, "per_marg_hh_p": 0.0, "per_marg_hh_m": 0.0, "per_marg_hh_f": 0.0, "marg_ot_p": 15, "marg_ot_m": 14, "marg_ot_f": 1, "per_marg_ot_p": 12.0, "per_marg_ot_m": 93.33333332999999, "per_marg_ot_f": 6.66666667, "margwork_3_6_p": 24, "margwork_3_6_m": 17, "margwork_3_6_f": 7, "per_margwork_3_6_p": 19.2, "per_margwork_3_6_m": 70.83333332999999, "per_margwork_3_6_f": 29.16666667, "marg_cl_3_6_p": 10, "marg_cl_3_6_m": 3, "marg_cl_3_6_f": 7, "per_marg_cl_3_6_p": 8.0, "per_marg_cl_3_6_m": 30.0, "per_marg_cl_3_6_f": 70.0, "marg_al_3_6_p": 0, "marg_al_3_6_m": 0, "marg_al_3_6_f": 0, "per_marg_al_3_6_p": 0.0, "per_marg_al_3_6_m": 0.0, "per_marg_al_3_6_f": 0.0, "marg_hh_3_6_p": 0, "marg_hh_3_6_m": 0, "marg_hh_3_6_f": 0, "per_marg_hh_3_6_p": 0.0, "per_marg_hh_3_6_m": 0.0, "per_marg_hh_3_6_f": 0.0, "marg_ot_3_6_p": 14, "marg_ot_3_6_m": 14, "marg_ot_3_6_f": 0, "per_marg_ot_3_6_p": 11.2, "per_marg_ot_3_6_m": 100.0, "per_marg_ot_3_6_f": 0.0, "margwork_0_3_p": 101, "margwork_0_3_m": 32, "margwork_0_3_f": 69, "per_margwork_0_3_p": 80.8, "per_margwork_0_3_m": 31.68316832, "per_margwork_0_3_f": 68.31683168, "marg_cl_0_3_p": 100, "marg_cl_0_3_m": 32, "marg_cl_0_3_f": 68, "per_marg_cl_0_3_p": 80.0, "per_marg_cl_0_3_m": 32.0, "per_marg_cl_0_3_f": 68.0, "marg_al_0_3_p": 0, "marg_al_0_3_m": 0, "marg_al_0_3_f": 0, "per_marg_al_0_3_p": 0.0, "per_marg_al_0_3_m": 0.0, "per_marg_al_0_3_f": 0.0, "marg_hh_0_3_p": 0, "marg_hh_0_3_m": 0, "marg_hh_0_3_f": 0, "per_marg_hh_0_3_p": 0.0, "per_marg_hh_0_3_m": 0.0, "per_marg_hh_0_3_f": 0.0, "marg_ot_0_3_p": 1, "marg_ot_0_3_m": 0, "marg_ot_0_3_f": 1, "per_marg_ot_0_3_p": 0.8, "per_marg_ot_0_3_m": 0.0, "per_marg_ot_0_3_f": 100.0, "non_work_p": 94, "non_work_m": 47, "non_work_f": 47, "per_non_work_p": 31.43812709, "per_non_work_m": 50.0, "per_non_work_f": 50.0, "per_hc_tot_tot": 100, "per_hc_tot_god": 80.6, "per_hc_tot_liv": 19.4, "per_hc_tot_dil": 0.0, "per_hc_res_tot": 100.0, "per_hc_res_god": 80.6, "per_hc_res_liv": 19.4, "per_hc_res_dil": 0.0, "per_hc_oth_tot": 0.0, "per_hc_oth_god": 0.0, "per_hc_oth_liv": 0.0, "per_hc_oth_dil": 0.0, "per_mt_grsbam": 0.0, "per_mt_plastic": 0.0, "per_mt_h_tiles": 0.0, "per_mt_m_tiles": 0.0, "per_mt_b_brick": 0.0, "per_mt_stone": 41.8, "per_mt_asbstos": 0.0, "per_mt_concrte": 58.2, "per_mt_oth": 0.0, "per_mw_grsbam": 0.0, "per_mw_plastic": 0.0, "per_mw_mud": 37.3, "per_mw_wood": 0.0, "per_mw_no_mrtr": 0.0, "per_mw_st_mrtr": 0.0, "per_mw_asbstos": 0.0, "per_mw_b_brick": 62.7, "per_mw_concrte": 0.0, "per_mw_oth": 0.0, "per_mf_mud": 29.9, "per_mf_wood": 0.0, "per_mf_b_brick": 0.0, "per_mf_stone": 1.5, "per_mf_cement": 68.7, "per_mf_fl_tile": 0.0, "per_mf_oth": 0.0, "per_dw_n_exrm": 0.0, "per_dw_1_room": 28.4, "per_dw_2_room": 49.3, "per_dw_3_room": 6.0, "per_dw_4_room": 6.0, "per_dw_5_room": 7.5, "per_dw_6_room": 3.0, "per_hhsize_1": 3.0, "per_hhsize_2": 6.0, "per_hhsize_3": 13.4, "per_hhsize_4": 29.9, "per_hhsize_5": 25.4, "per_hhsize_6_8": 22.4, "per_hhsize_9p": 0.0, "per_ow_owned": 100.0, "per_ow_rented": 0.0, "per_ow_oth": 0.0, "per_mc_none": 13.4, "per_mcouple_1": 68.7, "per_mcouple_2": 17.9, "per_mcouple_3": 0.0, "per_mcouple_4": 0.0, "per_mcouple_5p": 0.0, "per_dw_t_ts": 97.0, "per_dw_t_unts": 0.0, "per_dw_c_well": 0.0, "per_dw_unc_wel": 0.0, "per_dw_hpump": 3.0, "per_dw_tw_bore": 0.0, "per_dw_spring": 0.0, "per_dw_rivcan": 0.0, "per_dw_tank": 0.0, "per_dw_oth": 0.0, "per_loc_dw_wp": 74.6, "per_loc_dw_np": 25.4, "per_loc_dw_aw": 0.0, "per_light_elec": 95.5, "per_light_kero": 4.5, "per_light_solr": 0.0, "per_light_oil": 0.0, "per_light_oth": 0.0, "per_light_no": 0.0, "per_hh_latrine": 59.7, "per_fl_sewer": 1.5, "per_fl_septict": 46.3, "per_fl_othsys": 11.9, "per_pl_wslab": 0.0, "per_pl_without": 0.0, "per_ns_open": 0.0, "per_sl_ns_hum": 0.0, "per_sl_ns_anml": 0.0, "per_hh_no_lat": 40.3, "per_as_pub": 0.0, "per_as_open": 40.3, "per_hh_bathrm": 37.3, "per_hh_en_wrf": 0.0, "per_hh_no_btrm": 62.7, "per_wwoc_drain": 3.0, "per_wwoc_open": 95.5, "per_wwoc_nodrn": 1.5, "per_cook_fire": 91.0, "per_cook_resdu": 0.0, "per_cook_cwdng": 0.0, "per_cook_coal": 0.0, "per_cook_kero": 3.0, "per_cook_lpng": 6.0, "per_cook_elec": 0.0, "per_cook_biogs": 0.0, "per_cook_oth": 0.0, "per_cook_no": 0.0, "per_kf_inside": 94.0, "per_kf_in_has": 91.0, "per_kf_in_does": 3.0, "per_kf_outside": 6.0, "per_kf_out_has": 6.0, "per_kf_out_dos": 0.0, "per_kf_no_cook": 0.0, "per_hh_banking": 67.2, "per_hh_radio": 6.0, "per_hh_tv": 56.7, "per_hh_cmp_int": 0.0, "per_hh_cmp_wnt": 3.0, "per_hh_ph_ll": 3.0, "per_hh_ph_mob": 55.2, "per_hh_ph_bth": 13.4, "per_hh_bcycl": 0.0, "per_hh_2wheel": 6.0, "per_hh_4wheel": 6.0, "per_hh_tvcomp": null, "per_hh_no_ast": 22.4, "per_hs_perma": 62.7, "per_hs_sperma": 37.3, "per_hs_temp": 0.0, "per_hs_servc": 0.0, "per_hs_nservc": 0.0, "per_hs_unclss": 0.0, "avghhsz_cy": 4.53030303, "st_areashape": 31363.87350204, "st_lengthshape": 628.0581775956349}, "geometry": {"type": "Polygon", "coordinates": [[[76.52499684372201, 31.719585140908304], [76.5249074002658, 31.719581343920293], [76.5248188461417, 31.71956998963385], [76.5247320608004, 31.719551192666493], [76.52464790662462, 31.719525137934564], [76.52456722084409, 31.719492086002287], [76.52449080475614, 31.719452363912584], [76.52441941743716, 31.719406366715464], [76.5243537694545, 31.71935455288394], [76.52429451298511, 31.719297435908715], [76.52424223552715, 31.719235583534523], [76.5241974581035, 31.719169611647693], [76.5241606253802, 31.719100174342653], [76.52413210386993, 31.71902796239397], [76.52411217564368, 31.718953694087137], [76.52410104012739, 31.718878106813346], [76.52409880781391, 31.718801951720675], [76.52410550026279, 31.718725986072695], [76.52412105099867, 31.718650964843174], [76.52414530640968, 31.718577633074315], [76.52417802395063, 31.718506720527685], [76.52421888022809, 31.71843893098613], [76.52426746740682, 31.71837493843264], [76.52432330398995, 31.718315379408384], [76.52438583392023, 31.718260845370967], [76.52445443736018, 31.718211878109212], [76.52452843069182, 31.71816896515767], [76.52460707909327, 31.718132532154765], [76.52468960192854, 31.718102941313937], [76.52477517813743, 31.718080487602787], [76.5248629570154, 31.718065392629327], [76.52495206629835, 31.718057807698425], [76.52504162114566, 31.718057807698425], [76.52513073042857, 31.718065392629327], [76.52521850930655, 31.718080487602787], [76.52530408551547, 31.718102941313937], [76.52538660835073, 31.718132532154765], [76.52546525675217, 31.71816896515767], [76.5255392500838, 31.718211878109212], [76.52560785352374, 31.718260845370967], [76.52567038345403, 31.718315379408384], [76.52572622003716, 31.71837493843264], [76.52577480721592, 31.71843893098613], [76.52581566349335, 31.718506720527685], [76.52584838103434, 31.718577633074315], [76.52587263644533, 31.718650964843174], [76.52588818718118, 31.718725986072695], [76.52589487963006, 31.718801951720675], [76.52589264731658, 31.718878106813346], [76.52588151180032, 31.718953694087137], [76.52586158357404, 31.71902796239397], [76.5258330620638, 31.719100174342653], [76.52579622934051, 31.719169611647693], [76.52575145191686, 31.719235583534523], [76.52569917445891, 31.719297435908715], [76.5256399179895, 31.71935455288394], [76.52557427000684, 31.719406366715464], [76.52550288268783, 31.719452363912584], [76.52542646659988, 31.719492086002287], [76.52534578081939, 31.719525137934564], [76.52526162664357, 31.719551192666493], [76.52517484130229, 31.71956998963385], [76.5250862871782, 31.719581343920293], [76.52499684372201, 31.719585140908304]]]}}]}