{"type": "FeatureCollection", "features": [{"type": "Feature", "properties": {"premiumdata.sde.IN_Village_PCA.area": 3.14344294, "objectid": 558474, "id": "193162214144400", "name": "Purba Sundarpur", "subdistrict": "Gazole", "district": "Maldah", "state": "West Bengal", "country": "India", "censusname": "Purba Sundarpur", "villagename_locallang": null, "lgd_villagename": "Purba Sundarpur", "lgd_villagecode": 312678, "lgd_subdistrictcode": 2214, "lgd_districtcode": 316, "lgd_statecode": 19, "censuscode2001": "00652300", "censuscode2011": "312678", "censuscode2021": null, "level": "Village", "tru": "Rural", "no_hh": 136, "tot_p": 657, "tot_m": 331, "tot_f": 326, "per_tot_m": 50.3805175, "per_tot_f": 49.6194825, "p_06": 83, "m_06": 43, "f_06": 40, "per_p_06": 12.63318113, "per_m_06": 51.80722892, "per_f_06": 48.19277108, "p_sc": 0, "m_sc": 0, "f_sc": 0, "per_p_sc": 0.0, "per_m_sc": 0.0, "per_f_sc": 0.0, "p_st": 646, "m_st": 322, "f_st": 324, "per_p_st": 98.32572298, "per_m_st": 49.84520124, "per_f_st": 50.15479876, "p_lit": 207, "m_lit": 123, "f_lit": 84, "per_p_lit": 31.50684932, "per_m_lit": 59.42028986, "per_f_lit": 40.57971014, "p_ill": 450, "m_ill": 208, "f_ill": 242, "per_p_ill": 68.49315068, "per_m_ill": 46.22222222, "per_f_ill": 53.77777778, "tot_work_p": 369, "tot_work_m": 196, "tot_work_f": 173, "per_tot_work_p": 56.16438356, "per_tot_work_m": 53.11653117, "per_tot_work_f": 46.88346883, "mainwork_p": 156, "mainwork_m": 152, "mainwork_f": 4, "per_mainwork_p": 23.74429224, "per_mainwork_m": 97.43589744, "per_mainwork_f": 2.56410256, "main_cl_p": 143, "main_cl_m": 143, "main_cl_f": 0, "per_main_cl_p": 91.66666667, "per_main_cl_m": 100.0, "per_main_cl_f": 0.0, "main_al_p": 11, "main_al_m": 8, "main_al_f": 3, "per_main_al_p": 7.05128205, "per_main_al_m": 72.72727273, "per_main_al_f": 27.27272727, "main_hh_p": 0, "main_hh_m": 0, "main_hh_f": 0, "per_main_hh_p": 0.0, "per_main_hh_m": 0.0, "per_main_hh_f": 0.0, "main_ot_p": 2, "main_ot_m": 1, "main_ot_f": 1, "per_main_ot_p": 1.28205128, "per_main_ot_m": 50.0, "per_main_ot_f": 50.0, "margwork_p": 213, "margwork_m": 44, "margwork_f": 169, "per_margwork_p": 32.42009132, "per_margwork_m": 20.657277, "per_margwork_f": 79.342723, "marg_cl_p": 45, "marg_cl_m": 26, "marg_cl_f": 19, "per_marg_cl_p": 21.12676056, "per_marg_cl_m": 57.77777778, "per_marg_cl_f": 42.22222222, "marg_al_p": 168, "marg_al_m": 18, "marg_al_f": 150, "per_marg_al_p": 78.87323944, "per_marg_al_m": 10.71428571, "per_marg_al_f": 89.28571429, "marg_hh_p": 0, "marg_hh_m": 0, "marg_hh_f": 0, "per_marg_hh_p": 0.0, "per_marg_hh_m": 0.0, "per_marg_hh_f": 0.0, "marg_ot_p": 0, "marg_ot_m": 0, "marg_ot_f": 0, "per_marg_ot_p": 0.0, "per_marg_ot_m": 0.0, "per_marg_ot_f": 0.0, "margwork_3_6_p": 213, "margwork_3_6_m": 44, "margwork_3_6_f": 169, "per_margwork_3_6_p": 100.0, "per_margwork_3_6_m": 20.657277, "per_margwork_3_6_f": 79.342723, "marg_cl_3_6_p": 45, "marg_cl_3_6_m": 26, "marg_cl_3_6_f": 19, "per_marg_cl_3_6_p": 21.12676056, "per_marg_cl_3_6_m": 57.77777778, "per_marg_cl_3_6_f": 42.22222222, "marg_al_3_6_p": 168, "marg_al_3_6_m": 18, "marg_al_3_6_f": 150, "per_marg_al_3_6_p": 78.87323944, "per_marg_al_3_6_m": 10.71428571, "per_marg_al_3_6_f": 89.28571429, "marg_hh_3_6_p": 0, "marg_hh_3_6_m": 0, "marg_hh_3_6_f": 0, "per_marg_hh_3_6_p": 0.0, "per_marg_hh_3_6_m": 0.0, "per_marg_hh_3_6_f": 0.0, "marg_ot_3_6_p": 0, "marg_ot_3_6_m": 0, "marg_ot_3_6_f": 0, "per_marg_ot_3_6_p": 0.0, "per_marg_ot_3_6_m": 0.0, "per_marg_ot_3_6_f": 0.0, "margwork_0_3_p": 0, "margwork_0_3_m": 0, "margwork_0_3_f": 0, "per_margwork_0_3_p": 0.0, "per_margwork_0_3_m": 0.0, "per_margwork_0_3_f": 0.0, "marg_cl_0_3_p": 0, "marg_cl_0_3_m": 0, "marg_cl_0_3_f": 0, "per_marg_cl_0_3_p": 0.0, "per_marg_cl_0_3_m": 0.0, "per_marg_cl_0_3_f": 0.0, "marg_al_0_3_p": 0, "marg_al_0_3_m": 0, "marg_al_0_3_f": 0, "per_marg_al_0_3_p": 0.0, "per_marg_al_0_3_m": 0.0, "per_marg_al_0_3_f": 0.0, "marg_hh_0_3_p": 0, "marg_hh_0_3_m": 0, "marg_hh_0_3_f": 0, "per_marg_hh_0_3_p": 0.0, "per_marg_hh_0_3_m": 0.0, "per_marg_hh_0_3_f": 0.0, "marg_ot_0_3_p": 0, "marg_ot_0_3_m": 0, "marg_ot_0_3_f": 0, "per_marg_ot_0_3_p": 0.0, "per_marg_ot_0_3_m": 0.0, "per_marg_ot_0_3_f": 0.0, "non_work_p": 288, "non_work_m": 135, "non_work_f": 153, "per_non_work_p": 43.83561644, "per_non_work_m": 46.875, "per_non_work_f": 53.125, "per_hc_tot_tot": 100, "per_hc_tot_god": 94.2, "per_hc_tot_liv": 5.1, "per_hc_tot_dil": 0.7, "per_hc_res_tot": 99.3, "per_hc_res_god": 93.4, "per_hc_res_liv": 5.1, "per_hc_res_dil": 0.7, "per_hc_oth_tot": 0.7, "per_hc_oth_god": 0.7, "per_hc_oth_liv": 0.0, "per_hc_oth_dil": 0.0, "per_mt_grsbam": 20.4, "per_mt_plastic": 0.0, "per_mt_h_tiles": 0.0, "per_mt_m_tiles": 0.7, "per_mt_b_brick": 0.0, "per_mt_stone": 0.0, "per_mt_asbstos": 78.8, "per_mt_concrte": 0.0, "per_mt_oth": 0.0, "per_mw_grsbam": 1.5, "per_mw_plastic": 1.5, "per_mw_mud": 89.8, "per_mw_wood": 0.0, "per_mw_no_mrtr": 3.6, "per_mw_st_mrtr": 0.0, "per_mw_asbstos": 3.6, "per_mw_b_brick": 0.0, "per_mw_concrte": 0.0, "per_mw_oth": 0.0, "per_mf_mud": 100.0, "per_mf_wood": 0.0, "per_mf_b_brick": 0.0, "per_mf_stone": 0.0, "per_mf_cement": 0.0, "per_mf_fl_tile": 0.0, "per_mf_oth": 0.0, "per_dw_n_exrm": 2.2, "per_dw_1_room": 57.7, "per_dw_2_room": 37.2, "per_dw_3_room": 2.2, "per_dw_4_room": 0.0, "per_dw_5_room": 0.0, "per_dw_6_room": 0.7, "per_hhsize_1": 0.0, "per_hhsize_2": 10.9, "per_hhsize_3": 16.1, "per_hhsize_4": 26.3, "per_hhsize_5": 17.5, "per_hhsize_6_8": 23.4, "per_hhsize_9p": 5.8, "per_ow_owned": 97.1, "per_ow_rented": 2.9, "per_ow_oth": 0.0, "per_mc_none": 13.9, "per_mcouple_1": 70.8, "per_mcouple_2": 14.6, "per_mcouple_3": 0.7, "per_mcouple_4": 0.0, "per_mcouple_5p": 0.0, "per_dw_t_ts": 1.5, "per_dw_t_unts": 1.5, "per_dw_c_well": 0.0, "per_dw_unc_wel": 0.0, "per_dw_hpump": 0.0, "per_dw_tw_bore": 97.1, "per_dw_spring": 0.0, "per_dw_rivcan": 0.0, "per_dw_tank": 0.0, "per_dw_oth": 0.0, "per_loc_dw_wp": 15.3, "per_loc_dw_np": 81.0, "per_loc_dw_aw": 3.6, "per_light_elec": 0.7, "per_light_kero": 97.8, "per_light_solr": 0.7, "per_light_oil": 0.0, "per_light_oth": 0.0, "per_light_no": 0.7, "per_hh_latrine": 3.6, "per_fl_sewer": 0.0, "per_fl_septict": 1.5, "per_fl_othsys": 0.0, "per_pl_wslab": 0.7, "per_pl_without": 0.0, "per_ns_open": 1.5, "per_sl_ns_hum": 0.0, "per_sl_ns_anml": 0.0, "per_hh_no_lat": 96.4, "per_as_pub": 0.0, "per_as_open": 96.4, "per_hh_bathrm": 0.0, "per_hh_en_wrf": 5.1, "per_hh_no_btrm": 94.9, "per_wwoc_drain": 0.0, "per_wwoc_open": 2.9, "per_wwoc_nodrn": 97.1, "per_cook_fire": 0.0, "per_cook_resdu": 100.0, "per_cook_cwdng": 0.0, "per_cook_coal": 0.0, "per_cook_kero": 0.0, "per_cook_lpng": 0.0, "per_cook_elec": 0.0, "per_cook_biogs": 0.0, "per_cook_oth": 0.0, "per_cook_no": 0.0, "per_kf_inside": 94.2, "per_kf_in_has": 3.6, "per_kf_in_does": 90.5, "per_kf_outside": 5.8, "per_kf_out_has": 2.2, "per_kf_out_dos": 3.6, "per_kf_no_cook": 0.0, "per_hh_banking": 0.0, "per_hh_radio": 3.6, "per_hh_tv": 0.7, "per_hh_cmp_int": 0.0, "per_hh_cmp_wnt": 2.9, "per_hh_ph_ll": 0.7, "per_hh_ph_mob": 5.8, "per_hh_ph_bth": 0.0, "per_hh_bcycl": 50.4, "per_hh_2wheel": 0.0, "per_hh_4wheel": 0.0, "per_hh_tvcomp": 0.0, "per_hh_no_ast": 45.3, "per_hs_perma": 5.1, "per_hs_sperma": 76.6, "per_hs_temp": 18.2, "per_hs_servc": 16.8, "per_hs_nservc": 1.5, "per_hs_unclss": 0.0, "avghhsz_cy": 4.83088235, "st_areashape": 3861704.79762479, "st_lengthshape": 9709.042485537695}, "geometry": {"type": "Polygon", "coordinates": [[[88.39622878597098, 25.297686667590007], [88.39514708860474, 25.300677432839645], [88.39393258071367, 25.303809081776325], [88.39372164370853, 25.304613474131152], [88.3934509552623, 25.304651802952794], [88.39270591322689, 25.3040507798738], [88.39203920877586, 25.303164883320942], [88.39174735422486, 25.302581379530228], [88.39144043492658, 25.301768180655465], [88.39107093179909, 25.30077396617434], [88.3900060095725, 25.30000185246493], [88.38928415035963, 25.299813502282305], [88.38885024431445, 25.299700284121048], [88.38812168187295, 25.299417051053464], [88.38792685794907, 25.29910999919407], [88.38755610077342, 25.298525657223735], [88.38674990772172, 25.297831706664013], [88.38643399718572, 25.296880678827026], [88.38578845255121, 25.29631632594237], [88.38578706914568, 25.29631633812499], [88.38477478549976, 25.29632513561351], [88.384620369594, 25.296016354105287], [88.38448297945783, 25.295741615139754], [88.38465770986542, 25.295312622686048], [88.38434182178736, 25.294361589706664], [88.38405539485733, 25.29308624574023], [88.38241302388799, 25.291238907966736], [88.38163335808657, 25.29017467851761], [88.38100592618314, 25.289885938281486], [88.37986212289144, 25.289532948233994], [88.38115000068335, 25.287749998929616], [88.3811399997393, 25.286359999175193], [88.38148999954365, 25.285519999396406], [88.38213999982199, 25.285019998700026], [88.38277000090717, 25.284849999212085], [88.38308999967597, 25.284839998756983], [88.38331000068234, 25.285059998831567], [88.38375000089839, 25.28522999883744], [88.38436000009541, 25.28516999953147], [88.38593000098886, 25.284769998797266], [88.3860900008224, 25.28442999969459], [88.38607000073094, 25.283959999341857], [88.38611000091389, 25.283389999581285], [88.38639000039808, 25.283149999351032], [88.38667000078054, 25.282959999271988], [88.38860999977321, 25.282579999033306], [88.38987000014689, 25.283549999741734], [88.3902500000885, 25.28366999830213], [88.39084000009238, 25.283629999336682], [88.39220000002518, 25.28341999886596], [88.39219000087776, 25.283239999797633], [88.39221000096924, 25.282949998661053], [88.3919400006325, 25.28258999886246], [88.39139999995903, 25.282319999124667], [88.3913700007201, 25.282069999343022], [88.39153000055369, 25.281929999435224], [88.39289999963391, 25.281899998969806], [88.39319000096046, 25.282689999545465], [88.39363000027821, 25.28283999919695], [88.39431000069376, 25.282999999270608], [88.3948600005147, 25.282859998811556], [88.3953400000154, 25.28258999886246], [88.39564999963679, 25.28218999855524], [88.3956200003979, 25.281519999471985], [88.39520000027332, 25.281119998885703], [88.39570999991126, 25.28073999938145], [88.39626000063045, 25.280469999587527], [88.39683999969029, 25.280369999511343], [88.39730000089614, 25.28035999868692], [88.3973200009876, 25.28037999871038], [88.39751000006011, 25.280509999594898], [88.39806000077934, 25.28093999884137], [88.39843999982263, 25.281059999171347], [88.39925000083282, 25.281059999171347], [88.3994599999968, 25.281189999327175], [88.39956999960168, 25.281629999320785], [88.39962999987611, 25.281659999852998], [88.39954000036275, 25.281849999531396], [88.3995100002255, 25.282499998745873], [88.39907000000946, 25.283289999475386], [88.39909000010097, 25.28377999945034], [88.39910000014669, 25.28411999875046], [88.39911000019245, 25.284379998862246], [88.3995500004085, 25.284619999095607], [88.39984999998414, 25.28481999946884], [88.39989000016712, 25.285929999647777], [88.40009000108196, 25.28639999886485], [88.40018000059533, 25.28812999921578], [88.40025000091556, 25.28923999915349], [88.40044000088635, 25.2899899989136], [88.40130000032863, 25.29114999938124], [88.40182000001234, 25.291939998998053], [88.40255336754228, 25.29391346525087], [88.39857726509297, 25.29390796427466], [88.39857721568563, 25.29390796427466], [88.39811020672224, 25.29420991576232], [88.3973562686706, 25.295394156855334], [88.39622878597098, 25.297686667590007]]]}}]}