{"type": "FeatureCollection", "features": [{"type": "Feature", "properties": {"premiumdata.sde.IN_Village_PCA.area": 7.34965403, "objectid": 16358, "id": "335715885172900", "name": "Kumbarahalli", "subdistrict": "Palakkodu", "district": "Dharmapuri", "state": "Tamil Nadu", "country": "India", "censusname": "Kumbarahalli", "villagename_locallang": null, "lgd_villagename": "Kumbarahalli", "lgd_villagecode": 643226, "lgd_subdistrictcode": 5885, "lgd_districtcode": 571, "lgd_statecode": 33, "censuscode2001": "00309700", "censuscode2011": "643226", "censuscode2021": null, "level": "Village", "tru": "Rural", "no_hh": 1022, "tot_p": 4150, "tot_m": 2113, "tot_f": 2037, "per_tot_m": 50.91566265, "per_tot_f": 49.08433735, "p_06": 484, "m_06": 244, "f_06": 240, "per_p_06": 11.6626506, "per_m_06": 50.41322314000001, "per_f_06": 49.58677686, "p_sc": 132, "m_sc": 61, "f_sc": 71, "per_p_sc": 3.18072289, "per_m_sc": 46.21212121, "per_f_sc": 53.78787879, "p_st": 14, "m_st": 8, "f_st": 6, "per_p_st": 0.3373494, "per_m_st": 57.14285714, "per_f_st": 42.85714286, "p_lit": 2276, "m_lit": 1348, "f_lit": 928, "per_p_lit": 54.84337349, "per_m_lit": 59.22671353, "per_f_lit": 40.77328647, "p_ill": 1874, "m_ill": 765, "f_ill": 1109, "per_p_ill": 45.15662651, "per_m_ill": 40.82177161, "per_f_ill": 59.17822839, "tot_work_p": 2322, "tot_work_m": 1281, "tot_work_f": 1041, "per_tot_work_p": 55.95180723, "per_tot_work_m": 55.16795866, "per_tot_work_f": 44.83204134, "mainwork_p": 1976, "mainwork_m": 1218, "mainwork_f": 758, "per_mainwork_p": 47.61445783000001, "per_mainwork_m": 61.63967611, "per_mainwork_f": 38.36032389, "main_cl_p": 629, "main_cl_m": 393, "main_cl_f": 236, "per_main_cl_p": 31.83198381, "per_main_cl_m": 62.48012719, "per_main_cl_f": 37.51987281, "main_al_p": 693, "main_al_m": 302, "main_al_f": 391, "per_main_al_p": 35.0708502, "per_main_al_m": 43.57864358, "per_main_al_f": 56.42135642, "main_hh_p": 18, "main_hh_m": 7, "main_hh_f": 11, "per_main_hh_p": 0.91093117, "per_main_hh_m": 38.88888889, "per_main_hh_f": 61.11111111, "main_ot_p": 636, "main_ot_m": 516, "main_ot_f": 120, "per_main_ot_p": 32.18623482, "per_main_ot_m": 81.13207547, "per_main_ot_f": 18.86792453, "margwork_p": 346, "margwork_m": 63, "margwork_f": 283, "per_margwork_p": 8.3373494, "per_margwork_m": 18.20809249, "per_margwork_f": 81.79190751, "marg_cl_p": 14, "marg_cl_m": 4, "marg_cl_f": 10, "per_marg_cl_p": 4.04624277, "per_marg_cl_m": 28.57142857, "per_marg_cl_f": 71.42857143, "marg_al_p": 270, "marg_al_m": 30, "marg_al_f": 240, "per_marg_al_p": 78.03468208, "per_marg_al_m": 11.11111111, "per_marg_al_f": 88.88888889, "marg_hh_p": 4, "marg_hh_m": 0, "marg_hh_f": 4, "per_marg_hh_p": 1.15606936, "per_marg_hh_m": 0.0, "per_marg_hh_f": 100.0, "marg_ot_p": 58, "marg_ot_m": 29, "marg_ot_f": 29, "per_marg_ot_p": 16.76300578, "per_marg_ot_m": 50.0, "per_marg_ot_f": 50.0, "margwork_3_6_p": 332, "margwork_3_6_m": 59, "margwork_3_6_f": 273, "per_margwork_3_6_p": 95.95375723, "per_margwork_3_6_m": 17.77108434, "per_margwork_3_6_f": 82.22891566, "marg_cl_3_6_p": 14, "marg_cl_3_6_m": 4, "marg_cl_3_6_f": 10, "per_marg_cl_3_6_p": 4.04624277, "per_marg_cl_3_6_m": 28.57142857, "per_marg_cl_3_6_f": 71.42857143, "marg_al_3_6_p": 261, "marg_al_3_6_m": 27, "marg_al_3_6_f": 234, "per_marg_al_3_6_p": 75.43352601, "per_marg_al_3_6_m": 10.34482759, "per_marg_al_3_6_f": 89.65517241, "marg_hh_3_6_p": 4, "marg_hh_3_6_m": 0, "marg_hh_3_6_f": 4, "per_marg_hh_3_6_p": 1.15606936, "per_marg_hh_3_6_m": 0.0, "per_marg_hh_3_6_f": 100.0, "marg_ot_3_6_p": 53, "marg_ot_3_6_m": 28, "marg_ot_3_6_f": 25, "per_marg_ot_3_6_p": 15.31791908, "per_marg_ot_3_6_m": 52.83018868, "per_marg_ot_3_6_f": 47.16981132, "margwork_0_3_p": 14, "margwork_0_3_m": 4, "margwork_0_3_f": 10, "per_margwork_0_3_p": 4.04624277, "per_margwork_0_3_m": 28.57142857, "per_margwork_0_3_f": 71.42857143, "marg_cl_0_3_p": 0, "marg_cl_0_3_m": 0, "marg_cl_0_3_f": 0, "per_marg_cl_0_3_p": 0.0, "per_marg_cl_0_3_m": 0.0, "per_marg_cl_0_3_f": 0.0, "marg_al_0_3_p": 9, "marg_al_0_3_m": 3, "marg_al_0_3_f": 6, "per_marg_al_0_3_p": 2.60115607, "per_marg_al_0_3_m": 33.33333333, "per_marg_al_0_3_f": 66.66666667, "marg_hh_0_3_p": 0, "marg_hh_0_3_m": 0, "marg_hh_0_3_f": 0, "per_marg_hh_0_3_p": 0.0, "per_marg_hh_0_3_m": 0.0, "per_marg_hh_0_3_f": 0.0, "marg_ot_0_3_p": 5, "marg_ot_0_3_m": 1, "marg_ot_0_3_f": 4, "per_marg_ot_0_3_p": 1.44508671, "per_marg_ot_0_3_m": 20.0, "per_marg_ot_0_3_f": 80.0, "non_work_p": 1828, "non_work_m": 832, "non_work_f": 996, "per_non_work_p": 44.04819277, "per_non_work_m": 45.51422319, "per_non_work_f": 54.48577681, "per_hc_tot_tot": 100, "per_hc_tot_god": 59.3, "per_hc_tot_liv": 37.6, "per_hc_tot_dil": 3.1, "per_hc_res_tot": 99.7, "per_hc_res_god": 59.1, "per_hc_res_liv": 37.5, "per_hc_res_dil": 3.1, "per_hc_oth_tot": 0.3, "per_hc_oth_god": 0.2, "per_hc_oth_liv": 0.1, "per_hc_oth_dil": 0.0, "per_mt_grsbam": 24.3, "per_mt_plastic": 2.2, "per_mt_h_tiles": 5.7, "per_mt_m_tiles": 31.6, "per_mt_b_brick": 0.8, "per_mt_stone": 0.4, "per_mt_asbstos": 8.6, "per_mt_concrte": 26.2, "per_mt_oth": 0.3, "per_mw_grsbam": 3.2, "per_mw_plastic": 0.1, "per_mw_mud": 45.3, "per_mw_wood": 0.0, "per_mw_no_mrtr": 0.7, "per_mw_st_mrtr": 13.6, "per_mw_asbstos": 0.0, "per_mw_b_brick": 37.0, "per_mw_concrte": 0.2, "per_mw_oth": 0.0, "per_mf_mud": 27.6, "per_mf_wood": 0.0, "per_mf_b_brick": 0.0, "per_mf_stone": 0.0, "per_mf_cement": 67.6, "per_mf_fl_tile": 4.8, "per_mf_oth": 0.0, "per_dw_n_exrm": 0.5, "per_dw_1_room": 39.7, "per_dw_2_room": 36.6, "per_dw_3_room": 14.9, "per_dw_4_room": 6.8, "per_dw_5_room": 1.0, "per_dw_6_room": 0.5, "per_hhsize_1": 4.6, "per_hhsize_2": 12.1, "per_hhsize_3": 16.0, "per_hhsize_4": 28.7, "per_hhsize_5": 21.8, "per_hhsize_6_8": 16.1, "per_hhsize_9p": 0.6, "per_ow_owned": 98.9, "per_ow_rented": 0.5, "per_ow_oth": 0.7, "per_mc_none": 12.1, "per_mcouple_1": 71.3, "per_mcouple_2": 15.8, "per_mcouple_3": 0.7, "per_mcouple_4": 0.0, "per_mcouple_5p": 0.0, "per_dw_t_ts": 15.8, "per_dw_t_unts": 20.7, "per_dw_c_well": 0.1, "per_dw_unc_wel": 10.6, "per_dw_hpump": 10.1, "per_dw_tw_bore": 42.6, "per_dw_spring": 0.1, "per_dw_rivcan": 0.0, "per_dw_tank": 0.0, "per_dw_oth": 0.0, "per_loc_dw_wp": 2.7, "per_loc_dw_np": 87.6, "per_loc_dw_aw": 9.8, "per_light_elec": 81.4, "per_light_kero": 17.9, "per_light_solr": 0.0, "per_light_oil": 0.2, "per_light_oth": 0.0, "per_light_no": 0.5, "per_hh_latrine": 4.6, "per_fl_sewer": 0.7, "per_fl_septict": 0.9, "per_fl_othsys": 0.8, "per_pl_wslab": 1.8, "per_pl_without": 0.0, "per_ns_open": 0.5, "per_sl_ns_hum": 0.0, "per_sl_ns_anml": 0.0, "per_hh_no_lat": 95.4, "per_as_pub": 0.0, "per_as_open": 95.4, "per_hh_bathrm": 6.2, "per_hh_en_wrf": 11.3, "per_hh_no_btrm": 82.5, "per_wwoc_drain": 1.9, "per_wwoc_open": 3.9, "per_wwoc_nodrn": 94.2, "per_cook_fire": 92.7, "per_cook_resdu": 0.5, "per_cook_cwdng": 0.0, "per_cook_coal": 0.1, "per_cook_kero": 0.2, "per_cook_lpng": 6.1, "per_cook_elec": 0.0, "per_cook_biogs": 0.1, "per_cook_oth": 0.0, "per_cook_no": 0.4, "per_kf_inside": 29.1, "per_kf_in_has": 19.1, "per_kf_in_does": 10.1, "per_kf_outside": 70.5, "per_kf_out_has": 33.4, "per_kf_out_dos": 37.1, "per_kf_no_cook": 0.4, "per_hh_banking": 41.3, "per_hh_radio": 8.7, "per_hh_tv": 87.3, "per_hh_cmp_int": 0.3, "per_hh_cmp_wnt": 3.2, "per_hh_ph_ll": 0.7, "per_hh_ph_mob": 66.3, "per_hh_ph_bth": 1.2, "per_hh_bcycl": 57.2, "per_hh_2wheel": 36.8, "per_hh_4wheel": 0.7, "per_hh_tvcomp": 1.1, "per_hh_no_ast": 6.2, "per_hs_perma": 48.7, "per_hs_sperma": 27.2, "per_hs_temp": 23.8, "per_hs_servc": 20.6, "per_hs_nservc": 3.2, "per_hs_unclss": 0.3, "avghhsz_cy": 4.06066536, "st_areashape": 7748055.45306134, "st_lengthshape": 15785.11761358223}, "geometry": {"type": "Polygon", "coordinates": [[[78.24509190645983, 12.33396117142846], [78.24340930174557, 12.333876045142405], [78.24181865577027, 12.333605523431366], [78.24116121833973, 12.333587700606193], [78.24057290447362, 12.333764184170573], [78.23982363137324, 12.333900104042888], [78.23961681224534, 12.334076478576797], [78.23943766751646, 12.334411052609818], [78.2394379459942, 12.334989544730753], [78.2395071647801, 12.335545481870078], [78.23936939914815, 12.336015564729838], [78.23893731488636, 12.336083540764754], [78.23864329449722, 12.336395559481275], [78.23848712148677, 12.336802434586904], [78.23848732630267, 12.337227316806818], [78.2387360141093, 12.338226067298836], [78.23892050830571, 12.33967683615261], [78.23889765606319, 12.340079120028271], [78.23830477606052, 12.34032340390757], [78.23739916016808, 12.340500045282791], [78.23628673772419, 12.340590912163695], [78.23571677104948, 12.340767424357367], [78.23539970707667, 12.34116988382443], [78.2352849922149, 12.34163998379462], [78.23517486954084, 12.34221848803249], [78.23524406227563, 12.342797031359684], [78.23549267372543, 12.343533660455495], [78.23571822811687, 12.344356214219474], [78.23590263338006, 12.345581016250868], [78.23608260455903, 12.347031768925962], [78.23615190149836, 12.347876989830034], [78.23571976693093, 12.347967548768665], [78.23383490653043, 12.348031541205776], [78.23269941714668, 12.348167644098186], [78.23186278827482, 12.348213173179449], [78.23136171429753, 12.348303681982387], [78.23070433885071, 12.34857064152456], [78.22988617664615, 12.348882873519994], [78.22875996236769, 12.349140872884954], [78.2275232777672, 12.349059982109194], [78.22702669806128, 12.348906546683097], [78.22647933659236, 12.348368881822836], [78.22589060051808, 12.34752391436003], [78.22518655220237, 12.345901563007104], [78.22459770204205, 12.344672368605126], [78.22416531864128, 12.344093925951954], [78.22364114268984, 12.343714501368492], [78.2233123018037, 12.343593429455112], [78.22316289041241, 12.34353841940541], [78.22262039601569, 12.34344819854627], [78.22198598330414, 12.343516236713246], [78.22119070478313, 12.343471309691594], [78.22073552753032, 12.343381080911383], [78.21978357384062, 12.342518130335343], [78.21887293726404, 12.341316194514132], [78.21837603146969, 12.340204432183656], [78.21819613305425, 12.339619310186258], [78.21808146849813, 12.339246363437484], [78.21771797779482, 12.33837418742027], [78.2173545095494, 12.337393489106276], [78.21707817698821, 12.336105382710103], [78.21651243598858, 12.335038951486718], [78.2158960461766, 12.334080955995042], [78.21485220381646, 12.33314565044963], [78.21265740218506, 12.328821536672056], [78.21136270618014, 12.325026992276355], [78.21039168305356, 12.319967515215769], [78.21055352084021, 12.316489067967124], [78.21217189152009, 12.314275486778964], [78.21589414444315, 12.312378117117348], [78.21848353735133, 12.310322617110149], [78.21896904891463, 12.311903772120235], [78.21961639736624, 12.314117373310612], [78.22204395338606, 12.31506605356959], [78.22414783562925, 12.316172843602322], [78.22592804409578, 12.316647180884248], [78.22689906632404, 12.318544519682307], [78.22058741959451, 12.326608058676253], [78.222853138726, 12.32834722140654], [78.22495702096919, 12.3296120596224], [78.22819376322727, 12.32771480001015], [78.2306213192471, 12.325343206845558], [78.23272520149031, 12.327240482742297], [78.23434357217019, 12.32913774578723], [78.23660929130169, 12.329453954520982], [78.23855133665654, 12.32897964127732], [78.24097889267637, 12.32834722140654], [78.24525907754432, 12.330037602920846], [78.2452051624576, 12.330286447363457], [78.24520515706772, 12.33041755807322], [78.24529270148543, 12.330819735935625], [78.2456331755545, 12.331511178278923], [78.24627240682922, 12.331935737350449], [78.24708632718904, 12.332536556340767], [78.24724737984808, 12.332780510260442], [78.24722455455503, 12.333182786296584], [78.24710978938762, 12.333580593941862], [78.24695356247824, 12.333761482973024], [78.24624568823772, 12.333938062954317], [78.24509190645983, 12.33396117142846]]]}}]}