{"type": "FeatureCollection", "features": [{"type": "Feature", "properties": {"premiumdata.sde.IN_Village_PCA.area": 0.02316269, "objectid": 611843, "id": "172771976162563", "name": "Upper Gasuapara", "subdistrict": "Gasuapara", "district": "South Garo Hills", "state": "Meghalaya", "country": "India", "censusname": "Gasuapara ", "villagename_locallang": null, "lgd_villagename": "Upper Gasuapara", "lgd_villagecode": 275875, "lgd_subdistrictcode": 1976, "lgd_districtcode": 277, "lgd_statecode": 17, "censuscode2001": "00152700", "censuscode2011": "275875", "censuscode2021": null, "level": "Village", "tru": "Rural", "no_hh": 94, "tot_p": 526, "tot_m": 288, "tot_f": 238, "per_tot_m": 54.75285171, "per_tot_f": 45.24714829000001, "p_06": 81, "m_06": 39, "f_06": 42, "per_p_06": 15.39923954, "per_m_06": 48.14814815, "per_f_06": 51.85185185, "p_sc": 1, "m_sc": 1, "f_sc": 0, "per_p_sc": 0.19011407, "per_m_sc": 100.0, "per_f_sc": 0.0, "p_st": 372, "m_st": 179, "f_st": 193, "per_p_st": 70.72243346, "per_m_st": 48.11827957, "per_f_st": 51.88172043, "p_lit": 407, "m_lit": 238, "f_lit": 169, "per_p_lit": 77.37642586, "per_m_lit": 58.47665848, "per_f_lit": 41.52334152, "p_ill": 119, "m_ill": 50, "f_ill": 69, "per_p_ill": 22.62357414, "per_m_ill": 42.01680672000001, "per_f_ill": 57.98319328, "tot_work_p": 168, "tot_work_m": 148, "tot_work_f": 20, "per_tot_work_p": 31.9391635, "per_tot_work_m": 88.0952381, "per_tot_work_f": 11.9047619, "mainwork_p": 131, "mainwork_m": 118, "mainwork_f": 13, "per_mainwork_p": 24.90494297, "per_mainwork_m": 90.07633588, "per_mainwork_f": 9.92366412, "main_cl_p": 1, "main_cl_m": 1, "main_cl_f": 0, "per_main_cl_p": 0.76335878, "per_main_cl_m": 100.0, "per_main_cl_f": 0.0, "main_al_p": 6, "main_al_m": 5, "main_al_f": 1, "per_main_al_p": 4.58015267, "per_main_al_m": 83.33333332999999, "per_main_al_f": 16.66666667, "main_hh_p": 0, "main_hh_m": 0, "main_hh_f": 0, "per_main_hh_p": 0.0, "per_main_hh_m": 0.0, "per_main_hh_f": 0.0, "main_ot_p": 124, "main_ot_m": 112, "main_ot_f": 12, "per_main_ot_p": 94.65648855, "per_main_ot_m": 90.32258065, "per_main_ot_f": 9.67741935, "margwork_p": 37, "margwork_m": 30, "margwork_f": 7, "per_margwork_p": 7.03422053, "per_margwork_m": 81.08108108, "per_margwork_f": 18.91891892, "marg_cl_p": 10, "marg_cl_m": 7, "marg_cl_f": 3, "per_marg_cl_p": 27.02702703, "per_marg_cl_m": 70.0, "per_marg_cl_f": 30.0, "marg_al_p": 15, "marg_al_m": 13, "marg_al_f": 2, "per_marg_al_p": 40.54054054, "per_marg_al_m": 86.66666667, "per_marg_al_f": 13.33333333, "marg_hh_p": 0, "marg_hh_m": 0, "marg_hh_f": 0, "per_marg_hh_p": 0.0, "per_marg_hh_m": 0.0, "per_marg_hh_f": 0.0, "marg_ot_p": 12, "marg_ot_m": 10, "marg_ot_f": 2, "per_marg_ot_p": 32.43243243, "per_marg_ot_m": 83.33333332999999, "per_marg_ot_f": 16.66666667, "margwork_3_6_p": 29, "margwork_3_6_m": 24, "margwork_3_6_f": 5, "per_margwork_3_6_p": 78.37837838, "per_margwork_3_6_m": 82.75862069, "per_margwork_3_6_f": 17.24137931, "marg_cl_3_6_p": 8, "marg_cl_3_6_m": 7, "marg_cl_3_6_f": 1, "per_marg_cl_3_6_p": 21.62162162, "per_marg_cl_3_6_m": 87.5, "per_marg_cl_3_6_f": 12.5, "marg_al_3_6_p": 9, "marg_al_3_6_m": 7, "marg_al_3_6_f": 2, "per_marg_al_3_6_p": 24.32432432, "per_marg_al_3_6_m": 77.77777778, "per_marg_al_3_6_f": 22.22222222, "marg_hh_3_6_p": 0, "marg_hh_3_6_m": 0, "marg_hh_3_6_f": 0, "per_marg_hh_3_6_p": 0.0, "per_marg_hh_3_6_m": 0.0, "per_marg_hh_3_6_f": 0.0, "marg_ot_3_6_p": 12, "marg_ot_3_6_m": 10, "marg_ot_3_6_f": 2, "per_marg_ot_3_6_p": 32.43243243, "per_marg_ot_3_6_m": 83.33333332999999, "per_marg_ot_3_6_f": 16.66666667, "margwork_0_3_p": 8, "margwork_0_3_m": 6, "margwork_0_3_f": 2, "per_margwork_0_3_p": 21.62162162, "per_margwork_0_3_m": 75.0, "per_margwork_0_3_f": 25.0, "marg_cl_0_3_p": 2, "marg_cl_0_3_m": 0, "marg_cl_0_3_f": 2, "per_marg_cl_0_3_p": 5.40540541, "per_marg_cl_0_3_m": 0.0, "per_marg_cl_0_3_f": 100.0, "marg_al_0_3_p": 6, "marg_al_0_3_m": 6, "marg_al_0_3_f": 0, "per_marg_al_0_3_p": 16.21621622, "per_marg_al_0_3_m": 100.0, "per_marg_al_0_3_f": 0.0, "marg_hh_0_3_p": 0, "marg_hh_0_3_m": 0, "marg_hh_0_3_f": 0, "per_marg_hh_0_3_p": 0.0, "per_marg_hh_0_3_m": 0.0, "per_marg_hh_0_3_f": 0.0, "marg_ot_0_3_p": 0, "marg_ot_0_3_m": 0, "marg_ot_0_3_f": 0, "per_marg_ot_0_3_p": 0.0, "per_marg_ot_0_3_m": 0.0, "per_marg_ot_0_3_f": 0.0, "non_work_p": 358, "non_work_m": 140, "non_work_f": 218, "per_non_work_p": 68.0608365, "per_non_work_m": 39.10614525, "per_non_work_f": 60.89385475, "per_hc_tot_tot": 100, "per_hc_tot_god": 55.4, "per_hc_tot_liv": 44.6, "per_hc_tot_dil": 0.0, "per_hc_res_tot": 96.7, "per_hc_res_god": 53.3, "per_hc_res_liv": 43.5, "per_hc_res_dil": 0.0, "per_hc_oth_tot": 3.3, "per_hc_oth_god": 2.2, "per_hc_oth_liv": 1.1, "per_hc_oth_dil": 0.0, "per_mt_grsbam": 0.0, "per_mt_plastic": 0.0, "per_mt_h_tiles": 0.0, "per_mt_m_tiles": 0.0, "per_mt_b_brick": 0.0, "per_mt_stone": 0.0, "per_mt_asbstos": 100.0, "per_mt_concrte": 0.0, "per_mt_oth": 0.0, "per_mw_grsbam": 73.9, "per_mw_plastic": 0.0, "per_mw_mud": 0.0, "per_mw_wood": 0.0, "per_mw_no_mrtr": 0.0, "per_mw_st_mrtr": 0.0, "per_mw_asbstos": 1.1, "per_mw_b_brick": 16.3, "per_mw_concrte": 0.0, "per_mw_oth": 8.7, "per_mf_mud": 51.1, "per_mf_wood": 4.3, "per_mf_b_brick": 0.0, "per_mf_stone": 0.0, "per_mf_cement": 44.6, "per_mf_fl_tile": 0.0, "per_mf_oth": 0.0, "per_dw_n_exrm": 0.0, "per_dw_1_room": 41.3, "per_dw_2_room": 26.1, "per_dw_3_room": 18.5, "per_dw_4_room": 4.3, "per_dw_5_room": 4.3, "per_dw_6_room": 5.4, "per_hhsize_1": 8.7, "per_hhsize_2": 8.7, "per_hhsize_3": 9.8, "per_hhsize_4": 14.1, "per_hhsize_5": 17.4, "per_hhsize_6_8": 33.7, "per_hhsize_9p": 7.6, "per_ow_owned": 95.7, "per_ow_rented": 1.1, "per_ow_oth": 3.3, "per_mc_none": 25.0, "per_mcouple_1": 59.8, "per_mcouple_2": 12.0, "per_mcouple_3": 3.3, "per_mcouple_4": 0.0, "per_mcouple_5p": 0.0, "per_dw_t_ts": 15.2, "per_dw_t_unts": 12.0, "per_dw_c_well": 5.4, "per_dw_unc_wel": 50.0, "per_dw_hpump": 2.2, "per_dw_tw_bore": 0.0, "per_dw_spring": 9.8, "per_dw_rivcan": 0.0, "per_dw_tank": 1.1, "per_dw_oth": 4.3, "per_loc_dw_wp": 34.8, "per_loc_dw_np": 41.3, "per_loc_dw_aw": 23.9, "per_light_elec": 79.3, "per_light_kero": 20.7, "per_light_solr": 0.0, "per_light_oil": 0.0, "per_light_oth": 0.0, "per_light_no": 0.0, "per_hh_latrine": 90.2, "per_fl_sewer": 1.1, "per_fl_septict": 29.3, "per_fl_othsys": 5.4, "per_pl_wslab": 46.7, "per_pl_without": 7.6, "per_ns_open": 0.0, "per_sl_ns_hum": 0.0, "per_sl_ns_anml": 0.0, "per_hh_no_lat": 9.8, "per_as_pub": 6.5, "per_as_open": 3.3, "per_hh_bathrm": 16.3, "per_hh_en_wrf": 0.0, "per_hh_no_btrm": 83.7, "per_wwoc_drain": 2.2, "per_wwoc_open": 2.2, "per_wwoc_nodrn": 95.7, "per_cook_fire": 97.8, "per_cook_resdu": 1.1, "per_cook_cwdng": 0.0, "per_cook_coal": 0.0, "per_cook_kero": 0.0, "per_cook_lpng": 1.1, "per_cook_elec": 0.0, "per_cook_biogs": 0.0, "per_cook_oth": 0.0, "per_cook_no": 0.0, "per_kf_inside": 95.7, "per_kf_in_has": 93.5, "per_kf_in_does": 2.2, "per_kf_outside": 4.3, "per_kf_out_has": 3.3, "per_kf_out_dos": 1.1, "per_kf_no_cook": 0.0, "per_hh_banking": 100.0, "per_hh_radio": 9.8, "per_hh_tv": 47.8, "per_hh_cmp_int": 0.0, "per_hh_cmp_wnt": 2.2, "per_hh_ph_ll": 1.1, "per_hh_ph_mob": 33.7, "per_hh_ph_bth": 0.0, "per_hh_bcycl": 5.4, "per_hh_2wheel": 13.0, "per_hh_4wheel": 2.2, "per_hh_tvcomp": 1.1, "per_hh_no_ast": 39.1, "per_hs_perma": 17.4, "per_hs_sperma": 73.9, "per_hs_temp": 0.0, "per_hs_servc": 0.0, "per_hs_nservc": 0.0, "per_hs_unclss": 8.7, "avghhsz_cy": 5.59574468, "st_areashape": 31363.87350204, "st_lengthshape": 628.0581775956349}, "geometry": {"type": "Polygon", "coordinates": [[[90.32987296962733, 25.21232921195422], [90.32978352617113, 25.21232517346079], [90.32969497204702, 25.212313096991085], [90.32960818670577, 25.2122931044534], [90.32952403252995, 25.212265392526486], [90.32944334674941, 25.212230238348805], [90.32936693066146, 25.212187989766], [90.32929554334248, 25.212139066956727], [90.32922989535983, 25.21208395755652], [90.32917063889043, 25.212023207718026], [90.32911836143248, 25.21195742129874], [90.32907358400882, 25.21188725335936], [90.32903675128553, 25.211813399598785], [90.32900822977525, 25.211736594728617], [90.328988301549, 25.211657602720933], [90.32897716603273, 25.211577207868114], [90.32897493371927, 25.211496209093998], [90.32898162616812, 25.211415411826444], [90.328997176904, 25.21133561905714], [90.329021432315, 25.211257623214326], [90.32905414985595, 25.2111822004732], [90.3290950061334, 25.211110099377393], [90.32914359331214, 25.21104203677502], [90.32919942989527, 25.210978689690823], [90.32926195982556, 25.210920687198424], [90.3293305632655, 25.210868605543318], [90.32940455659714, 25.210822963266178], [90.3294832049986, 25.210784213074866], [90.32956572783385, 25.210752740218588], [90.32965130404276, 25.21072885842386], [90.32973908292077, 25.21071280339221], [90.32982819220368, 25.210704736050904], [90.32991774705098, 25.210704736050904], [90.3300068563339, 25.21071280339221], [90.33009463521188, 25.21072885842386], [90.3301802114208, 25.210752740218588], [90.33026273425605, 25.210784213074866], [90.33034138265751, 25.210822963266178], [90.33041537598912, 25.210868605543318], [90.33048397942906, 25.210920687198424], [90.33054650935935, 25.210978689690823], [90.33060234594248, 25.21104203677502], [90.33065093312125, 25.211110099377393], [90.33069178939871, 25.2111822004732], [90.33072450693966, 25.211257623214326], [90.33074876235067, 25.21133561905714], [90.3307643130865, 25.211415411826444], [90.33077100553538, 25.211496209093998], [90.3307687732219, 25.211577207868114], [90.33075763770564, 25.211657602720933], [90.33073770947941, 25.211736594728617], [90.33070918796912, 25.211813399598785], [90.33067235524584, 25.21188725335936], [90.33062757782218, 25.21195742129874], [90.33057530036423, 25.212023207718026], [90.33051604389483, 25.21208395755652], [90.33045039591218, 25.212139066956727], [90.33037900859316, 25.212187989766], [90.3303025925052, 25.212230238348805], [90.33022190672472, 25.212265392526486], [90.3301377525489, 25.2122931044534], [90.3300509672076, 25.212313096991085], [90.32996241308352, 25.21232517346079], [90.32987296962733, 25.21232921195422]]]}}]}