{"type": "FeatureCollection", "features": [{"type": "Feature", "properties": {"premiumdata.sde.IN_Village_PCA.area": 3.48234509, "objectid": 258391, "id": "234256984569021", "name": "Sagoni Bhat", "subdistrict": "Jaisinagar", "district": "Sagar", "state": "Madhya Pradesh", "country": "India", "censusname": "Sagoni Bhat", "villagename_locallang": null, "lgd_villagename": "Sagoni Bhat", "lgd_villagecode": 460802, "lgd_subdistrictcode": 6984, "lgd_districtcode": 425, "lgd_statecode": 23, "censuscode2001": "01170100", "censuscode2011": "460802", "censuscode2021": null, "level": "Village", "tru": "Rural", "no_hh": 120, "tot_p": 556, "tot_m": 322, "tot_f": 234, "per_tot_m": 57.91366906, "per_tot_f": 42.08633094, "p_06": 85, "m_06": 53, "f_06": 32, "per_p_06": 15.28776978, "per_m_06": 62.35294118, "per_f_06": 37.64705882, "p_sc": 153, "m_sc": 101, "f_sc": 52, "per_p_sc": 27.51798561, "per_m_sc": 66.0130719, "per_f_sc": 33.9869281, "p_st": 37, "m_st": 16, "f_st": 21, "per_p_st": 6.65467626, "per_m_st": 43.24324324, "per_f_st": 56.75675676, "p_lit": 320, "m_lit": 203, "f_lit": 117, "per_p_lit": 57.55395683, "per_m_lit": 63.4375, "per_f_lit": 36.5625, "p_ill": 236, "m_ill": 119, "f_ill": 117, "per_p_ill": 42.44604317, "per_m_ill": 50.42372881, "per_f_ill": 49.57627119, "tot_work_p": 254, "tot_work_m": 164, "tot_work_f": 90, "per_tot_work_p": 45.68345324, "per_tot_work_m": 64.56692913, "per_tot_work_f": 35.43307087, "mainwork_p": 97, "mainwork_m": 92, "mainwork_f": 5, "per_mainwork_p": 17.44604317, "per_mainwork_m": 94.84536082, "per_mainwork_f": 5.15463918, "main_cl_p": 73, "main_cl_m": 70, "main_cl_f": 3, "per_main_cl_p": 75.25773196, "per_main_cl_m": 95.89041096, "per_main_cl_f": 4.10958904, "main_al_p": 11, "main_al_m": 10, "main_al_f": 1, "per_main_al_p": 11.34020619, "per_main_al_m": 90.90909091, "per_main_al_f": 9.09090909, "main_hh_p": 1, "main_hh_m": 1, "main_hh_f": 0, "per_main_hh_p": 1.03092784, "per_main_hh_m": 100.0, "per_main_hh_f": 0.0, "main_ot_p": 12, "main_ot_m": 11, "main_ot_f": 1, "per_main_ot_p": 12.37113402, "per_main_ot_m": 91.66666667, "per_main_ot_f": 8.33333333, "margwork_p": 157, "margwork_m": 72, "margwork_f": 85, "per_margwork_p": 28.23741007, "per_margwork_m": 45.85987261, "per_margwork_f": 54.14012739, "marg_cl_p": 8, "marg_cl_m": 7, "marg_cl_f": 1, "per_marg_cl_p": 5.0955414, "per_marg_cl_m": 87.5, "per_marg_cl_f": 12.5, "marg_al_p": 36, "marg_al_m": 12, "marg_al_f": 24, "per_marg_al_p": 22.92993631, "per_marg_al_m": 33.33333333, "per_marg_al_f": 66.66666667, "marg_hh_p": 41, "marg_hh_m": 6, "marg_hh_f": 35, "per_marg_hh_p": 26.11464968, "per_marg_hh_m": 14.63414634, "per_marg_hh_f": 85.36585366, "marg_ot_p": 72, "marg_ot_m": 47, "marg_ot_f": 25, "per_marg_ot_p": 45.85987261, "per_marg_ot_m": 65.27777778, "per_marg_ot_f": 34.72222222, "margwork_3_6_p": 79, "margwork_3_6_m": 37, "margwork_3_6_f": 42, "per_margwork_3_6_p": 50.31847134, "per_margwork_3_6_m": 46.83544304, "per_margwork_3_6_f": 53.16455696, "marg_cl_3_6_p": 6, "marg_cl_3_6_m": 6, "marg_cl_3_6_f": 0, "per_marg_cl_3_6_p": 3.82165605, "per_marg_cl_3_6_m": 100.0, "per_marg_cl_3_6_f": 0.0, "marg_al_3_6_p": 24, "marg_al_3_6_m": 7, "marg_al_3_6_f": 17, "per_marg_al_3_6_p": 15.2866242, "per_marg_al_3_6_m": 29.16666667, "per_marg_al_3_6_f": 70.83333332999999, "marg_hh_3_6_p": 20, "marg_hh_3_6_m": 3, "marg_hh_3_6_f": 17, "per_marg_hh_3_6_p": 12.7388535, "per_marg_hh_3_6_m": 15.0, "per_marg_hh_3_6_f": 85.0, "marg_ot_3_6_p": 29, "marg_ot_3_6_m": 21, "marg_ot_3_6_f": 8, "per_marg_ot_3_6_p": 18.47133758, "per_marg_ot_3_6_m": 72.4137931, "per_marg_ot_3_6_f": 27.5862069, "margwork_0_3_p": 78, "margwork_0_3_m": 35, "margwork_0_3_f": 43, "per_margwork_0_3_p": 49.68152866, "per_margwork_0_3_m": 44.87179487, "per_margwork_0_3_f": 55.12820513, "marg_cl_0_3_p": 2, "marg_cl_0_3_m": 1, "marg_cl_0_3_f": 1, "per_marg_cl_0_3_p": 1.27388535, "per_marg_cl_0_3_m": 50.0, "per_marg_cl_0_3_f": 50.0, "marg_al_0_3_p": 12, "marg_al_0_3_m": 5, "marg_al_0_3_f": 7, "per_marg_al_0_3_p": 7.6433121, "per_marg_al_0_3_m": 41.66666667000001, "per_marg_al_0_3_f": 58.33333333, "marg_hh_0_3_p": 21, "marg_hh_0_3_m": 3, "marg_hh_0_3_f": 18, "per_marg_hh_0_3_p": 13.37579618, "per_marg_hh_0_3_m": 14.28571429, "per_marg_hh_0_3_f": 85.71428571, "marg_ot_0_3_p": 43, "marg_ot_0_3_m": 26, "marg_ot_0_3_f": 17, "per_marg_ot_0_3_p": 27.38853503, "per_marg_ot_0_3_m": 60.46511628, "per_marg_ot_0_3_f": 39.53488372, "non_work_p": 302, "non_work_m": 158, "non_work_f": 144, "per_non_work_p": 54.31654676, "per_non_work_m": 52.31788079, "per_non_work_f": 47.68211921, "per_hc_tot_tot": 100, "per_hc_tot_god": 8.3, "per_hc_tot_liv": 61.7, "per_hc_tot_dil": 30.0, "per_hc_res_tot": 100.0, "per_hc_res_god": 8.3, "per_hc_res_liv": 61.7, "per_hc_res_dil": 30.0, "per_hc_oth_tot": 0.0, "per_hc_oth_god": 0.0, "per_hc_oth_liv": 0.0, "per_hc_oth_dil": 0.0, "per_mt_grsbam": 5.0, "per_mt_plastic": 0.0, "per_mt_h_tiles": 89.2, "per_mt_m_tiles": 0.0, "per_mt_b_brick": 0.0, "per_mt_stone": 5.0, "per_mt_asbstos": 0.0, "per_mt_concrte": 0.8, "per_mt_oth": 0.0, "per_mw_grsbam": 12.5, "per_mw_plastic": 0.0, "per_mw_mud": 58.3, "per_mw_wood": 6.7, "per_mw_no_mrtr": 0.8, "per_mw_st_mrtr": 0.0, "per_mw_asbstos": 0.0, "per_mw_b_brick": 21.7, "per_mw_concrte": 0.0, "per_mw_oth": 0.0, "per_mf_mud": 89.2, "per_mf_wood": 0.0, "per_mf_b_brick": 4.2, "per_mf_stone": 0.8, "per_mf_cement": 5.8, "per_mf_fl_tile": 0.0, "per_mf_oth": 0.0, "per_dw_n_exrm": 3.3, "per_dw_1_room": 83.3, "per_dw_2_room": 11.7, "per_dw_3_room": 1.7, "per_dw_4_room": 0.0, "per_dw_5_room": 0.0, "per_dw_6_room": 0.0, "per_hhsize_1": 5.0, "per_hhsize_2": 15.8, "per_hhsize_3": 15.0, "per_hhsize_4": 16.7, "per_hhsize_5": 16.7, "per_hhsize_6_8": 23.3, "per_hhsize_9p": 7.5, "per_ow_owned": 75.0, "per_ow_rented": 0.0, "per_ow_oth": 25.0, "per_mc_none": 18.3, "per_mcouple_1": 75.8, "per_mcouple_2": 4.2, "per_mcouple_3": 1.7, "per_mcouple_4": 0.0, "per_mcouple_5p": 0.0, "per_dw_t_ts": 0.0, "per_dw_t_unts": 0.0, "per_dw_c_well": 3.3, "per_dw_unc_wel": 55.0, "per_dw_hpump": 41.7, "per_dw_tw_bore": 0.0, "per_dw_spring": 0.0, "per_dw_rivcan": 0.0, "per_dw_tank": 0.0, "per_dw_oth": 0.0, "per_loc_dw_wp": 2.5, "per_loc_dw_np": 97.5, "per_loc_dw_aw": 0.0, "per_light_elec": 76.7, "per_light_kero": 23.3, "per_light_solr": 0.0, "per_light_oil": 0.0, "per_light_oth": 0.0, "per_light_no": 0.0, "per_hh_latrine": 1.7, "per_fl_sewer": 0.0, "per_fl_septict": 0.8, "per_fl_othsys": 0.0, "per_pl_wslab": 0.0, "per_pl_without": 0.0, "per_ns_open": 0.0, "per_sl_ns_hum": 0.0, "per_sl_ns_anml": 0.8, "per_hh_no_lat": 98.3, "per_as_pub": 0.0, "per_as_open": 98.3, "per_hh_bathrm": 1.7, "per_hh_en_wrf": 4.2, "per_hh_no_btrm": 94.2, "per_wwoc_drain": 0.0, "per_wwoc_open": 3.3, "per_wwoc_nodrn": 96.7, "per_cook_fire": 97.5, "per_cook_resdu": 0.8, "per_cook_cwdng": 0.0, "per_cook_coal": 0.0, "per_cook_kero": 0.0, "per_cook_lpng": 0.0, "per_cook_elec": 0.0, "per_cook_biogs": 1.7, "per_cook_oth": 0.0, "per_cook_no": 0.0, "per_kf_inside": 97.5, "per_kf_in_has": 5.0, "per_kf_in_does": 92.5, "per_kf_outside": 2.5, "per_kf_out_has": 1.7, "per_kf_out_dos": 0.8, "per_kf_no_cook": 0.0, "per_hh_banking": 25.0, "per_hh_radio": 3.3, "per_hh_tv": 10.0, "per_hh_cmp_int": 0.0, "per_hh_cmp_wnt": 2.5, "per_hh_ph_ll": 0.0, "per_hh_ph_mob": 14.2, "per_hh_ph_bth": 0.0, "per_hh_bcycl": 1.7, "per_hh_2wheel": 3.3, "per_hh_4wheel": 0.0, "per_hh_tvcomp": 0.8, "per_hh_no_ast": 76.7, "per_hs_perma": 22.5, "per_hs_sperma": 72.5, "per_hs_temp": 5.0, "per_hs_servc": 0.0, "per_hs_nservc": 5.0, "per_hs_unclss": 0.0, "avghhsz_cy": 4.63333333, "st_areashape": 4166548.29990751, "st_lengthshape": 9320.331349846163}, "geometry": {"type": "Polygon", "coordinates": [[[78.55663999972595, 23.62164000049585], [78.55588999988849, 23.618640000233388], [78.55085999933773, 23.616949999436578], [78.55007000021564, 23.61667000013172], [78.54958999981665, 23.615949999995024], [78.54957999977087, 23.615230000017874], [78.54935000051543, 23.60946000007703], [78.54844999999182, 23.606850000061428], [78.5512299992336, 23.605349999748498], [78.55262000020197, 23.603310000725248], [78.55344000035963, 23.594899999917146], [78.55340000017664, 23.591469999935416], [78.55713999931817, 23.594849999495906], [78.56221000005188, 23.601380000383468], [78.56538000017932, 23.606440000149195], [78.56905000079725, 23.608239999798016], [78.56363000025915, 23.615450000293404], [78.55836000040722, 23.621439999981707], [78.55742999974638, 23.621879999886744], [78.55663999972595, 23.62164000049585]]]}}]}