{"type": "FeatureCollection", "features": [{"type": "Feature", "properties": {"premiumdata.sde.IN_Village_PCA.area": 2.55992243, "objectid": 628384, "id": "186122114222168", "name": "Goragaon", "subdistrict": "Sidli (Pt)", "district": "Chirang", "state": "Assam", "country": "India", "censusname": "Goragaon", "villagename_locallang": null, "lgd_villagename": "Goragaon", "lgd_villagecode": 301938, "lgd_subdistrictcode": 2114, "lgd_districtcode": 612, "lgd_statecode": 18, "censuscode2001": "00395200", "censuscode2011": "301938", "censuscode2021": null, "level": "Village", "tru": "Rural", "no_hh": 182, "tot_p": 909, "tot_m": 457, "tot_f": 452, "per_tot_m": 50.2750275, "per_tot_f": 49.7249725, "p_06": 149, "m_06": 78, "f_06": 71, "per_p_06": 16.39163916, "per_m_06": 52.34899329, "per_f_06": 47.65100671, "p_sc": 0, "m_sc": 0, "f_sc": 0, "per_p_sc": 0.0, "per_m_sc": 0.0, "per_f_sc": 0.0, "p_st": 45, "m_st": 19, "f_st": 26, "per_p_st": 4.95049505, "per_m_st": 42.22222222, "per_f_st": 57.77777778, "p_lit": 513, "m_lit": 295, "f_lit": 218, "per_p_lit": 56.43564356, "per_m_lit": 57.50487329000001, "per_f_lit": 42.49512671, "p_ill": 396, "m_ill": 162, "f_ill": 234, "per_p_ill": 43.56435644, "per_m_ill": 40.90909091, "per_f_ill": 59.09090909, "tot_work_p": 397, "tot_work_m": 206, "tot_work_f": 191, "per_tot_work_p": 43.67436744, "per_tot_work_m": 51.88916877, "per_tot_work_f": 48.11083123, "mainwork_p": 155, "mainwork_m": 84, "mainwork_f": 71, "per_mainwork_p": 17.05170517, "per_mainwork_m": 54.19354839, "per_mainwork_f": 45.80645161, "main_cl_p": 105, "main_cl_m": 52, "main_cl_f": 53, "per_main_cl_p": 67.74193548, "per_main_cl_m": 49.52380952, "per_main_cl_f": 50.47619048, "main_al_p": 19, "main_al_m": 12, "main_al_f": 7, "per_main_al_p": 12.25806452, "per_main_al_m": 63.15789474, "per_main_al_f": 36.84210526, "main_hh_p": 5, "main_hh_m": 4, "main_hh_f": 1, "per_main_hh_p": 3.22580645, "per_main_hh_m": 80.0, "per_main_hh_f": 20.0, "main_ot_p": 26, "main_ot_m": 16, "main_ot_f": 10, "per_main_ot_p": 16.77419355, "per_main_ot_m": 61.53846154, "per_main_ot_f": 38.46153846, "margwork_p": 242, "margwork_m": 122, "margwork_f": 120, "per_margwork_p": 26.62266227, "per_margwork_m": 50.41322314000001, "per_margwork_f": 49.58677686, "marg_cl_p": 46, "marg_cl_m": 16, "marg_cl_f": 30, "per_marg_cl_p": 19.00826446, "per_marg_cl_m": 34.7826087, "per_marg_cl_f": 65.2173913, "marg_al_p": 96, "marg_al_m": 43, "marg_al_f": 53, "per_marg_al_p": 39.66942149, "per_marg_al_m": 44.79166667000001, "per_marg_al_f": 55.20833333, "marg_hh_p": 9, "marg_hh_m": 5, "marg_hh_f": 4, "per_marg_hh_p": 3.71900826, "per_marg_hh_m": 55.55555556, "per_marg_hh_f": 44.44444444000001, "marg_ot_p": 91, "marg_ot_m": 58, "marg_ot_f": 33, "per_marg_ot_p": 37.60330579, "per_marg_ot_m": 63.73626374, "per_marg_ot_f": 36.26373626, "margwork_3_6_p": 183, "margwork_3_6_m": 83, "margwork_3_6_f": 100, "per_margwork_3_6_p": 75.61983471, "per_margwork_3_6_m": 45.35519126, "per_margwork_3_6_f": 54.64480874, "marg_cl_3_6_p": 46, "marg_cl_3_6_m": 16, "marg_cl_3_6_f": 30, "per_marg_cl_3_6_p": 19.00826446, "per_marg_cl_3_6_m": 34.7826087, "per_marg_cl_3_6_f": 65.2173913, "marg_al_3_6_p": 95, "marg_al_3_6_m": 42, "marg_al_3_6_f": 53, "per_marg_al_3_6_p": 39.25619835000001, "per_marg_al_3_6_m": 44.21052632000001, "per_marg_al_3_6_f": 55.78947368, "marg_hh_3_6_p": 6, "marg_hh_3_6_m": 3, "marg_hh_3_6_f": 3, "per_marg_hh_3_6_p": 2.47933884, "per_marg_hh_3_6_m": 50.0, "per_marg_hh_3_6_f": 50.0, "marg_ot_3_6_p": 36, "marg_ot_3_6_m": 22, "marg_ot_3_6_f": 14, "per_marg_ot_3_6_p": 14.87603306, "per_marg_ot_3_6_m": 61.11111111, "per_marg_ot_3_6_f": 38.88888889, "margwork_0_3_p": 59, "margwork_0_3_m": 39, "margwork_0_3_f": 20, "per_margwork_0_3_p": 24.38016529, "per_margwork_0_3_m": 66.10169492, "per_margwork_0_3_f": 33.89830508, "marg_cl_0_3_p": 0, "marg_cl_0_3_m": 0, "marg_cl_0_3_f": 0, "per_marg_cl_0_3_p": 0.0, "per_marg_cl_0_3_m": 0.0, "per_marg_cl_0_3_f": 0.0, "marg_al_0_3_p": 1, "marg_al_0_3_m": 1, "marg_al_0_3_f": 0, "per_marg_al_0_3_p": 0.41322314, "per_marg_al_0_3_m": 100.0, "per_marg_al_0_3_f": 0.0, "marg_hh_0_3_p": 3, "marg_hh_0_3_m": 2, "marg_hh_0_3_f": 1, "per_marg_hh_0_3_p": 1.23966942, "per_marg_hh_0_3_m": 66.66666667, "per_marg_hh_0_3_f": 33.33333333, "marg_ot_0_3_p": 55, "marg_ot_0_3_m": 36, "marg_ot_0_3_f": 19, "per_marg_ot_0_3_p": 22.72727273, "per_marg_ot_0_3_m": 65.45454545, "per_marg_ot_0_3_f": 34.54545455, "non_work_p": 512, "non_work_m": 251, "non_work_f": 261, "per_non_work_p": 56.32563256, "per_non_work_m": 49.0234375, "per_non_work_f": 50.9765625, "per_hc_tot_tot": 100, "per_hc_tot_god": 43.9, "per_hc_tot_liv": 48.9, "per_hc_tot_dil": 7.2, "per_hc_res_tot": 100.0, "per_hc_res_god": 43.9, "per_hc_res_liv": 48.9, "per_hc_res_dil": 7.2, "per_hc_oth_tot": 0.0, "per_hc_oth_god": 0.0, "per_hc_oth_liv": 0.0, "per_hc_oth_dil": 0.0, "per_mt_grsbam": 15.6, "per_mt_plastic": 6.7, "per_mt_h_tiles": 0.0, "per_mt_m_tiles": 2.2, "per_mt_b_brick": 0.0, "per_mt_stone": 0.0, "per_mt_asbstos": 75.6, "per_mt_concrte": 0.0, "per_mt_oth": 0.0, "per_mw_grsbam": 71.1, "per_mw_plastic": 0.6, "per_mw_mud": 2.2, "per_mw_wood": 0.0, "per_mw_no_mrtr": 0.6, "per_mw_st_mrtr": 0.0, "per_mw_asbstos": 0.0, "per_mw_b_brick": 10.0, "per_mw_concrte": 15.6, "per_mw_oth": 0.0, "per_mf_mud": 83.3, "per_mf_wood": 2.2, "per_mf_b_brick": 0.0, "per_mf_stone": 0.0, "per_mf_cement": 14.4, "per_mf_fl_tile": 0.0, "per_mf_oth": 0.0, "per_dw_n_exrm": 0.0, "per_dw_1_room": 15.6, "per_dw_2_room": 38.9, "per_dw_3_room": 26.7, "per_dw_4_room": 6.7, "per_dw_5_room": 5.6, "per_dw_6_room": 6.7, "per_hhsize_1": 0.6, "per_hhsize_2": 6.7, "per_hhsize_3": 15.6, "per_hhsize_4": 18.9, "per_hhsize_5": 25.6, "per_hhsize_6_8": 27.8, "per_hhsize_9p": 5.0, "per_ow_owned": 97.8, "per_ow_rented": 1.7, "per_ow_oth": 0.6, "per_mc_none": 3.3, "per_mcouple_1": 38.3, "per_mcouple_2": 56.1, "per_mcouple_3": 1.7, "per_mcouple_4": 0.6, "per_mcouple_5p": 0.0, "per_dw_t_ts": 0.0, "per_dw_t_unts": 0.0, "per_dw_c_well": 1.1, "per_dw_unc_wel": 44.4, "per_dw_hpump": 50.6, "per_dw_tw_bore": 0.6, "per_dw_spring": 0.0, "per_dw_rivcan": 3.3, "per_dw_tank": 0.0, "per_dw_oth": 0.0, "per_loc_dw_wp": 53.9, "per_loc_dw_np": 17.2, "per_loc_dw_aw": 28.9, "per_light_elec": 41.7, "per_light_kero": 56.1, "per_light_solr": 2.2, "per_light_oil": 0.0, "per_light_oth": 0.0, "per_light_no": 0.0, "per_hh_latrine": 14.4, "per_fl_sewer": 8.3, "per_fl_septict": 1.7, "per_fl_othsys": 0.6, "per_pl_wslab": 0.0, "per_pl_without": 0.6, "per_ns_open": 0.0, "per_sl_ns_hum": 0.0, "per_sl_ns_anml": 3.3, "per_hh_no_lat": 85.6, "per_as_pub": 18.9, "per_as_open": 66.7, "per_hh_bathrm": 7.2, "per_hh_en_wrf": 1.7, "per_hh_no_btrm": 91.1, "per_wwoc_drain": 7.8, "per_wwoc_open": 4.4, "per_wwoc_nodrn": 87.8, "per_cook_fire": 87.8, "per_cook_resdu": 2.2, "per_cook_cwdng": 0.0, "per_cook_coal": 0.0, "per_cook_kero": 0.0, "per_cook_lpng": 10.0, "per_cook_elec": 0.0, "per_cook_biogs": 0.0, "per_cook_oth": 0.0, "per_cook_no": 0.0, "per_kf_inside": 95.6, "per_kf_in_has": 93.9, "per_kf_in_does": 1.7, "per_kf_outside": 4.4, "per_kf_out_has": 2.8, "per_kf_out_dos": 1.7, "per_kf_no_cook": 0.0, "per_hh_banking": 28.9, "per_hh_radio": 1.7, "per_hh_tv": 13.3, "per_hh_cmp_int": 0.0, "per_hh_cmp_wnt": 1.1, "per_hh_ph_ll": 0.0, "per_hh_ph_mob": 35.6, "per_hh_ph_bth": 0.0, "per_hh_bcycl": 45.6, "per_hh_2wheel": 7.8, "per_hh_4wheel": 0.6, "per_hh_tvcomp": 0.6, "per_hh_no_ast": 41.7, "per_hs_perma": 26.1, "per_hs_sperma": 51.7, "per_hs_temp": 22.2, "per_hs_servc": 1.7, "per_hs_nservc": 20.6, "per_hs_unclss": 0.0, "avghhsz_cy": 4.99450549, "st_areashape": 3211456.52348089, "st_lengthshape": 8472.925074053657}, "geometry": {"type": "Polygon", "coordinates": [[[90.36438615390998, 26.539337259078547], [90.3653844085661, 26.534106321465128], [90.3694400029349, 26.53307999742471], [90.38135648575877, 26.532830446179812], [90.38390659893284, 26.532830446179812], [90.38234554166635, 26.536738317544092], [90.38245704594931, 26.539032702894687], [90.38435261516634, 26.541426795418015], [90.38613668010038, 26.542723574873484], [90.3874747296992, 26.543521585589385], [90.38870127411678, 26.54581583607329], [90.39148887580082, 26.548209787018823], [90.38847826555089, 26.548209787018823], [90.38502163996574, 26.548209787018823], [90.37978094854826, 26.54830953409128], [90.37821989128182, 26.546713573734962], [90.37699334686424, 26.54541683939061], [90.37420574518019, 26.543621336739417], [90.37152964688084, 26.54262382374633], [90.37008009479565, 26.541726054073], [90.36863054181218, 26.54082827737318], [90.36438615390998, 26.539337259078547]]]}}]}