{"type": "FeatureCollection", "features": [{"type": "Feature", "properties": {"premiumdata.sde.IN_Village_PCA.area": 0.73021711, "objectid": 151930, "id": "285194773671057", "name": "Gittangi", "subdistrict": "Pathapatnam", "district": "Srikakulam", "state": "Andhra Pradesh", "country": "India", "censusname": "Gittangi", "villagename_locallang": null, "lgd_villagename": "Gittangi", "lgd_villagecode": 580176, "lgd_subdistrictcode": 4773, "lgd_districtcode": 519, "lgd_statecode": 28, "censuscode2001": "01118000", "censuscode2011": "580176", "censuscode2021": null, "level": "Village", "tru": "Rural", "no_hh": 54, "tot_p": 198, "tot_m": 97, "tot_f": 101, "per_tot_m": 48.98989899, "per_tot_f": 51.01010101, "p_06": 30, "m_06": 16, "f_06": 14, "per_p_06": 15.15151515, "per_m_06": 53.33333333, "per_f_06": 46.66666667000001, "p_sc": 0, "m_sc": 0, "f_sc": 0, "per_p_sc": 0.0, "per_m_sc": 0.0, "per_f_sc": 0.0, "p_st": 196, "m_st": 96, "f_st": 100, "per_p_st": 98.98989899, "per_m_st": 48.97959184, "per_f_st": 51.02040816, "p_lit": 73, "m_lit": 49, "f_lit": 24, "per_p_lit": 36.86868687, "per_m_lit": 67.12328767, "per_f_lit": 32.87671233, "p_ill": 125, "m_ill": 48, "f_ill": 77, "per_p_ill": 63.13131313, "per_m_ill": 38.4, "per_f_ill": 61.6, "tot_work_p": 158, "tot_work_m": 77, "tot_work_f": 81, "per_tot_work_p": 79.7979798, "per_tot_work_m": 48.73417722, "per_tot_work_f": 51.26582278, "mainwork_p": 31, "mainwork_m": 27, "mainwork_f": 4, "per_mainwork_p": 15.65656566, "per_mainwork_m": 87.09677419, "per_mainwork_f": 12.90322581, "main_cl_p": 0, "main_cl_m": 0, "main_cl_f": 0, "per_main_cl_p": 0.0, "per_main_cl_m": 0.0, "per_main_cl_f": 0.0, "main_al_p": 30, "main_al_m": 27, "main_al_f": 3, "per_main_al_p": 96.77419355, "per_main_al_m": 90.0, "per_main_al_f": 10.0, "main_hh_p": 0, "main_hh_m": 0, "main_hh_f": 0, "per_main_hh_p": 0.0, "per_main_hh_m": 0.0, "per_main_hh_f": 0.0, "main_ot_p": 1, "main_ot_m": 0, "main_ot_f": 1, "per_main_ot_p": 3.22580645, "per_main_ot_m": 0.0, "per_main_ot_f": 100.0, "margwork_p": 127, "margwork_m": 50, "margwork_f": 77, "per_margwork_p": 64.14141414000001, "per_margwork_m": 39.37007874, "per_margwork_f": 60.62992126, "marg_cl_p": 0, "marg_cl_m": 0, "marg_cl_f": 0, "per_marg_cl_p": 0.0, "per_marg_cl_m": 0.0, "per_marg_cl_f": 0.0, "marg_al_p": 124, "marg_al_m": 48, "marg_al_f": 76, "per_marg_al_p": 97.63779528, "per_marg_al_m": 38.70967742, "per_marg_al_f": 61.29032258, "marg_hh_p": 1, "marg_hh_m": 1, "marg_hh_f": 0, "per_marg_hh_p": 0.78740157, "per_marg_hh_m": 100.0, "per_marg_hh_f": 0.0, "marg_ot_p": 2, "marg_ot_m": 1, "marg_ot_f": 1, "per_marg_ot_p": 1.57480315, "per_marg_ot_m": 50.0, "per_marg_ot_f": 50.0, "margwork_3_6_p": 103, "margwork_3_6_m": 39, "margwork_3_6_f": 64, "per_margwork_3_6_p": 81.1023622, "per_margwork_3_6_m": 37.86407767, "per_margwork_3_6_f": 62.13592233, "marg_cl_3_6_p": 0, "marg_cl_3_6_m": 0, "marg_cl_3_6_f": 0, "per_marg_cl_3_6_p": 0.0, "per_marg_cl_3_6_m": 0.0, "per_marg_cl_3_6_f": 0.0, "marg_al_3_6_p": 103, "marg_al_3_6_m": 39, "marg_al_3_6_f": 64, "per_marg_al_3_6_p": 81.1023622, "per_marg_al_3_6_m": 37.86407767, "per_marg_al_3_6_f": 62.13592233, "marg_hh_3_6_p": 0, "marg_hh_3_6_m": 0, "marg_hh_3_6_f": 0, "per_marg_hh_3_6_p": 0.0, "per_marg_hh_3_6_m": 0.0, "per_marg_hh_3_6_f": 0.0, "marg_ot_3_6_p": 0, "marg_ot_3_6_m": 0, "marg_ot_3_6_f": 0, "per_marg_ot_3_6_p": 0.0, "per_marg_ot_3_6_m": 0.0, "per_marg_ot_3_6_f": 0.0, "margwork_0_3_p": 24, "margwork_0_3_m": 11, "margwork_0_3_f": 13, "per_margwork_0_3_p": 18.8976378, "per_margwork_0_3_m": 45.83333333, "per_margwork_0_3_f": 54.16666667000001, "marg_cl_0_3_p": 0, "marg_cl_0_3_m": 0, "marg_cl_0_3_f": 0, "per_marg_cl_0_3_p": 0.0, "per_marg_cl_0_3_m": 0.0, "per_marg_cl_0_3_f": 0.0, "marg_al_0_3_p": 21, "marg_al_0_3_m": 9, "marg_al_0_3_f": 12, "per_marg_al_0_3_p": 16.53543307, "per_marg_al_0_3_m": 42.85714286, "per_marg_al_0_3_f": 57.14285714, "marg_hh_0_3_p": 1, "marg_hh_0_3_m": 1, "marg_hh_0_3_f": 0, "per_marg_hh_0_3_p": 0.0, "per_marg_hh_0_3_m": 100.0, "per_marg_hh_0_3_f": 0.0, "marg_ot_0_3_p": 2, "marg_ot_0_3_m": 1, "marg_ot_0_3_f": 1, "per_marg_ot_0_3_p": 1.57480315, "per_marg_ot_0_3_m": 50.0, "per_marg_ot_0_3_f": 50.0, "non_work_p": 40, "non_work_m": 20, "non_work_f": 20, "per_non_work_p": 20.2020202, "per_non_work_m": 50.0, "per_non_work_f": 50.0, "per_hc_tot_tot": 100, "per_hc_tot_god": 100.0, "per_hc_tot_liv": 0.0, "per_hc_tot_dil": 0.0, "per_hc_res_tot": 100.0, "per_hc_res_god": 100.0, "per_hc_res_liv": 0.0, "per_hc_res_dil": 0.0, "per_hc_oth_tot": 0.0, "per_hc_oth_god": 0.0, "per_hc_oth_liv": 0.0, "per_hc_oth_dil": 0.0, "per_mt_grsbam": 63.6, "per_mt_plastic": 0.0, "per_mt_h_tiles": 0.0, "per_mt_m_tiles": 0.0, "per_mt_b_brick": 0.0, "per_mt_stone": 0.0, "per_mt_asbstos": 36.4, "per_mt_concrte": 0.0, "per_mt_oth": 0.0, "per_mw_grsbam": 20.0, "per_mw_plastic": 0.0, "per_mw_mud": 58.2, "per_mw_wood": 0.0, "per_mw_no_mrtr": 0.0, "per_mw_st_mrtr": 0.0, "per_mw_asbstos": 0.0, "per_mw_b_brick": 21.8, "per_mw_concrte": 0.0, "per_mw_oth": 0.0, "per_mf_mud": 89.1, "per_mf_wood": 0.0, "per_mf_b_brick": 0.0, "per_mf_stone": 0.0, "per_mf_cement": 10.9, "per_mf_fl_tile": 0.0, "per_mf_oth": 0.0, "per_dw_n_exrm": 0.0, "per_dw_1_room": 1.8, "per_dw_2_room": 20.0, "per_dw_3_room": 78.2, "per_dw_4_room": 0.0, "per_dw_5_room": 0.0, "per_dw_6_room": 0.0, "per_hhsize_1": 9.1, "per_hhsize_2": 7.3, "per_hhsize_3": 20.0, "per_hhsize_4": 23.6, "per_hhsize_5": 21.8, "per_hhsize_6_8": 18.2, "per_hhsize_9p": 0.0, "per_ow_owned": 100.0, "per_ow_rented": 0.0, "per_ow_oth": 0.0, "per_mc_none": 14.5, "per_mcouple_1": 83.6, "per_mcouple_2": 1.8, "per_mcouple_3": 0.0, "per_mcouple_4": 0.0, "per_mcouple_5p": 0.0, "per_dw_t_ts": 0.0, "per_dw_t_unts": 0.0, "per_dw_c_well": 0.0, "per_dw_unc_wel": 100.0, "per_dw_hpump": 0.0, "per_dw_tw_bore": 0.0, "per_dw_spring": 0.0, "per_dw_rivcan": 0.0, "per_dw_tank": 0.0, "per_dw_oth": 0.0, "per_loc_dw_wp": 0.0, "per_loc_dw_np": 0.0, "per_loc_dw_aw": 100.0, "per_light_elec": 0.0, "per_light_kero": 100.0, "per_light_solr": 0.0, "per_light_oil": 0.0, "per_light_oth": 0.0, "per_light_no": 0.0, "per_hh_latrine": 0.0, "per_fl_sewer": 0.0, "per_fl_septict": 0.0, "per_fl_othsys": 0.0, "per_pl_wslab": 0.0, "per_pl_without": 0.0, "per_ns_open": 0.0, "per_sl_ns_hum": 0.0, "per_sl_ns_anml": 0.0, "per_hh_no_lat": 100.0, "per_as_pub": 0.0, "per_as_open": 100.0, "per_hh_bathrm": 0.0, "per_hh_en_wrf": 0.0, "per_hh_no_btrm": 100.0, "per_wwoc_drain": 0.0, "per_wwoc_open": 100.0, "per_wwoc_nodrn": 0.0, "per_cook_fire": 98.2, "per_cook_resdu": 1.8, "per_cook_cwdng": 0.0, "per_cook_coal": 0.0, "per_cook_kero": 0.0, "per_cook_lpng": 0.0, "per_cook_elec": 0.0, "per_cook_biogs": 0.0, "per_cook_oth": 0.0, "per_cook_no": 0.0, "per_kf_inside": 0.0, "per_kf_in_has": 0.0, "per_kf_in_does": 0.0, "per_kf_outside": 100.0, "per_kf_out_has": 100.0, "per_kf_out_dos": 0.0, "per_kf_no_cook": 0.0, "per_hh_banking": 0.0, "per_hh_radio": 1.8, "per_hh_tv": 0.0, "per_hh_cmp_int": 0.0, "per_hh_cmp_wnt": 0.0, "per_hh_ph_ll": 0.0, "per_hh_ph_mob": 12.7, "per_hh_ph_bth": 0.0, "per_hh_bcycl": 0.0, "per_hh_2wheel": 0.0, "per_hh_4wheel": 0.0, "per_hh_tvcomp": 0.0, "per_hh_no_ast": 85.5, "per_hs_perma": 21.8, "per_hs_sperma": 14.5, "per_hs_temp": 63.6, "per_hs_servc": 43.6, "per_hs_nservc": 20.0, "per_hs_unclss": 0.0, "avghhsz_cy": 3.66666667, "st_areashape": 817685.124391055, "st_lengthshape": 4036.2684340600313}, "geometry": {"type": "Polygon", "coordinates": [[[84.1579499999481, 18.645700000393617], [84.15788000142454, 18.64595999992666], [84.15773000073837, 18.64613000042094], [84.15687000039776, 18.64612000009618], [84.15565000020703, 18.645740000085794], [84.15381000077352, 18.645500000089047], [84.15223000073267, 18.64551000045032], [84.15150999923583, 18.645800000457548], [84.1509800004047, 18.645800000457548], [84.15033999927378, 18.645769999423138], [84.14973000007674, 18.645309999921963], [84.1490500005595, 18.64477000021276], [84.14834999915414, 18.644419999310667], [84.14747000141696, 18.64428999969169], [84.14651999976635, 18.644150000383544], [84.1458900004778, 18.643779999832546], [84.1451300005946, 18.64282000034891], [84.14485999935955, 18.642349999970627], [84.14481000002917, 18.64191000001334], [84.144959999817, 18.641299999715198], [84.14535999985006, 18.641009999684233], [84.14604999941307, 18.64102000030991], [84.146650000361, 18.64079000024029], [84.14741999939163, 18.639629999620826], [84.14770999981984, 18.639200000159743], [84.14845999965729, 18.639030000389255], [84.14911999998138, 18.638849999695804], [84.14998999946944, 18.63763999958886], [84.1507200001137, 18.63687000075981], [84.15115000028402, 18.636750000495336], [84.15124999984315, 18.636730000442995], [84.15139000048353, 18.637100000178638], [84.15306000003775, 18.639520000317592], [84.15488000027811, 18.642020000322326], [84.15754999991502, 18.644949999739197], [84.15800000017681, 18.645430000097026], [84.1579499999481, 18.645700000393617]]]}}]}