{"type": "FeatureCollection", "features": [{"type": "Feature", "properties": {"premiumdata.sde.IN_Village_PCA.area": 5.37106334, "objectid": 254273, "id": "233993654532973", "name": "Ramgadi", "subdistrict": "Chhindwara", "district": "Chhindwara", "state": "Madhya Pradesh", "country": "India", "censusname": "Gadhmari", "villagename_locallang": null, "lgd_villagename": "Ramgadi", "lgd_villagecode": 494958, "lgd_subdistrictcode": 3654, "lgd_districtcode": 399, "lgd_statecode": 23, "censuscode2001": "05180200", "censuscode2011": "494958", "censuscode2021": null, "level": "Village", "tru": "Rural", "no_hh": 166, "tot_p": 756, "tot_m": 387, "tot_f": 369, "per_tot_m": 51.19047619, "per_tot_f": 48.80952381, "p_06": 100, "m_06": 59, "f_06": 41, "per_p_06": 13.22751323, "per_m_06": 59.0, "per_f_06": 41.0, "p_sc": 82, "m_sc": 38, "f_sc": 44, "per_p_sc": 10.84656085, "per_m_sc": 46.34146341, "per_f_sc": 53.65853659, "p_st": 255, "m_st": 123, "f_st": 132, "per_p_st": 33.73015873, "per_m_st": 48.23529412, "per_f_st": 51.76470588, "p_lit": 438, "m_lit": 241, "f_lit": 197, "per_p_lit": 57.93650794000001, "per_m_lit": 55.02283105, "per_f_lit": 44.97716895, "p_ill": 318, "m_ill": 146, "f_ill": 172, "per_p_ill": 42.06349206, "per_m_ill": 45.91194969, "per_f_ill": 54.08805031, "tot_work_p": 333, "tot_work_m": 211, "tot_work_f": 122, "per_tot_work_p": 44.04761905, "per_tot_work_m": 63.36336336, "per_tot_work_f": 36.63663664, "mainwork_p": 166, "mainwork_m": 125, "mainwork_f": 41, "per_mainwork_p": 21.95767196, "per_mainwork_m": 75.30120482, "per_mainwork_f": 24.69879518, "main_cl_p": 102, "main_cl_m": 73, "main_cl_f": 29, "per_main_cl_p": 61.44578313, "per_main_cl_m": 71.56862745000001, "per_main_cl_f": 28.43137255, "main_al_p": 10, "main_al_m": 5, "main_al_f": 5, "per_main_al_p": 6.02409639, "per_main_al_m": 50.0, "per_main_al_f": 50.0, "main_hh_p": 1, "main_hh_m": 0, "main_hh_f": 1, "per_main_hh_p": 0.60240964, "per_main_hh_m": 0.0, "per_main_hh_f": 100.0, "main_ot_p": 53, "main_ot_m": 47, "main_ot_f": 6, "per_main_ot_p": 31.92771084, "per_main_ot_m": 88.67924527999999, "per_main_ot_f": 11.32075472, "margwork_p": 167, "margwork_m": 86, "margwork_f": 81, "per_margwork_p": 22.08994709, "per_margwork_m": 51.49700599, "per_margwork_f": 48.50299401, "marg_cl_p": 0, "marg_cl_m": 0, "marg_cl_f": 0, "per_marg_cl_p": 0.0, "per_marg_cl_m": 0.0, "per_marg_cl_f": 0.0, "marg_al_p": 125, "marg_al_m": 55, "marg_al_f": 70, "per_marg_al_p": 74.8502994, "per_marg_al_m": 44.0, "per_marg_al_f": 56.0, "marg_hh_p": 0, "marg_hh_m": 0, "marg_hh_f": 0, "per_marg_hh_p": 0.0, "per_marg_hh_m": 0.0, "per_marg_hh_f": 0.0, "marg_ot_p": 42, "marg_ot_m": 31, "marg_ot_f": 11, "per_marg_ot_p": 25.1497006, "per_marg_ot_m": 73.80952381, "per_marg_ot_f": 26.19047619, "margwork_3_6_p": 163, "margwork_3_6_m": 86, "margwork_3_6_f": 77, "per_margwork_3_6_p": 97.60479042, "per_margwork_3_6_m": 52.7607362, "per_margwork_3_6_f": 47.2392638, "marg_cl_3_6_p": 0, "marg_cl_3_6_m": 0, "marg_cl_3_6_f": 0, "per_marg_cl_3_6_p": 0.0, "per_marg_cl_3_6_m": 0.0, "per_marg_cl_3_6_f": 0.0, "marg_al_3_6_p": 122, "marg_al_3_6_m": 55, "marg_al_3_6_f": 67, "per_marg_al_3_6_p": 73.05389222, "per_marg_al_3_6_m": 45.08196721, "per_marg_al_3_6_f": 54.91803279, "marg_hh_3_6_p": 0, "marg_hh_3_6_m": 0, "marg_hh_3_6_f": 0, "per_marg_hh_3_6_p": 0.0, "per_marg_hh_3_6_m": 0.0, "per_marg_hh_3_6_f": 0.0, "marg_ot_3_6_p": 41, "marg_ot_3_6_m": 31, "marg_ot_3_6_f": 10, "per_marg_ot_3_6_p": 24.5508982, "per_marg_ot_3_6_m": 75.6097561, "per_marg_ot_3_6_f": 24.3902439, "margwork_0_3_p": 4, "margwork_0_3_m": 0, "margwork_0_3_f": 4, "per_margwork_0_3_p": 2.39520958, "per_margwork_0_3_m": 0.0, "per_margwork_0_3_f": 100.0, "marg_cl_0_3_p": 0, "marg_cl_0_3_m": 0, "marg_cl_0_3_f": 0, "per_marg_cl_0_3_p": 0.0, "per_marg_cl_0_3_m": 0.0, "per_marg_cl_0_3_f": 0.0, "marg_al_0_3_p": 3, "marg_al_0_3_m": 0, "marg_al_0_3_f": 3, "per_marg_al_0_3_p": 1.79640719, "per_marg_al_0_3_m": 0.0, "per_marg_al_0_3_f": 100.0, "marg_hh_0_3_p": 0, "marg_hh_0_3_m": 0, "marg_hh_0_3_f": 0, "per_marg_hh_0_3_p": 0.0, "per_marg_hh_0_3_m": 0.0, "per_marg_hh_0_3_f": 0.0, "marg_ot_0_3_p": 1, "marg_ot_0_3_m": 0, "marg_ot_0_3_f": 1, "per_marg_ot_0_3_p": 0.5988024, "per_marg_ot_0_3_m": 0.0, "per_marg_ot_0_3_f": 100.0, "non_work_p": 423, "non_work_m": 176, "non_work_f": 247, "per_non_work_p": 55.95238095, "per_non_work_m": 41.60756501, "per_non_work_f": 58.39243499000001, "per_hc_tot_tot": 100, "per_hc_tot_god": 79.9, "per_hc_tot_liv": 19.5, "per_hc_tot_dil": 0.6, "per_hc_res_tot": 97.5, "per_hc_res_god": 78.0, "per_hc_res_liv": 18.9, "per_hc_res_dil": 0.6, "per_hc_oth_tot": 2.5, "per_hc_oth_god": 1.9, "per_hc_oth_liv": 0.6, "per_hc_oth_dil": 0.0, "per_mt_grsbam": 0.0, "per_mt_plastic": 1.3, "per_mt_h_tiles": 17.0, "per_mt_m_tiles": 52.8, "per_mt_b_brick": 0.0, "per_mt_stone": 0.0, "per_mt_asbstos": 16.4, "per_mt_concrte": 12.6, "per_mt_oth": 0.0, "per_mw_grsbam": 3.8, "per_mw_plastic": 0.0, "per_mw_mud": 42.1, "per_mw_wood": 0.0, "per_mw_no_mrtr": 0.6, "per_mw_st_mrtr": 1.3, "per_mw_asbstos": 0.6, "per_mw_b_brick": 50.9, "per_mw_concrte": 0.0, "per_mw_oth": 0.6, "per_mf_mud": 64.8, "per_mf_wood": 0.0, "per_mf_b_brick": 0.0, "per_mf_stone": 0.0, "per_mf_cement": 35.2, "per_mf_fl_tile": 0.0, "per_mf_oth": 0.0, "per_dw_n_exrm": 0.0, "per_dw_1_room": 13.2, "per_dw_2_room": 34.0, "per_dw_3_room": 27.0, "per_dw_4_room": 14.5, "per_dw_5_room": 5.0, "per_dw_6_room": 6.3, "per_hhsize_1": 8.8, "per_hhsize_2": 7.5, "per_hhsize_3": 11.3, "per_hhsize_4": 15.7, "per_hhsize_5": 22.0, "per_hhsize_6_8": 30.8, "per_hhsize_9p": 3.8, "per_ow_owned": 78.6, "per_ow_rented": 1.9, "per_ow_oth": 19.5, "per_mc_none": 16.4, "per_mcouple_1": 71.7, "per_mcouple_2": 10.7, "per_mcouple_3": 0.6, "per_mcouple_4": 0.0, "per_mcouple_5p": 0.6, "per_dw_t_ts": 1.9, "per_dw_t_unts": 26.4, "per_dw_c_well": 0.6, "per_dw_unc_wel": 53.5, "per_dw_hpump": 15.1, "per_dw_tw_bore": 0.0, "per_dw_spring": 0.0, "per_dw_rivcan": 0.0, "per_dw_tank": 2.5, "per_dw_oth": 0.0, "per_loc_dw_wp": 14.5, "per_loc_dw_np": 16.4, "per_loc_dw_aw": 69.2, "per_light_elec": 85.5, "per_light_kero": 14.5, "per_light_solr": 0.0, "per_light_oil": 0.0, "per_light_oth": 0.0, "per_light_no": 0.0, "per_hh_latrine": 7.5, "per_fl_sewer": 1.9, "per_fl_septict": 5.7, "per_fl_othsys": 0.0, "per_pl_wslab": 0.0, "per_pl_without": 0.0, "per_ns_open": 0.0, "per_sl_ns_hum": 0.0, "per_sl_ns_anml": 0.0, "per_hh_no_lat": 92.5, "per_as_pub": 0.0, "per_as_open": 92.5, "per_hh_bathrm": 13.8, "per_hh_en_wrf": 61.0, "per_hh_no_btrm": 25.2, "per_wwoc_drain": 0.0, "per_wwoc_open": 0.0, "per_wwoc_nodrn": 100.0, "per_cook_fire": 85.5, "per_cook_resdu": 0.0, "per_cook_cwdng": 0.0, "per_cook_coal": 0.0, "per_cook_kero": 0.0, "per_cook_lpng": 1.3, "per_cook_elec": 0.0, "per_cook_biogs": 12.6, "per_cook_oth": 0.0, "per_cook_no": 0.6, "per_kf_inside": 99.4, "per_kf_in_has": 17.0, "per_kf_in_does": 82.4, "per_kf_outside": 0.0, "per_kf_out_has": 0.0, "per_kf_out_dos": 0.0, "per_kf_no_cook": 0.6, "per_hh_banking": 72.3, "per_hh_radio": 15.1, "per_hh_tv": 37.7, "per_hh_cmp_int": 0.0, "per_hh_cmp_wnt": 0.6, "per_hh_ph_ll": 1.9, "per_hh_ph_mob": 49.7, "per_hh_ph_bth": 3.1, "per_hh_bcycl": 62.9, "per_hh_2wheel": 20.1, "per_hh_4wheel": 6.9, "per_hh_tvcomp": 0.0, "per_hh_no_ast": 17.6, "per_hs_perma": 53.5, "per_hs_sperma": 44.7, "per_hs_temp": 1.3, "per_hs_servc": 1.3, "per_hs_nservc": 0.0, "per_hs_unclss": 0.6, "avghhsz_cy": 4.55421687, "st_areashape": 6284063.653017835, "st_lengthshape": 11591.683542328827}, "geometry": {"type": "Polygon", "coordinates": [[[79.01575000046167, 22.07502000011173], [79.01310000001791, 22.075040000012258], [79.00510000025459, 22.07386999982101], [79.00235000025175, 22.07262999952329], [79.00105000059338, 22.07149000037664], [78.9995800001574, 22.06767999946039], [78.9973000005078, 22.06461999970937], [79.00163000055151, 22.06151000037059], [79.00491000028379, 22.056920000358396], [79.00863999937957, 22.058900000567057], [79.01848999952048, 22.061200000637907], [79.02149999981434, 22.061110000158507], [79.0226100004002, 22.06121999999662], [79.02504999988336, 22.06184999999402], [79.02681999989503, 22.062059999646785], [79.02736999971592, 22.06207000009822], [79.02876000068427, 22.064629999979708], [79.03576999951233, 22.071160000440667], [79.04115999991319, 22.07459999988172], [79.03992999967673, 22.075359999700556], [79.03740999982762, 22.074939999648834], [79.03697000050988, 22.074859999973125], [79.01575000046167, 22.07502000011173]]]}}]}