{"type": "FeatureCollection", "features": [{"type": "Feature", "properties": {"premiumdata.sde.IN_Village_PCA.area": 4.00097891, "objectid": 231259, "id": "895658509460", "name": "Rawatpura", "subdistrict": "Rawatbhata", "district": "Chittorgarh", "state": "Rajasthan", "country": "India", "censusname": "Rawatpura", "villagename_locallang": null, "lgd_villagename": "Rawatpura", "lgd_villagecode": 100524, "lgd_subdistrictcode": 658, "lgd_districtcode": 95, "lgd_statecode": 8, "censuscode2001": "03582900", "censuscode2011": "100524", "censuscode2021": null, "level": "Village", "tru": "Rural", "no_hh": 94, "tot_p": 362, "tot_m": 188, "tot_f": 174, "per_tot_m": 51.93370166, "per_tot_f": 48.06629834, "p_06": 73, "m_06": 37, "f_06": 36, "per_p_06": 20.16574586, "per_m_06": 50.68493151, "per_f_06": 49.31506849, "p_sc": 0, "m_sc": 0, "f_sc": 0, "per_p_sc": 0.0, "per_m_sc": 0.0, "per_f_sc": 0.0, "p_st": 362, "m_st": 188, "f_st": 174, "per_p_st": 100.0, "per_m_st": 51.93370166, "per_f_st": 48.06629834, "p_lit": 52, "m_lit": 39, "f_lit": 13, "per_p_lit": 14.36464088, "per_m_lit": 75.0, "per_f_lit": 25.0, "p_ill": 310, "m_ill": 149, "f_ill": 161, "per_p_ill": 85.63535912, "per_m_ill": 48.06451613, "per_f_ill": 51.93548387, "tot_work_p": 231, "tot_work_m": 122, "tot_work_f": 109, "per_tot_work_p": 63.8121547, "per_tot_work_m": 52.81385281, "per_tot_work_f": 47.18614719, "mainwork_p": 177, "mainwork_m": 97, "mainwork_f": 80, "per_mainwork_p": 48.89502762, "per_mainwork_m": 54.80225989, "per_mainwork_f": 45.19774011, "main_cl_p": 145, "main_cl_m": 89, "main_cl_f": 56, "per_main_cl_p": 81.92090395000001, "per_main_cl_m": 61.37931034, "per_main_cl_f": 38.62068966, "main_al_p": 29, "main_al_m": 6, "main_al_f": 23, "per_main_al_p": 16.38418079, "per_main_al_m": 20.68965517, "per_main_al_f": 79.31034483, "main_hh_p": 0, "main_hh_m": 0, "main_hh_f": 0, "per_main_hh_p": 0.0, "per_main_hh_m": 0.0, "per_main_hh_f": 0.0, "main_ot_p": 3, "main_ot_m": 2, "main_ot_f": 1, "per_main_ot_p": 1.69491525, "per_main_ot_m": 66.66666667, "per_main_ot_f": 33.33333333, "margwork_p": 54, "margwork_m": 25, "margwork_f": 29, "per_margwork_p": 14.91712707, "per_margwork_m": 46.2962963, "per_margwork_f": 53.7037037, "marg_cl_p": 9, "marg_cl_m": 5, "marg_cl_f": 4, "per_marg_cl_p": 16.66666667, "per_marg_cl_m": 55.55555556, "per_marg_cl_f": 44.44444444000001, "marg_al_p": 45, "marg_al_m": 20, "marg_al_f": 25, "per_marg_al_p": 83.33333332999999, "per_marg_al_m": 44.44444444000001, "per_marg_al_f": 55.55555556, "marg_hh_p": 0, "marg_hh_m": 0, "marg_hh_f": 0, "per_marg_hh_p": 0.0, "per_marg_hh_m": 0.0, "per_marg_hh_f": 0.0, "marg_ot_p": 0, "marg_ot_m": 0, "marg_ot_f": 0, "per_marg_ot_p": 0.0, "per_marg_ot_m": 0.0, "per_marg_ot_f": 0.0, "margwork_3_6_p": 54, "margwork_3_6_m": 25, "margwork_3_6_f": 29, "per_margwork_3_6_p": 100.0, "per_margwork_3_6_m": 46.2962963, "per_margwork_3_6_f": 53.7037037, "marg_cl_3_6_p": 9, "marg_cl_3_6_m": 5, "marg_cl_3_6_f": 4, "per_marg_cl_3_6_p": 16.66666667, "per_marg_cl_3_6_m": 55.55555556, "per_marg_cl_3_6_f": 44.44444444000001, "marg_al_3_6_p": 45, "marg_al_3_6_m": 20, "marg_al_3_6_f": 25, "per_marg_al_3_6_p": 83.33333332999999, "per_marg_al_3_6_m": 44.44444444000001, "per_marg_al_3_6_f": 55.55555556, "marg_hh_3_6_p": 0, "marg_hh_3_6_m": 0, "marg_hh_3_6_f": 0, "per_marg_hh_3_6_p": 0.0, "per_marg_hh_3_6_m": 0.0, "per_marg_hh_3_6_f": 0.0, "marg_ot_3_6_p": 0, "marg_ot_3_6_m": 0, "marg_ot_3_6_f": 0, "per_marg_ot_3_6_p": 0.0, "per_marg_ot_3_6_m": 0.0, "per_marg_ot_3_6_f": 0.0, "margwork_0_3_p": 0, "margwork_0_3_m": 0, "margwork_0_3_f": 0, "per_margwork_0_3_p": 0.0, "per_margwork_0_3_m": 0.0, "per_margwork_0_3_f": 0.0, "marg_cl_0_3_p": 0, "marg_cl_0_3_m": 0, "marg_cl_0_3_f": 0, "per_marg_cl_0_3_p": 0.0, "per_marg_cl_0_3_m": 0.0, "per_marg_cl_0_3_f": 0.0, "marg_al_0_3_p": 0, "marg_al_0_3_m": 0, "marg_al_0_3_f": 0, "per_marg_al_0_3_p": 0.0, "per_marg_al_0_3_m": 0.0, "per_marg_al_0_3_f": 0.0, "marg_hh_0_3_p": 0, "marg_hh_0_3_m": 0, "marg_hh_0_3_f": 0, "per_marg_hh_0_3_p": 0.0, "per_marg_hh_0_3_m": 0.0, "per_marg_hh_0_3_f": 0.0, "marg_ot_0_3_p": 0, "marg_ot_0_3_m": 0, "marg_ot_0_3_f": 0, "per_marg_ot_0_3_p": 0.0, "per_marg_ot_0_3_m": 0.0, "per_marg_ot_0_3_f": 0.0, "non_work_p": 131, "non_work_m": 66, "non_work_f": 65, "per_non_work_p": 36.1878453, "per_non_work_m": 50.38167939, "per_non_work_f": 49.61832061, "per_hc_tot_tot": 100, "per_hc_tot_god": 0.0, "per_hc_tot_liv": 100.0, "per_hc_tot_dil": 0.0, "per_hc_res_tot": 100.0, "per_hc_res_god": 0.0, "per_hc_res_liv": 100.0, "per_hc_res_dil": 0.0, "per_hc_oth_tot": 0.0, "per_hc_oth_god": 0.0, "per_hc_oth_liv": 0.0, "per_hc_oth_dil": 0.0, "per_mt_grsbam": 1.1, "per_mt_plastic": 1.1, "per_mt_h_tiles": 96.8, "per_mt_m_tiles": 0.0, "per_mt_b_brick": 0.0, "per_mt_stone": 1.1, "per_mt_asbstos": 0.0, "per_mt_concrte": 0.0, "per_mt_oth": 0.0, "per_mw_grsbam": 2.1, "per_mw_plastic": 0.0, "per_mw_mud": 0.0, "per_mw_wood": 0.0, "per_mw_no_mrtr": 0.0, "per_mw_st_mrtr": 96.8, "per_mw_asbstos": 0.0, "per_mw_b_brick": 1.1, "per_mw_concrte": 0.0, "per_mw_oth": 0.0, "per_mf_mud": 98.9, "per_mf_wood": 0.0, "per_mf_b_brick": 0.0, "per_mf_stone": 1.1, "per_mf_cement": 0.0, "per_mf_fl_tile": 0.0, "per_mf_oth": 0.0, "per_dw_n_exrm": 1.1, "per_dw_1_room": 98.9, "per_dw_2_room": 0.0, "per_dw_3_room": 0.0, "per_dw_4_room": 0.0, "per_dw_5_room": 0.0, "per_dw_6_room": 0.0, "per_hhsize_1": 1.1, "per_hhsize_2": 21.3, "per_hhsize_3": 23.4, "per_hhsize_4": 29.8, "per_hhsize_5": 14.9, "per_hhsize_6_8": 8.5, "per_hhsize_9p": 1.1, "per_ow_owned": 100.0, "per_ow_rented": 0.0, "per_ow_oth": 0.0, "per_mc_none": 5.3, "per_mcouple_1": 90.4, "per_mcouple_2": 4.3, "per_mcouple_3": 0.0, "per_mcouple_4": 0.0, "per_mcouple_5p": 0.0, "per_dw_t_ts": 0.0, "per_dw_t_unts": 0.0, "per_dw_c_well": 0.0, "per_dw_unc_wel": 98.9, "per_dw_hpump": 0.0, "per_dw_tw_bore": 0.0, "per_dw_spring": 1.1, "per_dw_rivcan": 0.0, "per_dw_tank": 0.0, "per_dw_oth": 0.0, "per_loc_dw_wp": 1.1, "per_loc_dw_np": 0.0, "per_loc_dw_aw": 98.9, "per_light_elec": 96.8, "per_light_kero": 3.2, "per_light_solr": 0.0, "per_light_oil": 0.0, "per_light_oth": 0.0, "per_light_no": 0.0, "per_hh_latrine": 0.0, "per_fl_sewer": 0.0, "per_fl_septict": 0.0, "per_fl_othsys": 0.0, "per_pl_wslab": 0.0, "per_pl_without": 0.0, "per_ns_open": 0.0, "per_sl_ns_hum": 0.0, "per_sl_ns_anml": 0.0, "per_hh_no_lat": 100.0, "per_as_pub": 0.0, "per_as_open": 100.0, "per_hh_bathrm": 0.0, "per_hh_en_wrf": 0.0, "per_hh_no_btrm": 100.0, "per_wwoc_drain": 0.0, "per_wwoc_open": 0.0, "per_wwoc_nodrn": 100.0, "per_cook_fire": 100.0, "per_cook_resdu": 0.0, "per_cook_cwdng": 0.0, "per_cook_coal": 0.0, "per_cook_kero": 0.0, "per_cook_lpng": 0.0, "per_cook_elec": 0.0, "per_cook_biogs": 0.0, "per_cook_oth": 0.0, "per_cook_no": 0.0, "per_kf_inside": 93.6, "per_kf_in_has": 0.0, "per_kf_in_does": 93.6, "per_kf_outside": 6.4, "per_kf_out_has": 0.0, "per_kf_out_dos": 6.4, "per_kf_no_cook": 0.0, "per_hh_banking": 100.0, "per_hh_radio": 47.9, "per_hh_tv": 4.3, "per_hh_cmp_int": 0.0, "per_hh_cmp_wnt": 0.0, "per_hh_ph_ll": 7.4, "per_hh_ph_mob": 10.6, "per_hh_ph_bth": 0.0, "per_hh_bcycl": 55.3, "per_hh_2wheel": 3.2, "per_hh_4wheel": 0.0, "per_hh_tvcomp": 0.0, "per_hh_no_ast": 22.3, "per_hs_perma": 97.9, "per_hs_sperma": 0.0, "per_hs_temp": 2.1, "per_hs_servc": 0.0, "per_hs_nservc": 2.1, "per_hs_unclss": 0.0, "avghhsz_cy": 3.85106383, "st_areashape": 4878978.56955904, "st_lengthshape": 10413.212710661612}, "geometry": {"type": "Polygon", "coordinates": [[[75.40948734565389, 24.838100384844534], [75.40815633884688, 24.838100384844534], [75.4022618814134, 24.8384454945544], [75.3994097249964, 24.838618049048517], [75.39617728027866, 24.83792782962876], [75.39237440445713, 24.837237606360343], [75.38990253544264, 24.837065049941902], [75.38966291343385, 24.840462891640428], [75.38852339600439, 24.840145250223937], [75.38700274855269, 24.839543197806297], [75.38535830966157, 24.839021434501582], [75.3844340061163, 24.838830546389612], [75.38303918748306, 24.838542476850453], [75.3802741299194, 24.837690174609534], [75.37862797165283, 24.83686662610862], [75.3772300322723, 24.836167162786378], [75.3762406763274, 24.835672133950464], [75.37482980749499, 24.834473795361333], [75.37370181545062, 24.833515763120804], [75.37256185784663, 24.832893378639127], [75.3712106551154, 24.832386044264442], [75.37611045654383, 24.829589671285593], [75.37967565251418, 24.8272168522744], [75.3813394105738, 24.825491136794707], [75.38765646246641, 24.82647393459843], [75.3967180022993, 24.827956960908548], [75.40325419461219, 24.828900695381], [75.40726503940512, 24.83011405875449], [75.4091909932383, 24.830900617042943], [75.40948734565389, 24.838100384844534]]]}}]}