{"type": "FeatureCollection", "features": [{"type": "Feature", "properties": {"premiumdata.sde.IN_Village_PCA.area": 1.74524337, "objectid": 407133, "id": "330221345561", "name": "Nabipur", "subdistrict": "Fatehgarh Sahib", "district": "Fatehgarh Sahib", "state": "Punjab", "country": "India", "censusname": "Nabipur (149)", "villagename_locallang": null, "lgd_villagename": "Nabipur (149)", "lgd_villagecode": 32730, "lgd_subdistrictcode": 221, "lgd_districtcode": 30, "lgd_statecode": 3, "censuscode2001": "00746800", "censuscode2011": "032730", "censuscode2021": null, "level": "Village", "tru": "Rural", "no_hh": 257, "tot_p": 1390, "tot_m": 713, "tot_f": 677, "per_tot_m": 51.29496403, "per_tot_f": 48.70503597, "p_06": 175, "m_06": 88, "f_06": 87, "per_p_06": 12.58992806, "per_m_06": 50.28571429, "per_f_06": 49.71428571, "p_sc": 881, "m_sc": 445, "f_sc": 436, "per_p_sc": 63.38129496, "per_m_sc": 50.5107832, "per_f_sc": 49.4892168, "p_st": 0, "m_st": 0, "f_st": 0, "per_p_st": 0.0, "per_m_st": 0.0, "per_f_st": 0.0, "p_lit": 915, "m_lit": 509, "f_lit": 406, "per_p_lit": 65.82733812999999, "per_m_lit": 55.6284153, "per_f_lit": 44.3715847, "p_ill": 475, "m_ill": 204, "f_ill": 271, "per_p_ill": 34.17266187000001, "per_m_ill": 42.94736842, "per_f_ill": 57.05263158, "tot_work_p": 411, "tot_work_m": 363, "tot_work_f": 48, "per_tot_work_p": 29.56834532, "per_tot_work_m": 88.32116788, "per_tot_work_f": 11.67883212, "mainwork_p": 378, "mainwork_m": 353, "mainwork_f": 25, "per_mainwork_p": 27.1942446, "per_mainwork_m": 93.38624339, "per_mainwork_f": 6.61375661, "main_cl_p": 65, "main_cl_m": 64, "main_cl_f": 1, "per_main_cl_p": 17.1957672, "per_main_cl_m": 98.46153846, "per_main_cl_f": 1.53846154, "main_al_p": 45, "main_al_m": 44, "main_al_f": 1, "per_main_al_p": 11.9047619, "per_main_al_m": 97.77777778, "per_main_al_f": 2.22222222, "main_hh_p": 0, "main_hh_m": 0, "main_hh_f": 0, "per_main_hh_p": 0.0, "per_main_hh_m": 0.0, "per_main_hh_f": 0.0, "main_ot_p": 268, "main_ot_m": 245, "main_ot_f": 23, "per_main_ot_p": 70.8994709, "per_main_ot_m": 91.41791045000001, "per_main_ot_f": 8.58208955, "margwork_p": 33, "margwork_m": 10, "margwork_f": 23, "per_margwork_p": 2.37410072, "per_margwork_m": 30.3030303, "per_margwork_f": 69.6969697, "marg_cl_p": 1, "marg_cl_m": 0, "marg_cl_f": 1, "per_marg_cl_p": 3.03030303, "per_marg_cl_m": 0.0, "per_marg_cl_f": 100.0, "marg_al_p": 1, "marg_al_m": 0, "marg_al_f": 1, "per_marg_al_p": 3.03030303, "per_marg_al_m": 0.0, "per_marg_al_f": 100.0, "marg_hh_p": 0, "marg_hh_m": 0, "marg_hh_f": 0, "per_marg_hh_p": 0.0, "per_marg_hh_m": 0.0, "per_marg_hh_f": 0.0, "marg_ot_p": 31, "marg_ot_m": 10, "marg_ot_f": 21, "per_marg_ot_p": 93.93939394, "per_marg_ot_m": 32.25806452, "per_marg_ot_f": 67.74193548, "margwork_3_6_p": 33, "margwork_3_6_m": 10, "margwork_3_6_f": 23, "per_margwork_3_6_p": 100.0, "per_margwork_3_6_m": 30.3030303, "per_margwork_3_6_f": 69.6969697, "marg_cl_3_6_p": 1, "marg_cl_3_6_m": 0, "marg_cl_3_6_f": 1, "per_marg_cl_3_6_p": 3.03030303, "per_marg_cl_3_6_m": 0.0, "per_marg_cl_3_6_f": 100.0, "marg_al_3_6_p": 1, "marg_al_3_6_m": 0, "marg_al_3_6_f": 1, "per_marg_al_3_6_p": 3.03030303, "per_marg_al_3_6_m": 0.0, "per_marg_al_3_6_f": 100.0, "marg_hh_3_6_p": 0, "marg_hh_3_6_m": 0, "marg_hh_3_6_f": 0, "per_marg_hh_3_6_p": 0.0, "per_marg_hh_3_6_m": 0.0, "per_marg_hh_3_6_f": 0.0, "marg_ot_3_6_p": 31, "marg_ot_3_6_m": 10, "marg_ot_3_6_f": 21, "per_marg_ot_3_6_p": 93.93939394, "per_marg_ot_3_6_m": 32.25806452, "per_marg_ot_3_6_f": 67.74193548, "margwork_0_3_p": 0, "margwork_0_3_m": 0, "margwork_0_3_f": 0, "per_margwork_0_3_p": 0.0, "per_margwork_0_3_m": 0.0, "per_margwork_0_3_f": 0.0, "marg_cl_0_3_p": 0, "marg_cl_0_3_m": 0, "marg_cl_0_3_f": 0, "per_marg_cl_0_3_p": 0.0, "per_marg_cl_0_3_m": 0.0, "per_marg_cl_0_3_f": 0.0, "marg_al_0_3_p": 0, "marg_al_0_3_m": 0, "marg_al_0_3_f": 0, "per_marg_al_0_3_p": 0.0, "per_marg_al_0_3_m": 0.0, "per_marg_al_0_3_f": 0.0, "marg_hh_0_3_p": 0, "marg_hh_0_3_m": 0, "marg_hh_0_3_f": 0, "per_marg_hh_0_3_p": 0.0, "per_marg_hh_0_3_m": 0.0, "per_marg_hh_0_3_f": 0.0, "marg_ot_0_3_p": 0, "marg_ot_0_3_m": 0, "marg_ot_0_3_f": 0, "per_marg_ot_0_3_p": 0.0, "per_marg_ot_0_3_m": 0.0, "per_marg_ot_0_3_f": 0.0, "non_work_p": 979, "non_work_m": 350, "non_work_f": 629, "per_non_work_p": 70.43165468000001, "per_non_work_m": 35.75076609, "per_non_work_f": 64.24923391, "per_hc_tot_tot": 100, "per_hc_tot_god": 68.6, "per_hc_tot_liv": 28.2, "per_hc_tot_dil": 3.1, "per_hc_res_tot": 100.0, "per_hc_res_god": 68.6, "per_hc_res_liv": 28.2, "per_hc_res_dil": 3.1, "per_hc_oth_tot": 0.0, "per_hc_oth_god": 0.0, "per_hc_oth_liv": 0.0, "per_hc_oth_dil": 0.0, "per_mt_grsbam": 7.1, "per_mt_plastic": 0.0, "per_mt_h_tiles": 13.7, "per_mt_m_tiles": 0.8, "per_mt_b_brick": 18.8, "per_mt_stone": 1.2, "per_mt_asbstos": 1.2, "per_mt_concrte": 57.3, "per_mt_oth": 0.0, "per_mw_grsbam": 0.0, "per_mw_plastic": 0.0, "per_mw_mud": 0.0, "per_mw_wood": 0.0, "per_mw_no_mrtr": 0.0, "per_mw_st_mrtr": 0.0, "per_mw_asbstos": 0.0, "per_mw_b_brick": 100.0, "per_mw_concrte": 0.0, "per_mw_oth": 0.0, "per_mf_mud": 23.1, "per_mf_wood": 0.0, "per_mf_b_brick": 11.4, "per_mf_stone": 18.0, "per_mf_cement": 46.7, "per_mf_fl_tile": 0.8, "per_mf_oth": 0.0, "per_dw_n_exrm": 0.8, "per_dw_1_room": 12.9, "per_dw_2_room": 35.7, "per_dw_3_room": 25.1, "per_dw_4_room": 15.3, "per_dw_5_room": 4.7, "per_dw_6_room": 5.5, "per_hhsize_1": 1.6, "per_hhsize_2": 3.1, "per_hhsize_3": 8.2, "per_hhsize_4": 18.8, "per_hhsize_5": 27.1, "per_hhsize_6_8": 35.3, "per_hhsize_9p": 5.9, "per_ow_owned": 97.6, "per_ow_rented": 1.2, "per_ow_oth": 1.2, "per_mc_none": 7.8, "per_mcouple_1": 64.3, "per_mcouple_2": 22.0, "per_mcouple_3": 5.1, "per_mcouple_4": 0.8, "per_mcouple_5p": 0.0, "per_dw_t_ts": 0.0, "per_dw_t_unts": 0.4, "per_dw_c_well": 0.4, "per_dw_unc_wel": 0.0, "per_dw_hpump": 35.7, "per_dw_tw_bore": 58.0, "per_dw_spring": 0.0, "per_dw_rivcan": 0.8, "per_dw_tank": 0.0, "per_dw_oth": 4.7, "per_loc_dw_wp": 88.2, "per_loc_dw_np": 11.8, "per_loc_dw_aw": 0.0, "per_light_elec": 97.6, "per_light_kero": 2.4, "per_light_solr": 0.0, "per_light_oil": 0.0, "per_light_oth": 0.0, "per_light_no": 0.0, "per_hh_latrine": 73.3, "per_fl_sewer": 0.0, "per_fl_septict": 58.4, "per_fl_othsys": 0.4, "per_pl_wslab": 14.1, "per_pl_without": 0.4, "per_ns_open": 0.0, "per_sl_ns_hum": 0.0, "per_sl_ns_anml": 0.0, "per_hh_no_lat": 26.7, "per_as_pub": 0.0, "per_as_open": 26.7, "per_hh_bathrm": 65.5, "per_hh_en_wrf": 25.1, "per_hh_no_btrm": 9.4, "per_wwoc_drain": 0.0, "per_wwoc_open": 99.6, "per_wwoc_nodrn": 0.4, "per_cook_fire": 31.0, "per_cook_resdu": 0.0, "per_cook_cwdng": 22.7, "per_cook_coal": 0.0, "per_cook_kero": 5.1, "per_cook_lpng": 40.8, "per_cook_elec": 0.0, "per_cook_biogs": 0.4, "per_cook_oth": 0.0, "per_cook_no": 0.0, "per_kf_inside": 98.4, "per_kf_in_has": 74.9, "per_kf_in_does": 23.5, "per_kf_outside": 1.6, "per_kf_out_has": 0.0, "per_kf_out_dos": 1.6, "per_kf_no_cook": 0.0, "per_hh_banking": 74.9, "per_hh_radio": 4.3, "per_hh_tv": 87.8, "per_hh_cmp_int": 1.6, "per_hh_cmp_wnt": 3.1, "per_hh_ph_ll": 5.9, "per_hh_ph_mob": 71.0, "per_hh_ph_bth": 7.5, "per_hh_bcycl": 66.7, "per_hh_2wheel": 40.8, "per_hh_4wheel": 9.4, "per_hh_tvcomp": 4.7, "per_hh_no_ast": 3.5, "per_hs_perma": 92.9, "per_hs_sperma": 7.1, "per_hs_temp": 0.0, "per_hs_servc": 0.0, "per_hs_nservc": 0.0, "per_hs_unclss": 0.0, "avghhsz_cy": 5.40856031, "st_areashape": 2362305.68549025, "st_lengthshape": 6818.111701353703}, "geometry": {"type": "Polygon", "coordinates": [[[76.42314070497038, 30.58467972870497], [76.4231748364596, 30.583924680705582], [76.4230961736851, 30.58289236890675], [76.4227696702153, 30.58179749576677], [76.42220758266392, 30.580369477515365], [76.42127007478227, 30.57892875857139], [76.42032315255648, 30.5780431581396], [76.4227649217207, 30.576871768631023], [76.42586750328609, 30.574703081182108], [76.42663581977217, 30.57432306461423], [76.42750153070305, 30.573865122349982], [76.42815777786588, 30.573887313492577], [76.42952373991722, 30.574826718403912], [76.43015435185677, 30.57541645444461], [76.43143392382558, 30.576190519512952], [76.43227767454104, 30.576219031956143], [76.43285847579642, 30.575832639145172], [76.43476891123304, 30.572956627678842], [76.4352507639582, 30.57335722516864], [76.43647140644434, 30.574215313642277], [76.44066823394213, 30.577147855823853], [76.44127551663375, 30.577644837549514], [76.44149597847584, 30.57799262618107], [76.4416256035747, 30.578609628888014], [76.44160110022871, 30.57915336193239], [76.44127955456096, 30.581048478478372], [76.44070096855107, 30.583745921616128], [76.43863786083864, 30.58301104390606], [76.43516892833411, 30.582893928762214], [76.43270933749294, 30.58329805576173], [76.43165974322004, 30.58366859999101], [76.42966158460096, 30.58425065863741], [76.42681960609615, 30.584804175265223], [76.42522574325383, 30.584750268883987], [76.42314070497038, 30.58467972870497]]]}}]}