{"type": "FeatureCollection", "features": [{"type": "Feature", "properties": {"premiumdata.sde.IN_Village_PCA.area": 0.51079202, "objectid": 369458, "id": "9131937420493", "name": "Manwan", "subdistrict": "Bhanpur", "district": "Basti", "state": "Uttar Pradesh", "country": "India", "censusname": "Manwan", "villagename_locallang": null, "lgd_villagename": "Manwan", "lgd_villagecode": 178801, "lgd_subdistrictcode": 937, "lgd_districtcode": 131, "lgd_statecode": 9, "censuscode2001": "07186500", "censuscode2011": "178801", "censuscode2021": null, "level": "Village", "tru": "Rural", "no_hh": 104, "tot_p": 698, "tot_m": 368, "tot_f": 330, "per_tot_m": 52.72206304, "per_tot_f": 47.27793696000001, "p_06": 106, "m_06": 63, "f_06": 43, "per_p_06": 15.18624642, "per_m_06": 59.43396226, "per_f_06": 40.56603774000001, "p_sc": 145, "m_sc": 78, "f_sc": 67, "per_p_sc": 20.77363897, "per_m_sc": 53.79310345, "per_f_sc": 46.20689655, "p_st": 0, "m_st": 0, "f_st": 0, "per_p_st": 0.0, "per_m_st": 0.0, "per_f_st": 0.0, "p_lit": 441, "m_lit": 253, "f_lit": 188, "per_p_lit": 63.18051576, "per_m_lit": 57.36961451, "per_f_lit": 42.63038549, "p_ill": 257, "m_ill": 115, "f_ill": 142, "per_p_ill": 36.81948424, "per_m_ill": 44.74708171, "per_f_ill": 55.25291829, "tot_work_p": 179, "tot_work_m": 169, "tot_work_f": 10, "per_tot_work_p": 25.64469914, "per_tot_work_m": 94.41340781999999, "per_tot_work_f": 5.58659218, "mainwork_p": 173, "mainwork_m": 163, "mainwork_f": 10, "per_mainwork_p": 24.78510029, "per_mainwork_m": 94.21965318, "per_mainwork_f": 5.78034682, "main_cl_p": 57, "main_cl_m": 56, "main_cl_f": 1, "per_main_cl_p": 32.94797688, "per_main_cl_m": 98.24561404, "per_main_cl_f": 1.75438596, "main_al_p": 60, "main_al_m": 55, "main_al_f": 5, "per_main_al_p": 34.68208092, "per_main_al_m": 91.66666667, "per_main_al_f": 8.33333333, "main_hh_p": 1, "main_hh_m": 1, "main_hh_f": 0, "per_main_hh_p": 0.57803468, "per_main_hh_m": 100.0, "per_main_hh_f": 0.0, "main_ot_p": 55, "main_ot_m": 51, "main_ot_f": 4, "per_main_ot_p": 31.79190751, "per_main_ot_m": 92.72727273, "per_main_ot_f": 7.27272727, "margwork_p": 6, "margwork_m": 6, "margwork_f": 0, "per_margwork_p": 0.85959885, "per_margwork_m": 100.0, "per_margwork_f": 0.0, "marg_cl_p": 1, "marg_cl_m": 1, "marg_cl_f": 0, "per_marg_cl_p": 16.66666667, "per_marg_cl_m": 100.0, "per_marg_cl_f": 0.0, "marg_al_p": 2, "marg_al_m": 2, "marg_al_f": 0, "per_marg_al_p": 33.33333333, "per_marg_al_m": 100.0, "per_marg_al_f": 0.0, "marg_hh_p": 0, "marg_hh_m": 0, "marg_hh_f": 0, "per_marg_hh_p": 0.0, "per_marg_hh_m": 0.0, "per_marg_hh_f": 0.0, "marg_ot_p": 3, "marg_ot_m": 3, "marg_ot_f": 0, "per_marg_ot_p": 50.0, "per_marg_ot_m": 100.0, "per_marg_ot_f": 0.0, "margwork_3_6_p": 6, "margwork_3_6_m": 6, "margwork_3_6_f": 0, "per_margwork_3_6_p": 100.0, "per_margwork_3_6_m": 100.0, "per_margwork_3_6_f": 0.0, "marg_cl_3_6_p": 1, "marg_cl_3_6_m": 1, "marg_cl_3_6_f": 0, "per_marg_cl_3_6_p": 16.66666667, "per_marg_cl_3_6_m": 100.0, "per_marg_cl_3_6_f": 0.0, "marg_al_3_6_p": 2, "marg_al_3_6_m": 2, "marg_al_3_6_f": 0, "per_marg_al_3_6_p": 33.33333333, "per_marg_al_3_6_m": 100.0, "per_marg_al_3_6_f": 0.0, "marg_hh_3_6_p": 0, "marg_hh_3_6_m": 0, "marg_hh_3_6_f": 0, "per_marg_hh_3_6_p": 0.0, "per_marg_hh_3_6_m": 0.0, "per_marg_hh_3_6_f": 0.0, "marg_ot_3_6_p": 3, "marg_ot_3_6_m": 3, "marg_ot_3_6_f": 0, "per_marg_ot_3_6_p": 50.0, "per_marg_ot_3_6_m": 100.0, "per_marg_ot_3_6_f": 0.0, "margwork_0_3_p": 0, "margwork_0_3_m": 0, "margwork_0_3_f": 0, "per_margwork_0_3_p": 0.0, "per_margwork_0_3_m": 0.0, "per_margwork_0_3_f": 0.0, "marg_cl_0_3_p": 0, "marg_cl_0_3_m": 0, "marg_cl_0_3_f": 0, "per_marg_cl_0_3_p": 0.0, "per_marg_cl_0_3_m": 0.0, "per_marg_cl_0_3_f": 0.0, "marg_al_0_3_p": 0, "marg_al_0_3_m": 0, "marg_al_0_3_f": 0, "per_marg_al_0_3_p": 0.0, "per_marg_al_0_3_m": 0.0, "per_marg_al_0_3_f": 0.0, "marg_hh_0_3_p": 0, "marg_hh_0_3_m": 0, "marg_hh_0_3_f": 0, "per_marg_hh_0_3_p": 0.0, "per_marg_hh_0_3_m": 0.0, "per_marg_hh_0_3_f": 0.0, "marg_ot_0_3_p": 0, "marg_ot_0_3_m": 0, "marg_ot_0_3_f": 0, "per_marg_ot_0_3_p": 0.0, "per_marg_ot_0_3_m": 0.0, "per_marg_ot_0_3_f": 0.0, "non_work_p": 519, "non_work_m": 199, "non_work_f": 320, "per_non_work_p": 74.35530086, "per_non_work_m": 38.34296724, "per_non_work_f": 61.65703276, "per_hc_tot_tot": 100, "per_hc_tot_god": 48.5, "per_hc_tot_liv": 35.4, "per_hc_tot_dil": 16.2, "per_hc_res_tot": 99.0, "per_hc_res_god": 47.5, "per_hc_res_liv": 35.4, "per_hc_res_dil": 16.2, "per_hc_oth_tot": 1.0, "per_hc_oth_god": 1.0, "per_hc_oth_liv": 0.0, "per_hc_oth_dil": 0.0, "per_mt_grsbam": 8.1, "per_mt_plastic": 0.0, "per_mt_h_tiles": 7.1, "per_mt_m_tiles": 0.0, "per_mt_b_brick": 83.8, "per_mt_stone": 0.0, "per_mt_asbstos": 1.0, "per_mt_concrte": 0.0, "per_mt_oth": 0.0, "per_mw_grsbam": 1.0, "per_mw_plastic": 0.0, "per_mw_mud": 9.1, "per_mw_wood": 0.0, "per_mw_no_mrtr": 0.0, "per_mw_st_mrtr": 0.0, "per_mw_asbstos": 0.0, "per_mw_b_brick": 89.9, "per_mw_concrte": 0.0, "per_mw_oth": 0.0, "per_mf_mud": 99.0, "per_mf_wood": 0.0, "per_mf_b_brick": 0.0, "per_mf_stone": 0.0, "per_mf_cement": 1.0, "per_mf_fl_tile": 0.0, "per_mf_oth": 0.0, "per_dw_n_exrm": 0.0, "per_dw_1_room": 30.3, "per_dw_2_room": 20.2, "per_dw_3_room": 20.2, "per_dw_4_room": 7.1, "per_dw_5_room": 8.1, "per_dw_6_room": 14.1, "per_hhsize_1": 2.0, "per_hhsize_2": 5.1, "per_hhsize_3": 6.1, "per_hhsize_4": 7.1, "per_hhsize_5": 17.2, "per_hhsize_6_8": 35.4, "per_hhsize_9p": 27.3, "per_ow_owned": 100.0, "per_ow_rented": 0.0, "per_ow_oth": 0.0, "per_mc_none": 7.1, "per_mcouple_1": 52.5, "per_mcouple_2": 21.2, "per_mcouple_3": 12.1, "per_mcouple_4": 5.1, "per_mcouple_5p": 2.0, "per_dw_t_ts": 8.1, "per_dw_t_unts": 0.0, "per_dw_c_well": 1.0, "per_dw_unc_wel": 0.0, "per_dw_hpump": 90.9, "per_dw_tw_bore": 0.0, "per_dw_spring": 0.0, "per_dw_rivcan": 0.0, "per_dw_tank": 0.0, "per_dw_oth": 0.0, "per_loc_dw_wp": 71.7, "per_loc_dw_np": 27.3, "per_loc_dw_aw": 1.0, "per_light_elec": 19.2, "per_light_kero": 80.8, "per_light_solr": 0.0, "per_light_oil": 0.0, "per_light_oth": 0.0, "per_light_no": 0.0, "per_hh_latrine": 15.2, "per_fl_sewer": 1.0, "per_fl_septict": 14.1, "per_fl_othsys": 0.0, "per_pl_wslab": 0.0, "per_pl_without": 0.0, "per_ns_open": 0.0, "per_sl_ns_hum": 0.0, "per_sl_ns_anml": 0.0, "per_hh_no_lat": 84.8, "per_as_pub": 0.0, "per_as_open": 84.8, "per_hh_bathrm": 8.1, "per_hh_en_wrf": 61.6, "per_hh_no_btrm": 30.3, "per_wwoc_drain": 3.0, "per_wwoc_open": 66.7, "per_wwoc_nodrn": 30.3, "per_cook_fire": 12.1, "per_cook_resdu": 4.0, "per_cook_cwdng": 62.6, "per_cook_coal": 0.0, "per_cook_kero": 2.0, "per_cook_lpng": 19.2, "per_cook_elec": 0.0, "per_cook_biogs": 0.0, "per_cook_oth": 0.0, "per_cook_no": 0.0, "per_kf_inside": 100.0, "per_kf_in_has": 11.1, "per_kf_in_does": 88.9, "per_kf_outside": 0.0, "per_kf_out_has": 0.0, "per_kf_out_dos": 0.0, "per_kf_no_cook": 0.0, "per_hh_banking": 100.0, "per_hh_radio": 69.7, "per_hh_tv": 29.3, "per_hh_cmp_int": 4.0, "per_hh_cmp_wnt": 17.2, "per_hh_ph_ll": 9.1, "per_hh_ph_mob": 82.8, "per_hh_ph_bth": 2.0, "per_hh_bcycl": 89.9, "per_hh_2wheel": 30.3, "per_hh_4wheel": 9.1, "per_hh_tvcomp": 5.1, "per_hh_no_ast": 3.0, "per_hs_perma": 88.9, "per_hs_sperma": 4.0, "per_hs_temp": 7.1, "per_hs_servc": 6.1, "per_hs_nservc": 1.0, "per_hs_unclss": 0.0, "avghhsz_cy": 6.71153846, "st_areashape": 645108.74710287, "st_lengthshape": 3293.488992598835}, "geometry": {"type": "Polygon", "coordinates": [[[82.68845901023651, 26.928720353242092], [82.68828703855513, 26.928759065293843], [82.688072052843, 26.92879782538701], [82.68703996583668, 26.928876007085332], [82.68553495715575, 26.929070267739643], [82.68544894526393, 26.929070359844182], [82.68440079188875, 26.929071477913208], [82.68509175534403, 26.92529041512285], [82.68593564529836, 26.924507660179504], [82.68704601958338, 26.923686399878683], [82.68776444363859, 26.92312913624062], [82.6882870897591, 26.922835692161907], [82.68920204813048, 26.922571100933116], [82.69014942220892, 26.922101451876078], [82.6909334080085, 26.92169054098792], [82.69139057862287, 26.921338580364846], [82.69148900523196, 26.92160206835543], [82.69207847163656, 26.922362922077248], [82.69253653337972, 26.922655290902608], [82.69286387228273, 26.922977101980678], [82.69306062758444, 26.923416212811233], [82.69311473491067, 26.923609126863152], [82.6931263348559, 26.923650438942737], [82.693191961279, 26.923826101013724], [82.69329039237962, 26.924089586398896], [82.69348741807424, 26.924733712056263], [82.69378220292967, 26.92514341606221], [82.6939133767241, 26.92543614531118], [82.69407727614431, 26.92575813507429], [82.69417570993987, 26.9260216183499], [82.69424137858378, 26.926226561107992], [82.69430738409592, 26.926671770356915], [82.69413317111791, 26.926671964981967], [82.6940042008909, 26.926710649704305], [82.69340237815955, 26.926903967395116], [82.69262830257416, 26.926943355249286], [82.69232747026025, 26.92709782217396], [82.69181186603325, 26.927445157134162], [82.69142500386121, 26.92759971788016], [82.69112411585174, 26.927715642905977], [82.69060829602908, 26.92790885475523], [82.69043625697405, 26.927909043771717], [82.6901785914045, 26.928179038270983], [82.68919030804804, 26.928835148633024], [82.68888924217214, 26.928835477006412], [82.68863105018983, 26.92872016582877], [82.68845901023651, 26.928720353242092]]]}}]}