{"type": "FeatureCollection", "features": [{"type": "Feature", "properties": {"premiumdata.sde.IN_Village_PCA.area": 13.45212444, "objectid": 101100, "id": "274854109640937", "name": "Mangyal", "subdistrict": "Mukhed", "district": "Nanded", "state": "Maharashtra", "country": "India", "censusname": "Mangyal", "villagename_locallang": "\u092e\u093e\u0928\u0917\u094d\u092f\u093e\u0933", "lgd_villagename": "Mangyal", "lgd_villagecode": 545467, "lgd_subdistrictcode": 4109, "lgd_districtcode": 485, "lgd_statecode": 27, "censuscode2001": "02039700", "censuscode2011": "545467", "censuscode2021": null, "level": "Village", "tru": "Rural", "no_hh": 527, "tot_p": 2610, "tot_m": 1321, "tot_f": 1289, "per_tot_m": 50.61302682, "per_tot_f": 49.38697318, "p_06": 413, "m_06": 214, "f_06": 199, "per_p_06": 15.82375479, "per_m_06": 51.81598063, "per_f_06": 48.18401937, "p_sc": 650, "m_sc": 322, "f_sc": 328, "per_p_sc": 24.90421456, "per_m_sc": 49.53846154, "per_f_sc": 50.46153846, "p_st": 160, "m_st": 91, "f_st": 69, "per_p_st": 6.1302682, "per_m_st": 56.875, "per_f_st": 43.125, "p_lit": 1479, "m_lit": 863, "f_lit": 616, "per_p_lit": 56.66666667000001, "per_m_lit": 58.35023665, "per_f_lit": 41.64976335, "p_ill": 1131, "m_ill": 458, "f_ill": 673, "per_p_ill": 43.33333333, "per_m_ill": 40.49513705, "per_f_ill": 59.50486295, "tot_work_p": 1348, "tot_work_m": 703, "tot_work_f": 645, "per_tot_work_p": 51.64750958, "per_tot_work_m": 52.15133531, "per_tot_work_f": 47.84866469, "mainwork_p": 1314, "mainwork_m": 684, "mainwork_f": 630, "per_mainwork_p": 50.34482759, "per_mainwork_m": 52.05479452, "per_mainwork_f": 47.94520548, "main_cl_p": 345, "main_cl_m": 185, "main_cl_f": 160, "per_main_cl_p": 26.25570776, "per_main_cl_m": 53.62318841, "per_main_cl_f": 46.37681159, "main_al_p": 866, "main_al_m": 418, "main_al_f": 448, "per_main_al_p": 65.90563166000001, "per_main_al_m": 48.26789838, "per_main_al_f": 51.73210162, "main_hh_p": 6, "main_hh_m": 3, "main_hh_f": 3, "per_main_hh_p": 0.456621, "per_main_hh_m": 50.0, "per_main_hh_f": 50.0, "main_ot_p": 97, "main_ot_m": 78, "main_ot_f": 19, "per_main_ot_p": 7.38203957, "per_main_ot_m": 80.41237113, "per_main_ot_f": 19.58762887, "margwork_p": 34, "margwork_m": 19, "margwork_f": 15, "per_margwork_p": 1.30268199, "per_margwork_m": 55.88235294, "per_margwork_f": 44.11764706, "marg_cl_p": 7, "marg_cl_m": 5, "marg_cl_f": 2, "per_marg_cl_p": 20.58823529, "per_marg_cl_m": 71.42857143, "per_marg_cl_f": 28.57142857, "marg_al_p": 18, "marg_al_m": 10, "marg_al_f": 8, "per_marg_al_p": 52.94117647, "per_marg_al_m": 55.55555556, "per_marg_al_f": 44.44444444000001, "marg_hh_p": 4, "marg_hh_m": 2, "marg_hh_f": 2, "per_marg_hh_p": 11.76470588, "per_marg_hh_m": 50.0, "per_marg_hh_f": 50.0, "marg_ot_p": 5, "marg_ot_m": 2, "marg_ot_f": 3, "per_marg_ot_p": 14.70588235, "per_marg_ot_m": 40.0, "per_marg_ot_f": 60.0, "margwork_3_6_p": 32, "margwork_3_6_m": 18, "margwork_3_6_f": 14, "per_margwork_3_6_p": 94.11764706, "per_margwork_3_6_m": 56.25, "per_margwork_3_6_f": 43.75, "marg_cl_3_6_p": 7, "marg_cl_3_6_m": 5, "marg_cl_3_6_f": 2, "per_marg_cl_3_6_p": 20.58823529, "per_marg_cl_3_6_m": 71.42857143, "per_marg_cl_3_6_f": 28.57142857, "marg_al_3_6_p": 18, "marg_al_3_6_m": 10, "marg_al_3_6_f": 8, "per_marg_al_3_6_p": 52.94117647, "per_marg_al_3_6_m": 55.55555556, "per_marg_al_3_6_f": 44.44444444000001, "marg_hh_3_6_p": 2, "marg_hh_3_6_m": 1, "marg_hh_3_6_f": 1, "per_marg_hh_3_6_p": 5.88235294, "per_marg_hh_3_6_m": 50.0, "per_marg_hh_3_6_f": 50.0, "marg_ot_3_6_p": 5, "marg_ot_3_6_m": 2, "marg_ot_3_6_f": 3, "per_marg_ot_3_6_p": 14.70588235, "per_marg_ot_3_6_m": 40.0, "per_marg_ot_3_6_f": 60.0, "margwork_0_3_p": 2, "margwork_0_3_m": 1, "margwork_0_3_f": 1, "per_margwork_0_3_p": 5.88235294, "per_margwork_0_3_m": 50.0, "per_margwork_0_3_f": 50.0, "marg_cl_0_3_p": 0, "marg_cl_0_3_m": 0, "marg_cl_0_3_f": 0, "per_marg_cl_0_3_p": 0.0, "per_marg_cl_0_3_m": 0.0, "per_marg_cl_0_3_f": 0.0, "marg_al_0_3_p": 0, "marg_al_0_3_m": 0, "marg_al_0_3_f": 0, "per_marg_al_0_3_p": 0.0, "per_marg_al_0_3_m": 0.0, "per_marg_al_0_3_f": 0.0, "marg_hh_0_3_p": 2, "marg_hh_0_3_m": 1, "marg_hh_0_3_f": 1, "per_marg_hh_0_3_p": 5.88235294, "per_marg_hh_0_3_m": 50.0, "per_marg_hh_0_3_f": 50.0, "marg_ot_0_3_p": 0, "marg_ot_0_3_m": 0, "marg_ot_0_3_f": 0, "per_marg_ot_0_3_p": 0.0, "per_marg_ot_0_3_m": 0.0, "per_marg_ot_0_3_f": 0.0, "non_work_p": 1262, "non_work_m": 618, "non_work_f": 644, "per_non_work_p": 48.35249042, "per_non_work_m": 48.96988906, "per_non_work_f": 51.03011094, "per_hc_tot_tot": 100, "per_hc_tot_god": 15.0, "per_hc_tot_liv": 71.3, "per_hc_tot_dil": 13.7, "per_hc_res_tot": 99.8, "per_hc_res_god": 15.0, "per_hc_res_liv": 71.1, "per_hc_res_dil": 13.7, "per_hc_oth_tot": 0.2, "per_hc_oth_god": 0.0, "per_hc_oth_liv": 0.2, "per_hc_oth_dil": 0.0, "per_mt_grsbam": 16.5, "per_mt_plastic": 0.0, "per_mt_h_tiles": 33.6, "per_mt_m_tiles": 0.7, "per_mt_b_brick": 0.7, "per_mt_stone": 0.8, "per_mt_asbstos": 46.7, "per_mt_concrte": 1.1, "per_mt_oth": 0.0, "per_mw_grsbam": 14.4, "per_mw_plastic": 0.2, "per_mw_mud": 34.9, "per_mw_wood": 0.8, "per_mw_no_mrtr": 5.1, "per_mw_st_mrtr": 33.1, "per_mw_asbstos": 0.0, "per_mw_b_brick": 9.1, "per_mw_concrte": 0.0, "per_mw_oth": 2.4, "per_mf_mud": 84.2, "per_mf_wood": 0.2, "per_mf_b_brick": 0.0, "per_mf_stone": 13.2, "per_mf_cement": 1.5, "per_mf_fl_tile": 1.0, "per_mf_oth": 0.0, "per_dw_n_exrm": 1.1, "per_dw_1_room": 77.8, "per_dw_2_room": 17.5, "per_dw_3_room": 2.8, "per_dw_4_room": 0.5, "per_dw_5_room": 0.0, "per_dw_6_room": 0.3, "per_hhsize_1": 2.4, "per_hhsize_2": 9.3, "per_hhsize_3": 10.6, "per_hhsize_4": 21.9, "per_hhsize_5": 25.3, "per_hhsize_6_8": 27.1, "per_hhsize_9p": 3.4, "per_ow_owned": 99.2, "per_ow_rented": 0.2, "per_ow_oth": 0.7, "per_mc_none": 5.7, "per_mcouple_1": 80.6, "per_mcouple_2": 11.6, "per_mcouple_3": 1.8, "per_mcouple_4": 0.3, "per_mcouple_5p": 0.0, "per_dw_t_ts": 0.2, "per_dw_t_unts": 21.7, "per_dw_c_well": 0.2, "per_dw_unc_wel": 78.0, "per_dw_hpump": 0.0, "per_dw_tw_bore": 0.0, "per_dw_spring": 0.0, "per_dw_rivcan": 0.0, "per_dw_tank": 0.0, "per_dw_oth": 0.0, "per_loc_dw_wp": 0.2, "per_loc_dw_np": 19.7, "per_loc_dw_aw": 80.1, "per_light_elec": 56.1, "per_light_kero": 43.7, "per_light_solr": 0.0, "per_light_oil": 0.0, "per_light_oth": 0.0, "per_light_no": 0.2, "per_hh_latrine": 3.1, "per_fl_sewer": 0.0, "per_fl_septict": 1.5, "per_fl_othsys": 1.3, "per_pl_wslab": 0.2, "per_pl_without": 0.0, "per_ns_open": 0.2, "per_sl_ns_hum": 0.0, "per_sl_ns_anml": 0.0, "per_hh_no_lat": 96.9, "per_as_pub": 0.0, "per_as_open": 96.9, "per_hh_bathrm": 13.7, "per_hh_en_wrf": 31.3, "per_hh_no_btrm": 55.0, "per_wwoc_drain": 0.2, "per_wwoc_open": 15.5, "per_wwoc_nodrn": 84.3, "per_cook_fire": 77.0, "per_cook_resdu": 17.3, "per_cook_cwdng": 4.7, "per_cook_coal": 0.8, "per_cook_kero": 0.0, "per_cook_lpng": 0.0, "per_cook_elec": 0.0, "per_cook_biogs": 0.0, "per_cook_oth": 0.2, "per_cook_no": 0.0, "per_kf_inside": 69.0, "per_kf_in_has": 13.2, "per_kf_in_does": 55.8, "per_kf_outside": 31.0, "per_kf_out_has": 28.7, "per_kf_out_dos": 2.3, "per_kf_no_cook": 0.0, "per_hh_banking": 15.2, "per_hh_radio": 0.7, "per_hh_tv": 1.0, "per_hh_cmp_int": 0.0, "per_hh_cmp_wnt": 0.7, "per_hh_ph_ll": 1.5, "per_hh_ph_mob": 17.6, "per_hh_ph_bth": 0.0, "per_hh_bcycl": 0.2, "per_hh_2wheel": 1.0, "per_hh_4wheel": 0.2, "per_hh_tvcomp": 0.0, "per_hh_no_ast": 79.8, "per_hs_perma": 46.0, "per_hs_sperma": 36.5, "per_hs_temp": 15.0, "per_hs_servc": 1.8, "per_hs_nservc": 13.2, "per_hs_unclss": 2.4, "avghhsz_cy": 4.95256167, "st_areashape": 15062238.87602804, "st_lengthshape": 15523.650907164749}, "geometry": {"type": "Polygon", "coordinates": [[[77.3152456723244, 18.655382189972464], [77.3147872386787, 18.65629805290769], [77.30903270193555, 18.654912823558814], [77.30603967980055, 18.65266325973994], [77.30308832063012, 18.651124327675568], [77.29877022416225, 18.651218165707412], [77.29637318750589, 18.65055516677057], [77.2925718639732, 18.649291406447134], [77.29137144615736, 18.648248797119408], [77.2882370220101, 18.64815401436789], [77.2849692169078, 18.64755372096091], [77.28433566298567, 18.647048208853263], [77.28430306941223, 18.645590128440926], [77.28362933115251, 18.636333407158926], [77.28329246112433, 18.632157076825347], [77.28472415649829, 18.627608218608447], [77.28364054572054, 18.617492816708268], [77.28997342772506, 18.613972676401357], [77.29240915122746, 18.615761609742094], [77.29496666202789, 18.617261990528128], [77.2992291779325, 18.61853153277024], [77.30221294023353, 18.618589239126702], [77.30659724253785, 18.61835841358336], [77.30945921843917, 18.618704651780895], [77.31122511764154, 18.619570242488216], [77.31353905564258, 18.62343649464972], [77.31493959654415, 18.626956439057214], [77.31810603754643, 18.628456721063692], [77.31889764734787, 18.63001469230629], [77.3220640883501, 18.63278438312845], [77.32299218458253, 18.633631259435496], [77.3152456723244, 18.655382189972464]]]}}]}