{"type": "FeatureCollection", "features": [{"type": "Feature", "properties": {"premiumdata.sde.IN_Village_PCA.area": 0.02296262, "objectid": 612335, "id": "176631966159046", "name": "Anchenggre", "subdistrict": "Betasing", "district": "South West Garo Hills", "state": "Meghalaya", "country": "India", "censusname": "Anchenggre", "villagename_locallang": null, "lgd_villagename": "Anchenggre", "lgd_villagecode": 273654, "lgd_subdistrictcode": 1966, "lgd_districtcode": 663, "lgd_statecode": 17, "censuscode2001": "00089000", "censuscode2011": "273654", "censuscode2021": null, "level": "Village", "tru": "Rural", "no_hh": 34, "tot_p": 173, "tot_m": 90, "tot_f": 83, "per_tot_m": 52.02312139, "per_tot_f": 47.97687861, "p_06": 34, "m_06": 18, "f_06": 16, "per_p_06": 19.65317919, "per_m_06": 52.94117647, "per_f_06": 47.05882353, "p_sc": 0, "m_sc": 0, "f_sc": 0, "per_p_sc": 0.0, "per_m_sc": 0.0, "per_f_sc": 0.0, "p_st": 173, "m_st": 90, "f_st": 83, "per_p_st": 100.0, "per_m_st": 52.02312139, "per_f_st": 47.97687861, "p_lit": 86, "m_lit": 46, "f_lit": 40, "per_p_lit": 49.71098266, "per_m_lit": 53.48837209000001, "per_f_lit": 46.51162791, "p_ill": 87, "m_ill": 44, "f_ill": 43, "per_p_ill": 50.28901734, "per_m_ill": 50.57471264, "per_f_ill": 49.42528736, "tot_work_p": 81, "tot_work_m": 43, "tot_work_f": 38, "per_tot_work_p": 46.82080925, "per_tot_work_m": 53.08641975, "per_tot_work_f": 46.91358025, "mainwork_p": 42, "mainwork_m": 31, "mainwork_f": 11, "per_mainwork_p": 24.27745665, "per_mainwork_m": 73.80952381, "per_mainwork_f": 26.19047619, "main_cl_p": 10, "main_cl_m": 8, "main_cl_f": 2, "per_main_cl_p": 23.80952381, "per_main_cl_m": 80.0, "per_main_cl_f": 20.0, "main_al_p": 3, "main_al_m": 2, "main_al_f": 1, "per_main_al_p": 7.14285714, "per_main_al_m": 66.66666667, "per_main_al_f": 33.33333333, "main_hh_p": 0, "main_hh_m": 0, "main_hh_f": 0, "per_main_hh_p": 0.0, "per_main_hh_m": 0.0, "per_main_hh_f": 0.0, "main_ot_p": 29, "main_ot_m": 21, "main_ot_f": 8, "per_main_ot_p": 69.04761905000001, "per_main_ot_m": 72.4137931, "per_main_ot_f": 27.5862069, "margwork_p": 39, "margwork_m": 12, "margwork_f": 27, "per_margwork_p": 22.5433526, "per_margwork_m": 30.76923077, "per_margwork_f": 69.23076923, "marg_cl_p": 4, "marg_cl_m": 0, "marg_cl_f": 4, "per_marg_cl_p": 10.25641026, "per_marg_cl_m": 0.0, "per_marg_cl_f": 100.0, "marg_al_p": 0, "marg_al_m": 0, "marg_al_f": 0, "per_marg_al_p": 0.0, "per_marg_al_m": 0.0, "per_marg_al_f": 0.0, "marg_hh_p": 0, "marg_hh_m": 0, "marg_hh_f": 0, "per_marg_hh_p": 0.0, "per_marg_hh_m": 0.0, "per_marg_hh_f": 0.0, "marg_ot_p": 35, "marg_ot_m": 12, "marg_ot_f": 23, "per_marg_ot_p": 89.74358974, "per_marg_ot_m": 34.28571429, "per_marg_ot_f": 65.71428571, "margwork_3_6_p": 23, "margwork_3_6_m": 5, "margwork_3_6_f": 18, "per_margwork_3_6_p": 58.97435897, "per_margwork_3_6_m": 21.73913043, "per_margwork_3_6_f": 78.26086957, "marg_cl_3_6_p": 4, "marg_cl_3_6_m": 0, "marg_cl_3_6_f": 4, "per_marg_cl_3_6_p": 10.25641026, "per_marg_cl_3_6_m": 0.0, "per_marg_cl_3_6_f": 100.0, "marg_al_3_6_p": 0, "marg_al_3_6_m": 0, "marg_al_3_6_f": 0, "per_marg_al_3_6_p": 0.0, "per_marg_al_3_6_m": 0.0, "per_marg_al_3_6_f": 0.0, "marg_hh_3_6_p": 0, "marg_hh_3_6_m": 0, "marg_hh_3_6_f": 0, "per_marg_hh_3_6_p": 0.0, "per_marg_hh_3_6_m": 0.0, "per_marg_hh_3_6_f": 0.0, "marg_ot_3_6_p": 19, "marg_ot_3_6_m": 5, "marg_ot_3_6_f": 14, "per_marg_ot_3_6_p": 48.71794872, "per_marg_ot_3_6_m": 26.31578947, "per_marg_ot_3_6_f": 73.68421053, "margwork_0_3_p": 16, "margwork_0_3_m": 7, "margwork_0_3_f": 9, "per_margwork_0_3_p": 41.02564103, "per_margwork_0_3_m": 43.75, "per_margwork_0_3_f": 56.25, "marg_cl_0_3_p": 0, "marg_cl_0_3_m": 0, "marg_cl_0_3_f": 0, "per_marg_cl_0_3_p": 0.0, "per_marg_cl_0_3_m": 0.0, "per_marg_cl_0_3_f": 0.0, "marg_al_0_3_p": 0, "marg_al_0_3_m": 0, "marg_al_0_3_f": 0, "per_marg_al_0_3_p": 0.0, "per_marg_al_0_3_m": 0.0, "per_marg_al_0_3_f": 0.0, "marg_hh_0_3_p": 0, "marg_hh_0_3_m": 0, "marg_hh_0_3_f": 0, "per_marg_hh_0_3_p": 0.0, "per_marg_hh_0_3_m": 0.0, "per_marg_hh_0_3_f": 0.0, "marg_ot_0_3_p": 16, "marg_ot_0_3_m": 7, "marg_ot_0_3_f": 9, "per_marg_ot_0_3_p": 41.02564103, "per_marg_ot_0_3_m": 43.75, "per_marg_ot_0_3_f": 56.25, "non_work_p": 92, "non_work_m": 47, "non_work_f": 45, "per_non_work_p": 53.17919075, "per_non_work_m": 51.08695652, "per_non_work_f": 48.91304348, "per_hc_tot_tot": 100, "per_hc_tot_god": 75.0, "per_hc_tot_liv": 25.0, "per_hc_tot_dil": 0.0, "per_hc_res_tot": 100.0, "per_hc_res_god": 75.0, "per_hc_res_liv": 25.0, "per_hc_res_dil": 0.0, "per_hc_oth_tot": 0.0, "per_hc_oth_god": 0.0, "per_hc_oth_liv": 0.0, "per_hc_oth_dil": 0.0, "per_mt_grsbam": 9.4, "per_mt_plastic": 0.0, "per_mt_h_tiles": 0.0, "per_mt_m_tiles": 0.0, "per_mt_b_brick": 0.0, "per_mt_stone": 0.0, "per_mt_asbstos": 90.6, "per_mt_concrte": 0.0, "per_mt_oth": 0.0, "per_mw_grsbam": 78.1, "per_mw_plastic": 0.0, "per_mw_mud": 12.5, "per_mw_wood": 0.0, "per_mw_no_mrtr": 0.0, "per_mw_st_mrtr": 0.0, "per_mw_asbstos": 0.0, "per_mw_b_brick": 9.4, "per_mw_concrte": 0.0, "per_mw_oth": 0.0, "per_mf_mud": 75.0, "per_mf_wood": 12.5, "per_mf_b_brick": 0.0, "per_mf_stone": 0.0, "per_mf_cement": 12.5, "per_mf_fl_tile": 0.0, "per_mf_oth": 0.0, "per_dw_n_exrm": 0.0, "per_dw_1_room": 15.6, "per_dw_2_room": 56.2, "per_dw_3_room": 21.9, "per_dw_4_room": 6.2, "per_dw_5_room": 0.0, "per_dw_6_room": 0.0, "per_hhsize_1": 0.0, "per_hhsize_2": 9.4, "per_hhsize_3": 15.6, "per_hhsize_4": 6.2, "per_hhsize_5": 25.0, "per_hhsize_6_8": 31.2, "per_hhsize_9p": 12.5, "per_ow_owned": 100.0, "per_ow_rented": 0.0, "per_ow_oth": 0.0, "per_mc_none": 9.4, "per_mcouple_1": 87.5, "per_mcouple_2": 3.1, "per_mcouple_3": 0.0, "per_mcouple_4": 0.0, "per_mcouple_5p": 0.0, "per_dw_t_ts": 0.0, "per_dw_t_unts": 0.0, "per_dw_c_well": 0.0, "per_dw_unc_wel": 0.0, "per_dw_hpump": 0.0, "per_dw_tw_bore": 0.0, "per_dw_spring": 100.0, "per_dw_rivcan": 0.0, "per_dw_tank": 0.0, "per_dw_oth": 0.0, "per_loc_dw_wp": 0.0, "per_loc_dw_np": 100.0, "per_loc_dw_aw": 0.0, "per_light_elec": 56.2, "per_light_kero": 43.8, "per_light_solr": 0.0, "per_light_oil": 0.0, "per_light_oth": 0.0, "per_light_no": 0.0, "per_hh_latrine": 81.2, "per_fl_sewer": 0.0, "per_fl_septict": 0.0, "per_fl_othsys": 0.0, "per_pl_wslab": 6.2, "per_pl_without": 75.0, "per_ns_open": 0.0, "per_sl_ns_hum": 0.0, "per_sl_ns_anml": 0.0, "per_hh_no_lat": 18.8, "per_as_pub": 0.0, "per_as_open": 18.8, "per_hh_bathrm": 0.0, "per_hh_en_wrf": 0.0, "per_hh_no_btrm": 100.0, "per_wwoc_drain": 0.0, "per_wwoc_open": 0.0, "per_wwoc_nodrn": 100.0, "per_cook_fire": 100.0, "per_cook_resdu": 0.0, "per_cook_cwdng": 0.0, "per_cook_coal": 0.0, "per_cook_kero": 0.0, "per_cook_lpng": 0.0, "per_cook_elec": 0.0, "per_cook_biogs": 0.0, "per_cook_oth": 0.0, "per_cook_no": 0.0, "per_kf_inside": 100.0, "per_kf_in_has": 96.9, "per_kf_in_does": 3.1, "per_kf_outside": 0.0, "per_kf_out_has": 0.0, "per_kf_out_dos": 0.0, "per_kf_no_cook": 0.0, "per_hh_banking": 9.4, "per_hh_radio": 31.2, "per_hh_tv": 18.8, "per_hh_cmp_int": 0.0, "per_hh_cmp_wnt": 3.1, "per_hh_ph_ll": 0.0, "per_hh_ph_mob": 9.4, "per_hh_ph_bth": 0.0, "per_hh_bcycl": 28.1, "per_hh_2wheel": 3.1, "per_hh_4wheel": 0.0, "per_hh_tvcomp": 0.0, "per_hh_no_ast": 34.4, "per_hs_perma": 9.4, "per_hs_sperma": 81.2, "per_hs_temp": 9.4, "per_hs_servc": 3.1, "per_hs_nservc": 6.2, "per_hs_unclss": 0.0, "avghhsz_cy": 5.08823529, "st_areashape": 31363.87350204, "st_lengthshape": 628.0581775956349}, "geometry": {"type": "Polygon", "coordinates": [[[90.05113711143315, 25.56401554130724], [90.05104766797695, 25.56401151456092], [90.05095911385288, 25.56399947321921], [90.0508723285116, 25.563979538835728], [90.05078817433578, 25.56395190751702], [90.05070748855528, 25.56391685559538], [90.05063107246733, 25.56387472990458], [90.05055968514831, 25.563825949400925], [90.05049403716566, 25.56377100030148], [90.05043478069626, 25.563710427170122], [90.05038250323831, 25.56364483210775], [90.05033772581466, 25.56357486826961], [90.05030089309136, 25.563501229330804], [90.05027237158112, 25.563424647865848], [90.05025244335485, 25.563345885624518], [90.05024130783859, 25.56326572461787], [90.0502390755251, 25.563184961445863], [90.05024576797398, 25.563104399193552], [90.05026131870986, 25.56302483851711], [90.05028557412082, 25.562947069539735], [90.05031829166181, 25.562871866179073], [90.05035914793923, 25.562799974801614], [90.050407735118, 25.562732110170394], [90.05046357170113, 25.562668947341088], [90.05052610163142, 25.562611113557562], [90.05059470507136, 25.56255918338945], [90.05066869840299, 25.562513673869198], [90.05074734680443, 25.56247503638799], [90.05082986963968, 25.562443655074617], [90.05091544584862, 25.562419842743125], [90.05100322472659, 25.562403834409512], [90.0510923340095, 25.562395790533092], [90.05118188885682, 25.562395790533092], [90.05127099813976, 25.562403834409512], [90.05135877701774, 25.562419842743125], [90.05144435322663, 25.562443655074617], [90.05152687606189, 25.56247503638799], [90.05160552446333, 25.562513673869198], [90.05167951779498, 25.56255918338945], [90.05174812123492, 25.562611113557562], [90.05181065116521, 25.562668947341088], [90.05186648774833, 25.562732110170394], [90.05191507492707, 25.562799974801614], [90.05195593120453, 25.562871866179073], [90.05198864874549, 25.562947069539735], [90.05201290415648, 25.56302483851711], [90.05202845489237, 25.563104399193552], [90.05203514734124, 25.563184961445863], [90.05203291502777, 25.56326572461787], [90.05202177951146, 25.563345885624518], [90.05200185128523, 25.563424647865848], [90.05197332977494, 25.563501229330804], [90.05193649705166, 25.56357486826961], [90.051891719628, 25.56364483210775], [90.05183944217005, 25.563710427170122], [90.05178018570065, 25.56377100030148], [90.051714537718, 25.563825949400925], [90.05164315039903, 25.56387472990458], [90.05156673431107, 25.56391685559538], [90.05148604853053, 25.56395190751702], [90.05140189435475, 25.563979538835728], [90.05131510901346, 25.56399947321921], [90.05122655488938, 25.56401151456092], [90.05113711143315, 25.56401554130724]]]}}]}