{"type": "FeatureCollection", "features": [{"type": "Feature", "properties": {"premiumdata.sde.IN_Village_PCA.area": 8.51201908, "objectid": 478491, "id": "102001456307110", "name": "Amahra", "subdistrict": "Adhaura", "district": "Kaimur (Bhabua)", "state": "Bihar", "country": "India", "censusname": "Amahra", "villagename_locallang": null, "lgd_villagename": "Amahra", "lgd_villagecode": 250514, "lgd_subdistrictcode": 1456, "lgd_districtcode": 200, "lgd_statecode": 10, "censuscode2001": "03468100", "censuscode2011": "250514", "censuscode2021": null, "level": "Village", "tru": "Rural", "no_hh": 71, "tot_p": 417, "tot_m": 215, "tot_f": 202, "per_tot_m": 51.558753, "per_tot_f": 48.441247, "p_06": 98, "m_06": 49, "f_06": 49, "per_p_06": 23.50119904, "per_m_06": 50.0, "per_f_06": 50.0, "p_sc": 60, "m_sc": 28, "f_sc": 32, "per_p_sc": 14.38848921, "per_m_sc": 46.66666667000001, "per_f_sc": 53.33333333, "p_st": 276, "m_st": 148, "f_st": 128, "per_p_st": 66.18705036, "per_m_st": 53.62318841, "per_f_st": 46.37681159, "p_lit": 172, "m_lit": 109, "f_lit": 63, "per_p_lit": 41.2470024, "per_m_lit": 63.37209302, "per_f_lit": 36.62790698, "p_ill": 245, "m_ill": 106, "f_ill": 139, "per_p_ill": 58.7529976, "per_m_ill": 43.26530612000001, "per_f_ill": 56.73469388, "tot_work_p": 220, "tot_work_m": 113, "tot_work_f": 107, "per_tot_work_p": 52.75779376, "per_tot_work_m": 51.36363636, "per_tot_work_f": 48.63636364, "mainwork_p": 28, "mainwork_m": 23, "mainwork_f": 5, "per_mainwork_p": 6.7146283, "per_mainwork_m": 82.14285714, "per_mainwork_f": 17.85714286, "main_cl_p": 18, "main_cl_m": 18, "main_cl_f": 0, "per_main_cl_p": 64.28571429, "per_main_cl_m": 100.0, "per_main_cl_f": 0.0, "main_al_p": 6, "main_al_m": 4, "main_al_f": 2, "per_main_al_p": 21.42857143, "per_main_al_m": 66.66666667, "per_main_al_f": 33.33333333, "main_hh_p": 0, "main_hh_m": 0, "main_hh_f": 0, "per_main_hh_p": 0.0, "per_main_hh_m": 0.0, "per_main_hh_f": 0.0, "main_ot_p": 4, "main_ot_m": 1, "main_ot_f": 3, "per_main_ot_p": 14.28571429, "per_main_ot_m": 25.0, "per_main_ot_f": 75.0, "margwork_p": 192, "margwork_m": 90, "margwork_f": 102, "per_margwork_p": 46.04316547000001, "per_margwork_m": 46.875, "per_margwork_f": 53.125, "marg_cl_p": 4, "marg_cl_m": 2, "marg_cl_f": 2, "per_marg_cl_p": 2.08333333, "per_marg_cl_m": 50.0, "per_marg_cl_f": 50.0, "marg_al_p": 142, "marg_al_m": 79, "marg_al_f": 63, "per_marg_al_p": 73.95833332999999, "per_marg_al_m": 55.63380282, "per_marg_al_f": 44.36619718, "marg_hh_p": 3, "marg_hh_m": 0, "marg_hh_f": 3, "per_marg_hh_p": 1.5625, "per_marg_hh_m": 0.0, "per_marg_hh_f": 100.0, "marg_ot_p": 43, "marg_ot_m": 9, "marg_ot_f": 34, "per_marg_ot_p": 22.39583333, "per_marg_ot_m": 20.93023256, "per_marg_ot_f": 79.06976744, "margwork_3_6_p": 185, "margwork_3_6_m": 87, "margwork_3_6_f": 98, "per_margwork_3_6_p": 96.35416667, "per_margwork_3_6_m": 47.02702703, "per_margwork_3_6_f": 52.97297297, "marg_cl_3_6_p": 4, "marg_cl_3_6_m": 2, "marg_cl_3_6_f": 2, "per_marg_cl_3_6_p": 2.08333333, "per_marg_cl_3_6_m": 50.0, "per_marg_cl_3_6_f": 50.0, "marg_al_3_6_p": 138, "marg_al_3_6_m": 77, "marg_al_3_6_f": 61, "per_marg_al_3_6_p": 71.875, "per_marg_al_3_6_m": 55.79710145, "per_marg_al_3_6_f": 44.20289855, "marg_hh_3_6_p": 3, "marg_hh_3_6_m": 0, "marg_hh_3_6_f": 3, "per_marg_hh_3_6_p": 1.5625, "per_marg_hh_3_6_m": 0.0, "per_marg_hh_3_6_f": 100.0, "marg_ot_3_6_p": 40, "marg_ot_3_6_m": 8, "marg_ot_3_6_f": 32, "per_marg_ot_3_6_p": 20.83333333, "per_marg_ot_3_6_m": 20.0, "per_marg_ot_3_6_f": 80.0, "margwork_0_3_p": 7, "margwork_0_3_m": 3, "margwork_0_3_f": 4, "per_margwork_0_3_p": 3.64583333, "per_margwork_0_3_m": 42.85714286, "per_margwork_0_3_f": 57.14285714, "marg_cl_0_3_p": 0, "marg_cl_0_3_m": 0, "marg_cl_0_3_f": 0, "per_marg_cl_0_3_p": 0.0, "per_marg_cl_0_3_m": 0.0, "per_marg_cl_0_3_f": 0.0, "marg_al_0_3_p": 4, "marg_al_0_3_m": 2, "marg_al_0_3_f": 2, "per_marg_al_0_3_p": 2.08333333, "per_marg_al_0_3_m": 50.0, "per_marg_al_0_3_f": 50.0, "marg_hh_0_3_p": 0, "marg_hh_0_3_m": 0, "marg_hh_0_3_f": 0, "per_marg_hh_0_3_p": 0.0, "per_marg_hh_0_3_m": 0.0, "per_marg_hh_0_3_f": 0.0, "marg_ot_0_3_p": 3, "marg_ot_0_3_m": 1, "marg_ot_0_3_f": 2, "per_marg_ot_0_3_p": 1.5625, "per_marg_ot_0_3_m": 33.33333333, "per_marg_ot_0_3_f": 66.66666667, "non_work_p": 197, "non_work_m": 102, "non_work_f": 95, "per_non_work_p": 47.24220624, "per_non_work_m": 51.77664975, "per_non_work_f": 48.22335025, "per_hc_tot_tot": 100, "per_hc_tot_god": 91.4, "per_hc_tot_liv": 4.3, "per_hc_tot_dil": 4.3, "per_hc_res_tot": 100.0, "per_hc_res_god": 91.4, "per_hc_res_liv": 4.3, "per_hc_res_dil": 4.3, "per_hc_oth_tot": 0.0, "per_hc_oth_god": 0.0, "per_hc_oth_liv": 0.0, "per_hc_oth_dil": 0.0, "per_mt_grsbam": 98.6, "per_mt_plastic": 0.0, "per_mt_h_tiles": 1.4, "per_mt_m_tiles": 0.0, "per_mt_b_brick": 0.0, "per_mt_stone": 0.0, "per_mt_asbstos": 0.0, "per_mt_concrte": 0.0, "per_mt_oth": 0.0, "per_mw_grsbam": 2.9, "per_mw_plastic": 0.0, "per_mw_mud": 97.1, "per_mw_wood": 0.0, "per_mw_no_mrtr": 0.0, "per_mw_st_mrtr": 0.0, "per_mw_asbstos": 0.0, "per_mw_b_brick": 0.0, "per_mw_concrte": 0.0, "per_mw_oth": 0.0, "per_mf_mud": 100.0, "per_mf_wood": 0.0, "per_mf_b_brick": 0.0, "per_mf_stone": 0.0, "per_mf_cement": 0.0, "per_mf_fl_tile": 0.0, "per_mf_oth": 0.0, "per_dw_n_exrm": 0.0, "per_dw_1_room": 37.1, "per_dw_2_room": 22.9, "per_dw_3_room": 15.7, "per_dw_4_room": 15.7, "per_dw_5_room": 7.1, "per_dw_6_room": 1.4, "per_hhsize_1": 1.4, "per_hhsize_2": 10.0, "per_hhsize_3": 7.1, "per_hhsize_4": 22.9, "per_hhsize_5": 12.9, "per_hhsize_6_8": 37.1, "per_hhsize_9p": 8.6, "per_ow_owned": 95.7, "per_ow_rented": 4.3, "per_ow_oth": 0.0, "per_mc_none": 5.7, "per_mcouple_1": 67.1, "per_mcouple_2": 24.3, "per_mcouple_3": 2.9, "per_mcouple_4": 0.0, "per_mcouple_5p": 0.0, "per_dw_t_ts": 0.0, "per_dw_t_unts": 0.0, "per_dw_c_well": 0.0, "per_dw_unc_wel": 0.0, "per_dw_hpump": 97.1, "per_dw_tw_bore": 0.0, "per_dw_spring": 0.0, "per_dw_rivcan": 2.9, "per_dw_tank": 0.0, "per_dw_oth": 0.0, "per_loc_dw_wp": 0.0, "per_loc_dw_np": 57.1, "per_loc_dw_aw": 42.9, "per_light_elec": 0.0, "per_light_kero": 100.0, "per_light_solr": 0.0, "per_light_oil": 0.0, "per_light_oth": 0.0, "per_light_no": 0.0, "per_hh_latrine": 0.0, "per_fl_sewer": 0.0, "per_fl_septict": 0.0, "per_fl_othsys": 0.0, "per_pl_wslab": 0.0, "per_pl_without": 0.0, "per_ns_open": 0.0, "per_sl_ns_hum": 0.0, "per_sl_ns_anml": 0.0, "per_hh_no_lat": 100.0, "per_as_pub": 0.0, "per_as_open": 100.0, "per_hh_bathrm": 0.0, "per_hh_en_wrf": 0.0, "per_hh_no_btrm": 100.0, "per_wwoc_drain": 0.0, "per_wwoc_open": 1.4, "per_wwoc_nodrn": 98.6, "per_cook_fire": 100.0, "per_cook_resdu": 0.0, "per_cook_cwdng": 0.0, "per_cook_coal": 0.0, "per_cook_kero": 0.0, "per_cook_lpng": 0.0, "per_cook_elec": 0.0, "per_cook_biogs": 0.0, "per_cook_oth": 0.0, "per_cook_no": 0.0, "per_kf_inside": 100.0, "per_kf_in_has": 98.6, "per_kf_in_does": 1.4, "per_kf_outside": 0.0, "per_kf_out_has": 0.0, "per_kf_out_dos": 0.0, "per_kf_no_cook": 0.0, "per_hh_banking": 2.9, "per_hh_radio": 22.9, "per_hh_tv": 1.4, "per_hh_cmp_int": 1.4, "per_hh_cmp_wnt": 1.4, "per_hh_ph_ll": 1.4, "per_hh_ph_mob": 15.7, "per_hh_ph_bth": 0.0, "per_hh_bcycl": 47.1, "per_hh_2wheel": 4.3, "per_hh_4wheel": 0.0, "per_hh_tvcomp": 0.0, "per_hh_no_ast": 42.9, "per_hs_perma": 0.0, "per_hs_sperma": 1.4, "per_hs_temp": 98.6, "per_hs_servc": 95.7, "per_hs_nservc": 2.9, "per_hs_unclss": 0.0, "avghhsz_cy": 5.87323944, "st_areashape": 10372311.327610675, "st_lengthshape": 13334.99339968598}, "geometry": {"type": "Polygon", "coordinates": [[[83.42828744740515, 24.79743875589918], [83.42683799682962, 24.79814309918689], [83.4252203061744, 24.798515956840287], [83.42319814636757, 24.79914557767449], [83.42121806364861, 24.799613270220416], [83.41865883976097, 24.80010536475071], [83.41762938212347, 24.80016048478127], [83.41464120280618, 24.79989380808389], [83.41245794991606, 24.799375191039935], [83.41006651695045, 24.798560750340968], [83.40702885573234, 24.79763907365068], [83.40484718028388, 24.79702113684793], [83.40365270482361, 24.797529839265035], [83.4029020078935, 24.797128032858478], [83.40041162729597, 24.795657929406357], [83.39957602879173, 24.79650739667284], [83.39956383955162, 24.7964949514282], [83.39873364082058, 24.795647347491727], [83.39844223273228, 24.795349827001495], [83.39633862357695, 24.79393433596305], [83.39493259037572, 24.792330157357778], [83.39392845534775, 24.791237058613746], [83.39283765445444, 24.790613023171808], [83.39244390579745, 24.790426433363464], [83.39168271474817, 24.79006571836872], [83.39125843594792, 24.78908869704034], [83.39125161773491, 24.78907299540679], [83.39218344826395, 24.7880578621904], [83.39237653933765, 24.78787312065336], [83.39340055408285, 24.786893380934565], [83.39342482835845, 24.786870155512787], [83.39333717075301, 24.785425370448298], [83.39317849413789, 24.784110242582994], [83.39314740254758, 24.78293202412321], [83.39314709352712, 24.782920318065703], [83.39334971482765, 24.782602384775192], [83.39356299374073, 24.782267649579914], [83.39357559620585, 24.782247855282822], [83.39395099767152, 24.78221099726561], [83.39512013525083, 24.782096200033177], [83.3953560651838, 24.782073034067025], [83.39560244252353, 24.782056568154985], [83.39703887291735, 24.781960570107085], [83.39703892232468, 24.781960566844713], [83.39732069328659, 24.781366651083236], [83.39731744138525, 24.781349102785565], [83.39731259317766, 24.781322938559494], [83.39704117889266, 24.779858220010706], [83.39697965777044, 24.778746530481104], [83.3969778746146, 24.77871430409071], [83.39780679683963, 24.77818366688834], [83.3988827252251, 24.777914514859], [83.39899544852192, 24.777886314947605], [83.40058162717528, 24.77748950583168], [83.4014782913559, 24.77691781232338], [83.40251577813541, 24.776256331238056], [83.40323636892711, 24.776123525157143], [83.40423450051402, 24.7759395676163], [83.4056116205395, 24.775517425296158], [83.40657548229667, 24.774971875225695], [83.40719106991311, 24.774623448557286], [83.40813594577672, 24.774105295191333], [83.40837923470846, 24.774123855907295], [83.40997416385102, 24.774245536355895], [83.41116153094242, 24.773834996497953], [83.41198487283295, 24.774344275208524], [83.41271262409575, 24.77499122126839], [83.41408370834084, 24.77434305664382], [83.41468028940248, 24.77412005910083], [83.41469200792538, 24.774115679111308], [83.41516592313668, 24.773938529203406], [83.41586637639462, 24.773676696525843], [83.41588379832126, 24.77367018442868], [83.41611509923554, 24.773543117717036], [83.41739873338605, 24.77283794065763], [83.4182989593868, 24.772379885244906], [83.41908642615812, 24.771979198034757], [83.4196448063623, 24.771677980517847], [83.42004776454763, 24.771460603781126], [83.42130648931364, 24.77181033540288], [83.42241444443559, 24.7721171993691], [83.4233248950609, 24.77240799179159], [83.42436319481574, 24.772750092790872], [83.42479624296979, 24.773558514633322], [83.4249348512215, 24.773885027990858], [83.4253977162565, 24.77435095039812], [83.42576384710843, 24.775009644009675], [83.42558835672608, 24.775846766181626], [83.42597841779886, 24.776226081280143], [83.4264954341775, 24.776706176147744], [83.42673630125122, 24.777137701403998], [83.42655137316855, 24.77760925404572], [83.42596906094685, 24.77820676506896], [83.42554015312794, 24.77912207676737], [83.42552742220374, 24.779988276779655], [83.42559026295113, 24.78076061760428], [83.42555189141375, 24.782023553134305], [83.42552432571095, 24.7828895290005], [83.42564449514313, 24.784136328741816], [83.4257339601589, 24.785445970017808], [83.4261751506427, 24.78705768366523], [83.42684685511662, 24.787787773304302], [83.42727618604205, 24.78818555098522], [83.42785873631729, 24.789929859017068], [83.42852283295906, 24.79118326719057], [83.42882784513401, 24.792301451837268], [83.42967434828748, 24.793588742617267], [83.43055342704811, 24.794682287106404], [83.43071217822344, 24.795992776895122], [83.42977681462037, 24.796378418992916], [83.42828744740515, 24.79743875589918]]]}}]}