{"type": "FeatureCollection", "features": [{"type": "Feature", "properties": {"premiumdata.sde.IN_Village_PCA.area": 2.46645516, "objectid": 348254, "id": "9186815411573", "name": "Narsa", "subdistrict": "Hasanganj", "district": "Unnao", "state": "Uttar Pradesh", "country": "India", "censusname": "Narsa", "villagename_locallang": null, "lgd_villagename": "Narsa", "lgd_villagecode": 141672, "lgd_subdistrictcode": 815, "lgd_districtcode": 186, "lgd_statecode": 9, "censuscode2001": "03453800", "censuscode2011": "141672", "censuscode2021": null, "level": "Village", "tru": "Rural", "no_hh": 368, "tot_p": 1988, "tot_m": 1059, "tot_f": 929, "per_tot_m": 53.26961771, "per_tot_f": 46.73038229, "p_06": 333, "m_06": 160, "f_06": 173, "per_p_06": 16.75050302, "per_m_06": 48.04804805, "per_f_06": 51.95195195, "p_sc": 1022, "m_sc": 552, "f_sc": 470, "per_p_sc": 51.4084507, "per_m_sc": 54.01174168, "per_f_sc": 45.98825832, "p_st": 0, "m_st": 0, "f_st": 0, "per_p_st": 0.0, "per_m_st": 0.0, "per_f_st": 0.0, "p_lit": 854, "m_lit": 550, "f_lit": 304, "per_p_lit": 42.95774648, "per_m_lit": 64.4028103, "per_f_lit": 35.5971897, "p_ill": 1134, "m_ill": 509, "f_ill": 625, "per_p_ill": 57.04225352, "per_m_ill": 44.88536155, "per_f_ill": 55.11463845, "tot_work_p": 654, "tot_work_m": 474, "tot_work_f": 180, "per_tot_work_p": 32.89738431, "per_tot_work_m": 72.47706422, "per_tot_work_f": 27.52293578, "mainwork_p": 310, "mainwork_m": 285, "mainwork_f": 25, "per_mainwork_p": 15.59356137, "per_mainwork_m": 91.93548387, "per_mainwork_f": 8.06451613, "main_cl_p": 250, "main_cl_m": 228, "main_cl_f": 22, "per_main_cl_p": 80.64516129, "per_main_cl_m": 91.2, "per_main_cl_f": 8.8, "main_al_p": 35, "main_al_m": 34, "main_al_f": 1, "per_main_al_p": 11.29032258, "per_main_al_m": 97.14285714, "per_main_al_f": 2.85714286, "main_hh_p": 18, "main_hh_m": 17, "main_hh_f": 1, "per_main_hh_p": 5.80645161, "per_main_hh_m": 94.44444444, "per_main_hh_f": 5.55555556, "main_ot_p": 7, "main_ot_m": 6, "main_ot_f": 1, "per_main_ot_p": 2.25806452, "per_main_ot_m": 85.71428571, "per_main_ot_f": 14.28571429, "margwork_p": 344, "margwork_m": 189, "margwork_f": 155, "per_margwork_p": 17.30382294, "per_margwork_m": 54.94186047, "per_margwork_f": 45.05813953000001, "marg_cl_p": 21, "marg_cl_m": 11, "marg_cl_f": 10, "per_marg_cl_p": 6.10465116, "per_marg_cl_m": 52.38095238, "per_marg_cl_f": 47.61904762, "marg_al_p": 302, "marg_al_m": 170, "marg_al_f": 132, "per_marg_al_p": 87.79069767, "per_marg_al_m": 56.29139073, "per_marg_al_f": 43.70860927, "marg_hh_p": 5, "marg_hh_m": 0, "marg_hh_f": 5, "per_marg_hh_p": 1.45348837, "per_marg_hh_m": 0.0, "per_marg_hh_f": 100.0, "marg_ot_p": 16, "marg_ot_m": 8, "marg_ot_f": 8, "per_marg_ot_p": 4.65116279, "per_marg_ot_m": 50.0, "per_marg_ot_f": 50.0, "margwork_3_6_p": 220, "margwork_3_6_m": 187, "margwork_3_6_f": 33, "per_margwork_3_6_p": 63.95348837, "per_margwork_3_6_m": 85.0, "per_margwork_3_6_f": 15.0, "marg_cl_3_6_p": 21, "marg_cl_3_6_m": 11, "marg_cl_3_6_f": 10, "per_marg_cl_3_6_p": 6.10465116, "per_marg_cl_3_6_m": 52.38095238, "per_marg_cl_3_6_f": 47.61904762, "marg_al_3_6_p": 178, "marg_al_3_6_m": 168, "marg_al_3_6_f": 10, "per_marg_al_3_6_p": 51.74418605, "per_marg_al_3_6_m": 94.38202247000001, "per_marg_al_3_6_f": 5.61797753, "marg_hh_3_6_p": 5, "marg_hh_3_6_m": 0, "marg_hh_3_6_f": 5, "per_marg_hh_3_6_p": 1.45348837, "per_marg_hh_3_6_m": 0.0, "per_marg_hh_3_6_f": 100.0, "marg_ot_3_6_p": 16, "marg_ot_3_6_m": 8, "marg_ot_3_6_f": 8, "per_marg_ot_3_6_p": 4.65116279, "per_marg_ot_3_6_m": 50.0, "per_marg_ot_3_6_f": 50.0, "margwork_0_3_p": 124, "margwork_0_3_m": 2, "margwork_0_3_f": 122, "per_margwork_0_3_p": 36.04651163, "per_margwork_0_3_m": 1.61290323, "per_margwork_0_3_f": 98.38709677, "marg_cl_0_3_p": 0, "marg_cl_0_3_m": 0, "marg_cl_0_3_f": 0, "per_marg_cl_0_3_p": 0.0, "per_marg_cl_0_3_m": 0.0, "per_marg_cl_0_3_f": 0.0, "marg_al_0_3_p": 124, "marg_al_0_3_m": 2, "marg_al_0_3_f": 122, "per_marg_al_0_3_p": 36.04651163, "per_marg_al_0_3_m": 1.61290323, "per_marg_al_0_3_f": 98.38709677, "marg_hh_0_3_p": 0, "marg_hh_0_3_m": 0, "marg_hh_0_3_f": 0, "per_marg_hh_0_3_p": 0.0, "per_marg_hh_0_3_m": 0.0, "per_marg_hh_0_3_f": 0.0, "marg_ot_0_3_p": 0, "marg_ot_0_3_m": 0, "marg_ot_0_3_f": 0, "per_marg_ot_0_3_p": 0.0, "per_marg_ot_0_3_m": 0.0, "per_marg_ot_0_3_f": 0.0, "non_work_p": 1334, "non_work_m": 585, "non_work_f": 749, "per_non_work_p": 67.10261569, "per_non_work_m": 43.85307346, "per_non_work_f": 56.14692654, "per_hc_tot_tot": 100, "per_hc_tot_god": 8.6, "per_hc_tot_liv": 81.6, "per_hc_tot_dil": 9.7, "per_hc_res_tot": 99.7, "per_hc_res_god": 8.4, "per_hc_res_liv": 81.6, "per_hc_res_dil": 9.7, "per_hc_oth_tot": 0.3, "per_hc_oth_god": 0.3, "per_hc_oth_liv": 0.0, "per_hc_oth_dil": 0.0, "per_mt_grsbam": 84.7, "per_mt_plastic": 0.3, "per_mt_h_tiles": 0.0, "per_mt_m_tiles": 1.4, "per_mt_b_brick": 9.2, "per_mt_stone": 0.0, "per_mt_asbstos": 0.6, "per_mt_concrte": 3.6, "per_mt_oth": 0.3, "per_mw_grsbam": 1.1, "per_mw_plastic": 0.8, "per_mw_mud": 83.0, "per_mw_wood": 0.0, "per_mw_no_mrtr": 0.0, "per_mw_st_mrtr": 0.0, "per_mw_asbstos": 0.8, "per_mw_b_brick": 13.6, "per_mw_concrte": 0.3, "per_mw_oth": 0.3, "per_mf_mud": 98.6, "per_mf_wood": 0.0, "per_mf_b_brick": 1.1, "per_mf_stone": 0.0, "per_mf_cement": 0.3, "per_mf_fl_tile": 0.0, "per_mf_oth": 0.0, "per_dw_n_exrm": 1.4, "per_dw_1_room": 34.0, "per_dw_2_room": 37.3, "per_dw_3_room": 17.8, "per_dw_4_room": 5.0, "per_dw_5_room": 2.8, "per_dw_6_room": 1.7, "per_hhsize_1": 3.3, "per_hhsize_2": 9.5, "per_hhsize_3": 8.6, "per_hhsize_4": 14.2, "per_hhsize_5": 16.4, "per_hhsize_6_8": 38.4, "per_hhsize_9p": 9.5, "per_ow_owned": 99.4, "per_ow_rented": 0.6, "per_ow_oth": 0.0, "per_mc_none": 13.1, "per_mcouple_1": 67.1, "per_mcouple_2": 14.5, "per_mcouple_3": 4.7, "per_mcouple_4": 0.6, "per_mcouple_5p": 0.0, "per_dw_t_ts": 12.8, "per_dw_t_unts": 1.7, "per_dw_c_well": 1.9, "per_dw_unc_wel": 14.8, "per_dw_hpump": 68.0, "per_dw_tw_bore": 0.0, "per_dw_spring": 0.0, "per_dw_rivcan": 0.0, "per_dw_tank": 0.8, "per_dw_oth": 0.0, "per_loc_dw_wp": 8.4, "per_loc_dw_np": 22.6, "per_loc_dw_aw": 69.1, "per_light_elec": 0.6, "per_light_kero": 97.5, "per_light_solr": 0.6, "per_light_oil": 1.4, "per_light_oth": 0.0, "per_light_no": 0.0, "per_hh_latrine": 2.8, "per_fl_sewer": 0.0, "per_fl_septict": 0.8, "per_fl_othsys": 1.4, "per_pl_wslab": 0.0, "per_pl_without": 0.0, "per_ns_open": 0.6, "per_sl_ns_hum": 0.0, "per_sl_ns_anml": 0.0, "per_hh_no_lat": 97.2, "per_as_pub": 0.0, "per_as_open": 97.2, "per_hh_bathrm": 2.8, "per_hh_en_wrf": 26.7, "per_hh_no_btrm": 70.5, "per_wwoc_drain": 1.9, "per_wwoc_open": 12.0, "per_wwoc_nodrn": 86.1, "per_cook_fire": 69.1, "per_cook_resdu": 11.1, "per_cook_cwdng": 18.7, "per_cook_coal": 0.0, "per_cook_kero": 0.0, "per_cook_lpng": 0.8, "per_cook_elec": 0.0, "per_cook_biogs": 0.0, "per_cook_oth": 0.0, "per_cook_no": 0.3, "per_kf_inside": 91.6, "per_kf_in_has": 3.6, "per_kf_in_does": 88.0, "per_kf_outside": 8.1, "per_kf_out_has": 0.8, "per_kf_out_dos": 7.2, "per_kf_no_cook": 0.3, "per_hh_banking": 67.4, "per_hh_radio": 29.5, "per_hh_tv": 5.6, "per_hh_cmp_int": 0.6, "per_hh_cmp_wnt": 3.3, "per_hh_ph_ll": 1.7, "per_hh_ph_mob": 57.1, "per_hh_ph_bth": 0.3, "per_hh_bcycl": 73.0, "per_hh_2wheel": 7.8, "per_hh_4wheel": 0.8, "per_hh_tvcomp": 0.3, "per_hh_no_ast": 13.9, "per_hs_perma": 13.4, "per_hs_sperma": 2.8, "per_hs_temp": 83.3, "per_hs_servc": 81.6, "per_hs_nservc": 1.7, "per_hs_unclss": 0.6, "avghhsz_cy": 5.40217391, "st_areashape": 3112449.275169995, "st_lengthshape": 8336.939303998644}, "geometry": {"type": "Polygon", "coordinates": [[[80.60686231455702, 26.885051935375856], [80.60636219369226, 26.885269280882305], [80.60479153613038, 26.887435631109543], [80.60436353740651, 26.887832003886036], [80.60254053499649, 26.8882550984549], [80.60266884586007, 26.887002858090636], [80.60306561824635, 26.885247026999682], [80.60300015711327, 26.88457788615636], [80.60268280747623, 26.884151069737488], [80.60191928709543, 26.883630244863664], [80.59751293294754, 26.88181571350973], [80.59762885065346, 26.88163617695399], [80.59771193493579, 26.881013222026933], [80.59784592045706, 26.88030170098223], [80.59857670443226, 26.879574437107067], [80.59901502300211, 26.878420629365763], [80.59908855100642, 26.877585891339724], [80.59882214662574, 26.87707049612185], [80.59810566203325, 26.87675070083681], [80.59781102180659, 26.87676213350217], [80.59818594087693, 26.876152886531294], [80.59876150495418, 26.8758695519976], [80.59960681155171, 26.87585653269461], [80.60109828351962, 26.875850603975334], [80.60207028580987, 26.875660710914666], [80.60386817671444, 26.875056513360825], [80.60519901014662, 26.87406840356403], [80.60662498864211, 26.873393274106018], [80.60852466585489, 26.872611887823215], [80.60947811344293, 26.87195385051591], [80.6101337147171, 26.87086672074337], [80.61070098285269, 26.87092628138224], [80.61167826364355, 26.871260006446565], [80.61271572077867, 26.87173922070733], [80.6131855055363, 26.87192258563538], [80.61392986395374, 26.87201981147644], [80.61872426335493, 26.872227874799947], [80.61926890831843, 26.872389761395873], [80.61948987052214, 26.87259268283587], [80.61943446063877, 26.87301543299683], [80.61937993469765, 26.873371341612085], [80.61944819138789, 26.87383999539584], [80.62122609747236, 26.87655530288104], [80.62187094591252, 26.877195183714292], [80.62194129657571, 26.877507880850963], [80.621882569214, 26.877659676658148], [80.62178677107546, 26.877907265973096], [80.62168286474319, 26.87824036387088], [80.62170171229616, 26.878686188621487], [80.62149267971944, 26.879441477515538], [80.62075540811124, 26.88065894798725], [80.62022776915438, 26.881076572038445], [80.618927538629, 26.881641772051704], [80.61800644117095, 26.88174317203235], [80.61460143098542, 26.88170617214318], [80.61111915041408, 26.8818687991372], [80.60960125270546, 26.881985938534633], [80.60914933903211, 26.882315216115956], [80.60889355183983, 26.88284716741864], [80.60870284489488, 26.883702405346376], [80.60839914605688, 26.88410014689543], [80.60774258538204, 26.88542843106866], [80.6076807067303, 26.885194555091317], [80.60733485893917, 26.885034806864358], [80.60686231455702, 26.885051935375856]]]}}]}