{"type": "FeatureCollection", "features": [{"type": "Feature", "properties": {"premiumdata.sde.IN_Village_PCA.area": 2.30021924, "objectid": 347869, "id": "9186815413534", "name": "Tendewa Heera Kuddi", "subdistrict": "Hasanganj", "district": "Unnao", "state": "Uttar Pradesh", "country": "India", "censusname": "Tendewa Heera Kuddi", "villagename_locallang": null, "lgd_villagename": "Tendewa Heera Kuddi", "lgd_villagecode": 142080, "lgd_subdistrictcode": 815, "lgd_districtcode": 186, "lgd_statecode": 9, "censuscode2001": "03494600", "censuscode2011": "142080", "censuscode2021": null, "level": "Village", "tru": "Rural", "no_hh": 319, "tot_p": 1672, "tot_m": 867, "tot_f": 805, "per_tot_m": 51.85406699, "per_tot_f": 48.14593301, "p_06": 173, "m_06": 90, "f_06": 83, "per_p_06": 10.34688995, "per_m_06": 52.02312139, "per_f_06": 47.97687861, "p_sc": 252, "m_sc": 122, "f_sc": 130, "per_p_sc": 15.07177033, "per_m_sc": 48.41269841, "per_f_sc": 51.58730159, "p_st": 0, "m_st": 0, "f_st": 0, "per_p_st": 0.0, "per_m_st": 0.0, "per_f_st": 0.0, "p_lit": 1144, "m_lit": 662, "f_lit": 482, "per_p_lit": 68.42105263, "per_m_lit": 57.86713287, "per_f_lit": 42.13286713, "p_ill": 528, "m_ill": 205, "f_ill": 323, "per_p_ill": 31.57894737, "per_m_ill": 38.82575758, "per_f_ill": 61.17424242, "tot_work_p": 484, "tot_work_m": 434, "tot_work_f": 50, "per_tot_work_p": 28.94736842, "per_tot_work_m": 89.66942149, "per_tot_work_f": 10.33057851, "mainwork_p": 424, "mainwork_m": 393, "mainwork_f": 31, "per_mainwork_p": 25.35885167, "per_mainwork_m": 92.68867925, "per_mainwork_f": 7.31132075, "main_cl_p": 154, "main_cl_m": 143, "main_cl_f": 11, "per_main_cl_p": 36.32075472, "per_main_cl_m": 92.85714286, "per_main_cl_f": 7.14285714, "main_al_p": 146, "main_al_m": 140, "main_al_f": 6, "per_main_al_p": 34.43396226, "per_main_al_m": 95.89041096, "per_main_al_f": 4.10958904, "main_hh_p": 27, "main_hh_m": 26, "main_hh_f": 1, "per_main_hh_p": 6.36792453, "per_main_hh_m": 96.2962963, "per_main_hh_f": 3.7037037, "main_ot_p": 97, "main_ot_m": 84, "main_ot_f": 13, "per_main_ot_p": 22.87735849, "per_main_ot_m": 86.59793814, "per_main_ot_f": 13.40206186, "margwork_p": 60, "margwork_m": 41, "margwork_f": 19, "per_margwork_p": 3.58851675, "per_margwork_m": 68.33333332999999, "per_margwork_f": 31.66666667, "marg_cl_p": 12, "marg_cl_m": 8, "marg_cl_f": 4, "per_marg_cl_p": 20.0, "per_marg_cl_m": 66.66666667, "per_marg_cl_f": 33.33333333, "marg_al_p": 26, "marg_al_m": 16, "marg_al_f": 10, "per_marg_al_p": 43.33333333, "per_marg_al_m": 61.53846154, "per_marg_al_f": 38.46153846, "marg_hh_p": 0, "marg_hh_m": 0, "marg_hh_f": 0, "per_marg_hh_p": 0.0, "per_marg_hh_m": 0.0, "per_marg_hh_f": 0.0, "marg_ot_p": 22, "marg_ot_m": 17, "marg_ot_f": 5, "per_marg_ot_p": 36.66666667000001, "per_marg_ot_m": 77.27272727, "per_marg_ot_f": 22.72727273, "margwork_3_6_p": 45, "margwork_3_6_m": 31, "margwork_3_6_f": 14, "per_margwork_3_6_p": 75.0, "per_margwork_3_6_m": 68.88888889, "per_margwork_3_6_f": 31.11111111, "marg_cl_3_6_p": 9, "marg_cl_3_6_m": 7, "marg_cl_3_6_f": 2, "per_marg_cl_3_6_p": 15.0, "per_marg_cl_3_6_m": 77.77777778, "per_marg_cl_3_6_f": 22.22222222, "marg_al_3_6_p": 19, "marg_al_3_6_m": 12, "marg_al_3_6_f": 7, "per_marg_al_3_6_p": 31.66666667, "per_marg_al_3_6_m": 63.15789474, "per_marg_al_3_6_f": 36.84210526, "marg_hh_3_6_p": 0, "marg_hh_3_6_m": 0, "marg_hh_3_6_f": 0, "per_marg_hh_3_6_p": 0.0, "per_marg_hh_3_6_m": 0.0, "per_marg_hh_3_6_f": 0.0, "marg_ot_3_6_p": 17, "marg_ot_3_6_m": 12, "marg_ot_3_6_f": 5, "per_marg_ot_3_6_p": 28.33333333, "per_marg_ot_3_6_m": 70.58823529, "per_marg_ot_3_6_f": 29.41176471, "margwork_0_3_p": 15, "margwork_0_3_m": 10, "margwork_0_3_f": 5, "per_margwork_0_3_p": 25.0, "per_margwork_0_3_m": 66.66666667, "per_margwork_0_3_f": 33.33333333, "marg_cl_0_3_p": 3, "marg_cl_0_3_m": 1, "marg_cl_0_3_f": 2, "per_marg_cl_0_3_p": 5.0, "per_marg_cl_0_3_m": 33.33333333, "per_marg_cl_0_3_f": 66.66666667, "marg_al_0_3_p": 7, "marg_al_0_3_m": 4, "marg_al_0_3_f": 3, "per_marg_al_0_3_p": 11.66666667, "per_marg_al_0_3_m": 57.14285714, "per_marg_al_0_3_f": 42.85714286, "marg_hh_0_3_p": 0, "marg_hh_0_3_m": 0, "marg_hh_0_3_f": 0, "per_marg_hh_0_3_p": 0.0, "per_marg_hh_0_3_m": 0.0, "per_marg_hh_0_3_f": 0.0, "marg_ot_0_3_p": 5, "marg_ot_0_3_m": 5, "marg_ot_0_3_f": 0, "per_marg_ot_0_3_p": 8.33333333, "per_marg_ot_0_3_m": 100.0, "per_marg_ot_0_3_f": 0.0, "non_work_p": 1188, "non_work_m": 433, "non_work_f": 755, "per_non_work_p": 71.05263158, "per_non_work_m": 36.44781145, "per_non_work_f": 63.55218855, "per_hc_tot_tot": 100, "per_hc_tot_god": 54.5, "per_hc_tot_liv": 36.2, "per_hc_tot_dil": 9.3, "per_hc_res_tot": 100.0, "per_hc_res_god": 54.5, "per_hc_res_liv": 36.2, "per_hc_res_dil": 9.3, "per_hc_oth_tot": 0.0, "per_hc_oth_god": 0.0, "per_hc_oth_liv": 0.0, "per_hc_oth_dil": 0.0, "per_mt_grsbam": 22.3, "per_mt_plastic": 0.3, "per_mt_h_tiles": 1.3, "per_mt_m_tiles": 0.0, "per_mt_b_brick": 74.8, "per_mt_stone": 0.7, "per_mt_asbstos": 0.7, "per_mt_concrte": 0.0, "per_mt_oth": 0.0, "per_mw_grsbam": 2.0, "per_mw_plastic": 0.0, "per_mw_mud": 12.3, "per_mw_wood": 0.0, "per_mw_no_mrtr": 0.0, "per_mw_st_mrtr": 50.2, "per_mw_asbstos": 0.3, "per_mw_b_brick": 35.2, "per_mw_concrte": 0.0, "per_mw_oth": 0.0, "per_mf_mud": 88.4, "per_mf_wood": 0.7, "per_mf_b_brick": 0.7, "per_mf_stone": 1.3, "per_mf_cement": 7.6, "per_mf_fl_tile": 1.3, "per_mf_oth": 0.0, "per_dw_n_exrm": 1.3, "per_dw_1_room": 33.6, "per_dw_2_room": 28.9, "per_dw_3_room": 14.6, "per_dw_4_room": 8.6, "per_dw_5_room": 6.0, "per_dw_6_room": 7.0, "per_hhsize_1": 3.7, "per_hhsize_2": 5.6, "per_hhsize_3": 8.0, "per_hhsize_4": 13.0, "per_hhsize_5": 20.6, "per_hhsize_6_8": 36.9, "per_hhsize_9p": 12.3, "per_ow_owned": 100.0, "per_ow_rented": 0.0, "per_ow_oth": 0.0, "per_mc_none": 13.6, "per_mcouple_1": 64.8, "per_mcouple_2": 16.6, "per_mcouple_3": 3.7, "per_mcouple_4": 0.7, "per_mcouple_5p": 0.7, "per_dw_t_ts": 0.7, "per_dw_t_unts": 0.7, "per_dw_c_well": 0.0, "per_dw_unc_wel": 0.0, "per_dw_hpump": 98.7, "per_dw_tw_bore": 0.0, "per_dw_spring": 0.0, "per_dw_rivcan": 0.0, "per_dw_tank": 0.0, "per_dw_oth": 0.0, "per_loc_dw_wp": 27.6, "per_loc_dw_np": 68.1, "per_loc_dw_aw": 4.3, "per_light_elec": 13.6, "per_light_kero": 85.7, "per_light_solr": 0.7, "per_light_oil": 0.0, "per_light_oth": 0.0, "per_light_no": 0.0, "per_hh_latrine": 21.3, "per_fl_sewer": 1.3, "per_fl_septict": 9.0, "per_fl_othsys": 0.0, "per_pl_wslab": 10.6, "per_pl_without": 0.3, "per_ns_open": 0.0, "per_sl_ns_hum": 0.0, "per_sl_ns_anml": 0.0, "per_hh_no_lat": 78.7, "per_as_pub": 1.3, "per_as_open": 77.4, "per_hh_bathrm": 56.5, "per_hh_en_wrf": 29.6, "per_hh_no_btrm": 14.0, "per_wwoc_drain": 10.3, "per_wwoc_open": 75.4, "per_wwoc_nodrn": 14.3, "per_cook_fire": 77.1, "per_cook_resdu": 8.6, "per_cook_cwdng": 0.7, "per_cook_coal": 0.0, "per_cook_kero": 2.0, "per_cook_lpng": 11.6, "per_cook_elec": 0.0, "per_cook_biogs": 0.0, "per_cook_oth": 0.0, "per_cook_no": 0.0, "per_kf_inside": 98.3, "per_kf_in_has": 51.2, "per_kf_in_does": 47.2, "per_kf_outside": 1.7, "per_kf_out_has": 0.0, "per_kf_out_dos": 1.7, "per_kf_no_cook": 0.0, "per_hh_banking": 93.4, "per_hh_radio": 70.4, "per_hh_tv": 33.6, "per_hh_cmp_int": 0.0, "per_hh_cmp_wnt": 0.7, "per_hh_ph_ll": 2.7, "per_hh_ph_mob": 79.1, "per_hh_ph_bth": 0.7, "per_hh_bcycl": 89.7, "per_hh_2wheel": 48.5, "per_hh_4wheel": 1.0, "per_hh_tvcomp": 0.3, "per_hh_no_ast": 4.0, "per_hs_perma": 72.8, "per_hs_sperma": 17.6, "per_hs_temp": 9.6, "per_hs_servc": 8.0, "per_hs_nservc": 1.7, "per_hs_unclss": 0.0, "avghhsz_cy": 5.24137931, "st_areashape": 2890954.99153011, "st_lengthshape": 8845.845421736052}, "geometry": {"type": "Polygon", "coordinates": [[[80.81480643858278, 26.650547151861495], [80.81312173270904, 26.652293187785933], [80.81199110770255, 26.65344120987866], [80.81130873932788, 26.65445986213841], [80.81067945958989, 26.65625838632406], [80.80938387065957, 26.655914757083735], [80.80767444314924, 26.655460513604297], [80.80718940409977, 26.65533162436224], [80.8066169832277, 26.655191498362335], [80.80605209922086, 26.65498135921781], [80.80548721790895, 26.654771217277844], [80.80445788783223, 26.654260760850583], [80.80363958189719, 26.65380006467131], [80.80372519224207, 26.65343909194212], [80.80304247082951, 26.652960409983542], [80.80258068646782, 26.652481788640998], [80.80305327576576, 26.65172841664351], [80.80313913494398, 26.65159847062504], [80.80339008111524, 26.65121866919488], [80.80342025911891, 26.65105622388027], [80.80290830295024, 26.650636247918353], [80.80146247168697, 26.649678821555806], [80.79942947729953, 26.648278790734295], [80.79864979802338, 26.647775984983856], [80.79862475029832, 26.6477598315032], [80.79859611200708, 26.64774136326827], [80.79812940667425, 26.647353046299145], [80.79779817986268, 26.646996312581404], [80.79744222871955, 26.64609361327023], [80.79694533729825, 26.645687147309314], [80.79671610161077, 26.64548506074729], [80.79669437316068, 26.645465905653825], [80.79651367434634, 26.64527179726043], [80.79641327683358, 26.64528527337406], [80.79637985770836, 26.6454528342297], [80.79636288583768, 26.645537931743245], [80.79632766379372, 26.64558307388254], [80.79596104964816, 26.645569305543987], [80.79593069108314, 26.64586710129718], [80.7957298493452, 26.645821870950012], [80.7955140066403, 26.645717960637022], [80.79523288156707, 26.645614012492626], [80.79491648055097, 26.645595756682297], [80.79475625613857, 26.64459975356424], [80.79436387651405, 26.644216951619047], [80.79389545180578, 26.643967151946594], [80.79322770261405, 26.643782246539057], [80.79295064511246, 26.643748993402713], [80.79079939739928, 26.643490778033346], [80.79023336444716, 26.64310626534252], [80.78999041957017, 26.642680348949554], [80.78994680276986, 26.642189541712177], [80.79020418806506, 26.641434230147663], [80.79065816696524, 26.640836881186054], [80.79110641730887, 26.640707570750045], [80.79150475905195, 26.640600063397834], [80.79175640950238, 26.6403127725451], [80.79193690170419, 26.639757313410716], [80.79186901511987, 26.639221683808884], [80.79173989936575, 26.638845016916324], [80.79230388595565, 26.638529469443466], [80.79415569823516, 26.63725490588981], [80.79593412354586, 26.635890450565054], [80.79640688891357, 26.63578366457385], [80.79685319889617, 26.635810342010227], [80.79727199976985, 26.636059663281536], [80.79837734259097, 26.63698442568893], [80.79982788372126, 26.638090907755636], [80.80115765534477, 26.63892870935768], [80.80245857128475, 26.640100558491316], [80.80287282039487, 26.64031174878484], [80.80335936142747, 26.642102481735158], [80.80384044429641, 26.643355444629005], [80.80464436730541, 26.644589255396863], [80.80562278626175, 26.645757907068635], [80.80665572037937, 26.646525885579685], [80.80739875827337, 26.646644598312303], [80.80797079197157, 26.646538753745897], [80.80914263527656, 26.646082120436372], [80.81059578601275, 26.644937253674897], [80.81119396697393, 26.64472019698227], [80.81238818731266, 26.644464374101844], [80.81276761682405, 26.64424246766699], [80.81329429638016, 26.645195613509944], [80.81357911712247, 26.646268309983295], [80.81380357646755, 26.64823198606537], [80.81403824875915, 26.64934875251812], [80.81440237367302, 26.650020986647142], [80.81480643858278, 26.650547151861495]]]}}]}