{"type": "FeatureCollection", "features": [{"type": "Feature", "properties": {"premiumdata.sde.IN_Village_PCA.area": 2.61532664, "objectid": 183246, "id": "21350295568738", "name": "Harianta", "subdistrict": "Tangi", "district": "Cuttack", "state": "Odisha", "country": "India", "censusname": "Harianta", "villagename_locallang": null, "lgd_villagename": "Harianta", "lgd_villagecode": 399401, "lgd_subdistrictcode": 2955, "lgd_districtcode": 350, "lgd_statecode": 21, "censuscode2001": "01973100", "censuscode2011": "399401", "censuscode2021": null, "level": "Village", "tru": "Rural", "no_hh": 256, "tot_p": 1196, "tot_m": 617, "tot_f": 579, "per_tot_m": 51.58862876, "per_tot_f": 48.41137124, "p_06": 97, "m_06": 55, "f_06": 42, "per_p_06": 8.11036789, "per_m_06": 56.70103093, "per_f_06": 43.29896907000001, "p_sc": 304, "m_sc": 143, "f_sc": 161, "per_p_sc": 25.4180602, "per_m_sc": 47.03947368, "per_f_sc": 52.96052632000001, "p_st": 0, "m_st": 0, "f_st": 0, "per_p_st": 0.0, "per_m_st": 0.0, "per_f_st": 0.0, "p_lit": 981, "m_lit": 538, "f_lit": 443, "per_p_lit": 82.02341137, "per_m_lit": 54.84199796, "per_f_lit": 45.15800204, "p_ill": 215, "m_ill": 79, "f_ill": 136, "per_p_ill": 17.97658863, "per_m_ill": 36.74418605, "per_f_ill": 63.25581395, "tot_work_p": 401, "tot_work_m": 365, "tot_work_f": 36, "per_tot_work_p": 33.52842809, "per_tot_work_m": 91.02244389, "per_tot_work_f": 8.97755611, "mainwork_p": 227, "mainwork_m": 203, "mainwork_f": 24, "per_mainwork_p": 18.97993311, "per_mainwork_m": 89.42731278000001, "per_mainwork_f": 10.57268722, "main_cl_p": 34, "main_cl_m": 33, "main_cl_f": 1, "per_main_cl_p": 14.97797357, "per_main_cl_m": 97.05882353000001, "per_main_cl_f": 2.94117647, "main_al_p": 18, "main_al_m": 16, "main_al_f": 2, "per_main_al_p": 7.92951542, "per_main_al_m": 88.88888889, "per_main_al_f": 11.11111111, "main_hh_p": 28, "main_hh_m": 26, "main_hh_f": 2, "per_main_hh_p": 12.33480176, "per_main_hh_m": 92.85714286, "per_main_hh_f": 7.14285714, "main_ot_p": 147, "main_ot_m": 128, "main_ot_f": 19, "per_main_ot_p": 64.75770925, "per_main_ot_m": 87.07482993, "per_main_ot_f": 12.92517007, "margwork_p": 174, "margwork_m": 162, "margwork_f": 12, "per_margwork_p": 14.54849498, "per_margwork_m": 93.10344828, "per_margwork_f": 6.89655172, "marg_cl_p": 0, "marg_cl_m": 0, "marg_cl_f": 0, "per_marg_cl_p": 0.0, "per_marg_cl_m": 0.0, "per_marg_cl_f": 0.0, "marg_al_p": 147, "marg_al_m": 138, "marg_al_f": 9, "per_marg_al_p": 84.48275862, "per_marg_al_m": 93.87755102, "per_marg_al_f": 6.12244898, "marg_hh_p": 7, "marg_hh_m": 7, "marg_hh_f": 0, "per_marg_hh_p": 4.02298851, "per_marg_hh_m": 100.0, "per_marg_hh_f": 0.0, "marg_ot_p": 20, "marg_ot_m": 17, "marg_ot_f": 3, "per_marg_ot_p": 11.49425287, "per_marg_ot_m": 85.0, "per_marg_ot_f": 15.0, "margwork_3_6_p": 167, "margwork_3_6_m": 156, "margwork_3_6_f": 11, "per_margwork_3_6_p": 95.97701149000001, "per_margwork_3_6_m": 93.41317365, "per_margwork_3_6_f": 6.58682635, "marg_cl_3_6_p": 0, "marg_cl_3_6_m": 0, "marg_cl_3_6_f": 0, "per_marg_cl_3_6_p": 0.0, "per_marg_cl_3_6_m": 0.0, "per_marg_cl_3_6_f": 0.0, "marg_al_3_6_p": 143, "marg_al_3_6_m": 135, "marg_al_3_6_f": 8, "per_marg_al_3_6_p": 82.18390805, "per_marg_al_3_6_m": 94.40559441, "per_marg_al_3_6_f": 5.59440559, "marg_hh_3_6_p": 7, "marg_hh_3_6_m": 7, "marg_hh_3_6_f": 0, "per_marg_hh_3_6_p": 4.02298851, "per_marg_hh_3_6_m": 100.0, "per_marg_hh_3_6_f": 0.0, "marg_ot_3_6_p": 17, "marg_ot_3_6_m": 14, "marg_ot_3_6_f": 3, "per_marg_ot_3_6_p": 9.77011494, "per_marg_ot_3_6_m": 82.35294118, "per_marg_ot_3_6_f": 17.64705882, "margwork_0_3_p": 7, "margwork_0_3_m": 6, "margwork_0_3_f": 1, "per_margwork_0_3_p": 4.02298851, "per_margwork_0_3_m": 85.71428571, "per_margwork_0_3_f": 14.28571429, "marg_cl_0_3_p": 0, "marg_cl_0_3_m": 0, "marg_cl_0_3_f": 0, "per_marg_cl_0_3_p": 0.0, "per_marg_cl_0_3_m": 0.0, "per_marg_cl_0_3_f": 0.0, "marg_al_0_3_p": 4, "marg_al_0_3_m": 3, "marg_al_0_3_f": 1, "per_marg_al_0_3_p": 2.29885057, "per_marg_al_0_3_m": 75.0, "per_marg_al_0_3_f": 25.0, "marg_hh_0_3_p": 0, "marg_hh_0_3_m": 0, "marg_hh_0_3_f": 0, "per_marg_hh_0_3_p": 0.0, "per_marg_hh_0_3_m": 0.0, "per_marg_hh_0_3_f": 0.0, "marg_ot_0_3_p": 3, "marg_ot_0_3_m": 3, "marg_ot_0_3_f": 0, "per_marg_ot_0_3_p": 1.72413793, "per_marg_ot_0_3_m": 100.0, "per_marg_ot_0_3_f": 0.0, "non_work_p": 795, "non_work_m": 252, "non_work_f": 543, "per_non_work_p": 66.47157191000001, "per_non_work_m": 31.69811321, "per_non_work_f": 68.30188679, "per_hc_tot_tot": 100, "per_hc_tot_god": 7.1, "per_hc_tot_liv": 83.0, "per_hc_tot_dil": 9.9, "per_hc_res_tot": 99.6, "per_hc_res_god": 6.7, "per_hc_res_liv": 83.0, "per_hc_res_dil": 9.9, "per_hc_oth_tot": 0.4, "per_hc_oth_god": 0.4, "per_hc_oth_liv": 0.0, "per_hc_oth_dil": 0.0, "per_mt_grsbam": 41.1, "per_mt_plastic": 0.0, "per_mt_h_tiles": 0.0, "per_mt_m_tiles": 0.0, "per_mt_b_brick": 0.0, "per_mt_stone": 2.0, "per_mt_asbstos": 16.2, "per_mt_concrte": 40.7, "per_mt_oth": 0.0, "per_mw_grsbam": 0.4, "per_mw_plastic": 2.0, "per_mw_mud": 28.5, "per_mw_wood": 0.0, "per_mw_no_mrtr": 1.2, "per_mw_st_mrtr": 63.6, "per_mw_asbstos": 0.0, "per_mw_b_brick": 4.3, "per_mw_concrte": 0.0, "per_mw_oth": 0.0, "per_mf_mud": 33.6, "per_mf_wood": 0.0, "per_mf_b_brick": 0.4, "per_mf_stone": 0.4, "per_mf_cement": 65.6, "per_mf_fl_tile": 0.0, "per_mf_oth": 0.0, "per_dw_n_exrm": 2.4, "per_dw_1_room": 33.6, "per_dw_2_room": 41.9, "per_dw_3_room": 9.9, "per_dw_4_room": 6.7, "per_dw_5_room": 2.4, "per_dw_6_room": 3.2, "per_hhsize_1": 2.8, "per_hhsize_2": 10.3, "per_hhsize_3": 15.8, "per_hhsize_4": 26.9, "per_hhsize_5": 12.6, "per_hhsize_6_8": 24.5, "per_hhsize_9p": 7.1, "per_ow_owned": 96.0, "per_ow_rented": 3.6, "per_ow_oth": 0.4, "per_mc_none": 14.2, "per_mcouple_1": 68.4, "per_mcouple_2": 12.3, "per_mcouple_3": 4.3, "per_mcouple_4": 0.8, "per_mcouple_5p": 0.0, "per_dw_t_ts": 10.3, "per_dw_t_unts": 0.8, "per_dw_c_well": 4.7, "per_dw_unc_wel": 2.4, "per_dw_hpump": 40.7, "per_dw_tw_bore": 34.0, "per_dw_spring": 0.0, "per_dw_rivcan": 0.0, "per_dw_tank": 7.1, "per_dw_oth": 0.0, "per_loc_dw_wp": 12.6, "per_loc_dw_np": 58.1, "per_loc_dw_aw": 29.2, "per_light_elec": 57.7, "per_light_kero": 41.9, "per_light_solr": 0.0, "per_light_oil": 0.0, "per_light_oth": 0.4, "per_light_no": 0.0, "per_hh_latrine": 30.4, "per_fl_sewer": 0.0, "per_fl_septict": 22.1, "per_fl_othsys": 2.0, "per_pl_wslab": 0.0, "per_pl_without": 6.3, "per_ns_open": 0.0, "per_sl_ns_hum": 0.0, "per_sl_ns_anml": 0.0, "per_hh_no_lat": 69.6, "per_as_pub": 0.0, "per_as_open": 69.6, "per_hh_bathrm": 15.4, "per_hh_en_wrf": 5.5, "per_hh_no_btrm": 79.1, "per_wwoc_drain": 2.4, "per_wwoc_open": 8.3, "per_wwoc_nodrn": 89.3, "per_cook_fire": 33.6, "per_cook_resdu": 21.3, "per_cook_cwdng": 2.8, "per_cook_coal": 0.0, "per_cook_kero": 2.4, "per_cook_lpng": 19.0, "per_cook_elec": 0.0, "per_cook_biogs": 0.4, "per_cook_oth": 19.8, "per_cook_no": 0.8, "per_kf_inside": 81.8, "per_kf_in_has": 47.8, "per_kf_in_does": 34.0, "per_kf_outside": 17.4, "per_kf_out_has": 4.7, "per_kf_out_dos": 12.6, "per_kf_no_cook": 0.8, "per_hh_banking": 51.0, "per_hh_radio": 11.5, "per_hh_tv": 42.7, "per_hh_cmp_int": 2.4, "per_hh_cmp_wnt": 4.3, "per_hh_ph_ll": 1.6, "per_hh_ph_mob": 45.5, "per_hh_ph_bth": 2.0, "per_hh_bcycl": 64.8, "per_hh_2wheel": 25.3, "per_hh_4wheel": 1.6, "per_hh_tvcomp": 4.3, "per_hh_no_ast": 19.0, "per_hs_perma": 58.9, "per_hs_sperma": 10.3, "per_hs_temp": 30.8, "per_hs_servc": 28.5, "per_hs_nservc": 2.4, "per_hs_unclss": 0.0, "avghhsz_cy": 4.671875, "st_areashape": 2997470.04126633, "st_lengthshape": 7363.474589206867}, "geometry": {"type": "Polygon", "coordinates": [[[85.96863526506773, 20.545722462801265], [85.968238499868, 20.545873136628575], [85.96803248113903, 20.545707134057075], [85.96779598257251, 20.545415339177794], [85.96756712956736, 20.54483746104645], [85.96727718483467, 20.54420035802382], [85.9669949584269, 20.543391666822505], [85.9666439632892, 20.542752674346264], [85.96617856141187, 20.54176850938577], [85.96582760939329, 20.541186761407083], [85.9654919269379, 20.54014725939827], [85.9651486950409, 20.53922218287459], [85.96479769002173, 20.5385260351239], [85.96444671913855, 20.53788704082169], [85.96392794655355, 20.53678646114162], [85.96339393315144, 20.536202809859766], [85.96310400728339, 20.53567826460868], [85.96301243122667, 20.535386481717072], [85.96282176201099, 20.534755174130872], [85.962539480806, 20.533946392601244], [85.96218084729344, 20.533536320162515], [85.96151561607948, 20.533141336033754], [85.9614484688086, 20.533101482895887], [85.96232586412638, 20.532737187181283], [85.96269205067387, 20.53251780325201], [85.96306587739284, 20.532296638924265], [85.96355412522448, 20.5321345073503], [85.96392797799459, 20.53197049540794], [85.96441627703021, 20.531753045259883], [85.96503427392824, 20.53148025796809], [85.96588878107087, 20.531211376138963], [85.96650669891716, 20.530997765248447], [85.96699500244435, 20.530778373777277], [85.9676130280885, 20.530562913194924], [85.96810887836239, 20.530229092001385], [85.96865819456535, 20.529954521881205], [85.96921514824487, 20.529738917123836], [85.96970344458555, 20.529519608815264], [85.97019937121625, 20.52918771016332], [85.97063421510256, 20.528796769722696], [85.97088597694409, 20.52851447332999], [85.97116070780912, 20.528119619252433], [85.97123168998793, 20.528120845827644], [85.97138197184675, 20.52812348237543], [85.97193120989631, 20.528079636091732], [85.97241949635551, 20.527860320357266], [85.97291547059693, 20.527471164236726], [85.97335033514447, 20.527137369948964], [85.97378517543757, 20.52691806716574], [85.97439556540175, 20.52670067461567], [85.97525004559495, 20.52649082636856], [85.97568493978693, 20.526214269160366], [85.97624184405912, 20.525939643882754], [85.97673016285768, 20.52566499792141], [85.97716503189679, 20.525502930829678], [85.97734044412573, 20.525415108872238], [85.9774015574128, 20.52585195089252], [85.97762279989087, 20.526715970772344], [85.97775222017387, 20.527222513973403], [85.97775612784535, 20.527237726791462], [85.97784403697904, 20.52758192323099], [85.97806526508406, 20.5285603435848], [85.97823313595615, 20.529081088000808], [85.97827885032265, 20.529655220632463], [85.9783246203847, 20.53017210413976], [85.97855352369551, 20.53080913604912], [85.97866035673898, 20.531325971071528], [85.97882811532165, 20.53196112134474], [85.97893499507754, 20.532535292802365], [85.97904938385088, 20.532825236278924], [85.97929356121644, 20.532773683839146], [85.97934697594155, 20.53290527582173], [85.97946898512343, 20.533180002165118], [85.9795834224058, 20.533525162760675], [85.97987342283402, 20.534047832700633], [85.98034636157661, 20.53480312541416], [85.98062871644345, 20.535442066984658], [85.98097965768223, 20.536193586635733], [85.98145264493382, 20.536719979973626], [85.9818722929188, 20.536958405708607], [85.98199429491416, 20.536979386670957], [85.98204775814833, 20.537248387068317], [85.9819714256037, 20.53776334965179], [85.98189517480573, 20.538392803399816], [85.98170442294503, 20.538732226929135], [85.98115504116505, 20.539064097301676], [85.98053705684345, 20.53922245795074], [85.97979700584776, 20.539607690219746], [85.97955293538168, 20.539830885588056], [85.97935453885792, 20.540284831896898], [85.97953004630827, 20.54080546069141], [85.97966733223986, 20.541043959129873], [85.97933925222674, 20.541087821886403], [85.97891203234224, 20.54107821705168], [85.97824065844834, 20.54117740725633], [85.9779354926615, 20.54122890975636], [85.9775692522151, 20.541392928594735], [85.97689023275983, 20.541606544315275], [85.97640195258883, 20.54188119109807], [85.97584506358801, 20.541984167847186], [85.97480740073871, 20.54219020441561], [85.97419703592733, 20.54223401721283], [85.97358668818396, 20.542449565662498], [85.97296878381239, 20.54277944696058], [85.97247280238447, 20.543113292916555], [85.97203791717563, 20.543504243031318], [85.97141237173429, 20.544120290744935], [85.97103849291302, 20.544457905635856], [85.9704815850476, 20.544845073729714], [85.96992462597818, 20.545176926628923], [85.96930664255488, 20.545564136643076], [85.96863526506773, 20.545722462801265]]]}}]}