{"type": "FeatureCollection", "features": [{"type": "Feature", "properties": {"premiumdata.sde.IN_Village_PCA.area": 6.24380894, "objectid": 162980, "id": "21367303155178", "name": "Komand", "subdistrict": "Odagaon", "district": "Nayagarh", "state": "Odisha", "country": "India", "censusname": "Komand", "villagename_locallang": null, "lgd_villagename": "Komand", "lgd_villagecode": 406563, "lgd_subdistrictcode": 3031, "lgd_districtcode": 367, "lgd_statecode": 21, "censuscode2001": "02681600", "censuscode2011": "406563", "censuscode2021": null, "level": "Village", "tru": "Rural", "no_hh": 802, "tot_p": 3240, "tot_m": 1677, "tot_f": 1563, "per_tot_m": 51.75925926, "per_tot_f": 48.24074074, "p_06": 366, "m_06": 189, "f_06": 177, "per_p_06": 11.2962963, "per_m_06": 51.63934426, "per_f_06": 48.36065574, "p_sc": 845, "m_sc": 436, "f_sc": 409, "per_p_sc": 26.08024691, "per_m_sc": 51.59763314, "per_f_sc": 48.40236686, "p_st": 0, "m_st": 0, "f_st": 0, "per_p_st": 0.0, "per_m_st": 0.0, "per_f_st": 0.0, "p_lit": 2136, "m_lit": 1228, "f_lit": 908, "per_p_lit": 65.92592593, "per_m_lit": 57.4906367, "per_f_lit": 42.5093633, "p_ill": 1104, "m_ill": 449, "f_ill": 655, "per_p_ill": 34.07407407, "per_m_ill": 40.67028986, "per_f_ill": 59.32971014, "tot_work_p": 1441, "tot_work_m": 1047, "tot_work_f": 394, "per_tot_work_p": 44.47530864, "per_tot_work_m": 72.65787647, "per_tot_work_f": 27.34212353, "mainwork_p": 615, "mainwork_m": 545, "mainwork_f": 70, "per_mainwork_p": 18.98148148, "per_mainwork_m": 88.61788618, "per_mainwork_f": 11.38211382, "main_cl_p": 86, "main_cl_m": 79, "main_cl_f": 7, "per_main_cl_p": 13.98373984, "per_main_cl_m": 91.86046512, "per_main_cl_f": 8.13953488, "main_al_p": 141, "main_al_m": 121, "main_al_f": 20, "per_main_al_p": 22.92682927, "per_main_al_m": 85.81560284, "per_main_al_f": 14.18439716, "main_hh_p": 73, "main_hh_m": 69, "main_hh_f": 4, "per_main_hh_p": 11.8699187, "per_main_hh_m": 94.52054795, "per_main_hh_f": 5.47945205, "main_ot_p": 315, "main_ot_m": 276, "main_ot_f": 39, "per_main_ot_p": 51.2195122, "per_main_ot_m": 87.61904762, "per_main_ot_f": 12.38095238, "margwork_p": 826, "margwork_m": 502, "margwork_f": 324, "per_margwork_p": 25.49382716, "per_margwork_m": 60.7748184, "per_margwork_f": 39.2251816, "marg_cl_p": 26, "marg_cl_m": 17, "marg_cl_f": 9, "per_marg_cl_p": 3.14769976, "per_marg_cl_m": 65.38461538, "per_marg_cl_f": 34.61538462, "marg_al_p": 553, "marg_al_m": 297, "marg_al_f": 256, "per_marg_al_p": 66.94915254, "per_marg_al_m": 53.70705244, "per_marg_al_f": 46.29294756, "marg_hh_p": 59, "marg_hh_m": 52, "marg_hh_f": 7, "per_marg_hh_p": 7.14285714, "per_marg_hh_m": 88.13559322, "per_marg_hh_f": 11.86440678, "marg_ot_p": 188, "marg_ot_m": 136, "marg_ot_f": 52, "per_marg_ot_p": 22.76029056, "per_marg_ot_m": 72.34042553, "per_marg_ot_f": 27.65957447, "margwork_3_6_p": 782, "margwork_3_6_m": 478, "margwork_3_6_f": 304, "per_margwork_3_6_p": 94.67312349000001, "per_margwork_3_6_m": 61.12531969, "per_margwork_3_6_f": 38.87468031, "marg_cl_3_6_p": 24, "marg_cl_3_6_m": 15, "marg_cl_3_6_f": 9, "per_marg_cl_3_6_p": 2.90556901, "per_marg_cl_3_6_m": 62.5, "per_marg_cl_3_6_f": 37.5, "marg_al_3_6_p": 526, "marg_al_3_6_m": 287, "marg_al_3_6_f": 239, "per_marg_al_3_6_p": 63.68038741, "per_marg_al_3_6_m": 54.56273764, "per_marg_al_3_6_f": 45.43726236, "marg_hh_3_6_p": 54, "marg_hh_3_6_m": 49, "marg_hh_3_6_f": 5, "per_marg_hh_3_6_p": 6.53753027, "per_marg_hh_3_6_m": 90.74074074, "per_marg_hh_3_6_f": 9.25925926, "marg_ot_3_6_p": 178, "marg_ot_3_6_m": 127, "marg_ot_3_6_f": 51, "per_marg_ot_3_6_p": 21.5496368, "per_marg_ot_3_6_m": 71.34831460999999, "per_marg_ot_3_6_f": 28.65168539, "margwork_0_3_p": 44, "margwork_0_3_m": 24, "margwork_0_3_f": 20, "per_margwork_0_3_p": 5.32687651, "per_margwork_0_3_m": 54.54545455, "per_margwork_0_3_f": 45.45454545, "marg_cl_0_3_p": 2, "marg_cl_0_3_m": 2, "marg_cl_0_3_f": 0, "per_marg_cl_0_3_p": 0.24213075, "per_marg_cl_0_3_m": 100.0, "per_marg_cl_0_3_f": 0.0, "marg_al_0_3_p": 27, "marg_al_0_3_m": 10, "marg_al_0_3_f": 17, "per_marg_al_0_3_p": 3.26876513, "per_marg_al_0_3_m": 37.03703704, "per_marg_al_0_3_f": 62.96296296, "marg_hh_0_3_p": 5, "marg_hh_0_3_m": 3, "marg_hh_0_3_f": 2, "per_marg_hh_0_3_p": 0.60532688, "per_marg_hh_0_3_m": 60.0, "per_marg_hh_0_3_f": 40.0, "marg_ot_0_3_p": 10, "marg_ot_0_3_m": 9, "marg_ot_0_3_f": 1, "per_marg_ot_0_3_p": 1.21065375, "per_marg_ot_0_3_m": 90.0, "per_marg_ot_0_3_f": 10.0, "non_work_p": 1799, "non_work_m": 630, "non_work_f": 1169, "per_non_work_p": 55.52469136, "per_non_work_m": 35.01945525, "per_non_work_f": 64.98054475, "per_hc_tot_tot": 100, "per_hc_tot_god": 2.5, "per_hc_tot_liv": 79.9, "per_hc_tot_dil": 17.6, "per_hc_res_tot": 91.1, "per_hc_res_god": 2.2, "per_hc_res_liv": 71.6, "per_hc_res_dil": 17.2, "per_hc_oth_tot": 8.9, "per_hc_oth_god": 0.2, "per_hc_oth_liv": 8.3, "per_hc_oth_dil": 0.4, "per_mt_grsbam": 51.4, "per_mt_plastic": 0.4, "per_mt_h_tiles": 0.5, "per_mt_m_tiles": 5.6, "per_mt_b_brick": 0.0, "per_mt_stone": 0.7, "per_mt_asbstos": 2.2, "per_mt_concrte": 39.2, "per_mt_oth": 0.0, "per_mw_grsbam": 6.2, "per_mw_plastic": 0.0, "per_mw_mud": 8.4, "per_mw_wood": 2.7, "per_mw_no_mrtr": 46.5, "per_mw_st_mrtr": 35.9, "per_mw_asbstos": 0.0, "per_mw_b_brick": 0.1, "per_mw_concrte": 0.0, "per_mw_oth": 0.1, "per_mf_mud": 56.2, "per_mf_wood": 0.0, "per_mf_b_brick": 0.0, "per_mf_stone": 0.0, "per_mf_cement": 43.7, "per_mf_fl_tile": 0.1, "per_mf_oth": 0.0, "per_dw_n_exrm": 0.1, "per_dw_1_room": 44.3, "per_dw_2_room": 37.3, "per_dw_3_room": 13.6, "per_dw_4_room": 3.6, "per_dw_5_room": 0.2, "per_dw_6_room": 0.7, "per_hhsize_1": 5.2, "per_hhsize_2": 13.3, "per_hhsize_3": 18.2, "per_hhsize_4": 26.2, "per_hhsize_5": 20.7, "per_hhsize_6_8": 15.3, "per_hhsize_9p": 1.1, "per_ow_owned": 91.2, "per_ow_rented": 6.2, "per_ow_oth": 2.6, "per_mc_none": 17.0, "per_mcouple_1": 73.6, "per_mcouple_2": 8.3, "per_mcouple_3": 1.1, "per_mcouple_4": 0.0, "per_mcouple_5p": 0.0, "per_dw_t_ts": 0.1, "per_dw_t_unts": 0.4, "per_dw_c_well": 1.9, "per_dw_unc_wel": 27.3, "per_dw_hpump": 44.0, "per_dw_tw_bore": 25.4, "per_dw_spring": 0.0, "per_dw_rivcan": 0.1, "per_dw_tank": 0.1, "per_dw_oth": 0.6, "per_loc_dw_wp": 8.4, "per_loc_dw_np": 77.0, "per_loc_dw_aw": 14.5, "per_light_elec": 39.7, "per_light_kero": 60.2, "per_light_solr": 0.1, "per_light_oil": 0.0, "per_light_oth": 0.0, "per_light_no": 0.0, "per_hh_latrine": 26.7, "per_fl_sewer": 0.1, "per_fl_septict": 11.8, "per_fl_othsys": 0.9, "per_pl_wslab": 10.5, "per_pl_without": 3.2, "per_ns_open": 0.1, "per_sl_ns_hum": 0.0, "per_sl_ns_anml": 0.0, "per_hh_no_lat": 73.3, "per_as_pub": 0.0, "per_as_open": 73.3, "per_hh_bathrm": 5.6, "per_hh_en_wrf": 5.5, "per_hh_no_btrm": 89.0, "per_wwoc_drain": 8.3, "per_wwoc_open": 3.5, "per_wwoc_nodrn": 88.2, "per_cook_fire": 93.3, "per_cook_resdu": 2.2, "per_cook_cwdng": 0.0, "per_cook_coal": 0.4, "per_cook_kero": 1.4, "per_cook_lpng": 2.6, "per_cook_elec": 0.0, "per_cook_biogs": 0.0, "per_cook_oth": 0.0, "per_cook_no": 0.1, "per_kf_inside": 84.2, "per_kf_in_has": 9.3, "per_kf_in_does": 74.9, "per_kf_outside": 15.6, "per_kf_out_has": 2.1, "per_kf_out_dos": 13.5, "per_kf_no_cook": 0.1, "per_hh_banking": 24.6, "per_hh_radio": 2.1, "per_hh_tv": 16.7, "per_hh_cmp_int": 0.2, "per_hh_cmp_wnt": 1.0, "per_hh_ph_ll": 1.0, "per_hh_ph_mob": 36.4, "per_hh_ph_bth": 0.7, "per_hh_bcycl": 43.5, "per_hh_2wheel": 6.1, "per_hh_4wheel": 0.2, "per_hh_tvcomp": 0.2, "per_hh_no_ast": 36.6, "per_hs_perma": 47.3, "per_hs_sperma": 36.2, "per_hs_temp": 16.4, "per_hs_servc": 10.5, "per_hs_nservc": 5.8, "per_hs_unclss": 0.1, "avghhsz_cy": 4.03990025, "st_areashape": 7106839.232438435, "st_lengthshape": 13187.758229530404}, "geometry": {"type": "Polygon", "coordinates": [[[84.94048391812574, 20.00390091882892], [84.93924757937661, 20.004796776740697], [84.93838774432604, 20.005472867123846], [84.93760534135795, 20.00607024073608], [84.937323986316, 20.007145579609908], [84.93725776969978, 20.008594327856184], [84.93672943634522, 20.01059167490275], [84.93641357521659, 20.011820448781517], [84.93596420557213, 20.011645248718757], [84.93524949964389, 20.010831792821744], [84.93471703493732, 20.009517360669687], [84.93395347143738, 20.008477177673935], [84.93249667713438, 20.00719380398926], [84.93045559162115, 20.006424871078874], [84.92801828708386, 20.005821579920475], [84.9265829777875, 20.005108430265267], [84.92604334183004, 20.00466977628371], [84.925816688799, 20.003992159660143], [84.92511203142553, 20.0034448345888], [84.92422492172626, 20.003398468661402], [84.92250388079593, 20.003646610794885], [84.92187678216743, 20.00302047374424], [84.92094382874427, 20.002823406953542], [84.91976831312641, 20.002596364149277], [84.91857333191464, 20.001479133675822], [84.91835454543057, 20.00101064461046], [84.91767441475928, 20.000043691952705], [84.91693897032441, 19.999211811723164], [84.91753484081865, 19.998659329171907], [84.91731676580028, 19.99820985378832], [84.9166078647854, 19.997548418789655], [84.91679455266774, 19.997161453335575], [84.91716080928381, 19.996197488156447], [84.91699742369994, 19.995061015920612], [84.9164750003616, 19.9950785298467], [84.91608471021844, 19.99433025707846], [84.91654133555544, 19.993629723044773], [84.91722595241328, 19.99364483460995], [84.91842296022428, 19.99337634896035], [84.91983358022335, 19.99136276417571], [84.92140830895013, 19.990434477869893], [84.92294858638743, 19.9885936070313], [84.92258442104935, 19.986397975019997], [84.92318186898524, 19.984093882652886], [84.92482122341185, 19.98167875531409], [84.92548298084061, 19.98108554076678], [84.92948609024067, 19.978550732181493], [84.93263780066891, 19.97676983499663], [84.93593289658952, 19.974527272057347], [84.93819741557182, 19.97483164873056], [84.94066572905439, 19.976271172614265], [84.94289288530739, 19.97771884480961], [84.9436132551135, 19.978195843197287], [84.94249512028276, 19.979331571753956], [84.94059666118547, 19.980713320104748], [84.94094613727204, 19.98136034117586], [84.93977001079978, 19.98096078797682], [84.93874133289995, 19.980775751907963], [84.93781041416091, 19.980719245850615], [84.93750556458104, 19.981256642279618], [84.93645014293688, 19.984059396037196], [84.93527536483583, 19.987393306788125], [84.9348594044351, 19.98868118192679], [84.93566943688639, 19.989224961193905], [84.93864621658271, 19.990574320666635], [84.93899906584315, 19.991309154943902], [84.94099234032204, 19.99395276461876], [84.94135664310234, 19.99622461103522], [84.94123811129893, 19.997418419114027], [84.94150641292146, 19.998990692988787], [84.94168854634533, 20.000741655754137], [84.94153355012787, 20.002174399186377], [84.94108207034081, 20.003134086046753], [84.94048391812574, 20.00390091882892]]]}}]}