{"type": "FeatureCollection", "features": [{"type": "Feature", "properties": {"premiumdata.sde.IN_Village_PCA.area": 8.59690253, "objectid": 44617, "id": "295365476100350", "name": "Sangameshwar", "subdistrict": "Kalghatgi", "district": "Dharwad", "state": "Karnataka", "country": "India", "censusname": "Sangameshwar", "villagename_locallang": null, "lgd_villagename": "Sangameshwar", "lgd_villagecode": 602473, "lgd_subdistrictcode": 5476, "lgd_districtcode": 536, "lgd_statecode": 29, "censuscode2001": "00675700", "censuscode2011": "602473", "censuscode2021": null, "level": "Village", "tru": "Rural", "no_hh": 423, "tot_p": 2151, "tot_m": 1109, "tot_f": 1042, "per_tot_m": 51.55741516, "per_tot_f": 48.44258484, "p_06": 275, "m_06": 140, "f_06": 135, "per_p_06": 12.78475128, "per_m_06": 50.90909091, "per_f_06": 49.09090909, "p_sc": 125, "m_sc": 64, "f_sc": 61, "per_p_sc": 5.81125058, "per_m_sc": 51.2, "per_f_sc": 48.8, "p_st": 16, "m_st": 11, "f_st": 5, "per_p_st": 0.74384007, "per_m_st": 68.75, "per_f_st": 31.25, "p_lit": 1300, "m_lit": 777, "f_lit": 523, "per_p_lit": 60.43700604, "per_m_lit": 59.76923077, "per_f_lit": 40.23076923, "p_ill": 851, "m_ill": 332, "f_ill": 519, "per_p_ill": 39.56299396, "per_m_ill": 39.01292597, "per_f_ill": 60.98707403, "tot_work_p": 1248, "tot_work_m": 693, "tot_work_f": 555, "per_tot_work_p": 58.0195258, "per_tot_work_m": 55.52884615, "per_tot_work_f": 44.47115385, "mainwork_p": 947, "mainwork_m": 669, "mainwork_f": 278, "per_mainwork_p": 44.0260344, "per_mainwork_m": 70.64413939, "per_mainwork_f": 29.35586061, "main_cl_p": 752, "main_cl_m": 523, "main_cl_f": 229, "per_main_cl_p": 79.40865892000001, "per_main_cl_m": 69.54787234, "per_main_cl_f": 30.45212766, "main_al_p": 41, "main_al_m": 15, "main_al_f": 26, "per_main_al_p": 4.32946146, "per_main_al_m": 36.58536585, "per_main_al_f": 63.41463415, "main_hh_p": 9, "main_hh_m": 9, "main_hh_f": 0, "per_main_hh_p": 0.95036959, "per_main_hh_m": 100.0, "per_main_hh_f": 0.0, "main_ot_p": 145, "main_ot_m": 122, "main_ot_f": 23, "per_main_ot_p": 15.31151003, "per_main_ot_m": 84.13793103, "per_main_ot_f": 15.86206897, "margwork_p": 301, "margwork_m": 24, "margwork_f": 277, "per_margwork_p": 13.9934914, "per_margwork_m": 7.97342193, "per_margwork_f": 92.02657807, "marg_cl_p": 53, "marg_cl_m": 10, "marg_cl_f": 43, "per_marg_cl_p": 17.60797342, "per_marg_cl_m": 18.86792453, "per_marg_cl_f": 81.13207547, "marg_al_p": 239, "marg_al_m": 8, "marg_al_f": 231, "per_marg_al_p": 79.40199336, "per_marg_al_m": 3.34728033, "per_marg_al_f": 96.65271967, "marg_hh_p": 4, "marg_hh_m": 3, "marg_hh_f": 1, "per_marg_hh_p": 1.32890365, "per_marg_hh_m": 75.0, "per_marg_hh_f": 25.0, "marg_ot_p": 5, "marg_ot_m": 3, "marg_ot_f": 2, "per_marg_ot_p": 1.66112957, "per_marg_ot_m": 60.0, "per_marg_ot_f": 40.0, "margwork_3_6_p": 273, "margwork_3_6_m": 12, "margwork_3_6_f": 261, "per_margwork_3_6_p": 90.69767442, "per_margwork_3_6_m": 4.3956044, "per_margwork_3_6_f": 95.6043956, "marg_cl_3_6_p": 31, "marg_cl_3_6_m": 2, "marg_cl_3_6_f": 29, "per_marg_cl_3_6_p": 10.29900332, "per_marg_cl_3_6_m": 6.4516129, "per_marg_cl_3_6_f": 93.5483871, "marg_al_3_6_p": 238, "marg_al_3_6_m": 8, "marg_al_3_6_f": 230, "per_marg_al_3_6_p": 79.06976744, "per_marg_al_3_6_m": 3.36134454, "per_marg_al_3_6_f": 96.63865546, "marg_hh_3_6_p": 2, "marg_hh_3_6_m": 1, "marg_hh_3_6_f": 1, "per_marg_hh_3_6_p": 0.66445183, "per_marg_hh_3_6_m": 50.0, "per_marg_hh_3_6_f": 50.0, "marg_ot_3_6_p": 2, "marg_ot_3_6_m": 1, "marg_ot_3_6_f": 1, "per_marg_ot_3_6_p": 0.66445183, "per_marg_ot_3_6_m": 50.0, "per_marg_ot_3_6_f": 50.0, "margwork_0_3_p": 28, "margwork_0_3_m": 12, "margwork_0_3_f": 16, "per_margwork_0_3_p": 9.30232558, "per_margwork_0_3_m": 42.85714286, "per_margwork_0_3_f": 57.14285714, "marg_cl_0_3_p": 22, "marg_cl_0_3_m": 8, "marg_cl_0_3_f": 14, "per_marg_cl_0_3_p": 7.3089701, "per_marg_cl_0_3_m": 36.36363636, "per_marg_cl_0_3_f": 63.63636364, "marg_al_0_3_p": 1, "marg_al_0_3_m": 0, "marg_al_0_3_f": 1, "per_marg_al_0_3_p": 0.33222591, "per_marg_al_0_3_m": 0.0, "per_marg_al_0_3_f": 100.0, "marg_hh_0_3_p": 2, "marg_hh_0_3_m": 2, "marg_hh_0_3_f": 0, "per_marg_hh_0_3_p": 0.66445183, "per_marg_hh_0_3_m": 100.0, "per_marg_hh_0_3_f": 0.0, "marg_ot_0_3_p": 3, "marg_ot_0_3_m": 2, "marg_ot_0_3_f": 1, "per_marg_ot_0_3_p": 0.99667774, "per_marg_ot_0_3_m": 66.66666667, "per_marg_ot_0_3_f": 33.33333333, "non_work_p": 903, "non_work_m": 416, "non_work_f": 487, "per_non_work_p": 41.9804742, "per_non_work_m": 46.06866002, "per_non_work_f": 53.93133998, "per_hc_tot_tot": 100, "per_hc_tot_god": 73.4, "per_hc_tot_liv": 20.3, "per_hc_tot_dil": 6.2, "per_hc_res_tot": 96.7, "per_hc_res_god": 72.7, "per_hc_res_liv": 18.2, "per_hc_res_dil": 5.7, "per_hc_oth_tot": 3.3, "per_hc_oth_god": 0.7, "per_hc_oth_liv": 2.2, "per_hc_oth_dil": 0.5, "per_mt_grsbam": 0.0, "per_mt_plastic": 0.2, "per_mt_h_tiles": 20.6, "per_mt_m_tiles": 77.8, "per_mt_b_brick": 0.0, "per_mt_stone": 0.2, "per_mt_asbstos": 0.5, "per_mt_concrte": 0.7, "per_mt_oth": 0.0, "per_mw_grsbam": 4.1, "per_mw_plastic": 0.5, "per_mw_mud": 88.3, "per_mw_wood": 0.2, "per_mw_no_mrtr": 0.0, "per_mw_st_mrtr": 0.0, "per_mw_asbstos": 0.0, "per_mw_b_brick": 6.9, "per_mw_concrte": 0.0, "per_mw_oth": 0.0, "per_mf_mud": 92.3, "per_mf_wood": 0.0, "per_mf_b_brick": 0.0, "per_mf_stone": 5.3, "per_mf_cement": 1.7, "per_mf_fl_tile": 0.7, "per_mf_oth": 0.0, "per_dw_n_exrm": 1.2, "per_dw_1_room": 15.3, "per_dw_2_room": 26.6, "per_dw_3_room": 25.4, "per_dw_4_room": 22.0, "per_dw_5_room": 6.7, "per_dw_6_room": 2.9, "per_hhsize_1": 4.3, "per_hhsize_2": 6.7, "per_hhsize_3": 10.0, "per_hhsize_4": 25.8, "per_hhsize_5": 23.0, "per_hhsize_6_8": 21.5, "per_hhsize_9p": 8.6, "per_ow_owned": 95.9, "per_ow_rented": 3.6, "per_ow_oth": 0.5, "per_mc_none": 10.5, "per_mcouple_1": 71.3, "per_mcouple_2": 12.7, "per_mcouple_3": 3.8, "per_mcouple_4": 0.7, "per_mcouple_5p": 1.0, "per_dw_t_ts": 1.0, "per_dw_t_unts": 99.0, "per_dw_c_well": 0.0, "per_dw_unc_wel": 0.0, "per_dw_hpump": 0.0, "per_dw_tw_bore": 0.0, "per_dw_spring": 0.0, "per_dw_rivcan": 0.0, "per_dw_tank": 0.0, "per_dw_oth": 0.0, "per_loc_dw_wp": 32.1, "per_loc_dw_np": 53.1, "per_loc_dw_aw": 14.8, "per_light_elec": 93.8, "per_light_kero": 6.0, "per_light_solr": 0.2, "per_light_oil": 0.0, "per_light_oth": 0.0, "per_light_no": 0.0, "per_hh_latrine": 39.2, "per_fl_sewer": 1.2, "per_fl_septict": 24.9, "per_fl_othsys": 3.1, "per_pl_wslab": 10.0, "per_pl_without": 0.0, "per_ns_open": 0.0, "per_sl_ns_hum": 0.0, "per_sl_ns_anml": 0.0, "per_hh_no_lat": 60.8, "per_as_pub": 0.0, "per_as_open": 60.8, "per_hh_bathrm": 89.0, "per_hh_en_wrf": 5.7, "per_hh_no_btrm": 5.3, "per_wwoc_drain": 0.7, "per_wwoc_open": 72.5, "per_wwoc_nodrn": 26.8, "per_cook_fire": 97.4, "per_cook_resdu": 1.4, "per_cook_cwdng": 0.0, "per_cook_coal": 0.0, "per_cook_kero": 0.2, "per_cook_lpng": 0.7, "per_cook_elec": 0.0, "per_cook_biogs": 0.2, "per_cook_oth": 0.0, "per_cook_no": 0.0, "per_kf_inside": 99.5, "per_kf_in_has": 99.5, "per_kf_in_does": 0.0, "per_kf_outside": 0.5, "per_kf_out_has": 0.0, "per_kf_out_dos": 0.5, "per_kf_no_cook": 0.0, "per_hh_banking": 63.2, "per_hh_radio": 21.5, "per_hh_tv": 31.6, "per_hh_cmp_int": 0.0, "per_hh_cmp_wnt": 0.5, "per_hh_ph_ll": 10.8, "per_hh_ph_mob": 50.7, "per_hh_ph_bth": 7.9, "per_hh_bcycl": 48.1, "per_hh_2wheel": 9.6, "per_hh_4wheel": 0.2, "per_hh_tvcomp": 0.0, "per_hh_no_ast": 15.1, "per_hs_perma": 6.9, "per_hs_sperma": 92.8, "per_hs_temp": 0.2, "per_hs_servc": 0.2, "per_hs_nservc": 0.0, "per_hs_unclss": 0.0, "avghhsz_cy": 5.08510638, "st_areashape": 9283565.17855846, "st_lengthshape": 18332.113936534617}, "geometry": {"type": "Polygon", "coordinates": [[[74.90841700206437, 15.19757299952679], [74.9108350018062, 15.198112998918015], [74.91227700175477, 15.19893299936324], [74.91145300139918, 15.198840999408652], [74.91007200154996, 15.198776999228112], [74.90651700145806, 15.197269999888924], [74.89858200199204, 15.196718999947024], [74.89720200196776, 15.19724799969228], [74.89421800161315, 15.194505999380608], [74.89288300179471, 15.191975999663585], [74.88922100157268, 15.18845700024498], [74.8872300016281, 15.186852999509362], [74.8862300015454, 15.186168999377719], [74.884674001794, 15.185878000117382], [74.88254500175717, 15.185827998937937], [74.87702200218521, 15.186682000117699], [74.8725372143332, 15.191221998071432], [74.8717373633874, 15.191062699649816], [74.87018477274252, 15.18968331130384], [74.86857139489896, 15.188235932188837], [74.86773736215824, 15.187744626918123], [74.8664384557496, 15.18741255591328], [74.86523521003721, 15.187020858697126], [74.86529677877019, 15.186536173186319], [74.86535149964571, 15.186283920827583], [74.86557705583377, 15.186024949332216], [74.8661923685657, 15.185699637815116], [74.8656865191444, 15.185274733254401], [74.86564277747826, 15.185262053249625], [74.86477043698059, 15.185009172562998], [74.86526274968891, 15.183681349356755], [74.86539266943518, 15.18269873554368], [74.86523543012447, 15.182373428437602], [74.86506456067598, 15.182333554274333], [74.864367193131, 15.182366754567987], [74.8638613392181, 15.182380022546537], [74.86299997164163, 15.182240472049553], [74.8627128521105, 15.18200146088621], [74.86254881704468, 15.181629684278732], [74.86257613571078, 15.180992356878146], [74.86286332261555, 15.179837172870286], [74.86281557266665, 15.179206397854834], [74.86262419917176, 15.178655326477815], [74.86239178165155, 15.178177286228168], [74.8619132374216, 15.177818804965497], [74.86121599384417, 15.177446921291542], [74.86014960107543, 15.176836027756082], [74.85934293730651, 15.176450958966122], [74.85831756610521, 15.17597288598372], [74.85768864748998, 15.175534574665187], [74.85718280795011, 15.175176024760013], [74.85577460441915, 15.174711163598953], [74.85500208381755, 15.174452183112694], [74.85429117327138, 15.174120173568115], [74.85364186559411, 15.173635446308277], [74.85304712518048, 15.172998026292024], [74.85271014465951, 15.172802326101516], [74.85562900188465, 15.171473999580954], [74.85599500248087, 15.17139300037613], [74.8571320019326, 15.17106999943837], [74.8608780018202, 15.171020999615358], [74.8647000018758, 15.170741000037125], [74.86582900272825, 15.170404999013083], [74.86795000236916, 15.171211000015829], [74.87252800210997, 15.171901999370071], [74.87647200236431, 15.171517999275146], [74.87992100215101, 15.17288999980236], [74.88667300213449, 15.172468999588947], [74.88908400220363, 15.172498999594854], [74.89334900195001, 15.172549999248298], [74.8947680023324, 15.173198999390136], [74.8955150017968, 15.175686999177486], [74.89728500270674, 15.176662999310158], [74.898254001929, 15.17665099937142], [74.90048200259835, 15.17845300001701], [74.9023590018418, 15.180094999751411], [74.90361000199466, 15.181161999740974], [74.90554800223579, 15.18171999942314], [74.90617400222469, 15.182210999673293], [74.90664700115438, 15.182589999639996], [74.90407600125168, 15.183721999191077], [74.90292400173134, 15.184773999061145], [74.9021610023734, 15.185525999364744], [74.90141300218576, 15.187313999460539], [74.90151200191998, 15.188349999447396], [74.90339700155933, 15.192993999488545], [74.90570100149837, 15.19507499954032], [74.90841700206437, 15.19757299952679]]]}}]}