{"type": "FeatureCollection", "features": [{"type": "Feature", "properties": {"premiumdata.sde.IN_Village_PCA.area": 1.86141645, "objectid": 149989, "id": "21363320577745", "name": "Ghumura", "subdistrict": "Bandhugaon", "district": "Koraput", "state": "Odisha", "country": "India", "censusname": "Ghumura", "villagename_locallang": null, "lgd_villagename": "Ghumura", "lgd_villagecode": 428769, "lgd_subdistrictcode": 3205, "lgd_districtcode": 363, "lgd_statecode": 21, "censuscode2001": "04882800", "censuscode2011": "428769", "censuscode2021": null, "level": "Village", "tru": "Rural", "no_hh": 141, "tot_p": 640, "tot_m": 322, "tot_f": 318, "per_tot_m": 50.3125, "per_tot_f": 49.6875, "p_06": 105, "m_06": 59, "f_06": 46, "per_p_06": 16.40625, "per_m_06": 56.19047619, "per_f_06": 43.80952381, "p_sc": 18, "m_sc": 10, "f_sc": 8, "per_p_sc": 2.8125, "per_m_sc": 55.55555556, "per_f_sc": 44.44444444000001, "p_st": 419, "m_st": 211, "f_st": 208, "per_p_st": 65.46875, "per_m_st": 50.35799523, "per_f_st": 49.64200477, "p_lit": 140, "m_lit": 88, "f_lit": 52, "per_p_lit": 21.875, "per_m_lit": 62.85714286, "per_f_lit": 37.14285714, "p_ill": 500, "m_ill": 234, "f_ill": 266, "per_p_ill": 78.125, "per_m_ill": 46.8, "per_f_ill": 53.2, "tot_work_p": 323, "tot_work_m": 153, "tot_work_f": 170, "per_tot_work_p": 50.46875, "per_tot_work_m": 47.36842105, "per_tot_work_f": 52.63157895000001, "mainwork_p": 121, "mainwork_m": 116, "mainwork_f": 5, "per_mainwork_p": 18.90625, "per_mainwork_m": 95.8677686, "per_mainwork_f": 4.1322314, "main_cl_p": 69, "main_cl_m": 68, "main_cl_f": 1, "per_main_cl_p": 57.02479339000001, "per_main_cl_m": 98.55072464000001, "per_main_cl_f": 1.44927536, "main_al_p": 5, "main_al_m": 3, "main_al_f": 2, "per_main_al_p": 4.1322314, "per_main_al_m": 60.0, "per_main_al_f": 40.0, "main_hh_p": 43, "main_hh_m": 42, "main_hh_f": 1, "per_main_hh_p": 35.53719008, "per_main_hh_m": 97.6744186, "per_main_hh_f": 2.3255814, "main_ot_p": 4, "main_ot_m": 3, "main_ot_f": 1, "per_main_ot_p": 3.30578512, "per_main_ot_m": 75.0, "per_main_ot_f": 25.0, "margwork_p": 202, "margwork_m": 37, "margwork_f": 165, "per_margwork_p": 31.5625, "per_margwork_m": 18.31683168, "per_margwork_f": 81.68316832, "marg_cl_p": 0, "marg_cl_m": 0, "marg_cl_f": 0, "per_marg_cl_p": 0.0, "per_marg_cl_m": 0.0, "per_marg_cl_f": 0.0, "marg_al_p": 177, "marg_al_m": 22, "marg_al_f": 155, "per_marg_al_p": 87.62376238, "per_marg_al_m": 12.42937853, "per_marg_al_f": 87.57062147, "marg_hh_p": 8, "marg_hh_m": 6, "marg_hh_f": 2, "per_marg_hh_p": 3.96039604, "per_marg_hh_m": 75.0, "per_marg_hh_f": 25.0, "marg_ot_p": 17, "marg_ot_m": 9, "marg_ot_f": 8, "per_marg_ot_p": 8.41584158, "per_marg_ot_m": 52.94117647, "per_marg_ot_f": 47.05882353, "margwork_3_6_p": 27, "margwork_3_6_m": 7, "margwork_3_6_f": 20, "per_margwork_3_6_p": 13.36633663, "per_margwork_3_6_m": 25.92592593, "per_margwork_3_6_f": 74.07407407, "marg_cl_3_6_p": 0, "marg_cl_3_6_m": 0, "marg_cl_3_6_f": 0, "per_marg_cl_3_6_p": 0.0, "per_marg_cl_3_6_m": 0.0, "per_marg_cl_3_6_f": 0.0, "marg_al_3_6_p": 16, "marg_al_3_6_m": 0, "marg_al_3_6_f": 16, "per_marg_al_3_6_p": 7.92079208, "per_marg_al_3_6_m": 0.0, "per_marg_al_3_6_f": 100.0, "marg_hh_3_6_p": 4, "marg_hh_3_6_m": 2, "marg_hh_3_6_f": 2, "per_marg_hh_3_6_p": 1.98019802, "per_marg_hh_3_6_m": 50.0, "per_marg_hh_3_6_f": 50.0, "marg_ot_3_6_p": 7, "marg_ot_3_6_m": 5, "marg_ot_3_6_f": 2, "per_marg_ot_3_6_p": 3.46534653, "per_marg_ot_3_6_m": 71.42857143, "per_marg_ot_3_6_f": 28.57142857, "margwork_0_3_p": 175, "margwork_0_3_m": 30, "margwork_0_3_f": 145, "per_margwork_0_3_p": 86.63366337000001, "per_margwork_0_3_m": 17.14285714, "per_margwork_0_3_f": 82.85714286, "marg_cl_0_3_p": 0, "marg_cl_0_3_m": 0, "marg_cl_0_3_f": 0, "per_marg_cl_0_3_p": 0.0, "per_marg_cl_0_3_m": 0.0, "per_marg_cl_0_3_f": 0.0, "marg_al_0_3_p": 161, "marg_al_0_3_m": 22, "marg_al_0_3_f": 139, "per_marg_al_0_3_p": 79.7029703, "per_marg_al_0_3_m": 13.66459627, "per_marg_al_0_3_f": 86.33540373000001, "marg_hh_0_3_p": 4, "marg_hh_0_3_m": 4, "marg_hh_0_3_f": 0, "per_marg_hh_0_3_p": 1.98019802, "per_marg_hh_0_3_m": 100.0, "per_marg_hh_0_3_f": 0.0, "marg_ot_0_3_p": 10, "marg_ot_0_3_m": 4, "marg_ot_0_3_f": 6, "per_marg_ot_0_3_p": 4.95049505, "per_marg_ot_0_3_m": 40.0, "per_marg_ot_0_3_f": 60.0, "non_work_p": 317, "non_work_m": 169, "non_work_f": 148, "per_non_work_p": 49.53125, "per_non_work_m": 53.31230284, "per_non_work_f": 46.68769716000001, "per_hc_tot_tot": 100, "per_hc_tot_god": 21.2, "per_hc_tot_liv": 77.3, "per_hc_tot_dil": 1.5, "per_hc_res_tot": 99.2, "per_hc_res_god": 20.5, "per_hc_res_liv": 77.3, "per_hc_res_dil": 1.5, "per_hc_oth_tot": 0.8, "per_hc_oth_god": 0.8, "per_hc_oth_liv": 0.0, "per_hc_oth_dil": 0.0, "per_mt_grsbam": 9.8, "per_mt_plastic": 2.3, "per_mt_h_tiles": 40.2, "per_mt_m_tiles": 14.4, "per_mt_b_brick": 0.8, "per_mt_stone": 0.0, "per_mt_asbstos": 32.6, "per_mt_concrte": 0.0, "per_mt_oth": 0.0, "per_mw_grsbam": 3.8, "per_mw_plastic": 0.0, "per_mw_mud": 72.0, "per_mw_wood": 0.0, "per_mw_no_mrtr": 0.0, "per_mw_st_mrtr": 0.0, "per_mw_asbstos": 0.0, "per_mw_b_brick": 24.2, "per_mw_concrte": 0.0, "per_mw_oth": 0.0, "per_mf_mud": 78.8, "per_mf_wood": 0.0, "per_mf_b_brick": 0.0, "per_mf_stone": 0.0, "per_mf_cement": 21.2, "per_mf_fl_tile": 0.0, "per_mf_oth": 0.0, "per_dw_n_exrm": 6.1, "per_dw_1_room": 6.1, "per_dw_2_room": 50.8, "per_dw_3_room": 37.1, "per_dw_4_room": 0.0, "per_dw_5_room": 0.0, "per_dw_6_room": 0.0, "per_hhsize_1": 1.5, "per_hhsize_2": 15.9, "per_hhsize_3": 14.4, "per_hhsize_4": 14.4, "per_hhsize_5": 25.8, "per_hhsize_6_8": 26.5, "per_hhsize_9p": 1.5, "per_ow_owned": 99.2, "per_ow_rented": 0.0, "per_ow_oth": 0.8, "per_mc_none": 7.6, "per_mcouple_1": 79.5, "per_mcouple_2": 12.9, "per_mcouple_3": 0.0, "per_mcouple_4": 0.0, "per_mcouple_5p": 0.0, "per_dw_t_ts": 0.0, "per_dw_t_unts": 0.0, "per_dw_c_well": 0.0, "per_dw_unc_wel": 0.0, "per_dw_hpump": 100.0, "per_dw_tw_bore": 0.0, "per_dw_spring": 0.0, "per_dw_rivcan": 0.0, "per_dw_tank": 0.0, "per_dw_oth": 0.0, "per_loc_dw_wp": 0.0, "per_loc_dw_np": 100.0, "per_loc_dw_aw": 0.0, "per_light_elec": 0.0, "per_light_kero": 100.0, "per_light_solr": 0.0, "per_light_oil": 0.0, "per_light_oth": 0.0, "per_light_no": 0.0, "per_hh_latrine": 0.8, "per_fl_sewer": 0.8, "per_fl_septict": 0.0, "per_fl_othsys": 0.0, "per_pl_wslab": 0.0, "per_pl_without": 0.0, "per_ns_open": 0.0, "per_sl_ns_hum": 0.0, "per_sl_ns_anml": 0.0, "per_hh_no_lat": 99.2, "per_as_pub": 0.0, "per_as_open": 99.2, "per_hh_bathrm": 0.0, "per_hh_en_wrf": 21.2, "per_hh_no_btrm": 78.8, "per_wwoc_drain": 1.5, "per_wwoc_open": 0.0, "per_wwoc_nodrn": 98.5, "per_cook_fire": 93.9, "per_cook_resdu": 5.3, "per_cook_cwdng": 0.0, "per_cook_coal": 0.0, "per_cook_kero": 0.0, "per_cook_lpng": 0.0, "per_cook_elec": 0.8, "per_cook_biogs": 0.0, "per_cook_oth": 0.0, "per_cook_no": 0.0, "per_kf_inside": 81.8, "per_kf_in_has": 6.1, "per_kf_in_does": 75.8, "per_kf_outside": 18.2, "per_kf_out_has": 16.7, "per_kf_out_dos": 1.5, "per_kf_no_cook": 0.0, "per_hh_banking": 3.8, "per_hh_radio": 1.5, "per_hh_tv": 0.0, "per_hh_cmp_int": 0.0, "per_hh_cmp_wnt": 0.0, "per_hh_ph_ll": 3.0, "per_hh_ph_mob": 9.8, "per_hh_ph_bth": 0.0, "per_hh_bcycl": 12.9, "per_hh_2wheel": 0.8, "per_hh_4wheel": 0.0, "per_hh_tvcomp": 0.0, "per_hh_no_ast": 75.0, "per_hs_perma": 24.2, "per_hs_sperma": 63.6, "per_hs_temp": 12.1, "per_hs_servc": 8.3, "per_hs_nservc": 3.8, "per_hs_unclss": 0.0, "avghhsz_cy": 4.53900709, "st_areashape": 2092443.17125383, "st_lengthshape": 6596.56991874627}, "geometry": {"type": "Polygon", "coordinates": [[[83.2813131441326, 18.966648865042902], [83.2816111728045, 18.967272915873536], [83.28147491724052, 18.967726180902986], [83.28101826225908, 18.969045995587905], [83.2802953969331, 18.969646485115415], [83.27921753537315, 18.970666791334754], [83.27850361187751, 18.971574277800975], [83.27783995181697, 18.973732055127766], [83.27735746398294, 18.978389384173813], [83.27717110757894, 18.980749071867073], [83.27712933412157, 18.980812795846834], [83.27654490277418, 18.98077486098568], [83.2760212011332, 18.980311586414196], [83.2752595393667, 18.97980610430419], [83.27463859060464, 18.979877033904064], [83.27446000822114, 18.980005664976655], [83.27397165169333, 18.98040005658398], [83.2737963068381, 18.98076797176867], [83.27355063826913, 18.980856769592037], [83.27332248684822, 18.980837021927904], [83.27284949061345, 18.980607933732585], [83.27207442867788, 18.98016589897058], [83.27089834173151, 18.979900369020577], [83.27009235708891, 18.979630237876105], [83.27010450680314, 18.97841978125836], [83.26967369635247, 18.977810931261658], [83.26941234769019, 18.97708696969491], [83.26951277035583, 18.976444541980577], [83.27034780561638, 18.975359424603347], [83.27047481122787, 18.974576671851814], [83.2703302812818, 18.974068099679215], [83.2694742254436, 18.973595342934868], [83.26916208962848, 18.973332763904768], [83.26926907897878, 18.972821120346666], [83.2693626313291, 18.971663870576048], [83.26955425635228, 18.971097014918076], [83.26936922765826, 18.970051595931523], [83.26930287000653, 18.969356941728094], [83.2694624125976, 18.968519492408756], [83.26936239507219, 18.967445941738696], [83.26912046888472, 18.966405731353156], [83.26910592516029, 18.96533103207166], [83.2692359068903, 18.96441720961704], [83.2695082679996, 18.96384940414828], [83.26947583163134, 18.963556233267727], [83.26927912034704, 18.96339604872046], [83.26988534123001, 18.96224613579165], [83.27077297374878, 18.960848820182214], [83.27242763726446, 18.961763335900724], [83.27370518982049, 18.96181993501249], [83.27483837682215, 18.96208151609496], [83.27572058172, 18.96273002427521], [83.27646080159893, 18.96375956165089], [83.27695181713997, 18.964968321996153], [83.27769678820847, 18.96599784640078], [83.27894021915677, 18.966330317215633], [83.28017891059358, 18.966315097607204], [83.2813131441326, 18.966648865042902]]]}}]}