{"type": "FeatureCollection", "features": [{"type": "Feature", "properties": {"premiumdata.sde.IN_Village_PCA.area": 3.79469702, "objectid": 383792, "id": "9125919405820", "name": "Ambarpurwa", "subdistrict": "Nanpara", "district": "Bahraich", "state": "Uttar Pradesh", "country": "India", "censusname": "Ambarpurwa", "villagename_locallang": null, "lgd_villagename": "Ambarpurwa", "lgd_villagecode": 171505, "lgd_subdistrictcode": 919, "lgd_districtcode": 125, "lgd_statecode": 9, "censuscode2001": "06455300", "censuscode2011": "171505", "censuscode2021": null, "level": "Village", "tru": "Rural", "no_hh": 333, "tot_p": 1595, "tot_m": 872, "tot_f": 723, "per_tot_m": 54.67084639, "per_tot_f": 45.32915361, "p_06": 304, "m_06": 162, "f_06": 142, "per_p_06": 19.05956113, "per_m_06": 53.28947368, "per_f_06": 46.71052632000001, "p_sc": 253, "m_sc": 144, "f_sc": 109, "per_p_sc": 15.86206897, "per_m_sc": 56.91699605, "per_f_sc": 43.08300395, "p_st": 0, "m_st": 0, "f_st": 0, "per_p_st": 0.0, "per_m_st": 0.0, "per_f_st": 0.0, "p_lit": 352, "m_lit": 225, "f_lit": 127, "per_p_lit": 22.06896552, "per_m_lit": 63.92045455, "per_f_lit": 36.07954545, "p_ill": 1243, "m_ill": 647, "f_ill": 596, "per_p_ill": 77.93103448, "per_m_ill": 52.05148833, "per_f_ill": 47.94851167, "tot_work_p": 555, "tot_work_m": 420, "tot_work_f": 135, "per_tot_work_p": 34.79623824, "per_tot_work_m": 75.67567568, "per_tot_work_f": 24.32432432, "mainwork_p": 289, "mainwork_m": 259, "mainwork_f": 30, "per_mainwork_p": 18.11912226, "per_mainwork_m": 89.61937716, "per_mainwork_f": 10.38062284, "main_cl_p": 136, "main_cl_m": 126, "main_cl_f": 10, "per_main_cl_p": 47.05882353, "per_main_cl_m": 92.64705882000001, "per_main_cl_f": 7.35294118, "main_al_p": 146, "main_al_m": 128, "main_al_f": 18, "per_main_al_p": 50.51903114, "per_main_al_m": 87.67123288, "per_main_al_f": 12.32876712, "main_hh_p": 1, "main_hh_m": 1, "main_hh_f": 0, "per_main_hh_p": 0.34602076, "per_main_hh_m": 100.0, "per_main_hh_f": 0.0, "main_ot_p": 6, "main_ot_m": 4, "main_ot_f": 2, "per_main_ot_p": 2.07612457, "per_main_ot_m": 66.66666667, "per_main_ot_f": 33.33333333, "margwork_p": 266, "margwork_m": 161, "margwork_f": 105, "per_margwork_p": 16.67711599, "per_margwork_m": 60.52631579, "per_margwork_f": 39.47368421, "marg_cl_p": 6, "marg_cl_m": 3, "marg_cl_f": 3, "per_marg_cl_p": 2.2556391, "per_marg_cl_m": 50.0, "per_marg_cl_f": 50.0, "marg_al_p": 246, "marg_al_m": 147, "marg_al_f": 99, "per_marg_al_p": 92.48120301, "per_marg_al_m": 59.75609756, "per_marg_al_f": 40.24390244, "marg_hh_p": 6, "marg_hh_m": 6, "marg_hh_f": 0, "per_marg_hh_p": 2.2556391, "per_marg_hh_m": 100.0, "per_marg_hh_f": 0.0, "marg_ot_p": 8, "marg_ot_m": 5, "marg_ot_f": 3, "per_marg_ot_p": 3.0075188, "per_marg_ot_m": 62.5, "per_marg_ot_f": 37.5, "margwork_3_6_p": 133, "margwork_3_6_m": 32, "margwork_3_6_f": 101, "per_margwork_3_6_p": 50.0, "per_margwork_3_6_m": 24.06015038, "per_margwork_3_6_f": 75.93984962, "marg_cl_3_6_p": 3, "marg_cl_3_6_m": 0, "marg_cl_3_6_f": 3, "per_marg_cl_3_6_p": 1.12781955, "per_marg_cl_3_6_m": 0.0, "per_marg_cl_3_6_f": 100.0, "marg_al_3_6_p": 125, "marg_al_3_6_m": 28, "marg_al_3_6_f": 97, "per_marg_al_3_6_p": 46.9924812, "per_marg_al_3_6_m": 22.4, "per_marg_al_3_6_f": 77.6, "marg_hh_3_6_p": 2, "marg_hh_3_6_m": 2, "marg_hh_3_6_f": 0, "per_marg_hh_3_6_p": 0.7518797, "per_marg_hh_3_6_m": 100.0, "per_marg_hh_3_6_f": 0.0, "marg_ot_3_6_p": 3, "marg_ot_3_6_m": 2, "marg_ot_3_6_f": 1, "per_marg_ot_3_6_p": 1.12781955, "per_marg_ot_3_6_m": 66.66666667, "per_marg_ot_3_6_f": 33.33333333, "margwork_0_3_p": 133, "margwork_0_3_m": 129, "margwork_0_3_f": 4, "per_margwork_0_3_p": 50.0, "per_margwork_0_3_m": 96.9924812, "per_margwork_0_3_f": 3.0075188, "marg_cl_0_3_p": 3, "marg_cl_0_3_m": 3, "marg_cl_0_3_f": 0, "per_marg_cl_0_3_p": 1.12781955, "per_marg_cl_0_3_m": 100.0, "per_marg_cl_0_3_f": 0.0, "marg_al_0_3_p": 121, "marg_al_0_3_m": 119, "marg_al_0_3_f": 2, "per_marg_al_0_3_p": 45.4887218, "per_marg_al_0_3_m": 98.34710744, "per_marg_al_0_3_f": 1.65289256, "marg_hh_0_3_p": 4, "marg_hh_0_3_m": 4, "marg_hh_0_3_f": 0, "per_marg_hh_0_3_p": 1.5037594, "per_marg_hh_0_3_m": 100.0, "per_marg_hh_0_3_f": 0.0, "marg_ot_0_3_p": 5, "marg_ot_0_3_m": 3, "marg_ot_0_3_f": 2, "per_marg_ot_0_3_p": 1.87969925, "per_marg_ot_0_3_m": 60.0, "per_marg_ot_0_3_f": 40.0, "non_work_p": 1040, "non_work_m": 452, "non_work_f": 588, "per_non_work_p": 65.20376176, "per_non_work_m": 43.46153846, "per_non_work_f": 56.53846154, "per_hc_tot_tot": 100, "per_hc_tot_god": 7.7, "per_hc_tot_liv": 92.0, "per_hc_tot_dil": 0.3, "per_hc_res_tot": 100.0, "per_hc_res_god": 7.7, "per_hc_res_liv": 92.0, "per_hc_res_dil": 0.3, "per_hc_oth_tot": 0.0, "per_hc_oth_god": 0.0, "per_hc_oth_liv": 0.0, "per_hc_oth_dil": 0.0, "per_mt_grsbam": 87.9, "per_mt_plastic": 0.0, "per_mt_h_tiles": 0.0, "per_mt_m_tiles": 0.0, "per_mt_b_brick": 11.8, "per_mt_stone": 0.0, "per_mt_asbstos": 0.3, "per_mt_concrte": 0.0, "per_mt_oth": 0.0, "per_mw_grsbam": 1.9, "per_mw_plastic": 0.6, "per_mw_mud": 85.8, "per_mw_wood": 0.0, "per_mw_no_mrtr": 0.0, "per_mw_st_mrtr": 0.0, "per_mw_asbstos": 0.0, "per_mw_b_brick": 11.8, "per_mw_concrte": 0.0, "per_mw_oth": 0.0, "per_mf_mud": 94.7, "per_mf_wood": 0.0, "per_mf_b_brick": 5.0, "per_mf_stone": 0.0, "per_mf_cement": 0.0, "per_mf_fl_tile": 0.0, "per_mf_oth": 0.3, "per_dw_n_exrm": 0.9, "per_dw_1_room": 61.3, "per_dw_2_room": 34.4, "per_dw_3_room": 3.1, "per_dw_4_room": 0.3, "per_dw_5_room": 0.0, "per_dw_6_room": 0.0, "per_hhsize_1": 4.3, "per_hhsize_2": 17.0, "per_hhsize_3": 12.1, "per_hhsize_4": 16.1, "per_hhsize_5": 16.7, "per_hhsize_6_8": 30.0, "per_hhsize_9p": 3.7, "per_ow_owned": 96.3, "per_ow_rented": 0.3, "per_ow_oth": 3.4, "per_mc_none": 7.4, "per_mcouple_1": 83.3, "per_mcouple_2": 7.7, "per_mcouple_3": 1.5, "per_mcouple_4": 0.0, "per_mcouple_5p": 0.0, "per_dw_t_ts": 0.3, "per_dw_t_unts": 39.6, "per_dw_c_well": 1.2, "per_dw_unc_wel": 0.0, "per_dw_hpump": 58.8, "per_dw_tw_bore": 0.0, "per_dw_spring": 0.0, "per_dw_rivcan": 0.0, "per_dw_tank": 0.0, "per_dw_oth": 0.0, "per_loc_dw_wp": 3.7, "per_loc_dw_np": 96.0, "per_loc_dw_aw": 0.3, "per_light_elec": 0.0, "per_light_kero": 99.4, "per_light_solr": 0.0, "per_light_oil": 0.0, "per_light_oth": 0.6, "per_light_no": 0.0, "per_hh_latrine": 0.3, "per_fl_sewer": 0.0, "per_fl_septict": 0.0, "per_fl_othsys": 0.3, "per_pl_wslab": 0.0, "per_pl_without": 0.0, "per_ns_open": 0.0, "per_sl_ns_hum": 0.0, "per_sl_ns_anml": 0.0, "per_hh_no_lat": 99.7, "per_as_pub": 0.0, "per_as_open": 99.7, "per_hh_bathrm": 0.3, "per_hh_en_wrf": 79.3, "per_hh_no_btrm": 20.4, "per_wwoc_drain": 0.0, "per_wwoc_open": 49.5, "per_wwoc_nodrn": 50.5, "per_cook_fire": 92.3, "per_cook_resdu": 4.6, "per_cook_cwdng": 3.1, "per_cook_coal": 0.0, "per_cook_kero": 0.0, "per_cook_lpng": 0.0, "per_cook_elec": 0.0, "per_cook_biogs": 0.0, "per_cook_oth": 0.0, "per_cook_no": 0.0, "per_kf_inside": 99.7, "per_kf_in_has": 0.3, "per_kf_in_does": 99.4, "per_kf_outside": 0.3, "per_kf_out_has": 0.3, "per_kf_out_dos": 0.0, "per_kf_no_cook": 0.0, "per_hh_banking": 96.9, "per_hh_radio": 10.2, "per_hh_tv": 0.3, "per_hh_cmp_int": 0.0, "per_hh_cmp_wnt": 0.0, "per_hh_ph_ll": 0.3, "per_hh_ph_mob": 1.9, "per_hh_ph_bth": 0.0, "per_hh_bcycl": 68.1, "per_hh_2wheel": 0.3, "per_hh_4wheel": 0.0, "per_hh_tvcomp": 0.0, "per_hh_no_ast": 30.7, "per_hs_perma": 11.5, "per_hs_sperma": 0.9, "per_hs_temp": 87.6, "per_hs_servc": 85.1, "per_hs_nservc": 2.5, "per_hs_unclss": 0.0, "avghhsz_cy": 4.78978979, "st_areashape": 4867561.679251425, "st_lengthshape": 12872.106386987953}, "geometry": {"type": "Polygon", "coordinates": [[[81.35085139957539, 27.797982729328705], [81.3502685393814, 27.79823697327568], [81.34934487274164, 27.799183794034064], [81.34884706503873, 27.79995474408564], [81.34827527298735, 27.8015589952335], [81.3480428177379, 27.802649326872658], [81.34776571532055, 27.804090722679582], [81.34668797503313, 27.80410240095477], [81.34581521681888, 27.804295164225575], [81.34442756943653, 27.804623476258953], [81.3426360341126, 27.805167481867645], [81.34063586596221, 27.80569358818147], [81.34078421554487, 27.805029884179177], [81.34149959161633, 27.802295061491996], [81.34220712449705, 27.800493209871384], [81.3422766334388, 27.800195899023013], [81.34234629150086, 27.799878718347042], [81.34234762100746, 27.799719913905182], [81.3423496161657, 27.79948170680727], [81.34212908874662, 27.799142748559834], [81.34113315982877, 27.798044291436938], [81.34013424850419, 27.797303132066933], [81.33920119357141, 27.79670137754063], [81.3387356704215, 27.7962813783974], [81.33847215502281, 27.79574361647652], [81.33845299844938, 27.79536629199914], [81.33852433007283, 27.79485060943956], [81.33877335474767, 27.794455226095007], [81.33886567730437, 27.794098496732044], [81.33884952020568, 27.793363849091747], [81.3390405316795, 27.791896048035934], [81.33920319681451, 27.791142728402416], [81.33956620691912, 27.790470146125447], [81.34065053814577, 27.78900826316731], [81.3418245131529, 27.787507251399365], [81.34281649038184, 27.7864020669069], [81.34530163559788, 27.783003845392294], [81.34577624969845, 27.782331976534834], [81.34672001524439, 27.781643360175718], [81.34786541753729, 27.780876657069882], [81.3483325567564, 27.780331431504237], [81.34941533299927, 27.781543651866585], [81.34988050850117, 27.78200333012675], [81.35010152280715, 27.78228272513706], [81.35016570563758, 27.782620642367398], [81.35016438511411, 27.782779452715445], [81.34998341141528, 27.783056202371824], [81.3497577887519, 27.783332658854317], [81.34960012992794, 27.78349043975182], [81.34937514955998, 27.78368748991159], [81.34919450374622, 27.78392454346934], [81.34908102945788, 27.784142168089307], [81.34890153977588, 27.784240251935692], [81.34870055161254, 27.784238927885802], [81.34834256309034, 27.78431597866056], [81.34822989818403, 27.78443435779093], [81.34809409716759, 27.78465183515759], [81.34804809174696, 27.784810365173797], [81.34804610647018, 27.785048579785908], [81.34813165123803, 27.785505756493862], [81.34862926939641, 27.787434735994406], [81.34891215786254, 27.788329965584403], [81.34890885296063, 27.788727001167995], [81.34872720732197, 27.789083151328796], [81.34802841954053, 27.789852791029166], [81.34762177736427, 27.790405983433537], [81.34739363851973, 27.79098019280185], [81.34739032822793, 27.79137722665396], [81.34747618920277, 27.791794689015337], [81.34771674366282, 27.792411698520407], [81.34824813578093, 27.792971070876135], [81.3485818194848, 27.793132084861174], [81.34893867343477, 27.793194001761123], [81.34918434380039, 27.793195619734426], [81.34954235478045, 27.793118553795882], [81.34974401668026, 27.793040472991887], [81.35012649866698, 27.79270550225743], [81.35071296739349, 27.792014527786154], [81.35134292625781, 27.791462797064106], [81.35255539407491, 27.790696520014183], [81.35540705372352, 27.788868937178975], [81.35682145473164, 27.787984828577045], [81.35758424029054, 27.7875729011402], [81.35872584540472, 27.787262723309546], [81.35982148552247, 27.787111056156245], [81.36055847955124, 27.78711586186931], [81.36096015404402, 27.787158177089644], [81.36109333736972, 27.78725830940278], [81.36153640982404, 27.78769795159969], [81.36224551026491, 27.788377564409565], [81.36257724013306, 27.788776765416817], [81.36284050939338, 27.789354208325165], [81.36297010394951, 27.789891068869977], [81.36355189604664, 27.79247566850882], [81.36363209494024, 27.793587913973518], [81.36362214160691, 27.79479884857983], [81.36350672246594, 27.795254702489302], [81.3633236377262, 27.795789523395936], [81.36300474658013, 27.79654182624545], [81.3629351208574, 27.796859002356523], [81.3629541983791, 27.797256176845305], [81.3631304298715, 27.797555110465932], [81.36359684774347, 27.79787577133065], [81.36294108117932, 27.79959659686652], [81.36283023985301, 27.79988744977955], [81.36201096463581, 27.80172835430925], [81.36133322258486, 27.802656991711636], [81.3607922526292, 27.803249020622054], [81.36011711389594, 27.80386002861247], [81.3594435903336, 27.80427253557024], [81.35875002984879, 27.80440696614617], [81.35792294288188, 27.80448097122762], [81.35718585632662, 27.804476154363286], [81.35631524418757, 27.804410910542394], [81.35580250648464, 27.804288438720825], [81.35522571081711, 27.803808211653706], [81.35480429315103, 27.803448131141696], [81.35436530443799, 27.802512205942158], [81.35375308460556, 27.8009200352615], [81.35346962840417, 27.800084384399476], [81.353032471356, 27.798930095836138], [81.35272242951378, 27.79861043376962], [81.35225603409975, 27.798289729777714], [81.35183379986506, 27.798028880053643], [81.35163328691051, 27.797968011663954], [81.35143242720623, 27.797946836690805], [81.35116442202772, 27.797945075751656], [81.35085139957539, 27.797982729328705]]]}}]}