{"type": "FeatureCollection", "features": [{"type": "Feature", "properties": {"premiumdata.sde.IN_Village_PCA.area": 5.00520928, "objectid": 110604, "id": "274723981643407", "name": "Mandaka", "subdistrict": "Khamgaon", "district": "Buldhana", "state": "Maharashtra", "country": "India", "censusname": "Mandaka", "villagename_locallang": "\u092e\u0902\u0921\u0915\u093e", "lgd_villagename": "Mandaka", "lgd_villagecode": 528816, "lgd_subdistrictcode": 3981, "lgd_districtcode": 472, "lgd_statecode": 27, "censuscode2001": "00380300", "censuscode2011": "528816", "censuscode2021": null, "level": "Village", "tru": "Rural", "no_hh": 358, "tot_p": 1659, "tot_m": 881, "tot_f": 778, "per_tot_m": 53.10427969, "per_tot_f": 46.89572031, "p_06": 217, "m_06": 140, "f_06": 77, "per_p_06": 13.08016878, "per_m_06": 64.51612902999999, "per_f_06": 35.48387097000001, "p_sc": 52, "m_sc": 25, "f_sc": 27, "per_p_sc": 3.13441832, "per_m_sc": 48.07692308, "per_f_sc": 51.92307692, "p_st": 75, "m_st": 37, "f_st": 38, "per_p_st": 4.52079566, "per_m_st": 49.33333333, "per_f_st": 50.66666667000001, "p_lit": 1252, "m_lit": 685, "f_lit": 567, "per_p_lit": 75.46714888, "per_m_lit": 54.71246006000001, "per_f_lit": 45.28753994, "p_ill": 407, "m_ill": 196, "f_ill": 211, "per_p_ill": 24.53285112, "per_m_ill": 48.15724816, "per_f_ill": 51.84275184, "tot_work_p": 785, "tot_work_m": 444, "tot_work_f": 341, "per_tot_work_p": 47.31766124, "per_tot_work_m": 56.56050955, "per_tot_work_f": 43.43949045, "mainwork_p": 661, "mainwork_m": 426, "mainwork_f": 235, "per_mainwork_p": 39.84327908, "per_mainwork_m": 64.44780635000001, "per_mainwork_f": 35.55219365, "main_cl_p": 344, "main_cl_m": 236, "main_cl_f": 108, "per_main_cl_p": 52.04236006, "per_main_cl_m": 68.60465116, "per_main_cl_f": 31.39534884, "main_al_p": 263, "main_al_m": 142, "main_al_f": 121, "per_main_al_p": 39.7881997, "per_main_al_m": 53.99239544, "per_main_al_f": 46.00760456, "main_hh_p": 1, "main_hh_m": 1, "main_hh_f": 0, "per_main_hh_p": 0.15128593, "per_main_hh_m": 100.0, "per_main_hh_f": 0.0, "main_ot_p": 53, "main_ot_m": 47, "main_ot_f": 6, "per_main_ot_p": 8.01815431, "per_main_ot_m": 88.67924527999999, "per_main_ot_f": 11.32075472, "margwork_p": 124, "margwork_m": 18, "margwork_f": 106, "per_margwork_p": 7.47438216, "per_margwork_m": 14.51612903, "per_margwork_f": 85.48387097, "marg_cl_p": 83, "marg_cl_m": 9, "marg_cl_f": 74, "per_marg_cl_p": 66.93548387, "per_marg_cl_m": 10.84337349, "per_marg_cl_f": 89.15662651, "marg_al_p": 37, "marg_al_m": 6, "marg_al_f": 31, "per_marg_al_p": 29.83870968, "per_marg_al_m": 16.21621622, "per_marg_al_f": 83.78378378, "marg_hh_p": 0, "marg_hh_m": 0, "marg_hh_f": 0, "per_marg_hh_p": 0.0, "per_marg_hh_m": 0.0, "per_marg_hh_f": 0.0, "marg_ot_p": 4, "marg_ot_m": 3, "marg_ot_f": 1, "per_marg_ot_p": 3.22580645, "per_marg_ot_m": 75.0, "per_marg_ot_f": 25.0, "margwork_3_6_p": 116, "margwork_3_6_m": 17, "margwork_3_6_f": 99, "per_margwork_3_6_p": 93.5483871, "per_margwork_3_6_m": 14.65517241, "per_margwork_3_6_f": 85.34482759000001, "marg_cl_3_6_p": 76, "marg_cl_3_6_m": 9, "marg_cl_3_6_f": 67, "per_marg_cl_3_6_p": 61.29032258, "per_marg_cl_3_6_m": 11.84210526, "per_marg_cl_3_6_f": 88.15789473999999, "marg_al_3_6_p": 36, "marg_al_3_6_m": 5, "marg_al_3_6_f": 31, "per_marg_al_3_6_p": 29.03225806, "per_marg_al_3_6_m": 13.88888889, "per_marg_al_3_6_f": 86.11111111, "marg_hh_3_6_p": 0, "marg_hh_3_6_m": 0, "marg_hh_3_6_f": 0, "per_marg_hh_3_6_p": 0.0, "per_marg_hh_3_6_m": 0.0, "per_marg_hh_3_6_f": 0.0, "marg_ot_3_6_p": 4, "marg_ot_3_6_m": 3, "marg_ot_3_6_f": 1, "per_marg_ot_3_6_p": 3.22580645, "per_marg_ot_3_6_m": 75.0, "per_marg_ot_3_6_f": 25.0, "margwork_0_3_p": 8, "margwork_0_3_m": 1, "margwork_0_3_f": 7, "per_margwork_0_3_p": 6.4516129, "per_margwork_0_3_m": 12.5, "per_margwork_0_3_f": 87.5, "marg_cl_0_3_p": 7, "marg_cl_0_3_m": 0, "marg_cl_0_3_f": 7, "per_marg_cl_0_3_p": 5.64516129, "per_marg_cl_0_3_m": 0.0, "per_marg_cl_0_3_f": 100.0, "marg_al_0_3_p": 1, "marg_al_0_3_m": 1, "marg_al_0_3_f": 0, "per_marg_al_0_3_p": 0.80645161, "per_marg_al_0_3_m": 100.0, "per_marg_al_0_3_f": 0.0, "marg_hh_0_3_p": 0, "marg_hh_0_3_m": 0, "marg_hh_0_3_f": 0, "per_marg_hh_0_3_p": 0.0, "per_marg_hh_0_3_m": 0.0, "per_marg_hh_0_3_f": 0.0, "marg_ot_0_3_p": 0, "marg_ot_0_3_m": 0, "marg_ot_0_3_f": 0, "per_marg_ot_0_3_p": 0.0, "per_marg_ot_0_3_m": 0.0, "per_marg_ot_0_3_f": 0.0, "non_work_p": 874, "non_work_m": 437, "non_work_f": 437, "per_non_work_p": 52.68233876, "per_non_work_m": 50.0, "per_non_work_f": 50.0, "per_hc_tot_tot": 100, "per_hc_tot_god": 20.6, "per_hc_tot_liv": 63.8, "per_hc_tot_dil": 15.6, "per_hc_res_tot": 99.7, "per_hc_res_god": 20.6, "per_hc_res_liv": 63.5, "per_hc_res_dil": 15.6, "per_hc_oth_tot": 0.3, "per_hc_oth_god": 0.0, "per_hc_oth_liv": 0.3, "per_hc_oth_dil": 0.0, "per_mt_grsbam": 5.0, "per_mt_plastic": 0.6, "per_mt_h_tiles": 0.0, "per_mt_m_tiles": 0.0, "per_mt_b_brick": 0.0, "per_mt_stone": 0.3, "per_mt_asbstos": 85.5, "per_mt_concrte": 7.8, "per_mt_oth": 0.8, "per_mw_grsbam": 7.8, "per_mw_plastic": 0.8, "per_mw_mud": 36.2, "per_mw_wood": 0.3, "per_mw_no_mrtr": 0.6, "per_mw_st_mrtr": 7.2, "per_mw_asbstos": 0.3, "per_mw_b_brick": 35.1, "per_mw_concrte": 0.0, "per_mw_oth": 11.7, "per_mf_mud": 76.0, "per_mf_wood": 0.0, "per_mf_b_brick": 0.3, "per_mf_stone": 1.1, "per_mf_cement": 18.7, "per_mf_fl_tile": 3.1, "per_mf_oth": 0.8, "per_dw_n_exrm": 1.7, "per_dw_1_room": 42.3, "per_dw_2_room": 43.7, "per_dw_3_room": 7.5, "per_dw_4_room": 4.7, "per_dw_5_room": 0.0, "per_dw_6_room": 0.0, "per_hhsize_1": 2.8, "per_hhsize_2": 10.0, "per_hhsize_3": 8.9, "per_hhsize_4": 23.4, "per_hhsize_5": 26.5, "per_hhsize_6_8": 26.7, "per_hhsize_9p": 1.7, "per_ow_owned": 81.9, "per_ow_rented": 0.6, "per_ow_oth": 17.5, "per_mc_none": 16.2, "per_mcouple_1": 70.5, "per_mcouple_2": 12.3, "per_mcouple_3": 1.1, "per_mcouple_4": 0.0, "per_mcouple_5p": 0.0, "per_dw_t_ts": 0.0, "per_dw_t_unts": 0.0, "per_dw_c_well": 0.0, "per_dw_unc_wel": 88.6, "per_dw_hpump": 0.0, "per_dw_tw_bore": 0.0, "per_dw_spring": 0.0, "per_dw_rivcan": 0.0, "per_dw_tank": 0.0, "per_dw_oth": 11.4, "per_loc_dw_wp": 34.8, "per_loc_dw_np": 31.2, "per_loc_dw_aw": 34.0, "per_light_elec": 60.4, "per_light_kero": 37.9, "per_light_solr": 0.0, "per_light_oil": 0.0, "per_light_oth": 1.7, "per_light_no": 0.0, "per_hh_latrine": 11.4, "per_fl_sewer": 0.0, "per_fl_septict": 4.5, "per_fl_othsys": 0.0, "per_pl_wslab": 7.0, "per_pl_without": 0.0, "per_ns_open": 0.0, "per_sl_ns_hum": 0.0, "per_sl_ns_anml": 0.0, "per_hh_no_lat": 88.6, "per_as_pub": 0.0, "per_as_open": 88.6, "per_hh_bathrm": 18.9, "per_hh_en_wrf": 27.3, "per_hh_no_btrm": 53.8, "per_wwoc_drain": 2.8, "per_wwoc_open": 7.2, "per_wwoc_nodrn": 90.0, "per_cook_fire": 3.9, "per_cook_resdu": 94.2, "per_cook_cwdng": 0.0, "per_cook_coal": 0.0, "per_cook_kero": 0.0, "per_cook_lpng": 1.7, "per_cook_elec": 0.0, "per_cook_biogs": 0.0, "per_cook_oth": 0.3, "per_cook_no": 0.0, "per_kf_inside": 68.8, "per_kf_in_has": 39.3, "per_kf_in_does": 29.5, "per_kf_outside": 31.2, "per_kf_out_has": 3.6, "per_kf_out_dos": 27.6, "per_kf_no_cook": 0.0, "per_hh_banking": 55.2, "per_hh_radio": 9.5, "per_hh_tv": 24.8, "per_hh_cmp_int": 0.0, "per_hh_cmp_wnt": 0.6, "per_hh_ph_ll": 1.4, "per_hh_ph_mob": 42.3, "per_hh_ph_bth": 0.6, "per_hh_bcycl": 40.1, "per_hh_2wheel": 9.2, "per_hh_4wheel": 0.6, "per_hh_tvcomp": 0.3, "per_hh_no_ast": 32.6, "per_hs_perma": 42.9, "per_hs_sperma": 40.4, "per_hs_temp": 4.7, "per_hs_servc": 1.4, "per_hs_nservc": 3.3, "per_hs_unclss": 12.0, "avghhsz_cy": 4.63407821, "st_areashape": 5748626.31407824, "st_lengthshape": 11120.771270119556}, "geometry": {"type": "Polygon", "coordinates": [[[76.50255864640185, 20.684636194066158], [76.50292010242102, 20.68431210856078], [76.50463776748252, 20.68446871226841], [76.50690015386434, 20.684915600315936], [76.50833221844586, 20.68504660630139], [76.50976452197926, 20.68517778865895], [76.51018095489383, 20.685166742364864], [76.51362867008969, 20.688914309479156], [76.51565471331351, 20.691982221888303], [76.5153594379779, 20.69218011415969], [76.51435986459495, 20.695247883208516], [76.51185398266888, 20.702034361848156], [76.50984463643125, 20.708159990241803], [76.50736850940233, 20.713510161215442], [76.50408357342756, 20.713698875931044], [76.50393147607352, 20.713140026977168], [76.50197913243225, 20.711730833242612], [76.49956582998104, 20.71062950139987], [76.49788923858927, 20.70872213211413], [76.49730454403544, 20.70656645430471], [76.49768538390185, 20.703449216116383], [76.49814836841276, 20.701389864399758], [76.4981497284621, 20.699637913130175], [76.49781507906933, 20.698906182655538], [76.49660056758496, 20.698443932531635], [76.49532295574014, 20.69850161881163], [76.4935419899938, 20.699213744706245], [76.49004353525577, 20.700118308911875], [76.48846180685632, 20.702552057263595], [76.49048175950252, 20.69853278924236], [76.49166439067575, 20.69360612874031], [76.49421536892743, 20.691680204218592], [76.50023021767696, 20.687428943409493], [76.50128916970019, 20.685844671876136], [76.5019473266813, 20.685184200954964], [76.50255864640185, 20.684636194066158]]]}}]}