{"type": "FeatureCollection", "features": [{"type": "Feature", "properties": {"premiumdata.sde.IN_Village_PCA.area": 1.8013944, "objectid": 530912, "id": "193122347123038", "name": "Bhaturia", "subdistrict": "Polba - Dadpur", "district": "Hooghly", "state": "West Bengal", "country": "India", "censusname": "Bhaturia", "villagename_locallang": null, "lgd_villagename": "Bhaturia", "lgd_villagecode": 325179, "lgd_subdistrictcode": 2347, "lgd_districtcode": 312, "lgd_statecode": 19, "censuscode2001": "01889000", "censuscode2011": "325179", "censuscode2021": null, "level": "Village", "tru": "Rural", "no_hh": 219, "tot_p": 859, "tot_m": 406, "tot_f": 453, "per_tot_m": 47.26426077, "per_tot_f": 52.73573923, "p_06": 65, "m_06": 30, "f_06": 35, "per_p_06": 7.5669383, "per_m_06": 46.15384615, "per_f_06": 53.84615385, "p_sc": 165, "m_sc": 83, "f_sc": 82, "per_p_sc": 19.20838184, "per_m_sc": 50.3030303, "per_f_sc": 49.6969697, "p_st": 257, "m_st": 115, "f_st": 142, "per_p_st": 29.9185099, "per_m_st": 44.74708171, "per_f_st": 55.25291829, "p_lit": 624, "m_lit": 329, "f_lit": 295, "per_p_lit": 72.64260768, "per_m_lit": 52.72435897, "per_f_lit": 47.27564103, "p_ill": 235, "m_ill": 77, "f_ill": 158, "per_p_ill": 27.35739232, "per_m_ill": 32.76595745, "per_f_ill": 67.23404255, "tot_work_p": 405, "tot_work_m": 265, "tot_work_f": 140, "per_tot_work_p": 47.14784633, "per_tot_work_m": 65.43209877, "per_tot_work_f": 34.56790123, "mainwork_p": 387, "mainwork_m": 257, "mainwork_f": 130, "per_mainwork_p": 45.0523865, "per_mainwork_m": 66.40826872999999, "per_mainwork_f": 33.59173127, "main_cl_p": 107, "main_cl_m": 97, "main_cl_f": 10, "per_main_cl_p": 27.64857881, "per_main_cl_m": 90.65420561, "per_main_cl_f": 9.34579439, "main_al_p": 256, "main_al_m": 137, "main_al_f": 119, "per_main_al_p": 66.1498708, "per_main_al_m": 53.515625, "per_main_al_f": 46.484375, "main_hh_p": 2, "main_hh_m": 2, "main_hh_f": 0, "per_main_hh_p": 0.51679587, "per_main_hh_m": 100.0, "per_main_hh_f": 0.0, "main_ot_p": 22, "main_ot_m": 21, "main_ot_f": 1, "per_main_ot_p": 5.68475452, "per_main_ot_m": 95.45454545, "per_main_ot_f": 4.54545455, "margwork_p": 18, "margwork_m": 8, "margwork_f": 10, "per_margwork_p": 2.09545984, "per_margwork_m": 44.44444444000001, "per_margwork_f": 55.55555556, "marg_cl_p": 3, "marg_cl_m": 3, "marg_cl_f": 0, "per_marg_cl_p": 16.66666667, "per_marg_cl_m": 100.0, "per_marg_cl_f": 0.0, "marg_al_p": 7, "marg_al_m": 2, "marg_al_f": 5, "per_marg_al_p": 38.88888889, "per_marg_al_m": 28.57142857, "per_marg_al_f": 71.42857143, "marg_hh_p": 1, "marg_hh_m": 0, "marg_hh_f": 1, "per_marg_hh_p": 5.55555556, "per_marg_hh_m": 0.0, "per_marg_hh_f": 100.0, "marg_ot_p": 7, "marg_ot_m": 3, "marg_ot_f": 4, "per_marg_ot_p": 38.88888889, "per_marg_ot_m": 42.85714286, "per_marg_ot_f": 57.14285714, "margwork_3_6_p": 14, "margwork_3_6_m": 6, "margwork_3_6_f": 8, "per_margwork_3_6_p": 77.77777778, "per_margwork_3_6_m": 42.85714286, "per_margwork_3_6_f": 57.14285714, "marg_cl_3_6_p": 2, "marg_cl_3_6_m": 2, "marg_cl_3_6_f": 0, "per_marg_cl_3_6_p": 11.11111111, "per_marg_cl_3_6_m": 100.0, "per_marg_cl_3_6_f": 0.0, "marg_al_3_6_p": 6, "marg_al_3_6_m": 1, "marg_al_3_6_f": 5, "per_marg_al_3_6_p": 33.33333333, "per_marg_al_3_6_m": 16.66666667, "per_marg_al_3_6_f": 83.33333332999999, "marg_hh_3_6_p": 1, "marg_hh_3_6_m": 0, "marg_hh_3_6_f": 1, "per_marg_hh_3_6_p": 5.55555556, "per_marg_hh_3_6_m": 0.0, "per_marg_hh_3_6_f": 100.0, "marg_ot_3_6_p": 5, "marg_ot_3_6_m": 3, "marg_ot_3_6_f": 2, "per_marg_ot_3_6_p": 27.77777778, "per_marg_ot_3_6_m": 60.0, "per_marg_ot_3_6_f": 40.0, "margwork_0_3_p": 4, "margwork_0_3_m": 2, "margwork_0_3_f": 2, "per_margwork_0_3_p": 22.22222222, "per_margwork_0_3_m": 50.0, "per_margwork_0_3_f": 50.0, "marg_cl_0_3_p": 1, "marg_cl_0_3_m": 1, "marg_cl_0_3_f": 0, "per_marg_cl_0_3_p": 5.55555556, "per_marg_cl_0_3_m": 100.0, "per_marg_cl_0_3_f": 0.0, "marg_al_0_3_p": 1, "marg_al_0_3_m": 1, "marg_al_0_3_f": 0, "per_marg_al_0_3_p": 5.55555556, "per_marg_al_0_3_m": 100.0, "per_marg_al_0_3_f": 0.0, "marg_hh_0_3_p": 0, "marg_hh_0_3_m": 0, "marg_hh_0_3_f": 0, "per_marg_hh_0_3_p": 0.0, "per_marg_hh_0_3_m": 0.0, "per_marg_hh_0_3_f": 0.0, "marg_ot_0_3_p": 2, "marg_ot_0_3_m": 0, "marg_ot_0_3_f": 2, "per_marg_ot_0_3_p": 11.11111111, "per_marg_ot_0_3_m": 0.0, "per_marg_ot_0_3_f": 100.0, "non_work_p": 454, "non_work_m": 141, "non_work_f": 313, "per_non_work_p": 52.85215367, "per_non_work_m": 31.05726872, "per_non_work_f": 68.94273128, "per_hc_tot_tot": 100, "per_hc_tot_god": 29.5, "per_hc_tot_liv": 59.9, "per_hc_tot_dil": 10.6, "per_hc_res_tot": 96.9, "per_hc_res_god": 27.3, "per_hc_res_liv": 59.5, "per_hc_res_dil": 10.1, "per_hc_oth_tot": 3.1, "per_hc_oth_god": 2.2, "per_hc_oth_liv": 0.4, "per_hc_oth_dil": 0.4, "per_mt_grsbam": 2.6, "per_mt_plastic": 0.0, "per_mt_h_tiles": 1.3, "per_mt_m_tiles": 38.3, "per_mt_b_brick": 0.0, "per_mt_stone": 0.0, "per_mt_asbstos": 1.3, "per_mt_concrte": 56.4, "per_mt_oth": 0.0, "per_mw_grsbam": 0.0, "per_mw_plastic": 0.0, "per_mw_mud": 39.2, "per_mw_wood": 0.0, "per_mw_no_mrtr": 0.0, "per_mw_st_mrtr": 0.0, "per_mw_asbstos": 0.0, "per_mw_b_brick": 30.0, "per_mw_concrte": 30.8, "per_mw_oth": 0.0, "per_mf_mud": 48.9, "per_mf_wood": 0.0, "per_mf_b_brick": 9.7, "per_mf_stone": 0.0, "per_mf_cement": 41.4, "per_mf_fl_tile": 0.0, "per_mf_oth": 0.0, "per_dw_n_exrm": 0.4, "per_dw_1_room": 46.7, "per_dw_2_room": 40.1, "per_dw_3_room": 8.4, "per_dw_4_room": 0.0, "per_dw_5_room": 1.3, "per_dw_6_room": 3.1, "per_hhsize_1": 6.6, "per_hhsize_2": 11.9, "per_hhsize_3": 17.6, "per_hhsize_4": 26.4, "per_hhsize_5": 18.9, "per_hhsize_6_8": 14.5, "per_hhsize_9p": 4.0, "per_ow_owned": 99.6, "per_ow_rented": 0.0, "per_ow_oth": 0.4, "per_mc_none": 15.9, "per_mcouple_1": 70.5, "per_mcouple_2": 10.6, "per_mcouple_3": 3.1, "per_mcouple_4": 0.0, "per_mcouple_5p": 0.0, "per_dw_t_ts": 0.0, "per_dw_t_unts": 0.0, "per_dw_c_well": 0.0, "per_dw_unc_wel": 0.0, "per_dw_hpump": 57.7, "per_dw_tw_bore": 42.3, "per_dw_spring": 0.0, "per_dw_rivcan": 0.0, "per_dw_tank": 0.0, "per_dw_oth": 0.0, "per_loc_dw_wp": 24.2, "per_loc_dw_np": 31.3, "per_loc_dw_aw": 44.5, "per_light_elec": 64.8, "per_light_kero": 34.8, "per_light_solr": 0.0, "per_light_oil": 0.0, "per_light_oth": 0.0, "per_light_no": 0.4, "per_hh_latrine": 27.3, "per_fl_sewer": 0.0, "per_fl_septict": 18.9, "per_fl_othsys": 0.0, "per_pl_wslab": 8.4, "per_pl_without": 0.0, "per_ns_open": 0.0, "per_sl_ns_hum": 0.0, "per_sl_ns_anml": 0.0, "per_hh_no_lat": 72.7, "per_as_pub": 15.0, "per_as_open": 57.7, "per_hh_bathrm": 31.7, "per_hh_en_wrf": 1.3, "per_hh_no_btrm": 67.0, "per_wwoc_drain": 0.0, "per_wwoc_open": 7.5, "per_wwoc_nodrn": 92.5, "per_cook_fire": 61.2, "per_cook_resdu": 33.5, "per_cook_cwdng": 0.0, "per_cook_coal": 0.0, "per_cook_kero": 0.0, "per_cook_lpng": 4.8, "per_cook_elec": 0.0, "per_cook_biogs": 0.0, "per_cook_oth": 0.4, "per_cook_no": 0.0, "per_kf_inside": 67.4, "per_kf_in_has": 20.3, "per_kf_in_does": 47.1, "per_kf_outside": 32.6, "per_kf_out_has": 0.0, "per_kf_out_dos": 32.6, "per_kf_no_cook": 0.0, "per_hh_banking": 61.7, "per_hh_radio": 33.0, "per_hh_tv": 32.2, "per_hh_cmp_int": 0.0, "per_hh_cmp_wnt": 0.4, "per_hh_ph_ll": 0.0, "per_hh_ph_mob": 50.7, "per_hh_ph_bth": 0.0, "per_hh_bcycl": 76.2, "per_hh_2wheel": 21.6, "per_hh_4wheel": 0.4, "per_hh_tvcomp": 0.4, "per_hh_no_ast": 16.3, "per_hs_perma": 60.8, "per_hs_sperma": 36.6, "per_hs_temp": 2.6, "per_hs_servc": 2.6, "per_hs_nservc": 0.0, "per_hs_unclss": 0.0, "avghhsz_cy": 3.92237443, "st_areashape": 2133857.431394155, "st_lengthshape": 8906.814635700768}, "geometry": {"type": "Polygon", "coordinates": [[[88.31186999908577, 22.93934999931011], [88.31186999908577, 22.93912999867093], [88.31173999938942, 22.939039999284127], [88.31137999953931, 22.93896999843277], [88.31082999971838, 22.93839999925329], [88.3105699994274, 22.938359999409435], [88.30989999905758, 22.938349999239783], [88.30951999911599, 22.93794999929441], [88.30922999958608, 22.9375199991312], [88.30921999864202, 22.9375199991312], [88.3092099994946, 22.937459999384643], [88.30902999956955, 22.93711999838818], [88.30894999920359, 22.93698999907114], [88.30917999935737, 22.936849998521563], [88.31001999870817, 22.936149999393333], [88.31019999953155, 22.9359499983868], [88.31022999966878, 22.935269998711313], [88.31009999907413, 22.934529998712485], [88.30995999933204, 22.934399999390685], [88.30961999957343, 22.934329998622317], [88.30898999938655, 22.933349999784472], [88.3088299986547, 22.933179998783032], [88.30869999895833, 22.931639998529803], [88.30843999866732, 22.930269999697018], [88.30824999959486, 22.92951999885642], [88.3085999993992, 22.929529999678152], [88.30904999966101, 22.929559998829596], [88.30942999960263, 22.929349999665952], [88.31007999898264, 22.929349999665952], [88.31040999869552, 22.929149999371848], [88.31187999913149, 22.929109999277586], [88.31286000002106, 22.92857999856812], [88.31309999932222, 22.92839999894811], [88.31355999962977, 22.929249999555825], [88.31369999937186, 22.929369999679135], [88.31518999900102, 22.93107999898462], [88.31619999912948, 22.932299999482634], [88.31695999901267, 22.932649999108968], [88.31723999939513, 22.932619998987352], [88.31791999891239, 22.932079998970867], [88.31877000010557, 22.931799999156432], [88.32049999903595, 22.931169998698334], [88.32123999972596, 22.93102999957742], [88.32175999940965, 22.93049999893518], [88.32176999945537, 22.929819999194645], [88.32193999933469, 22.929619998767215], [88.32277999958383, 22.929619998767215], [88.3237499995293, 22.92872999944763], [88.32507000017748, 22.92840999902522], [88.32599999904166, 22.927959998961942], [88.32658999994388, 22.928019998780965], [88.32819000007618, 22.928839999159703], [88.32873999899878, 22.928899999416267], [88.32887999874086, 22.929119999302266], [88.328769999136, 22.929509999688605], [88.32689999956526, 22.931219998881158], [88.32688999951951, 22.93171999886676], [88.32702999926158, 22.931909999684432], [88.32761999926548, 22.93212999881772], [88.32803999939004, 22.93250999903606], [88.32866999957687, 22.932569999321416], [88.32881999936473, 22.93234999924826], [88.33136999935105, 22.931899999038436], [88.33172000005372, 22.931649999194985], [88.33179999862304, 22.933259999037563], [88.33209999909701, 22.933719999377068], [88.33250000002839, 22.93403999883554], [88.33254000021138, 22.934309998514316], [88.33211000004107, 22.93458999893013], [88.3320499997666, 22.934609998996773], [88.33030999989221, 22.935229998770044], [88.32942999946007, 22.935499998557926], [88.3281999992236, 22.9353599997769], [88.32729999959832, 22.935639998848803], [88.3264399992577, 22.935859999367974], [88.32612999873801, 22.936109998884756], [88.32591999957404, 22.936109998884756], [88.32592999872146, 22.935839999485957], [88.32560999905431, 22.934979999283087], [88.3249099994456, 22.93451999908729], [88.32430999939595, 22.934499999007354], [88.32409999933368, 22.934779999030255], [88.32355999955851, 22.93541999962676], [88.32226999904759, 22.936249999372187], [88.32191999924322, 22.936629998783683], [88.32189999915174, 22.936899999089018], [88.32202999884807, 22.93743999891168], [88.32240999968798, 22.937999998628346], [88.32263999894343, 22.93868999962917], [88.32266999997898, 22.939209998719132], [88.32260999970451, 22.93918999850468], [88.32233999936778, 22.939329999116374], [88.32173999931815, 22.939719999052357], [88.32132999923932, 22.939719999052357], [88.32084999973863, 22.939539998521496], [88.31984999875759, 22.93939999895429], [88.31963999959362, 22.93927999944634], [88.3195099998973, 22.938769999110086], [88.31911999990996, 22.938529998871015], [88.31795999909538, 22.93832999889832], [88.31740999927445, 22.938029999212564], [88.31669999962, 22.937969999692008], [88.31614999979907, 22.93820999844198], [88.31569999953726, 22.93875999897074], [88.31543999924628, 22.938859998676413], [88.31499999903023, 22.938879998939573], [88.31467999936308, 22.93875999897074], [88.31445999925505, 22.93871999840597], [88.31414999963366, 22.93881999896847], [88.31357999972126, 22.939329999116374], [88.31323999906434, 22.939409999046347], [88.31186999908577, 22.93934999931011]]]}}]}