{"type": "FeatureCollection", "features": [{"type": "Feature", "properties": {"premiumdata.sde.IN_Village_PCA.area": 8.23814464, "objectid": 233431, "id": "8906907477369", "name": "Legonki Dhani", "subdistrict": "Gida", "district": "Barmer", "state": "Rajasthan", "country": "India", "censusname": "Legonki Dhani", "villagename_locallang": null, "lgd_villagename": "Legonki Dhani", "lgd_villagecode": 87100, "lgd_subdistrictcode": 6907, "lgd_districtcode": 90, "lgd_statecode": 8, "censuscode2001": "02121700", "censuscode2011": "087100", "censuscode2021": null, "level": "Village", "tru": "Rural", "no_hh": 64, "tot_p": 291, "tot_m": 159, "tot_f": 132, "per_tot_m": 54.63917526, "per_tot_f": 45.36082474, "p_06": 43, "m_06": 24, "f_06": 19, "per_p_06": 14.7766323, "per_m_06": 55.81395349, "per_f_06": 44.18604651, "p_sc": 0, "m_sc": 0, "f_sc": 0, "per_p_sc": 0.0, "per_m_sc": 0.0, "per_f_sc": 0.0, "p_st": 0, "m_st": 0, "f_st": 0, "per_p_st": 0.0, "per_m_st": 0.0, "per_f_st": 0.0, "p_lit": 133, "m_lit": 92, "f_lit": 41, "per_p_lit": 45.70446735, "per_m_lit": 69.17293233, "per_f_lit": 30.82706767, "p_ill": 158, "m_ill": 67, "f_ill": 91, "per_p_ill": 54.29553265, "per_m_ill": 42.40506329, "per_f_ill": 57.59493671000001, "tot_work_p": 145, "tot_work_m": 83, "tot_work_f": 62, "per_tot_work_p": 49.82817869, "per_tot_work_m": 57.24137931, "per_tot_work_f": 42.75862069, "mainwork_p": 37, "mainwork_m": 31, "mainwork_f": 6, "per_mainwork_p": 12.71477663, "per_mainwork_m": 83.78378378, "per_mainwork_f": 16.21621622, "main_cl_p": 5, "main_cl_m": 5, "main_cl_f": 0, "per_main_cl_p": 13.51351351, "per_main_cl_m": 100.0, "per_main_cl_f": 0.0, "main_al_p": 29, "main_al_m": 24, "main_al_f": 5, "per_main_al_p": 78.37837838, "per_main_al_m": 82.75862069, "per_main_al_f": 17.24137931, "main_hh_p": 0, "main_hh_m": 0, "main_hh_f": 0, "per_main_hh_p": 0.0, "per_main_hh_m": 0.0, "per_main_hh_f": 0.0, "main_ot_p": 3, "main_ot_m": 2, "main_ot_f": 1, "per_main_ot_p": 8.10810811, "per_main_ot_m": 66.66666667, "per_main_ot_f": 33.33333333, "margwork_p": 108, "margwork_m": 52, "margwork_f": 56, "per_margwork_p": 37.11340206, "per_margwork_m": 48.14814815, "per_margwork_f": 51.85185185, "marg_cl_p": 32, "marg_cl_m": 9, "marg_cl_f": 23, "per_marg_cl_p": 29.62962963, "per_marg_cl_m": 28.125, "per_marg_cl_f": 71.875, "marg_al_p": 76, "marg_al_m": 43, "marg_al_f": 33, "per_marg_al_p": 70.37037037, "per_marg_al_m": 56.57894737, "per_marg_al_f": 43.42105263, "marg_hh_p": 0, "marg_hh_m": 0, "marg_hh_f": 0, "per_marg_hh_p": 0.0, "per_marg_hh_m": 0.0, "per_marg_hh_f": 0.0, "marg_ot_p": 0, "marg_ot_m": 0, "marg_ot_f": 0, "per_marg_ot_p": 0.0, "per_marg_ot_m": 0.0, "per_marg_ot_f": 0.0, "margwork_3_6_p": 73, "margwork_3_6_m": 43, "margwork_3_6_f": 30, "per_margwork_3_6_p": 67.59259259, "per_margwork_3_6_m": 58.90410959, "per_margwork_3_6_f": 41.09589041, "marg_cl_3_6_p": 24, "marg_cl_3_6_m": 9, "marg_cl_3_6_f": 15, "per_marg_cl_3_6_p": 22.22222222, "per_marg_cl_3_6_m": 37.5, "per_marg_cl_3_6_f": 62.5, "marg_al_3_6_p": 49, "marg_al_3_6_m": 34, "marg_al_3_6_f": 15, "per_marg_al_3_6_p": 45.37037037, "per_marg_al_3_6_m": 69.3877551, "per_marg_al_3_6_f": 30.6122449, "marg_hh_3_6_p": 0, "marg_hh_3_6_m": 0, "marg_hh_3_6_f": 0, "per_marg_hh_3_6_p": 0.0, "per_marg_hh_3_6_m": 0.0, "per_marg_hh_3_6_f": 0.0, "marg_ot_3_6_p": 0, "marg_ot_3_6_m": 0, "marg_ot_3_6_f": 0, "per_marg_ot_3_6_p": 0.0, "per_marg_ot_3_6_m": 0.0, "per_marg_ot_3_6_f": 0.0, "margwork_0_3_p": 35, "margwork_0_3_m": 9, "margwork_0_3_f": 26, "per_margwork_0_3_p": 32.40740741, "per_margwork_0_3_m": 25.71428571, "per_margwork_0_3_f": 74.28571429, "marg_cl_0_3_p": 8, "marg_cl_0_3_m": 0, "marg_cl_0_3_f": 8, "per_marg_cl_0_3_p": 7.40740741, "per_marg_cl_0_3_m": 0.0, "per_marg_cl_0_3_f": 100.0, "marg_al_0_3_p": 27, "marg_al_0_3_m": 9, "marg_al_0_3_f": 18, "per_marg_al_0_3_p": 25.0, "per_marg_al_0_3_m": 33.33333333, "per_marg_al_0_3_f": 66.66666667, "marg_hh_0_3_p": 0, "marg_hh_0_3_m": 0, "marg_hh_0_3_f": 0, "per_marg_hh_0_3_p": 0.0, "per_marg_hh_0_3_m": 0.0, "per_marg_hh_0_3_f": 0.0, "marg_ot_0_3_p": 0, "marg_ot_0_3_m": 0, "marg_ot_0_3_f": 0, "per_marg_ot_0_3_p": 0.0, "per_marg_ot_0_3_m": 0.0, "per_marg_ot_0_3_f": 0.0, "non_work_p": 146, "non_work_m": 76, "non_work_f": 70, "per_non_work_p": 50.17182131, "per_non_work_m": 52.05479452, "per_non_work_f": 47.94520548, "per_hc_tot_tot": 100, "per_hc_tot_god": 7.8, "per_hc_tot_liv": 68.8, "per_hc_tot_dil": 23.4, "per_hc_res_tot": 100.0, "per_hc_res_god": 7.8, "per_hc_res_liv": 68.8, "per_hc_res_dil": 23.4, "per_hc_oth_tot": 0.0, "per_hc_oth_god": 0.0, "per_hc_oth_liv": 0.0, "per_hc_oth_dil": 0.0, "per_mt_grsbam": 92.2, "per_mt_plastic": 0.0, "per_mt_h_tiles": 0.0, "per_mt_m_tiles": 0.0, "per_mt_b_brick": 0.0, "per_mt_stone": 1.6, "per_mt_asbstos": 4.7, "per_mt_concrte": 0.0, "per_mt_oth": 1.6, "per_mw_grsbam": 92.2, "per_mw_plastic": 0.0, "per_mw_mud": 0.0, "per_mw_wood": 0.0, "per_mw_no_mrtr": 0.0, "per_mw_st_mrtr": 4.7, "per_mw_asbstos": 0.0, "per_mw_b_brick": 3.1, "per_mw_concrte": 0.0, "per_mw_oth": 0.0, "per_mf_mud": 93.8, "per_mf_wood": 0.0, "per_mf_b_brick": 0.0, "per_mf_stone": 0.0, "per_mf_cement": 6.2, "per_mf_fl_tile": 0.0, "per_mf_oth": 0.0, "per_dw_n_exrm": 14.1, "per_dw_1_room": 29.7, "per_dw_2_room": 42.2, "per_dw_3_room": 10.9, "per_dw_4_room": 3.1, "per_dw_5_room": 0.0, "per_dw_6_room": 0.0, "per_hhsize_1": 3.1, "per_hhsize_2": 9.4, "per_hhsize_3": 21.9, "per_hhsize_4": 20.3, "per_hhsize_5": 12.5, "per_hhsize_6_8": 32.8, "per_hhsize_9p": 0.0, "per_ow_owned": 100.0, "per_ow_rented": 0.0, "per_ow_oth": 0.0, "per_mc_none": 14.1, "per_mcouple_1": 81.2, "per_mcouple_2": 4.7, "per_mcouple_3": 0.0, "per_mcouple_4": 0.0, "per_mcouple_5p": 0.0, "per_dw_t_ts": 0.0, "per_dw_t_unts": 0.0, "per_dw_c_well": 0.0, "per_dw_unc_wel": 0.0, "per_dw_hpump": 0.0, "per_dw_tw_bore": 0.0, "per_dw_spring": 0.0, "per_dw_rivcan": 0.0, "per_dw_tank": 0.0, "per_dw_oth": 100.0, "per_loc_dw_wp": 0.0, "per_loc_dw_np": 15.6, "per_loc_dw_aw": 84.4, "per_light_elec": 0.0, "per_light_kero": 53.1, "per_light_solr": 25.0, "per_light_oil": 0.0, "per_light_oth": 1.6, "per_light_no": 20.3, "per_hh_latrine": 0.0, "per_fl_sewer": 0.0, "per_fl_septict": 0.0, "per_fl_othsys": 0.0, "per_pl_wslab": 0.0, "per_pl_without": 0.0, "per_ns_open": 0.0, "per_sl_ns_hum": 0.0, "per_sl_ns_anml": 0.0, "per_hh_no_lat": 100.0, "per_as_pub": 0.0, "per_as_open": 100.0, "per_hh_bathrm": 6.2, "per_hh_en_wrf": 0.0, "per_hh_no_btrm": 93.8, "per_wwoc_drain": 0.0, "per_wwoc_open": 0.0, "per_wwoc_nodrn": 100.0, "per_cook_fire": 95.3, "per_cook_resdu": 0.0, "per_cook_cwdng": 3.1, "per_cook_coal": 0.0, "per_cook_kero": 0.0, "per_cook_lpng": 0.0, "per_cook_elec": 0.0, "per_cook_biogs": 0.0, "per_cook_oth": 1.6, "per_cook_no": 0.0, "per_kf_inside": 98.4, "per_kf_in_has": 84.4, "per_kf_in_does": 14.1, "per_kf_outside": 1.6, "per_kf_out_has": 1.6, "per_kf_out_dos": 0.0, "per_kf_no_cook": 0.0, "per_hh_banking": 100.0, "per_hh_radio": 14.1, "per_hh_tv": 0.0, "per_hh_cmp_int": 0.0, "per_hh_cmp_wnt": 3.1, "per_hh_ph_ll": 0.0, "per_hh_ph_mob": 60.9, "per_hh_ph_bth": 1.6, "per_hh_bcycl": 6.2, "per_hh_2wheel": 3.1, "per_hh_4wheel": 3.1, "per_hh_tvcomp": 0.0, "per_hh_no_ast": 32.8, "per_hs_perma": 6.2, "per_hs_sperma": 1.6, "per_hs_temp": 90.6, "per_hs_servc": 0.0, "per_hs_nservc": 90.6, "per_hs_unclss": 1.6, "avghhsz_cy": 4.546875, "st_areashape": 10250472.185260234, "st_lengthshape": 15875.980144883775}, "geometry": {"type": "Polygon", "coordinates": [[[72.00010894484171, 26.076354895605895], [71.99604285455712, 26.079235253568726], [71.99402604781105, 26.08018625911748], [71.97920356175544, 26.063750005488252], [71.97913065448701, 26.061579315499973], [71.97896620170457, 26.056682864143912], [71.9734600167981, 26.042575070525363], [71.97110712515145, 26.038562621474274], [71.97088404202535, 26.03818218978574], [71.97337479183048, 26.031906892588985], [71.98829166117804, 26.0469592792887], [71.99091420551343, 26.049605448815676], [71.99880246922847, 26.05995460265845], [72.00659427993314, 26.06110827497502], [72.00859443820202, 26.061034619468963], [72.00932008381379, 26.063873008992907], [72.01031833846993, 26.065794572972962], [72.0122084234721, 26.067785972214782], [72.00010894484171, 26.076354895605895]]]}}]}