{"type": "FeatureCollection", "features": [{"type": "Feature", "properties": {"premiumdata.sde.IN_Village_PCA.area": 2.49136044, "objectid": 48672, "id": "274924268627915", "name": "Kajvewadi", "subdistrict": "Khed", "district": "Ratnagiri", "state": "Maharashtra", "country": "India", "censusname": "Kajvewadi", "villagename_locallang": null, "lgd_villagename": "Kajvewadi", "lgd_villagecode": 565173, "lgd_subdistrictcode": 4268, "lgd_districtcode": 492, "lgd_statecode": 27, "censuscode2001": "03997200", "censuscode2011": "565173", "censuscode2021": null, "level": "Village", "tru": "Rural", "no_hh": 75, "tot_p": 251, "tot_m": 112, "tot_f": 139, "per_tot_m": 44.62151394, "per_tot_f": 55.37848606, "p_06": 20, "m_06": 10, "f_06": 10, "per_p_06": 7.96812749, "per_m_06": 50.0, "per_f_06": 50.0, "p_sc": 0, "m_sc": 0, "f_sc": 0, "per_p_sc": 0.0, "per_m_sc": 0.0, "per_f_sc": 0.0, "p_st": 0, "m_st": 0, "f_st": 0, "per_p_st": 0.0, "per_m_st": 0.0, "per_f_st": 0.0, "p_lit": 168, "m_lit": 84, "f_lit": 84, "per_p_lit": 66.93227092, "per_m_lit": 50.0, "per_f_lit": 50.0, "p_ill": 83, "m_ill": 28, "f_ill": 55, "per_p_ill": 33.06772908, "per_m_ill": 33.73493976, "per_f_ill": 66.26506024, "tot_work_p": 98, "tot_work_m": 51, "tot_work_f": 47, "per_tot_work_p": 39.0438247, "per_tot_work_m": 52.04081633, "per_tot_work_f": 47.95918367, "mainwork_p": 97, "mainwork_m": 50, "mainwork_f": 47, "per_mainwork_p": 38.64541833000001, "per_mainwork_m": 51.54639175000001, "per_mainwork_f": 48.45360825, "main_cl_p": 89, "main_cl_m": 44, "main_cl_f": 45, "per_main_cl_p": 91.75257732, "per_main_cl_m": 49.43820225, "per_main_cl_f": 50.56179775, "main_al_p": 1, "main_al_m": 0, "main_al_f": 1, "per_main_al_p": 1.03092784, "per_main_al_m": 0.0, "per_main_al_f": 100.0, "main_hh_p": 0, "main_hh_m": 0, "main_hh_f": 0, "per_main_hh_p": 0.0, "per_main_hh_m": 0.0, "per_main_hh_f": 0.0, "main_ot_p": 7, "main_ot_m": 6, "main_ot_f": 1, "per_main_ot_p": 7.21649485, "per_main_ot_m": 85.71428571, "per_main_ot_f": 14.28571429, "margwork_p": 1, "margwork_m": 1, "margwork_f": 0, "per_margwork_p": 0.39840637, "per_margwork_m": 100.0, "per_margwork_f": 0.0, "marg_cl_p": 0, "marg_cl_m": 0, "marg_cl_f": 0, "per_marg_cl_p": 0.0, "per_marg_cl_m": 0.0, "per_marg_cl_f": 0.0, "marg_al_p": 0, "marg_al_m": 0, "marg_al_f": 0, "per_marg_al_p": 0.0, "per_marg_al_m": 0.0, "per_marg_al_f": 0.0, "marg_hh_p": 0, "marg_hh_m": 0, "marg_hh_f": 0, "per_marg_hh_p": 0.0, "per_marg_hh_m": 0.0, "per_marg_hh_f": 0.0, "marg_ot_p": 1, "marg_ot_m": 1, "marg_ot_f": 0, "per_marg_ot_p": 100.0, "per_marg_ot_m": 100.0, "per_marg_ot_f": 0.0, "margwork_3_6_p": 1, "margwork_3_6_m": 1, "margwork_3_6_f": 0, "per_margwork_3_6_p": 100.0, "per_margwork_3_6_m": 100.0, "per_margwork_3_6_f": 0.0, "marg_cl_3_6_p": 0, "marg_cl_3_6_m": 0, "marg_cl_3_6_f": 0, "per_marg_cl_3_6_p": 0.0, "per_marg_cl_3_6_m": 0.0, "per_marg_cl_3_6_f": 0.0, "marg_al_3_6_p": 0, "marg_al_3_6_m": 0, "marg_al_3_6_f": 0, "per_marg_al_3_6_p": 0.0, "per_marg_al_3_6_m": 0.0, "per_marg_al_3_6_f": 0.0, "marg_hh_3_6_p": 0, "marg_hh_3_6_m": 0, "marg_hh_3_6_f": 0, "per_marg_hh_3_6_p": 0.0, "per_marg_hh_3_6_m": 0.0, "per_marg_hh_3_6_f": 0.0, "marg_ot_3_6_p": 1, "marg_ot_3_6_m": 1, "marg_ot_3_6_f": 0, "per_marg_ot_3_6_p": 100.0, "per_marg_ot_3_6_m": 100.0, "per_marg_ot_3_6_f": 0.0, "margwork_0_3_p": 0, "margwork_0_3_m": 0, "margwork_0_3_f": 0, "per_margwork_0_3_p": 0.0, "per_margwork_0_3_m": 0.0, "per_margwork_0_3_f": 0.0, "marg_cl_0_3_p": 0, "marg_cl_0_3_m": 0, "marg_cl_0_3_f": 0, "per_marg_cl_0_3_p": 0.0, "per_marg_cl_0_3_m": 0.0, "per_marg_cl_0_3_f": 0.0, "marg_al_0_3_p": 0, "marg_al_0_3_m": 0, "marg_al_0_3_f": 0, "per_marg_al_0_3_p": 0.0, "per_marg_al_0_3_m": 0.0, "per_marg_al_0_3_f": 0.0, "marg_hh_0_3_p": 0, "marg_hh_0_3_m": 0, "marg_hh_0_3_f": 0, "per_marg_hh_0_3_p": 0.0, "per_marg_hh_0_3_m": 0.0, "per_marg_hh_0_3_f": 0.0, "marg_ot_0_3_p": 0, "marg_ot_0_3_m": 0, "marg_ot_0_3_f": 0, "per_marg_ot_0_3_p": 0.0, "per_marg_ot_0_3_m": 0.0, "per_marg_ot_0_3_f": 0.0, "non_work_p": 153, "non_work_m": 61, "non_work_f": 92, "per_non_work_p": 60.9561753, "per_non_work_m": 39.86928105, "per_non_work_f": 60.13071895, "per_hc_tot_tot": 100, "per_hc_tot_god": 45.3, "per_hc_tot_liv": 54.7, "per_hc_tot_dil": 0.0, "per_hc_res_tot": 100.0, "per_hc_res_god": 45.3, "per_hc_res_liv": 54.7, "per_hc_res_dil": 0.0, "per_hc_oth_tot": 0.0, "per_hc_oth_god": 0.0, "per_hc_oth_liv": 0.0, "per_hc_oth_dil": 0.0, "per_mt_grsbam": 0.0, "per_mt_plastic": 0.0, "per_mt_h_tiles": 0.0, "per_mt_m_tiles": 82.7, "per_mt_b_brick": 0.0, "per_mt_stone": 0.0, "per_mt_asbstos": 17.3, "per_mt_concrte": 0.0, "per_mt_oth": 0.0, "per_mw_grsbam": 0.0, "per_mw_plastic": 0.0, "per_mw_mud": 58.7, "per_mw_wood": 0.0, "per_mw_no_mrtr": 37.3, "per_mw_st_mrtr": 0.0, "per_mw_asbstos": 0.0, "per_mw_b_brick": 1.3, "per_mw_concrte": 2.7, "per_mw_oth": 0.0, "per_mf_mud": 90.7, "per_mf_wood": 0.0, "per_mf_b_brick": 0.0, "per_mf_stone": 0.0, "per_mf_cement": 4.0, "per_mf_fl_tile": 5.3, "per_mf_oth": 0.0, "per_dw_n_exrm": 0.0, "per_dw_1_room": 60.0, "per_dw_2_room": 25.3, "per_dw_3_room": 14.7, "per_dw_4_room": 0.0, "per_dw_5_room": 0.0, "per_dw_6_room": 0.0, "per_hhsize_1": 22.7, "per_hhsize_2": 22.7, "per_hhsize_3": 12.0, "per_hhsize_4": 17.3, "per_hhsize_5": 10.7, "per_hhsize_6_8": 12.0, "per_hhsize_9p": 2.7, "per_ow_owned": 100.0, "per_ow_rented": 0.0, "per_ow_oth": 0.0, "per_mc_none": 37.3, "per_mcouple_1": 52.0, "per_mcouple_2": 9.3, "per_mcouple_3": 1.3, "per_mcouple_4": 0.0, "per_mcouple_5p": 0.0, "per_dw_t_ts": 44.0, "per_dw_t_unts": 0.0, "per_dw_c_well": 2.7, "per_dw_unc_wel": 49.3, "per_dw_hpump": 0.0, "per_dw_tw_bore": 4.0, "per_dw_spring": 0.0, "per_dw_rivcan": 0.0, "per_dw_tank": 0.0, "per_dw_oth": 0.0, "per_loc_dw_wp": 8.0, "per_loc_dw_np": 21.3, "per_loc_dw_aw": 70.7, "per_light_elec": 98.7, "per_light_kero": 1.3, "per_light_solr": 0.0, "per_light_oil": 0.0, "per_light_oth": 0.0, "per_light_no": 0.0, "per_hh_latrine": 77.3, "per_fl_sewer": 1.3, "per_fl_septict": 13.3, "per_fl_othsys": 62.7, "per_pl_wslab": 0.0, "per_pl_without": 0.0, "per_ns_open": 0.0, "per_sl_ns_hum": 0.0, "per_sl_ns_anml": 0.0, "per_hh_no_lat": 22.7, "per_as_pub": 9.3, "per_as_open": 13.3, "per_hh_bathrm": 12.0, "per_hh_en_wrf": 70.7, "per_hh_no_btrm": 17.3, "per_wwoc_drain": 1.3, "per_wwoc_open": 0.0, "per_wwoc_nodrn": 98.7, "per_cook_fire": 96.0, "per_cook_resdu": 1.3, "per_cook_cwdng": 0.0, "per_cook_coal": 0.0, "per_cook_kero": 0.0, "per_cook_lpng": 2.7, "per_cook_elec": 0.0, "per_cook_biogs": 0.0, "per_cook_oth": 0.0, "per_cook_no": 0.0, "per_kf_inside": 100.0, "per_kf_in_has": 78.7, "per_kf_in_does": 21.3, "per_kf_outside": 0.0, "per_kf_out_has": 0.0, "per_kf_out_dos": 0.0, "per_kf_no_cook": 0.0, "per_hh_banking": 42.7, "per_hh_radio": 12.0, "per_hh_tv": 22.7, "per_hh_cmp_int": 4.0, "per_hh_cmp_wnt": 5.3, "per_hh_ph_ll": 40.0, "per_hh_ph_mob": 1.3, "per_hh_ph_bth": 6.7, "per_hh_bcycl": 9.3, "per_hh_2wheel": 4.0, "per_hh_4wheel": 1.3, "per_hh_tvcomp": 1.3, "per_hh_no_ast": 32.0, "per_hs_perma": 41.3, "per_hs_sperma": 58.7, "per_hs_temp": 0.0, "per_hs_servc": 0.0, "per_hs_nservc": 0.0, "per_hs_unclss": 0.0, "avghhsz_cy": 3.34666667, "st_areashape": 2756253.566139915, "st_lengthshape": 7351.15376546936}, "geometry": {"type": "Polygon", "coordinates": [[[73.57805508300902, 17.573544339119017], [73.57630840685542, 17.57470881142025], [73.57403491999165, 17.57598317715651], [73.57257496990707, 17.576554379686666], [73.5704631663197, 17.577113573191063], [73.56900802401852, 17.57756572791405], [73.56815084708285, 17.57754987561064], [73.56757399032989, 17.577539282287333], [73.56653627627662, 17.5774005979011], [73.56551965915777, 17.576783382411577], [73.56400233187935, 17.575678713425155], [73.56143563041529, 17.574676728645148], [73.55963574525076, 17.574048083918377], [73.55927332264433, 17.573538223630255], [73.55877488522242, 17.572837243032467], [73.5582998938294, 17.57175266591891], [73.55761550963526, 17.569468891671058], [73.55599337591266, 17.56383452642757], [73.55606074686402, 17.563808608072], [73.55685223000297, 17.56268732025808], [73.55776264559397, 17.56168127164182], [73.55902497080764, 17.561134023313485], [73.56089654243014, 17.560823074386416], [73.5623868420966, 17.560733175243385], [73.56387212107894, 17.560756848423217], [73.56497131403361, 17.561114755761285], [73.5658082195866, 17.561808839409192], [73.56626399511735, 17.562723719915123], [73.56634353644418, 17.563745985376894], [73.56627464644167, 17.565333183102187], [73.56646286684992, 17.566698056639876], [73.56741283077129, 17.56762229279269], [73.56887214844191, 17.568215266130842], [73.57071202839951, 17.568588497106465], [73.57286052457297, 17.56896810159239], [73.57468948101669, 17.56957001058367], [73.57614722124569, 17.57016572061142], [73.57723396894043, 17.57075490030826], [73.57808356858668, 17.571112461586644], [73.5791951394277, 17.571134338389346], [73.5796584464338, 17.57084746902288], [73.57805508300902, 17.573544339119017]]]}}]}