{"type": "FeatureCollection", "features": [{"type": "Feature", "properties": {"premiumdata.sde.IN_Village_PCA.area": 1.04227836, "objectid": 370235, "id": "9182936427731", "name": "Baghmarwa", "subdistrict": "Domariyaganj", "district": "Siddharth Nagar", "state": "Uttar Pradesh", "country": "India", "censusname": "Baghmarwa", "villagename_locallang": null, "lgd_villagename": "Baghmarwa", "lgd_villagecode": 178086, "lgd_subdistrictcode": 936, "lgd_districtcode": 182, "lgd_statecode": 9, "censuscode2001": "07114000", "censuscode2011": "178086", "censuscode2021": null, "level": "Village", "tru": "Rural", "no_hh": 97, "tot_p": 752, "tot_m": 348, "tot_f": 404, "per_tot_m": 46.27659574, "per_tot_f": 53.72340426, "p_06": 187, "m_06": 98, "f_06": 89, "per_p_06": 24.86702128, "per_m_06": 52.40641711, "per_f_06": 47.59358289, "p_sc": 51, "m_sc": 22, "f_sc": 29, "per_p_sc": 6.78191489, "per_m_sc": 43.1372549, "per_f_sc": 56.8627451, "p_st": 0, "m_st": 0, "f_st": 0, "per_p_st": 0.0, "per_m_st": 0.0, "per_f_st": 0.0, "p_lit": 342, "m_lit": 181, "f_lit": 161, "per_p_lit": 45.4787234, "per_m_lit": 52.92397661, "per_f_lit": 47.07602339, "p_ill": 410, "m_ill": 167, "f_ill": 243, "per_p_ill": 54.5212766, "per_m_ill": 40.73170732000001, "per_f_ill": 59.26829268, "tot_work_p": 332, "tot_work_m": 142, "tot_work_f": 190, "per_tot_work_p": 44.14893617, "per_tot_work_m": 42.77108434, "per_tot_work_f": 57.22891566000001, "mainwork_p": 199, "mainwork_m": 90, "mainwork_f": 109, "per_mainwork_p": 26.46276596, "per_mainwork_m": 45.22613065, "per_mainwork_f": 54.77386935, "main_cl_p": 35, "main_cl_m": 16, "main_cl_f": 19, "per_main_cl_p": 17.5879397, "per_main_cl_m": 45.71428571, "per_main_cl_f": 54.28571429, "main_al_p": 158, "main_al_m": 70, "main_al_f": 88, "per_main_al_p": 79.39698492000001, "per_main_al_m": 44.30379747, "per_main_al_f": 55.69620253, "main_hh_p": 0, "main_hh_m": 0, "main_hh_f": 0, "per_main_hh_p": 0.0, "per_main_hh_m": 0.0, "per_main_hh_f": 0.0, "main_ot_p": 6, "main_ot_m": 4, "main_ot_f": 2, "per_main_ot_p": 3.01507538, "per_main_ot_m": 66.66666667, "per_main_ot_f": 33.33333333, "margwork_p": 133, "margwork_m": 52, "margwork_f": 81, "per_margwork_p": 17.68617021, "per_margwork_m": 39.09774436, "per_margwork_f": 60.90225564, "marg_cl_p": 45, "marg_cl_m": 18, "marg_cl_f": 27, "per_marg_cl_p": 33.83458647, "per_marg_cl_m": 40.0, "per_marg_cl_f": 60.0, "marg_al_p": 87, "marg_al_m": 33, "marg_al_f": 54, "per_marg_al_p": 65.41353383, "per_marg_al_m": 37.93103448, "per_marg_al_f": 62.06896552, "marg_hh_p": 0, "marg_hh_m": 0, "marg_hh_f": 0, "per_marg_hh_p": 0.0, "per_marg_hh_m": 0.0, "per_marg_hh_f": 0.0, "marg_ot_p": 1, "marg_ot_m": 1, "marg_ot_f": 0, "per_marg_ot_p": 0.7518797, "per_marg_ot_m": 100.0, "per_marg_ot_f": 0.0, "margwork_3_6_p": 40, "margwork_3_6_m": 13, "margwork_3_6_f": 27, "per_margwork_3_6_p": 30.07518797, "per_margwork_3_6_m": 32.5, "per_margwork_3_6_f": 67.5, "marg_cl_3_6_p": 22, "marg_cl_3_6_m": 7, "marg_cl_3_6_f": 15, "per_marg_cl_3_6_p": 16.54135338, "per_marg_cl_3_6_m": 31.81818182, "per_marg_cl_3_6_f": 68.18181818, "marg_al_3_6_p": 18, "marg_al_3_6_m": 6, "marg_al_3_6_f": 12, "per_marg_al_3_6_p": 13.53383459, "per_marg_al_3_6_m": 33.33333333, "per_marg_al_3_6_f": 66.66666667, "marg_hh_3_6_p": 0, "marg_hh_3_6_m": 0, "marg_hh_3_6_f": 0, "per_marg_hh_3_6_p": 0.0, "per_marg_hh_3_6_m": 0.0, "per_marg_hh_3_6_f": 0.0, "marg_ot_3_6_p": 0, "marg_ot_3_6_m": 0, "marg_ot_3_6_f": 0, "per_marg_ot_3_6_p": 0.0, "per_marg_ot_3_6_m": 0.0, "per_marg_ot_3_6_f": 0.0, "margwork_0_3_p": 93, "margwork_0_3_m": 39, "margwork_0_3_f": 54, "per_margwork_0_3_p": 69.92481203, "per_margwork_0_3_m": 41.93548387, "per_margwork_0_3_f": 58.06451613, "marg_cl_0_3_p": 23, "marg_cl_0_3_m": 11, "marg_cl_0_3_f": 12, "per_marg_cl_0_3_p": 17.29323308, "per_marg_cl_0_3_m": 47.82608696, "per_marg_cl_0_3_f": 52.17391304, "marg_al_0_3_p": 69, "marg_al_0_3_m": 27, "marg_al_0_3_f": 42, "per_marg_al_0_3_p": 51.87969925, "per_marg_al_0_3_m": 39.13043478, "per_marg_al_0_3_f": 60.86956522000001, "marg_hh_0_3_p": 0, "marg_hh_0_3_m": 0, "marg_hh_0_3_f": 0, "per_marg_hh_0_3_p": 0.0, "per_marg_hh_0_3_m": 0.0, "per_marg_hh_0_3_f": 0.0, "marg_ot_0_3_p": 1, "marg_ot_0_3_m": 1, "marg_ot_0_3_f": 0, "per_marg_ot_0_3_p": 0.7518797, "per_marg_ot_0_3_m": 100.0, "per_marg_ot_0_3_f": 0.0, "non_work_p": 420, "non_work_m": 206, "non_work_f": 214, "per_non_work_p": 55.85106383, "per_non_work_m": 49.04761905, "per_non_work_f": 50.95238095, "per_hc_tot_tot": 100, "per_hc_tot_god": 90.8, "per_hc_tot_liv": 9.2, "per_hc_tot_dil": 0.0, "per_hc_res_tot": 98.0, "per_hc_res_god": 88.8, "per_hc_res_liv": 9.2, "per_hc_res_dil": 0.0, "per_hc_oth_tot": 2.0, "per_hc_oth_god": 2.0, "per_hc_oth_liv": 0.0, "per_hc_oth_dil": 0.0, "per_mt_grsbam": 23.5, "per_mt_plastic": 0.0, "per_mt_h_tiles": 0.0, "per_mt_m_tiles": 1.0, "per_mt_b_brick": 70.4, "per_mt_stone": 0.0, "per_mt_asbstos": 3.1, "per_mt_concrte": 2.0, "per_mt_oth": 0.0, "per_mw_grsbam": 4.1, "per_mw_plastic": 0.0, "per_mw_mud": 15.3, "per_mw_wood": 0.0, "per_mw_no_mrtr": 0.0, "per_mw_st_mrtr": 1.0, "per_mw_asbstos": 0.0, "per_mw_b_brick": 78.6, "per_mw_concrte": 0.0, "per_mw_oth": 1.0, "per_mf_mud": 83.7, "per_mf_wood": 0.0, "per_mf_b_brick": 16.3, "per_mf_stone": 0.0, "per_mf_cement": 0.0, "per_mf_fl_tile": 0.0, "per_mf_oth": 0.0, "per_dw_n_exrm": 5.1, "per_dw_1_room": 22.4, "per_dw_2_room": 17.3, "per_dw_3_room": 9.2, "per_dw_4_room": 18.4, "per_dw_5_room": 5.1, "per_dw_6_room": 22.4, "per_hhsize_1": 0.0, "per_hhsize_2": 6.1, "per_hhsize_3": 5.1, "per_hhsize_4": 7.1, "per_hhsize_5": 12.2, "per_hhsize_6_8": 29.6, "per_hhsize_9p": 39.8, "per_ow_owned": 100.0, "per_ow_rented": 0.0, "per_ow_oth": 0.0, "per_mc_none": 6.1, "per_mcouple_1": 54.1, "per_mcouple_2": 21.4, "per_mcouple_3": 14.3, "per_mcouple_4": 2.0, "per_mcouple_5p": 2.0, "per_dw_t_ts": 1.0, "per_dw_t_unts": 0.0, "per_dw_c_well": 0.0, "per_dw_unc_wel": 0.0, "per_dw_hpump": 99.0, "per_dw_tw_bore": 0.0, "per_dw_spring": 0.0, "per_dw_rivcan": 0.0, "per_dw_tank": 0.0, "per_dw_oth": 0.0, "per_loc_dw_wp": 59.2, "per_loc_dw_np": 36.7, "per_loc_dw_aw": 4.1, "per_light_elec": 36.7, "per_light_kero": 63.3, "per_light_solr": 0.0, "per_light_oil": 0.0, "per_light_oth": 0.0, "per_light_no": 0.0, "per_hh_latrine": 11.2, "per_fl_sewer": 1.0, "per_fl_septict": 10.2, "per_fl_othsys": 0.0, "per_pl_wslab": 0.0, "per_pl_without": 0.0, "per_ns_open": 0.0, "per_sl_ns_hum": 0.0, "per_sl_ns_anml": 0.0, "per_hh_no_lat": 88.8, "per_as_pub": 0.0, "per_as_open": 88.8, "per_hh_bathrm": 28.6, "per_hh_en_wrf": 65.3, "per_hh_no_btrm": 6.1, "per_wwoc_drain": 2.0, "per_wwoc_open": 95.9, "per_wwoc_nodrn": 2.0, "per_cook_fire": 83.7, "per_cook_resdu": 5.1, "per_cook_cwdng": 0.0, "per_cook_coal": 0.0, "per_cook_kero": 0.0, "per_cook_lpng": 11.2, "per_cook_elec": 0.0, "per_cook_biogs": 0.0, "per_cook_oth": 0.0, "per_cook_no": 0.0, "per_kf_inside": 99.0, "per_kf_in_has": 18.4, "per_kf_in_does": 80.6, "per_kf_outside": 1.0, "per_kf_out_has": 0.0, "per_kf_out_dos": 1.0, "per_kf_no_cook": 0.0, "per_hh_banking": 100.0, "per_hh_radio": 27.6, "per_hh_tv": 16.3, "per_hh_cmp_int": 0.0, "per_hh_cmp_wnt": 0.0, "per_hh_ph_ll": 5.1, "per_hh_ph_mob": 62.2, "per_hh_ph_bth": 11.2, "per_hh_bcycl": 92.9, "per_hh_2wheel": 31.6, "per_hh_4wheel": 3.1, "per_hh_tvcomp": 0.0, "per_hh_no_ast": 0.0, "per_hs_perma": 73.5, "per_hs_sperma": 8.2, "per_hs_temp": 17.3, "per_hs_servc": 14.3, "per_hs_nservc": 3.1, "per_hs_unclss": 1.0, "avghhsz_cy": 7.75257732, "st_areashape": 1325328.736131235, "st_lengthshape": 4385.872605625245}, "geometry": {"type": "Polygon", "coordinates": [[[82.57586732022169, 27.306709625018605], [82.57595008470378, 27.307591346839065], [82.57570400380811, 27.309061032332316], [82.57537562735094, 27.310457322198616], [82.57488258880389, 27.311853632806738], [82.57430717025369, 27.31302955996427], [82.5736088307316, 27.31375777433652], [82.57332022898026, 27.314058712779577], [82.57241524280687, 27.314573436857273], [82.571181130083, 27.31501481812311], [82.57002903174795, 27.315162273126923], [82.56917895240134, 27.31504275897217], [82.568465363079, 27.31494243623023], [82.56747772201795, 27.314648891880267], [82.56574895288122, 27.31347387822164], [82.56521927295208, 27.312928640768572], [82.56467864974607, 27.31237211611682], [82.56443143427819, 27.31156392908539], [82.56443068418494, 27.3099473697428], [82.56434800863607, 27.309139118754658], [82.56418303393247, 27.308330897000086], [82.56393588044834, 27.307743119609096], [82.56385339444402, 27.307228798867296], [82.56442884263859, 27.305979422331298], [82.56450567015496, 27.305635593690923], [82.56532001811286, 27.305507148381196], [82.5674986419843, 27.305506316637143], [82.57076676688686, 27.305809010388035], [82.57189013620078, 27.30583892594818], [82.57355809118941, 27.30571666226895], [82.57564624303365, 27.305409723334794], [82.5757844596199, 27.305680911705437], [82.57586732022169, 27.306709625018605]]]}}]}