{"type": "FeatureCollection", "features": [{"type": "Feature", "properties": {"premiumdata.sde.IN_Village_PCA.area": 2.39365697, "objectid": 603148, "id": "102011147324748", "name": "Malaur", "subdistrict": "Barsoi", "district": "Katihar", "state": "Bihar", "country": "India", "censusname": "Malaur", "villagename_locallang": null, "lgd_villagename": "Malaur", "lgd_villagecode": 225014, "lgd_subdistrictcode": 1147, "lgd_districtcode": 201, "lgd_statecode": 10, "censuscode2001": "00905200", "censuscode2011": "225014", "censuscode2021": null, "level": "Village", "tru": "Rural", "no_hh": 387, "tot_p": 1921, "tot_m": 999, "tot_f": 922, "per_tot_m": 52.0041645, "per_tot_f": 47.9958355, "p_06": 485, "m_06": 259, "f_06": 226, "per_p_06": 25.24726705, "per_m_06": 53.40206186, "per_f_06": 46.59793814, "p_sc": 619, "m_sc": 306, "f_sc": 313, "per_p_sc": 32.22280062, "per_m_sc": 49.43457189, "per_f_sc": 50.56542811, "p_st": 155, "m_st": 75, "f_st": 80, "per_p_st": 8.06871421, "per_m_st": 48.38709677, "per_f_st": 51.61290323, "p_lit": 685, "m_lit": 373, "f_lit": 312, "per_p_lit": 35.65851119000001, "per_m_lit": 54.45255474, "per_f_lit": 45.54744526, "p_ill": 1236, "m_ill": 626, "f_ill": 610, "per_p_ill": 64.34148880999999, "per_m_ill": 50.64724919, "per_f_ill": 49.35275081, "tot_work_p": 631, "tot_work_m": 452, "tot_work_f": 179, "per_tot_work_p": 32.84747527, "per_tot_work_m": 71.63232964, "per_tot_work_f": 28.36767036, "mainwork_p": 447, "mainwork_m": 407, "mainwork_f": 40, "per_mainwork_p": 23.26913066, "per_mainwork_m": 91.05145414, "per_mainwork_f": 8.94854586, "main_cl_p": 89, "main_cl_m": 86, "main_cl_f": 3, "per_main_cl_p": 19.91051454, "per_main_cl_m": 96.62921348, "per_main_cl_f": 3.37078652, "main_al_p": 314, "main_al_m": 285, "main_al_f": 29, "per_main_al_p": 70.24608501, "per_main_al_m": 90.76433121000001, "per_main_al_f": 9.23566879, "main_hh_p": 12, "main_hh_m": 12, "main_hh_f": 0, "per_main_hh_p": 2.68456376, "per_main_hh_m": 100.0, "per_main_hh_f": 0.0, "main_ot_p": 32, "main_ot_m": 24, "main_ot_f": 8, "per_main_ot_p": 7.15883669, "per_main_ot_m": 75.0, "per_main_ot_f": 25.0, "margwork_p": 184, "margwork_m": 45, "margwork_f": 139, "per_margwork_p": 9.57834461, "per_margwork_m": 24.45652174, "per_margwork_f": 75.54347826, "marg_cl_p": 13, "marg_cl_m": 12, "marg_cl_f": 1, "per_marg_cl_p": 7.06521739, "per_marg_cl_m": 92.30769231, "per_marg_cl_f": 7.69230769, "marg_al_p": 164, "marg_al_m": 29, "marg_al_f": 135, "per_marg_al_p": 89.13043477999999, "per_marg_al_m": 17.68292683, "per_marg_al_f": 82.31707316999999, "marg_hh_p": 1, "marg_hh_m": 0, "marg_hh_f": 1, "per_marg_hh_p": 0.54347826, "per_marg_hh_m": 0.0, "per_marg_hh_f": 100.0, "marg_ot_p": 6, "marg_ot_m": 4, "marg_ot_f": 2, "per_marg_ot_p": 3.26086957, "per_marg_ot_m": 66.66666667, "per_marg_ot_f": 33.33333333, "margwork_3_6_p": 181, "margwork_3_6_m": 45, "margwork_3_6_f": 136, "per_margwork_3_6_p": 98.36956522, "per_margwork_3_6_m": 24.86187845, "per_margwork_3_6_f": 75.13812155, "marg_cl_3_6_p": 13, "marg_cl_3_6_m": 12, "marg_cl_3_6_f": 1, "per_marg_cl_3_6_p": 7.06521739, "per_marg_cl_3_6_m": 92.30769231, "per_marg_cl_3_6_f": 7.69230769, "marg_al_3_6_p": 161, "marg_al_3_6_m": 29, "marg_al_3_6_f": 132, "per_marg_al_3_6_p": 87.5, "per_marg_al_3_6_m": 18.01242236, "per_marg_al_3_6_f": 81.98757764, "marg_hh_3_6_p": 1, "marg_hh_3_6_m": 0, "marg_hh_3_6_f": 1, "per_marg_hh_3_6_p": 0.54347826, "per_marg_hh_3_6_m": 0.0, "per_marg_hh_3_6_f": 100.0, "marg_ot_3_6_p": 6, "marg_ot_3_6_m": 4, "marg_ot_3_6_f": 2, "per_marg_ot_3_6_p": 3.26086957, "per_marg_ot_3_6_m": 66.66666667, "per_marg_ot_3_6_f": 33.33333333, "margwork_0_3_p": 3, "margwork_0_3_m": 0, "margwork_0_3_f": 3, "per_margwork_0_3_p": 1.63043478, "per_margwork_0_3_m": 0.0, "per_margwork_0_3_f": 100.0, "marg_cl_0_3_p": 0, "marg_cl_0_3_m": 0, "marg_cl_0_3_f": 0, "per_marg_cl_0_3_p": 0.0, "per_marg_cl_0_3_m": 0.0, "per_marg_cl_0_3_f": 0.0, "marg_al_0_3_p": 3, "marg_al_0_3_m": 0, "marg_al_0_3_f": 3, "per_marg_al_0_3_p": 1.63043478, "per_marg_al_0_3_m": 0.0, "per_marg_al_0_3_f": 100.0, "marg_hh_0_3_p": 0, "marg_hh_0_3_m": 0, "marg_hh_0_3_f": 0, "per_marg_hh_0_3_p": 0.0, "per_marg_hh_0_3_m": 0.0, "per_marg_hh_0_3_f": 0.0, "marg_ot_0_3_p": 0, "marg_ot_0_3_m": 0, "marg_ot_0_3_f": 0, "per_marg_ot_0_3_p": 0.0, "per_marg_ot_0_3_m": 0.0, "per_marg_ot_0_3_f": 0.0, "non_work_p": 1290, "non_work_m": 547, "non_work_f": 743, "per_non_work_p": 67.15252473000001, "per_non_work_m": 42.40310078, "per_non_work_f": 57.59689922, "per_hc_tot_tot": 100, "per_hc_tot_god": 33.9, "per_hc_tot_liv": 62.1, "per_hc_tot_dil": 4.0, "per_hc_res_tot": 95.7, "per_hc_res_god": 32.3, "per_hc_res_liv": 59.4, "per_hc_res_dil": 4.0, "per_hc_oth_tot": 4.3, "per_hc_oth_god": 1.6, "per_hc_oth_liv": 2.7, "per_hc_oth_dil": 0.0, "per_mt_grsbam": 18.5, "per_mt_plastic": 4.0, "per_mt_h_tiles": 0.3, "per_mt_m_tiles": 2.2, "per_mt_b_brick": 0.0, "per_mt_stone": 7.5, "per_mt_asbstos": 41.1, "per_mt_concrte": 25.8, "per_mt_oth": 0.5, "per_mw_grsbam": 44.6, "per_mw_plastic": 1.9, "per_mw_mud": 4.8, "per_mw_wood": 0.0, "per_mw_no_mrtr": 1.6, "per_mw_st_mrtr": 0.5, "per_mw_asbstos": 0.0, "per_mw_b_brick": 45.2, "per_mw_concrte": 1.3, "per_mw_oth": 0.0, "per_mf_mud": 91.1, "per_mf_wood": 0.5, "per_mf_b_brick": 1.1, "per_mf_stone": 0.5, "per_mf_cement": 6.7, "per_mf_fl_tile": 0.0, "per_mf_oth": 0.0, "per_dw_n_exrm": 12.1, "per_dw_1_room": 62.4, "per_dw_2_room": 21.5, "per_dw_3_room": 1.6, "per_dw_4_room": 1.3, "per_dw_5_room": 0.5, "per_dw_6_room": 0.5, "per_hhsize_1": 2.2, "per_hhsize_2": 11.0, "per_hhsize_3": 13.4, "per_hhsize_4": 17.5, "per_hhsize_5": 15.9, "per_hhsize_6_8": 32.5, "per_hhsize_9p": 7.5, "per_ow_owned": 94.6, "per_ow_rented": 5.1, "per_ow_oth": 0.3, "per_mc_none": 21.0, "per_mcouple_1": 72.3, "per_mcouple_2": 5.9, "per_mcouple_3": 0.8, "per_mcouple_4": 0.0, "per_mcouple_5p": 0.0, "per_dw_t_ts": 3.0, "per_dw_t_unts": 1.9, "per_dw_c_well": 0.5, "per_dw_unc_wel": 5.1, "per_dw_hpump": 88.7, "per_dw_tw_bore": 0.0, "per_dw_spring": 0.3, "per_dw_rivcan": 0.0, "per_dw_tank": 0.3, "per_dw_oth": 0.3, "per_loc_dw_wp": 34.7, "per_loc_dw_np": 57.8, "per_loc_dw_aw": 7.5, "per_light_elec": 6.5, "per_light_kero": 91.9, "per_light_solr": 0.0, "per_light_oil": 0.5, "per_light_oth": 0.8, "per_light_no": 0.3, "per_hh_latrine": 37.1, "per_fl_sewer": 4.8, "per_fl_septict": 10.2, "per_fl_othsys": 10.2, "per_pl_wslab": 1.6, "per_pl_without": 9.9, "per_ns_open": 0.3, "per_sl_ns_hum": 0.0, "per_sl_ns_anml": 0.0, "per_hh_no_lat": 62.9, "per_as_pub": 0.3, "per_as_open": 62.6, "per_hh_bathrm": 8.9, "per_hh_en_wrf": 38.2, "per_hh_no_btrm": 53.0, "per_wwoc_drain": 2.7, "per_wwoc_open": 6.7, "per_wwoc_nodrn": 90.6, "per_cook_fire": 15.6, "per_cook_resdu": 76.1, "per_cook_cwdng": 3.2, "per_cook_coal": 0.0, "per_cook_kero": 0.3, "per_cook_lpng": 1.1, "per_cook_elec": 2.7, "per_cook_biogs": 0.0, "per_cook_oth": 0.3, "per_cook_no": 0.8, "per_kf_inside": 65.3, "per_kf_in_has": 44.6, "per_kf_in_does": 20.7, "per_kf_outside": 33.9, "per_kf_out_has": 18.3, "per_kf_out_dos": 15.6, "per_kf_no_cook": 0.8, "per_hh_banking": 36.6, "per_hh_radio": 14.2, "per_hh_tv": 8.3, "per_hh_cmp_int": 1.1, "per_hh_cmp_wnt": 7.3, "per_hh_ph_ll": 5.4, "per_hh_ph_mob": 30.1, "per_hh_ph_bth": 2.2, "per_hh_bcycl": 21.5, "per_hh_2wheel": 7.8, "per_hh_4wheel": 4.6, "per_hh_tvcomp": 1.6, "per_hh_no_ast": 41.4, "per_hs_perma": 46.5, "per_hs_sperma": 32.3, "per_hs_temp": 20.7, "per_hs_servc": 2.7, "per_hs_nservc": 18.0, "per_hs_unclss": 0.5, "avghhsz_cy": 4.96382429, "st_areashape": 2962344.084521465, "st_lengthshape": 11802.587251970708}, "geometry": {"type": "Polygon", "coordinates": [[[87.87957110284515, 25.745997161997316], [87.8796042129499, 25.746532684091616], [87.87934999421606, 25.74721704979259], [87.87899699314032, 25.7475035931092], [87.87833172868868, 25.747537315941106], [87.87700957298213, 25.747738609767687], [87.87653358086592, 25.748434208840404], [87.87698175395442, 25.749687356102278], [87.87724049480741, 25.750476954030177], [87.87780426400498, 25.752197292352985], [87.87845820339584, 25.754380028903956], [87.8787503211532, 25.755506708716986], [87.87910802311279, 25.756495787221223], [87.87914940939628, 25.75716516185063], [87.87781474734433, 25.75716572172167], [87.8771282233632, 25.75565610889593], [87.87658962765482, 25.754138996909752], [87.87584572468319, 25.75290083971986], [87.87507712163452, 25.751261099832142], [87.87473354478445, 25.750476811627212], [87.87464551168323, 25.750275756273023], [87.87412754578536, 25.749093324798068], [87.87406137228827, 25.74802228024359], [87.8740774260807, 25.747081437917327], [87.87368305489119, 25.74669849507691], [87.87322714012157, 25.746520131176617], [87.87281623364261, 25.74586947020192], [87.87243427537372, 25.745687357118896], [87.86919867667096, 25.746119863705093], [87.86810241042748, 25.746376829289808], [87.86773242310805, 25.74518688575529], [87.86733341301839, 25.743528303403412], [87.8672879627566, 25.742792037167234], [87.86667601241875, 25.7424872747219], [87.86618734507385, 25.742377692267443], [87.8668287233221, 25.740427790290703], [87.86706174181522, 25.73960130780888], [87.86729478276624, 25.73877471681246], [87.86738856598357, 25.737226287718205], [87.86859037708643, 25.737358417537315], [87.8703088560216, 25.737048120800452], [87.87158188556018, 25.736011043350253], [87.872373755873, 25.734425877026915], [87.87105397261715, 25.731651786309545], [87.86889636123851, 25.730975294706102], [87.87034849238687, 25.72995839869907], [87.87131281138649, 25.72870888573426], [87.87226655182532, 25.727288387829795], [87.87312595119302, 25.725872756122477], [87.8737391133582, 25.72506983662244], [87.87438385130558, 25.724779853179385], [87.87495021034614, 25.724751151964853], [87.8757448681313, 25.725354055674952], [87.87653956993393, 25.72595698222516], [87.877694004787, 25.727785182823727], [87.88057983455239, 25.73158390515248], [87.88199642565318, 25.73305566317315], [87.8826631768166, 25.73465133924848], [87.8829833902828, 25.735235432807404], [87.88323560577354, 25.73625170590242], [87.88290555485669, 25.737040295034795], [87.8823815450936, 25.737753011320216], [87.88166346778807, 25.738389764684953], [87.87991226232879, 25.739164612621412], [87.87851226490795, 25.739492904908825], [87.87702310520358, 25.73991141419596], [87.87453056236116, 25.74121655076977], [87.87409130684848, 25.741305900186585], [87.87373831116264, 25.74159243105663], [87.87339771492265, 25.74207970308846], [87.87298316577524, 25.742570721158724], [87.87271238210757, 25.742987361777974], [87.87274546166958, 25.743522886919248], [87.87362457187125, 25.74455275161238], [87.87386286167848, 25.744809232671223], [87.87440502908842, 25.74518468731165], [87.8753782926133, 25.745336833757875], [87.87629425440286, 25.745760431372197], [87.8773289617949, 25.74570799019649], [87.87840865501974, 25.74518324622653], [87.87929555630983, 25.745138282906126], [87.87957110284515, 25.745997161997316]]]}}]}