{"type": "FeatureCollection", "features": [{"type": "Feature", "properties": {"premiumdata.sde.IN_Village_PCA.area": 19.56593091, "objectid": 10874, "id": "295455569106688", "name": "Doddaharve", "subdistrict": "Piriyapatna", "district": "Mysuru", "state": "Karnataka", "country": "India", "censusname": "Doddaharve", "villagename_locallang": null, "lgd_villagename": "Doddaharve", "lgd_villagecode": 618148, "lgd_subdistrictcode": 5569, "lgd_districtcode": 545, "lgd_statecode": 29, "censuscode2001": "02761600", "censuscode2011": "618148", "censuscode2021": null, "level": "Village", "tru": "Rural", "no_hh": 866, "tot_p": 6354, "tot_m": 5329, "tot_f": 1025, "per_tot_m": 83.86842934, "per_tot_f": 16.13157066, "p_06": 241, "m_06": 117, "f_06": 124, "per_p_06": 3.79288637, "per_m_06": 48.54771784, "per_f_06": 51.45228216, "p_sc": 1073, "m_sc": 537, "f_sc": 536, "per_p_sc": 16.88700031, "per_m_sc": 50.04659832, "per_f_sc": 49.95340168, "p_st": 187, "m_st": 106, "f_st": 81, "per_p_st": 2.94302801, "per_m_st": 56.68449198, "per_f_st": 43.31550802, "p_lit": 5449, "m_lit": 4927, "f_lit": 522, "per_p_lit": 85.75700346, "per_m_lit": 90.4202606, "per_f_lit": 9.5797394, "p_ill": 905, "m_ill": 402, "f_ill": 503, "per_p_ill": 14.24299654, "per_m_ill": 44.4198895, "per_f_ill": 55.5801105, "tot_work_p": 953, "tot_work_m": 678, "tot_work_f": 275, "per_tot_work_p": 14.99842619, "per_tot_work_m": 71.14375656, "per_tot_work_f": 28.85624344, "mainwork_p": 940, "mainwork_m": 672, "mainwork_f": 268, "per_mainwork_p": 14.79383066, "per_mainwork_m": 71.4893617, "per_mainwork_f": 28.5106383, "main_cl_p": 414, "main_cl_m": 340, "main_cl_f": 74, "per_main_cl_p": 44.04255319, "per_main_cl_m": 82.12560386000001, "per_main_cl_f": 17.87439614, "main_al_p": 412, "main_al_m": 237, "main_al_f": 175, "per_main_al_p": 43.82978723, "per_main_al_m": 57.52427184, "per_main_al_f": 42.47572816, "main_hh_p": 4, "main_hh_m": 2, "main_hh_f": 2, "per_main_hh_p": 0.42553191, "per_main_hh_m": 50.0, "per_main_hh_f": 50.0, "main_ot_p": 110, "main_ot_m": 93, "main_ot_f": 17, "per_main_ot_p": 11.70212766, "per_main_ot_m": 84.54545455, "per_main_ot_f": 15.45454545, "margwork_p": 13, "margwork_m": 6, "margwork_f": 7, "per_margwork_p": 0.20459553, "per_margwork_m": 46.15384615, "per_margwork_f": 53.84615385, "marg_cl_p": 2, "marg_cl_m": 2, "marg_cl_f": 0, "per_marg_cl_p": 15.38461538, "per_marg_cl_m": 100.0, "per_marg_cl_f": 0.0, "marg_al_p": 5, "marg_al_m": 2, "marg_al_f": 3, "per_marg_al_p": 38.46153846, "per_marg_al_m": 40.0, "per_marg_al_f": 60.0, "marg_hh_p": 0, "marg_hh_m": 0, "marg_hh_f": 0, "per_marg_hh_p": 0.0, "per_marg_hh_m": 0.0, "per_marg_hh_f": 0.0, "marg_ot_p": 6, "marg_ot_m": 2, "marg_ot_f": 4, "per_marg_ot_p": 46.15384615, "per_marg_ot_m": 33.33333333, "per_marg_ot_f": 66.66666667, "margwork_3_6_p": 13, "margwork_3_6_m": 6, "margwork_3_6_f": 7, "per_margwork_3_6_p": 100.0, "per_margwork_3_6_m": 46.15384615, "per_margwork_3_6_f": 53.84615385, "marg_cl_3_6_p": 2, "marg_cl_3_6_m": 2, "marg_cl_3_6_f": 0, "per_marg_cl_3_6_p": 15.38461538, "per_marg_cl_3_6_m": 100.0, "per_marg_cl_3_6_f": 0.0, "marg_al_3_6_p": 5, "marg_al_3_6_m": 2, "marg_al_3_6_f": 3, "per_marg_al_3_6_p": 38.46153846, "per_marg_al_3_6_m": 40.0, "per_marg_al_3_6_f": 60.0, "marg_hh_3_6_p": 0, "marg_hh_3_6_m": 0, "marg_hh_3_6_f": 0, "per_marg_hh_3_6_p": 0.0, "per_marg_hh_3_6_m": 0.0, "per_marg_hh_3_6_f": 0.0, "marg_ot_3_6_p": 6, "marg_ot_3_6_m": 2, "marg_ot_3_6_f": 4, "per_marg_ot_3_6_p": 46.15384615, "per_marg_ot_3_6_m": 33.33333333, "per_marg_ot_3_6_f": 66.66666667, "margwork_0_3_p": 0, "margwork_0_3_m": 0, "margwork_0_3_f": 0, "per_margwork_0_3_p": 0.0, "per_margwork_0_3_m": 0.0, "per_margwork_0_3_f": 0.0, "marg_cl_0_3_p": 0, "marg_cl_0_3_m": 0, "marg_cl_0_3_f": 0, "per_marg_cl_0_3_p": 0.0, "per_marg_cl_0_3_m": 0.0, "per_marg_cl_0_3_f": 0.0, "marg_al_0_3_p": 0, "marg_al_0_3_m": 0, "marg_al_0_3_f": 0, "per_marg_al_0_3_p": 0.0, "per_marg_al_0_3_m": 0.0, "per_marg_al_0_3_f": 0.0, "marg_hh_0_3_p": 0, "marg_hh_0_3_m": 0, "marg_hh_0_3_f": 0, "per_marg_hh_0_3_p": 0.0, "per_marg_hh_0_3_m": 0.0, "per_marg_hh_0_3_f": 0.0, "marg_ot_0_3_p": 0, "marg_ot_0_3_m": 0, "marg_ot_0_3_f": 0, "per_marg_ot_0_3_p": 0.0, "per_marg_ot_0_3_m": 0.0, "per_marg_ot_0_3_f": 0.0, "non_work_p": 5401, "non_work_m": 4651, "non_work_f": 750, "per_non_work_p": 85.00157381, "per_non_work_m": 86.11368265, "per_non_work_f": 13.88631735, "per_hc_tot_tot": 100, "per_hc_tot_god": 61.8, "per_hc_tot_liv": 32.5, "per_hc_tot_dil": 5.8, "per_hc_res_tot": 91.0, "per_hc_res_god": 54.6, "per_hc_res_liv": 30.6, "per_hc_res_dil": 5.8, "per_hc_oth_tot": 9.0, "per_hc_oth_god": 7.1, "per_hc_oth_liv": 1.8, "per_hc_oth_dil": 0.0, "per_mt_grsbam": 0.5, "per_mt_plastic": 0.2, "per_mt_h_tiles": 39.9, "per_mt_m_tiles": 47.2, "per_mt_b_brick": 0.2, "per_mt_stone": 0.7, "per_mt_asbstos": 6.0, "per_mt_concrte": 5.3, "per_mt_oth": 0.0, "per_mw_grsbam": 5.5, "per_mw_plastic": 0.5, "per_mw_mud": 33.9, "per_mw_wood": 0.0, "per_mw_no_mrtr": 8.1, "per_mw_st_mrtr": 4.8, "per_mw_asbstos": 0.0, "per_mw_b_brick": 35.0, "per_mw_concrte": 12.0, "per_mw_oth": 0.2, "per_mf_mud": 47.0, "per_mf_wood": 0.0, "per_mf_b_brick": 0.0, "per_mf_stone": 0.0, "per_mf_cement": 51.8, "per_mf_fl_tile": 1.2, "per_mf_oth": 0.0, "per_dw_n_exrm": 10.6, "per_dw_1_room": 41.0, "per_dw_2_room": 30.6, "per_dw_3_room": 11.5, "per_dw_4_room": 3.9, "per_dw_5_room": 1.2, "per_dw_6_room": 1.2, "per_hhsize_1": 6.2, "per_hhsize_2": 8.8, "per_hhsize_3": 14.1, "per_hhsize_4": 25.3, "per_hhsize_5": 19.4, "per_hhsize_6_8": 18.2, "per_hhsize_9p": 8.1, "per_ow_owned": 90.8, "per_ow_rented": 4.6, "per_ow_oth": 4.6, "per_mc_none": 17.3, "per_mcouple_1": 66.8, "per_mcouple_2": 12.2, "per_mcouple_3": 2.5, "per_mcouple_4": 0.9, "per_mcouple_5p": 0.2, "per_dw_t_ts": 3.9, "per_dw_t_unts": 15.4, "per_dw_c_well": 0.2, "per_dw_unc_wel": 2.5, "per_dw_hpump": 61.5, "per_dw_tw_bore": 14.7, "per_dw_spring": 1.2, "per_dw_rivcan": 0.0, "per_dw_tank": 0.5, "per_dw_oth": 0.0, "per_loc_dw_wp": 58.1, "per_loc_dw_np": 14.7, "per_loc_dw_aw": 27.2, "per_light_elec": 88.9, "per_light_kero": 11.1, "per_light_solr": 0.0, "per_light_oil": 0.0, "per_light_oth": 0.0, "per_light_no": 0.0, "per_hh_latrine": 22.4, "per_fl_sewer": 2.1, "per_fl_septict": 5.1, "per_fl_othsys": 0.0, "per_pl_wslab": 15.2, "per_pl_without": 0.0, "per_ns_open": 0.0, "per_sl_ns_hum": 0.0, "per_sl_ns_anml": 0.0, "per_hh_no_lat": 77.6, "per_as_pub": 0.7, "per_as_open": 77.0, "per_hh_bathrm": 71.7, "per_hh_en_wrf": 9.9, "per_hh_no_btrm": 18.4, "per_wwoc_drain": 3.9, "per_wwoc_open": 17.3, "per_wwoc_nodrn": 78.8, "per_cook_fire": 88.9, "per_cook_resdu": 2.8, "per_cook_cwdng": 0.0, "per_cook_coal": 0.0, "per_cook_kero": 0.7, "per_cook_lpng": 5.5, "per_cook_elec": 0.2, "per_cook_biogs": 1.4, "per_cook_oth": 0.2, "per_cook_no": 0.2, "per_kf_inside": 96.5, "per_kf_in_has": 95.2, "per_kf_in_does": 1.4, "per_kf_outside": 3.2, "per_kf_out_has": 1.4, "per_kf_out_dos": 1.8, "per_kf_no_cook": 0.2, "per_hh_banking": 38.9, "per_hh_radio": 19.1, "per_hh_tv": 45.9, "per_hh_cmp_int": 0.7, "per_hh_cmp_wnt": 3.7, "per_hh_ph_ll": 2.1, "per_hh_ph_mob": 69.1, "per_hh_ph_bth": 3.2, "per_hh_bcycl": 10.8, "per_hh_2wheel": 13.8, "per_hh_4wheel": 0.9, "per_hh_tvcomp": 1.2, "per_hh_no_ast": 16.6, "per_hs_perma": 59.9, "per_hs_sperma": 39.2, "per_hs_temp": 0.7, "per_hs_servc": 0.2, "per_hs_nservc": 0.5, "per_hs_unclss": 0.2, "avghhsz_cy": 7.33718245, "st_areashape": 20634211.2570315, "st_lengthshape": 18685.25307086056}, "geometry": {"type": "Polygon", "coordinates": [[[75.95784147901371, 12.409198050165516], [75.95712678206863, 12.41094254743271], [75.95574921378379, 12.410057760643316], [75.95336492871289, 12.408756747336062], [75.95122076241911, 12.407512484047803], [75.94961188244018, 12.406629334120737], [75.94754575998164, 12.406265395048816], [75.94579763394718, 12.406265832840743], [75.94473809981564, 12.406161975238993], [75.94367863934596, 12.405901880100819], [75.94309573064294, 12.405120942139895], [75.9426715820984, 12.403819303188758], [75.94245934792598, 12.402621771220465], [75.94150550058762, 12.401320232961746], [75.94039271702101, 12.399602192119595], [75.9385382538131, 12.398144656332452], [75.93620687771578, 12.395385522562895], [75.93429930880322, 12.392886573265038], [75.93186173027976, 12.388461096301599], [75.9299185557426, 12.383741279832277], [75.93014351275436, 12.38360208239737], [75.93017294964791, 12.383582373027815], [75.93090659475729, 12.383091166764906], [75.93170199455088, 12.382616428716018], [75.93223530187717, 12.382322563673512], [75.93256161759909, 12.381933770202616], [75.9327868701566, 12.381472672205447], [75.93302579058113, 12.380749521954813], [75.93334285096067, 12.379917749501294], [75.93355398110356, 12.378543714204172], [75.93372406811946, 12.378222721372394], [75.9340182771548, 12.37791537838585], [75.93442739778295, 12.377571787319512], [75.9347720651878, 12.377083527584595], [75.93520875690868, 12.376414540017715], [75.935590229189, 12.375790722284071], [75.93634394445846, 12.374524935900041], [75.93656916288, 12.374095578740196], [75.93686786528836, 12.373634402845836], [75.93701031832948, 12.37332709218907], [75.93724932768725, 12.372897588280596], [75.93752962900533, 12.372395840381651], [75.93780091303462, 12.372160802347624], [75.93824216909545, 12.371952728263643], [75.93860992589806, 12.371645295416938], [75.93884892178106, 12.371328882323288], [75.93931313428898, 12.37071410342284], [75.93958421619732, 12.370008964842649], [75.94005308018177, 12.369326333912875], [75.94077009837355, 12.368422203474868], [75.94126640678826, 12.367703378979598], [75.94166172570038, 12.367242319911046], [75.9422728675545, 12.366103121228818], [75.94315079287828, 12.365022659422944], [75.94475015071517, 12.362866329204996], [75.94544413520477, 12.36186725418984], [75.94613349876053, 12.361003828437427], [75.94668954963322, 12.360199095375183], [75.9471675279245, 12.359507508549287], [75.94799018709541, 12.358490287179613], [75.9490381042137, 12.357350980156841], [75.951455566763, 12.354570697221567], [75.9522598419116, 12.353639370690818], [75.9530089685866, 12.352694459489504], [75.95366155511462, 12.351903305072444], [75.95398782681907, 12.351650093559163], [75.95469115648257, 12.351387738011516], [75.95563817662476, 12.351080183575258], [75.95584785239524, 12.350893442010438], [75.95607478120904, 12.35069133396696], [75.95615626379521, 12.350622855392128], [75.958223535199, 12.353763330246446], [75.96150805884704, 12.356209622702371], [75.9650046001735, 12.359020347905902], [75.96940138636533, 12.3608934330614], [75.97734747643182, 12.364535511689368], [75.97655391818456, 12.36693102679211], [75.97401338913629, 12.371930612913157], [75.9731929155665, 12.373388856718337], [75.97295496172919, 12.374456317912387], [75.97284926505453, 12.375159290363179], [75.97287588842461, 12.37554985056205], [75.97340604895248, 12.376669108628795], [75.97390993375828, 12.37854348168476], [75.97624051394823, 12.384003445840518], [75.97348717490749, 12.3868162164184], [75.9697274882882, 12.390149868796255], [75.96681505940722, 12.393066770241903], [75.9637436179412, 12.395723310906423], [75.96109599713465, 12.398770123577082], [75.96083161665833, 12.400124049414153], [75.96077911192657, 12.40181630578374], [75.96043546141465, 12.403743019630264], [75.95980006325125, 12.404537256998799], [75.95874108607521, 12.40612565340664], [75.95784147901371, 12.409198050165516]]]}}]}