{"type": "FeatureCollection", "features": [{"type": "Feature", "properties": {"premiumdata.sde.IN_Village_PCA.area": 2.9450454, "objectid": 22879, "id": "29548554187253", "name": "Nilathahalli", "subdistrict": "Kunigal", "district": "Tumakuru", "state": "Karnataka", "country": "India", "censusname": "Nilathahalli", "villagename_locallang": null, "lgd_villagename": "Nilathahalli", "lgd_villagecode": 612537, "lgd_subdistrictcode": 5541, "lgd_districtcode": 548, "lgd_statecode": 29, "censuscode2001": "01677500", "censuscode2011": "612537", "censuscode2021": null, "level": "Village", "tru": "Rural", "no_hh": 210, "tot_p": 830, "tot_m": 417, "tot_f": 413, "per_tot_m": 50.24096386, "per_tot_f": 49.75903614, "p_06": 82, "m_06": 44, "f_06": 38, "per_p_06": 9.87951807, "per_m_06": 53.65853659, "per_f_06": 46.34146341, "p_sc": 131, "m_sc": 64, "f_sc": 67, "per_p_sc": 15.78313253, "per_m_sc": 48.85496183, "per_f_sc": 51.14503817000001, "p_st": 22, "m_st": 13, "f_st": 9, "per_p_st": 2.65060241, "per_m_st": 59.09090909, "per_f_st": 40.90909091, "p_lit": 443, "m_lit": 261, "f_lit": 182, "per_p_lit": 53.37349398, "per_m_lit": 58.91647856, "per_f_lit": 41.08352144, "p_ill": 387, "m_ill": 156, "f_ill": 231, "per_p_ill": 46.62650602, "per_m_ill": 40.31007752, "per_f_ill": 59.68992248, "tot_work_p": 512, "tot_work_m": 268, "tot_work_f": 244, "per_tot_work_p": 61.68674699, "per_tot_work_m": 52.34375, "per_tot_work_f": 47.65625, "mainwork_p": 274, "mainwork_m": 259, "mainwork_f": 15, "per_mainwork_p": 33.01204819, "per_mainwork_m": 94.52554745, "per_mainwork_f": 5.47445255, "main_cl_p": 206, "main_cl_m": 202, "main_cl_f": 4, "per_main_cl_p": 75.18248175000001, "per_main_cl_m": 98.05825243, "per_main_cl_f": 1.94174757, "main_al_p": 9, "main_al_m": 3, "main_al_f": 6, "per_main_al_p": 3.28467153, "per_main_al_m": 33.33333333, "per_main_al_f": 66.66666667, "main_hh_p": 6, "main_hh_m": 6, "main_hh_f": 0, "per_main_hh_p": 2.18978102, "per_main_hh_m": 100.0, "per_main_hh_f": 0.0, "main_ot_p": 53, "main_ot_m": 48, "main_ot_f": 5, "per_main_ot_p": 19.34306569, "per_main_ot_m": 90.56603774, "per_main_ot_f": 9.43396226, "margwork_p": 238, "margwork_m": 9, "margwork_f": 229, "per_margwork_p": 28.6746988, "per_margwork_m": 3.78151261, "per_margwork_f": 96.21848739, "marg_cl_p": 134, "marg_cl_m": 2, "marg_cl_f": 132, "per_marg_cl_p": 56.30252101, "per_marg_cl_m": 1.49253731, "per_marg_cl_f": 98.50746269, "marg_al_p": 16, "marg_al_m": 2, "marg_al_f": 14, "per_marg_al_p": 6.72268908, "per_marg_al_m": 12.5, "per_marg_al_f": 87.5, "marg_hh_p": 0, "marg_hh_m": 0, "marg_hh_f": 0, "per_marg_hh_p": 0.0, "per_marg_hh_m": 0.0, "per_marg_hh_f": 0.0, "marg_ot_p": 88, "marg_ot_m": 5, "marg_ot_f": 83, "per_marg_ot_p": 36.97478992, "per_marg_ot_m": 5.68181818, "per_marg_ot_f": 94.31818182, "margwork_3_6_p": 238, "margwork_3_6_m": 9, "margwork_3_6_f": 229, "per_margwork_3_6_p": 100.0, "per_margwork_3_6_m": 3.78151261, "per_margwork_3_6_f": 96.21848739, "marg_cl_3_6_p": 134, "marg_cl_3_6_m": 2, "marg_cl_3_6_f": 132, "per_marg_cl_3_6_p": 56.30252101, "per_marg_cl_3_6_m": 1.49253731, "per_marg_cl_3_6_f": 98.50746269, "marg_al_3_6_p": 16, "marg_al_3_6_m": 2, "marg_al_3_6_f": 14, "per_marg_al_3_6_p": 6.72268908, "per_marg_al_3_6_m": 12.5, "per_marg_al_3_6_f": 87.5, "marg_hh_3_6_p": 0, "marg_hh_3_6_m": 0, "marg_hh_3_6_f": 0, "per_marg_hh_3_6_p": 0.0, "per_marg_hh_3_6_m": 0.0, "per_marg_hh_3_6_f": 0.0, "marg_ot_3_6_p": 88, "marg_ot_3_6_m": 5, "marg_ot_3_6_f": 83, "per_marg_ot_3_6_p": 36.97478992, "per_marg_ot_3_6_m": 5.68181818, "per_marg_ot_3_6_f": 94.31818182, "margwork_0_3_p": 0, "margwork_0_3_m": 0, "margwork_0_3_f": 0, "per_margwork_0_3_p": 0.0, "per_margwork_0_3_m": 0.0, "per_margwork_0_3_f": 0.0, "marg_cl_0_3_p": 0, "marg_cl_0_3_m": 0, "marg_cl_0_3_f": 0, "per_marg_cl_0_3_p": 0.0, "per_marg_cl_0_3_m": 0.0, "per_marg_cl_0_3_f": 0.0, "marg_al_0_3_p": 0, "marg_al_0_3_m": 0, "marg_al_0_3_f": 0, "per_marg_al_0_3_p": 0.0, "per_marg_al_0_3_m": 0.0, "per_marg_al_0_3_f": 0.0, "marg_hh_0_3_p": 0, "marg_hh_0_3_m": 0, "marg_hh_0_3_f": 0, "per_marg_hh_0_3_p": 0.0, "per_marg_hh_0_3_m": 0.0, "per_marg_hh_0_3_f": 0.0, "marg_ot_0_3_p": 0, "marg_ot_0_3_m": 0, "marg_ot_0_3_f": 0, "per_marg_ot_0_3_p": 0.0, "per_marg_ot_0_3_m": 0.0, "per_marg_ot_0_3_f": 0.0, "non_work_p": 318, "non_work_m": 149, "non_work_f": 169, "per_non_work_p": 38.31325301, "per_non_work_m": 46.85534591, "per_non_work_f": 53.14465409, "per_hc_tot_tot": 100, "per_hc_tot_god": 53.5, "per_hc_tot_liv": 41.8, "per_hc_tot_dil": 4.7, "per_hc_res_tot": 88.7, "per_hc_res_god": 47.4, "per_hc_res_liv": 37.6, "per_hc_res_dil": 3.8, "per_hc_oth_tot": 11.3, "per_hc_oth_god": 6.1, "per_hc_oth_liv": 4.2, "per_hc_oth_dil": 0.9, "per_mt_grsbam": 16.0, "per_mt_plastic": 0.0, "per_mt_h_tiles": 10.3, "per_mt_m_tiles": 21.1, "per_mt_b_brick": 0.0, "per_mt_stone": 5.6, "per_mt_asbstos": 41.3, "per_mt_concrte": 5.6, "per_mt_oth": 0.0, "per_mw_grsbam": 1.9, "per_mw_plastic": 0.0, "per_mw_mud": 36.2, "per_mw_wood": 0.5, "per_mw_no_mrtr": 0.5, "per_mw_st_mrtr": 0.9, "per_mw_asbstos": 0.0, "per_mw_b_brick": 33.8, "per_mw_concrte": 26.3, "per_mw_oth": 0.0, "per_mf_mud": 21.6, "per_mf_wood": 0.0, "per_mf_b_brick": 1.9, "per_mf_stone": 0.0, "per_mf_cement": 70.9, "per_mf_fl_tile": 5.6, "per_mf_oth": 0.0, "per_dw_n_exrm": 2.3, "per_dw_1_room": 52.1, "per_dw_2_room": 37.6, "per_dw_3_room": 5.6, "per_dw_4_room": 1.9, "per_dw_5_room": 0.5, "per_dw_6_room": 0.0, "per_hhsize_1": 9.4, "per_hhsize_2": 14.1, "per_hhsize_3": 12.2, "per_hhsize_4": 23.9, "per_hhsize_5": 22.1, "per_hhsize_6_8": 15.0, "per_hhsize_9p": 3.3, "per_ow_owned": 96.7, "per_ow_rented": 1.4, "per_ow_oth": 1.9, "per_mc_none": 17.4, "per_mcouple_1": 65.7, "per_mcouple_2": 15.0, "per_mcouple_3": 1.9, "per_mcouple_4": 0.0, "per_mcouple_5p": 0.0, "per_dw_t_ts": 0.9, "per_dw_t_unts": 75.6, "per_dw_c_well": 0.0, "per_dw_unc_wel": 0.0, "per_dw_hpump": 2.8, "per_dw_tw_bore": 20.7, "per_dw_spring": 0.0, "per_dw_rivcan": 0.0, "per_dw_tank": 0.0, "per_dw_oth": 0.0, "per_loc_dw_wp": 3.8, "per_loc_dw_np": 73.7, "per_loc_dw_aw": 22.5, "per_light_elec": 97.2, "per_light_kero": 2.8, "per_light_solr": 0.0, "per_light_oil": 0.0, "per_light_oth": 0.0, "per_light_no": 0.0, "per_hh_latrine": 11.7, "per_fl_sewer": 0.0, "per_fl_septict": 0.0, "per_fl_othsys": 0.0, "per_pl_wslab": 11.7, "per_pl_without": 0.0, "per_ns_open": 0.0, "per_sl_ns_hum": 0.0, "per_sl_ns_anml": 0.0, "per_hh_no_lat": 88.3, "per_as_pub": 0.5, "per_as_open": 87.8, "per_hh_bathrm": 84.5, "per_hh_en_wrf": 6.6, "per_hh_no_btrm": 8.9, "per_wwoc_drain": 0.9, "per_wwoc_open": 60.6, "per_wwoc_nodrn": 38.5, "per_cook_fire": 95.8, "per_cook_resdu": 1.4, "per_cook_cwdng": 0.0, "per_cook_coal": 0.0, "per_cook_kero": 0.0, "per_cook_lpng": 1.9, "per_cook_elec": 0.0, "per_cook_biogs": 0.9, "per_cook_oth": 0.0, "per_cook_no": 0.0, "per_kf_inside": 99.5, "per_kf_in_has": 98.6, "per_kf_in_does": 0.9, "per_kf_outside": 0.5, "per_kf_out_has": 0.0, "per_kf_out_dos": 0.5, "per_kf_no_cook": 0.0, "per_hh_banking": 29.6, "per_hh_radio": 23.0, "per_hh_tv": 43.2, "per_hh_cmp_int": 0.0, "per_hh_cmp_wnt": 1.9, "per_hh_ph_ll": 0.9, "per_hh_ph_mob": 31.5, "per_hh_ph_bth": 0.0, "per_hh_bcycl": 54.9, "per_hh_2wheel": 20.2, "per_hh_4wheel": 0.5, "per_hh_tvcomp": 0.0, "per_hh_no_ast": 27.2, "per_hs_perma": 59.6, "per_hs_sperma": 26.3, "per_hs_temp": 14.1, "per_hs_servc": 12.7, "per_hs_nservc": 1.4, "per_hs_unclss": 0.0, "avghhsz_cy": 3.95238095, "st_areashape": 3122003.37851176, "st_lengthshape": 10745.655701503845}, "geometry": {"type": "MultiPolygon", "coordinates": [[[[77.0723359787271, 13.04975178444325], [77.07296748359205, 13.051835978387683], [77.07296749527015, 13.051836022143096], [77.07343629637253, 13.053685419313306], [77.07370420363468, 13.054586670130536], [77.0738060851643, 13.054699522820528], [77.0732464949294, 13.055092014553807], [77.0705369451655, 13.05773151646605], [77.06797000474954, 13.060162612113224], [77.06554567098664, 13.054744710262268], [77.06404828900247, 13.052452484445299], [77.06511784743425, 13.052244099703158], [77.06504654365858, 13.05134109537336], [77.06440480877917, 13.05120217160676], [77.05955614215168, 13.051132708819077], [77.0546361717485, 13.04828474834608], [77.05520660285221, 13.047729045065463], [77.05649007350935, 13.04759011839381], [77.05763093661511, 13.04856259908044], [77.05834397527022, 13.048701525205612], [77.05755963283944, 13.045297827105339], [77.056347465958, 13.044186404994152], [77.05606224995695, 13.042241405374794], [77.0553492113019, 13.041268899829456], [77.05378052464371, 13.040782645622961], [77.05399443686908, 13.039462807708757], [77.05649007350935, 13.03904601527952], [77.05649007350935, 13.03807349717248], [77.05884310259825, 13.038907083730322], [77.06091091658446, 13.039532272899502], [77.0656882794363, 13.039462807708757], [77.06595416099748, 13.037804362605035], [77.06944805319215, 13.038151691567094], [77.06971448901383, 13.040204189976421], [77.07015459792608, 13.041734378035223], [77.07080186732594, 13.044100237395424], [77.07122610929527, 13.045639812501493], [77.07122611917674, 13.045639851007236], [77.0723359787271, 13.04975178444325]]], [[[77.07319995321456, 13.062315848000171], [77.07317582446602, 13.06299779181174], [77.07326753886328, 13.065477402329714], [77.07328124805282, 13.066625901929957], [77.07156578386375, 13.066652900029618], [77.07008743448552, 13.066597901013132], [77.07010912251144, 13.062871518475824], [77.07110737716754, 13.062315848000171], [77.07319995321456, 13.062315848000171]]]]}}]}