{"type": "FeatureCollection", "features": [{"type": "Feature", "properties": {"premiumdata.sde.IN_Village_PCA.area": 0.80376575, "objectid": 614780, "id": "182892109225414", "name": "Telecherra N C", "subdistrict": "Katlichara", "district": "Hailakandi", "state": "Assam", "country": "India", "censusname": "Telecherra N.C.", "villagename_locallang": null, "lgd_villagename": "Telecherra N.C.", "lgd_villagecode": 301135, "lgd_subdistrictcode": 2109, "lgd_districtcode": 289, "lgd_statecode": 18, "censuscode2001": "02620700", "censuscode2011": "301135", "censuscode2021": null, "level": "Village", "tru": "Rural", "no_hh": 187, "tot_p": 942, "tot_m": 476, "tot_f": 466, "per_tot_m": 50.53078556000001, "per_tot_f": 49.46921444, "p_06": 203, "m_06": 100, "f_06": 103, "per_p_06": 21.54989384, "per_m_06": 49.26108374, "per_f_06": 50.73891626, "p_sc": 0, "m_sc": 0, "f_sc": 0, "per_p_sc": 0.0, "per_m_sc": 0.0, "per_f_sc": 0.0, "p_st": 1, "m_st": 1, "f_st": 0, "per_p_st": 0.10615711, "per_m_st": 100.0, "per_f_st": 0.0, "p_lit": 418, "m_lit": 249, "f_lit": 169, "per_p_lit": 44.37367304, "per_m_lit": 59.56937799, "per_f_lit": 40.43062201, "p_ill": 524, "m_ill": 227, "f_ill": 297, "per_p_ill": 55.62632696, "per_m_ill": 43.32061069, "per_f_ill": 56.67938931, "tot_work_p": 433, "tot_work_m": 253, "tot_work_f": 180, "per_tot_work_p": 45.96602972, "per_tot_work_m": 58.4295612, "per_tot_work_f": 41.5704388, "mainwork_p": 321, "mainwork_m": 225, "mainwork_f": 96, "per_mainwork_p": 34.07643312, "per_mainwork_m": 70.09345794000001, "per_mainwork_f": 29.90654206, "main_cl_p": 223, "main_cl_m": 141, "main_cl_f": 82, "per_main_cl_p": 69.47040498, "per_main_cl_m": 63.22869955, "per_main_cl_f": 36.77130045, "main_al_p": 79, "main_al_m": 72, "main_al_f": 7, "per_main_al_p": 24.6105919, "per_main_al_m": 91.13924051000001, "per_main_al_f": 8.86075949, "main_hh_p": 0, "main_hh_m": 0, "main_hh_f": 0, "per_main_hh_p": 0.0, "per_main_hh_m": 0.0, "per_main_hh_f": 0.0, "main_ot_p": 19, "main_ot_m": 12, "main_ot_f": 7, "per_main_ot_p": 5.91900312, "per_main_ot_m": 63.15789474, "per_main_ot_f": 36.84210526, "margwork_p": 112, "margwork_m": 28, "margwork_f": 84, "per_margwork_p": 11.8895966, "per_margwork_m": 25.0, "per_margwork_f": 75.0, "marg_cl_p": 46, "marg_cl_m": 9, "marg_cl_f": 37, "per_marg_cl_p": 41.07142857, "per_marg_cl_m": 19.56521739, "per_marg_cl_f": 80.43478261000001, "marg_al_p": 45, "marg_al_m": 13, "marg_al_f": 32, "per_marg_al_p": 40.17857143, "per_marg_al_m": 28.88888889, "per_marg_al_f": 71.11111111, "marg_hh_p": 0, "marg_hh_m": 0, "marg_hh_f": 0, "per_marg_hh_p": 0.0, "per_marg_hh_m": 0.0, "per_marg_hh_f": 0.0, "marg_ot_p": 21, "marg_ot_m": 6, "marg_ot_f": 15, "per_marg_ot_p": 18.75, "per_marg_ot_m": 28.57142857, "per_marg_ot_f": 71.42857143, "margwork_3_6_p": 59, "margwork_3_6_m": 15, "margwork_3_6_f": 44, "per_margwork_3_6_p": 52.67857143, "per_margwork_3_6_m": 25.42372881, "per_margwork_3_6_f": 74.57627119, "marg_cl_3_6_p": 26, "marg_cl_3_6_m": 5, "marg_cl_3_6_f": 21, "per_marg_cl_3_6_p": 23.21428571, "per_marg_cl_3_6_m": 19.23076923, "per_marg_cl_3_6_f": 80.76923077, "marg_al_3_6_p": 30, "marg_al_3_6_m": 8, "marg_al_3_6_f": 22, "per_marg_al_3_6_p": 26.78571429, "per_marg_al_3_6_m": 26.66666667, "per_marg_al_3_6_f": 73.33333332999999, "marg_hh_3_6_p": 0, "marg_hh_3_6_m": 0, "marg_hh_3_6_f": 0, "per_marg_hh_3_6_p": 0.0, "per_marg_hh_3_6_m": 0.0, "per_marg_hh_3_6_f": 0.0, "marg_ot_3_6_p": 3, "marg_ot_3_6_m": 2, "marg_ot_3_6_f": 1, "per_marg_ot_3_6_p": 2.67857143, "per_marg_ot_3_6_m": 66.66666667, "per_marg_ot_3_6_f": 33.33333333, "margwork_0_3_p": 53, "margwork_0_3_m": 13, "margwork_0_3_f": 40, "per_margwork_0_3_p": 47.32142857, "per_margwork_0_3_m": 24.52830189, "per_margwork_0_3_f": 75.47169811, "marg_cl_0_3_p": 20, "marg_cl_0_3_m": 4, "marg_cl_0_3_f": 16, "per_marg_cl_0_3_p": 17.85714286, "per_marg_cl_0_3_m": 20.0, "per_marg_cl_0_3_f": 80.0, "marg_al_0_3_p": 15, "marg_al_0_3_m": 5, "marg_al_0_3_f": 10, "per_marg_al_0_3_p": 13.39285714, "per_marg_al_0_3_m": 33.33333333, "per_marg_al_0_3_f": 66.66666667, "marg_hh_0_3_p": 0, "marg_hh_0_3_m": 0, "marg_hh_0_3_f": 0, "per_marg_hh_0_3_p": 0.0, "per_marg_hh_0_3_m": 0.0, "per_marg_hh_0_3_f": 0.0, "marg_ot_0_3_p": 18, "marg_ot_0_3_m": 4, "marg_ot_0_3_f": 14, "per_marg_ot_0_3_p": 16.07142857, "per_marg_ot_0_3_m": 22.22222222, "per_marg_ot_0_3_f": 77.77777778, "non_work_p": 509, "non_work_m": 223, "non_work_f": 286, "per_non_work_p": 54.03397028000001, "per_non_work_m": 43.81139489, "per_non_work_f": 56.18860511, "per_hc_tot_tot": 100, "per_hc_tot_god": 4.9, "per_hc_tot_liv": 51.1, "per_hc_tot_dil": 44.0, "per_hc_res_tot": 100.0, "per_hc_res_god": 4.9, "per_hc_res_liv": 51.1, "per_hc_res_dil": 44.0, "per_hc_oth_tot": 0.0, "per_hc_oth_god": 0.0, "per_hc_oth_liv": 0.0, "per_hc_oth_dil": 0.0, "per_mt_grsbam": 76.1, "per_mt_plastic": 0.0, "per_mt_h_tiles": 0.0, "per_mt_m_tiles": 0.0, "per_mt_b_brick": 0.0, "per_mt_stone": 0.0, "per_mt_asbstos": 23.9, "per_mt_concrte": 0.0, "per_mt_oth": 0.0, "per_mw_grsbam": 87.5, "per_mw_plastic": 0.5, "per_mw_mud": 1.6, "per_mw_wood": 9.8, "per_mw_no_mrtr": 0.0, "per_mw_st_mrtr": 0.0, "per_mw_asbstos": 0.0, "per_mw_b_brick": 0.5, "per_mw_concrte": 0.0, "per_mw_oth": 0.0, "per_mf_mud": 64.7, "per_mf_wood": 33.2, "per_mf_b_brick": 0.0, "per_mf_stone": 0.0, "per_mf_cement": 0.5, "per_mf_fl_tile": 1.6, "per_mf_oth": 0.0, "per_dw_n_exrm": 0.0, "per_dw_1_room": 99.5, "per_dw_2_room": 0.5, "per_dw_3_room": 0.0, "per_dw_4_room": 0.0, "per_dw_5_room": 0.0, "per_dw_6_room": 0.0, "per_hhsize_1": 4.9, "per_hhsize_2": 10.3, "per_hhsize_3": 16.8, "per_hhsize_4": 14.1, "per_hhsize_5": 15.8, "per_hhsize_6_8": 33.7, "per_hhsize_9p": 4.3, "per_ow_owned": 91.8, "per_ow_rented": 0.0, "per_ow_oth": 8.2, "per_mc_none": 12.5, "per_mcouple_1": 74.5, "per_mcouple_2": 11.4, "per_mcouple_3": 1.1, "per_mcouple_4": 0.5, "per_mcouple_5p": 0.0, "per_dw_t_ts": 4.9, "per_dw_t_unts": 0.0, "per_dw_c_well": 0.5, "per_dw_unc_wel": 0.0, "per_dw_hpump": 0.0, "per_dw_tw_bore": 0.0, "per_dw_spring": 81.0, "per_dw_rivcan": 9.2, "per_dw_tank": 4.3, "per_dw_oth": 0.0, "per_loc_dw_wp": 0.0, "per_loc_dw_np": 12.5, "per_loc_dw_aw": 87.5, "per_light_elec": 0.5, "per_light_kero": 97.8, "per_light_solr": 1.6, "per_light_oil": 0.0, "per_light_oth": 0.0, "per_light_no": 0.0, "per_hh_latrine": 82.6, "per_fl_sewer": 0.0, "per_fl_septict": 0.5, "per_fl_othsys": 3.8, "per_pl_wslab": 0.5, "per_pl_without": 77.7, "per_ns_open": 0.0, "per_sl_ns_hum": 0.0, "per_sl_ns_anml": 0.0, "per_hh_no_lat": 17.4, "per_as_pub": 0.5, "per_as_open": 16.8, "per_hh_bathrm": 0.0, "per_hh_en_wrf": 0.0, "per_hh_no_btrm": 100.0, "per_wwoc_drain": 0.0, "per_wwoc_open": 0.0, "per_wwoc_nodrn": 100.0, "per_cook_fire": 97.3, "per_cook_resdu": 0.0, "per_cook_cwdng": 0.0, "per_cook_coal": 0.0, "per_cook_kero": 0.0, "per_cook_lpng": 2.7, "per_cook_elec": 0.0, "per_cook_biogs": 0.0, "per_cook_oth": 0.0, "per_cook_no": 0.0, "per_kf_inside": 99.5, "per_kf_in_has": 76.1, "per_kf_in_does": 23.4, "per_kf_outside": 0.5, "per_kf_out_has": 0.0, "per_kf_out_dos": 0.5, "per_kf_no_cook": 0.0, "per_hh_banking": 2.2, "per_hh_radio": 8.2, "per_hh_tv": 3.3, "per_hh_cmp_int": 0.0, "per_hh_cmp_wnt": 0.0, "per_hh_ph_ll": 0.5, "per_hh_ph_mob": 17.4, "per_hh_ph_bth": 0.0, "per_hh_bcycl": 4.9, "per_hh_2wheel": 1.6, "per_hh_4wheel": 0.0, "per_hh_tvcomp": 0.0, "per_hh_no_ast": 77.2, "per_hs_perma": 0.5, "per_hs_sperma": 23.4, "per_hs_temp": 76.1, "per_hs_servc": 0.5, "per_hs_nservc": 75.5, "per_hs_unclss": 0.0, "avghhsz_cy": 5.03743316, "st_areashape": 973881.86953791, "st_lengthshape": 4815.035539349787}, "geometry": {"type": "Polygon", "coordinates": [[[92.52410693943237, 24.43001698397233], [92.52410693943237, 24.430666180546968], [92.5228947725509, 24.43404195197689], [92.52208886067186, 24.436652543598203], [92.52125478211707, 24.43620585959247], [92.52018522368529, 24.43512391042623], [92.51959102405745, 24.43306818069955], [92.51840262570012, 24.429605823568348], [92.51816494584897, 24.42452031509135], [92.51733306726831, 24.420192060146366], [92.52047043878801, 24.418850271114426], [92.52139739056673, 24.421836814809858], [92.52260955654988, 24.42423898308898], [92.52353650743034, 24.426251575331825], [92.52389302720702, 24.42793953100742], [92.52410693943237, 24.42930286314484], [92.52410693943237, 24.43001698397233]]]}}]}