{"type": "FeatureCollection", "features": [{"type": "Feature", "properties": {"premiumdata.sde.IN_Village_PCA.area": 0.74583146, "objectid": 416913, "id": "552309581980", "name": "Khadait", "subdistrict": "Dhoomakot", "district": "Pauri Garhwal", "state": "Uttarakhand", "country": "India", "censusname": "Khadait", "villagename_locallang": null, "lgd_villagename": "Khadait", "lgd_villagecode": 47083, "lgd_subdistrictcode": 309, "lgd_districtcode": 52, "lgd_statecode": 5, "censuscode2001": "00697900", "censuscode2011": "047083", "censuscode2021": null, "level": "Village", "tru": "Rural", "no_hh": 33, "tot_p": 140, "tot_m": 78, "tot_f": 62, "per_tot_m": 55.71428571, "per_tot_f": 44.28571429, "p_06": 22, "m_06": 13, "f_06": 9, "per_p_06": 15.71428571, "per_m_06": 59.09090909, "per_f_06": 40.90909091, "p_sc": 95, "m_sc": 54, "f_sc": 41, "per_p_sc": 67.85714286, "per_m_sc": 56.84210526, "per_f_sc": 43.15789474, "p_st": 0, "m_st": 0, "f_st": 0, "per_p_st": 0.0, "per_m_st": 0.0, "per_f_st": 0.0, "p_lit": 84, "m_lit": 52, "f_lit": 32, "per_p_lit": 60.0, "per_m_lit": 61.9047619, "per_f_lit": 38.0952381, "p_ill": 56, "m_ill": 26, "f_ill": 30, "per_p_ill": 40.0, "per_m_ill": 46.42857143, "per_f_ill": 53.57142857, "tot_work_p": 19, "tot_work_m": 18, "tot_work_f": 1, "per_tot_work_p": 13.57142857, "per_tot_work_m": 94.73684211, "per_tot_work_f": 5.26315789, "mainwork_p": 19, "mainwork_m": 18, "mainwork_f": 1, "per_mainwork_p": 13.57142857, "per_mainwork_m": 94.73684211, "per_mainwork_f": 5.26315789, "main_cl_p": 16, "main_cl_m": 16, "main_cl_f": 0, "per_main_cl_p": 84.21052632, "per_main_cl_m": 100.0, "per_main_cl_f": 0.0, "main_al_p": 0, "main_al_m": 0, "main_al_f": 0, "per_main_al_p": 0.0, "per_main_al_m": 0.0, "per_main_al_f": 0.0, "main_hh_p": 0, "main_hh_m": 0, "main_hh_f": 0, "per_main_hh_p": 0.0, "per_main_hh_m": 0.0, "per_main_hh_f": 0.0, "main_ot_p": 3, "main_ot_m": 2, "main_ot_f": 1, "per_main_ot_p": 15.78947368, "per_main_ot_m": 66.66666667, "per_main_ot_f": 33.33333333, "margwork_p": 0, "margwork_m": 0, "margwork_f": 0, "per_margwork_p": 0.0, "per_margwork_m": 0.0, "per_margwork_f": 0.0, "marg_cl_p": 0, "marg_cl_m": 0, "marg_cl_f": 0, "per_marg_cl_p": 0.0, "per_marg_cl_m": 0.0, "per_marg_cl_f": 0.0, "marg_al_p": 0, "marg_al_m": 0, "marg_al_f": 0, "per_marg_al_p": 0.0, "per_marg_al_m": 0.0, "per_marg_al_f": 0.0, "marg_hh_p": 0, "marg_hh_m": 0, "marg_hh_f": 0, "per_marg_hh_p": 0.0, "per_marg_hh_m": 0.0, "per_marg_hh_f": 0.0, "marg_ot_p": 0, "marg_ot_m": 0, "marg_ot_f": 0, "per_marg_ot_p": 0.0, "per_marg_ot_m": 0.0, "per_marg_ot_f": 0.0, "margwork_3_6_p": 0, "margwork_3_6_m": 0, "margwork_3_6_f": 0, "per_margwork_3_6_p": 0.0, "per_margwork_3_6_m": 0.0, "per_margwork_3_6_f": 0.0, "marg_cl_3_6_p": 0, "marg_cl_3_6_m": 0, "marg_cl_3_6_f": 0, "per_marg_cl_3_6_p": 0.0, "per_marg_cl_3_6_m": 0.0, "per_marg_cl_3_6_f": 0.0, "marg_al_3_6_p": 0, "marg_al_3_6_m": 0, "marg_al_3_6_f": 0, "per_marg_al_3_6_p": 0.0, "per_marg_al_3_6_m": 0.0, "per_marg_al_3_6_f": 0.0, "marg_hh_3_6_p": 0, "marg_hh_3_6_m": 0, "marg_hh_3_6_f": 0, "per_marg_hh_3_6_p": 0.0, "per_marg_hh_3_6_m": 0.0, "per_marg_hh_3_6_f": 0.0, "marg_ot_3_6_p": 0, "marg_ot_3_6_m": 0, "marg_ot_3_6_f": 0, "per_marg_ot_3_6_p": 0.0, "per_marg_ot_3_6_m": 0.0, "per_marg_ot_3_6_f": 0.0, "margwork_0_3_p": 0, "margwork_0_3_m": 0, "margwork_0_3_f": 0, "per_margwork_0_3_p": 0.0, "per_margwork_0_3_m": 0.0, "per_margwork_0_3_f": 0.0, "marg_cl_0_3_p": 0, "marg_cl_0_3_m": 0, "marg_cl_0_3_f": 0, "per_marg_cl_0_3_p": 0.0, "per_marg_cl_0_3_m": 0.0, "per_marg_cl_0_3_f": 0.0, "marg_al_0_3_p": 0, "marg_al_0_3_m": 0, "marg_al_0_3_f": 0, "per_marg_al_0_3_p": 0.0, "per_marg_al_0_3_m": 0.0, "per_marg_al_0_3_f": 0.0, "marg_hh_0_3_p": 0, "marg_hh_0_3_m": 0, "marg_hh_0_3_f": 0, "per_marg_hh_0_3_p": 0.0, "per_marg_hh_0_3_m": 0.0, "per_marg_hh_0_3_f": 0.0, "marg_ot_0_3_p": 0, "marg_ot_0_3_m": 0, "marg_ot_0_3_f": 0, "per_marg_ot_0_3_p": 0.0, "per_marg_ot_0_3_m": 0.0, "per_marg_ot_0_3_f": 0.0, "non_work_p": 121, "non_work_m": 60, "non_work_f": 61, "per_non_work_p": 86.42857143, "per_non_work_m": 49.58677686, "per_non_work_f": 50.41322314000001, "per_hc_tot_tot": 100, "per_hc_tot_god": 100.0, "per_hc_tot_liv": 0.0, "per_hc_tot_dil": 0.0, "per_hc_res_tot": 100.0, "per_hc_res_god": 100.0, "per_hc_res_liv": 0.0, "per_hc_res_dil": 0.0, "per_hc_oth_tot": 0.0, "per_hc_oth_god": 0.0, "per_hc_oth_liv": 0.0, "per_hc_oth_dil": 0.0, "per_mt_grsbam": 0.0, "per_mt_plastic": 3.1, "per_mt_h_tiles": 0.0, "per_mt_m_tiles": 0.0, "per_mt_b_brick": 0.0, "per_mt_stone": 87.5, "per_mt_asbstos": 0.0, "per_mt_concrte": 9.4, "per_mt_oth": 0.0, "per_mw_grsbam": 0.0, "per_mw_plastic": 0.0, "per_mw_mud": 0.0, "per_mw_wood": 0.0, "per_mw_no_mrtr": 0.0, "per_mw_st_mrtr": 100.0, "per_mw_asbstos": 0.0, "per_mw_b_brick": 0.0, "per_mw_concrte": 0.0, "per_mw_oth": 0.0, "per_mf_mud": 96.9, "per_mf_wood": 0.0, "per_mf_b_brick": 0.0, "per_mf_stone": 0.0, "per_mf_cement": 3.1, "per_mf_fl_tile": 0.0, "per_mf_oth": 0.0, "per_dw_n_exrm": 0.0, "per_dw_1_room": 18.8, "per_dw_2_room": 34.4, "per_dw_3_room": 15.6, "per_dw_4_room": 18.8, "per_dw_5_room": 6.2, "per_dw_6_room": 6.2, "per_hhsize_1": 12.5, "per_hhsize_2": 12.5, "per_hhsize_3": 3.1, "per_hhsize_4": 21.9, "per_hhsize_5": 28.1, "per_hhsize_6_8": 21.9, "per_hhsize_9p": 0.0, "per_ow_owned": 93.8, "per_ow_rented": 6.2, "per_ow_oth": 0.0, "per_mc_none": 31.2, "per_mcouple_1": 59.4, "per_mcouple_2": 9.4, "per_mcouple_3": 0.0, "per_mcouple_4": 0.0, "per_mcouple_5p": 0.0, "per_dw_t_ts": 96.9, "per_dw_t_unts": 0.0, "per_dw_c_well": 0.0, "per_dw_unc_wel": 0.0, "per_dw_hpump": 0.0, "per_dw_tw_bore": 0.0, "per_dw_spring": 0.0, "per_dw_rivcan": 0.0, "per_dw_tank": 0.0, "per_dw_oth": 3.1, "per_loc_dw_wp": 3.1, "per_loc_dw_np": 90.6, "per_loc_dw_aw": 6.2, "per_light_elec": 75.0, "per_light_kero": 25.0, "per_light_solr": 0.0, "per_light_oil": 0.0, "per_light_oth": 0.0, "per_light_no": 0.0, "per_hh_latrine": 28.1, "per_fl_sewer": 0.0, "per_fl_septict": 28.1, "per_fl_othsys": 0.0, "per_pl_wslab": 0.0, "per_pl_without": 0.0, "per_ns_open": 0.0, "per_sl_ns_hum": 0.0, "per_sl_ns_anml": 0.0, "per_hh_no_lat": 71.9, "per_as_pub": 0.0, "per_as_open": 71.9, "per_hh_bathrm": 28.1, "per_hh_en_wrf": 0.0, "per_hh_no_btrm": 71.9, "per_wwoc_drain": 0.0, "per_wwoc_open": 0.0, "per_wwoc_nodrn": 100.0, "per_cook_fire": 93.8, "per_cook_resdu": 0.0, "per_cook_cwdng": 0.0, "per_cook_coal": 0.0, "per_cook_kero": 0.0, "per_cook_lpng": 6.2, "per_cook_elec": 0.0, "per_cook_biogs": 0.0, "per_cook_oth": 0.0, "per_cook_no": 0.0, "per_kf_inside": 87.5, "per_kf_in_has": 87.5, "per_kf_in_does": 0.0, "per_kf_outside": 12.5, "per_kf_out_has": 3.1, "per_kf_out_dos": 9.4, "per_kf_no_cook": 0.0, "per_hh_banking": 100.0, "per_hh_radio": 0.0, "per_hh_tv": 28.1, "per_hh_cmp_int": 0.0, "per_hh_cmp_wnt": 0.0, "per_hh_ph_ll": 0.0, "per_hh_ph_mob": 28.1, "per_hh_ph_bth": 0.0, "per_hh_bcycl": 0.0, "per_hh_2wheel": 3.1, "per_hh_4wheel": 0.0, "per_hh_tvcomp": null, "per_hh_no_ast": 56.2, "per_hs_perma": 96.9, "per_hs_sperma": 3.1, "per_hs_temp": 0.0, "per_hs_servc": 0.0, "per_hs_nservc": 0.0, "per_hs_unclss": 0.0, "avghhsz_cy": 4.24242424, "st_areashape": 991570.032075025, "st_lengthshape": 4592.980556294926}, "geometry": {"type": "Polygon", "coordinates": [[[79.00040905084153, 29.687213307931376], [78.99983261180518, 29.68706230271252], [78.99939623179974, 29.686914037274303], [78.99861788562349, 29.68682884883437], [78.99666049704356, 29.68668554566875], [78.99358072909318, 29.686607458757067], [78.99145967375668, 29.686600649688547], [78.99082197860112, 29.686500737772597], [78.99047004202902, 29.686367136987656], [78.99035076103064, 29.685528133296856], [78.98979896457917, 29.68396698131098], [78.98860997962194, 29.68113345791027], [78.9901061282192, 29.681533888816837], [78.99242121426715, 29.681770624283928], [78.99456316531544, 29.681927496256066], [78.99670807900753, 29.68196972536281], [78.99925004176703, 29.6819050592312], [79.00209626031997, 29.681922773000917], [79.00401469705085, 29.681806581790614], [79.004009563179, 29.682457221337756], [79.0038019741949, 29.68371430680338], [79.00362642632042, 29.68543069424022], [79.00352946127033, 29.687211065829885], [79.00263992432316, 29.687158266783243], [79.0009882656721, 29.687125808966083], [79.00040905084153, 29.687213307931376]]]}}]}