{"type": "FeatureCollection", "features": [{"type": "Feature", "properties": {"premiumdata.sde.IN_Village_PCA.area": 1.11287402, "objectid": 151546, "id": "285194799671622", "name": "Chikkalavalasa", "subdistrict": "Narasannapeta", "district": "Srikakulam", "state": "Andhra Pradesh", "country": "India", "censusname": "Chikkalavalasa", "villagename_locallang": null, "lgd_villagename": "Chikkalavalasa", "lgd_villagecode": 581426, "lgd_subdistrictcode": 4799, "lgd_districtcode": 519, "lgd_statecode": 28, "censuscode2001": "01243400", "censuscode2011": "581426", "censuscode2021": null, "level": "Village", "tru": "Rural", "no_hh": 122, "tot_p": 424, "tot_m": 209, "tot_f": 215, "per_tot_m": 49.29245283, "per_tot_f": 50.70754717000001, "p_06": 45, "m_06": 22, "f_06": 23, "per_p_06": 10.61320755, "per_m_06": 48.88888889, "per_f_06": 51.11111111, "p_sc": 0, "m_sc": 0, "f_sc": 0, "per_p_sc": 0.0, "per_m_sc": 0.0, "per_f_sc": 0.0, "p_st": 0, "m_st": 0, "f_st": 0, "per_p_st": 0.0, "per_m_st": 0.0, "per_f_st": 0.0, "p_lit": 212, "m_lit": 128, "f_lit": 84, "per_p_lit": 50.0, "per_m_lit": 60.37735849, "per_f_lit": 39.62264151, "p_ill": 212, "m_ill": 81, "f_ill": 131, "per_p_ill": 50.0, "per_m_ill": 38.20754717000001, "per_f_ill": 61.79245283, "tot_work_p": 240, "tot_work_m": 131, "tot_work_f": 109, "per_tot_work_p": 56.60377358, "per_tot_work_m": 54.58333333, "per_tot_work_f": 45.41666667000001, "mainwork_p": 71, "mainwork_m": 60, "mainwork_f": 11, "per_mainwork_p": 16.74528302, "per_mainwork_m": 84.50704225000001, "per_mainwork_f": 15.49295775, "main_cl_p": 28, "main_cl_m": 26, "main_cl_f": 2, "per_main_cl_p": 39.43661972, "per_main_cl_m": 92.85714286, "per_main_cl_f": 7.14285714, "main_al_p": 10, "main_al_m": 8, "main_al_f": 2, "per_main_al_p": 14.08450704, "per_main_al_m": 80.0, "per_main_al_f": 20.0, "main_hh_p": 12, "main_hh_m": 10, "main_hh_f": 2, "per_main_hh_p": 16.90140845, "per_main_hh_m": 83.33333332999999, "per_main_hh_f": 16.66666667, "main_ot_p": 21, "main_ot_m": 16, "main_ot_f": 5, "per_main_ot_p": 29.57746479, "per_main_ot_m": 76.19047619, "per_main_ot_f": 23.80952381, "margwork_p": 169, "margwork_m": 71, "margwork_f": 98, "per_margwork_p": 39.85849057, "per_margwork_m": 42.01183432, "per_margwork_f": 57.98816568, "marg_cl_p": 1, "marg_cl_m": 1, "marg_cl_f": 0, "per_marg_cl_p": 0.59171598, "per_marg_cl_m": 100.0, "per_marg_cl_f": 0.0, "marg_al_p": 97, "marg_al_m": 34, "marg_al_f": 63, "per_marg_al_p": 57.3964497, "per_marg_al_m": 35.05154639, "per_marg_al_f": 64.94845361, "marg_hh_p": 49, "marg_hh_m": 22, "marg_hh_f": 27, "per_marg_hh_p": 28.99408284, "per_marg_hh_m": 44.89795918, "per_marg_hh_f": 55.10204082, "marg_ot_p": 22, "marg_ot_m": 14, "marg_ot_f": 8, "per_marg_ot_p": 13.01775148, "per_marg_ot_m": 63.63636364, "per_marg_ot_f": 36.36363636, "margwork_3_6_p": 158, "margwork_3_6_m": 68, "margwork_3_6_f": 90, "per_margwork_3_6_p": 93.49112426, "per_margwork_3_6_m": 43.03797468, "per_margwork_3_6_f": 56.96202532, "marg_cl_3_6_p": 1, "marg_cl_3_6_m": 1, "marg_cl_3_6_f": 0, "per_marg_cl_3_6_p": 0.59171598, "per_marg_cl_3_6_m": 100.0, "per_marg_cl_3_6_f": 0.0, "marg_al_3_6_p": 93, "marg_al_3_6_m": 33, "marg_al_3_6_f": 60, "per_marg_al_3_6_p": 55.0295858, "per_marg_al_3_6_m": 35.48387097000001, "per_marg_al_3_6_f": 64.51612902999999, "marg_hh_3_6_p": 44, "marg_hh_3_6_m": 21, "marg_hh_3_6_f": 23, "per_marg_hh_3_6_p": 26.03550296, "per_marg_hh_3_6_m": 47.72727273, "per_marg_hh_3_6_f": 52.27272727, "marg_ot_3_6_p": 20, "marg_ot_3_6_m": 13, "marg_ot_3_6_f": 7, "per_marg_ot_3_6_p": 11.83431953, "per_marg_ot_3_6_m": 65.0, "per_marg_ot_3_6_f": 35.0, "margwork_0_3_p": 11, "margwork_0_3_m": 3, "margwork_0_3_f": 8, "per_margwork_0_3_p": 6.50887574, "per_margwork_0_3_m": 27.27272727, "per_margwork_0_3_f": 72.72727273, "marg_cl_0_3_p": 0, "marg_cl_0_3_m": 0, "marg_cl_0_3_f": 0, "per_marg_cl_0_3_p": 0.0, "per_marg_cl_0_3_m": 0.0, "per_marg_cl_0_3_f": 0.0, "marg_al_0_3_p": 4, "marg_al_0_3_m": 1, "marg_al_0_3_f": 3, "per_marg_al_0_3_p": 2.36686391, "per_marg_al_0_3_m": 25.0, "per_marg_al_0_3_f": 75.0, "marg_hh_0_3_p": 5, "marg_hh_0_3_m": 1, "marg_hh_0_3_f": 4, "per_marg_hh_0_3_p": 0.0, "per_marg_hh_0_3_m": 20.0, "per_marg_hh_0_3_f": 80.0, "marg_ot_0_3_p": 2, "marg_ot_0_3_m": 1, "marg_ot_0_3_f": 1, "per_marg_ot_0_3_p": 1.18343195, "per_marg_ot_0_3_m": 50.0, "per_marg_ot_0_3_f": 50.0, "non_work_p": 184, "non_work_m": 78, "non_work_f": 106, "per_non_work_p": 43.39622642, "per_non_work_m": 42.39130435, "per_non_work_f": 57.60869565, "per_hc_tot_tot": 100, "per_hc_tot_god": 59.8, "per_hc_tot_liv": 40.2, "per_hc_tot_dil": 0.0, "per_hc_res_tot": 98.4, "per_hc_res_god": 58.3, "per_hc_res_liv": 40.2, "per_hc_res_dil": 0.0, "per_hc_oth_tot": 1.6, "per_hc_oth_god": 1.6, "per_hc_oth_liv": 0.0, "per_hc_oth_dil": 0.0, "per_mt_grsbam": 34.6, "per_mt_plastic": 0.0, "per_mt_h_tiles": 1.6, "per_mt_m_tiles": 0.0, "per_mt_b_brick": 0.0, "per_mt_stone": 0.0, "per_mt_asbstos": 2.4, "per_mt_concrte": 61.4, "per_mt_oth": 0.0, "per_mw_grsbam": 0.0, "per_mw_plastic": 0.0, "per_mw_mud": 32.3, "per_mw_wood": 0.0, "per_mw_no_mrtr": 0.0, "per_mw_st_mrtr": 0.0, "per_mw_asbstos": 0.0, "per_mw_b_brick": 67.7, "per_mw_concrte": 0.0, "per_mw_oth": 0.0, "per_mf_mud": 24.4, "per_mf_wood": 0.0, "per_mf_b_brick": 0.0, "per_mf_stone": 0.0, "per_mf_cement": 74.0, "per_mf_fl_tile": 0.8, "per_mf_oth": 0.8, "per_dw_n_exrm": 0.0, "per_dw_1_room": 8.7, "per_dw_2_room": 55.1, "per_dw_3_room": 32.3, "per_dw_4_room": 2.4, "per_dw_5_room": 1.6, "per_dw_6_room": 0.0, "per_hhsize_1": 9.4, "per_hhsize_2": 13.4, "per_hhsize_3": 16.5, "per_hhsize_4": 28.3, "per_hhsize_5": 16.5, "per_hhsize_6_8": 12.6, "per_hhsize_9p": 3.1, "per_ow_owned": 97.6, "per_ow_rented": 1.6, "per_ow_oth": 0.8, "per_mc_none": 15.7, "per_mcouple_1": 70.1, "per_mcouple_2": 12.6, "per_mcouple_3": 0.8, "per_mcouple_4": 0.8, "per_mcouple_5p": 0.0, "per_dw_t_ts": 97.6, "per_dw_t_unts": 0.0, "per_dw_c_well": 0.0, "per_dw_unc_wel": 0.0, "per_dw_hpump": 0.8, "per_dw_tw_bore": 1.6, "per_dw_spring": 0.0, "per_dw_rivcan": 0.0, "per_dw_tank": 0.0, "per_dw_oth": 0.0, "per_loc_dw_wp": 5.5, "per_loc_dw_np": 94.5, "per_loc_dw_aw": 0.0, "per_light_elec": 92.1, "per_light_kero": 7.9, "per_light_solr": 0.0, "per_light_oil": 0.0, "per_light_oth": 0.0, "per_light_no": 0.0, "per_hh_latrine": 18.1, "per_fl_sewer": 0.0, "per_fl_septict": 18.1, "per_fl_othsys": 0.0, "per_pl_wslab": 0.0, "per_pl_without": 0.0, "per_ns_open": 0.0, "per_sl_ns_hum": 0.0, "per_sl_ns_anml": 0.0, "per_hh_no_lat": 81.9, "per_as_pub": 0.0, "per_as_open": 81.9, "per_hh_bathrm": 19.7, "per_hh_en_wrf": 0.0, "per_hh_no_btrm": 80.3, "per_wwoc_drain": 0.0, "per_wwoc_open": 98.4, "per_wwoc_nodrn": 1.6, "per_cook_fire": 73.2, "per_cook_resdu": 0.8, "per_cook_cwdng": 0.0, "per_cook_coal": 0.0, "per_cook_kero": 0.0, "per_cook_lpng": 26.0, "per_cook_elec": 0.0, "per_cook_biogs": 0.0, "per_cook_oth": 0.0, "per_cook_no": 0.0, "per_kf_inside": 90.6, "per_kf_in_has": 89.8, "per_kf_in_does": 0.8, "per_kf_outside": 9.4, "per_kf_out_has": 7.9, "per_kf_out_dos": 1.6, "per_kf_no_cook": 0.0, "per_hh_banking": 30.7, "per_hh_radio": 2.4, "per_hh_tv": 38.6, "per_hh_cmp_int": 0.0, "per_hh_cmp_wnt": 0.8, "per_hh_ph_ll": 1.6, "per_hh_ph_mob": 35.4, "per_hh_ph_bth": 2.4, "per_hh_bcycl": 16.5, "per_hh_2wheel": 7.9, "per_hh_4wheel": 0.0, "per_hh_tvcomp": 0.0, "per_hh_no_ast": 47.2, "per_hs_perma": 65.4, "per_hs_sperma": 2.4, "per_hs_temp": 32.3, "per_hs_servc": 32.3, "per_hs_nservc": 0.0, "per_hs_unclss": 0.0, "avghhsz_cy": 3.47540984, "st_areashape": 1243375.87016484, "st_lengthshape": 4428.903223789645}, "geometry": {"type": "Polygon", "coordinates": [[[84.00676999921261, 18.453030000387983], [84.00625000042724, 18.45315999998445], [84.00550999973723, 18.453420000586352], [84.004529999746, 18.453549999887564], [84.00323999923509, 18.453510000309706], [84.0016900002298, 18.453199999643832], [84.0007200002843, 18.452649999888877], [84.00020999974805, 18.451640000058134], [83.99954000027654, 18.450450000295454], [83.9994399998191, 18.450079999934694], [83.99918000042642, 18.449169999709625], [83.99916999858407, 18.447550000842686], [83.99892000013544, 18.44700000003592], [83.99836999941623, 18.446599999660013], [83.99747999983666, 18.446400000400992], [83.99727999982015, 18.44620000005693], [83.99730999995735, 18.445790000242745], [83.99747999983666, 18.444970000235163], [83.9980799998863, 18.44398000003001], [83.9991000000605, 18.442969998641534], [83.99950000009358, 18.442359999938862], [83.99961999974418, 18.441270000371077], [83.99961999974418, 18.441229999637763], [84.00068000010134, 18.44133999971453], [84.00156000143177, 18.441640000108322], [84.00377999990856, 18.442429999690404], [84.0059800000905, 18.4433600003792], [84.00684999957855, 18.444170000176072], [84.00721000032699, 18.444859999925985], [84.00723999956588, 18.44491999932866], [84.0077400000564, 18.446519999813916], [84.00816000018098, 18.449289999743737], [84.00815000013525, 18.451479999911093], [84.00832000001456, 18.453180000241368], [84.00799000030166, 18.45306999922552], [84.00747999976542, 18.4529800001237], [84.00676999921261, 18.453030000387983]]]}}]}