{"type": "FeatureCollection", "features": [{"type": "Feature", "properties": {"premiumdata.sde.IN_Village_PCA.area": 30.52900553, "objectid": 80164, "id": "366934608676317", "name": "Dagada", "subdistrict": "Weepangandla", "district": "Wanaparthy", "state": "Telangana", "country": "India", "censusname": "Dagada", "villagename_locallang": "\u0c26\u0c17\u0c21", "lgd_villagename": "Dagada", "lgd_villagecode": 576331, "lgd_subdistrictcode": 4608, "lgd_districtcode": 693, "lgd_statecode": 36, "censuscode2001": "00734700", "censuscode2011": "576331", "censuscode2021": null, "level": "Village", "tru": "Rural", "no_hh": 602, "tot_p": 2558, "tot_m": 1288, "tot_f": 1270, "per_tot_m": 50.35183737, "per_tot_f": 49.64816263, "p_06": 304, "m_06": 148, "f_06": 156, "per_p_06": 11.8842846, "per_m_06": 48.68421053, "per_f_06": 51.31578947, "p_sc": 533, "m_sc": 265, "f_sc": 268, "per_p_sc": 20.83659109, "per_m_sc": 49.71857411, "per_f_sc": 50.28142589, "p_st": 6, "m_st": 4, "f_st": 2, "per_p_st": 0.23455825, "per_m_st": 66.66666667, "per_f_st": 33.33333333, "p_lit": 1265, "m_lit": 758, "f_lit": 507, "per_p_lit": 49.45269742, "per_m_lit": 59.92094862, "per_f_lit": 40.07905138, "p_ill": 1293, "m_ill": 530, "f_ill": 763, "per_p_ill": 50.54730258, "per_m_ill": 40.98994586, "per_f_ill": 59.01005414, "tot_work_p": 1346, "tot_work_m": 723, "tot_work_f": 623, "per_tot_work_p": 52.61923378, "per_tot_work_m": 53.71471025, "per_tot_work_f": 46.28528975, "mainwork_p": 1306, "mainwork_m": 702, "mainwork_f": 604, "per_mainwork_p": 51.05551212, "per_mainwork_m": 53.75191424, "per_mainwork_f": 46.24808576, "main_cl_p": 386, "main_cl_m": 289, "main_cl_f": 97, "per_main_cl_p": 29.55589587, "per_main_cl_m": 74.87046632, "per_main_cl_f": 25.12953368, "main_al_p": 615, "main_al_m": 176, "main_al_f": 439, "per_main_al_p": 47.09035222, "per_main_al_m": 28.61788618, "per_main_al_f": 71.38211382, "main_hh_p": 58, "main_hh_m": 32, "main_hh_f": 26, "per_main_hh_p": 4.44104135, "per_main_hh_m": 55.17241379, "per_main_hh_f": 44.82758621, "main_ot_p": 247, "main_ot_m": 205, "main_ot_f": 42, "per_main_ot_p": 18.91271057, "per_main_ot_m": 82.99595142000001, "per_main_ot_f": 17.00404858, "margwork_p": 40, "margwork_m": 21, "margwork_f": 19, "per_margwork_p": 1.56372166, "per_margwork_m": 52.5, "per_margwork_f": 47.5, "marg_cl_p": 6, "marg_cl_m": 5, "marg_cl_f": 1, "per_marg_cl_p": 15.0, "per_marg_cl_m": 83.33333332999999, "per_marg_cl_f": 16.66666667, "marg_al_p": 15, "marg_al_m": 1, "marg_al_f": 14, "per_marg_al_p": 37.5, "per_marg_al_m": 6.66666667, "per_marg_al_f": 93.33333332999999, "marg_hh_p": 1, "marg_hh_m": 1, "marg_hh_f": 0, "per_marg_hh_p": 2.5, "per_marg_hh_m": 100.0, "per_marg_hh_f": 0.0, "marg_ot_p": 18, "marg_ot_m": 14, "marg_ot_f": 4, "per_marg_ot_p": 45.0, "per_marg_ot_m": 77.77777778, "per_marg_ot_f": 22.22222222, "margwork_3_6_p": 40, "margwork_3_6_m": 21, "margwork_3_6_f": 19, "per_margwork_3_6_p": 100.0, "per_margwork_3_6_m": 52.5, "per_margwork_3_6_f": 47.5, "marg_cl_3_6_p": 6, "marg_cl_3_6_m": 5, "marg_cl_3_6_f": 1, "per_marg_cl_3_6_p": 15.0, "per_marg_cl_3_6_m": 83.33333332999999, "per_marg_cl_3_6_f": 16.66666667, "marg_al_3_6_p": 15, "marg_al_3_6_m": 1, "marg_al_3_6_f": 14, "per_marg_al_3_6_p": 37.5, "per_marg_al_3_6_m": 6.66666667, "per_marg_al_3_6_f": 93.33333332999999, "marg_hh_3_6_p": 1, "marg_hh_3_6_m": 1, "marg_hh_3_6_f": 0, "per_marg_hh_3_6_p": 2.5, "per_marg_hh_3_6_m": 100.0, "per_marg_hh_3_6_f": 0.0, "marg_ot_3_6_p": 18, "marg_ot_3_6_m": 14, "marg_ot_3_6_f": 4, "per_marg_ot_3_6_p": 45.0, "per_marg_ot_3_6_m": 77.77777778, "per_marg_ot_3_6_f": 22.22222222, "margwork_0_3_p": 0, "margwork_0_3_m": 0, "margwork_0_3_f": 0, "per_margwork_0_3_p": 0.0, "per_margwork_0_3_m": 0.0, "per_margwork_0_3_f": 0.0, "marg_cl_0_3_p": 0, "marg_cl_0_3_m": 0, "marg_cl_0_3_f": 0, "per_marg_cl_0_3_p": 0.0, "per_marg_cl_0_3_m": 0.0, "per_marg_cl_0_3_f": 0.0, "marg_al_0_3_p": 0, "marg_al_0_3_m": 0, "marg_al_0_3_f": 0, "per_marg_al_0_3_p": 0.0, "per_marg_al_0_3_m": 0.0, "per_marg_al_0_3_f": 0.0, "marg_hh_0_3_p": 0, "marg_hh_0_3_m": 0, "marg_hh_0_3_f": 0, "per_marg_hh_0_3_p": 0.0, "per_marg_hh_0_3_m": 0.0, "per_marg_hh_0_3_f": 0.0, "marg_ot_0_3_p": 0, "marg_ot_0_3_m": 0, "marg_ot_0_3_f": 0, "per_marg_ot_0_3_p": 0.0, "per_marg_ot_0_3_m": 0.0, "per_marg_ot_0_3_f": 0.0, "non_work_p": 1212, "non_work_m": 565, "non_work_f": 647, "per_non_work_p": 47.38076622, "per_non_work_m": 46.61716172, "per_non_work_f": 53.38283828, "per_hc_tot_tot": 100, "per_hc_tot_god": 86.0, "per_hc_tot_liv": 13.1, "per_hc_tot_dil": 0.9, "per_hc_res_tot": 99.6, "per_hc_res_god": 85.9, "per_hc_res_liv": 12.9, "per_hc_res_dil": 0.9, "per_hc_oth_tot": 0.4, "per_hc_oth_god": 0.2, "per_hc_oth_liv": 0.2, "per_hc_oth_dil": 0.0, "per_mt_grsbam": 33.1, "per_mt_plastic": 0.7, "per_mt_h_tiles": 0.5, "per_mt_m_tiles": 1.6, "per_mt_b_brick": 0.7, "per_mt_stone": 5.4, "per_mt_asbstos": 0.0, "per_mt_concrte": 58.0, "per_mt_oth": 0.0, "per_mw_grsbam": 0.9, "per_mw_plastic": 0.0, "per_mw_mud": 1.1, "per_mw_wood": 13.4, "per_mw_no_mrtr": 27.5, "per_mw_st_mrtr": 55.1, "per_mw_asbstos": 0.0, "per_mw_b_brick": 1.4, "per_mw_concrte": 0.5, "per_mw_oth": 0.0, "per_mf_mud": 9.1, "per_mf_wood": 0.0, "per_mf_b_brick": 0.0, "per_mf_stone": 90.2, "per_mf_cement": 0.2, "per_mf_fl_tile": 0.4, "per_mf_oth": 0.2, "per_dw_n_exrm": 0.7, "per_dw_1_room": 35.4, "per_dw_2_room": 45.4, "per_dw_3_room": 10.9, "per_dw_4_room": 4.7, "per_dw_5_room": 0.9, "per_dw_6_room": 2.0, "per_hhsize_1": 4.5, "per_hhsize_2": 11.3, "per_hhsize_3": 13.6, "per_hhsize_4": 31.5, "per_hhsize_5": 19.5, "per_hhsize_6_8": 17.0, "per_hhsize_9p": 2.7, "per_ow_owned": 95.7, "per_ow_rented": 3.9, "per_ow_oth": 0.4, "per_mc_none": 13.6, "per_mcouple_1": 75.5, "per_mcouple_2": 9.3, "per_mcouple_3": 1.1, "per_mcouple_4": 0.5, "per_mcouple_5p": 0.0, "per_dw_t_ts": 88.9, "per_dw_t_unts": 0.5, "per_dw_c_well": 0.0, "per_dw_unc_wel": 0.2, "per_dw_hpump": 10.4, "per_dw_tw_bore": 0.0, "per_dw_spring": 0.0, "per_dw_rivcan": 0.0, "per_dw_tank": 0.0, "per_dw_oth": 0.0, "per_loc_dw_wp": 26.7, "per_loc_dw_np": 53.7, "per_loc_dw_aw": 19.7, "per_light_elec": 96.4, "per_light_kero": 3.4, "per_light_solr": 0.0, "per_light_oil": 0.0, "per_light_oth": 0.0, "per_light_no": 0.2, "per_hh_latrine": 15.0, "per_fl_sewer": 1.3, "per_fl_septict": 2.3, "per_fl_othsys": 3.2, "per_pl_wslab": 5.0, "per_pl_without": 3.2, "per_ns_open": 0.0, "per_sl_ns_hum": 0.0, "per_sl_ns_anml": 0.0, "per_hh_no_lat": 85.0, "per_as_pub": 0.0, "per_as_open": 85.0, "per_hh_bathrm": 16.3, "per_hh_en_wrf": 52.2, "per_hh_no_btrm": 31.5, "per_wwoc_drain": 6.4, "per_wwoc_open": 41.1, "per_wwoc_nodrn": 52.4, "per_cook_fire": 92.5, "per_cook_resdu": 1.1, "per_cook_cwdng": 0.0, "per_cook_coal": 0.0, "per_cook_kero": 0.5, "per_cook_lpng": 5.7, "per_cook_elec": 0.0, "per_cook_biogs": 0.0, "per_cook_oth": 0.0, "per_cook_no": 0.2, "per_kf_inside": 50.8, "per_kf_in_has": 28.1, "per_kf_in_does": 22.7, "per_kf_outside": 49.0, "per_kf_out_has": 3.4, "per_kf_out_dos": 45.6, "per_kf_no_cook": 0.2, "per_hh_banking": 13.1, "per_hh_radio": 6.6, "per_hh_tv": 45.6, "per_hh_cmp_int": 0.9, "per_hh_cmp_wnt": 5.9, "per_hh_ph_ll": 3.4, "per_hh_ph_mob": 62.4, "per_hh_ph_bth": 0.4, "per_hh_bcycl": 13.2, "per_hh_2wheel": 4.1, "per_hh_4wheel": 0.2, "per_hh_tvcomp": 0.5, "per_hh_no_ast": 20.0, "per_hs_perma": 63.5, "per_hs_sperma": 23.8, "per_hs_temp": 12.7, "per_hs_servc": 12.0, "per_hs_nservc": 0.7, "per_hs_unclss": 0.0, "avghhsz_cy": 4.24916944, "st_areashape": 33246997.990824446, "st_lengthshape": 23962.323405592437}, "geometry": {"type": "Polygon", "coordinates": [[[78.15848000021329, 16.089589999951464], [78.15823000086634, 16.08937000062543], [78.15670999930335, 16.08808999979256], [78.15475000021921, 16.08489999961228], [78.14986999945629, 16.078590000231458], [78.14649000016489, 16.07398999950628], [78.1444000004861, 16.06979999961359], [78.1426400005202, 16.067550000302546], [78.14298000027883, 16.066660000157263], [78.14362000051142, 16.06469000013698], [78.14422999970849, 16.063240000148397], [78.14461999969582, 16.062420000329563], [78.145900000161, 16.060040000142944], [78.1469699996656, 16.05826000034145], [78.14767000017262, 16.05719000005094], [78.14895999978528, 16.055689999787703], [78.15031999971808, 16.0534500000746], [78.1510599995098, 16.051980000353204], [78.15142999940562, 16.05046999924816], [78.15170999978811, 16.048679999687764], [78.15206999963821, 16.044469999862585], [78.15220000023288, 16.0422199991516], [78.15199000017061, 16.039720000507344], [78.15536999946198, 16.0386900005736], [78.16557000030559, 16.036429999936708], [78.17024000010791, 16.03457999978777], [78.1741600000728, 16.033410000095255], [78.17796000038709, 16.03190999949998], [78.18149999951206, 16.02983000044713], [78.1820100000483, 16.02929000033354], [78.18484000041711, 16.030929999992654], [78.18711000002095, 16.032370000744073], [78.18911000018636, 16.032950000387157], [78.19138000068853, 16.03362999999338], [78.19363000020087, 16.03535999979715], [78.1977800003195, 16.038519999377026], [78.20015999952818, 16.039939999484773], [78.20197000062112, 16.041010000074], [78.2058000001743, 16.043680000193685], [78.20881999961563, 16.046100000011073], [78.2116900001674, 16.04846000000141], [78.2168599995619, 16.053209999874728], [78.21856000015167, 16.05501000036521], [78.2177600000855, 16.057030000077916], [78.21767000057214, 16.05822000014364], [78.2181900002558, 16.059410000001147], [78.21944000058376, 16.060799999893568], [78.22001000049617, 16.06164000010328], [78.21527999952107, 16.062899999812448], [78.21285000008365, 16.063760000198595], [78.21030000009732, 16.064230000153827], [78.208050000585, 16.064630000049355], [78.2057700000371, 16.065140000217372], [78.20507000042835, 16.06526000006692], [78.20347000029605, 16.06521000071388], [78.20199000071261, 16.06536000046176], [78.20056000045962, 16.06577000034651], [78.19939000049756, 16.066260000026883], [78.19735000014921, 16.067120000564604], [78.19494999995072, 16.067900000025404], [78.19306000028847, 16.068890000149057], [78.19126000013958, 16.069859999868363], [78.18948000008221, 16.071299999688883], [78.18765999984184, 16.07273999944148], [78.1863099999548, 16.073480000449525], [78.18373999987699, 16.074670000529878], [78.18166000024394, 16.075979999817957], [78.18095000058946, 16.076269999350085], [78.18004000002013, 16.07648000023548], [78.17904999998316, 16.076729999972684], [78.17764999986736, 16.0775199996655], [78.17506999974384, 16.079179999749964], [78.17359000016039, 16.080440000553658], [78.17051000044465, 16.082890000349945], [78.16942999999601, 16.083880000066806], [78.1686199998841, 16.084659999377905], [78.16750000015081, 16.08606999962463], [78.16731000018001, 16.086399999688247], [78.16726999999705, 16.086599999878537], [78.16724000075811, 16.08684999983329], [78.16720000057516, 16.08734000021308], [78.16720999972259, 16.087369999422016], [78.16454999923309, 16.087719999640328], [78.16158000002052, 16.08810000006703], [78.16016999985901, 16.08867999958948], [78.15848000021329, 16.089589999951464]]]}}]}