{"type": "FeatureCollection", "features": [{"type": "Feature", "properties": {"premiumdata.sde.IN_Village_PCA.area": 4.81067274, "objectid": 395575, "id": "332203339051", "name": "Ainokot", "subdistrict": "Batala", "district": "Gurdaspur", "state": "Punjab", "country": "India", "censusname": "Ainokot (105)", "villagename_locallang": null, "lgd_villagename": "Ainokot (105)", "lgd_villagecode": 28609, "lgd_subdistrictcode": 203, "lgd_districtcode": 32, "lgd_statecode": 3, "censuscode2001": "00123700", "censuscode2011": "028609", "censuscode2021": null, "level": "Village", "tru": "Rural", "no_hh": 414, "tot_p": 2230, "tot_m": 1171, "tot_f": 1059, "per_tot_m": 52.51121076, "per_tot_f": 47.48878924, "p_06": 281, "m_06": 140, "f_06": 141, "per_p_06": 12.60089686, "per_m_06": 49.82206406, "per_f_06": 50.17793594, "p_sc": 698, "m_sc": 365, "f_sc": 333, "per_p_sc": 31.30044843, "per_m_sc": 52.29226361, "per_f_sc": 47.70773639, "p_st": 0, "m_st": 0, "f_st": 0, "per_p_st": 0.0, "per_m_st": 0.0, "per_f_st": 0.0, "p_lit": 1358, "m_lit": 775, "f_lit": 583, "per_p_lit": 60.89686099, "per_m_lit": 57.06921944, "per_f_lit": 42.93078056, "p_ill": 872, "m_ill": 396, "f_ill": 476, "per_p_ill": 39.10313901, "per_m_ill": 45.41284404, "per_f_ill": 54.58715596, "tot_work_p": 646, "tot_work_m": 604, "tot_work_f": 42, "per_tot_work_p": 28.96860987, "per_tot_work_m": 93.49845201000001, "per_tot_work_f": 6.50154799, "mainwork_p": 512, "mainwork_m": 481, "mainwork_f": 31, "per_mainwork_p": 22.95964126, "per_mainwork_m": 93.9453125, "per_mainwork_f": 6.0546875, "main_cl_p": 217, "main_cl_m": 208, "main_cl_f": 9, "per_main_cl_p": 42.3828125, "per_main_cl_m": 95.85253456000001, "per_main_cl_f": 4.14746544, "main_al_p": 164, "main_al_m": 162, "main_al_f": 2, "per_main_al_p": 32.03125, "per_main_al_m": 98.7804878, "per_main_al_f": 1.2195122, "main_hh_p": 8, "main_hh_m": 8, "main_hh_f": 0, "per_main_hh_p": 1.5625, "per_main_hh_m": 100.0, "per_main_hh_f": 0.0, "main_ot_p": 123, "main_ot_m": 103, "main_ot_f": 20, "per_main_ot_p": 24.0234375, "per_main_ot_m": 83.7398374, "per_main_ot_f": 16.2601626, "margwork_p": 134, "margwork_m": 123, "margwork_f": 11, "per_margwork_p": 6.00896861, "per_margwork_m": 91.79104478, "per_margwork_f": 8.20895522, "marg_cl_p": 9, "marg_cl_m": 7, "marg_cl_f": 2, "per_marg_cl_p": 6.71641791, "per_marg_cl_m": 77.77777778, "per_marg_cl_f": 22.22222222, "marg_al_p": 97, "marg_al_m": 95, "marg_al_f": 2, "per_marg_al_p": 72.3880597, "per_marg_al_m": 97.93814433, "per_marg_al_f": 2.06185567, "marg_hh_p": 7, "marg_hh_m": 2, "marg_hh_f": 5, "per_marg_hh_p": 5.2238806, "per_marg_hh_m": 28.57142857, "per_marg_hh_f": 71.42857143, "marg_ot_p": 21, "marg_ot_m": 19, "marg_ot_f": 2, "per_marg_ot_p": 15.67164179, "per_marg_ot_m": 90.47619048, "per_marg_ot_f": 9.52380952, "margwork_3_6_p": 34, "margwork_3_6_m": 28, "margwork_3_6_f": 6, "per_margwork_3_6_p": 25.37313433, "per_margwork_3_6_m": 82.35294118, "per_margwork_3_6_f": 17.64705882, "marg_cl_3_6_p": 8, "marg_cl_3_6_m": 6, "marg_cl_3_6_f": 2, "per_marg_cl_3_6_p": 5.97014925, "per_marg_cl_3_6_m": 75.0, "per_marg_cl_3_6_f": 25.0, "marg_al_3_6_p": 9, "marg_al_3_6_m": 8, "marg_al_3_6_f": 1, "per_marg_al_3_6_p": 6.71641791, "per_marg_al_3_6_m": 88.88888889, "per_marg_al_3_6_f": 11.11111111, "marg_hh_3_6_p": 3, "marg_hh_3_6_m": 2, "marg_hh_3_6_f": 1, "per_marg_hh_3_6_p": 2.23880597, "per_marg_hh_3_6_m": 66.66666667, "per_marg_hh_3_6_f": 33.33333333, "marg_ot_3_6_p": 14, "marg_ot_3_6_m": 12, "marg_ot_3_6_f": 2, "per_marg_ot_3_6_p": 10.44776119, "per_marg_ot_3_6_m": 85.71428571, "per_marg_ot_3_6_f": 14.28571429, "margwork_0_3_p": 100, "margwork_0_3_m": 95, "margwork_0_3_f": 5, "per_margwork_0_3_p": 74.62686567, "per_margwork_0_3_m": 95.0, "per_margwork_0_3_f": 5.0, "marg_cl_0_3_p": 1, "marg_cl_0_3_m": 1, "marg_cl_0_3_f": 0, "per_marg_cl_0_3_p": 0.74626866, "per_marg_cl_0_3_m": 100.0, "per_marg_cl_0_3_f": 0.0, "marg_al_0_3_p": 88, "marg_al_0_3_m": 87, "marg_al_0_3_f": 1, "per_marg_al_0_3_p": 65.67164179, "per_marg_al_0_3_m": 98.86363636, "per_marg_al_0_3_f": 1.13636364, "marg_hh_0_3_p": 4, "marg_hh_0_3_m": 0, "marg_hh_0_3_f": 4, "per_marg_hh_0_3_p": 2.98507463, "per_marg_hh_0_3_m": 0.0, "per_marg_hh_0_3_f": 100.0, "marg_ot_0_3_p": 7, "marg_ot_0_3_m": 7, "marg_ot_0_3_f": 0, "per_marg_ot_0_3_p": 5.2238806, "per_marg_ot_0_3_m": 100.0, "per_marg_ot_0_3_f": 0.0, "non_work_p": 1584, "non_work_m": 567, "non_work_f": 1017, "per_non_work_p": 71.03139013, "per_non_work_m": 35.79545455, "per_non_work_f": 64.20454545, "per_hc_tot_tot": 100, "per_hc_tot_god": 57.3, "per_hc_tot_liv": 38.4, "per_hc_tot_dil": 4.3, "per_hc_res_tot": 97.8, "per_hc_res_god": 56.1, "per_hc_res_liv": 37.4, "per_hc_res_dil": 4.3, "per_hc_oth_tot": 2.2, "per_hc_oth_god": 1.2, "per_hc_oth_liv": 1.0, "per_hc_oth_dil": 0.0, "per_mt_grsbam": 12.7, "per_mt_plastic": 0.0, "per_mt_h_tiles": 0.2, "per_mt_m_tiles": 1.4, "per_mt_b_brick": 36.9, "per_mt_stone": 0.2, "per_mt_asbstos": 7.2, "per_mt_concrte": 41.2, "per_mt_oth": 0.0, "per_mw_grsbam": 0.2, "per_mw_plastic": 0.2, "per_mw_mud": 1.4, "per_mw_wood": 0.2, "per_mw_no_mrtr": 2.9, "per_mw_st_mrtr": 0.0, "per_mw_asbstos": 0.0, "per_mw_b_brick": 88.0, "per_mw_concrte": 7.0, "per_mw_oth": 0.0, "per_mf_mud": 55.9, "per_mf_wood": 0.2, "per_mf_b_brick": 1.7, "per_mf_stone": 3.6, "per_mf_cement": 38.6, "per_mf_fl_tile": 0.0, "per_mf_oth": 0.0, "per_dw_n_exrm": 0.7, "per_dw_1_room": 20.4, "per_dw_2_room": 29.0, "per_dw_3_room": 23.5, "per_dw_4_room": 16.1, "per_dw_5_room": 5.5, "per_dw_6_room": 4.8, "per_hhsize_1": 0.5, "per_hhsize_2": 3.4, "per_hhsize_3": 4.8, "per_hhsize_4": 27.3, "per_hhsize_5": 23.5, "per_hhsize_6_8": 33.3, "per_hhsize_9p": 7.2, "per_ow_owned": 99.5, "per_ow_rented": 0.5, "per_ow_oth": 0.0, "per_mc_none": 4.8, "per_mcouple_1": 65.7, "per_mcouple_2": 24.9, "per_mcouple_3": 3.8, "per_mcouple_4": 0.7, "per_mcouple_5p": 0.0, "per_dw_t_ts": 1.0, "per_dw_t_unts": 0.0, "per_dw_c_well": 0.0, "per_dw_unc_wel": 0.0, "per_dw_hpump": 68.8, "per_dw_tw_bore": 29.7, "per_dw_spring": 0.0, "per_dw_rivcan": 0.0, "per_dw_tank": 0.0, "per_dw_oth": 0.5, "per_loc_dw_wp": 97.1, "per_loc_dw_np": 2.6, "per_loc_dw_aw": 0.2, "per_light_elec": 94.0, "per_light_kero": 3.8, "per_light_solr": 0.0, "per_light_oil": 1.0, "per_light_oth": 0.7, "per_light_no": 0.5, "per_hh_latrine": 57.3, "per_fl_sewer": 1.7, "per_fl_septict": 13.2, "per_fl_othsys": 0.0, "per_pl_wslab": 35.5, "per_pl_without": 6.7, "per_ns_open": 0.0, "per_sl_ns_hum": 0.0, "per_sl_ns_anml": 0.2, "per_hh_no_lat": 42.7, "per_as_pub": 2.2, "per_as_open": 40.5, "per_hh_bathrm": 36.2, "per_hh_en_wrf": 48.2, "per_hh_no_btrm": 15.6, "per_wwoc_drain": 12.9, "per_wwoc_open": 80.1, "per_wwoc_nodrn": 7.0, "per_cook_fire": 2.2, "per_cook_resdu": 2.2, "per_cook_cwdng": 58.0, "per_cook_coal": 0.0, "per_cook_kero": 0.5, "per_cook_lpng": 35.7, "per_cook_elec": 0.0, "per_cook_biogs": 1.2, "per_cook_oth": 0.0, "per_cook_no": 0.2, "per_kf_inside": 95.0, "per_kf_in_has": 56.6, "per_kf_in_does": 38.4, "per_kf_outside": 4.8, "per_kf_out_has": 1.0, "per_kf_out_dos": 3.8, "per_kf_no_cook": 0.2, "per_hh_banking": 58.0, "per_hh_radio": 10.6, "per_hh_tv": 78.7, "per_hh_cmp_int": 0.7, "per_hh_cmp_wnt": 1.2, "per_hh_ph_ll": 1.2, "per_hh_ph_mob": 75.5, "per_hh_ph_bth": 1.7, "per_hh_bcycl": 68.8, "per_hh_2wheel": 47.2, "per_hh_4wheel": 4.8, "per_hh_tvcomp": 1.4, "per_hh_no_ast": 6.5, "per_hs_perma": 86.6, "per_hs_sperma": 12.0, "per_hs_temp": 1.4, "per_hs_servc": 1.2, "per_hs_nservc": 0.2, "per_hs_unclss": 0.0, "avghhsz_cy": 5.38647343, "st_areashape": 6668835.479433975, "st_lengthshape": 12633.664372611776}, "geometry": {"type": "Polygon", "coordinates": [[[75.31037880840333, 31.7289446432205], [75.30704273942426, 31.728102498418732], [75.30544943533408, 31.727644609175194], [75.30448510465634, 31.727310317019672], [75.30347379837747, 31.726776752868446], [75.30229218858874, 31.72618708150137], [75.29999944903182, 31.72530662395946], [75.29379681465862, 31.723530838031923], [75.29209896194068, 31.72287126452933], [75.29033275731113, 31.722406373097467], [75.2891351979345, 31.722112095537238], [75.28840161211393, 31.721786877947526], [75.28790402898987, 31.721372296132454], [75.28724684757913, 31.72070460906267], [75.28628114517396, 31.71933371944701], [75.28546991526844, 31.718401830990747], [75.28571976998663, 31.718252917354405], [75.28655646084226, 31.71774323043418], [75.28752453210483, 31.716942623539442], [75.28823042735678, 31.716180964490647], [75.28867416995429, 31.715458255776408], [75.2896983508878, 31.713623390856558], [75.29047583018982, 31.712074872176483], [75.29088596052435, 31.71090660610265], [75.29114449117154, 31.709337482252504], [75.291240009934, 31.708788979528443], [75.2916496776362, 31.70969606871991], [75.29262603945051, 31.7108699791941], [75.29393769295305, 31.712254606581144], [75.29582064982347, 31.71376055267816], [75.29699945058032, 31.714399542919743], [75.29858190212354, 31.71505451830577], [75.30039767668883, 31.71566936493052], [75.30233679712912, 31.71614102013886], [75.30508053587444, 31.71669385342067], [75.30668704789427, 31.716905520652716], [75.3091088439165, 31.717001363505705], [75.31084671927526, 31.716922049373917], [75.3126422260511, 31.716845012364587], [75.31442975399054, 31.71691569922758], [75.31560462731298, 31.717149978075266], [75.3159732860241, 31.717223492078155], [75.3179701699338, 31.717697243851298], [75.3201506766741, 31.717980829708196], [75.32251749490264, 31.718024963855413], [75.32490516662216, 31.71821794543257], [75.3262784400616, 31.718469584644602], [75.32770405114616, 31.71882197528706], [75.32866038322457, 31.719303892871164], [75.32954575288713, 31.72002978477977], [75.33002484688603, 31.720788983816743], [75.33037530842446, 31.721789884748176], [75.33043479216762, 31.7228286433319], [75.33032925539312, 31.723712837182326], [75.32998508295996, 31.724735665041166], [75.32922394850458, 31.725988816075752], [75.3282924557421, 31.727185866492327], [75.32598598633433, 31.730196038862022], [75.32225560994615, 31.72946339669715], [75.31299515885487, 31.728653292906543], [75.3111994742126, 31.728730329270753], [75.31037880840333, 31.7289446432205]]]}}]}