{"type": "FeatureCollection", "features": [{"type": "Feature", "properties": {"premiumdata.sde.IN_Village_PCA.area": 3.45402248, "objectid": 470406, "id": "193212394142350", "name": "Barabazar CT", "subdistrict": "Barabazar", "district": "Purulia", "state": "West Bengal", "country": "India", "censusname": "Barabazar (CT)", "villagename_locallang": null, "lgd_villagename": "Barabazar (CT)", "lgd_villagecode": 331960, "lgd_subdistrictcode": 2394, "lgd_districtcode": 321, "lgd_statecode": 19, "censuscode2001": "41412000", "censuscode2011": "331960", "censuscode2021": null, "level": "Town", "tru": "Urban", "no_hh": 1607, "tot_p": 8056, "tot_m": 4195, "tot_f": 3861, "per_tot_m": 52.07298908, "per_tot_f": 47.92701092, "p_06": 881, "m_06": 431, "f_06": 450, "per_p_06": 10.93594836, "per_m_06": 48.92167991, "per_f_06": 51.07832009, "p_sc": 1503, "m_sc": 758, "f_sc": 745, "per_p_sc": 18.65690169, "per_m_sc": 50.4324684, "per_f_sc": 49.5675316, "p_st": 223, "m_st": 94, "f_st": 129, "per_p_st": 2.76812314, "per_m_st": 42.15246637, "per_f_st": 57.84753363, "p_lit": 5751, "m_lit": 3337, "f_lit": 2414, "per_p_lit": 71.3877855, "per_m_lit": 58.02469136, "per_f_lit": 41.97530864, "p_ill": 2305, "m_ill": 858, "f_ill": 1447, "per_p_ill": 28.6122145, "per_m_ill": 37.22342733, "per_f_ill": 62.77657267, "tot_work_p": 2331, "tot_work_m": 2068, "tot_work_f": 263, "per_tot_work_p": 28.93495531, "per_tot_work_m": 88.71728872, "per_tot_work_f": 11.28271128, "mainwork_p": 2077, "mainwork_m": 1892, "mainwork_f": 185, "per_mainwork_p": 25.78202582, "per_mainwork_m": 91.09292248, "per_mainwork_f": 8.90707752, "main_cl_p": 46, "main_cl_m": 44, "main_cl_f": 2, "per_main_cl_p": 2.21473279, "per_main_cl_m": 95.65217391, "per_main_cl_f": 4.34782609, "main_al_p": 119, "main_al_m": 114, "main_al_f": 5, "per_main_al_p": 5.72941743, "per_main_al_m": 95.79831933, "per_main_al_f": 4.20168067, "main_hh_p": 69, "main_hh_m": 60, "main_hh_f": 9, "per_main_hh_p": 3.32209918, "per_main_hh_m": 86.95652174, "per_main_hh_f": 13.04347826, "main_ot_p": 1843, "main_ot_m": 1674, "main_ot_f": 169, "per_main_ot_p": 88.7337506, "per_main_ot_m": 90.8301682, "per_main_ot_f": 9.1698318, "margwork_p": 254, "margwork_m": 176, "margwork_f": 78, "per_margwork_p": 3.15292949, "per_margwork_m": 69.29133858, "per_margwork_f": 30.70866142, "marg_cl_p": 11, "marg_cl_m": 4, "marg_cl_f": 7, "per_marg_cl_p": 4.33070866, "per_marg_cl_m": 36.36363636, "per_marg_cl_f": 63.63636364, "marg_al_p": 43, "marg_al_m": 21, "marg_al_f": 22, "per_marg_al_p": 16.92913386, "per_marg_al_m": 48.8372093, "per_marg_al_f": 51.1627907, "marg_hh_p": 15, "marg_hh_m": 8, "marg_hh_f": 7, "per_marg_hh_p": 5.90551181, "per_marg_hh_m": 53.33333333, "per_marg_hh_f": 46.66666667000001, "marg_ot_p": 185, "marg_ot_m": 143, "marg_ot_f": 42, "per_marg_ot_p": 72.83464567, "per_marg_ot_m": 77.2972973, "per_marg_ot_f": 22.7027027, "margwork_3_6_p": 216, "margwork_3_6_m": 150, "margwork_3_6_f": 66, "per_margwork_3_6_p": 85.03937008, "per_margwork_3_6_m": 69.44444444, "per_margwork_3_6_f": 30.55555556, "marg_cl_3_6_p": 10, "marg_cl_3_6_m": 3, "marg_cl_3_6_f": 7, "per_marg_cl_3_6_p": 3.93700787, "per_marg_cl_3_6_m": 30.0, "per_marg_cl_3_6_f": 70.0, "marg_al_3_6_p": 26, "marg_al_3_6_m": 11, "marg_al_3_6_f": 15, "per_marg_al_3_6_p": 10.23622047, "per_marg_al_3_6_m": 42.30769231, "per_marg_al_3_6_f": 57.69230769, "marg_hh_3_6_p": 14, "marg_hh_3_6_m": 8, "marg_hh_3_6_f": 6, "per_marg_hh_3_6_p": 5.51181102, "per_marg_hh_3_6_m": 57.14285714, "per_marg_hh_3_6_f": 42.85714286, "marg_ot_3_6_p": 166, "marg_ot_3_6_m": 128, "marg_ot_3_6_f": 38, "per_marg_ot_3_6_p": 65.35433071, "per_marg_ot_3_6_m": 77.10843373, "per_marg_ot_3_6_f": 22.89156627, "margwork_0_3_p": 38, "margwork_0_3_m": 26, "margwork_0_3_f": 12, "per_margwork_0_3_p": 14.96062992, "per_margwork_0_3_m": 68.42105263, "per_margwork_0_3_f": 31.57894737, "marg_cl_0_3_p": 1, "marg_cl_0_3_m": 1, "marg_cl_0_3_f": 0, "per_marg_cl_0_3_p": 0.39370079, "per_marg_cl_0_3_m": 100.0, "per_marg_cl_0_3_f": 0.0, "marg_al_0_3_p": 17, "marg_al_0_3_m": 10, "marg_al_0_3_f": 7, "per_marg_al_0_3_p": 6.69291339, "per_marg_al_0_3_m": 58.82352941000001, "per_marg_al_0_3_f": 41.17647059, "marg_hh_0_3_p": 1, "marg_hh_0_3_m": 0, "marg_hh_0_3_f": 1, "per_marg_hh_0_3_p": 0.39370079, "per_marg_hh_0_3_m": 0.0, "per_marg_hh_0_3_f": 100.0, "marg_ot_0_3_p": 19, "marg_ot_0_3_m": 15, "marg_ot_0_3_f": 4, "per_marg_ot_0_3_p": 7.48031496, "per_marg_ot_0_3_m": 78.94736842, "per_marg_ot_0_3_f": 21.05263158, "non_work_p": 5725, "non_work_m": 2127, "non_work_f": 3598, "per_non_work_p": 71.06504469, "per_non_work_m": 37.15283843, "per_non_work_f": 62.84716157, "per_hc_tot_tot": 100, "per_hc_tot_god": 36.1, "per_hc_tot_liv": 51.5, "per_hc_tot_dil": 12.4, "per_hc_res_tot": 85.7, "per_hc_res_god": 30.0, "per_hc_res_liv": 44.1, "per_hc_res_dil": 11.6, "per_hc_oth_tot": 14.3, "per_hc_oth_god": 6.1, "per_hc_oth_liv": 7.4, "per_hc_oth_dil": 0.7, "per_mt_grsbam": 10.6, "per_mt_plastic": 1.6, "per_mt_h_tiles": 15.7, "per_mt_m_tiles": 2.8, "per_mt_b_brick": 0.6, "per_mt_stone": 1.9, "per_mt_asbstos": 13.6, "per_mt_concrte": 52.8, "per_mt_oth": 0.5, "per_mw_grsbam": 5.8, "per_mw_plastic": 0.1, "per_mw_mud": 27.4, "per_mw_wood": 0.0, "per_mw_no_mrtr": 0.3, "per_mw_st_mrtr": 0.2, "per_mw_asbstos": 0.0, "per_mw_b_brick": 59.9, "per_mw_concrte": 6.1, "per_mw_oth": 0.2, "per_mf_mud": 36.0, "per_mf_wood": 0.1, "per_mf_b_brick": 3.9, "per_mf_stone": 0.0, "per_mf_cement": 59.3, "per_mf_fl_tile": 0.7, "per_mf_oth": 0.0, "per_dw_n_exrm": 7.0, "per_dw_1_room": 46.6, "per_dw_2_room": 29.8, "per_dw_3_room": 7.9, "per_dw_4_room": 5.5, "per_dw_5_room": 1.1, "per_dw_6_room": 2.0, "per_hhsize_1": 3.0, "per_hhsize_2": 7.2, "per_hhsize_3": 14.1, "per_hhsize_4": 25.4, "per_hhsize_5": 19.4, "per_hhsize_6_8": 23.0, "per_hhsize_9p": 7.7, "per_ow_owned": 94.4, "per_ow_rented": 4.9, "per_ow_oth": 0.7, "per_mc_none": 11.4, "per_mcouple_1": 66.5, "per_mcouple_2": 16.5, "per_mcouple_3": 3.9, "per_mcouple_4": 1.5, "per_mcouple_5p": 0.2, "per_dw_t_ts": 72.6, "per_dw_t_unts": 5.2, "per_dw_c_well": 0.7, "per_dw_unc_wel": 0.7, "per_dw_hpump": 5.6, "per_dw_tw_bore": 14.7, "per_dw_spring": 0.1, "per_dw_rivcan": 0.1, "per_dw_tank": 0.1, "per_dw_oth": 0.1, "per_loc_dw_wp": 14.8, "per_loc_dw_np": 52.0, "per_loc_dw_aw": 33.3, "per_light_elec": 71.1, "per_light_kero": 27.6, "per_light_solr": 0.7, "per_light_oil": 0.1, "per_light_oth": 0.3, "per_light_no": 0.1, "per_hh_latrine": 39.3, "per_fl_sewer": 1.5, "per_fl_septict": 35.7, "per_fl_othsys": 0.9, "per_pl_wslab": 0.3, "per_pl_without": 0.0, "per_ns_open": 0.1, "per_sl_ns_hum": 0.0, "per_sl_ns_anml": 0.9, "per_hh_no_lat": 60.7, "per_as_pub": 4.9, "per_as_open": 55.8, "per_hh_bathrm": 32.3, "per_hh_en_wrf": 10.4, "per_hh_no_btrm": 57.3, "per_wwoc_drain": 8.1, "per_wwoc_open": 30.1, "per_wwoc_nodrn": 61.8, "per_cook_fire": 53.3, "per_cook_resdu": 3.3, "per_cook_cwdng": 0.6, "per_cook_coal": 16.2, "per_cook_kero": 0.4, "per_cook_lpng": 18.2, "per_cook_elec": 0.0, "per_cook_biogs": 0.1, "per_cook_oth": 7.7, "per_cook_no": 0.2, "per_kf_inside": 97.3, "per_kf_in_has": 38.6, "per_kf_in_does": 58.7, "per_kf_outside": 2.4, "per_kf_out_has": 1.4, "per_kf_out_dos": 1.1, "per_kf_no_cook": 0.2, "per_hh_banking": 52.4, "per_hh_radio": 11.1, "per_hh_tv": 46.6, "per_hh_cmp_int": 1.9, "per_hh_cmp_wnt": 7.3, "per_hh_ph_ll": 2.2, "per_hh_ph_mob": 48.9, "per_hh_ph_bth": 3.7, "per_hh_bcycl": 47.2, "per_hh_2wheel": 14.3, "per_hh_4wheel": 3.9, "per_hh_tvcomp": 2.4, "per_hh_no_ast": 28.5, "per_hs_perma": 65.3, "per_hs_sperma": 22.7, "per_hs_temp": 11.4, "per_hs_servc": 9.3, "per_hs_nservc": 2.1, "per_hs_unclss": 0.7, "avghhsz_cy": 5.01306783, "st_areashape": 4097162.784501645, "st_lengthshape": 9929.739842484594}, "geometry": {"type": "Polygon", "coordinates": [[[86.35300000025553, 23.036929999613246], [86.35296000007258, 23.03692000012581], [86.3526799996901, 23.036279999973324], [86.35099000004438, 23.03384999922547], [86.35037999994901, 23.033350000116656], [86.35033999976606, 23.033100000279912], [86.35041000008626, 23.033020000432632], [86.3504900004522, 23.032920000143367], [86.35099000004438, 23.032819999779928], [86.35189999971541, 23.032260000341488], [86.35236000002294, 23.031689999527302], [86.35250999981078, 23.031009999637597], [86.35203999945749, 23.029909999944103], [86.35168999965312, 23.028870000064554], [86.35172999983611, 23.028159999591942], [86.35201999936602, 23.027290000504564], [86.35218000009792, 23.02680999985891], [86.35228999970275, 23.02581000046505], [86.35209999973196, 23.0246299998079], [86.35166999956164, 23.02381000009317], [86.35082000016507, 23.022880000359944], [86.3509200006225, 23.022579999851065], [86.35093999981568, 23.0225300003903], [86.35166000041421, 23.022280000328184], [86.35447999983897, 23.021800000033902], [86.3573899996754, 23.02167000031468], [86.35987000023984, 23.021569999872987], [86.36039999907094, 23.02132999950248], [86.36078999905827, 23.020939999436198], [86.3612700003556, 23.020899999217217], [86.36162999930741, 23.020869999665276], [86.3632400003838, 23.02113000052097], [86.36418999933946, 23.02113000052097], [86.36495000012098, 23.02110000019342], [86.3657899994718, 23.020959999954606], [86.3661999995506, 23.020310000189863], [86.36643999975016, 23.019929999575684], [86.3669999996168, 23.019289999776074], [86.36738999960414, 23.019259999865966], [86.3674499998786, 23.01929999974464], [86.36770000012386, 23.01951000056651], [86.367810000627, 23.01987000003355], [86.36792999937931, 23.020189999763463], [86.36808000006545, 23.020259999887372], [86.36850000019001, 23.020259999887372], [86.3704500001267, 23.019170000095574], [86.37151000048387, 23.018849999598803], [86.37269999963905, 23.018180000310853], [86.37319000008381, 23.018779999569777], [86.37319000008381, 23.01878999957615], [86.3731599999466, 23.01946999992337], [86.3731599999466, 23.01949999978675], [86.3731599999466, 23.019999999834564], [86.3735900001169, 23.020499999682006], [86.37430999981711, 23.02117999967407], [86.37426000048673, 23.021380000234995], [86.37420999935969, 23.021569999872987], [86.3723299997432, 23.021839999985893], [86.37098999990188, 23.02222999992941], [86.37022999912037, 23.022800000234415], [86.37005000009364, 23.023830000185857], [86.37040999994375, 23.026860000212594], [86.37071999956514, 23.027499999629548], [86.37117999987267, 23.02811000054717], [86.37305999948916, 23.02982999985669], [86.37428999972565, 23.031109999690678], [86.37451999987942, 23.03168000047774], [86.37444000041178, 23.03203999968924], [86.37418000012079, 23.032320000156414], [86.37371999981323, 23.03253999952487], [86.3727299997763, 23.03277999977911], [86.370399999898, 23.03297999966446], [86.36926000007321, 23.033119999820947], [86.36860999979486, 23.033329999783028], [86.36829999927517, 23.033610000050093], [86.36822999985328, 23.033689999547143], [86.36811000020266, 23.034109999847622], [86.36816000043139, 23.035319999831618], [86.36812999939585, 23.03610999949931], [86.36812999939585, 23.0364599997551], [86.36790000014038, 23.036779999783857], [86.36751999930046, 23.03709999987934], [86.36697999952533, 23.037310000252273], [86.36515000013753, 23.037160000019284], [86.36437999931027, 23.03673000063031], [86.36303999946895, 23.036619999451162], [86.36223999940276, 23.036789999281687], [86.36140000005196, 23.036929999613246], [86.36114000065928, 23.036929999613246], [86.36078999905827, 23.036829999745557], [86.36047999943688, 23.0367500004593], [86.35974999969092, 23.03575000041353], [86.35909999941259, 23.03546000003715], [86.35826000006175, 23.035560000094886], [86.35585999986326, 23.036330000120515], [86.35452000002192, 23.036929999613246], [86.35409999989736, 23.03704000053934], [86.35371999995577, 23.037029999406716], [86.35300000025553, 23.036929999613246]]]}}]}