{"type": "FeatureCollection", "features": [{"type": "Feature", "properties": {"premiumdata.sde.IN_Village_PCA.area": 3.68471069, "objectid": 33075, "id": "285035417663043", "name": "Jeedimakulapalle", "subdistrict": "Gangavaram", "district": "Chittoor", "state": "Andhra Pradesh", "country": "India", "censusname": "Jeedimakulapalle", "villagename_locallang": null, "lgd_villagename": "Jeedimakulapalle", "lgd_villagecode": 596586, "lgd_subdistrictcode": 5417, "lgd_districtcode": 503, "lgd_statecode": 28, "censuscode2001": "02759500", "censuscode2011": "596586", "censuscode2021": null, "level": "Village", "tru": "Rural", "no_hh": 456, "tot_p": 1923, "tot_m": 937, "tot_f": 986, "per_tot_m": 48.72594904, "per_tot_f": 51.27405096, "p_06": 207, "m_06": 102, "f_06": 105, "per_p_06": 10.76443058, "per_m_06": 49.27536232, "per_f_06": 50.72463768, "p_sc": 111, "m_sc": 55, "f_sc": 56, "per_p_sc": 5.77223089, "per_m_sc": 49.54954955, "per_f_sc": 50.45045045000001, "p_st": 7, "m_st": 4, "f_st": 3, "per_p_st": 0.36401456, "per_m_st": 57.14285714, "per_f_st": 42.85714286, "p_lit": 1119, "m_lit": 659, "f_lit": 460, "per_p_lit": 58.19032761, "per_m_lit": 58.89186774, "per_f_lit": 41.10813226, "p_ill": 804, "m_ill": 278, "f_ill": 526, "per_p_ill": 41.80967239, "per_m_ill": 34.57711443, "per_f_ill": 65.42288557, "tot_work_p": 1064, "tot_work_m": 549, "tot_work_f": 515, "per_tot_work_p": 55.33021321, "per_tot_work_m": 51.59774436, "per_tot_work_f": 48.40225564, "mainwork_p": 1057, "mainwork_m": 545, "mainwork_f": 512, "per_mainwork_p": 54.96619865, "per_mainwork_m": 51.56102176, "per_mainwork_f": 48.43897824, "main_cl_p": 321, "main_cl_m": 169, "main_cl_f": 152, "per_main_cl_p": 30.36896878, "per_main_cl_m": 52.64797508, "per_main_cl_f": 47.35202492, "main_al_p": 592, "main_al_m": 266, "main_al_f": 326, "per_main_al_p": 56.00756859, "per_main_al_m": 44.93243243, "per_main_al_f": 55.06756757, "main_hh_p": 4, "main_hh_m": 3, "main_hh_f": 1, "per_main_hh_p": 0.37842952, "per_main_hh_m": 75.0, "per_main_hh_f": 25.0, "main_ot_p": 140, "main_ot_m": 107, "main_ot_f": 33, "per_main_ot_p": 13.24503311, "per_main_ot_m": 76.42857143, "per_main_ot_f": 23.57142857, "margwork_p": 7, "margwork_m": 4, "margwork_f": 3, "per_margwork_p": 0.36401456, "per_margwork_m": 57.14285714, "per_margwork_f": 42.85714286, "marg_cl_p": 0, "marg_cl_m": 0, "marg_cl_f": 0, "per_marg_cl_p": 0.0, "per_marg_cl_m": 0.0, "per_marg_cl_f": 0.0, "marg_al_p": 0, "marg_al_m": 0, "marg_al_f": 0, "per_marg_al_p": 0.0, "per_marg_al_m": 0.0, "per_marg_al_f": 0.0, "marg_hh_p": 0, "marg_hh_m": 0, "marg_hh_f": 0, "per_marg_hh_p": 0.0, "per_marg_hh_m": 0.0, "per_marg_hh_f": 0.0, "marg_ot_p": 7, "marg_ot_m": 4, "marg_ot_f": 3, "per_marg_ot_p": 100.0, "per_marg_ot_m": 57.14285714, "per_marg_ot_f": 42.85714286, "margwork_3_6_p": 7, "margwork_3_6_m": 4, "margwork_3_6_f": 3, "per_margwork_3_6_p": 100.0, "per_margwork_3_6_m": 57.14285714, "per_margwork_3_6_f": 42.85714286, "marg_cl_3_6_p": 0, "marg_cl_3_6_m": 0, "marg_cl_3_6_f": 0, "per_marg_cl_3_6_p": 0.0, "per_marg_cl_3_6_m": 0.0, "per_marg_cl_3_6_f": 0.0, "marg_al_3_6_p": 0, "marg_al_3_6_m": 0, "marg_al_3_6_f": 0, "per_marg_al_3_6_p": 0.0, "per_marg_al_3_6_m": 0.0, "per_marg_al_3_6_f": 0.0, "marg_hh_3_6_p": 0, "marg_hh_3_6_m": 0, "marg_hh_3_6_f": 0, "per_marg_hh_3_6_p": 0.0, "per_marg_hh_3_6_m": 0.0, "per_marg_hh_3_6_f": 0.0, "marg_ot_3_6_p": 7, "marg_ot_3_6_m": 4, "marg_ot_3_6_f": 3, "per_marg_ot_3_6_p": 100.0, "per_marg_ot_3_6_m": 57.14285714, "per_marg_ot_3_6_f": 42.85714286, "margwork_0_3_p": 0, "margwork_0_3_m": 0, "margwork_0_3_f": 0, "per_margwork_0_3_p": 0.0, "per_margwork_0_3_m": 0.0, "per_margwork_0_3_f": 0.0, "marg_cl_0_3_p": 0, "marg_cl_0_3_m": 0, "marg_cl_0_3_f": 0, "per_marg_cl_0_3_p": 0.0, "per_marg_cl_0_3_m": 0.0, "per_marg_cl_0_3_f": 0.0, "marg_al_0_3_p": 0, "marg_al_0_3_m": 0, "marg_al_0_3_f": 0, "per_marg_al_0_3_p": 0.0, "per_marg_al_0_3_m": 0.0, "per_marg_al_0_3_f": 0.0, "marg_hh_0_3_p": 0, "marg_hh_0_3_m": 0, "marg_hh_0_3_f": 0, "per_marg_hh_0_3_p": 0.0, "per_marg_hh_0_3_m": 0.0, "per_marg_hh_0_3_f": 0.0, "marg_ot_0_3_p": 0, "marg_ot_0_3_m": 0, "marg_ot_0_3_f": 0, "per_marg_ot_0_3_p": 0.0, "per_marg_ot_0_3_m": 0.0, "per_marg_ot_0_3_f": 0.0, "non_work_p": 859, "non_work_m": 388, "non_work_f": 471, "per_non_work_p": 44.66978679, "per_non_work_m": 45.16880093, "per_non_work_f": 54.83119907, "per_hc_tot_tot": 100, "per_hc_tot_god": 85.0, "per_hc_tot_liv": 13.3, "per_hc_tot_dil": 1.7, "per_hc_res_tot": 99.6, "per_hc_res_god": 84.6, "per_hc_res_liv": 13.3, "per_hc_res_dil": 1.7, "per_hc_oth_tot": 0.4, "per_hc_oth_god": 0.4, "per_hc_oth_liv": 0.0, "per_hc_oth_dil": 0.0, "per_mt_grsbam": 7.2, "per_mt_plastic": 0.2, "per_mt_h_tiles": 6.1, "per_mt_m_tiles": 19.3, "per_mt_b_brick": 0.2, "per_mt_stone": 12.2, "per_mt_asbstos": 4.8, "per_mt_concrte": 50.0, "per_mt_oth": 0.0, "per_mw_grsbam": 2.0, "per_mw_plastic": 0.0, "per_mw_mud": 26.5, "per_mw_wood": 0.0, "per_mw_no_mrtr": 2.0, "per_mw_st_mrtr": 20.0, "per_mw_asbstos": 0.0, "per_mw_b_brick": 49.6, "per_mw_concrte": 0.0, "per_mw_oth": 0.0, "per_mf_mud": 27.4, "per_mf_wood": 0.0, "per_mf_b_brick": 0.0, "per_mf_stone": 0.9, "per_mf_cement": 69.1, "per_mf_fl_tile": 2.6, "per_mf_oth": 0.0, "per_dw_n_exrm": 0.7, "per_dw_1_room": 26.1, "per_dw_2_room": 31.5, "per_dw_3_room": 21.3, "per_dw_4_room": 15.2, "per_dw_5_room": 3.7, "per_dw_6_room": 1.5, "per_hhsize_1": 5.9, "per_hhsize_2": 8.0, "per_hhsize_3": 16.1, "per_hhsize_4": 31.5, "per_hhsize_5": 21.5, "per_hhsize_6_8": 15.4, "per_hhsize_9p": 1.5, "per_ow_owned": 92.6, "per_ow_rented": 6.5, "per_ow_oth": 0.9, "per_mc_none": 18.3, "per_mcouple_1": 65.7, "per_mcouple_2": 15.0, "per_mcouple_3": 1.1, "per_mcouple_4": 0.0, "per_mcouple_5p": 0.0, "per_dw_t_ts": 19.3, "per_dw_t_unts": 32.2, "per_dw_c_well": 0.0, "per_dw_unc_wel": 0.9, "per_dw_hpump": 44.6, "per_dw_tw_bore": 1.7, "per_dw_spring": 0.0, "per_dw_rivcan": 0.0, "per_dw_tank": 0.0, "per_dw_oth": 1.3, "per_loc_dw_wp": 17.0, "per_loc_dw_np": 32.8, "per_loc_dw_aw": 50.2, "per_light_elec": 85.7, "per_light_kero": 13.5, "per_light_solr": 0.4, "per_light_oil": 0.4, "per_light_oth": 0.0, "per_light_no": 0.0, "per_hh_latrine": 7.2, "per_fl_sewer": 0.4, "per_fl_septict": 6.7, "per_fl_othsys": 0.0, "per_pl_wslab": 0.0, "per_pl_without": 0.0, "per_ns_open": 0.0, "per_sl_ns_hum": 0.0, "per_sl_ns_anml": 0.0, "per_hh_no_lat": 92.8, "per_as_pub": 0.0, "per_as_open": 92.8, "per_hh_bathrm": 52.8, "per_hh_en_wrf": 11.1, "per_hh_no_btrm": 36.1, "per_wwoc_drain": 20.0, "per_wwoc_open": 35.9, "per_wwoc_nodrn": 44.1, "per_cook_fire": 88.0, "per_cook_resdu": 0.4, "per_cook_cwdng": 0.0, "per_cook_coal": 0.4, "per_cook_kero": 1.5, "per_cook_lpng": 6.7, "per_cook_elec": 0.0, "per_cook_biogs": 2.2, "per_cook_oth": 0.0, "per_cook_no": 0.7, "per_kf_inside": 75.7, "per_kf_in_has": 73.3, "per_kf_in_does": 2.4, "per_kf_outside": 23.7, "per_kf_out_has": 3.5, "per_kf_out_dos": 20.2, "per_kf_no_cook": 0.7, "per_hh_banking": 62.4, "per_hh_radio": 2.6, "per_hh_tv": 42.8, "per_hh_cmp_int": 0.7, "per_hh_cmp_wnt": 0.4, "per_hh_ph_ll": 0.7, "per_hh_ph_mob": 59.8, "per_hh_ph_bth": 0.7, "per_hh_bcycl": 26.1, "per_hh_2wheel": 14.6, "per_hh_4wheel": 0.2, "per_hh_tvcomp": 0.4, "per_hh_no_ast": 23.7, "per_hs_perma": 71.1, "per_hs_sperma": 22.0, "per_hs_temp": 7.0, "per_hs_servc": 6.5, "per_hs_nservc": 0.4, "per_hs_unclss": 0.0, "avghhsz_cy": 4.21710526, "st_areashape": 3911132.31474948, "st_lengthshape": 8740.148100620583}, "geometry": {"type": "Polygon", "coordinates": [[[78.68879000054945, 13.21440000033528], [78.68924000081122, 13.21421000004165], [78.68946000002094, 13.213840000149942], [78.68957999967155, 13.212699999674573], [78.68900999975915, 13.21167000041157], [78.68747999994703, 13.208439999514297], [78.68682999966867, 13.206230000190027], [78.6871000000054, 13.204260000249171], [78.68764000067891, 13.203490000036565], [78.6882599999217, 13.202990000074982], [78.68879999969687, 13.20258000039209], [78.6908599992384, 13.202170000020939], [78.69267999947877, 13.20153999964519], [78.69468999968991, 13.200710000042875], [78.69700000037504, 13.200450000029914], [78.69951999932582, 13.20036999963386], [78.70098999976183, 13.200269999320613], [78.70283000009367, 13.200189999740193], [78.70291000045961, 13.200179999790787], [78.70386999946102, 13.20120000039148], [78.70495999995539, 13.202410000236423], [78.70628000060357, 13.203329999460557], [78.70815999932174, 13.204380000233984], [78.71133999949494, 13.20572999971682], [78.71548999961357, 13.20648999929685], [78.71823000046902, 13.206879999187047], [78.71878999943733, 13.20688999973666], [78.71813000001156, 13.207540000474753], [78.71689999977512, 13.208499999798724], [78.71414000062481, 13.210360000426466], [78.71222999997275, 13.211770000428656], [78.71109000014798, 13.212849999926341], [78.70962999975774, 13.213339999523113], [78.70784999970034, 13.213640000022133], [78.70754000007895, 13.213649999420259], [78.70573999993009, 13.213710000172977], [78.70061999986596, 13.213910000243358], [78.69814000019983, 13.21415999966359], [78.69633000000522, 13.214549999542006], [78.69261000005689, 13.214690000175986], [78.68916000044528, 13.214500000108176], [78.68879000054945, 13.21440000033528]]]}}]}