{"type": "FeatureCollection", "features": [{"type": "Feature", "properties": {"premiumdata.sde.IN_Village_PCA.area": 0.42127909, "objectid": 615250, "id": "182932104243617", "name": "Bager Sangan", "subdistrict": "Patharkandi", "district": "Karimganj", "state": "Assam", "country": "India", "censusname": "Bager Sangan", "villagename_locallang": null, "lgd_villagename": "Bager Sangan", "lgd_villagecode": 300439, "lgd_subdistrictcode": 2104, "lgd_districtcode": 293, "lgd_statecode": 18, "censuscode2001": "02551200", "censuscode2011": "300439", "censuscode2021": null, "level": "Village", "tru": "Rural", "no_hh": 92, "tot_p": 448, "tot_m": 232, "tot_f": 216, "per_tot_m": 51.78571429, "per_tot_f": 48.21428571, "p_06": 70, "m_06": 39, "f_06": 31, "per_p_06": 15.625, "per_m_06": 55.71428571, "per_f_06": 44.28571429, "p_sc": 0, "m_sc": 0, "f_sc": 0, "per_p_sc": 0.0, "per_m_sc": 0.0, "per_f_sc": 0.0, "p_st": 0, "m_st": 0, "f_st": 0, "per_p_st": 0.0, "per_m_st": 0.0, "per_f_st": 0.0, "p_lit": 341, "m_lit": 180, "f_lit": 161, "per_p_lit": 76.11607143, "per_m_lit": 52.78592375, "per_f_lit": 47.21407625, "p_ill": 107, "m_ill": 52, "f_ill": 55, "per_p_ill": 23.88392857, "per_m_ill": 48.59813084, "per_f_ill": 51.40186916, "tot_work_p": 123, "tot_work_m": 121, "tot_work_f": 2, "per_tot_work_p": 27.45535714, "per_tot_work_m": 98.37398374, "per_tot_work_f": 1.62601626, "mainwork_p": 118, "mainwork_m": 116, "mainwork_f": 2, "per_mainwork_p": 26.33928571, "per_mainwork_m": 98.30508475, "per_mainwork_f": 1.69491525, "main_cl_p": 14, "main_cl_m": 14, "main_cl_f": 0, "per_main_cl_p": 11.86440678, "per_main_cl_m": 100.0, "per_main_cl_f": 0.0, "main_al_p": 33, "main_al_m": 33, "main_al_f": 0, "per_main_al_p": 27.96610169, "per_main_al_m": 100.0, "per_main_al_f": 0.0, "main_hh_p": 13, "main_hh_m": 13, "main_hh_f": 0, "per_main_hh_p": 11.01694915, "per_main_hh_m": 100.0, "per_main_hh_f": 0.0, "main_ot_p": 58, "main_ot_m": 56, "main_ot_f": 2, "per_main_ot_p": 49.15254237000001, "per_main_ot_m": 96.55172414, "per_main_ot_f": 3.44827586, "margwork_p": 5, "margwork_m": 5, "margwork_f": 0, "per_margwork_p": 1.11607143, "per_margwork_m": 100.0, "per_margwork_f": 0.0, "marg_cl_p": 0, "marg_cl_m": 0, "marg_cl_f": 0, "per_marg_cl_p": 0.0, "per_marg_cl_m": 0.0, "per_marg_cl_f": 0.0, "marg_al_p": 1, "marg_al_m": 1, "marg_al_f": 0, "per_marg_al_p": 20.0, "per_marg_al_m": 100.0, "per_marg_al_f": 0.0, "marg_hh_p": 1, "marg_hh_m": 1, "marg_hh_f": 0, "per_marg_hh_p": 20.0, "per_marg_hh_m": 100.0, "per_marg_hh_f": 0.0, "marg_ot_p": 3, "marg_ot_m": 3, "marg_ot_f": 0, "per_marg_ot_p": 60.0, "per_marg_ot_m": 100.0, "per_marg_ot_f": 0.0, "margwork_3_6_p": 5, "margwork_3_6_m": 5, "margwork_3_6_f": 0, "per_margwork_3_6_p": 100.0, "per_margwork_3_6_m": 100.0, "per_margwork_3_6_f": 0.0, "marg_cl_3_6_p": 0, "marg_cl_3_6_m": 0, "marg_cl_3_6_f": 0, "per_marg_cl_3_6_p": 0.0, "per_marg_cl_3_6_m": 0.0, "per_marg_cl_3_6_f": 0.0, "marg_al_3_6_p": 1, "marg_al_3_6_m": 1, "marg_al_3_6_f": 0, "per_marg_al_3_6_p": 20.0, "per_marg_al_3_6_m": 100.0, "per_marg_al_3_6_f": 0.0, "marg_hh_3_6_p": 1, "marg_hh_3_6_m": 1, "marg_hh_3_6_f": 0, "per_marg_hh_3_6_p": 20.0, "per_marg_hh_3_6_m": 100.0, "per_marg_hh_3_6_f": 0.0, "marg_ot_3_6_p": 3, "marg_ot_3_6_m": 3, "marg_ot_3_6_f": 0, "per_marg_ot_3_6_p": 60.0, "per_marg_ot_3_6_m": 100.0, "per_marg_ot_3_6_f": 0.0, "margwork_0_3_p": 0, "margwork_0_3_m": 0, "margwork_0_3_f": 0, "per_margwork_0_3_p": 0.0, "per_margwork_0_3_m": 0.0, "per_margwork_0_3_f": 0.0, "marg_cl_0_3_p": 0, "marg_cl_0_3_m": 0, "marg_cl_0_3_f": 0, "per_marg_cl_0_3_p": 0.0, "per_marg_cl_0_3_m": 0.0, "per_marg_cl_0_3_f": 0.0, "marg_al_0_3_p": 0, "marg_al_0_3_m": 0, "marg_al_0_3_f": 0, "per_marg_al_0_3_p": 0.0, "per_marg_al_0_3_m": 0.0, "per_marg_al_0_3_f": 0.0, "marg_hh_0_3_p": 0, "marg_hh_0_3_m": 0, "marg_hh_0_3_f": 0, "per_marg_hh_0_3_p": 0.0, "per_marg_hh_0_3_m": 0.0, "per_marg_hh_0_3_f": 0.0, "marg_ot_0_3_p": 0, "marg_ot_0_3_m": 0, "marg_ot_0_3_f": 0, "per_marg_ot_0_3_p": 0.0, "per_marg_ot_0_3_m": 0.0, "per_marg_ot_0_3_f": 0.0, "non_work_p": 325, "non_work_m": 111, "non_work_f": 214, "per_non_work_p": 72.54464286, "per_non_work_m": 34.15384615, "per_non_work_f": 65.84615385000001, "per_hc_tot_tot": 100, "per_hc_tot_god": 51.1, "per_hc_tot_liv": 25.0, "per_hc_tot_dil": 23.9, "per_hc_res_tot": 94.6, "per_hc_res_god": 47.8, "per_hc_res_liv": 23.9, "per_hc_res_dil": 22.8, "per_hc_oth_tot": 5.4, "per_hc_oth_god": 3.3, "per_hc_oth_liv": 1.1, "per_hc_oth_dil": 1.1, "per_mt_grsbam": 6.5, "per_mt_plastic": 0.0, "per_mt_h_tiles": 3.3, "per_mt_m_tiles": 0.0, "per_mt_b_brick": 0.0, "per_mt_stone": 2.2, "per_mt_asbstos": 83.7, "per_mt_concrte": 4.3, "per_mt_oth": 0.0, "per_mw_grsbam": 26.1, "per_mw_plastic": 0.0, "per_mw_mud": 0.0, "per_mw_wood": 8.7, "per_mw_no_mrtr": 1.1, "per_mw_st_mrtr": 0.0, "per_mw_asbstos": 0.0, "per_mw_b_brick": 64.1, "per_mw_concrte": 0.0, "per_mw_oth": 0.0, "per_mf_mud": 68.5, "per_mf_wood": 0.0, "per_mf_b_brick": 0.0, "per_mf_stone": 0.0, "per_mf_cement": 31.5, "per_mf_fl_tile": 0.0, "per_mf_oth": 0.0, "per_dw_n_exrm": 92.4, "per_dw_1_room": 7.6, "per_dw_2_room": 0.0, "per_dw_3_room": 0.0, "per_dw_4_room": 0.0, "per_dw_5_room": 0.0, "per_dw_6_room": 0.0, "per_hhsize_1": 6.5, "per_hhsize_2": 12.0, "per_hhsize_3": 9.8, "per_hhsize_4": 26.1, "per_hhsize_5": 17.4, "per_hhsize_6_8": 22.8, "per_hhsize_9p": 5.4, "per_ow_owned": 84.8, "per_ow_rented": 3.3, "per_ow_oth": 12.0, "per_mc_none": 16.3, "per_mcouple_1": 77.2, "per_mcouple_2": 4.3, "per_mcouple_3": 1.1, "per_mcouple_4": 0.0, "per_mcouple_5p": 1.1, "per_dw_t_ts": 18.5, "per_dw_t_unts": 0.0, "per_dw_c_well": 0.0, "per_dw_unc_wel": 0.0, "per_dw_hpump": 0.0, "per_dw_tw_bore": 64.1, "per_dw_spring": 0.0, "per_dw_rivcan": 0.0, "per_dw_tank": 17.4, "per_dw_oth": 0.0, "per_loc_dw_wp": 51.1, "per_loc_dw_np": 17.4, "per_loc_dw_aw": 31.5, "per_light_elec": 65.2, "per_light_kero": 34.8, "per_light_solr": 0.0, "per_light_oil": 0.0, "per_light_oth": 0.0, "per_light_no": 0.0, "per_hh_latrine": 84.8, "per_fl_sewer": 9.8, "per_fl_septict": 13.0, "per_fl_othsys": 0.0, "per_pl_wslab": 15.2, "per_pl_without": 46.7, "per_ns_open": 0.0, "per_sl_ns_hum": 0.0, "per_sl_ns_anml": 0.0, "per_hh_no_lat": 15.2, "per_as_pub": 7.6, "per_as_open": 7.6, "per_hh_bathrm": 26.1, "per_hh_en_wrf": 14.1, "per_hh_no_btrm": 59.8, "per_wwoc_drain": 0.0, "per_wwoc_open": 23.9, "per_wwoc_nodrn": 76.1, "per_cook_fire": 79.3, "per_cook_resdu": 0.0, "per_cook_cwdng": 0.0, "per_cook_coal": 0.0, "per_cook_kero": 4.3, "per_cook_lpng": 16.3, "per_cook_elec": 0.0, "per_cook_biogs": 0.0, "per_cook_oth": 0.0, "per_cook_no": 0.0, "per_kf_inside": 100.0, "per_kf_in_has": 100.0, "per_kf_in_does": 0.0, "per_kf_outside": 0.0, "per_kf_out_has": 0.0, "per_kf_out_dos": 0.0, "per_kf_no_cook": 0.0, "per_hh_banking": 55.4, "per_hh_radio": 6.5, "per_hh_tv": 28.3, "per_hh_cmp_int": 0.0, "per_hh_cmp_wnt": 9.8, "per_hh_ph_ll": 2.2, "per_hh_ph_mob": 71.7, "per_hh_ph_bth": 0.0, "per_hh_bcycl": 15.2, "per_hh_2wheel": 0.0, "per_hh_4wheel": 2.2, "per_hh_tvcomp": 0.0, "per_hh_no_ast": 23.9, "per_hs_perma": 65.2, "per_hs_sperma": 28.3, "per_hs_temp": 6.5, "per_hs_servc": 0.0, "per_hs_nservc": 6.5, "per_hs_unclss": 0.0, "avghhsz_cy": 4.86956522, "st_areashape": 511931.630932565, "st_lengthshape": 2845.939474701533}, "geometry": {"type": "Polygon", "coordinates": [[[92.32593045440902, 24.610052234678243], [92.3271032211821, 24.613874922236914], [92.32436500527915, 24.614361521593068], [92.32246356826671, 24.615658007831914], [92.3199679307281, 24.615009766800927], [92.31810152621514, 24.61474872043639], [92.31866069244519, 24.61112024678665], [92.32198820856445, 24.609931758529612], [92.32593045440902, 24.610052234678243]]]}}]}