{"type": "FeatureCollection", "features": [{"type": "Feature", "properties": {"premiumdata.sde.IN_Village_PCA.area": 0.42289432, "objectid": 571330, "id": "9126977434684", "name": "Bhagipur", "subdistrict": "Rasra", "district": "Ballia", "state": "Uttar Pradesh", "country": "India", "censusname": "Bhagipur", "villagename_locallang": null, "lgd_villagename": "Bhagipur", "lgd_villagecode": 198493, "lgd_subdistrictcode": 977, "lgd_districtcode": 126, "lgd_statecode": 9, "censuscode2001": "09158700", "censuscode2011": "198493", "censuscode2021": null, "level": "Village", "tru": "Rural", "no_hh": 45, "tot_p": 262, "tot_m": 130, "tot_f": 132, "per_tot_m": 49.61832061, "per_tot_f": 50.38167939, "p_06": 25, "m_06": 10, "f_06": 15, "per_p_06": 9.54198473, "per_m_06": 40.0, "per_f_06": 60.0, "p_sc": 0, "m_sc": 0, "f_sc": 0, "per_p_sc": 0.0, "per_m_sc": 0.0, "per_f_sc": 0.0, "p_st": 0, "m_st": 0, "f_st": 0, "per_p_st": 0.0, "per_m_st": 0.0, "per_f_st": 0.0, "p_lit": 162, "m_lit": 106, "f_lit": 56, "per_p_lit": 61.83206107, "per_m_lit": 65.43209877, "per_f_lit": 34.56790123, "p_ill": 100, "m_ill": 24, "f_ill": 76, "per_p_ill": 38.16793893000001, "per_m_ill": 24.0, "per_f_ill": 76.0, "tot_work_p": 44, "tot_work_m": 42, "tot_work_f": 2, "per_tot_work_p": 16.79389313, "per_tot_work_m": 95.45454545, "per_tot_work_f": 4.54545455, "mainwork_p": 17, "mainwork_m": 16, "mainwork_f": 1, "per_mainwork_p": 6.48854962, "per_mainwork_m": 94.11764706, "per_mainwork_f": 5.88235294, "main_cl_p": 2, "main_cl_m": 2, "main_cl_f": 0, "per_main_cl_p": 11.76470588, "per_main_cl_m": 100.0, "per_main_cl_f": 0.0, "main_al_p": 1, "main_al_m": 1, "main_al_f": 0, "per_main_al_p": 5.88235294, "per_main_al_m": 100.0, "per_main_al_f": 0.0, "main_hh_p": 2, "main_hh_m": 2, "main_hh_f": 0, "per_main_hh_p": 11.76470588, "per_main_hh_m": 100.0, "per_main_hh_f": 0.0, "main_ot_p": 12, "main_ot_m": 11, "main_ot_f": 1, "per_main_ot_p": 70.58823529, "per_main_ot_m": 91.66666667, "per_main_ot_f": 8.33333333, "margwork_p": 27, "margwork_m": 26, "margwork_f": 1, "per_margwork_p": 10.30534351, "per_margwork_m": 96.2962963, "per_margwork_f": 3.7037037, "marg_cl_p": 4, "marg_cl_m": 4, "marg_cl_f": 0, "per_marg_cl_p": 14.81481481, "per_marg_cl_m": 100.0, "per_marg_cl_f": 0.0, "marg_al_p": 12, "marg_al_m": 11, "marg_al_f": 1, "per_marg_al_p": 44.44444444000001, "per_marg_al_m": 91.66666667, "per_marg_al_f": 8.33333333, "marg_hh_p": 1, "marg_hh_m": 1, "marg_hh_f": 0, "per_marg_hh_p": 3.7037037, "per_marg_hh_m": 100.0, "per_marg_hh_f": 0.0, "marg_ot_p": 10, "marg_ot_m": 10, "marg_ot_f": 0, "per_marg_ot_p": 37.03703704, "per_marg_ot_m": 100.0, "per_marg_ot_f": 0.0, "margwork_3_6_p": 25, "margwork_3_6_m": 24, "margwork_3_6_f": 1, "per_margwork_3_6_p": 92.59259259, "per_margwork_3_6_m": 96.0, "per_margwork_3_6_f": 4.0, "marg_cl_3_6_p": 4, "marg_cl_3_6_m": 4, "marg_cl_3_6_f": 0, "per_marg_cl_3_6_p": 14.81481481, "per_marg_cl_3_6_m": 100.0, "per_marg_cl_3_6_f": 0.0, "marg_al_3_6_p": 11, "marg_al_3_6_m": 10, "marg_al_3_6_f": 1, "per_marg_al_3_6_p": 40.74074074, "per_marg_al_3_6_m": 90.90909091, "per_marg_al_3_6_f": 9.09090909, "marg_hh_3_6_p": 1, "marg_hh_3_6_m": 1, "marg_hh_3_6_f": 0, "per_marg_hh_3_6_p": 3.7037037, "per_marg_hh_3_6_m": 100.0, "per_marg_hh_3_6_f": 0.0, "marg_ot_3_6_p": 9, "marg_ot_3_6_m": 9, "marg_ot_3_6_f": 0, "per_marg_ot_3_6_p": 33.33333333, "per_marg_ot_3_6_m": 100.0, "per_marg_ot_3_6_f": 0.0, "margwork_0_3_p": 2, "margwork_0_3_m": 2, "margwork_0_3_f": 0, "per_margwork_0_3_p": 7.40740741, "per_margwork_0_3_m": 100.0, "per_margwork_0_3_f": 0.0, "marg_cl_0_3_p": 0, "marg_cl_0_3_m": 0, "marg_cl_0_3_f": 0, "per_marg_cl_0_3_p": 0.0, "per_marg_cl_0_3_m": 0.0, "per_marg_cl_0_3_f": 0.0, "marg_al_0_3_p": 1, "marg_al_0_3_m": 1, "marg_al_0_3_f": 0, "per_marg_al_0_3_p": 3.7037037, "per_marg_al_0_3_m": 100.0, "per_marg_al_0_3_f": 0.0, "marg_hh_0_3_p": 0, "marg_hh_0_3_m": 0, "marg_hh_0_3_f": 0, "per_marg_hh_0_3_p": 0.0, "per_marg_hh_0_3_m": 0.0, "per_marg_hh_0_3_f": 0.0, "marg_ot_0_3_p": 1, "marg_ot_0_3_m": 1, "marg_ot_0_3_f": 0, "per_marg_ot_0_3_p": 3.7037037, "per_marg_ot_0_3_m": 100.0, "per_marg_ot_0_3_f": 0.0, "non_work_p": 218, "non_work_m": 88, "non_work_f": 130, "per_non_work_p": 83.20610687000001, "per_non_work_m": 40.36697248, "per_non_work_f": 59.63302752000001, "per_hc_tot_tot": 100, "per_hc_tot_god": 18.2, "per_hc_tot_liv": 75.0, "per_hc_tot_dil": 6.8, "per_hc_res_tot": 100.0, "per_hc_res_god": 18.2, "per_hc_res_liv": 75.0, "per_hc_res_dil": 6.8, "per_hc_oth_tot": 0.0, "per_hc_oth_god": 0.0, "per_hc_oth_liv": 0.0, "per_hc_oth_dil": 0.0, "per_mt_grsbam": 4.5, "per_mt_plastic": 0.0, "per_mt_h_tiles": 0.0, "per_mt_m_tiles": 0.0, "per_mt_b_brick": 0.0, "per_mt_stone": 2.3, "per_mt_asbstos": 15.9, "per_mt_concrte": 77.3, "per_mt_oth": 0.0, "per_mw_grsbam": 4.5, "per_mw_plastic": 0.0, "per_mw_mud": 4.5, "per_mw_wood": 0.0, "per_mw_no_mrtr": 0.0, "per_mw_st_mrtr": 0.0, "per_mw_asbstos": 0.0, "per_mw_b_brick": 90.9, "per_mw_concrte": 0.0, "per_mw_oth": 0.0, "per_mf_mud": 88.6, "per_mf_wood": 0.0, "per_mf_b_brick": 4.5, "per_mf_stone": 0.0, "per_mf_cement": 6.8, "per_mf_fl_tile": 0.0, "per_mf_oth": 0.0, "per_dw_n_exrm": 0.0, "per_dw_1_room": 29.5, "per_dw_2_room": 47.7, "per_dw_3_room": 2.3, "per_dw_4_room": 6.8, "per_dw_5_room": 9.1, "per_dw_6_room": 4.5, "per_hhsize_1": 0.0, "per_hhsize_2": 2.3, "per_hhsize_3": 2.3, "per_hhsize_4": 6.8, "per_hhsize_5": 15.9, "per_hhsize_6_8": 45.5, "per_hhsize_9p": 27.3, "per_ow_owned": 100.0, "per_ow_rented": 0.0, "per_ow_oth": 0.0, "per_mc_none": 2.3, "per_mcouple_1": 61.4, "per_mcouple_2": 20.5, "per_mcouple_3": 13.6, "per_mcouple_4": 2.3, "per_mcouple_5p": 0.0, "per_dw_t_ts": 0.0, "per_dw_t_unts": 0.0, "per_dw_c_well": 0.0, "per_dw_unc_wel": 0.0, "per_dw_hpump": 100.0, "per_dw_tw_bore": 0.0, "per_dw_spring": 0.0, "per_dw_rivcan": 0.0, "per_dw_tank": 0.0, "per_dw_oth": 0.0, "per_loc_dw_wp": 65.9, "per_loc_dw_np": 18.2, "per_loc_dw_aw": 15.9, "per_light_elec": 13.6, "per_light_kero": 86.4, "per_light_solr": 0.0, "per_light_oil": 0.0, "per_light_oth": 0.0, "per_light_no": 0.0, "per_hh_latrine": 13.6, "per_fl_sewer": 0.0, "per_fl_septict": 2.3, "per_fl_othsys": 11.4, "per_pl_wslab": 0.0, "per_pl_without": 0.0, "per_ns_open": 0.0, "per_sl_ns_hum": 0.0, "per_sl_ns_anml": 0.0, "per_hh_no_lat": 86.4, "per_as_pub": 0.0, "per_as_open": 86.4, "per_hh_bathrm": 2.3, "per_hh_en_wrf": 2.3, "per_hh_no_btrm": 95.5, "per_wwoc_drain": 0.0, "per_wwoc_open": 36.4, "per_wwoc_nodrn": 63.6, "per_cook_fire": 25.0, "per_cook_resdu": 20.5, "per_cook_cwdng": 54.5, "per_cook_coal": 0.0, "per_cook_kero": 0.0, "per_cook_lpng": 0.0, "per_cook_elec": 0.0, "per_cook_biogs": 0.0, "per_cook_oth": 0.0, "per_cook_no": 0.0, "per_kf_inside": 100.0, "per_kf_in_has": 4.5, "per_kf_in_does": 95.5, "per_kf_outside": 0.0, "per_kf_out_has": 0.0, "per_kf_out_dos": 0.0, "per_kf_no_cook": 0.0, "per_hh_banking": 88.6, "per_hh_radio": 4.5, "per_hh_tv": 9.1, "per_hh_cmp_int": 0.0, "per_hh_cmp_wnt": 0.0, "per_hh_ph_ll": 0.0, "per_hh_ph_mob": 86.4, "per_hh_ph_bth": 0.0, "per_hh_bcycl": 68.2, "per_hh_2wheel": 4.5, "per_hh_4wheel": 2.3, "per_hh_tvcomp": 0.0, "per_hh_no_ast": 2.3, "per_hs_perma": 90.9, "per_hs_sperma": 4.5, "per_hs_temp": 4.5, "per_hs_servc": 0.0, "per_hs_nservc": 4.5, "per_hs_unclss": 0.0, "avghhsz_cy": 5.82222222, "st_areashape": 524448.122718305, "st_lengthshape": 3129.470853621927}, "geometry": {"type": "Polygon", "coordinates": [[[84.02211625248621, 25.865658953558256], [84.02176883893155, 25.865021980727725], [84.02091238424134, 25.863940941747344], [84.02026835326807, 25.862972605424744], [84.01964253743381, 25.861736720796284], [84.01927734532136, 25.861166989028973], [84.01872338303173, 25.86017896745672], [84.02088318001147, 25.859443156370588], [84.02233122652022, 25.859138638773906], [84.02365250097945, 25.859039433615436], [84.02490958542175, 25.85896994234216], [84.02591121325176, 25.85913605038552], [84.02655809727437, 25.859305305160436], [84.02739718214023, 25.859356186875555], [84.02855911163772, 25.859433361422997], [84.02842603251659, 25.859615227850405], [84.0281134403573, 25.85999998370091], [84.02777951051503, 25.860365840513328], [84.02658754225273, 25.86137885311659], [84.02625279314695, 25.861668300554186], [84.02604618152992, 25.862090316092544], [84.02602919708283, 25.862472440812333], [84.02588427996291, 25.86274112736408], [84.02557229506472, 25.863183165659212], [84.0255172274395, 25.863947599988464], [84.0256489060871, 25.86440478672859], [84.02565384412621, 25.865030193318553], [84.02506236010548, 25.865138521056235], [84.02320350683078, 25.8651055591708], [84.02265907836127, 25.86530811158181], [84.02211625248621, 25.865658953558256]]]}}]}