{"type": "FeatureCollection", "features": [{"type": "Feature", "properties": {"premiumdata.sde.IN_Village_PCA.area": 5.48373372, "objectid": 601487, "id": "102061086309702", "name": "Mahthour Got", "subdistrict": "Laukahi", "district": "Madhubani", "state": "Bihar", "country": "India", "censusname": "Mahthour Got", "villagename_locallang": null, "lgd_villagename": "Mahthour Got", "lgd_villagecode": 220062, "lgd_subdistrictcode": 1086, "lgd_districtcode": 206, "lgd_statecode": 10, "censuscode2001": "00409500", "censuscode2011": "220062", "censuscode2021": null, "level": "Village", "tru": "Rural", "no_hh": 582, "tot_p": 2709, "tot_m": 1337, "tot_f": 1372, "per_tot_m": 49.35400517, "per_tot_f": 50.64599483, "p_06": 558, "m_06": 288, "f_06": 270, "per_p_06": 20.59800664, "per_m_06": 51.61290323, "per_f_06": 48.38709677, "p_sc": 497, "m_sc": 236, "f_sc": 261, "per_p_sc": 18.34625323, "per_m_sc": 47.48490946, "per_f_sc": 52.51509054, "p_st": 0, "m_st": 0, "f_st": 0, "per_p_st": 0.0, "per_m_st": 0.0, "per_f_st": 0.0, "p_lit": 965, "m_lit": 652, "f_lit": 313, "per_p_lit": 35.62200074, "per_m_lit": 67.56476684, "per_f_lit": 32.43523316, "p_ill": 1744, "m_ill": 685, "f_ill": 1059, "per_p_ill": 64.37799926, "per_m_ill": 39.27752294, "per_f_ill": 60.72247706, "tot_work_p": 1284, "tot_work_m": 625, "tot_work_f": 659, "per_tot_work_p": 47.39756368, "per_tot_work_m": 48.67601246, "per_tot_work_f": 51.32398754, "mainwork_p": 1057, "mainwork_m": 479, "mainwork_f": 578, "per_mainwork_p": 39.01808786, "per_mainwork_m": 45.31693472, "per_mainwork_f": 54.68306528, "main_cl_p": 447, "main_cl_m": 252, "main_cl_f": 195, "per_main_cl_p": 42.28949858, "per_main_cl_m": 56.37583893, "per_main_cl_f": 43.62416107, "main_al_p": 581, "main_al_m": 204, "main_al_f": 377, "per_main_al_p": 54.96688742, "per_main_al_m": 35.11187608, "per_main_al_f": 64.88812392, "main_hh_p": 0, "main_hh_m": 0, "main_hh_f": 0, "per_main_hh_p": 0.0, "per_main_hh_m": 0.0, "per_main_hh_f": 0.0, "main_ot_p": 29, "main_ot_m": 23, "main_ot_f": 6, "per_main_ot_p": 2.743614, "per_main_ot_m": 79.31034483, "per_main_ot_f": 20.68965517, "margwork_p": 227, "margwork_m": 146, "margwork_f": 81, "per_margwork_p": 8.37947582, "per_margwork_m": 64.31718062, "per_margwork_f": 35.68281938, "marg_cl_p": 64, "marg_cl_m": 14, "marg_cl_f": 50, "per_marg_cl_p": 28.1938326, "per_marg_cl_m": 21.875, "per_marg_cl_f": 78.125, "marg_al_p": 157, "marg_al_m": 127, "marg_al_f": 30, "per_marg_al_p": 69.16299559, "per_marg_al_m": 80.89171975000001, "per_marg_al_f": 19.10828025, "marg_hh_p": 0, "marg_hh_m": 0, "marg_hh_f": 0, "per_marg_hh_p": 0.0, "per_marg_hh_m": 0.0, "per_marg_hh_f": 0.0, "marg_ot_p": 6, "marg_ot_m": 5, "marg_ot_f": 1, "per_marg_ot_p": 2.64317181, "per_marg_ot_m": 83.33333332999999, "per_marg_ot_f": 16.66666667, "margwork_3_6_p": 100, "margwork_3_6_m": 24, "margwork_3_6_f": 76, "per_margwork_3_6_p": 44.05286344, "per_margwork_3_6_m": 24.0, "per_margwork_3_6_f": 76.0, "marg_cl_3_6_p": 64, "marg_cl_3_6_m": 14, "marg_cl_3_6_f": 50, "per_marg_cl_3_6_p": 28.1938326, "per_marg_cl_3_6_m": 21.875, "per_marg_cl_3_6_f": 78.125, "marg_al_3_6_p": 30, "marg_al_3_6_m": 5, "marg_al_3_6_f": 25, "per_marg_al_3_6_p": 13.21585903, "per_marg_al_3_6_m": 16.66666667, "per_marg_al_3_6_f": 83.33333332999999, "marg_hh_3_6_p": 0, "marg_hh_3_6_m": 0, "marg_hh_3_6_f": 0, "per_marg_hh_3_6_p": 0.0, "per_marg_hh_3_6_m": 0.0, "per_marg_hh_3_6_f": 0.0, "marg_ot_3_6_p": 6, "marg_ot_3_6_m": 5, "marg_ot_3_6_f": 1, "per_marg_ot_3_6_p": 2.64317181, "per_marg_ot_3_6_m": 83.33333332999999, "per_marg_ot_3_6_f": 16.66666667, "margwork_0_3_p": 127, "margwork_0_3_m": 122, "margwork_0_3_f": 5, "per_margwork_0_3_p": 55.94713656, "per_margwork_0_3_m": 96.06299213, "per_margwork_0_3_f": 3.93700787, "marg_cl_0_3_p": 0, "marg_cl_0_3_m": 0, "marg_cl_0_3_f": 0, "per_marg_cl_0_3_p": 0.0, "per_marg_cl_0_3_m": 0.0, "per_marg_cl_0_3_f": 0.0, "marg_al_0_3_p": 127, "marg_al_0_3_m": 122, "marg_al_0_3_f": 5, "per_marg_al_0_3_p": 55.94713656, "per_marg_al_0_3_m": 96.06299213, "per_marg_al_0_3_f": 3.93700787, "marg_hh_0_3_p": 0, "marg_hh_0_3_m": 0, "marg_hh_0_3_f": 0, "per_marg_hh_0_3_p": 0.0, "per_marg_hh_0_3_m": 0.0, "per_marg_hh_0_3_f": 0.0, "marg_ot_0_3_p": 0, "marg_ot_0_3_m": 0, "marg_ot_0_3_f": 0, "per_marg_ot_0_3_p": 0.0, "per_marg_ot_0_3_m": 0.0, "per_marg_ot_0_3_f": 0.0, "non_work_p": 1425, "non_work_m": 712, "non_work_f": 713, "per_non_work_p": 52.60243632, "per_non_work_m": 49.96491228, "per_non_work_f": 50.03508772, "per_hc_tot_tot": 100, "per_hc_tot_god": 35.4, "per_hc_tot_liv": 62.2, "per_hc_tot_dil": 2.5, "per_hc_res_tot": 97.2, "per_hc_res_god": 34.7, "per_hc_res_liv": 60.1, "per_hc_res_dil": 2.5, "per_hc_oth_tot": 2.8, "per_hc_oth_god": 0.7, "per_hc_oth_liv": 2.1, "per_hc_oth_dil": 0.0, "per_mt_grsbam": 77.6, "per_mt_plastic": 0.2, "per_mt_h_tiles": 0.7, "per_mt_m_tiles": 0.0, "per_mt_b_brick": 0.2, "per_mt_stone": 0.0, "per_mt_asbstos": 14.4, "per_mt_concrte": 6.9, "per_mt_oth": 0.2, "per_mw_grsbam": 59.6, "per_mw_plastic": 0.2, "per_mw_mud": 29.5, "per_mw_wood": 0.0, "per_mw_no_mrtr": 0.2, "per_mw_st_mrtr": 0.0, "per_mw_asbstos": 0.0, "per_mw_b_brick": 4.3, "per_mw_concrte": 6.4, "per_mw_oth": 0.0, "per_mf_mud": 93.3, "per_mf_wood": 0.0, "per_mf_b_brick": 1.1, "per_mf_stone": 0.0, "per_mf_cement": 0.0, "per_mf_fl_tile": 5.4, "per_mf_oth": 0.2, "per_dw_n_exrm": 0.0, "per_dw_1_room": 48.0, "per_dw_2_room": 39.3, "per_dw_3_room": 10.8, "per_dw_4_room": 1.3, "per_dw_5_room": 0.3, "per_dw_6_room": 0.3, "per_hhsize_1": 0.8, "per_hhsize_2": 9.3, "per_hhsize_3": 13.7, "per_hhsize_4": 18.2, "per_hhsize_5": 22.3, "per_hhsize_6_8": 32.2, "per_hhsize_9p": 3.4, "per_ow_owned": 99.7, "per_ow_rented": 0.0, "per_ow_oth": 0.3, "per_mc_none": 3.6, "per_mcouple_1": 83.1, "per_mcouple_2": 10.8, "per_mcouple_3": 2.1, "per_mcouple_4": 0.3, "per_mcouple_5p": 0.0, "per_dw_t_ts": 1.6, "per_dw_t_unts": 0.0, "per_dw_c_well": 0.2, "per_dw_unc_wel": 0.0, "per_dw_hpump": 98.2, "per_dw_tw_bore": 0.0, "per_dw_spring": 0.0, "per_dw_rivcan": 0.0, "per_dw_tank": 0.0, "per_dw_oth": 0.0, "per_loc_dw_wp": 32.4, "per_loc_dw_np": 60.9, "per_loc_dw_aw": 6.7, "per_light_elec": 0.2, "per_light_kero": 98.5, "per_light_solr": 1.1, "per_light_oil": 0.0, "per_light_oth": 0.2, "per_light_no": 0.0, "per_hh_latrine": 7.0, "per_fl_sewer": 0.0, "per_fl_septict": 4.1, "per_fl_othsys": 2.9, "per_pl_wslab": 0.0, "per_pl_without": 0.0, "per_ns_open": 0.0, "per_sl_ns_hum": 0.0, "per_sl_ns_anml": 0.0, "per_hh_no_lat": 93.0, "per_as_pub": 0.0, "per_as_open": 93.0, "per_hh_bathrm": 1.6, "per_hh_en_wrf": 11.1, "per_hh_no_btrm": 87.2, "per_wwoc_drain": 0.2, "per_wwoc_open": 2.8, "per_wwoc_nodrn": 97.1, "per_cook_fire": 0.8, "per_cook_resdu": 10.8, "per_cook_cwdng": 88.4, "per_cook_coal": 0.0, "per_cook_kero": 0.0, "per_cook_lpng": 0.0, "per_cook_elec": 0.0, "per_cook_biogs": 0.0, "per_cook_oth": 0.0, "per_cook_no": 0.0, "per_kf_inside": 84.5, "per_kf_in_has": 40.4, "per_kf_in_does": 44.0, "per_kf_outside": 15.5, "per_kf_out_has": 14.7, "per_kf_out_dos": 0.8, "per_kf_no_cook": 0.0, "per_hh_banking": 20.6, "per_hh_radio": 38.6, "per_hh_tv": 1.0, "per_hh_cmp_int": 0.2, "per_hh_cmp_wnt": 17.5, "per_hh_ph_ll": 2.8, "per_hh_ph_mob": 47.3, "per_hh_ph_bth": 0.3, "per_hh_bcycl": 51.4, "per_hh_2wheel": 3.4, "per_hh_4wheel": 1.1, "per_hh_tvcomp": 0.0, "per_hh_no_ast": 20.1, "per_hs_perma": 9.0, "per_hs_sperma": 14.9, "per_hs_temp": 75.9, "per_hs_servc": 23.9, "per_hs_nservc": 52.0, "per_hs_unclss": 0.2, "avghhsz_cy": 4.65463918, "st_areashape": 6860380.352211965, "st_lengthshape": 13042.512243218105}, "geometry": {"type": "Polygon", "coordinates": [[[86.65447895475707, 26.390994158907], [86.65352176299093, 26.391405125229525], [86.65229919002522, 26.391417099038023], [86.6489041493427, 26.391215608161907], [86.64773826995291, 26.391353394821966], [86.64742721570936, 26.39132482021142], [86.64709782325762, 26.3910166621819], [86.64670237498808, 26.389811302869838], [86.64654059379528, 26.389275964386183], [86.64631272264877, 26.389075082156417], [86.64566039034395, 26.38900475711881], [86.64527721665445, 26.388805502344802], [86.64510080909221, 26.388310835839995], [86.64489320214184, 26.388127872920432], [86.64430658609162, 26.388101981234612], [86.64301097111019, 26.38786646118078], [86.64225490225466, 26.3875037782694], [86.64081540411415, 26.386556737208384], [86.64022827602422, 26.38648573708176], [86.63976235581896, 26.386490242741168], [86.63934650411439, 26.38607460920522], [86.63926558387358, 26.38517748138204], [86.63917412729282, 26.384654985163536], [86.63893135399404, 26.384467798810906], [86.63822398011514, 26.384398031066944], [86.6342907928819, 26.384842138218584], [86.6331402665986, 26.385006696398246], [86.63301060017723, 26.382963945979643], [86.63276230762932, 26.38230759782487], [86.63168168195322, 26.38118540678235], [86.6299828401902, 26.380331031345293], [86.62805734090456, 26.378941725145754], [86.62793393843566, 26.378681235012714], [86.62798744119566, 26.377281941650907], [86.62795692632379, 26.375129919119594], [86.62812376413329, 26.37483502375467], [86.6290497080023, 26.374329775329546], [86.6299451486775, 26.374212891041047], [86.63016340964715, 26.374025747324502], [86.63040426594112, 26.373635452012287], [86.63039873681055, 26.37233146524414], [86.63069907774602, 26.371462254891654], [86.63105113199744, 26.370727856883352], [86.6315259976263, 26.37021345879658], [86.63215666436308, 26.3697426277661], [86.63260011231318, 26.369120176282504], [86.63283457978886, 26.368608055205414], [86.63519871474963, 26.368138497352067], [86.63808947087605, 26.368128547751986], [86.63925099433504, 26.368473752979813], [86.64015361075278, 26.369380921374827], [86.64177637958429, 26.371003099841413], [86.64245378386867, 26.37151092297616], [86.64343236991164, 26.371641236158528], [86.64411036798242, 26.371770049798876], [86.64554814584919, 26.37259532580271], [86.64702503187182, 26.373745051704166], [86.6472672041977, 26.373878020666446], [86.64795239687561, 26.373781113827068], [86.64873903090864, 26.37336729932449], [86.65073330521246, 26.372964344385718], [86.65115708005781, 26.372788681031327], [86.65173739442633, 26.372300209081278], [86.65272724893622, 26.371703979013272], [86.65447318038643, 26.371068742856483], [86.65594552542531, 26.37018346002474], [86.65951986983853, 26.368704418280068], [86.6601787930826, 26.367923096609204], [86.6606848059973, 26.368058426468497], [86.66220647303686, 26.370031636646576], [86.66391584574997, 26.371341274331044], [86.66453987214018, 26.37197134522077], [86.66378621885447, 26.372628478851894], [86.66299681711205, 26.37280779231325], [86.66213973988934, 26.372784659339867], [86.6617418697618, 26.37302314773536], [86.65957924039397, 26.374416128237886], [86.65886335138451, 26.374874403755257], [86.65809755197782, 26.375766353029167], [86.6578761226502, 26.376928092706773], [86.65788645237765, 26.37778081130669], [86.65799780664194, 26.378289566371006], [86.65818582223429, 26.378504283846823], [86.65867389130119, 26.378670957970037], [86.6588954302233, 26.3787590258384], [86.65905297855444, 26.37894244864144], [86.6590559959955, 26.379190642809583], [86.65870040507681, 26.379613770221056], [86.65853143736176, 26.380143302813494], [86.65870574915445, 26.381702789966273], [86.65881329815517, 26.382306355283323], [86.65888769393206, 26.382662089384226], [86.65877031915875, 26.382893313829733], [86.65841183566481, 26.383086378209782], [86.65815159193038, 26.383115968842848], [86.65779092463204, 26.383119545148386], [86.65741785070128, 26.38334434840164], [86.65728163825642, 26.383684100284746], [86.65747973025131, 26.384318337607596], [86.6578647607585, 26.3850725938011], [86.65781760279933, 26.38532117636029], [86.65742393409235, 26.385496490719234], [86.65658212283962, 26.385504809240278], [86.65581113476387, 26.385557524041193], [86.65557137261789, 26.385622976113062], [86.65533300825055, 26.385796830232675], [86.65531975720175, 26.386356462645498], [86.6546124731544, 26.386715366151854], [86.65439040692122, 26.386997263897538], [86.65435945277316, 26.387340447626446], [86.65452325517535, 26.388038296112224], [86.655285635594, 26.38974537839687], [86.65520089841156, 26.390197380818602], [86.65489156444183, 26.390308698924077], [86.65449681595986, 26.390407354993226], [86.65437846920942, 26.390561918144616], [86.65447895475707, 26.390994158907]]]}}]}