{"type": "FeatureCollection", "features": [{"type": "Feature", "properties": {"premiumdata.sde.IN_Village_PCA.area": 4.70441388, "objectid": 289805, "id": "9165870375450", "name": "Bhati Pura", "subdistrict": "Mahoba", "district": "Mahoba", "state": "Uttar Pradesh", "country": "India", "censusname": "Bhati Pura", "villagename_locallang": null, "lgd_villagename": "Bhati Pura", "lgd_villagecode": 154732, "lgd_subdistrictcode": 870, "lgd_districtcode": 165, "lgd_statecode": 9, "censuscode2001": "04776000", "censuscode2011": "154732", "censuscode2021": null, "level": "Village", "tru": "Rural", "no_hh": 1, "tot_p": 1, "tot_m": 1, "tot_f": 0, "per_tot_m": 100.0, "per_tot_f": 0.0, "p_06": 0, "m_06": 0, "f_06": 0, "per_p_06": 0.0, "per_m_06": 0.0, "per_f_06": 0.0, "p_sc": 0, "m_sc": 0, "f_sc": 0, "per_p_sc": 0.0, "per_m_sc": 0.0, "per_f_sc": 0.0, "p_st": 0, "m_st": 0, "f_st": 0, "per_p_st": 0.0, "per_m_st": 0.0, "per_f_st": 0.0, "p_lit": 1, "m_lit": 1, "f_lit": 0, "per_p_lit": 100.0, "per_m_lit": 100.0, "per_f_lit": 0.0, "p_ill": 0, "m_ill": 0, "f_ill": 0, "per_p_ill": 0.0, "per_m_ill": 0.0, "per_f_ill": 0.0, "tot_work_p": 1, "tot_work_m": 1, "tot_work_f": 0, "per_tot_work_p": 100.0, "per_tot_work_m": 100.0, "per_tot_work_f": 0.0, "mainwork_p": 1, "mainwork_m": 1, "mainwork_f": 0, "per_mainwork_p": 100.0, "per_mainwork_m": 100.0, "per_mainwork_f": 0.0, "main_cl_p": 1, "main_cl_m": 1, "main_cl_f": 0, "per_main_cl_p": 100.0, "per_main_cl_m": 100.0, "per_main_cl_f": 0.0, "main_al_p": 0, "main_al_m": 0, "main_al_f": 0, "per_main_al_p": 0.0, "per_main_al_m": 0.0, "per_main_al_f": 0.0, "main_hh_p": 0, "main_hh_m": 0, "main_hh_f": 0, "per_main_hh_p": 0.0, "per_main_hh_m": 0.0, "per_main_hh_f": 0.0, "main_ot_p": 0, "main_ot_m": 0, "main_ot_f": 0, "per_main_ot_p": 0.0, "per_main_ot_m": 0.0, "per_main_ot_f": 0.0, "margwork_p": 0, "margwork_m": 0, "margwork_f": 0, "per_margwork_p": 0.0, "per_margwork_m": 0.0, "per_margwork_f": 0.0, "marg_cl_p": 0, "marg_cl_m": 0, "marg_cl_f": 0, "per_marg_cl_p": 0.0, "per_marg_cl_m": 0.0, "per_marg_cl_f": 0.0, "marg_al_p": 0, "marg_al_m": 0, "marg_al_f": 0, "per_marg_al_p": 0.0, "per_marg_al_m": 0.0, "per_marg_al_f": 0.0, "marg_hh_p": 0, "marg_hh_m": 0, "marg_hh_f": 0, "per_marg_hh_p": 0.0, "per_marg_hh_m": 0.0, "per_marg_hh_f": 0.0, "marg_ot_p": 0, "marg_ot_m": 0, "marg_ot_f": 0, "per_marg_ot_p": 0.0, "per_marg_ot_m": 0.0, "per_marg_ot_f": 0.0, "margwork_3_6_p": 0, "margwork_3_6_m": 0, "margwork_3_6_f": 0, "per_margwork_3_6_p": 0.0, "per_margwork_3_6_m": 0.0, "per_margwork_3_6_f": 0.0, "marg_cl_3_6_p": 0, "marg_cl_3_6_m": 0, "marg_cl_3_6_f": 0, "per_marg_cl_3_6_p": 0.0, "per_marg_cl_3_6_m": 0.0, "per_marg_cl_3_6_f": 0.0, "marg_al_3_6_p": 0, "marg_al_3_6_m": 0, "marg_al_3_6_f": 0, "per_marg_al_3_6_p": 0.0, "per_marg_al_3_6_m": 0.0, "per_marg_al_3_6_f": 0.0, "marg_hh_3_6_p": 0, "marg_hh_3_6_m": 0, "marg_hh_3_6_f": 0, "per_marg_hh_3_6_p": 0.0, "per_marg_hh_3_6_m": 0.0, "per_marg_hh_3_6_f": 0.0, "marg_ot_3_6_p": 0, "marg_ot_3_6_m": 0, "marg_ot_3_6_f": 0, "per_marg_ot_3_6_p": 0.0, "per_marg_ot_3_6_m": 0.0, "per_marg_ot_3_6_f": 0.0, "margwork_0_3_p": 0, "margwork_0_3_m": 0, "margwork_0_3_f": 0, "per_margwork_0_3_p": 0.0, "per_margwork_0_3_m": 0.0, "per_margwork_0_3_f": 0.0, "marg_cl_0_3_p": 0, "marg_cl_0_3_m": 0, "marg_cl_0_3_f": 0, "per_marg_cl_0_3_p": 0.0, "per_marg_cl_0_3_m": 0.0, "per_marg_cl_0_3_f": 0.0, "marg_al_0_3_p": 0, "marg_al_0_3_m": 0, "marg_al_0_3_f": 0, "per_marg_al_0_3_p": 0.0, "per_marg_al_0_3_m": 0.0, "per_marg_al_0_3_f": 0.0, "marg_hh_0_3_p": 0, "marg_hh_0_3_m": 0, "marg_hh_0_3_f": 0, "per_marg_hh_0_3_p": 0.0, "per_marg_hh_0_3_m": 0.0, "per_marg_hh_0_3_f": 0.0, "marg_ot_0_3_p": 0, "marg_ot_0_3_m": 0, "marg_ot_0_3_f": 0, "per_marg_ot_0_3_p": 0.0, "per_marg_ot_0_3_m": 0.0, "per_marg_ot_0_3_f": 0.0, "non_work_p": 0, "non_work_m": 0, "non_work_f": 0, "per_non_work_p": 0.0, "per_non_work_m": 0.0, "per_non_work_f": 0.0, "per_hc_tot_tot": 100, "per_hc_tot_god": 0.0, "per_hc_tot_liv": 100.0, "per_hc_tot_dil": 0.0, "per_hc_res_tot": 100.0, "per_hc_res_god": 0.0, "per_hc_res_liv": 100.0, "per_hc_res_dil": 0.0, "per_hc_oth_tot": 0.0, "per_hc_oth_god": 0.0, "per_hc_oth_liv": 0.0, "per_hc_oth_dil": 0.0, "per_mt_grsbam": 100.0, "per_mt_plastic": 0.0, "per_mt_h_tiles": 0.0, "per_mt_m_tiles": 0.0, "per_mt_b_brick": 0.0, "per_mt_stone": 0.0, "per_mt_asbstos": 0.0, "per_mt_concrte": 0.0, "per_mt_oth": 0.0, "per_mw_grsbam": 0.0, "per_mw_plastic": 0.0, "per_mw_mud": 100.0, "per_mw_wood": 0.0, "per_mw_no_mrtr": 0.0, "per_mw_st_mrtr": 0.0, "per_mw_asbstos": 0.0, "per_mw_b_brick": 0.0, "per_mw_concrte": 0.0, "per_mw_oth": 0.0, "per_mf_mud": 100.0, "per_mf_wood": 0.0, "per_mf_b_brick": 0.0, "per_mf_stone": 0.0, "per_mf_cement": 0.0, "per_mf_fl_tile": 0.0, "per_mf_oth": 0.0, "per_dw_n_exrm": 0.0, "per_dw_1_room": 100.0, "per_dw_2_room": 0.0, "per_dw_3_room": 0.0, "per_dw_4_room": 0.0, "per_dw_5_room": 0.0, "per_dw_6_room": 0.0, "per_hhsize_1": 100.0, "per_hhsize_2": 0.0, "per_hhsize_3": 0.0, "per_hhsize_4": 0.0, "per_hhsize_5": 0.0, "per_hhsize_6_8": 0.0, "per_hhsize_9p": 0.0, "per_ow_owned": 100.0, "per_ow_rented": 0.0, "per_ow_oth": 0.0, "per_mc_none": 100.0, "per_mcouple_1": 0.0, "per_mcouple_2": 0.0, "per_mcouple_3": 0.0, "per_mcouple_4": 0.0, "per_mcouple_5p": 0.0, "per_dw_t_ts": 0.0, "per_dw_t_unts": 0.0, "per_dw_c_well": 0.0, "per_dw_unc_wel": 0.0, "per_dw_hpump": 0.0, "per_dw_tw_bore": 100.0, "per_dw_spring": 0.0, "per_dw_rivcan": 0.0, "per_dw_tank": 0.0, "per_dw_oth": 0.0, "per_loc_dw_wp": 100.0, "per_loc_dw_np": 0.0, "per_loc_dw_aw": 0.0, "per_light_elec": 0.0, "per_light_kero": 100.0, "per_light_solr": 0.0, "per_light_oil": 0.0, "per_light_oth": 0.0, "per_light_no": 0.0, "per_hh_latrine": 0.0, "per_fl_sewer": 0.0, "per_fl_septict": 0.0, "per_fl_othsys": 0.0, "per_pl_wslab": 0.0, "per_pl_without": 0.0, "per_ns_open": 0.0, "per_sl_ns_hum": 0.0, "per_sl_ns_anml": 0.0, "per_hh_no_lat": 100.0, "per_as_pub": 0.0, "per_as_open": 100.0, "per_hh_bathrm": 0.0, "per_hh_en_wrf": 0.0, "per_hh_no_btrm": 100.0, "per_wwoc_drain": 0.0, "per_wwoc_open": 0.0, "per_wwoc_nodrn": 100.0, "per_cook_fire": 100.0, "per_cook_resdu": 0.0, "per_cook_cwdng": 0.0, "per_cook_coal": 0.0, "per_cook_kero": 0.0, "per_cook_lpng": 0.0, "per_cook_elec": 0.0, "per_cook_biogs": 0.0, "per_cook_oth": 0.0, "per_cook_no": 0.0, "per_kf_inside": 100.0, "per_kf_in_has": 0.0, "per_kf_in_does": 100.0, "per_kf_outside": 0.0, "per_kf_out_has": 0.0, "per_kf_out_dos": 0.0, "per_kf_no_cook": 0.0, "per_hh_banking": 100.0, "per_hh_radio": 0.0, "per_hh_tv": 0.0, "per_hh_cmp_int": 0.0, "per_hh_cmp_wnt": 100.0, "per_hh_ph_ll": 0.0, "per_hh_ph_mob": 0.0, "per_hh_ph_bth": 0.0, "per_hh_bcycl": 0.0, "per_hh_2wheel": 0.0, "per_hh_4wheel": 0.0, "per_hh_tvcomp": 0.0, "per_hh_no_ast": 0.0, "per_hs_perma": 0.0, "per_hs_sperma": 0.0, "per_hs_temp": 100.0, "per_hs_servc": 100.0, "per_hs_nservc": 0.0, "per_hs_unclss": 0.0, "avghhsz_cy": 1.0, "st_areashape": 5777700.191572985, "st_lengthshape": 11478.673431352445}, "geometry": {"type": "Polygon", "coordinates": [[[79.88110973049217, 25.259555745243492], [79.88189430109504, 25.2604415281141], [79.88219111434638, 25.260753478409985], [79.882595002288, 25.261050948287007], [79.88307036019364, 25.261333270862917], [79.88379097164658, 25.261829714955333], [79.88461475550818, 25.26252190871507], [79.88577066719161, 25.263542790855993], [79.88685542691465, 25.264562575812345], [79.88739810277103, 25.265056296583744], [79.88797785479413, 25.265469668318318], [79.88856915466026, 25.266222991421184], [79.88937265546105, 25.26801512080666], [79.88954136266467, 25.268519271262537], [79.88966262983814, 25.26869910126418], [79.88996248029346, 25.26884931317806], [79.89045865396089, 25.268970161382455], [79.89091926691944, 25.269090465186572], [79.89154060914359, 25.269180846497015], [79.89214326910476, 25.269319479296254], [79.89263770453208, 25.26953735883441], [79.89302264251278, 25.269899199971153], [79.8934389829009, 25.270488034868105], [79.8938010812155, 25.271124610843703], [79.89441161401184, 25.27276811488989], [79.89431100449666, 25.273397605142566], [79.89428127026072, 25.274044369471696], [79.89459735057831, 25.275246528160135], [79.8947494703902, 25.275685726834265], [79.89506055607478, 25.276192051662676], [79.8954944315772, 25.276797338540618], [79.89564566205696, 25.277285045613944], [79.89565603310693, 25.277689709265246], [79.89586330139245, 25.27803263853627], [79.89619581009993, 25.278345145536548], [79.89707044130157, 25.279183637838468], [79.8977327422111, 25.279954175063086], [79.89880997315373, 25.281394442818485], [79.89907158412402, 25.281689654349105], [79.89947705669381, 25.281906171427682], [79.90002401032758, 25.28217336244265], [79.9006415481865, 25.28247401346501], [79.9012736082103, 25.28295282778135], [79.90178141955222, 25.28341358605547], [79.90200504705736, 25.28383768125545], [79.90204892077583, 25.28435609092262], [79.90190208485444, 25.284596566372095], [79.90157878028538, 25.284753447512866], [79.90143518189225, 25.284815997498928], [79.9010955396631, 25.284891732746296], [79.90055983563165, 25.284980665413972], [79.89996955176011, 25.285133483991988], [79.8995901267403, 25.28543515273538], [79.8984714843614, 25.2862433318493], [79.89787402834067, 25.286784339928737], [79.8977105313657, 25.286993900839363], [79.89681236250695, 25.287054348410603], [79.89656140196266, 25.28714760384386], [79.89616657353069, 25.287319579530866], [79.89568216060697, 25.287522534423807], [79.89471510174573, 25.28783140416586], [79.89197029759848, 25.28882876982274], [79.89153023360203, 25.28842328886481], [79.89090563139173, 25.28754005513846], [79.89011813228107, 25.286799931681035], [79.8873891905851, 25.284185627517637], [79.88672486487293, 25.28352827987105], [79.88628980988251, 25.282987660963965], [79.88596211524666, 25.282416337509588], [79.88567001994717, 25.281845571832584], [79.88515347159083, 25.280899228935166], [79.88473473988743, 25.280439781069393], [79.88347941165152, 25.27901288854901], [79.88289928503093, 25.278615698358028], [79.8826193412423, 25.278352509001433], [79.88235896904878, 25.27799257110362], [79.88185543548425, 25.27730528577374], [79.8813504421574, 25.276698874759532], [79.88072085968714, 25.2760905517831], [79.88016035856059, 25.275596558279908], [79.87959926095265, 25.27513491251007], [79.87840470284739, 25.27427522389417], [79.87787801161315, 25.273878832957752], [79.87634776745928, 25.272884526292575], [79.87610222465446, 25.272686585818672], [79.87556135980168, 25.272095797354886], [79.8749291192165, 25.271633041607075], [79.87459460187603, 25.271433747354127], [79.87312774644187, 25.270861085987313], [79.87243672369776, 25.270688667797888], [79.87142386692673, 25.27059218362672], [79.87044841151253, 25.270399189059123], [79.86937127848626, 25.269929567337705], [79.86810625832676, 25.269036370244716], [79.86724903198372, 25.26823031294927], [79.86639029287775, 25.267505126513228], [79.86594734528926, 25.267152553893588], [79.86605565875632, 25.266626212624097], [79.86620343970539, 25.26633725142921], [79.86640520491147, 25.26601674732168], [79.86648514778524, 25.265548731783976], [79.8664702097004, 25.26488803525348], [79.86665843909174, 25.264878949524963], [79.86856885117221, 25.264568560677965], [79.86991370191606, 25.264039125177597], [79.87047076159678, 25.263756456314535], [79.87276326310018, 25.262998843875724], [79.87537331725986, 25.262391711457468], [79.87625098836045, 25.262097751205047], [79.8774872103286, 25.26166366783926], [79.8781902300733, 25.261189037930915], [79.87999307698331, 25.259954596650825], [79.88099277792702, 25.259361076599255], [79.88110973049217, 25.259555745243492]]]}}]}