{"type": "FeatureCollection", "features": [{"type": "Feature", "properties": {"premiumdata.sde.IN_Village_PCA.area": 2.7860918, "objectid": 386879, "id": "8100461513168", "name": "67 Rb", "subdistrict": "Raisinghnagar", "district": "Ganganagar", "state": "Rajasthan", "country": "India", "censusname": "67 Rb", "villagename_locallang": null, "lgd_villagename": "67 Rb", "lgd_villagecode": 65168, "lgd_subdistrictcode": 461, "lgd_districtcode": 100, "lgd_statecode": 8, "censuscode2001": "00107800", "censuscode2011": "065168", "censuscode2021": null, "level": "Village", "tru": "Rural", "no_hh": 120, "tot_p": 634, "tot_m": 321, "tot_f": 313, "per_tot_m": 50.63091483, "per_tot_f": 49.36908517, "p_06": 85, "m_06": 36, "f_06": 49, "per_p_06": 13.40694006, "per_m_06": 42.35294118, "per_f_06": 57.64705882, "p_sc": 607, "m_sc": 308, "f_sc": 299, "per_p_sc": 95.74132492, "per_m_sc": 50.74135091, "per_f_sc": 49.25864909, "p_st": 0, "m_st": 0, "f_st": 0, "per_p_st": 0.0, "per_m_st": 0.0, "per_f_st": 0.0, "p_lit": 428, "m_lit": 253, "f_lit": 175, "per_p_lit": 67.50788644000001, "per_m_lit": 59.11214953, "per_f_lit": 40.88785047, "p_ill": 206, "m_ill": 68, "f_ill": 138, "per_p_ill": 32.49211356, "per_m_ill": 33.00970874, "per_f_ill": 66.99029126, "tot_work_p": 314, "tot_work_m": 165, "tot_work_f": 149, "per_tot_work_p": 49.52681388, "per_tot_work_m": 52.5477707, "per_tot_work_f": 47.4522293, "mainwork_p": 165, "mainwork_m": 142, "mainwork_f": 23, "per_mainwork_p": 26.02523659, "per_mainwork_m": 86.06060606, "per_mainwork_f": 13.93939394, "main_cl_p": 50, "main_cl_m": 49, "main_cl_f": 1, "per_main_cl_p": 30.3030303, "per_main_cl_m": 98.0, "per_main_cl_f": 2.0, "main_al_p": 84, "main_al_m": 70, "main_al_f": 14, "per_main_al_p": 50.90909091, "per_main_al_m": 83.33333332999999, "per_main_al_f": 16.66666667, "main_hh_p": 11, "main_hh_m": 9, "main_hh_f": 2, "per_main_hh_p": 6.66666667, "per_main_hh_m": 81.81818182, "per_main_hh_f": 18.18181818, "main_ot_p": 20, "main_ot_m": 14, "main_ot_f": 6, "per_main_ot_p": 12.12121212, "per_main_ot_m": 70.0, "per_main_ot_f": 30.0, "margwork_p": 149, "margwork_m": 23, "margwork_f": 126, "per_margwork_p": 23.50157729, "per_margwork_m": 15.43624161, "per_margwork_f": 84.56375839, "marg_cl_p": 18, "marg_cl_m": 5, "marg_cl_f": 13, "per_marg_cl_p": 12.08053691, "per_marg_cl_m": 27.77777778, "per_marg_cl_f": 72.22222222, "marg_al_p": 106, "marg_al_m": 9, "marg_al_f": 97, "per_marg_al_p": 71.1409396, "per_marg_al_m": 8.49056604, "per_marg_al_f": 91.50943396, "marg_hh_p": 8, "marg_hh_m": 1, "marg_hh_f": 7, "per_marg_hh_p": 5.36912752, "per_marg_hh_m": 12.5, "per_marg_hh_f": 87.5, "marg_ot_p": 17, "marg_ot_m": 8, "marg_ot_f": 9, "per_marg_ot_p": 11.40939597, "per_marg_ot_m": 47.05882353, "per_marg_ot_f": 52.94117647, "margwork_3_6_p": 149, "margwork_3_6_m": 23, "margwork_3_6_f": 126, "per_margwork_3_6_p": 100.0, "per_margwork_3_6_m": 15.43624161, "per_margwork_3_6_f": 84.56375839, "marg_cl_3_6_p": 18, "marg_cl_3_6_m": 5, "marg_cl_3_6_f": 13, "per_marg_cl_3_6_p": 12.08053691, "per_marg_cl_3_6_m": 27.77777778, "per_marg_cl_3_6_f": 72.22222222, "marg_al_3_6_p": 106, "marg_al_3_6_m": 9, "marg_al_3_6_f": 97, "per_marg_al_3_6_p": 71.1409396, "per_marg_al_3_6_m": 8.49056604, "per_marg_al_3_6_f": 91.50943396, "marg_hh_3_6_p": 8, "marg_hh_3_6_m": 1, "marg_hh_3_6_f": 7, "per_marg_hh_3_6_p": 5.36912752, "per_marg_hh_3_6_m": 12.5, "per_marg_hh_3_6_f": 87.5, "marg_ot_3_6_p": 17, "marg_ot_3_6_m": 8, "marg_ot_3_6_f": 9, "per_marg_ot_3_6_p": 11.40939597, "per_marg_ot_3_6_m": 47.05882353, "per_marg_ot_3_6_f": 52.94117647, "margwork_0_3_p": 0, "margwork_0_3_m": 0, "margwork_0_3_f": 0, "per_margwork_0_3_p": 0.0, "per_margwork_0_3_m": 0.0, "per_margwork_0_3_f": 0.0, "marg_cl_0_3_p": 0, "marg_cl_0_3_m": 0, "marg_cl_0_3_f": 0, "per_marg_cl_0_3_p": 0.0, "per_marg_cl_0_3_m": 0.0, "per_marg_cl_0_3_f": 0.0, "marg_al_0_3_p": 0, "marg_al_0_3_m": 0, "marg_al_0_3_f": 0, "per_marg_al_0_3_p": 0.0, "per_marg_al_0_3_m": 0.0, "per_marg_al_0_3_f": 0.0, "marg_hh_0_3_p": 0, "marg_hh_0_3_m": 0, "marg_hh_0_3_f": 0, "per_marg_hh_0_3_p": 0.0, "per_marg_hh_0_3_m": 0.0, "per_marg_hh_0_3_f": 0.0, "marg_ot_0_3_p": 0, "marg_ot_0_3_m": 0, "marg_ot_0_3_f": 0, "per_marg_ot_0_3_p": 0.0, "per_marg_ot_0_3_m": 0.0, "per_marg_ot_0_3_f": 0.0, "non_work_p": 320, "non_work_m": 156, "non_work_f": 164, "per_non_work_p": 50.47318612, "per_non_work_m": 48.75, "per_non_work_f": 51.25, "per_hc_tot_tot": 100, "per_hc_tot_god": 92.4, "per_hc_tot_liv": 6.8, "per_hc_tot_dil": 0.8, "per_hc_res_tot": 100.0, "per_hc_res_god": 92.4, "per_hc_res_liv": 6.8, "per_hc_res_dil": 0.8, "per_hc_oth_tot": 0.0, "per_hc_oth_god": 0.0, "per_hc_oth_liv": 0.0, "per_hc_oth_dil": 0.0, "per_mt_grsbam": 67.8, "per_mt_plastic": 0.0, "per_mt_h_tiles": 0.0, "per_mt_m_tiles": 0.0, "per_mt_b_brick": 31.4, "per_mt_stone": 0.0, "per_mt_asbstos": 0.0, "per_mt_concrte": 0.8, "per_mt_oth": 0.0, "per_mw_grsbam": 0.0, "per_mw_plastic": 0.0, "per_mw_mud": 68.6, "per_mw_wood": 0.0, "per_mw_no_mrtr": 0.0, "per_mw_st_mrtr": 0.0, "per_mw_asbstos": 0.0, "per_mw_b_brick": 31.4, "per_mw_concrte": 0.0, "per_mw_oth": 0.0, "per_mf_mud": 79.7, "per_mf_wood": 0.0, "per_mf_b_brick": 19.5, "per_mf_stone": 0.0, "per_mf_cement": 0.8, "per_mf_fl_tile": 0.0, "per_mf_oth": 0.0, "per_dw_n_exrm": 0.0, "per_dw_1_room": 29.7, "per_dw_2_room": 36.4, "per_dw_3_room": 22.0, "per_dw_4_room": 8.5, "per_dw_5_room": 3.4, "per_dw_6_room": 0.0, "per_hhsize_1": 0.0, "per_hhsize_2": 5.1, "per_hhsize_3": 7.6, "per_hhsize_4": 17.8, "per_hhsize_5": 28.8, "per_hhsize_6_8": 39.8, "per_hhsize_9p": 0.8, "per_ow_owned": 97.5, "per_ow_rented": 0.0, "per_ow_oth": 2.5, "per_mc_none": 4.2, "per_mcouple_1": 71.2, "per_mcouple_2": 20.3, "per_mcouple_3": 4.2, "per_mcouple_4": 0.0, "per_mcouple_5p": 0.0, "per_dw_t_ts": 98.3, "per_dw_t_unts": 0.0, "per_dw_c_well": 0.0, "per_dw_unc_wel": 0.0, "per_dw_hpump": 0.0, "per_dw_tw_bore": 1.7, "per_dw_spring": 0.0, "per_dw_rivcan": 0.0, "per_dw_tank": 0.0, "per_dw_oth": 0.0, "per_loc_dw_wp": 1.7, "per_loc_dw_np": 98.3, "per_loc_dw_aw": 0.0, "per_light_elec": 98.3, "per_light_kero": 1.7, "per_light_solr": 0.0, "per_light_oil": 0.0, "per_light_oth": 0.0, "per_light_no": 0.0, "per_hh_latrine": 99.2, "per_fl_sewer": 0.0, "per_fl_septict": 0.0, "per_fl_othsys": 0.8, "per_pl_wslab": 5.9, "per_pl_without": 92.4, "per_ns_open": 0.0, "per_sl_ns_hum": 0.0, "per_sl_ns_anml": 0.0, "per_hh_no_lat": 0.8, "per_as_pub": 0.0, "per_as_open": 0.8, "per_hh_bathrm": 42.4, "per_hh_en_wrf": 56.8, "per_hh_no_btrm": 0.8, "per_wwoc_drain": 0.0, "per_wwoc_open": 0.0, "per_wwoc_nodrn": 100.0, "per_cook_fire": 100.0, "per_cook_resdu": 0.0, "per_cook_cwdng": 0.0, "per_cook_coal": 0.0, "per_cook_kero": 0.0, "per_cook_lpng": 0.0, "per_cook_elec": 0.0, "per_cook_biogs": 0.0, "per_cook_oth": 0.0, "per_cook_no": 0.0, "per_kf_inside": 8.5, "per_kf_in_has": 8.5, "per_kf_in_does": 0.0, "per_kf_outside": 91.5, "per_kf_out_has": 56.8, "per_kf_out_dos": 34.7, "per_kf_no_cook": 0.0, "per_hh_banking": 17.8, "per_hh_radio": 54.2, "per_hh_tv": 40.7, "per_hh_cmp_int": 0.0, "per_hh_cmp_wnt": 0.0, "per_hh_ph_ll": 2.5, "per_hh_ph_mob": 55.9, "per_hh_ph_bth": 0.8, "per_hh_bcycl": 36.4, "per_hh_2wheel": 10.2, "per_hh_4wheel": 2.5, "per_hh_tvcomp": 0.0, "per_hh_no_ast": 9.3, "per_hs_perma": 31.4, "per_hs_sperma": 0.8, "per_hs_temp": 67.8, "per_hs_servc": 67.8, "per_hs_nservc": 0.0, "per_hs_unclss": 0.0, "avghhsz_cy": 5.28333333, "st_areashape": 3698021.90389153, "st_lengthshape": 10498.492054642924}, "geometry": {"type": "Polygon", "coordinates": [[[73.47042532460264, 29.609283432955046], [73.46309417716223, 29.61241920901726], [73.46243793898256, 29.604522283035255], [73.46220245102072, 29.60382582464727], [73.46841612479044, 29.603846105414277], [73.46850856951801, 29.601369728462586], [73.47018691531952, 29.601056724337543], [73.4699886634245, 29.60001093248621], [73.46837439355392, 29.598673582582567], [73.46672897010924, 29.598161539515093], [73.46680320598601, 29.59630537634908], [73.46870985951529, 29.59621296796453], [73.47037105288477, 29.596312523497954], [73.46950182954112, 29.588615164768875], [73.47713140360717, 29.593824099359125], [73.4829570671579, 29.597067202549294], [73.48580122228064, 29.59744469500604], [73.48608422752773, 29.59746169565423], [73.48770294585564, 29.59755890431354], [73.48885496154567, 29.598661846691734], [73.48883303187296, 29.599280879676357], [73.48150913922677, 29.60421792083681], [73.4715727615797, 29.60879247408283], [73.47042532460264, 29.609283432955046]]]}}]}