{"type": "FeatureCollection", "features": [{"type": "Feature", "properties": {"premiumdata.sde.IN_Village_PCA.area": 3.07926664, "objectid": 60066, "id": "274974171614152", "name": "Hireghar", "subdistrict": "Murbad", "district": "Thane", "state": "Maharashtra", "country": "India", "censusname": "Hireghar", "villagename_locallang": null, "lgd_villagename": "Hireghar", "lgd_villagecode": 553084, "lgd_subdistrictcode": 4171, "lgd_districtcode": 497, "lgd_statecode": 27, "censuscode2001": "02797500", "censuscode2011": "553084", "censuscode2021": null, "level": "Village", "tru": "Rural", "no_hh": 53, "tot_p": 225, "tot_m": 110, "tot_f": 115, "per_tot_m": 48.88888889, "per_tot_f": 51.11111111, "p_06": 37, "m_06": 16, "f_06": 21, "per_p_06": 16.44444444, "per_m_06": 43.24324324, "per_f_06": 56.75675676, "p_sc": 22, "m_sc": 10, "f_sc": 12, "per_p_sc": 9.77777778, "per_m_sc": 45.45454545, "per_f_sc": 54.54545455, "p_st": 85, "m_st": 42, "f_st": 43, "per_p_st": 37.77777778, "per_m_st": 49.41176471, "per_f_st": 50.58823529, "p_lit": 105, "m_lit": 59, "f_lit": 46, "per_p_lit": 46.66666667000001, "per_m_lit": 56.19047619, "per_f_lit": 43.80952381, "p_ill": 120, "m_ill": 51, "f_ill": 69, "per_p_ill": 53.33333333, "per_m_ill": 42.5, "per_f_ill": 57.5, "tot_work_p": 107, "tot_work_m": 53, "tot_work_f": 54, "per_tot_work_p": 47.55555556, "per_tot_work_m": 49.53271028, "per_tot_work_f": 50.46728972, "mainwork_p": 74, "mainwork_m": 51, "mainwork_f": 23, "per_mainwork_p": 32.88888889, "per_mainwork_m": 68.91891892, "per_mainwork_f": 31.08108108, "main_cl_p": 25, "main_cl_m": 23, "main_cl_f": 2, "per_main_cl_p": 33.78378378, "per_main_cl_m": 92.0, "per_main_cl_f": 8.0, "main_al_p": 41, "main_al_m": 26, "main_al_f": 15, "per_main_al_p": 55.40540541, "per_main_al_m": 63.41463415, "per_main_al_f": 36.58536585, "main_hh_p": 2, "main_hh_m": 2, "main_hh_f": 0, "per_main_hh_p": 2.7027027, "per_main_hh_m": 100.0, "per_main_hh_f": 0.0, "main_ot_p": 6, "main_ot_m": 0, "main_ot_f": 6, "per_main_ot_p": 8.10810811, "per_main_ot_m": 0.0, "per_main_ot_f": 100.0, "margwork_p": 33, "margwork_m": 2, "margwork_f": 31, "per_margwork_p": 14.66666667, "per_margwork_m": 6.06060606, "per_margwork_f": 93.93939394, "marg_cl_p": 19, "marg_cl_m": 2, "marg_cl_f": 17, "per_marg_cl_p": 57.57575758, "per_marg_cl_m": 10.52631579, "per_marg_cl_f": 89.47368421, "marg_al_p": 11, "marg_al_m": 0, "marg_al_f": 11, "per_marg_al_p": 33.33333333, "per_marg_al_m": 0.0, "per_marg_al_f": 100.0, "marg_hh_p": 0, "marg_hh_m": 0, "marg_hh_f": 0, "per_marg_hh_p": 0.0, "per_marg_hh_m": 0.0, "per_marg_hh_f": 0.0, "marg_ot_p": 3, "marg_ot_m": 0, "marg_ot_f": 3, "per_marg_ot_p": 9.09090909, "per_marg_ot_m": 0.0, "per_marg_ot_f": 100.0, "margwork_3_6_p": 32, "margwork_3_6_m": 1, "margwork_3_6_f": 31, "per_margwork_3_6_p": 96.96969697, "per_margwork_3_6_m": 3.125, "per_margwork_3_6_f": 96.875, "marg_cl_3_6_p": 18, "marg_cl_3_6_m": 1, "marg_cl_3_6_f": 17, "per_marg_cl_3_6_p": 54.54545455, "per_marg_cl_3_6_m": 5.55555556, "per_marg_cl_3_6_f": 94.44444444, "marg_al_3_6_p": 11, "marg_al_3_6_m": 0, "marg_al_3_6_f": 11, "per_marg_al_3_6_p": 33.33333333, "per_marg_al_3_6_m": 0.0, "per_marg_al_3_6_f": 100.0, "marg_hh_3_6_p": 0, "marg_hh_3_6_m": 0, "marg_hh_3_6_f": 0, "per_marg_hh_3_6_p": 0.0, "per_marg_hh_3_6_m": 0.0, "per_marg_hh_3_6_f": 0.0, "marg_ot_3_6_p": 3, "marg_ot_3_6_m": 0, "marg_ot_3_6_f": 3, "per_marg_ot_3_6_p": 9.09090909, "per_marg_ot_3_6_m": 0.0, "per_marg_ot_3_6_f": 100.0, "margwork_0_3_p": 1, "margwork_0_3_m": 1, "margwork_0_3_f": 0, "per_margwork_0_3_p": 3.03030303, "per_margwork_0_3_m": 100.0, "per_margwork_0_3_f": 0.0, "marg_cl_0_3_p": 1, "marg_cl_0_3_m": 1, "marg_cl_0_3_f": 0, "per_marg_cl_0_3_p": 3.03030303, "per_marg_cl_0_3_m": 100.0, "per_marg_cl_0_3_f": 0.0, "marg_al_0_3_p": 0, "marg_al_0_3_m": 0, "marg_al_0_3_f": 0, "per_marg_al_0_3_p": 0.0, "per_marg_al_0_3_m": 0.0, "per_marg_al_0_3_f": 0.0, "marg_hh_0_3_p": 0, "marg_hh_0_3_m": 0, "marg_hh_0_3_f": 0, "per_marg_hh_0_3_p": 0.0, "per_marg_hh_0_3_m": 0.0, "per_marg_hh_0_3_f": 0.0, "marg_ot_0_3_p": 0, "marg_ot_0_3_m": 0, "marg_ot_0_3_f": 0, "per_marg_ot_0_3_p": 0.0, "per_marg_ot_0_3_m": 0.0, "per_marg_ot_0_3_f": 0.0, "non_work_p": 118, "non_work_m": 57, "non_work_f": 61, "per_non_work_p": 52.44444444000001, "per_non_work_m": 48.30508475, "per_non_work_f": 51.69491525, "per_hc_tot_tot": 100, "per_hc_tot_god": 1.8, "per_hc_tot_liv": 78.2, "per_hc_tot_dil": 20.0, "per_hc_res_tot": 100.0, "per_hc_res_god": 1.8, "per_hc_res_liv": 78.2, "per_hc_res_dil": 20.0, "per_hc_oth_tot": 0.0, "per_hc_oth_god": 0.0, "per_hc_oth_liv": 0.0, "per_hc_oth_dil": 0.0, "per_mt_grsbam": 14.5, "per_mt_plastic": 3.6, "per_mt_h_tiles": 0.0, "per_mt_m_tiles": 81.8, "per_mt_b_brick": 0.0, "per_mt_stone": 0.0, "per_mt_asbstos": 0.0, "per_mt_concrte": 0.0, "per_mt_oth": 0.0, "per_mw_grsbam": 20.0, "per_mw_plastic": 0.0, "per_mw_mud": 0.0, "per_mw_wood": 0.0, "per_mw_no_mrtr": 0.0, "per_mw_st_mrtr": 0.0, "per_mw_asbstos": 0.0, "per_mw_b_brick": 80.0, "per_mw_concrte": 0.0, "per_mw_oth": 0.0, "per_mf_mud": 100.0, "per_mf_wood": 0.0, "per_mf_b_brick": 0.0, "per_mf_stone": 0.0, "per_mf_cement": 0.0, "per_mf_fl_tile": 0.0, "per_mf_oth": 0.0, "per_dw_n_exrm": 0.0, "per_dw_1_room": 81.8, "per_dw_2_room": 18.2, "per_dw_3_room": 0.0, "per_dw_4_room": 0.0, "per_dw_5_room": 0.0, "per_dw_6_room": 0.0, "per_hhsize_1": 3.6, "per_hhsize_2": 16.4, "per_hhsize_3": 16.4, "per_hhsize_4": 20.0, "per_hhsize_5": 7.3, "per_hhsize_6_8": 34.5, "per_hhsize_9p": 1.8, "per_ow_owned": 98.2, "per_ow_rented": 0.0, "per_ow_oth": 1.8, "per_mc_none": 12.7, "per_mcouple_1": 76.4, "per_mcouple_2": 7.3, "per_mcouple_3": 3.6, "per_mcouple_4": 0.0, "per_mcouple_5p": 0.0, "per_dw_t_ts": 0.0, "per_dw_t_unts": 0.0, "per_dw_c_well": 0.0, "per_dw_unc_wel": 5.5, "per_dw_hpump": 94.5, "per_dw_tw_bore": 0.0, "per_dw_spring": 0.0, "per_dw_rivcan": 0.0, "per_dw_tank": 0.0, "per_dw_oth": 0.0, "per_loc_dw_wp": 3.6, "per_loc_dw_np": 96.4, "per_loc_dw_aw": 0.0, "per_light_elec": 52.7, "per_light_kero": 43.6, "per_light_solr": 0.0, "per_light_oil": 0.0, "per_light_oth": 3.6, "per_light_no": 0.0, "per_hh_latrine": 7.3, "per_fl_sewer": 0.0, "per_fl_septict": 7.3, "per_fl_othsys": 0.0, "per_pl_wslab": 0.0, "per_pl_without": 0.0, "per_ns_open": 0.0, "per_sl_ns_hum": 0.0, "per_sl_ns_anml": 0.0, "per_hh_no_lat": 92.7, "per_as_pub": 0.0, "per_as_open": 92.7, "per_hh_bathrm": 56.4, "per_hh_en_wrf": 43.6, "per_hh_no_btrm": 0.0, "per_wwoc_drain": 0.0, "per_wwoc_open": 0.0, "per_wwoc_nodrn": 100.0, "per_cook_fire": 100.0, "per_cook_resdu": 0.0, "per_cook_cwdng": 0.0, "per_cook_coal": 0.0, "per_cook_kero": 0.0, "per_cook_lpng": 0.0, "per_cook_elec": 0.0, "per_cook_biogs": 0.0, "per_cook_oth": 0.0, "per_cook_no": 0.0, "per_kf_inside": 96.4, "per_kf_in_has": 96.4, "per_kf_in_does": 0.0, "per_kf_outside": 3.6, "per_kf_out_has": 3.6, "per_kf_out_dos": 0.0, "per_kf_no_cook": 0.0, "per_hh_banking": 21.8, "per_hh_radio": 9.1, "per_hh_tv": 7.3, "per_hh_cmp_int": 0.0, "per_hh_cmp_wnt": 0.0, "per_hh_ph_ll": 5.5, "per_hh_ph_mob": 5.5, "per_hh_ph_bth": 0.0, "per_hh_bcycl": 0.0, "per_hh_2wheel": 1.8, "per_hh_4wheel": 0.0, "per_hh_tvcomp": 0.0, "per_hh_no_ast": 76.4, "per_hs_perma": 76.4, "per_hs_sperma": 9.1, "per_hs_temp": 14.5, "per_hs_servc": 0.0, "per_hs_nservc": 14.5, "per_hs_unclss": 0.0, "avghhsz_cy": 4.24528302, "st_areashape": 3474961.630685565, "st_lengthshape": 10232.054475425277}, "geometry": {"type": "Polygon", "coordinates": [[[73.3081767599417, 19.28733932218778], [73.30460828601883, 19.29103133523428], [73.30448944609329, 19.292713835618567], [73.30401408639102, 19.295405802124957], [73.3036575666143, 19.297424747734308], [73.30211264848025, 19.298209886003885], [73.30009237064394, 19.298882859391753], [73.29961701183997, 19.300565279903765], [73.30021121056949, 19.30617322275473], [73.2978344138548, 19.307743412400516], [73.29403153803331, 19.306734006804408], [73.29396221504282, 19.308210728371375], [73.29519311359458, 19.31650088533808], [73.29338674798363, 19.315424243594656], [73.29196066977512, 19.313898987714882], [73.29196066977512, 19.31192510683875], [73.29234095717761, 19.309861479087644], [73.29215081347634, 19.30492661037204], [73.29120009407183, 19.300978608195763], [73.29024937556562, 19.29756889304853], [73.28967894356357, 19.29577427763416], [73.28991856467404, 19.29364189381463], [73.29034444696707, 19.289851907397637], [73.29082373320546, 19.288753270673805], [73.2910099503706, 19.28832641392417], [73.29319660428236, 19.28608301469894], [73.29452761019108, 19.285544594616297], [73.29642904810181, 19.28545485818767], [73.2989959894161, 19.28608301469894], [73.30089742732683, 19.28698037841685], [73.3020382895343, 19.287608529923517], [73.30327422404156, 19.287698265171777], [73.3047953745498, 19.28733932218778], [73.3081767599417, 19.28733932218778]]]}}]}