{"type": "FeatureCollection", "features": [{"type": "Feature", "properties": {"premiumdata.sde.IN_Village_PCA.area": 10.9112531, "objectid": 60627, "id": "274974171614181", "name": "Sonawale", "subdistrict": "Murbad", "district": "Thane", "state": "Maharashtra", "country": "India", "censusname": "Sonavale", "villagename_locallang": null, "lgd_villagename": "Sonawale", "lgd_villagecode": 553183, "lgd_subdistrictcode": 4171, "lgd_districtcode": 497, "lgd_statecode": 27, "censuscode2001": "02807400", "censuscode2011": "553183", "censuscode2021": null, "level": "Village", "tru": "Rural", "no_hh": 282, "tot_p": 1164, "tot_m": 570, "tot_f": 594, "per_tot_m": 48.96907216, "per_tot_f": 51.03092784, "p_06": 126, "m_06": 62, "f_06": 64, "per_p_06": 10.82474227, "per_m_06": 49.20634921, "per_f_06": 50.79365079, "p_sc": 64, "m_sc": 36, "f_sc": 28, "per_p_sc": 5.49828179, "per_m_sc": 56.25, "per_f_sc": 43.75, "p_st": 148, "m_st": 75, "f_st": 73, "per_p_st": 12.71477663, "per_m_st": 50.67567568, "per_f_st": 49.32432432, "p_lit": 800, "m_lit": 448, "f_lit": 352, "per_p_lit": 68.72852234, "per_m_lit": 56.0, "per_f_lit": 44.0, "p_ill": 364, "m_ill": 122, "f_ill": 242, "per_p_ill": 31.27147766, "per_m_ill": 33.51648352, "per_f_ill": 66.48351648, "tot_work_p": 606, "tot_work_m": 302, "tot_work_f": 304, "per_tot_work_p": 52.06185567, "per_tot_work_m": 49.8349835, "per_tot_work_f": 50.1650165, "mainwork_p": 541, "mainwork_m": 281, "mainwork_f": 260, "per_mainwork_p": 46.47766323, "per_mainwork_m": 51.94085028000001, "per_mainwork_f": 48.05914972, "main_cl_p": 294, "main_cl_m": 149, "main_cl_f": 145, "per_main_cl_p": 54.34380776, "per_main_cl_m": 50.68027211, "per_main_cl_f": 49.31972789, "main_al_p": 202, "main_al_m": 103, "main_al_f": 99, "per_main_al_p": 37.33826248, "per_main_al_m": 50.99009901, "per_main_al_f": 49.00990099, "main_hh_p": 5, "main_hh_m": 4, "main_hh_f": 1, "per_main_hh_p": 0.92421442, "per_main_hh_m": 80.0, "per_main_hh_f": 20.0, "main_ot_p": 40, "main_ot_m": 25, "main_ot_f": 15, "per_main_ot_p": 7.39371534, "per_main_ot_m": 62.5, "per_main_ot_f": 37.5, "margwork_p": 65, "margwork_m": 21, "margwork_f": 44, "per_margwork_p": 5.58419244, "per_margwork_m": 32.30769231, "per_margwork_f": 67.69230769, "marg_cl_p": 18, "marg_cl_m": 5, "marg_cl_f": 13, "per_marg_cl_p": 27.69230769, "per_marg_cl_m": 27.77777778, "per_marg_cl_f": 72.22222222, "marg_al_p": 43, "marg_al_m": 12, "marg_al_f": 31, "per_marg_al_p": 66.15384615, "per_marg_al_m": 27.90697674, "per_marg_al_f": 72.09302326000001, "marg_hh_p": 0, "marg_hh_m": 0, "marg_hh_f": 0, "per_marg_hh_p": 0.0, "per_marg_hh_m": 0.0, "per_marg_hh_f": 0.0, "marg_ot_p": 4, "marg_ot_m": 4, "marg_ot_f": 0, "per_marg_ot_p": 6.15384615, "per_marg_ot_m": 100.0, "per_marg_ot_f": 0.0, "margwork_3_6_p": 58, "margwork_3_6_m": 19, "margwork_3_6_f": 39, "per_margwork_3_6_p": 89.23076923, "per_margwork_3_6_m": 32.75862069, "per_margwork_3_6_f": 67.24137931, "marg_cl_3_6_p": 15, "marg_cl_3_6_m": 5, "marg_cl_3_6_f": 10, "per_marg_cl_3_6_p": 23.07692308, "per_marg_cl_3_6_m": 33.33333333, "per_marg_cl_3_6_f": 66.66666667, "marg_al_3_6_p": 40, "marg_al_3_6_m": 11, "marg_al_3_6_f": 29, "per_marg_al_3_6_p": 61.53846154, "per_marg_al_3_6_m": 27.5, "per_marg_al_3_6_f": 72.5, "marg_hh_3_6_p": 0, "marg_hh_3_6_m": 0, "marg_hh_3_6_f": 0, "per_marg_hh_3_6_p": 0.0, "per_marg_hh_3_6_m": 0.0, "per_marg_hh_3_6_f": 0.0, "marg_ot_3_6_p": 3, "marg_ot_3_6_m": 3, "marg_ot_3_6_f": 0, "per_marg_ot_3_6_p": 4.61538462, "per_marg_ot_3_6_m": 100.0, "per_marg_ot_3_6_f": 0.0, "margwork_0_3_p": 7, "margwork_0_3_m": 2, "margwork_0_3_f": 5, "per_margwork_0_3_p": 10.76923077, "per_margwork_0_3_m": 28.57142857, "per_margwork_0_3_f": 71.42857143, "marg_cl_0_3_p": 3, "marg_cl_0_3_m": 0, "marg_cl_0_3_f": 3, "per_marg_cl_0_3_p": 4.61538462, "per_marg_cl_0_3_m": 0.0, "per_marg_cl_0_3_f": 100.0, "marg_al_0_3_p": 3, "marg_al_0_3_m": 1, "marg_al_0_3_f": 2, "per_marg_al_0_3_p": 4.61538462, "per_marg_al_0_3_m": 33.33333333, "per_marg_al_0_3_f": 66.66666667, "marg_hh_0_3_p": 0, "marg_hh_0_3_m": 0, "marg_hh_0_3_f": 0, "per_marg_hh_0_3_p": 0.0, "per_marg_hh_0_3_m": 0.0, "per_marg_hh_0_3_f": 0.0, "marg_ot_0_3_p": 1, "marg_ot_0_3_m": 1, "marg_ot_0_3_f": 0, "per_marg_ot_0_3_p": 1.53846154, "per_marg_ot_0_3_m": 100.0, "per_marg_ot_0_3_f": 0.0, "non_work_p": 558, "non_work_m": 268, "non_work_f": 290, "per_non_work_p": 47.93814433, "per_non_work_m": 48.02867384, "per_non_work_f": 51.97132616, "per_hc_tot_tot": 100, "per_hc_tot_god": 80.3, "per_hc_tot_liv": 12.0, "per_hc_tot_dil": 7.7, "per_hc_res_tot": 98.2, "per_hc_res_god": 78.9, "per_hc_res_liv": 11.6, "per_hc_res_dil": 7.7, "per_hc_oth_tot": 1.8, "per_hc_oth_god": 1.4, "per_hc_oth_liv": 0.4, "per_hc_oth_dil": 0.0, "per_mt_grsbam": 5.3, "per_mt_plastic": 0.0, "per_mt_h_tiles": 0.0, "per_mt_m_tiles": 94.0, "per_mt_b_brick": 0.0, "per_mt_stone": 0.4, "per_mt_asbstos": 0.4, "per_mt_concrte": 0.0, "per_mt_oth": 0.0, "per_mw_grsbam": 9.9, "per_mw_plastic": 0.0, "per_mw_mud": 80.6, "per_mw_wood": 0.7, "per_mw_no_mrtr": 0.4, "per_mw_st_mrtr": 0.0, "per_mw_asbstos": 0.0, "per_mw_b_brick": 7.7, "per_mw_concrte": 0.4, "per_mw_oth": 0.4, "per_mf_mud": 83.8, "per_mf_wood": 0.0, "per_mf_b_brick": 0.0, "per_mf_stone": 0.0, "per_mf_cement": 0.7, "per_mf_fl_tile": 15.5, "per_mf_oth": 0.0, "per_dw_n_exrm": 1.1, "per_dw_1_room": 10.9, "per_dw_2_room": 40.8, "per_dw_3_room": 45.1, "per_dw_4_room": 1.1, "per_dw_5_room": 0.4, "per_dw_6_room": 0.7, "per_hhsize_1": 4.2, "per_hhsize_2": 14.1, "per_hhsize_3": 18.3, "per_hhsize_4": 23.2, "per_hhsize_5": 19.4, "per_hhsize_6_8": 18.0, "per_hhsize_9p": 2.8, "per_ow_owned": 94.0, "per_ow_rented": 5.6, "per_ow_oth": 0.4, "per_mc_none": 13.7, "per_mcouple_1": 73.6, "per_mcouple_2": 11.3, "per_mcouple_3": 1.4, "per_mcouple_4": 0.0, "per_mcouple_5p": 0.0, "per_dw_t_ts": 0.0, "per_dw_t_unts": 0.0, "per_dw_c_well": 0.0, "per_dw_unc_wel": 1.1, "per_dw_hpump": 95.4, "per_dw_tw_bore": 3.2, "per_dw_spring": 0.0, "per_dw_rivcan": 0.4, "per_dw_tank": 0.0, "per_dw_oth": 0.0, "per_loc_dw_wp": 30.3, "per_loc_dw_np": 58.5, "per_loc_dw_aw": 11.3, "per_light_elec": 74.3, "per_light_kero": 25.7, "per_light_solr": 0.0, "per_light_oil": 0.0, "per_light_oth": 0.0, "per_light_no": 0.0, "per_hh_latrine": 14.4, "per_fl_sewer": 1.8, "per_fl_septict": 0.7, "per_fl_othsys": 1.8, "per_pl_wslab": 10.2, "per_pl_without": 0.0, "per_ns_open": 0.0, "per_sl_ns_hum": 0.0, "per_sl_ns_anml": 0.0, "per_hh_no_lat": 85.6, "per_as_pub": 7.0, "per_as_open": 78.5, "per_hh_bathrm": 62.7, "per_hh_en_wrf": 19.0, "per_hh_no_btrm": 18.3, "per_wwoc_drain": 0.0, "per_wwoc_open": 1.1, "per_wwoc_nodrn": 98.9, "per_cook_fire": 91.9, "per_cook_resdu": 2.1, "per_cook_cwdng": 0.0, "per_cook_coal": 0.0, "per_cook_kero": 0.0, "per_cook_lpng": 6.0, "per_cook_elec": 0.0, "per_cook_biogs": 0.0, "per_cook_oth": 0.0, "per_cook_no": 0.0, "per_kf_inside": 97.5, "per_kf_in_has": 83.5, "per_kf_in_does": 14.1, "per_kf_outside": 2.5, "per_kf_out_has": 0.4, "per_kf_out_dos": 2.1, "per_kf_no_cook": 0.0, "per_hh_banking": 76.4, "per_hh_radio": 1.8, "per_hh_tv": 5.3, "per_hh_cmp_int": 0.0, "per_hh_cmp_wnt": 0.0, "per_hh_ph_ll": 9.5, "per_hh_ph_mob": 8.1, "per_hh_ph_bth": 2.5, "per_hh_bcycl": 2.1, "per_hh_2wheel": 2.8, "per_hh_4wheel": 0.4, "per_hh_tvcomp": 0.0, "per_hh_no_ast": 77.5, "per_hs_perma": 7.0, "per_hs_sperma": 88.7, "per_hs_temp": 3.9, "per_hs_servc": 1.1, "per_hs_nservc": 2.8, "per_hs_unclss": 0.4, "avghhsz_cy": 4.12765957, "st_areashape": 12304539.17793759, "st_lengthshape": 16503.47271317688}, "geometry": {"type": "Polygon", "coordinates": [[[73.6654692548729, 19.23963694622603], [73.6654109569059, 19.2396990447113], [73.66535265983724, 19.23976114232496], [73.66529436187024, 19.239823240763254], [73.66523606480152, 19.23988533832993], [73.66517776683457, 19.239947436721245], [73.66511946976586, 19.240009534240933], [73.6650611717989, 19.240071632585266], [73.66500287473019, 19.24013373005796], [73.66494457676323, 19.240195828355347], [73.66488627879622, 19.240257926629198], [73.66482798172753, 19.240320024031448], [73.66476968376055, 19.240382122258318], [73.66471138669185, 19.240444219613558], [73.66465308872489, 19.240506317793482], [73.66459479165619, 19.240568415101755], [73.66453649368921, 19.240630513234656], [73.66447819572222, 19.240692611344123], [73.66441989865352, 19.2407547085819], [73.66436160068655, 19.240816806644332], [73.66430330361784, 19.24087890383518], [73.66424500565088, 19.240941001850643], [73.66418670858218, 19.241003098994494], [73.6641284106152, 19.24106519696297], [73.6640701135465, 19.24112729405984], [73.66401181557954, 19.241189391981347], [73.66398275148681, 19.241268664608338], [73.66395368739413, 19.241347937197034], [73.6639246233014, 19.241427209747446], [73.6638955592087, 19.24150648310772], [73.66386649511601, 19.241585755581585], [73.6638374310233, 19.24166502801713], [73.6638083669306, 19.24174430041443], [73.66377930283791, 19.241823572773402], [73.66375023874518, 19.241902845094142], [73.6637211746525, 19.241982117376562], [73.6636921105598, 19.242061389620716], [73.66366304646708, 19.242140662674714], [73.66363398237439, 19.242219934842304], [73.66360491828169, 19.242299206971573], [73.66357585418898, 19.2423784790626], [73.66354679009628, 19.242457751115335], [73.66351772600359, 19.242537023129763], [73.66348866191086, 19.242616295105922], [73.66345959781817, 19.24269556704377], [73.66343053372547, 19.242774839791522], [73.66340146963276, 19.2428541116528], [73.66337240554007, 19.242933383475833], [73.66334334144737, 19.243012655260536], [73.66331427735466, 19.243091927006994], [73.66328521326196, 19.24317119871517], [73.66325614916927, 19.243250470385018], [73.66322708507656, 19.24332974286472], [73.66319802098386, 19.24340901445803], [73.66316895689117, 19.24348828601302], [73.66313989279844, 19.24356755752977], [73.66311082870575, 19.24364682900822], [73.66308176461305, 19.243726100448352], [73.66305270052034, 19.243805371850218], [73.66302363642765, 19.243884643213775], [73.66299457233495, 19.24396391538722], [73.66296550824222, 19.24404318667419], [73.66293644414954, 19.244122457922916], [73.66290738005681, 19.244201729133326], [73.66287831596412, 19.244281000305477], [73.66284925187144, 19.24436027143935], [73.6628201877787, 19.244439542534888], [73.662791123686, 19.244518813592187], [73.66276205959333, 19.244598085459277], [73.6627329955006, 19.24467735643996], [73.6627039314079, 19.244756627382376], [73.66267486731522, 19.24483589828651], [73.66260298861778, 19.24488566404641], [73.66253110902198, 19.244935429791276], [73.66245923032453, 19.24498519552103], [73.66238735162705, 19.24503496038755], [73.66231547292959, 19.245084726087136], [73.66224359333384, 19.245134491771594], [73.66217171463636, 19.245184257440993], [73.6620998359389, 19.24523402309529], [73.66202795724145, 19.245283788734508], [73.66195607764567, 19.245333554358588], [73.66188419894821, 19.24538331996763], [73.66181232025076, 19.24543308471343], [73.6617404415533, 19.245482850292284], [73.66166856195753, 19.245532615856035], [73.66159668326007, 19.245582381404684], [73.66152480456262, 19.245632146938245], [73.66145292586513, 19.24568191245673], [73.66138104626938, 19.2457316779601], [73.66130916757193, 19.24578144344841], [73.66123728887445, 19.245831208073493], [73.66116541017699, 19.245880973531612], [73.66109353058121, 19.24593073897464], [73.66102165188376, 19.245980504402546], [73.6609497731863, 19.246030269815396], [73.66087789448885, 19.24608003521316], [73.66080601489307, 19.246129800595813], [73.66073413619561, 19.24617956596335], [73.66066225749816, 19.246229330467745], [73.6605903788007, 19.246279095805093], [73.66051849920493, 19.246328861127402], [73.66044662050747, 19.2463786264346], [73.66036978400794, 19.246417315435103], [73.66029294840676, 19.2464560044265], [73.66021611190725, 19.24649469340876], [73.66013927630603, 19.246533382381898], [73.66006243980652, 19.246572070497816], [73.65998560330704, 19.24661075945271], [73.65990876770583, 19.246649448398497], [73.65983193120633, 19.246688137335173], [73.65975509560512, 19.246726826262716], [73.6596782591056, 19.246765515181114], [73.65960142350443, 19.246804204090413], [73.65952458700488, 19.24684289299058], [73.65944775050538, 19.24688158188162], [73.65937091490419, 19.246920270763578], [73.65929407840468, 19.246958958788266], [73.65921724280349, 19.24699764765194], [73.65914040630399, 19.247036336506536], [73.65906356980446, 19.247075025351982], [73.65898673420324, 19.247113714188295], [73.65890989770374, 19.247152403015498], [73.65883306210254, 19.247191091833564], [73.65875622560304, 19.24722978064255], [73.65867939000185, 19.24726846944239], [73.65860255350235, 19.24730715823309], [73.6585257170028, 19.24734584616658], [73.65844888140164, 19.247384534939055], [73.6583720449021, 19.247423223702405], [73.6582952093009, 19.247461912456632], [73.6582183728014, 19.247500601201725], [73.65816024461598, 19.24756462699242], [73.6581021164306, 19.24762865191006], [73.65804398824518, 19.247692677650807], [73.65798586005978, 19.247756703366555], [73.6579277318744, 19.24782072820922], [73.65786960368898, 19.24788475387502], [73.65781147550356, 19.247948779515824], [73.65775334731818, 19.248012805131655], [73.65769521913276, 19.248076829874385], [73.65763709094735, 19.248140855440255], [73.65757896276197, 19.248204880981138], [73.65752083457656, 19.24826890564896], [73.65746270639113, 19.248332931139867], [73.65740457820571, 19.248396956605806], [73.65734645002033, 19.24846098119864], [73.65728832183493, 19.248525006614617], [73.65723019364951, 19.248589032005608], [73.65717206546412, 19.248653057371623], [73.65711393727871, 19.248717081864566], [73.6570558090933, 19.24878110718061], [73.6569976809079, 19.248845132471665], [73.65693955272249, 19.24890915688962], [73.65688142453709, 19.24897318213072], [73.65682329545336, 19.24903720734683], [73.65676516726796, 19.24910123168984], [73.65670703908258, 19.249165256855978], [73.65664891089716, 19.249229281997142], [73.65659078271175, 19.249293306265244], [73.65653265452636, 19.24935733135642], [73.65647452634094, 19.249421356422637], [73.65641639815553, 19.24948538146387], [73.65635826997014, 19.249549405631985], [73.65630014178474, 19.249613430623256], [73.65624201359931, 19.249677455589527], [73.65618388541394, 19.249741479682736], [73.65612575722852, 19.24980550459905], [73.6560676290431, 19.24986952949036], [73.65600950085772, 19.249933553508587], [73.6559513726723, 19.24999757834995], [73.65589324448689, 19.250061603166316], [73.65583511630147, 19.250125627957708], [73.65577698811609, 19.250189651876], [73.65571885993067, 19.25025367661742], [73.65566073174527, 19.250317701333852], [73.65560260355988, 19.25038172517722], [73.65554447537447, 19.25044574984368], [73.65547020087016, 19.250492029960697], [73.65539592546752, 19.250538310912745], [73.6553216509632, 19.25058459100364], [73.65524737556056, 19.250630871929598], [73.65517310105622, 19.250677151994413], [73.6550988256536, 19.25072343289425], [73.65502455114927, 19.250769712932932], [73.65495027574661, 19.25081599295859], [73.6548760012423, 19.250862273819216], [73.65480172673799, 19.250908553818768], [73.65472745133535, 19.250954834653328], [73.65465317683105, 19.25100111462672], [73.65457890142841, 19.25104739458711], [73.6545046269241, 19.251093675382485], [73.65443035152146, 19.251139955316734], [73.6543560770171, 19.251186236086014], [73.65428180161449, 19.251232515994143], [73.65420752711015, 19.251278796737306], [73.6541332517075, 19.251325076619356], [73.65405897720319, 19.251371356488324], [73.65398470269888, 19.251417637192315], [73.65391042729624, 19.251463917035167], [73.65383615279192, 19.251510197713063], [73.65376187738929, 19.251556477529835], [73.65368760288497, 19.2516027581816], [73.65361332748233, 19.25164903797223], [73.65353905297799, 19.2516953177498], [73.65346477757538, 19.251741598362422], [73.65339050307104, 19.251787878113912], [73.65331622856672, 19.251834158700415], [73.65324195316408, 19.25188043842575], [73.65316767865977, 19.25192671813806], [73.65309340325712, 19.251972998685375], [73.65301912875282, 19.252019278371602], [73.65294485335018, 19.252065558892813], [73.65287057884586, 19.252111838552885], [73.65279630344322, 19.25215811904799], [73.65272202893887, 19.252204398681954], [73.65264775353627, 19.252250678302893], [73.65257347903191, 19.252296958758826], [73.65249920452762, 19.252343238353617], [73.65242492912498, 19.252389518783446], [73.65235065462066, 19.25243579835212], [73.65227637921801, 19.25248207790778], [73.6522021047137, 19.252528358298434], [73.65212782931106, 19.252574637827937], [73.65205355480674, 19.252620918192488], [73.6519792794041, 19.252667197695885], [73.65190500489976, 19.252713478034316], [73.65183073039545, 19.252759757511633], [73.6517564549928, 19.252806036975855], [73.65168218048849, 19.252852317275128], [73.65160790508585, 19.252898596713287], [73.65153363058154, 19.252944876986387], [73.6514593551789, 19.252991156398426], [73.6513850806746, 19.25303743664546], [73.65131080527195, 19.253083716031355], [73.6512365307676, 19.25312999540421], [73.651162255365, 19.253176275612084], [73.65108798086064, 19.253222554958807], [73.65101370635634, 19.253268835140563], [73.6509394309537, 19.253315114461167], [73.65086515644938, 19.253361393768756], [73.65079088104675, 19.25340767391134], [73.65071660654243, 19.253453953192775], [73.65064233113979, 19.25350023330924], [73.65056805663548, 19.253546512564565], [73.65049378123284, 19.253592792654914], [73.6504195067285, 19.25363907188416], [73.65034523222418, 19.253685351100327], [73.65027095682154, 19.253731631151503], [73.65019668231723, 19.25377791034155], [73.65012240691458, 19.253824190366608], [73.65004813241026, 19.253870469530575], [73.64997385700762, 19.253916749529527], [73.64989958250331, 19.25396302866734], [73.64982530710067, 19.25400930779211], [73.64975103259637, 19.254055587751875], [73.64967675719373, 19.254101866850565], [73.64960248268937, 19.254148146784228], [73.64952820818506, 19.25419442585676], [73.64945393278242, 19.254240704916228], [73.64937965827812, 19.25428698481072], [73.64930538287547, 19.254333263844117], [73.64923110837115, 19.2543795437125], [73.64915683296852, 19.254425822719742], [73.6490825584642, 19.25447210256202], [73.64900828306156, 19.254518381543143], [73.64893400855725, 19.25456466051124], [73.6488597340529, 19.254610940314333], [73.64878545865027, 19.2546572192563], [73.64871118414595, 19.254703499033273], [73.64863690874331, 19.25474977794912], [73.648562634239, 19.254796056851937], [73.64848835883636, 19.25484233658974], [73.64841408433205, 19.254888615466413], [73.64833980892939, 19.2549348951781], [73.6482655344251, 19.254981174028693], [73.64819125902245, 19.255027453714245], [73.64811698451814, 19.25507373253871], [73.64805176772683, 19.25513188084119], [73.64798655093551, 19.255190029123092], [73.64792133324588, 19.255248177384367], [73.64785611645456, 19.255306325624996], [73.64779089966325, 19.255364473845052], [73.64772568287195, 19.255422622044488], [73.6476604651823, 19.255480770223286], [73.64759524839099, 19.25553891838149], [73.64753003159967, 19.255597065671015], [73.64746481480836, 19.25565521378797], [73.64739959711875, 19.255713361884332], [73.64733438032745, 19.25577150996008], [73.64726916353614, 19.25582965801518], [73.64720394674481, 19.255887806049696], [73.64713872995351, 19.255945954063577], [73.64707351226387, 19.25600410205686], [73.64700829547256, 19.256062250029533], [73.64694307868125, 19.256120397981558], [73.64687786188993, 19.256178545913], [73.64681264420032, 19.256236693823844], [73.64674742740901, 19.256294841714027], [73.6466822106177, 19.256352989583625], [73.64661699382636, 19.25641113743256], [73.64655177613675, 19.256469285260938], [73.64648655934543, 19.25652743222062], [73.64642134255413, 19.25658558000775], [73.64635612576281, 19.256643727774247], [73.64629090897151, 19.256701875520147], [73.64622569128186, 19.2567600232454], [73.64616047449054, 19.25681817095008], [73.64609525769924, 19.256876318634138], [73.64603004090793, 19.256934466297547], [73.64596482321832, 19.25699261394037], [73.64589960642701, 19.257050761562585], [73.6458343896357, 19.25710890916414], [73.6457691728444, 19.257167056745132], [73.64570395515474, 19.257225204305453], [73.64563873836343, 19.257283351845203], [73.64557352157213, 19.25734149936433], [73.6455083047808, 19.257399646862808], [73.6454430879895, 19.257457794340702], [73.64537787029985, 19.257515940949908], [73.64531265350854, 19.257574088386544], [73.64524743671724, 19.257632235802582], [73.64518221992593, 19.25769038319802], [73.64511700223632, 19.2577485305728], [73.645051785445, 19.25780667792701], [73.64498656865369, 19.257864825260572], [73.64492135186238, 19.25792297257352], [73.64485613417274, 19.25798111986585], [73.64479091738143, 19.258039267137566], [73.64472570059013, 19.258097414388672], [73.6446604837988, 19.25815556161917], [73.64459526610919, 19.258213708829008], [73.64453004931788, 19.258271856018258], [73.64446483252658, 19.258330003186874], [73.64439961573527, 19.258388150334905], [73.64433439894395, 19.258446296614252], [73.64426918125432, 19.25850444372105], [73.64420396446299, 19.25856259080719], [73.64413874767169, 19.258620737872743], [73.64407353088038, 19.25867888491765], [73.64400831319074, 19.25873703194197], [73.64394309639943, 19.258795178945682], [73.64387787960811, 19.258853325928733], [73.6438126628168, 19.258911472891196], [73.64374744512719, 19.258969619833053], [73.64368222833588, 19.259027766754247], [73.64361701154458, 19.25908591365487], [73.64355179475325, 19.259144060534833], [73.64348657796195, 19.259202207394225], [73.64342136027231, 19.25926035423298], [73.64335614348099, 19.259318501051084], [73.64329092668969, 19.25937664700057], [73.64322570989837, 19.25943479377747], [73.64316049220876, 19.25949294053372], [73.64309527541745, 19.259551087269397], [73.64303005862614, 19.259609233984442], [73.64296484183483, 19.259667380678838], [73.64289962414519, 19.25972552735266], [73.64283440735387, 19.25978367400585], [73.64276919056257, 19.259841820638403], [73.64274089542776, 19.259921955188776], [73.64271260029291, 19.26000208969999], [73.6426843051581, 19.260082225020074], [73.64265601002329, 19.260162359452973], [73.64262771488846, 19.260242493846697], [73.64259941885534, 19.260322628201276], [73.64257112372051, 19.260402763364723], [73.6425428285857, 19.260482897640973], [73.64251453345089, 19.26056303187806], [73.64248623831604, 19.260643166075955], [73.64245794318123, 19.260723301082763], [73.64242964804642, 19.260803435202362], [73.64240135291159, 19.26088356928279], [73.64237305777678, 19.260963703324073], [73.64234476264197, 19.261043838174196], [73.64231646660883, 19.261123972137145], [73.64228817147402, 19.261204106060926], [73.64225987633917, 19.26128423994556], [73.64223158120436, 19.261364374639033], [73.64220328606956, 19.261444508445322], [73.64217499093472, 19.261524642212454], [73.64214669579991, 19.261604775940427], [73.6421184006651, 19.261684909629228], [73.64209010553029, 19.261765044126918], [73.64206181039545, 19.26184517773739], [73.64203351526065, 19.261925311308673], [73.6420052192275, 19.262005444840813], [73.64197692409269, 19.262085579181843], [73.64194862895785, 19.262165712635664], [73.64192033382304, 19.262245846050313], [73.64189203868823, 19.262325979425803], [73.64186374355339, 19.262406113610133], [73.64183544841858, 19.262486246907294], [73.64180715328378, 19.262566380165282], [73.64177885814897, 19.26264651338411], [73.64175056301411, 19.262726647411778], [73.64172226698098, 19.262806780552264], [73.64169397184617, 19.262886913653603], [73.64166567671136, 19.262967046715783], [73.64163738157652, 19.263047180586803], [73.64160908644172, 19.263127313570628], [73.64158079130691, 19.263207446515292], [73.64156814841759, 19.263290989312733], [73.6415555064266, 19.263374532915655], [73.64154286353728, 19.26345807562795], [73.6415302215463, 19.263541618297698], [73.64151757865699, 19.263625160924878], [73.64150493576766, 19.263708704357487], [73.64149229377668, 19.263792246899516], [73.64147965088736, 19.26387578939898], [73.64146700889638, 19.263959331855872], [73.64145436600705, 19.264042875118196], [73.64144172311778, 19.26412641748994], [73.64142908112676, 19.264209959819116], [73.64141643823747, 19.264293502105684], [73.64140379624645, 19.264377045197744], [73.64139115335718, 19.264460587399164], [73.64137851046786, 19.26454412955805], [73.64136586847687, 19.26462767167437], [73.64135322558757, 19.264711214596094], [73.64134058359657, 19.264794756627264], [73.64132794070726, 19.26487829861584], [73.64131529781794, 19.26496184056186], [73.64130265582695, 19.265045383313296], [73.64129001293765, 19.265128925174153], [73.64127737094665, 19.265212466992455], [73.64126472805734, 19.26529600876814], [73.64125208606634, 19.265379551349312], [73.64123944317704, 19.265463093039845], [73.64122680028773, 19.265546634687833], [73.64121415829673, 19.265630176293254], [73.64120151540742, 19.26571371870408], [73.64118887341643, 19.265797260224353], [73.64117623052712, 19.265880801702043], [73.64116358763779, 19.265964343137163], [73.64115094564681, 19.266047885377688], [73.6411383027575, 19.26613142672766], [73.64112566076652, 19.266214968035037], [73.64111301787719, 19.26629850929982], [73.64110037498791, 19.266382051370073], [73.6410877329969, 19.26646559254973], [73.6410750901076, 19.26654913368677], [73.64106244811659, 19.266632674781278], [73.6410498052273, 19.266716216681193], [73.641037162338, 19.26679975769054], [73.641024520347, 19.266883298657316], [73.64101187745769, 19.266966839581514], [73.6409992354667, 19.2670503813111], [73.64098659257739, 19.267133922150148], [73.64097394968807, 19.2672174629466], [73.64096130769708, 19.26730100454846], [73.64094866480777, 19.267384545259773], [73.64093602281677, 19.267468085928495], [73.64092337992747, 19.2675516265546], [73.64091073703815, 19.267635167986196], [73.64089809504716, 19.26771870852715], [73.64088545215785, 19.267802249025543], [73.64087280926853, 19.267885789481387], [73.64086016727755, 19.267969330742606], [73.64084752438824, 19.268052871113284], [73.64083488239724, 19.26813641144137], [73.64082223950793, 19.268219952574857], [73.64080959661864, 19.26830349281778], [73.64079695462763, 19.268387033018133], [73.64078431173834, 19.268470573175904], [73.64077166974732, 19.268554114139068], [73.64075902685803, 19.268637654211677], [73.64074638396872, 19.268721194241692], [73.64073374197774, 19.268804735077126], [73.64072109908842, 19.26888827502198], [73.6407084561991, 19.26897181492424], [73.64069581420812, 19.26905535478393], [73.6406831713188, 19.269138895449064], [73.64067052932782, 19.269222435223565], [73.6406578864385, 19.269305974955525], [73.64064524354919, 19.26938951464489], [73.6406326015582, 19.26947305513965], [73.64061995866888, 19.269556594743865], [73.64060731577959, 19.269640134305483], [73.64059467378858, 19.2697236746725], [73.6405820308993, 19.26980721414896], [73.64056938890828, 19.269890753582835], [73.64055674601899, 19.269974292974105], [73.64054410312967, 19.270057833170796], [73.64053146113869, 19.270141372476928], [73.64051881824938, 19.270224911740442], [73.64050617625838, 19.270308451809402], [73.64049353336907, 19.27039199098774], [73.64048089047975, 19.270475530123537], [73.64046824848877, 19.270559069216738], [73.64045560559946, 19.27064260911532], [73.64044296271014, 19.27072614812336], [73.64043032071915, 19.270809687088807], [73.64041767782984, 19.270893226011683], [73.64040503583885, 19.270976765739928], [73.64039239294954, 19.271060304577617], [73.64031811844522, 19.271020240029678], [73.64024384304258, 19.27098017547193], [73.64016956853827, 19.2709401109044], [73.64009529313563, 19.270900045479074], [73.64002101863132, 19.270859980891952], [73.63994674322868, 19.27081991629506], [73.63987246872436, 19.270779851688346], [73.63979819422002, 19.270739787071836], [73.63972391881737, 19.270699722445528], [73.63964964431307, 19.270659657809425], [73.63957536891043, 19.270619592315526], [73.63950109440611, 19.270579527659844], [73.63942681900348, 19.270539462994368], [73.63935254449916, 19.270499398319078], [73.63927826999482, 19.27046044618873], [73.63920399459221, 19.27042149489714], [73.63912972008787, 19.27038254274824], [73.63905544468523, 19.270343590590116], [73.63898117018091, 19.270304639270744], [73.63890689477826, 19.27026568709411], [73.63883262027394, 19.270226734908174], [73.6387583448713, 19.27018778356103], [73.63868407036699, 19.27014883135662], [73.63860979586269, 19.270109879142954], [73.63853552046005, 19.270070927767996], [73.6384612459557, 19.270031975535804], [73.6383869705531, 19.269993023294376], [73.63831269604874, 19.269954071891636], [73.6382384206461, 19.269915119631683], [73.63816414614179, 19.269876167362458], [73.63808987073915, 19.269837215931954], [73.63801559623485, 19.26979826364423], [73.6379293417979, 19.26978469330439], [73.63784308646264, 19.269771122963434], [73.63775683202567, 19.26975755262133], [73.63767057758872, 19.26974398227812], [73.63758432225347, 19.269730411933786], [73.6374980678165, 19.269716841588348], [73.63741181337956, 19.26970327124174], [73.6373255580443, 19.269689700046065], [73.63723930360734, 19.269676129697206], [73.63715304827208, 19.269662559347278], [73.63706679383512, 19.269648988996206], [73.63698053939818, 19.26963541864401], [73.63689428406292, 19.26962184829066], [73.63680802962595, 19.269608277936232], [73.636721775189, 19.269594707580655], [73.63663551985374, 19.269581137223984], [73.6365492654168, 19.269567566866165], [73.63646301097982, 19.26955399650719], [73.63637675564456, 19.269540426147138], [73.63629050120763, 19.26952685578595], [73.63620424677066, 19.269513285423645], [73.6361179914354, 19.269499715060192], [73.63603173699845, 19.269486144695644], [73.63594548166319, 19.269472573481956], [73.63585922722625, 19.26945900311516], [73.63577297278928, 19.26944543274724], [73.63568671745402, 19.26943186237819], [73.63560046301707, 19.269418292007984], [73.6355142085801, 19.269404721636693], [73.63542795324484, 19.269391151264273], [73.6353416988079, 19.269377580890733], [73.63525256886372, 19.26938459206681], [73.63516343891955, 19.269391604090554], [73.63507430897536, 19.269398615266034], [73.63498517903119, 19.26940562644121], [73.63489604908705, 19.269412637616078], [73.63480691914287, 19.269419649638664], [73.63471778919869, 19.269426660812936], [73.63462865925452, 19.269433671986913], [73.63453952931033, 19.2694406831606], [73.63445040026448, 19.269447695181963], [73.63436127032031, 19.269454706355052], [73.63427214037611, 19.269461717527832], [73.63418301043194, 19.269468728700296], [73.63409388048777, 19.269475740720456], [73.63400475054358, 19.269482751892323], [73.63391562059941, 19.26948976306391], [73.63382649065522, 19.269496774235176], [73.63373736071108, 19.269503786254162], [73.63364823076691, 19.269510797424847], [73.63355910082274, 19.26951780859521], [73.63347244663548, 19.26951780859521], [73.6333857924482, 19.26951780859521], [73.63329913915928, 19.26951780859521], [73.63321248497205, 19.26951780859521], [73.63312583078476, 19.26951780859521], [73.63303917659752, 19.26951780859521], [73.63295252241028, 19.26951780859521], [73.63286586822302, 19.26951780859521], [73.63277921493408, 19.26951780859521], [73.63269256074683, 19.26951780859521], [73.63260590655959, 19.26951780859521], [73.63251925237232, 19.26951780859521], [73.63243528953767, 19.269536098861558], [73.632351326703, 19.26955438997384], [73.63226736386837, 19.269572680236116], [73.63218340013535, 19.26959097049637], [73.63209943730071, 19.269609261602522], [73.63201547446604, 19.269627551858676], [73.6319315116314, 19.269645842112773], [73.63184754879671, 19.269664133212842], [73.63176358596205, 19.269682423462854], [73.63167962312741, 19.26970071371083], [73.63159566029273, 19.26971900480474], [73.63151169655977, 19.26973729504867], [73.63142773372512, 19.2697555861385], [73.63134377089044, 19.26977387637832], [73.63125980805577, 19.26979216661608], [73.63117584522114, 19.269810457699815], [73.63109188238646, 19.269828747933516], [73.63100791955182, 19.269847038165157], [73.63092395671714, 19.269865329242773], [73.63083999298416, 19.269883619470342], [73.6307560301495, 19.269901909695864], [73.63067206731486, 19.26992020076731], [73.63058810448018, 19.26993849098876], [73.63050072265754, 19.26993849098876], [73.6304133399366, 19.26993849098876], [73.63032595811397, 19.26993849098876], [73.63023857539301, 19.26993849098876], [73.63015119357038, 19.26993849098876], [73.63006381084942, 19.26993849098876], [73.6299764290268, 19.26993849098876], [73.62988904630588, 19.26993849098876], [73.62980166448321, 19.26993849098876], [73.62971428176229, 19.26993849098876], [73.62962689993967, 19.26993849098876], [73.6295395172187, 19.26993849098876], [73.62945213539608, 19.26993849098876], [73.62936475267513, 19.26993849098876], [73.62927737085249, 19.26993849098876], [73.62918998813153, 19.26993849098876], [73.6291026063089, 19.26993849098876], [73.62902510236113, 19.269901909695864], [73.62894759751505, 19.269865329242773], [73.62887009356729, 19.269828747933516], [73.62879258961954, 19.26979216661608], [73.62871508477343, 19.2697555861385], [73.62863758082568, 19.26971900480474], [73.6285600768779, 19.269682423462854], [73.62848257203183, 19.269645842112773], [73.62840506808406, 19.269609261602522], [73.62832756413628, 19.269572680236116], [73.62825005929021, 19.269536098861558], [73.62817255534243, 19.269499518326818], [73.62809505049636, 19.26946293693591], [73.62801754654858, 19.269426355536833], [73.6279400426008, 19.26938977497759], [73.62786253775474, 19.269353193562218], [73.62778503380694, 19.269316612138653], [73.62770752985921, 19.26928003070692], [73.62763002501309, 19.269243450115017], [73.62755252106535, 19.269206868666988], [73.62747501711758, 19.269170287210752], [73.62739751227151, 19.26913370659436], [73.62732000832372, 19.2690971251218], [73.627300799648, 19.269014922565624], [73.62728159007396, 19.268932719968245], [73.62726238139827, 19.268850517329575], [73.62724317182422, 19.268768314649716], [73.6272239631485, 19.26868611192865], [73.62720475357446, 19.268603909166295], [73.62718554489872, 19.268521706362748], [73.6271663353247, 19.268439503517946], [73.62714712664899, 19.268357300631944], [73.62712791707497, 19.268275096856726], [73.62710870839922, 19.268192893888276], [73.6270894988252, 19.268110690878554], [73.62707029014946, 19.26802848782765], [73.62705108057543, 19.267946284735512], [73.62703187189973, 19.267864081602116], [73.62701266322398, 19.267781878427527], [73.62699345364996, 19.267699675211677], [73.62697424497422, 19.267617471954637], [73.62695503540019, 19.26753526865636], [73.62693582672449, 19.26745306531684], [73.62691661804877, 19.2673708619361], [73.62689740847473, 19.26728865851415], [73.626878199799, 19.267206455050946], [73.62685899022496, 19.267124251546544], [73.62683978154926, 19.26704204800091], [73.62682057287353, 19.266959844414032], [73.62680136329949, 19.26687764078596], [73.62678215462378, 19.266795437116613], [73.62676294594804, 19.266713233406076], [73.62674373637402, 19.26663102880632], [73.62672452679999, 19.266548825013327], [73.62670531812425, 19.266466621179102], [73.62668610944854, 19.26638441730366], [73.62666689987452, 19.266302213387018], [73.62664769119878, 19.266220009429098], [73.62662848162475, 19.266137805430006], [73.62660927294903, 19.266055601389645], [73.62659006337498, 19.265973397308088], [73.62657085469928, 19.265891193185322], [73.62655164602356, 19.265808989021288], [73.62653243644952, 19.26572678481607], [73.62651322777378, 19.26564458056962], [73.62649401819975, 19.265562376281927], [73.62647480952405, 19.265480172801023], [73.62645559995002, 19.265397967582928], [73.62643639127428, 19.26531576317156], [73.62641718259854, 19.265233558718997], [73.62639797302451, 19.26515135422519], [73.62637876434881, 19.265069149690188], [73.62635955477478, 19.264986944265942], [73.62634034609904, 19.264904740496487], [73.62632113652501, 19.264822534989786], [73.62630192784928, 19.264740330289893], [73.62628271917359, 19.26465812639679], [73.62626350959954, 19.264575920766415], [73.62624430092382, 19.264493716790874], [73.62622509134978, 19.264411511078062], [73.62620588267409, 19.264329306172066], [73.62618667399835, 19.26424710207285], [73.62616746442431, 19.26416489623638], [73.62614825574857, 19.26408269205475], [73.62612904617455, 19.26400048613585], [73.62610983749884, 19.263918281023717], [73.6260906288231, 19.263836076718402], [73.62607141924907, 19.263753870675828], [73.62605221057333, 19.263671665440075], [73.62603300189764, 19.263589460163086], [73.6260137923236, 19.263507253996856], [73.62599458364788, 19.26342504948544], [73.62597537407385, 19.26334284323678], [73.62595616539811, 19.263260638642926], [73.62593695582409, 19.26317843231181], [73.62591774714838, 19.263096226787532], [73.62589853847264, 19.263014022070028], [73.6258793288986, 19.262931815615257], [73.62586012022291, 19.262849610815312], [73.62584091064885, 19.262767404278115], [73.62582170197314, 19.262685198547732], [73.6258024932974, 19.262602993624142], [73.62578328372337, 19.262520786963282], [73.62576407504767, 19.26243858195728], [73.62574486547364, 19.26235637521398], [73.6257256567979, 19.2622741692775], [73.62570644812217, 19.26219196414782], [73.62568723854814, 19.26210975728086], [73.62566802987244, 19.262027551220758], [73.6256488211967, 19.26194534511941], [73.62562961162267, 19.261863138128817], [73.62561040294693, 19.261780932793066], [73.6255911933729, 19.26169872572003], [73.6255719846972, 19.261616519453828], [73.62555277602146, 19.261534313994417], [73.62553356644743, 19.261452106797734], [73.62551435777173, 19.261369901255907], [73.62549514819766, 19.2612876939768], [73.62547593952196, 19.261205487504522], [73.62545673084624, 19.261123281839037], [73.6254375212722, 19.26104107443628], [73.62541831259651, 19.26095886868837], [73.62539910302246, 19.260876661203184], [73.62537989434674, 19.260794454524834], [73.625360685671, 19.260712248653284], [73.62534147609696, 19.260630041044443], [73.62532226742127, 19.260547835090467], [73.62530305784723, 19.26046562739921], [73.6252838491715, 19.260383420514785], [73.6252646404958, 19.26030121358915], [73.62524543092172, 19.260219005774246], [73.62522622224603, 19.260136799614195], [73.62520701267199, 19.260054591716862], [73.62518780399625, 19.259972384626387], [73.62516859532056, 19.25989017749464], [73.62514938664482, 19.259807970321724], [73.62513017796908, 19.2597257631076], [73.62511096929339, 19.259643555852232], [73.62509176061766, 19.259561348555682], [73.62502423785104, 19.259507166412774], [73.62495671508437, 19.25945298425195], [73.62488919231774, 19.259398802073243], [73.6248216704494, 19.259344620724683], [73.62475414768275, 19.259290438510163], [73.6246866249161, 19.259236256277738], [73.62461910214947, 19.259182074027418], [73.6245515793828, 19.25912789175918], [73.62448405661617, 19.25907370947306], [73.62441653384951, 19.259019527169038], [73.6243490110829, 19.258965344847102], [73.62428148831623, 19.258911162507264], [73.62421396554956, 19.25885698014953], [73.62414644278293, 19.258802797773892], [73.62407892001627, 19.258748615380345], [73.62401139724965, 19.258694432968934], [73.62394387448299, 19.258640250539585], [73.62387635171636, 19.258586068092345], [73.62380882984803, 19.258531885627196], [73.62374130708136, 19.25847770314415], [73.62367378431472, 19.2584235206432], [73.62360626244637, 19.258369338124346], [73.62353873967976, 19.258315155587585], [73.62347121691309, 19.258260973032932], [73.62340369414646, 19.25820679046037], [73.62333617227814, 19.25815260786992], [73.62326864951147, 19.258098425261544], [73.62320112674485, 19.25804424263528], [73.62313360397819, 19.257990059991126], [73.62306608121153, 19.25793587732909], [73.6229985584449, 19.25788169464911], [73.62293103567823, 19.25782751195125], [73.62286351380992, 19.257773329235484], [73.62279599104328, 19.257719146501806], [73.62272846827662, 19.25766496375024], [73.62266094551, 19.257610780980762], [73.62259342274334, 19.257556598193396], [73.62252589997667, 19.257502415388117], [73.62245837721004, 19.25744823256494], [73.6223908544434, 19.25739404972386], [73.62232333257505, 19.257339866864882], [73.62225580980842, 19.257285683988005], [73.62218828704177, 19.257231501093226], [73.62212076427514, 19.257177318180545], [73.62205982076962, 19.25711618884961], [73.6219988772641, 19.25705505949586], [73.62193793375862, 19.25699393011933], [73.6218769893548, 19.256932799871937], [73.62181604584929, 19.256871670449826], [73.62175510234377, 19.25681054100494], [73.62169415883828, 19.256749411537257], [73.62163321533275, 19.256688282046813], [73.62157227182729, 19.256627152533557], [73.62151132832176, 19.256566022997553], [73.62145038481623, 19.256504893438755], [73.62138944131075, 19.256443763857156], [73.62132849780524, 19.256382634252773], [73.62126755429975, 19.256321504625614], [73.62120661079423, 19.25626037497566], [73.62114566728872, 19.25619924530293], [73.62108472378323, 19.25613811475934], [73.62102378027771, 19.256076985041044], [73.62096283677222, 19.2560158553], [73.6209018932667, 19.255954724688053], [73.62084094976119, 19.255893594901398], [73.6207800062557, 19.25583246509197], [73.62071906275018, 19.255771334411705], [73.6206581192447, 19.255710204556706], [73.62059717573918, 19.25564907467892], [73.62053623223369, 19.255587944778352], [73.62047528872817, 19.255526814854996], [73.62041434522266, 19.255465684908867], [73.62035340171717, 19.255404554939943], [73.62029245821165, 19.255343424100204], [73.62023151470618, 19.25528229408572], [73.62017057120065, 19.25522116404846], [73.62010962769513, 19.255160033988407], [73.62004868418964, 19.255098903905566], [73.61998774068412, 19.255037773799952], [73.61992679717864, 19.254976642823475], [73.61986585367312, 19.25491551267229], [73.6198049101676, 19.254854382498372], [73.61974396666211, 19.254793252301628], [73.6197414154467, 19.254708953789063], [73.61973886333297, 19.25462465523322], [73.61973631211758, 19.254540356634042], [73.61973376090216, 19.254456058839597], [73.61973120968676, 19.25437176015377], [73.61972865847135, 19.254287461424635], [73.61972610725596, 19.254203162652168], [73.61972355604054, 19.254118863836382], [73.61972100482515, 19.25403456497724], [73.61971845360972, 19.253950266922907], [73.61971590239433, 19.253865967977138], [73.6197133511789, 19.253781668988037], [73.61971079996351, 19.253697369955642], [73.6197082487481, 19.25361307087992], [73.61970569753271, 19.253528771760873], [73.61970314631728, 19.25344447344656], [73.61970059510189, 19.25336017424089], [73.61969804388646, 19.253275874991875], [73.61969549267107, 19.253191575699553], [73.61969294145565, 19.253107276363913], [73.61969039024027, 19.2530229769849], [73.61968783902483, 19.252938678410697], [73.61968528780945, 19.252854378945088], [73.61968273659403, 19.252770079436143], [73.61968018537864, 19.252685779883894], [73.61967763416321, 19.252601480288313], [73.61967508294782, 19.252517180649427], [73.61967253173239, 19.252432881815285], [73.619669980517, 19.252348582089756], [73.61966742930159, 19.252264282320912], [73.6196648780862, 19.252179982508746], [73.61966232687077, 19.252095682653238], [73.61965977565538, 19.252011382754436], [73.61965722443996, 19.251927083660405], [73.61965467322457, 19.251842783674938], [73.61965212200914, 19.251758483646178], [73.61964957079375, 19.2516741835741], [73.6196544118148, 19.251667400622566], [73.61971378237024, 19.251610736930388], [73.61977315292567, 19.251554074066668], [73.61983252348114, 19.251497410335347], [73.61989189403658, 19.251440746584418], [73.61995925780143, 19.251401132662455], [73.62002662066793, 19.251361519579035], [73.62008878049237, 19.251347466850422], [73.62015094121504, 19.251333414120612], [73.62021310103945, 19.25131936138962], [73.62029818317495, 19.251316248077703], [73.62038326620878, 19.251313133917662], [73.6204683483443, 19.251310020605658], [73.62055343047979, 19.251306907293575], [73.62063851261529, 19.251303793981442], [73.6207235956491, 19.251300680669235], [73.62080867778462, 19.251297567356975], [73.62088595535694, 19.251288907582374], [73.62096323382758, 19.251280246959215], [73.62104051139987, 19.251271587183687], [73.62111778987051, 19.251262926559622], [73.62119506744283, 19.251254266783178], [73.62128028522395, 19.25123835589512], [73.62136550390336, 19.25122244415746], [73.62145072168448, 19.251206533266323], [73.6215359394656, 19.251190622373635], [73.62162115814502, 19.251174710631318], [73.62170637592614, 19.25115879973555], [73.62178809207427, 19.251145065869053], [73.6218698082224, 19.251131332849493], [73.62195152437053, 19.251117598980684], [73.62203324051868, 19.251103865958818], [73.6221149566668, 19.251090132087732], [73.62219667281494, 19.251076399063564], [73.62227838896307, 19.251062665190176], [73.62236010511121, 19.251048932163716], [73.62244182125934, 19.25103519828801], [73.62252104188764, 19.250999587226694], [73.62260026341424, 19.250963976157628], [73.6226794840425, 19.250928365928925], [73.62275870467076, 19.2508927548444], [73.62283792619735, 19.250857143752143], [73.62291714682564, 19.25082153265216], [73.62297999026796, 19.250770132735298], [73.6230428337103, 19.250718732802355], [73.62310567715262, 19.250667332853293], [73.62316852059496, 19.250615932888138], [73.62323136403728, 19.250564532906836], [73.62325301433395, 19.250488022749305], [73.62327466463061, 19.250411511708013], [73.62329631492729, 19.250335001479122], [73.62331796522393, 19.25025849036646], [73.62336427158021, 19.25019970851051], [73.62341057793648, 19.250140926633506], [73.62345688429274, 19.250082144735433], [73.62350319154731, 19.250023361968204], [73.62354949880192, 19.24996458002802], [73.62359580515817, 19.24990579806678], [73.62363847962574, 19.249851126778545], [73.62368115499163, 19.24979645547205], [73.62372382945921, 19.249741784147353], [73.6237665039268, 19.24968711280446], [73.62383716001713, 19.249643028169153], [73.62390781520917, 19.249598943521992], [73.62397847129954, 19.249554858862982], [73.62403558079542, 19.249490237640046], [73.62409269029129, 19.24942561639164], [73.62414979978716, 19.249360994269686], [73.62420690928303, 19.249296372970406], [73.62425870254906, 19.249231097765517], [73.62431049581507, 19.249165822534625], [73.62436228908108, 19.24910054727779], [73.6244140823471, 19.24903527199499], [73.62446587561313, 19.248969996686228], [73.62451766887914, 19.248904721351497], [73.62456946214519, 19.248839445990775], [73.6246212554112, 19.248774170604097], [73.62466305132642, 19.24870137596976], [73.6247048463433, 19.248628582151216], [73.62474664225857, 19.248555787452272], [73.62478843817378, 19.24848299272105], [73.624830234089, 19.248410197957504], [73.62487203000423, 19.248337404009767], [73.62491382591944, 19.24826460918168], [73.62495562183466, 19.248191814321252], [73.62499112505132, 19.248117033179938], [73.62502662736968, 19.24804225200455], [73.62506213058633, 19.247967470795068], [73.62509763380298, 19.247892688703388], [73.62513313612133, 19.247817907425716], [73.62516863933799, 19.247743126114], [73.62519225784344, 19.247665887817696], [73.62521587724721, 19.247588649485046], [73.62523949575268, 19.247511411964147], [73.62526311425813, 19.247434173558766], [73.62528673276356, 19.247356935117047], [73.625310351269, 19.247279696638955], [73.62533401918179, 19.247202460668845], [73.62535768619628, 19.247125225510466], [73.62538135321076, 19.247047989467635], [73.6254050202252, 19.24697075338847], [73.62542868723972, 19.246893518121023], [73.62545235425416, 19.246816281969153], [73.62546875030472, 19.246733455911198], [73.62548514725363, 19.246650628963323], [73.6255015442025, 19.24656780282177], [73.62551794025306, 19.246484976638385], [73.62553433720194, 19.246402149565096], [73.62555073325252, 19.246319323298128], [73.62556713020139, 19.246236496141226], [73.62558352715027, 19.246153669790647], [73.62559347689036, 19.246070352342617], [73.62560342573215, 19.2459870357004], [73.62561337547223, 19.245903718167778], [73.62562332431398, 19.245820400592855], [73.62563327405407, 19.245737083823734], [73.6256432237942, 19.24565376616421], [73.62565317353427, 19.245570448462395], [73.62566312327435, 19.245487130718267], [73.62567307301444, 19.24540381377994], [73.62568302275453, 19.245320495951223], [73.6256929724946, 19.245237178080167], [73.6257029222347, 19.245153861014987], [73.62571287197478, 19.245070543059363], [73.62571559925996, 19.24499247913689], [73.62571832564686, 19.24491441517731], [73.62572105293208, 19.244836351180602], [73.62572378021727, 19.244758287146745], [73.62572650750249, 19.24468022307578], [73.62572923478767, 19.244602158967638], [73.62573196207289, 19.2445240948224], [73.6257346893581, 19.244446030640034], [73.62573741664328, 19.244367966420523], [73.6257401439285, 19.244289902163903], [73.62574287121367, 19.244211837870104], [73.62574820001996, 19.24413381933771], [73.62575352972455, 19.244055800768177], [73.6257588585308, 19.243977782161576], [73.62576418823537, 19.24389976351787], [73.62576951704166, 19.243821744837135], [73.6257748458479, 19.243743725271123], [73.62578017465418, 19.243665706516204], [73.62578550346043, 19.24358768772416], [73.62579083226672, 19.243509668895033], [73.62579616107296, 19.243431650028818], [73.62580148987925, 19.243353631125558], [73.62583931254596, 19.243281906963965], [73.62587713611099, 19.24321018192291], [73.62591495877771, 19.243138457698667], [73.62595278234278, 19.24306673259493], [73.62599060500949, 19.242995008307986], [73.62602842857451, 19.242923283141558], [73.62607113807638, 19.242856798517636], [73.62611384667997, 19.24279031386674], [73.62615655618183, 19.24272382918893], [73.6261992656837, 19.24265734363607], [73.62624197518556, 19.242590858904425], [73.62628468378911, 19.242524374145802], [73.62632739329098, 19.242457889360306], [73.6263910766581, 19.24241191145567], [73.6264547591269, 19.242365933538153], [73.62651844249403, 19.24231995475965], [73.62658212496284, 19.24227397681641], [73.62664580832994, 19.242227998860272], [73.62671204201416, 19.2421855652265], [73.62677827480006, 19.242143132429874], [73.62684450848428, 19.242100699622295], [73.62691074127018, 19.242058266803724], [73.62697697495437, 19.242015833126086], [73.6270432077403, 19.24197340028558], [73.6271094414245, 19.241930966585972], [73.62717567421038, 19.241888533723532], [73.6272543845956, 19.24185456266025], [73.62733309498078, 19.24182059243806], [73.627411805366, 19.24178662136072], [73.62749051575116, 19.241752650276318], [73.62756922613639, 19.24171867918493], [73.62764793652156, 19.24168470808646], [73.62772664690677, 19.241650736981004], [73.62780535729195, 19.241616765868486], [73.62788406767716, 19.241582794748957], [73.62796277806234, 19.24154882362237], [73.62804374591386, 19.241523859665755], [73.62812471286705, 19.241498896553473], [73.62820568071854, 19.241473933437376], [73.62828664857005, 19.241448969469364], [73.62836761552323, 19.24142400634567], [73.62844858337472, 19.241399043218188], [73.62852955032791, 19.241374080086924], [73.62861051817943, 19.24134911610372], [73.62869148603092, 19.24132415296485], [73.62877245298411, 19.24129918982218], [73.62885342083563, 19.24127422667574], [73.62892411196027, 19.241236509273545], [73.62899480308494, 19.24119879186273], [73.62906549510788, 19.24116107444318], [73.62913618623254, 19.241123357015034], [73.62920687735719, 19.241085639578213], [73.62927756848185, 19.241047922132676], [73.6293482596065, 19.241010204678513], [73.62941895162946, 19.240972487215686], [73.62948964275412, 19.24093476974417], [73.62956033387879, 19.240897052264003], [73.62962236344745, 19.240845317617094], [73.62968439211784, 19.240793583802024], [73.62974642168652, 19.240741849970647], [73.62980845125522, 19.240690116122973], [73.6298704808239, 19.240638382258986], [73.62993251039258, 19.240586648378745], [73.62999122607616, 19.24052348411904], [73.63004994175978, 19.240460319835012], [73.63010865744336, 19.240397155526697], [73.63016737312698, 19.240333991194095], [73.63022608881056, 19.240270826837182], [73.6302848053925, 19.240207661607844], [73.63034352107609, 19.24014449720233], [73.63040223675969, 19.240081332772505], [73.63046095244329, 19.240018168318368], [73.63051966812691, 19.239955003839945], [73.63057838381049, 19.23989183933721], [73.63062716412703, 19.239828206635707], [73.63067594534192, 19.23976457390951], [73.63072472565847, 19.23970094200682], [73.63077350687335, 19.239637309231313], [73.6308222871899, 19.239573676431124], [73.6308710684048, 19.23951004360629], [73.63091984961964, 19.239446410756802], [73.63096862993623, 19.23938277873076], [73.6310174102528, 19.239319145831935], [73.63106619056934, 19.239255512908453], [73.63111497178423, 19.23919187996029], [73.63116375210078, 19.239128246987473], [73.63121726833549, 19.23906552405075], [73.63127078457025, 19.239002801090056], [73.63132429990665, 19.23894007895356], [73.63137781614141, 19.238877355944943], [73.63143133147783, 19.23881463291237], [73.63148484771254, 19.238751909855853], [73.63153836304896, 19.238689186775343], [73.63159187838538, 19.238626463670865], [73.63164539372181, 19.238563740542432], [73.63169890995655, 19.238501017390078], [73.63175242529297, 19.238438294213704], [73.63180594152769, 19.23837557101338], [73.63185945686415, 19.238312847789093], [73.63191297309886, 19.23825012454088], [73.63196648843528, 19.238187401268657], [73.63202292060144, 19.238130772785194], [73.63207935186928, 19.238074145130344], [73.63213578403541, 19.238017517455976], [73.63219221620156, 19.237960888913914], [73.63224864746941, 19.237904261200462], [73.63230507963556, 19.237847632619346], [73.6323615109034, 19.23779100486685], [73.63241794306953, 19.2377343753985], [73.63247437433735, 19.23767774760692], [73.63253080560519, 19.23762111894766], [73.63258723687302, 19.237564490268877], [73.63263929424375, 19.23750385489034], [73.63269135071614, 19.237443220337532], [73.63274340808685, 19.23738258491416], [73.63279546455924, 19.237321950316577], [73.63284752192997, 19.237261314848446], [73.63289957930067, 19.2372006793579], [73.63295163667141, 19.237140043844988], [73.6330036940421, 19.23707940915784], [73.63305575141283, 19.237018774448273], [73.63310780878352, 19.23695813886819], [73.633159315487, 19.236893751017714], [73.63321082219045, 19.236829362293896], [73.63326232889389, 19.236764974392926], [73.63331383559733, 19.236700586466743], [73.63336534230078, 19.236636198515317], [73.63341684900422, 19.23657180969046], [73.63346835570766, 19.23650742168853], [73.63352819159043, 19.236464088375133], [73.6335880274732, 19.236420755050275], [73.63364786335596, 19.236377422562196], [73.63370769923868, 19.236334089214477], [73.63376753512145, 19.236290755855347], [73.63383481085141, 19.2362568099267], [73.63390208568305, 19.2362228648392], [73.63396936141297, 19.236188918896485], [73.6340366362446, 19.236154972946785], [73.63410929827297, 19.23613899359015], [73.63418196030136, 19.236123015080167], [73.63425462232976, 19.23610703572044], [73.63432728435815, 19.236091057207314], [73.63439994638654, 19.236075077844472], [73.63448007700819, 19.23606645967473], [73.63456020673155, 19.23605784235271], [73.6346403373532, 19.236049225030236], [73.63472046707653, 19.236040607707274], [73.63480059769819, 19.236031990383893], [73.63488081635475, 19.236028036253646], [73.634961034113, 19.236024082123336], [73.63504125276954, 19.236020127992898], [73.63512147052778, 19.236016173862396], [73.63520168918436, 19.23601221973177], [73.6352819069426, 19.23600826560109], [73.63535934621166, 19.23602609990028], [73.63543678548075, 19.236043933349396], [73.6355142247498, 19.23606176764473], [73.63559166401888, 19.236079601089966], [73.63566910328792, 19.23609743538142], [73.63574654255702, 19.236115268822804], [73.63582726786339, 19.23612641111796], [73.63590799316975, 19.23613755341241], [73.63598871937445, 19.236148695706092], [73.63606944468081, 19.236159837150847], [73.63615016998719, 19.23617097859484], [73.6362308952936, 19.236182120886234], [73.6363197225055, 19.23618434221987], [73.63640854971743, 19.236186563553485], [73.63649737692936, 19.23618878488706], [73.63658620324296, 19.236191006220608], [73.63667503045487, 19.23619322755413], [73.63676385766679, 19.236195448887614], [73.63684382659171, 19.236183773952], [73.63692379551662, 19.236172098167415], [73.6370037635432, 19.23616042323017], [73.63708373246813, 19.23614874744392], [73.63716370139304, 19.236137072505], [73.63724367031794, 19.23612539671708], [73.63732363834453, 19.2361137217765], [73.63740360726943, 19.236102046835097], [73.63748400019915, 19.23607895224638], [73.63756439312888, 19.23605585850263], [73.63764478695693, 19.23603276390744], [73.63772517988663, 19.236009670157166], [73.63780557281635, 19.235986575555483], [73.63788596574608, 19.235963480950556], [73.6379663586758, 19.235940387190524], [73.63804675250384, 19.23591729257911], [73.63812714543354, 19.235894198812577], [73.63820753836329, 19.23587110419466], [73.6382807070415, 19.235840649217202], [73.6383538748214, 19.23581019423413], [73.63842704349958, 19.235779739245384], [73.63850021127948, 19.23574928509913], [73.63857337995768, 19.235718830099113], [73.63864654773757, 19.23568837509342], [73.63871971641579, 19.23565792008207], [73.63879288419568, 19.23562746506507], [73.63886553185101, 19.235588474967685], [73.63893817950634, 19.23554948570918], [73.63901082716171, 19.235510495593285], [73.63908347481706, 19.23547150631627], [73.63915612337073, 19.235432516181852], [73.63922877102604, 19.235393526038187], [73.63930141868138, 19.235354535885207], [73.63937406633671, 19.235315546571208], [73.63944671399206, 19.235276556399743], [73.63952522135803, 19.235235637489822], [73.63960372962225, 19.235194717721505], [73.63968223698822, 19.23515379879119], [73.63976074525245, 19.235112879002504], [73.63983925261839, 19.235071959203616], [73.63991776088265, 19.23503103939455], [73.63999626824858, 19.23499012042342], [73.64007477561452, 19.23494920144211], [73.64015328387879, 19.234908281602422], [73.64023179124473, 19.23486736260076], [73.640310299509, 19.234826442740665], [73.64038880687492, 19.23478552371857], [73.64046831316747, 19.234752615636825], [73.64054781946, 19.23471970670034], [73.64062732575255, 19.234686798605416], [73.64070683294338, 19.234653889655736], [73.64078633923593, 19.234620981547607], [73.64086584552847, 19.234588073432924], [73.640945351821, 19.234555165311615], [73.64102847293424, 19.234523375071205], [73.6411115949458, 19.234491583976478], [73.64119471605905, 19.23445979287559], [73.64127186966383, 19.23442714087595], [73.64134902416696, 19.234394488021607], [73.64142617777178, 19.23436183600897], [73.64150333227488, 19.234329183989853], [73.64158048587969, 19.23429653196426], [73.64165764038283, 19.23426387908395], [73.64173479398764, 19.23423122704536], [73.64181194759244, 19.23419857500025], [73.64188910209555, 19.234165922948655], [73.64196625570037, 19.23413327089057], [73.6420434102035, 19.234100617977845], [73.6421205638083, 19.23406796590677], [73.6422053468048, 19.234040415584232], [73.64229012980132, 19.23401286610524], [73.64237491279785, 19.233985315773452], [73.64245969579437, 19.233957766285208], [73.64254447968919, 19.233930215944184], [73.64262926268573, 19.233902665598542], [73.64271404568221, 19.23387511609643], [73.64279882867874, 19.23384756574154], [73.64288361167526, 19.233820016230183], [73.64296839467175, 19.233792465866053], [73.64304229727357, 19.233767207262026], [73.64311619897704, 19.233741949502306], [73.64319010157882, 19.233716690890507], [73.64326400328231, 19.233691432274824], [73.64333790588408, 19.233666173655262], [73.64341180758757, 19.23364091587997], [73.64348571018938, 19.233615657252624], [73.64356404957036, 19.233595463070586], [73.64364238805301, 19.233575269734242], [73.64372072743403, 19.233555076395394], [73.64379906591667, 19.233534883054052], [73.64387740529764, 19.233514688862076], [73.64395574378032, 19.233494495515775], [73.6440340831613, 19.233474302167014], [73.64411242164398, 19.23345410881575], [73.64419138984566, 19.233430996042987], [73.64427035894563, 19.233407883266942], [73.64434932714732, 19.23338477048765], [73.64442829624733, 19.233361657705128], [73.644507264449, 19.233338544919324], [73.64458623265068, 19.2333154321303], [73.6446652017507, 19.233292319337995], [73.64474416995238, 19.233269206542435], [73.64482313905235, 19.23324609374364], [73.64490210725404, 19.233222980941576], [73.64498415038894, 19.233199777381394], [73.64506619262552, 19.233176574666118], [73.64514823576043, 19.233153371099384], [73.64523027889534, 19.233130167529367], [73.64531232113191, 19.233106964804232], [73.64539436426679, 19.23308376122765], [73.64547640740172, 19.233060557647796], [73.64555844963829, 19.233037354912867], [73.6456404927732, 19.23301415132645], [73.64572253500978, 19.232990947736763], [73.64580457814465, 19.232967744143796], [73.64588662127957, 19.232944540547543], [73.64596866351614, 19.232921337796213], [73.64605070665107, 19.232898134193412], [73.64611953287317, 19.232856522577418], [73.64618835999362, 19.23281491010274], [73.64625718621573, 19.23277329846569], [73.64632601243785, 19.232731685969892], [73.6463948395583, 19.232690073463562], [73.6464636657804, 19.232648461794874], [73.64653249290085, 19.23260684926746], [73.64660131912296, 19.232565237577678], [73.64667014534513, 19.232523625877363], [73.64673897246554, 19.232482013318347], [73.64680779868768, 19.232440401596914], [73.64686632842, 19.232377765164443], [73.64692485905064, 19.23231512870806], [73.646983388783, 19.232252492227808], [73.64704191941364, 19.232189855723675], [73.647100449146, 19.232127219195622], [73.64715897887831, 19.232064582643705], [73.64721750950896, 19.23200194606787], [73.64727603924132, 19.23193930946818], [73.64733456987197, 19.231876672844574], [73.64739309960429, 19.231814036197115], [73.64745163023495, 19.23175139952572], [73.64751015996728, 19.231688762830476], [73.64756868969963, 19.231626126111326], [73.64762722033028, 19.231563489368295], [73.64768575006259, 19.231500852601346], [73.64774428069325, 19.231438215810556], [73.64780281042559, 19.23137557899585], [73.64786134015795, 19.231312942157274], [73.6479198707886, 19.231250305294783], [73.64797840052093, 19.231187668408438], [73.64803693115157, 19.2311250314982], [73.64809546088392, 19.23106239456404], [73.64815399151456, 19.230999757606043], [73.6482125212469, 19.230937120624116], [73.64827105097923, 19.230874483618322], [73.64832958160989, 19.230811846588622], [73.64838811134223, 19.23074920953508], [73.64844664197287, 19.230686572457593], [73.64850517170524, 19.230623935356267], [73.64856370143755, 19.23056129823101], [73.6486222320682, 19.2304986610819], [73.64868076180055, 19.230436023908883], [73.6487392924312, 19.23037338671199], [73.64879782216354, 19.2303107494912], [73.6488563527942, 19.230248112246546], [73.64891488252651, 19.230185474978], [73.64897341225887, 19.230122837685546], [73.64903194288951, 19.230060200369227], [73.64909047262184, 19.229997563029002], [73.64914900325252, 19.229934925664914], [73.64920753298483, 19.229872288276905], [73.64926606271719, 19.22980965086504], [73.64932459334783, 19.22974701342927], [73.64938312308016, 19.229684375969626], [73.64944165371081, 19.229621738486085], [73.64950018344315, 19.22955910097868], [73.64955871407379, 19.229496463447365], [73.64961724380615, 19.229433825892187], [73.64967577353846, 19.229371188313092], [73.64973430416912, 19.229308550710154], [73.64979283390147, 19.229245913083286], [73.64985136453213, 19.22918327543256], [73.64990989426447, 19.229120637757962], [73.64996842399678, 19.22905800005943], [73.65002695462744, 19.228995362337052], [73.65008548435978, 19.228932724590774], [73.65014401499043, 19.228870086820628], [73.65020254472279, 19.228807449026565], [73.65026107535343, 19.22874481120866], [73.65031960508574, 19.22868217336681], [73.6503781348181, 19.228619535501135], [73.65043666544875, 19.228556897611526], [73.6504951951811, 19.228494259698063], [73.65055372581175, 19.2284316217607], [73.65061225554408, 19.228368983799463], [73.65061340269268, 19.228370313779166], [73.65065819808265, 19.228422257621133], [73.65070299437092, 19.228474201446673], [73.65074778976087, 19.22852614525574], [73.65079297771459, 19.228594798592866], [73.65083816477002, 19.228663451901294], [73.65088335272378, 19.22873210518103], [73.65092854067751, 19.228800759280244], [73.65097372773295, 19.228869412502604], [73.65101891478834, 19.22893806569625], [73.6510641027421, 19.22900671886122], [73.65110928979753, 19.229075371997478], [73.65115447775125, 19.229144025105033], [73.65119966570498, 19.229212679032127], [73.65124485276041, 19.229281332082305], [73.65129003981585, 19.22934998510381], [73.65133522776956, 19.229418638096572], [73.651380414825, 19.229487291060682], [73.65142560277872, 19.229555943996093], [73.65147078983415, 19.229624596902816], [73.65151597778788, 19.229693250629012], [73.65156116484332, 19.229761903478344], [73.65160635279703, 19.22983055629899], [73.65165153985247, 19.22989920909092], [73.6517004180854, 19.229968973835298], [73.65174929721663, 19.230038738550046], [73.65179817544957, 19.230108502387], [73.65184705458081, 19.23017826704248], [73.65189593281372, 19.230248031668324], [73.65194481194497, 19.230317796264544], [73.65199369017787, 19.230387559982965], [73.65204256930912, 19.23045732451992], [73.65209144754203, 19.230527089027245], [73.65215110645669, 19.23058636394081], [73.65221076537135, 19.230645639681164], [73.65227042338769, 19.230704914551943], [73.65233008230233, 19.230764189401338], [73.65238974121696, 19.230823464229307], [73.65244940013163, 19.230882739884116], [73.65250905814797, 19.2309420146693], [73.65256871706261, 19.231001289433124], [73.65262837597724, 19.23106056417556], [73.65268803489191, 19.231119839744764], [73.65274769290825, 19.231179114444426], [73.65280735182289, 19.231238389122645], [73.6528729809409, 19.231295071722403], [73.65293860916061, 19.231351754302548], [73.65300423827867, 19.23140843686315], [73.65306986649838, 19.23146511940421], [73.65313549561638, 19.23152180192569], [73.6532011238361, 19.23157848442759], [73.65326675295412, 19.231635166909978], [73.65333238207216, 19.23169184937277], [73.65339801029188, 19.23174853096782], [73.65346363940988, 19.23180521339148], [73.65352356422586, 19.23186098060581], [73.65358348814355, 19.231916747801197], [73.6536434129595, 19.231972514977613], [73.65370333687717, 19.232028282135126], [73.65376326169314, 19.23208404927371], [73.65382318650909, 19.23213981639332], [73.65388311042676, 19.23219558349403], [73.65394303524275, 19.232251350575794], [73.6540029591604, 19.2323071176386], [73.65406288397638, 19.232362884682505], [73.6541223362785, 19.232423167420023], [73.65418178858064, 19.232483450983604], [73.65424123998446, 19.2325437336769], [73.65430069228658, 19.23260401719623], [73.6543601436904, 19.23266429984524], [73.65441959599254, 19.232724583320312], [73.65447904739636, 19.232784865925087], [73.65453849969852, 19.2328451493559], [73.65459795110232, 19.232905431916397], [73.65465740340444, 19.232965715302964], [73.65471685480826, 19.2330259978192], [73.6547763071104, 19.233086281161505], [73.65483575851421, 19.23314656363352], [73.65488253199443, 19.233211299009263], [73.65492930547464, 19.233276035207624], [73.65497607895485, 19.233340770532322], [73.65502285243508, 19.233405505831502], [73.65506962591529, 19.233470241953324], [73.6551163993955, 19.23353497720146], [73.6551631728757, 19.233599712424077], [73.65520994725424, 19.233664448469337], [73.65525672073446, 19.233729183640925], [73.65530349421466, 19.233793918786994], [73.65535026769487, 19.233858654755693], [73.6553970411751, 19.23392338985073], [73.6554368024062, 19.233985979892392], [73.65547656453563, 19.23404857075836], [73.65551632666505, 19.234111160752317], [73.65555608879448, 19.234173751570605], [73.65559585002558, 19.234236341516848], [73.655635612155, 19.234298932287416], [73.65567537338609, 19.234361522185953], [73.65572008613105, 19.234415277520853], [73.65576479887602, 19.23446903198998], [73.65580951251927, 19.234522787289688], [73.6558542252642, 19.23457654172365], [73.65589893800916, 19.234630296988172], [73.6559532411681, 19.234694026699113], [73.65600754432701, 19.23475775638532], [73.65606184748594, 19.234821486894976], [73.65611615064486, 19.23488521653171], [73.6561704538038, 19.234948946991885], [73.6562247569627, 19.235012676579203], [73.65627906012165, 19.23507640614174], [73.65633336328055, 19.235140135679544], [73.6563876664395, 19.235203865192613], [73.6564419695984, 19.235267594680966], [73.65649627275734, 19.235331324144575], [73.6565505768146, 19.235395054431613], [73.6566048799735, 19.235458783845758], [73.65665918313243, 19.235522513235157], [73.65671348629134, 19.23558624259986], [73.65676779034861, 19.23564997278796], [73.65682209350751, 19.235713702103165], [73.65687639666646, 19.235777431393622], [73.6569297197634, 19.235841616970934], [73.65698304286035, 19.235905802523146], [73.65703636595728, 19.235969988050268], [73.65708968905426, 19.23603417440045], [73.65714301215121, 19.2360983598774], [73.65719633524814, 19.236162545329243], [73.65724965834508, 19.236226730755988], [73.65730298144206, 19.236290916157667], [73.65735630453901, 19.236355101534247], [73.65740962853427, 19.236419287733877], [73.6574629516312, 19.236483473060268], [73.65751627472815, 19.236547658361598], [73.65756959782513, 19.23661184363781], [73.65762292092207, 19.236676028888937], [73.657676244019, 19.236740214114974], [73.65772956801428, 19.236804400164065], [73.65778289111121, 19.236868585339927], [73.6578362142082, 19.236932770490686], [73.65788953730512, 19.236996955616334], [73.6579447010501, 19.23705566077795], [73.65799986479506, 19.237114365918604], [73.65805502854, 19.23717307103824], [73.65811019228501, 19.23723177698505], [73.65816535513164, 19.2372904820627], [73.65823013803669, 19.237349231223426], [73.6582949209417, 19.237407980363134], [73.65835970474504, 19.23746672948181], [73.65842448765008, 19.23752547857947], [73.65848927055511, 19.237584227656104], [73.65855405346015, 19.23764297671173], [73.65861883726349, 19.23770172659449], [73.6586836201685, 19.237760475608056], [73.65874840307355, 19.237819224600607], [73.65881063925477, 19.237875658964665], [73.65887287543593, 19.237932092461158], [73.65893511251544, 19.237988526786438], [73.65899734869666, 19.23804496024414], [73.65905958487787, 19.23810139453059], [73.65912182105906, 19.23815782794953], [73.65918405813856, 19.23821426219719], [73.65924629431979, 19.238270695577313], [73.65930853050095, 19.238327129786196], [73.65937076668217, 19.238383563127478], [73.65943300376168, 19.23843999729756], [73.65949523994288, 19.2384964306001], [73.65955747612409, 19.238552864731382], [73.65961971230526, 19.23860929799512], [73.6596819493848, 19.238665732087597], [73.65974418556598, 19.238722165312506], [73.65980642174719, 19.238778599366217], [73.65987062613716, 19.238832789202725], [73.65993483052715, 19.23888697986953], [73.65999903491713, 19.238941169670287], [73.66006323930715, 19.238995359453156], [73.66012744369714, 19.239049550066277], [73.6601916480871, 19.239103739813395], [73.66025586954508, 19.239157943961047], [73.66032009100307, 19.239212148090836], [73.66038431246102, 19.23926635220274], [73.6604485330207, 19.23932055544858], [73.66051275447869, 19.239374759524694], [73.66057697593665, 19.239428963582895], [73.66065041500777, 19.239471990781883], [73.66072385318054, 19.23951501796964], [73.66079729225164, 19.23955804514611], [73.66087073132276, 19.23960107231131], [73.66094417039388, 19.239644099465224], [73.6610176085667, 19.2396871257597], [73.66109104763775, 19.23973015289107], [73.66116448670888, 19.239773180011156], [73.66123792488169, 19.23981620711992], [73.66131136395279, 19.23985923421746], [73.66138480302388, 19.239902261303715], [73.66145824119668, 19.23994528837869], [73.6615316802678, 19.23998831544239], [73.66160511933892, 19.24003134249482], [73.66167855840999, 19.240074369535925], [73.66175199658281, 19.24011739571767], [73.66182543565392, 19.240160422736245], [73.66189441279302, 19.24018254563014], [73.6619633908304, 19.240204668521034], [73.66203236796949, 19.240226791408976], [73.66210134600689, 19.240248915142068], [73.66217032314599, 19.240271038024016], [73.6622400701413, 19.240277053031907], [73.66230981803488, 19.240283068039556], [73.66237956503018, 19.24028908304699], [73.66244910990453, 19.240281163965676], [73.66251865477889, 19.240273244035816], [73.66258819875492, 19.24026532495374], [73.66265774362928, 19.240257405023115], [73.66273205676113, 19.24023819974111], [73.66280637079136, 19.24021899445683], [73.6628806839232, 19.24019978917032], [73.66295499705508, 19.240180583881532], [73.66300696818753, 19.240166658264688], [73.66308892777911, 19.24014469736349], [73.6631708864724, 19.24012273730751], [73.66325284606395, 19.240100776400432], [73.66333480565552, 19.240078815490445], [73.6634167652471, 19.240056854577464], [73.66349872394039, 19.240034893661598], [73.66358068353198, 19.240012932742793], [73.66366264312352, 19.239990971821037], [73.66374460271508, 19.239969010896303], [73.66382656140838, 19.239947049968695], [73.66390852099997, 19.23992508903812], [73.66397537542002, 19.239909921720084], [73.66405548897369, 19.239891746041607], [73.66413560162904, 19.239873570361116], [73.66421571518272, 19.239855394678578], [73.66429582783806, 19.239837218994055], [73.66437594139174, 19.239819043307524], [73.6644560540471, 19.23980086761898], [73.66453616760073, 19.239782691928426], [73.66462153629884, 19.239769123345766], [73.6647069040986, 19.239755555610152], [73.66479227279667, 19.239741987025305], [73.66487764059644, 19.239728419287452], [73.66496300839621, 19.239714851548467], [73.66504837709431, 19.239701282960223], [73.66513374579236, 19.239687714370884], [73.66521911359213, 19.23967414662854], [73.66530448229021, 19.239660578036926], [73.66538985008998, 19.239647009444216], [73.6654692548729, 19.23963694622603]], [[73.64284006045195, 19.242591090443337], [73.64292950390818, 19.242586876095817], [73.64301805803224, 19.242574273762706], [73.64310484337354, 19.242553410661355], [73.64318899754936, 19.24252449203563], [73.64326968332986, 19.242487807093063], [73.64334609941781, 19.24244371882746], [73.64341748673682, 19.242392665715517], [73.64348313471947, 19.242335156628318], [73.64354239118884, 19.24227176150209], [73.64359466864683, 19.242203110490504], [73.64363944607048, 19.242129887179974], [73.64367627879373, 19.2420528175643], [73.64370480030402, 19.241972668348463], [73.64372472853029, 19.241890236771628], [73.64373586404655, 19.241806341277655], [73.64373809636002, 19.241721815578476], [73.64373140391115, 19.241637500172715], [73.64371585317528, 19.241554233016302], [73.64369159776427, 19.241472841041215], [73.64365888022333, 19.24139413421825], [73.6436180239459, 19.241318893683165], [73.64356943676711, 19.241247867495545], [73.643513600184, 19.241181762157552], [73.64345107025372, 19.241121234131917], [73.64338246681378, 19.241066884753156], [73.64330847348211, 19.241019255138113], [73.64322982508071, 19.240978817704526], [73.64314730224545, 19.240945974474357], [73.64306172603652, 19.24092105283287], [73.64297394715855, 19.240904298743278], [73.6428848378756, 19.240895880139174], [73.64279528302832, 19.240895880139174], [73.64270617374538, 19.240904298743278], [73.6426183948674, 19.24092105283287], [73.64253281865848, 19.240945974474357], [73.64245029582321, 19.240978817704526], [73.6423716474218, 19.241019255138113], [73.64229765409016, 19.241066884753156], [73.64222905065022, 19.241121234131917], [73.64216652071991, 19.241181762157552], [73.6421106841368, 19.241247867495545], [73.64206209695803, 19.241318893683165], [73.6420212406806, 19.24139413421825], [73.64198852313964, 19.241472841041215], [73.64196426772865, 19.241554233016302], [73.64194871699276, 19.241637500172715], [73.6419420245439, 19.241721815578476], [73.64194425685737, 19.241806341277655], [73.64195539237363, 19.241890236771628], [73.64197532059991, 19.241972668348463], [73.64200384211019, 19.2420528175643], [73.64204067483344, 19.242129887179974], [73.64208545225709, 19.242203110490504], [73.64213772971505, 19.24227176150209], [73.64219698618444, 19.242335156628318], [73.6422626341671, 19.242392665715517], [73.6423340214861, 19.24244371882746], [73.64241043757407, 19.242487807093063], [73.64249112335456, 19.24252449203563], [73.64257527753038, 19.242553410661355], [73.64266206287166, 19.242574273762706], [73.64275061699574, 19.242586876095817], [73.64284006045195, 19.242591090443337]]]}}]}