{"type": "FeatureCollection", "features": [{"type": "Feature", "properties": {"premiumdata.sde.IN_Village_PCA.area": 11.45459441, "objectid": 222585, "id": "8117689484901", "name": "Chandani", "subdistrict": "Girwa", "district": "Udaipur", "state": "Rajasthan", "country": "India", "censusname": "Chandani", "villagename_locallang": null, "lgd_villagename": "Chandani", "lgd_villagecode": 106582, "lgd_subdistrictcode": 689, "lgd_districtcode": 117, "lgd_statecode": 8, "censuscode2001": "03160800", "censuscode2011": "106582", "censuscode2021": null, "level": "Village", "tru": "Rural", "no_hh": 184, "tot_p": 1017, "tot_m": 528, "tot_f": 489, "per_tot_m": 51.91740413, "per_tot_f": 48.08259587000001, "p_06": 231, "m_06": 123, "f_06": 108, "per_p_06": 22.71386431, "per_m_06": 53.24675325, "per_f_06": 46.75324675, "p_sc": 3, "m_sc": 2, "f_sc": 1, "per_p_sc": 0.29498525, "per_m_sc": 66.66666667, "per_f_sc": 33.33333333, "p_st": 1006, "m_st": 522, "f_st": 484, "per_p_st": 98.91838741000001, "per_m_st": 51.88866799, "per_f_st": 48.11133201, "p_lit": 446, "m_lit": 325, "f_lit": 121, "per_p_lit": 43.85447394, "per_m_lit": 72.86995516, "per_f_lit": 27.13004484, "p_ill": 571, "m_ill": 203, "f_ill": 368, "per_p_ill": 56.14552606, "per_m_ill": 35.55166375, "per_f_ill": 64.44833625, "tot_work_p": 409, "tot_work_m": 270, "tot_work_f": 139, "per_tot_work_p": 40.21632252, "per_tot_work_m": 66.01466993, "per_tot_work_f": 33.98533007, "mainwork_p": 183, "mainwork_m": 177, "mainwork_f": 6, "per_mainwork_p": 17.99410029, "per_mainwork_m": 96.72131148, "per_mainwork_f": 3.27868852, "main_cl_p": 161, "main_cl_m": 159, "main_cl_f": 2, "per_main_cl_p": 87.97814208, "per_main_cl_m": 98.75776398, "per_main_cl_f": 1.24223602, "main_al_p": 3, "main_al_m": 3, "main_al_f": 0, "per_main_al_p": 1.63934426, "per_main_al_m": 100.0, "per_main_al_f": 0.0, "main_hh_p": 0, "main_hh_m": 0, "main_hh_f": 0, "per_main_hh_p": 0.0, "per_main_hh_m": 0.0, "per_main_hh_f": 0.0, "main_ot_p": 19, "main_ot_m": 15, "main_ot_f": 4, "per_main_ot_p": 10.38251366, "per_main_ot_m": 78.94736842, "per_main_ot_f": 21.05263158, "margwork_p": 226, "margwork_m": 93, "margwork_f": 133, "per_margwork_p": 22.22222222, "per_margwork_m": 41.15044248, "per_margwork_f": 58.84955752, "marg_cl_p": 1, "marg_cl_m": 1, "marg_cl_f": 0, "per_marg_cl_p": 0.44247788, "per_marg_cl_m": 100.0, "per_marg_cl_f": 0.0, "marg_al_p": 95, "marg_al_m": 10, "marg_al_f": 85, "per_marg_al_p": 42.03539823, "per_marg_al_m": 10.52631579, "per_marg_al_f": 89.47368421, "marg_hh_p": 4, "marg_hh_m": 3, "marg_hh_f": 1, "per_marg_hh_p": 1.7699115, "per_marg_hh_m": 75.0, "per_marg_hh_f": 25.0, "marg_ot_p": 126, "marg_ot_m": 79, "marg_ot_f": 47, "per_marg_ot_p": 55.75221239, "per_marg_ot_m": 62.6984127, "per_marg_ot_f": 37.3015873, "margwork_3_6_p": 220, "margwork_3_6_m": 92, "margwork_3_6_f": 128, "per_margwork_3_6_p": 97.34513274, "per_margwork_3_6_m": 41.81818182, "per_margwork_3_6_f": 58.18181818, "marg_cl_3_6_p": 1, "marg_cl_3_6_m": 1, "marg_cl_3_6_f": 0, "per_marg_cl_3_6_p": 0.44247788, "per_marg_cl_3_6_m": 100.0, "per_marg_cl_3_6_f": 0.0, "marg_al_3_6_p": 95, "marg_al_3_6_m": 10, "marg_al_3_6_f": 85, "per_marg_al_3_6_p": 42.03539823, "per_marg_al_3_6_m": 10.52631579, "per_marg_al_3_6_f": 89.47368421, "marg_hh_3_6_p": 4, "marg_hh_3_6_m": 3, "marg_hh_3_6_f": 1, "per_marg_hh_3_6_p": 1.7699115, "per_marg_hh_3_6_m": 75.0, "per_marg_hh_3_6_f": 25.0, "marg_ot_3_6_p": 120, "marg_ot_3_6_m": 78, "marg_ot_3_6_f": 42, "per_marg_ot_3_6_p": 53.09734513, "per_marg_ot_3_6_m": 65.0, "per_marg_ot_3_6_f": 35.0, "margwork_0_3_p": 6, "margwork_0_3_m": 1, "margwork_0_3_f": 5, "per_margwork_0_3_p": 2.65486726, "per_margwork_0_3_m": 16.66666667, "per_margwork_0_3_f": 83.33333332999999, "marg_cl_0_3_p": 0, "marg_cl_0_3_m": 0, "marg_cl_0_3_f": 0, "per_marg_cl_0_3_p": 0.0, "per_marg_cl_0_3_m": 0.0, "per_marg_cl_0_3_f": 0.0, "marg_al_0_3_p": 0, "marg_al_0_3_m": 0, "marg_al_0_3_f": 0, "per_marg_al_0_3_p": 0.0, "per_marg_al_0_3_m": 0.0, "per_marg_al_0_3_f": 0.0, "marg_hh_0_3_p": 0, "marg_hh_0_3_m": 0, "marg_hh_0_3_f": 0, "per_marg_hh_0_3_p": 0.0, "per_marg_hh_0_3_m": 0.0, "per_marg_hh_0_3_f": 0.0, "marg_ot_0_3_p": 6, "marg_ot_0_3_m": 1, "marg_ot_0_3_f": 5, "per_marg_ot_0_3_p": 2.65486726, "per_marg_ot_0_3_m": 16.66666667, "per_marg_ot_0_3_f": 83.33333332999999, "non_work_p": 608, "non_work_m": 258, "non_work_f": 350, "per_non_work_p": 59.78367748, "per_non_work_m": 42.43421053, "per_non_work_f": 57.56578947, "per_hc_tot_tot": 100, "per_hc_tot_god": 96.0, "per_hc_tot_liv": 3.4, "per_hc_tot_dil": 0.6, "per_hc_res_tot": 98.9, "per_hc_res_god": 94.9, "per_hc_res_liv": 3.4, "per_hc_res_dil": 0.6, "per_hc_oth_tot": 1.1, "per_hc_oth_god": 1.1, "per_hc_oth_liv": 0.0, "per_hc_oth_dil": 0.0, "per_mt_grsbam": 56.2, "per_mt_plastic": 1.1, "per_mt_h_tiles": 40.9, "per_mt_m_tiles": 0.0, "per_mt_b_brick": 0.0, "per_mt_stone": 0.0, "per_mt_asbstos": 1.1, "per_mt_concrte": 0.6, "per_mt_oth": 0.0, "per_mw_grsbam": 1.1, "per_mw_plastic": 0.0, "per_mw_mud": 98.3, "per_mw_wood": 0.0, "per_mw_no_mrtr": 0.0, "per_mw_st_mrtr": 0.6, "per_mw_asbstos": 0.0, "per_mw_b_brick": 0.0, "per_mw_concrte": 0.0, "per_mw_oth": 0.0, "per_mf_mud": 92.0, "per_mf_wood": 0.0, "per_mf_b_brick": 0.0, "per_mf_stone": 0.6, "per_mf_cement": 7.4, "per_mf_fl_tile": 0.0, "per_mf_oth": 0.0, "per_dw_n_exrm": 5.7, "per_dw_1_room": 71.0, "per_dw_2_room": 22.2, "per_dw_3_room": 1.1, "per_dw_4_room": 0.0, "per_dw_5_room": 0.0, "per_dw_6_room": 0.0, "per_hhsize_1": 1.1, "per_hhsize_2": 8.5, "per_hhsize_3": 7.4, "per_hhsize_4": 18.8, "per_hhsize_5": 15.3, "per_hhsize_6_8": 39.2, "per_hhsize_9p": 9.7, "per_ow_owned": 100.0, "per_ow_rented": 0.0, "per_ow_oth": 0.0, "per_mc_none": 5.1, "per_mcouple_1": 75.6, "per_mcouple_2": 17.6, "per_mcouple_3": 1.7, "per_mcouple_4": 0.0, "per_mcouple_5p": 0.0, "per_dw_t_ts": 0.0, "per_dw_t_unts": 0.6, "per_dw_c_well": 4.0, "per_dw_unc_wel": 33.5, "per_dw_hpump": 18.2, "per_dw_tw_bore": 0.0, "per_dw_spring": 0.0, "per_dw_rivcan": 43.8, "per_dw_tank": 0.0, "per_dw_oth": 0.0, "per_loc_dw_wp": 0.0, "per_loc_dw_np": 19.3, "per_loc_dw_aw": 80.7, "per_light_elec": 26.7, "per_light_kero": 72.7, "per_light_solr": 0.6, "per_light_oil": 0.0, "per_light_oth": 0.0, "per_light_no": 0.0, "per_hh_latrine": 0.0, "per_fl_sewer": 0.0, "per_fl_septict": 0.0, "per_fl_othsys": 0.0, "per_pl_wslab": 0.0, "per_pl_without": 0.0, "per_ns_open": 0.0, "per_sl_ns_hum": 0.0, "per_sl_ns_anml": 0.0, "per_hh_no_lat": 100.0, "per_as_pub": 0.0, "per_as_open": 100.0, "per_hh_bathrm": 0.0, "per_hh_en_wrf": 5.1, "per_hh_no_btrm": 94.9, "per_wwoc_drain": 0.0, "per_wwoc_open": 41.5, "per_wwoc_nodrn": 58.5, "per_cook_fire": 97.2, "per_cook_resdu": 2.8, "per_cook_cwdng": 0.0, "per_cook_coal": 0.0, "per_cook_kero": 0.0, "per_cook_lpng": 0.0, "per_cook_elec": 0.0, "per_cook_biogs": 0.0, "per_cook_oth": 0.0, "per_cook_no": 0.0, "per_kf_inside": 96.6, "per_kf_in_has": 10.8, "per_kf_in_does": 85.8, "per_kf_outside": 3.4, "per_kf_out_has": 0.0, "per_kf_out_dos": 3.4, "per_kf_no_cook": 0.0, "per_hh_banking": 10.2, "per_hh_radio": 3.4, "per_hh_tv": 2.3, "per_hh_cmp_int": 0.0, "per_hh_cmp_wnt": 0.6, "per_hh_ph_ll": 0.6, "per_hh_ph_mob": 35.2, "per_hh_ph_bth": 0.0, "per_hh_bcycl": 2.8, "per_hh_2wheel": 2.3, "per_hh_4wheel": 0.0, "per_hh_tvcomp": 0.0, "per_hh_no_ast": 62.5, "per_hs_perma": 0.6, "per_hs_sperma": 42.0, "per_hs_temp": 57.4, "per_hs_servc": 57.4, "per_hs_nservc": 0.0, "per_hs_unclss": 0.0, "avghhsz_cy": 5.52717391, "st_areashape": 13885132.12603677, "st_lengthshape": 15778.93482400766}, "geometry": {"type": "Polygon", "coordinates": [[[73.73052018843715, 24.444159433904183], [73.73073310263422, 24.44625143457732], [73.73062295211238, 24.452784355855517], [73.72967574062905, 24.46411763258894], [73.72758311427637, 24.471560280132227], [73.72591672235635, 24.47648793309722], [73.7251652825195, 24.479898807010365], [73.72363143701963, 24.47642658232752], [73.71448410448386, 24.473289044031187], [73.71088546423546, 24.471547621786332], [73.70760291328774, 24.46995913726504], [73.70331060475672, 24.465765228750925], [73.69879793948654, 24.460330400380652], [73.69382791765068, 24.457962222402855], [73.69255481175529, 24.45530122370047], [73.69250516546279, 24.450952266568184], [73.69711631303761, 24.444351985176745], [73.7027631947788, 24.444887207834405], [73.71027417595596, 24.442541275859128], [73.71721421219304, 24.44035575241854], [73.72327254569058, 24.43877017041766], [73.72780713075201, 24.434865678674385], [73.73003241491597, 24.439375640226388], [73.73052018843715, 24.444159433904183]]]}}]}