{"type": "FeatureCollection", "features": [{"type": "Feature", "properties": {"premiumdata.sde.IN_Village_PCA.area": 3.69714455, "objectid": 362421, "id": "9129896406904", "name": "Rariya", "subdistrict": "Fatehpur", "district": "Barabanki", "state": "Uttar Pradesh", "country": "India", "censusname": "Rariya", "villagename_locallang": null, "lgd_villagename": "Rariya", "lgd_villagecode": 164122, "lgd_subdistrictcode": 896, "lgd_districtcode": 129, "lgd_statecode": 9, "censuscode2001": "05713100", "censuscode2011": "164122", "censuscode2021": null, "level": "Village", "tru": "Rural", "no_hh": 521, "tot_p": 2881, "tot_m": 1505, "tot_f": 1376, "per_tot_m": 52.23880597, "per_tot_f": 47.76119403, "p_06": 491, "m_06": 253, "f_06": 238, "per_p_06": 17.04269351, "per_m_06": 51.52749491, "per_f_06": 48.47250509, "p_sc": 564, "m_sc": 298, "f_sc": 266, "per_p_sc": 19.57653593, "per_m_sc": 52.83687943, "per_f_sc": 47.16312057, "p_st": 0, "m_st": 0, "f_st": 0, "per_p_st": 0.0, "per_m_st": 0.0, "per_f_st": 0.0, "p_lit": 1435, "m_lit": 882, "f_lit": 553, "per_p_lit": 49.80909406, "per_m_lit": 61.46341463, "per_f_lit": 38.53658537, "p_ill": 1446, "m_ill": 623, "f_ill": 823, "per_p_ill": 50.19090594, "per_m_ill": 43.08437068, "per_f_ill": 56.91562932, "tot_work_p": 963, "tot_work_m": 786, "tot_work_f": 177, "per_tot_work_p": 33.42589379, "per_tot_work_m": 81.61993769, "per_tot_work_f": 18.38006231, "mainwork_p": 905, "mainwork_m": 745, "mainwork_f": 160, "per_mainwork_p": 31.41270392, "per_mainwork_m": 82.32044199, "per_mainwork_f": 17.67955801, "main_cl_p": 563, "main_cl_m": 474, "main_cl_f": 89, "per_main_cl_p": 62.20994475, "per_main_cl_m": 84.19182948, "per_main_cl_f": 15.80817052, "main_al_p": 206, "main_al_m": 168, "main_al_f": 38, "per_main_al_p": 22.76243094, "per_main_al_m": 81.55339806, "per_main_al_f": 18.44660194, "main_hh_p": 60, "main_hh_m": 38, "main_hh_f": 22, "per_main_hh_p": 6.62983425, "per_main_hh_m": 63.33333333, "per_main_hh_f": 36.66666667000001, "main_ot_p": 76, "main_ot_m": 65, "main_ot_f": 11, "per_main_ot_p": 8.39779006, "per_main_ot_m": 85.52631579000001, "per_main_ot_f": 14.47368421, "margwork_p": 58, "margwork_m": 41, "margwork_f": 17, "per_margwork_p": 2.01318986, "per_margwork_m": 70.68965517, "per_margwork_f": 29.31034483, "marg_cl_p": 20, "marg_cl_m": 15, "marg_cl_f": 5, "per_marg_cl_p": 34.48275862, "per_marg_cl_m": 75.0, "per_marg_cl_f": 25.0, "marg_al_p": 18, "marg_al_m": 12, "marg_al_f": 6, "per_marg_al_p": 31.03448276, "per_marg_al_m": 66.66666667, "per_marg_al_f": 33.33333333, "marg_hh_p": 7, "marg_hh_m": 5, "marg_hh_f": 2, "per_marg_hh_p": 12.06896552, "per_marg_hh_m": 71.42857143, "per_marg_hh_f": 28.57142857, "marg_ot_p": 13, "marg_ot_m": 9, "marg_ot_f": 4, "per_marg_ot_p": 22.4137931, "per_marg_ot_m": 69.23076923, "per_marg_ot_f": 30.76923077, "margwork_3_6_p": 50, "margwork_3_6_m": 39, "margwork_3_6_f": 11, "per_margwork_3_6_p": 86.20689655, "per_margwork_3_6_m": 78.0, "per_margwork_3_6_f": 22.0, "marg_cl_3_6_p": 20, "marg_cl_3_6_m": 15, "marg_cl_3_6_f": 5, "per_marg_cl_3_6_p": 34.48275862, "per_marg_cl_3_6_m": 75.0, "per_marg_cl_3_6_f": 25.0, "marg_al_3_6_p": 11, "marg_al_3_6_m": 10, "marg_al_3_6_f": 1, "per_marg_al_3_6_p": 18.96551724, "per_marg_al_3_6_m": 90.90909091, "per_marg_al_3_6_f": 9.09090909, "marg_hh_3_6_p": 7, "marg_hh_3_6_m": 5, "marg_hh_3_6_f": 2, "per_marg_hh_3_6_p": 12.06896552, "per_marg_hh_3_6_m": 71.42857143, "per_marg_hh_3_6_f": 28.57142857, "marg_ot_3_6_p": 12, "marg_ot_3_6_m": 9, "marg_ot_3_6_f": 3, "per_marg_ot_3_6_p": 20.68965517, "per_marg_ot_3_6_m": 75.0, "per_marg_ot_3_6_f": 25.0, "margwork_0_3_p": 8, "margwork_0_3_m": 2, "margwork_0_3_f": 6, "per_margwork_0_3_p": 13.79310345, "per_margwork_0_3_m": 25.0, "per_margwork_0_3_f": 75.0, "marg_cl_0_3_p": 0, "marg_cl_0_3_m": 0, "marg_cl_0_3_f": 0, "per_marg_cl_0_3_p": 0.0, "per_marg_cl_0_3_m": 0.0, "per_marg_cl_0_3_f": 0.0, "marg_al_0_3_p": 7, "marg_al_0_3_m": 2, "marg_al_0_3_f": 5, "per_marg_al_0_3_p": 12.06896552, "per_marg_al_0_3_m": 28.57142857, "per_marg_al_0_3_f": 71.42857143, "marg_hh_0_3_p": 0, "marg_hh_0_3_m": 0, "marg_hh_0_3_f": 0, "per_marg_hh_0_3_p": 0.0, "per_marg_hh_0_3_m": 0.0, "per_marg_hh_0_3_f": 0.0, "marg_ot_0_3_p": 1, "marg_ot_0_3_m": 0, "marg_ot_0_3_f": 1, "per_marg_ot_0_3_p": 1.72413793, "per_marg_ot_0_3_m": 0.0, "per_marg_ot_0_3_f": 100.0, "non_work_p": 1918, "non_work_m": 719, "non_work_f": 1199, "per_non_work_p": 66.57410621, "per_non_work_m": 37.48696559, "per_non_work_f": 62.51303441, "per_hc_tot_tot": 100, "per_hc_tot_god": 32.2, "per_hc_tot_liv": 51.5, "per_hc_tot_dil": 16.4, "per_hc_res_tot": 98.6, "per_hc_res_god": 31.6, "per_hc_res_liv": 50.7, "per_hc_res_dil": 16.4, "per_hc_oth_tot": 1.4, "per_hc_oth_god": 0.6, "per_hc_oth_liv": 0.8, "per_hc_oth_dil": 0.0, "per_mt_grsbam": 38.6, "per_mt_plastic": 0.6, "per_mt_h_tiles": 1.6, "per_mt_m_tiles": 0.0, "per_mt_b_brick": 33.7, "per_mt_stone": 6.4, "per_mt_asbstos": 4.1, "per_mt_concrte": 14.8, "per_mt_oth": 0.2, "per_mw_grsbam": 12.5, "per_mw_plastic": 0.4, "per_mw_mud": 13.6, "per_mw_wood": 0.0, "per_mw_no_mrtr": 0.8, "per_mw_st_mrtr": 1.4, "per_mw_asbstos": 0.0, "per_mw_b_brick": 66.7, "per_mw_concrte": 0.6, "per_mw_oth": 4.1, "per_mf_mud": 96.3, "per_mf_wood": 0.0, "per_mf_b_brick": 2.7, "per_mf_stone": 0.2, "per_mf_cement": 0.4, "per_mf_fl_tile": 0.4, "per_mf_oth": 0.0, "per_dw_n_exrm": 14.8, "per_dw_1_room": 37.8, "per_dw_2_room": 23.6, "per_dw_3_room": 10.1, "per_dw_4_room": 8.6, "per_dw_5_room": 2.9, "per_dw_6_room": 2.1, "per_hhsize_1": 4.7, "per_hhsize_2": 8.0, "per_hhsize_3": 11.5, "per_hhsize_4": 13.3, "per_hhsize_5": 17.5, "per_hhsize_6_8": 32.4, "per_hhsize_9p": 12.7, "per_ow_owned": 97.9, "per_ow_rented": 1.6, "per_ow_oth": 0.6, "per_mc_none": 12.3, "per_mcouple_1": 69.8, "per_mcouple_2": 14.0, "per_mcouple_3": 3.1, "per_mcouple_4": 0.2, "per_mcouple_5p": 0.6, "per_dw_t_ts": 4.3, "per_dw_t_unts": 0.4, "per_dw_c_well": 0.4, "per_dw_unc_wel": 1.6, "per_dw_hpump": 93.2, "per_dw_tw_bore": 0.0, "per_dw_spring": 0.0, "per_dw_rivcan": 0.0, "per_dw_tank": 0.0, "per_dw_oth": 0.2, "per_loc_dw_wp": 71.7, "per_loc_dw_np": 18.5, "per_loc_dw_aw": 9.7, "per_light_elec": 7.8, "per_light_kero": 91.6, "per_light_solr": 0.6, "per_light_oil": 0.0, "per_light_oth": 0.0, "per_light_no": 0.0, "per_hh_latrine": 11.9, "per_fl_sewer": 0.0, "per_fl_septict": 2.9, "per_fl_othsys": 0.2, "per_pl_wslab": 7.6, "per_pl_without": 1.2, "per_ns_open": 0.0, "per_sl_ns_hum": 0.0, "per_sl_ns_anml": 0.0, "per_hh_no_lat": 88.1, "per_as_pub": 0.0, "per_as_open": 88.1, "per_hh_bathrm": 18.5, "per_hh_en_wrf": 23.4, "per_hh_no_btrm": 58.1, "per_wwoc_drain": 27.9, "per_wwoc_open": 51.9, "per_wwoc_nodrn": 20.3, "per_cook_fire": 93.6, "per_cook_resdu": 2.9, "per_cook_cwdng": 1.6, "per_cook_coal": 0.0, "per_cook_kero": 0.0, "per_cook_lpng": 1.4, "per_cook_elec": 0.4, "per_cook_biogs": 0.0, "per_cook_oth": 0.0, "per_cook_no": 0.2, "per_kf_inside": 97.7, "per_kf_in_has": 20.5, "per_kf_in_does": 77.2, "per_kf_outside": 2.1, "per_kf_out_has": 0.8, "per_kf_out_dos": 1.4, "per_kf_no_cook": 0.2, "per_hh_banking": 76.6, "per_hh_radio": 31.4, "per_hh_tv": 18.1, "per_hh_cmp_int": 0.2, "per_hh_cmp_wnt": 4.5, "per_hh_ph_ll": 1.6, "per_hh_ph_mob": 48.5, "per_hh_ph_bth": 1.2, "per_hh_bcycl": 80.3, "per_hh_2wheel": 19.1, "per_hh_4wheel": 1.6, "per_hh_tvcomp": 0.8, "per_hh_no_ast": 9.9, "per_hs_perma": 54.8, "per_hs_sperma": 17.5, "per_hs_temp": 23.6, "per_hs_servc": 12.9, "per_hs_nservc": 10.7, "per_hs_unclss": 4.1, "avghhsz_cy": 5.52975048, "st_areashape": 4683802.49721548, "st_lengthshape": 11000.793407517844}, "geometry": {"type": "Polygon", "coordinates": [[[81.2252761512484, 27.113366044912567], [81.22472643349849, 27.113531097455514], [81.22432870081317, 27.113612736085745], [81.22396924713877, 27.113643907474167], [81.22349667580713, 27.113640435635684], [81.22190799444739, 27.11348033834723], [81.22198605624897, 27.113163705291136], [81.22202463080555, 27.11307943005761], [81.22221800484859, 27.112607400580348], [81.22266222804478, 27.11157920321878], [81.22328154187302, 27.110011181275635], [81.22330167401684, 27.10987605176817], [81.22330671715883, 27.109326527528363], [81.22315985698292, 27.108851992978092], [81.22306673582395, 27.10869911029473], [81.22297372336111, 27.108543564632214], [81.22377502957771, 27.107702592223507], [81.2238515705315, 27.107601704408548], [81.22394762199494, 27.107433305428955], [81.22494617219675, 27.1057327881107], [81.22506128231727, 27.105547622413145], [81.22523309409851, 27.105362886622835], [81.22536618040617, 27.10527930361321], [81.2260297506352, 27.105064347599633], [81.22621969311382, 27.104964289849015], [81.22635355197261, 27.10479618117555], [81.22639227744621, 27.10469499886576], [81.22643162096068, 27.104526196483143], [81.22630721866689, 27.10238454888021], [81.22743586378648, 27.101779586110332], [81.2286142207756, 27.101078007082123], [81.22910950061929, 27.10065888787871], [81.2295110547378, 27.100154535308068], [81.23023978157102, 27.09901000258266], [81.23033674572278, 27.098740151881152], [81.23043449679874, 27.09838576072687], [81.23053223080672, 27.098031368450933], [81.23068760521488, 27.097575945451606], [81.23106034227739, 27.09615109791571], [81.23125751619406, 27.09525630845765], [81.23128212554126, 27.094630834085294], [81.23128520945765, 27.094292654100936], [81.23126892569648, 27.094005066715663], [81.23119580732393, 27.093733970759608], [81.23101373139227, 27.09297170330258], [81.2303840474124, 27.09132449626289], [81.23052001461714, 27.091207636188027], [81.23109207167157, 27.090653783194853], [81.23172116186502, 27.090066530977026], [81.23236736316801, 27.08967385639815], [81.23257647569481, 27.08954010033568], [81.23276608400015, 27.08947384286373], [81.2330122349644, 27.089424918710286], [81.23346612852467, 27.08939440118606], [81.23353004904699, 27.089413991489312], [81.2336357717728, 27.08944637326541], [81.2342706417268, 27.090296505705567], [81.23462451327003, 27.090874024475948], [81.23475588918542, 27.090976434904643], [81.23505735481162, 27.091080084860685], [81.23520854037558, 27.091081186123954], [81.2353414533084, 27.091014528086063], [81.23657253781143, 27.090736002338424], [81.23687538594483, 27.090687485813202], [81.23731022444127, 27.090673741166714], [81.23774429667476, 27.090744522159255], [81.23900351102262, 27.091531530716914], [81.23917254611132, 27.09165113360114], [81.2400775888786, 27.091894436103996], [81.24062536536918, 27.091932236264974], [81.24104115059843, 27.091935250520343], [81.24217466818011, 27.09199418323554], [81.24531392436526, 27.091805513504312], [81.24639226832053, 27.09169493997496], [81.24680820536507, 27.09168103550186], [81.24701610516621, 27.091682535035304], [81.24763033093666, 27.091819731464053], [81.24705086906938, 27.091982206194757], [81.24682299792283, 27.092098936702023], [81.24665168740152, 27.09223298161663], [81.24655597909454, 27.092367572597514], [81.24647809156613, 27.09262065122035], [81.2464572066341, 27.09284032881394], [81.24637383489089, 27.093702132444584], [81.2465085875734, 27.095529379245114], [81.24647818049934, 27.096805839752292], [81.24645654996563, 27.097110071558184], [81.24659555617102, 27.098463858124262], [81.2467915865323, 27.09978422593802], [81.24686292803722, 27.100258203959083], [81.2469155172106, 27.100715153846302], [81.24696917178586, 27.101053739067066], [81.24700483490267, 27.101290726840794], [81.24707861443525, 27.10149417789178], [81.2472075729842, 27.101867117346433], [81.2479995421117, 27.104180986969546], [81.24864847249654, 27.10558914754151], [81.2488349016641, 27.105877951828404], [81.24885299642888, 27.105899914207516], [81.24846605969664, 27.106062764334546], [81.2478778419503, 27.106312174412004], [81.2470040156391, 27.10678779844904], [81.24656699513487, 27.107038280029872], [81.2463965802339, 27.10707087741061], [81.24613164909029, 27.107102776695214], [81.24424087148701, 27.107156757249722], [81.24178518292742, 27.10696989786708], [81.2408035120698, 27.106827507128138], [81.2406529211905, 27.106758776191988], [81.2404654356042, 27.10658831286091], [81.24037199105169, 27.106469278486074], [81.2402790226063, 27.10629951440504], [81.23998194435197, 27.105705515216545], [81.23973944414101, 27.105348654389644], [81.23953337780137, 27.105144257154667], [81.23925168768784, 27.104939295788625], [81.23891268236423, 27.104801557272868], [81.23870539251917, 27.104732412469257], [81.2371759137299, 27.104552210201323], [81.2370625086118, 27.104551385752643], [81.23698674739568, 27.10456774038258], [81.23685343830583, 27.104676675495526], [81.23664275462563, 27.104979512105473], [81.23637415566073, 27.10541721986378], [81.23604960333174, 27.105769959073218], [81.23574501516158, 27.106004471545788], [81.23565005515121, 27.10605451356143], [81.23555507807285, 27.10610454036136], [81.23530874564891, 27.106170385770724], [81.23513802172747, 27.106236782098314], [81.23489030410137, 27.10645480090231], [81.234536073232, 27.10799099203972], [81.23434320943208, 27.108412325160216], [81.23411347068806, 27.108731923891327], [81.23392322098562, 27.1088658145565], [81.23373358662914, 27.108932070949518], [81.23352489092065, 27.109015093891276], [81.23320278650078, 27.109097289957365], [81.23278541035516, 27.10926334912781], [81.23242348900867, 27.109565074645943], [81.23202286015487, 27.10996796738992], [81.23182657826531, 27.11076127453511], [81.23178771265452, 27.111155495977865], [81.2316090943384, 27.111273365932536], [81.23130542873807, 27.11140642516107], [81.23107721982495, 27.11155694130101], [81.23033322971678, 27.112295525096545], [81.2301231550943, 27.112530716351902], [81.2299900651934, 27.112614286750016], [81.22976245365997, 27.112697181422803], [81.22837933378666, 27.113042143981648], [81.22815204744339, 27.113091212938], [81.22722450008163, 27.113228148851494], [81.22637374160864, 27.113238818676933], [81.22592007891541, 27.11323549235256], [81.2252761512484, 27.113366044912567]]]}}]}