{"type": "FeatureCollection", "features": [{"type": "Feature", "properties": {"premiumdata.sde.IN_Village_PCA.area": 1.66559094, "objectid": 40527, "id": "335895698179018", "name": "Hudsonpuram", "subdistrict": "Thiruvallur", "district": "Thiruvallur", "state": "Tamil Nadu", "country": "India", "censusname": "Hudsonpuram", "villagename_locallang": null, "lgd_villagename": "Hudsonpuram", "lgd_villagecode": 628981, "lgd_subdistrictcode": 5698, "lgd_districtcode": 589, "lgd_statecode": 33, "censuscode2001": "00043100", "censuscode2011": "628981", "censuscode2021": null, "level": "Village", "tru": "Rural", "no_hh": 92, "tot_p": 396, "tot_m": 199, "tot_f": 197, "per_tot_m": 50.25252525, "per_tot_f": 49.74747475, "p_06": 46, "m_06": 20, "f_06": 26, "per_p_06": 11.61616162, "per_m_06": 43.47826087, "per_f_06": 56.52173913, "p_sc": 106, "m_sc": 47, "f_sc": 59, "per_p_sc": 26.76767677, "per_m_sc": 44.33962264, "per_f_sc": 55.66037736, "p_st": 0, "m_st": 0, "f_st": 0, "per_p_st": 0.0, "per_m_st": 0.0, "per_f_st": 0.0, "p_lit": 200, "m_lit": 118, "f_lit": 82, "per_p_lit": 50.50505051, "per_m_lit": 59.0, "per_f_lit": 41.0, "p_ill": 196, "m_ill": 81, "f_ill": 115, "per_p_ill": 49.49494949, "per_m_ill": 41.32653061000001, "per_f_ill": 58.67346939, "tot_work_p": 237, "tot_work_m": 124, "tot_work_f": 113, "per_tot_work_p": 59.84848485, "per_tot_work_m": 52.32067511, "per_tot_work_f": 47.67932489, "mainwork_p": 235, "mainwork_m": 124, "mainwork_f": 111, "per_mainwork_p": 59.34343434, "per_mainwork_m": 52.76595745, "per_mainwork_f": 47.23404255000001, "main_cl_p": 33, "main_cl_m": 15, "main_cl_f": 18, "per_main_cl_p": 14.04255319, "per_main_cl_m": 45.45454545, "per_main_cl_f": 54.54545455, "main_al_p": 190, "main_al_m": 101, "main_al_f": 89, "per_main_al_p": 80.85106383, "per_main_al_m": 53.15789474, "per_main_al_f": 46.84210526, "main_hh_p": 2, "main_hh_m": 2, "main_hh_f": 0, "per_main_hh_p": 0.85106383, "per_main_hh_m": 100.0, "per_main_hh_f": 0.0, "main_ot_p": 10, "main_ot_m": 6, "main_ot_f": 4, "per_main_ot_p": 4.25531915, "per_main_ot_m": 60.0, "per_main_ot_f": 40.0, "margwork_p": 2, "margwork_m": 0, "margwork_f": 2, "per_margwork_p": 0.50505051, "per_margwork_m": 0.0, "per_margwork_f": 100.0, "marg_cl_p": 1, "marg_cl_m": 0, "marg_cl_f": 1, "per_marg_cl_p": 50.0, "per_marg_cl_m": 0.0, "per_marg_cl_f": 100.0, "marg_al_p": 1, "marg_al_m": 0, "marg_al_f": 1, "per_marg_al_p": 50.0, "per_marg_al_m": 0.0, "per_marg_al_f": 100.0, "marg_hh_p": 0, "marg_hh_m": 0, "marg_hh_f": 0, "per_marg_hh_p": 0.0, "per_marg_hh_m": 0.0, "per_marg_hh_f": 0.0, "marg_ot_p": 0, "marg_ot_m": 0, "marg_ot_f": 0, "per_marg_ot_p": 0.0, "per_marg_ot_m": 0.0, "per_marg_ot_f": 0.0, "margwork_3_6_p": 2, "margwork_3_6_m": 0, "margwork_3_6_f": 2, "per_margwork_3_6_p": 100.0, "per_margwork_3_6_m": 0.0, "per_margwork_3_6_f": 100.0, "marg_cl_3_6_p": 1, "marg_cl_3_6_m": 0, "marg_cl_3_6_f": 1, "per_marg_cl_3_6_p": 50.0, "per_marg_cl_3_6_m": 0.0, "per_marg_cl_3_6_f": 100.0, "marg_al_3_6_p": 1, "marg_al_3_6_m": 0, "marg_al_3_6_f": 1, "per_marg_al_3_6_p": 50.0, "per_marg_al_3_6_m": 0.0, "per_marg_al_3_6_f": 100.0, "marg_hh_3_6_p": 0, "marg_hh_3_6_m": 0, "marg_hh_3_6_f": 0, "per_marg_hh_3_6_p": 0.0, "per_marg_hh_3_6_m": 0.0, "per_marg_hh_3_6_f": 0.0, "marg_ot_3_6_p": 0, "marg_ot_3_6_m": 0, "marg_ot_3_6_f": 0, "per_marg_ot_3_6_p": 0.0, "per_marg_ot_3_6_m": 0.0, "per_marg_ot_3_6_f": 0.0, "margwork_0_3_p": 0, "margwork_0_3_m": 0, "margwork_0_3_f": 0, "per_margwork_0_3_p": 0.0, "per_margwork_0_3_m": 0.0, "per_margwork_0_3_f": 0.0, "marg_cl_0_3_p": 0, "marg_cl_0_3_m": 0, "marg_cl_0_3_f": 0, "per_marg_cl_0_3_p": 0.0, "per_marg_cl_0_3_m": 0.0, "per_marg_cl_0_3_f": 0.0, "marg_al_0_3_p": 0, "marg_al_0_3_m": 0, "marg_al_0_3_f": 0, "per_marg_al_0_3_p": 0.0, "per_marg_al_0_3_m": 0.0, "per_marg_al_0_3_f": 0.0, "marg_hh_0_3_p": 0, "marg_hh_0_3_m": 0, "marg_hh_0_3_f": 0, "per_marg_hh_0_3_p": 0.0, "per_marg_hh_0_3_m": 0.0, "per_marg_hh_0_3_f": 0.0, "marg_ot_0_3_p": 0, "marg_ot_0_3_m": 0, "marg_ot_0_3_f": 0, "per_marg_ot_0_3_p": 0.0, "per_marg_ot_0_3_m": 0.0, "per_marg_ot_0_3_f": 0.0, "non_work_p": 159, "non_work_m": 75, "non_work_f": 84, "per_non_work_p": 40.15151515, "per_non_work_m": 47.16981132, "per_non_work_f": 52.83018868, "per_hc_tot_tot": null, "per_hc_tot_god": null, "per_hc_tot_liv": null, "per_hc_tot_dil": null, "per_hc_res_tot": null, "per_hc_res_god": null, "per_hc_res_liv": null, "per_hc_res_dil": null, "per_hc_oth_tot": null, "per_hc_oth_god": null, "per_hc_oth_liv": null, "per_hc_oth_dil": null, "per_mt_grsbam": null, "per_mt_plastic": null, "per_mt_h_tiles": null, "per_mt_m_tiles": null, "per_mt_b_brick": null, "per_mt_stone": null, "per_mt_asbstos": null, "per_mt_concrte": null, "per_mt_oth": null, "per_mw_grsbam": null, "per_mw_plastic": null, "per_mw_mud": null, "per_mw_wood": null, "per_mw_no_mrtr": null, "per_mw_st_mrtr": null, "per_mw_asbstos": null, "per_mw_b_brick": null, "per_mw_concrte": null, "per_mw_oth": null, "per_mf_mud": null, "per_mf_wood": null, "per_mf_b_brick": null, "per_mf_stone": null, "per_mf_cement": null, "per_mf_fl_tile": null, "per_mf_oth": null, "per_dw_n_exrm": null, "per_dw_1_room": null, "per_dw_2_room": null, "per_dw_3_room": null, "per_dw_4_room": null, "per_dw_5_room": null, "per_dw_6_room": null, "per_hhsize_1": null, "per_hhsize_2": null, "per_hhsize_3": null, "per_hhsize_4": null, "per_hhsize_5": null, "per_hhsize_6_8": null, "per_hhsize_9p": null, "per_ow_owned": null, "per_ow_rented": null, "per_ow_oth": null, "per_mc_none": null, "per_mcouple_1": null, "per_mcouple_2": null, "per_mcouple_3": null, "per_mcouple_4": null, "per_mcouple_5p": null, "per_dw_t_ts": null, "per_dw_t_unts": null, "per_dw_c_well": null, "per_dw_unc_wel": null, "per_dw_hpump": null, "per_dw_tw_bore": null, "per_dw_spring": null, "per_dw_rivcan": null, "per_dw_tank": null, "per_dw_oth": null, "per_loc_dw_wp": null, "per_loc_dw_np": null, "per_loc_dw_aw": null, "per_light_elec": null, "per_light_kero": null, "per_light_solr": null, "per_light_oil": null, "per_light_oth": null, "per_light_no": null, "per_hh_latrine": null, "per_fl_sewer": null, "per_fl_septict": null, "per_fl_othsys": null, "per_pl_wslab": null, "per_pl_without": null, "per_ns_open": null, "per_sl_ns_hum": null, "per_sl_ns_anml": null, "per_hh_no_lat": null, "per_as_pub": null, "per_as_open": null, "per_hh_bathrm": null, "per_hh_en_wrf": null, "per_hh_no_btrm": null, "per_wwoc_drain": null, "per_wwoc_open": null, "per_wwoc_nodrn": null, "per_cook_fire": null, "per_cook_resdu": null, "per_cook_cwdng": null, "per_cook_coal": null, "per_cook_kero": null, "per_cook_lpng": null, "per_cook_elec": null, "per_cook_biogs": null, "per_cook_oth": null, "per_cook_no": null, "per_kf_inside": null, "per_kf_in_has": null, "per_kf_in_does": null, "per_kf_outside": null, "per_kf_out_has": null, "per_kf_out_dos": null, "per_kf_no_cook": null, "per_hh_banking": null, "per_hh_radio": null, "per_hh_tv": null, "per_hh_cmp_int": null, "per_hh_cmp_wnt": null, "per_hh_ph_ll": null, "per_hh_ph_mob": null, "per_hh_ph_bth": null, "per_hh_bcycl": null, "per_hh_2wheel": null, "per_hh_4wheel": null, "per_hh_tvcomp": null, "per_hh_no_ast": null, "per_hs_perma": null, "per_hs_sperma": null, "per_hs_temp": null, "per_hs_servc": null, "per_hs_nservc": null, "per_hs_unclss": null, "avghhsz_cy": 4.30434783, "st_areashape": 1769146.64387262, "st_lengthshape": 9679.729771854541}, "geometry": {"type": "Polygon", "coordinates": [[[79.7736038982725, 13.28032585589962], [79.77471623896973, 13.282255087996012], [79.77528667097175, 13.28453128377642], [79.77608527415765, 13.286141263427835], [79.77711205122235, 13.287029523309519], [79.77819587040928, 13.287584683865644], [79.7791656035551, 13.288417422755016], [79.77893743147294, 13.289139126839178], [79.77813882738872, 13.289361189807607], [79.77694092126241, 13.289805314260347], [79.77562892909499, 13.290360468464241], [79.77522962705291, 13.290415983727332], [79.7748303259091, 13.290415983727332], [79.7740317218249, 13.28969428344196], [79.77386059186496, 13.288361907034536], [79.77329016076122, 13.287473652030867], [79.77277677267803, 13.287473652030867], [79.77163590957224, 13.288084327367415], [79.77157886655172, 13.289638768013724], [79.7723204276154, 13.2921924689339], [79.7723204276154, 13.294413057143073], [79.77152182353116, 13.295578858140454], [79.76992461626108, 13.295911943235069], [79.76895488221692, 13.296467083459738], [79.76872671013476, 13.297521847346209], [79.76901192613576, 13.298243524335723], [79.76981052932166, 13.299353793709747], [79.77026687438429, 13.2999644391295], [79.77055209038534, 13.301352264543134], [79.77049504736478, 13.303572768849136], [79.7700957453227, 13.30490506166577], [79.76935418425903, 13.305571205763954], [79.76838445111316, 13.30645939446293], [79.76690132988413, 13.30723655712186], [79.76638794180096, 13.307403091278278], [79.76587455371777, 13.307070021976708], [79.76581750979891, 13.306237347156365], [79.76615976882047, 13.305238133943817], [79.76764289094781, 13.304405452827288], [79.76792810605053, 13.302740082009503], [79.76735767494681, 13.301962905801958], [79.7669583729047, 13.301352264543134], [79.76633089878044, 13.300741622619942], [79.76610272579995, 13.299575846449743], [79.76684428686362, 13.299187253146991], [79.76758584702897, 13.298854173426738], [79.76764289094781, 13.297577360969788], [79.76678724384307, 13.295745400307851], [79.76661611388313, 13.294190999674292], [79.76610272579995, 13.293469309747962], [79.76513299265407, 13.293302766017325], [79.76399212954833, 13.293857912215623], [79.76342169844457, 13.294190999674292], [79.7627371812998, 13.29396894112794], [79.7623949222782, 13.29185937960449], [79.76198135948097, 13.290457620166308], [79.76333613391378, 13.2903188320086], [79.76568916300272, 13.28948609964626], [79.76782828076458, 13.288167601038621], [79.76854132031796, 13.285808164915286], [79.76918305519739, 13.28407327049283], [79.77103695695824, 13.282962931168726], [79.77253433894242, 13.281297413095317], [79.7736038982725, 13.28032585589962]]]}}]}