{"type": "FeatureCollection", "features": [{"type": "Feature", "properties": {"premiumdata.sde.IN_Village_PCA.area": 1.72180449, "objectid": 42525, "id": "274954279637315", "name": "Huda", "subdistrict": "Vengurla", "district": "Sindhudurg", "state": "Maharashtra", "country": "India", "censusname": "Huda", "villagename_locallang": "\u0939\u0942\u0921\u093e", "lgd_villagename": "Huda", "lgd_villagecode": 566708, "lgd_subdistrictcode": 4279, "lgd_districtcode": 495, "lgd_statecode": 27, "censuscode2001": "04149900", "censuscode2011": "566708", "censuscode2021": null, "level": "Village", "tru": "Rural", "no_hh": 238, "tot_p": 992, "tot_m": 493, "tot_f": 499, "per_tot_m": 49.69758065, "per_tot_f": 50.30241935, "p_06": 86, "m_06": 45, "f_06": 41, "per_p_06": 8.66935484, "per_m_06": 52.3255814, "per_f_06": 47.6744186, "p_sc": 117, "m_sc": 60, "f_sc": 57, "per_p_sc": 11.79435484, "per_m_sc": 51.28205128, "per_f_sc": 48.71794872, "p_st": 6, "m_st": 4, "f_st": 2, "per_p_st": 0.60483871, "per_m_st": 66.66666667, "per_f_st": 33.33333333, "p_lit": 795, "m_lit": 413, "f_lit": 382, "per_p_lit": 80.14112902999999, "per_m_lit": 51.94968553, "per_f_lit": 48.05031447, "p_ill": 197, "m_ill": 80, "f_ill": 117, "per_p_ill": 19.85887097, "per_m_ill": 40.60913706, "per_f_ill": 59.39086294, "tot_work_p": 408, "tot_work_m": 269, "tot_work_f": 139, "per_tot_work_p": 41.12903226, "per_tot_work_m": 65.93137255, "per_tot_work_f": 34.06862745, "mainwork_p": 362, "mainwork_m": 259, "mainwork_f": 103, "per_mainwork_p": 36.49193548, "per_mainwork_m": 71.54696132999999, "per_mainwork_f": 28.45303867, "main_cl_p": 25, "main_cl_m": 9, "main_cl_f": 16, "per_main_cl_p": 6.90607735, "per_main_cl_m": 36.0, "per_main_cl_f": 64.0, "main_al_p": 41, "main_al_m": 16, "main_al_f": 25, "per_main_al_p": 11.32596685, "per_main_al_m": 39.02439024, "per_main_al_f": 60.97560976, "main_hh_p": 4, "main_hh_m": 3, "main_hh_f": 1, "per_main_hh_p": 1.10497238, "per_main_hh_m": 75.0, "per_main_hh_f": 25.0, "main_ot_p": 292, "main_ot_m": 231, "main_ot_f": 61, "per_main_ot_p": 80.66298343, "per_main_ot_m": 79.10958904, "per_main_ot_f": 20.89041096, "margwork_p": 46, "margwork_m": 10, "margwork_f": 36, "per_margwork_p": 4.63709677, "per_margwork_m": 21.73913043, "per_margwork_f": 78.26086957, "marg_cl_p": 11, "marg_cl_m": 2, "marg_cl_f": 9, "per_marg_cl_p": 23.91304348, "per_marg_cl_m": 18.18181818, "per_marg_cl_f": 81.81818182, "marg_al_p": 28, "marg_al_m": 6, "marg_al_f": 22, "per_marg_al_p": 60.86956522000001, "per_marg_al_m": 21.42857143, "per_marg_al_f": 78.57142857, "marg_hh_p": 1, "marg_hh_m": 0, "marg_hh_f": 1, "per_marg_hh_p": 2.17391304, "per_marg_hh_m": 0.0, "per_marg_hh_f": 100.0, "marg_ot_p": 6, "marg_ot_m": 2, "marg_ot_f": 4, "per_marg_ot_p": 13.04347826, "per_marg_ot_m": 33.33333333, "per_marg_ot_f": 66.66666667, "margwork_3_6_p": 23, "margwork_3_6_m": 6, "margwork_3_6_f": 17, "per_margwork_3_6_p": 50.0, "per_margwork_3_6_m": 26.08695652, "per_margwork_3_6_f": 73.91304348, "marg_cl_3_6_p": 9, "marg_cl_3_6_m": 2, "marg_cl_3_6_f": 7, "per_marg_cl_3_6_p": 19.56521739, "per_marg_cl_3_6_m": 22.22222222, "per_marg_cl_3_6_f": 77.77777778, "marg_al_3_6_p": 7, "marg_al_3_6_m": 2, "marg_al_3_6_f": 5, "per_marg_al_3_6_p": 15.2173913, "per_marg_al_3_6_m": 28.57142857, "per_marg_al_3_6_f": 71.42857143, "marg_hh_3_6_p": 1, "marg_hh_3_6_m": 0, "marg_hh_3_6_f": 1, "per_marg_hh_3_6_p": 2.17391304, "per_marg_hh_3_6_m": 0.0, "per_marg_hh_3_6_f": 100.0, "marg_ot_3_6_p": 6, "marg_ot_3_6_m": 2, "marg_ot_3_6_f": 4, "per_marg_ot_3_6_p": 13.04347826, "per_marg_ot_3_6_m": 33.33333333, "per_marg_ot_3_6_f": 66.66666667, "margwork_0_3_p": 23, "margwork_0_3_m": 4, "margwork_0_3_f": 19, "per_margwork_0_3_p": 50.0, "per_margwork_0_3_m": 17.39130435, "per_margwork_0_3_f": 82.60869565, "marg_cl_0_3_p": 2, "marg_cl_0_3_m": 0, "marg_cl_0_3_f": 2, "per_marg_cl_0_3_p": 4.34782609, "per_marg_cl_0_3_m": 0.0, "per_marg_cl_0_3_f": 100.0, "marg_al_0_3_p": 21, "marg_al_0_3_m": 4, "marg_al_0_3_f": 17, "per_marg_al_0_3_p": 45.65217391, "per_marg_al_0_3_m": 19.04761905, "per_marg_al_0_3_f": 80.95238095, "marg_hh_0_3_p": 0, "marg_hh_0_3_m": 0, "marg_hh_0_3_f": 0, "per_marg_hh_0_3_p": 0.0, "per_marg_hh_0_3_m": 0.0, "per_marg_hh_0_3_f": 0.0, "marg_ot_0_3_p": 0, "marg_ot_0_3_m": 0, "marg_ot_0_3_f": 0, "per_marg_ot_0_3_p": 0.0, "per_marg_ot_0_3_m": 0.0, "per_marg_ot_0_3_f": 0.0, "non_work_p": 584, "non_work_m": 224, "non_work_f": 360, "per_non_work_p": 58.87096774, "per_non_work_m": 38.35616438, "per_non_work_f": 61.64383562, "per_hc_tot_tot": 100, "per_hc_tot_god": 71.1, "per_hc_tot_liv": 28.4, "per_hc_tot_dil": 0.4, "per_hc_res_tot": 99.6, "per_hc_res_god": 71.1, "per_hc_res_liv": 28.0, "per_hc_res_dil": 0.4, "per_hc_oth_tot": 0.4, "per_hc_oth_god": 0.0, "per_hc_oth_liv": 0.4, "per_hc_oth_dil": 0.0, "per_mt_grsbam": 3.1, "per_mt_plastic": 0.0, "per_mt_h_tiles": 4.9, "per_mt_m_tiles": 77.8, "per_mt_b_brick": 0.0, "per_mt_stone": 0.0, "per_mt_asbstos": 0.0, "per_mt_concrte": 14.2, "per_mt_oth": 0.0, "per_mw_grsbam": 12.9, "per_mw_plastic": 0.0, "per_mw_mud": 4.0, "per_mw_wood": 0.4, "per_mw_no_mrtr": 21.3, "per_mw_st_mrtr": 61.3, "per_mw_asbstos": 0.0, "per_mw_b_brick": 0.0, "per_mw_concrte": 0.0, "per_mw_oth": 0.0, "per_mf_mud": 31.1, "per_mf_wood": 0.0, "per_mf_b_brick": 0.0, "per_mf_stone": 1.3, "per_mf_cement": 51.1, "per_mf_fl_tile": 16.4, "per_mf_oth": 0.0, "per_dw_n_exrm": 0.4, "per_dw_1_room": 31.1, "per_dw_2_room": 47.1, "per_dw_3_room": 16.4, "per_dw_4_room": 4.4, "per_dw_5_room": 0.4, "per_dw_6_room": 0.0, "per_hhsize_1": 7.6, "per_hhsize_2": 10.2, "per_hhsize_3": 10.2, "per_hhsize_4": 27.6, "per_hhsize_5": 20.0, "per_hhsize_6_8": 20.0, "per_hhsize_9p": 4.4, "per_ow_owned": 93.8, "per_ow_rented": 6.2, "per_ow_oth": 0.0, "per_mc_none": 16.0, "per_mcouple_1": 65.3, "per_mcouple_2": 14.2, "per_mcouple_3": 4.0, "per_mcouple_4": 0.4, "per_mcouple_5p": 0.0, "per_dw_t_ts": 70.7, "per_dw_t_unts": 1.8, "per_dw_c_well": 0.0, "per_dw_unc_wel": 27.6, "per_dw_hpump": 0.0, "per_dw_tw_bore": 0.0, "per_dw_spring": 0.0, "per_dw_rivcan": 0.0, "per_dw_tank": 0.0, "per_dw_oth": 0.0, "per_loc_dw_wp": 39.1, "per_loc_dw_np": 55.1, "per_loc_dw_aw": 5.8, "per_light_elec": 97.3, "per_light_kero": 2.7, "per_light_solr": 0.0, "per_light_oil": 0.0, "per_light_oth": 0.0, "per_light_no": 0.0, "per_hh_latrine": 60.4, "per_fl_sewer": 19.6, "per_fl_septict": 40.4, "per_fl_othsys": 0.4, "per_pl_wslab": 0.0, "per_pl_without": 0.0, "per_ns_open": 0.0, "per_sl_ns_hum": 0.0, "per_sl_ns_anml": 0.0, "per_hh_no_lat": 39.6, "per_as_pub": 39.1, "per_as_open": 0.4, "per_hh_bathrm": 94.2, "per_hh_en_wrf": 2.2, "per_hh_no_btrm": 3.6, "per_wwoc_drain": 48.9, "per_wwoc_open": 47.1, "per_wwoc_nodrn": 4.0, "per_cook_fire": 74.7, "per_cook_resdu": 0.4, "per_cook_cwdng": 0.0, "per_cook_coal": 0.0, "per_cook_kero": 3.1, "per_cook_lpng": 21.8, "per_cook_elec": 0.0, "per_cook_biogs": 0.0, "per_cook_oth": 0.0, "per_cook_no": 0.0, "per_kf_inside": 97.8, "per_kf_in_has": 97.3, "per_kf_in_does": 0.4, "per_kf_outside": 2.2, "per_kf_out_has": 0.0, "per_kf_out_dos": 2.2, "per_kf_no_cook": 0.0, "per_hh_banking": 73.3, "per_hh_radio": 4.4, "per_hh_tv": 69.8, "per_hh_cmp_int": 1.3, "per_hh_cmp_wnt": 1.3, "per_hh_ph_ll": 13.8, "per_hh_ph_mob": 59.6, "per_hh_ph_bth": 8.0, "per_hh_bcycl": 20.9, "per_hh_2wheel": 17.3, "per_hh_4wheel": 4.4, "per_hh_tvcomp": 2.2, "per_hh_no_ast": 8.4, "per_hs_perma": 82.7, "per_hs_sperma": 14.2, "per_hs_temp": 3.1, "per_hs_servc": 0.4, "per_hs_nservc": 2.7, "per_hs_unclss": 0.0, "avghhsz_cy": 4.16806723, "st_areashape": 1869454.877250275, "st_lengthshape": 6383.450594017571}, "geometry": {"type": "Polygon", "coordinates": [[[73.70201932504486, 15.745533058894607], [73.70203119807795, 15.746026507813783], [73.70226729060597, 15.748131200925615], [73.70243226171634, 15.750401748418595], [73.70242057463447, 15.753350212662447], [73.70200655279811, 15.755487616795648], [73.70126413384338, 15.756794866692251], [73.70098293780325, 15.757287790270638], [73.69918265019346, 15.75890678826142], [73.6981229256191, 15.7595474104022], [73.6977481026685, 15.75896989869685], [73.69713929463752, 15.757954782107316], [73.69685298359015, 15.757060761738739], [73.69578833265479, 15.756394107602468], [73.69521103572731, 15.756286563098106], [73.69328818018356, 15.756528680805285], [73.69293795669869, 15.756318982422256], [73.69245686843985, 15.755793019790955], [73.69163625922444, 15.75496983513887], [73.69092224499897, 15.754472560609287], [73.6900672096469, 15.753684136800057], [73.68958943437484, 15.753100309990655], [73.68920724883216, 15.751521907109089], [73.68932177325112, 15.750912672597806], [73.68999546030686, 15.74911425480418], [73.69145796430179, 15.744738591348415], [73.69211431027931, 15.74255481177952], [73.69204216657882, 15.739444859053586], [73.69327917457285, 15.741361134754085], [73.69350893577474, 15.741295363583982], [73.69436776740717, 15.744758293230053], [73.69527128663174, 15.745558242308604], [73.69685247514369, 15.746345591825847], [73.69804419277604, 15.746326231616644], [73.70023447408491, 15.74604587583299], [73.70201932504486, 15.745533058894607]]]}}]}