{"type": "FeatureCollection", "features": [{"type": "Feature", "properties": {"premiumdata.sde.IN_Village_PCA.area": 0.77231005, "objectid": 542656, "id": "193192239119756", "name": "Mandalpur", "subdistrict": "Khargram", "district": "Murshidabad", "state": "West Bengal", "country": "India", "censusname": "Mandalpur", "villagename_locallang": null, "lgd_villagename": "Mandalpur", "lgd_villagecode": 315188, "lgd_subdistrictcode": 2239, "lgd_districtcode": 319, "lgd_statecode": 19, "censuscode2001": "00901300", "censuscode2011": "315188", "censuscode2021": null, "level": "Village", "tru": "Rural", "no_hh": 532, "tot_p": 2347, "tot_m": 1206, "tot_f": 1141, "per_tot_m": 51.38474648, "per_tot_f": 48.61525352, "p_06": 356, "m_06": 195, "f_06": 161, "per_p_06": 15.16829996, "per_m_06": 54.7752809, "per_f_06": 45.2247191, "p_sc": 9, "m_sc": 5, "f_sc": 4, "per_p_sc": 0.38346826, "per_m_sc": 55.55555556, "per_f_sc": 44.44444444000001, "p_st": 0, "m_st": 0, "f_st": 0, "per_p_st": 0.0, "per_m_st": 0.0, "per_f_st": 0.0, "p_lit": 1116, "m_lit": 643, "f_lit": 473, "per_p_lit": 47.55006391, "per_m_lit": 57.61648746, "per_f_lit": 42.38351254, "p_ill": 1231, "m_ill": 563, "f_ill": 668, "per_p_ill": 52.44993609, "per_m_ill": 45.73517465, "per_f_ill": 54.26482535, "tot_work_p": 720, "tot_work_m": 682, "tot_work_f": 38, "per_tot_work_p": 30.67746059, "per_tot_work_m": 94.72222222, "per_tot_work_f": 5.27777778, "mainwork_p": 572, "mainwork_m": 546, "mainwork_f": 26, "per_mainwork_p": 24.37153813, "per_mainwork_m": 95.45454545, "per_mainwork_f": 4.54545455, "main_cl_p": 133, "main_cl_m": 130, "main_cl_f": 3, "per_main_cl_p": 23.25174825, "per_main_cl_m": 97.7443609, "per_main_cl_f": 2.2556391, "main_al_p": 354, "main_al_m": 346, "main_al_f": 8, "per_main_al_p": 61.88811189, "per_main_al_m": 97.74011299, "per_main_al_f": 2.25988701, "main_hh_p": 12, "main_hh_m": 8, "main_hh_f": 4, "per_main_hh_p": 2.0979021, "per_main_hh_m": 66.66666667, "per_main_hh_f": 33.33333333, "main_ot_p": 73, "main_ot_m": 62, "main_ot_f": 11, "per_main_ot_p": 12.76223776, "per_main_ot_m": 84.93150685, "per_main_ot_f": 15.06849315, "margwork_p": 148, "margwork_m": 136, "margwork_f": 12, "per_margwork_p": 6.30592245, "per_margwork_m": 91.89189189, "per_margwork_f": 8.10810811, "marg_cl_p": 27, "marg_cl_m": 26, "marg_cl_f": 1, "per_marg_cl_p": 18.24324324, "per_marg_cl_m": 96.2962963, "per_marg_cl_f": 3.7037037, "marg_al_p": 101, "marg_al_m": 100, "marg_al_f": 1, "per_marg_al_p": 68.24324324, "per_marg_al_m": 99.00990099, "per_marg_al_f": 0.99009901, "marg_hh_p": 4, "marg_hh_m": 0, "marg_hh_f": 4, "per_marg_hh_p": 2.7027027, "per_marg_hh_m": 0.0, "per_marg_hh_f": 100.0, "marg_ot_p": 16, "marg_ot_m": 10, "marg_ot_f": 6, "per_marg_ot_p": 10.81081081, "per_marg_ot_m": 62.5, "per_marg_ot_f": 37.5, "margwork_3_6_p": 147, "margwork_3_6_m": 135, "margwork_3_6_f": 12, "per_margwork_3_6_p": 99.32432431999999, "per_margwork_3_6_m": 91.83673469, "per_margwork_3_6_f": 8.16326531, "marg_cl_3_6_p": 27, "marg_cl_3_6_m": 26, "marg_cl_3_6_f": 1, "per_marg_cl_3_6_p": 18.24324324, "per_marg_cl_3_6_m": 96.2962963, "per_marg_cl_3_6_f": 3.7037037, "marg_al_3_6_p": 100, "marg_al_3_6_m": 99, "marg_al_3_6_f": 1, "per_marg_al_3_6_p": 67.56756757, "per_marg_al_3_6_m": 99.0, "per_marg_al_3_6_f": 1.0, "marg_hh_3_6_p": 4, "marg_hh_3_6_m": 0, "marg_hh_3_6_f": 4, "per_marg_hh_3_6_p": 2.7027027, "per_marg_hh_3_6_m": 0.0, "per_marg_hh_3_6_f": 100.0, "marg_ot_3_6_p": 16, "marg_ot_3_6_m": 10, "marg_ot_3_6_f": 6, "per_marg_ot_3_6_p": 10.81081081, "per_marg_ot_3_6_m": 62.5, "per_marg_ot_3_6_f": 37.5, "margwork_0_3_p": 1, "margwork_0_3_m": 1, "margwork_0_3_f": 0, "per_margwork_0_3_p": 0.67567568, "per_margwork_0_3_m": 100.0, "per_margwork_0_3_f": 0.0, "marg_cl_0_3_p": 0, "marg_cl_0_3_m": 0, "marg_cl_0_3_f": 0, "per_marg_cl_0_3_p": 0.0, "per_marg_cl_0_3_m": 0.0, "per_marg_cl_0_3_f": 0.0, "marg_al_0_3_p": 1, "marg_al_0_3_m": 1, "marg_al_0_3_f": 0, "per_marg_al_0_3_p": 0.67567568, "per_marg_al_0_3_m": 100.0, "per_marg_al_0_3_f": 0.0, "marg_hh_0_3_p": 0, "marg_hh_0_3_m": 0, "marg_hh_0_3_f": 0, "per_marg_hh_0_3_p": 0.0, "per_marg_hh_0_3_m": 0.0, "per_marg_hh_0_3_f": 0.0, "marg_ot_0_3_p": 0, "marg_ot_0_3_m": 0, "marg_ot_0_3_f": 0, "per_marg_ot_0_3_p": 0.0, "per_marg_ot_0_3_m": 0.0, "per_marg_ot_0_3_f": 0.0, "non_work_p": 1627, "non_work_m": 524, "non_work_f": 1103, "per_non_work_p": 69.32253941, "per_non_work_m": 32.20651506, "per_non_work_f": 67.79348494, "per_hc_tot_tot": 100, "per_hc_tot_god": 12.5, "per_hc_tot_liv": 72.8, "per_hc_tot_dil": 14.7, "per_hc_res_tot": 99.2, "per_hc_res_god": 12.1, "per_hc_res_liv": 72.5, "per_hc_res_dil": 14.7, "per_hc_oth_tot": 0.8, "per_hc_oth_god": 0.4, "per_hc_oth_liv": 0.4, "per_hc_oth_dil": 0.0, "per_mt_grsbam": 22.8, "per_mt_plastic": 2.3, "per_mt_h_tiles": 24.5, "per_mt_m_tiles": 5.1, "per_mt_b_brick": 0.0, "per_mt_stone": 9.1, "per_mt_asbstos": 29.1, "per_mt_concrte": 7.2, "per_mt_oth": 0.0, "per_mw_grsbam": 36.2, "per_mw_plastic": 0.0, "per_mw_mud": 31.5, "per_mw_wood": 0.0, "per_mw_no_mrtr": 0.0, "per_mw_st_mrtr": 0.0, "per_mw_asbstos": 0.0, "per_mw_b_brick": 27.7, "per_mw_concrte": 4.5, "per_mw_oth": 0.0, "per_mf_mud": 81.7, "per_mf_wood": 0.0, "per_mf_b_brick": 2.3, "per_mf_stone": 0.0, "per_mf_cement": 16.0, "per_mf_fl_tile": 0.0, "per_mf_oth": 0.0, "per_dw_n_exrm": 1.3, "per_dw_1_room": 69.6, "per_dw_2_room": 23.4, "per_dw_3_room": 2.5, "per_dw_4_room": 2.8, "per_dw_5_room": 0.2, "per_dw_6_room": 0.2, "per_hhsize_1": 4.0, "per_hhsize_2": 12.5, "per_hhsize_3": 14.3, "per_hhsize_4": 25.8, "per_hhsize_5": 21.1, "per_hhsize_6_8": 19.2, "per_hhsize_9p": 3.0, "per_ow_owned": 99.6, "per_ow_rented": 0.0, "per_ow_oth": 0.4, "per_mc_none": 8.1, "per_mcouple_1": 74.2, "per_mcouple_2": 15.7, "per_mcouple_3": 1.9, "per_mcouple_4": 0.2, "per_mcouple_5p": 0.0, "per_dw_t_ts": 0.2, "per_dw_t_unts": 0.0, "per_dw_c_well": 0.0, "per_dw_unc_wel": 0.0, "per_dw_hpump": 99.6, "per_dw_tw_bore": 0.0, "per_dw_spring": 0.0, "per_dw_rivcan": 0.2, "per_dw_tank": 0.0, "per_dw_oth": 0.0, "per_loc_dw_wp": 6.2, "per_loc_dw_np": 1.9, "per_loc_dw_aw": 91.9, "per_light_elec": 11.3, "per_light_kero": 87.0, "per_light_solr": 1.5, "per_light_oil": 0.0, "per_light_oth": 0.2, "per_light_no": 0.0, "per_hh_latrine": 7.4, "per_fl_sewer": 0.2, "per_fl_septict": 0.4, "per_fl_othsys": 0.2, "per_pl_wslab": 6.2, "per_pl_without": 0.2, "per_ns_open": 0.0, "per_sl_ns_hum": 0.0, "per_sl_ns_anml": 0.2, "per_hh_no_lat": 92.6, "per_as_pub": 0.0, "per_as_open": 92.6, "per_hh_bathrm": 5.8, "per_hh_en_wrf": 1.3, "per_hh_no_btrm": 92.8, "per_wwoc_drain": 3.4, "per_wwoc_open": 2.8, "per_wwoc_nodrn": 93.8, "per_cook_fire": 44.9, "per_cook_resdu": 27.7, "per_cook_cwdng": 20.2, "per_cook_coal": 6.8, "per_cook_kero": 0.0, "per_cook_lpng": 0.0, "per_cook_elec": 0.0, "per_cook_biogs": 0.0, "per_cook_oth": 0.0, "per_cook_no": 0.4, "per_kf_inside": 96.4, "per_kf_in_has": 40.8, "per_kf_in_does": 55.7, "per_kf_outside": 3.2, "per_kf_out_has": 0.4, "per_kf_out_dos": 2.8, "per_kf_no_cook": 0.4, "per_hh_banking": 14.7, "per_hh_radio": 3.4, "per_hh_tv": 16.4, "per_hh_cmp_int": 0.0, "per_hh_cmp_wnt": 0.4, "per_hh_ph_ll": 0.4, "per_hh_ph_mob": 48.3, "per_hh_ph_bth": 0.4, "per_hh_bcycl": 53.8, "per_hh_2wheel": 1.1, "per_hh_4wheel": 0.2, "per_hh_tvcomp": 0.0, "per_hh_no_ast": 33.8, "per_hs_perma": 30.9, "per_hs_sperma": 45.3, "per_hs_temp": 23.8, "per_hs_servc": 10.6, "per_hs_nservc": 13.2, "per_hs_unclss": 0.0, "avghhsz_cy": 4.41165414, "st_areashape": 929544.74863216, "st_lengthshape": 4386.517457701733}, "geometry": {"type": "Polygon", "coordinates": [[[88.07061637037602, 23.99893984750014], [88.07015637096679, 24.000079842301503], [88.06964637043052, 24.001009837146118], [88.06942637032249, 24.001919833669792], [88.06931637071764, 24.002359831150816], [88.06955637001886, 24.003299826958084], [88.06767637040235, 24.003199827311494], [88.0667563706856, 24.003199827311494], [88.06625637109337, 24.003039827879416], [88.06594637057368, 24.002849829167324], [88.06521637082773, 24.001919833669792], [88.06501636991284, 24.001449836097446], [88.06504637094841, 24.001029837093792], [88.06554637054059, 24.000729839193617], [88.06569637032842, 24.000379840896287], [88.06546637017465, 23.999759842865384], [88.06510637032454, 23.99922984576762], [88.06453637041213, 23.998829848014626], [88.06397637054549, 23.99875984903916], [88.06325637084528, 23.998739848738698], [88.06272637111586, 23.9987098486925], [88.0625763704297, 23.998579849505788], [88.06219637048812, 23.998179850553228], [88.0619763703801, 23.997979852252076], [88.06168636995184, 23.998049851651786], [88.06134637019322, 23.99821985050442], [88.06096637025163, 23.998469849712595], [88.06036637110033, 23.998459849950564], [88.06015637103802, 23.998379850184897], [88.0596963707305, 23.997869852766726], [88.05860637023609, 23.99715985621422], [88.05793636986627, 23.996639858161604], [88.05819637015729, 23.995519864058657], [88.05909637068089, 23.9944898690864], [88.05999637030617, 23.993789872070145], [88.06107636985648, 23.993369874331208], [88.06301637064574, 23.993339874674742], [88.06410637024184, 23.993769871818092], [88.0644263708073, 23.993859872107215], [88.06562637000822, 23.994229870263844], [88.0671863708559, 23.994939866565044], [88.06888637054732, 23.99583986254757], [88.07002637037212, 23.996919857626597], [88.07042637040519, 23.99792985242304], [88.07061637037602, 23.99893984750014]]]}}]}