{"type": "FeatureCollection", "features": [{"type": "Feature", "properties": {"premiumdata.sde.IN_Village_PCA.area": 41.28813564, "objectid": 241550, "id": "81076048471229", "name": "Noore Ki Burj", "subdistrict": "Bap", "district": "Jodhpur", "state": "Rajasthan", "country": "India", "censusname": "Noore Ki Burj", "villagename_locallang": null, "lgd_villagename": "Noore Ki Burj", "lgd_villagecode": 83983, "lgd_subdistrictcode": 6048, "lgd_districtcode": 107, "lgd_statecode": 8, "censuscode2001": "01908900", "censuscode2011": "083983", "censuscode2021": null, "level": "Village", "tru": "Rural", "no_hh": 396, "tot_p": 1880, "tot_m": 961, "tot_f": 919, "per_tot_m": 51.11702128, "per_tot_f": 48.88297872, "p_06": 341, "m_06": 184, "f_06": 157, "per_p_06": 18.13829787, "per_m_06": 53.95894428, "per_f_06": 46.04105572, "p_sc": 262, "m_sc": 136, "f_sc": 126, "per_p_sc": 13.93617021, "per_m_sc": 51.90839695, "per_f_sc": 48.09160305, "p_st": 0, "m_st": 0, "f_st": 0, "per_p_st": 0.0, "per_m_st": 0.0, "per_f_st": 0.0, "p_lit": 638, "m_lit": 471, "f_lit": 167, "per_p_lit": 33.93617021, "per_m_lit": 73.82445141, "per_f_lit": 26.17554859, "p_ill": 1242, "m_ill": 490, "f_ill": 752, "per_p_ill": 66.06382979, "per_m_ill": 39.45249597, "per_f_ill": 60.54750403, "tot_work_p": 1007, "tot_work_m": 512, "tot_work_f": 495, "per_tot_work_p": 53.56382979, "per_tot_work_m": 50.84409136, "per_tot_work_f": 49.15590864, "mainwork_p": 430, "mainwork_m": 248, "mainwork_f": 182, "per_mainwork_p": 22.87234043, "per_mainwork_m": 57.6744186, "per_mainwork_f": 42.3255814, "main_cl_p": 355, "main_cl_m": 186, "main_cl_f": 169, "per_main_cl_p": 82.55813953, "per_main_cl_m": 52.3943662, "per_main_cl_f": 47.6056338, "main_al_p": 17, "main_al_m": 10, "main_al_f": 7, "per_main_al_p": 3.95348837, "per_main_al_m": 58.82352941000001, "per_main_al_f": 41.17647059, "main_hh_p": 8, "main_hh_m": 6, "main_hh_f": 2, "per_main_hh_p": 1.86046512, "per_main_hh_m": 75.0, "per_main_hh_f": 25.0, "main_ot_p": 50, "main_ot_m": 46, "main_ot_f": 4, "per_main_ot_p": 11.62790698, "per_main_ot_m": 92.0, "per_main_ot_f": 8.0, "margwork_p": 577, "margwork_m": 264, "margwork_f": 313, "per_margwork_p": 30.69148936, "per_margwork_m": 45.75389948, "per_margwork_f": 54.24610052, "marg_cl_p": 180, "marg_cl_m": 65, "marg_cl_f": 115, "per_marg_cl_p": 31.19584055, "per_marg_cl_m": 36.11111111, "per_marg_cl_f": 63.88888889, "marg_al_p": 373, "marg_al_m": 180, "marg_al_f": 193, "per_marg_al_p": 64.64471404, "per_marg_al_m": 48.25737265, "per_marg_al_f": 51.74262735000001, "marg_hh_p": 18, "marg_hh_m": 14, "marg_hh_f": 4, "per_marg_hh_p": 3.11958406, "per_marg_hh_m": 77.77777778, "per_marg_hh_f": 22.22222222, "marg_ot_p": 6, "marg_ot_m": 5, "marg_ot_f": 1, "per_marg_ot_p": 1.03986135, "per_marg_ot_m": 83.33333332999999, "per_marg_ot_f": 16.66666667, "margwork_3_6_p": 518, "margwork_3_6_m": 241, "margwork_3_6_f": 277, "per_margwork_3_6_p": 89.77469671, "per_margwork_3_6_m": 46.52509653, "per_margwork_3_6_f": 53.47490347, "marg_cl_3_6_p": 174, "marg_cl_3_6_m": 64, "marg_cl_3_6_f": 110, "per_marg_cl_3_6_p": 30.1559792, "per_marg_cl_3_6_m": 36.7816092, "per_marg_cl_3_6_f": 63.2183908, "marg_al_3_6_p": 322, "marg_al_3_6_m": 160, "marg_al_3_6_f": 162, "per_marg_al_3_6_p": 55.80589255, "per_marg_al_3_6_m": 49.68944099, "per_marg_al_3_6_f": 50.31055901, "marg_hh_3_6_p": 16, "marg_hh_3_6_m": 12, "marg_hh_3_6_f": 4, "per_marg_hh_3_6_p": 2.7729636, "per_marg_hh_3_6_m": 75.0, "per_marg_hh_3_6_f": 25.0, "marg_ot_3_6_p": 6, "marg_ot_3_6_m": 5, "marg_ot_3_6_f": 1, "per_marg_ot_3_6_p": 1.03986135, "per_marg_ot_3_6_m": 83.33333332999999, "per_marg_ot_3_6_f": 16.66666667, "margwork_0_3_p": 59, "margwork_0_3_m": 23, "margwork_0_3_f": 36, "per_margwork_0_3_p": 10.22530329, "per_margwork_0_3_m": 38.98305085, "per_margwork_0_3_f": 61.01694915, "marg_cl_0_3_p": 6, "marg_cl_0_3_m": 1, "marg_cl_0_3_f": 5, "per_marg_cl_0_3_p": 1.03986135, "per_marg_cl_0_3_m": 16.66666667, "per_marg_cl_0_3_f": 83.33333332999999, "marg_al_0_3_p": 51, "marg_al_0_3_m": 20, "marg_al_0_3_f": 31, "per_marg_al_0_3_p": 8.83882149, "per_marg_al_0_3_m": 39.21568627, "per_marg_al_0_3_f": 60.78431373, "marg_hh_0_3_p": 2, "marg_hh_0_3_m": 2, "marg_hh_0_3_f": 0, "per_marg_hh_0_3_p": 0.34662045, "per_marg_hh_0_3_m": 100.0, "per_marg_hh_0_3_f": 0.0, "marg_ot_0_3_p": 0, "marg_ot_0_3_m": 0, "marg_ot_0_3_f": 0, "per_marg_ot_0_3_p": 0.0, "per_marg_ot_0_3_m": 0.0, "per_marg_ot_0_3_f": 0.0, "non_work_p": 873, "non_work_m": 449, "non_work_f": 424, "per_non_work_p": 46.43617021, "per_non_work_m": 51.43184422, "per_non_work_f": 48.56815578, "per_hc_tot_tot": 100, "per_hc_tot_god": 6.7, "per_hc_tot_liv": 92.5, "per_hc_tot_dil": 0.8, "per_hc_res_tot": 99.2, "per_hc_res_god": 6.2, "per_hc_res_liv": 92.2, "per_hc_res_dil": 0.8, "per_hc_oth_tot": 0.8, "per_hc_oth_god": 0.5, "per_hc_oth_liv": 0.3, "per_hc_oth_dil": 0.0, "per_mt_grsbam": 70.3, "per_mt_plastic": 0.0, "per_mt_h_tiles": 0.3, "per_mt_m_tiles": 0.0, "per_mt_b_brick": 0.0, "per_mt_stone": 29.5, "per_mt_asbstos": 0.0, "per_mt_concrte": 0.0, "per_mt_oth": 0.0, "per_mw_grsbam": 0.0, "per_mw_plastic": 0.3, "per_mw_mud": 70.5, "per_mw_wood": 0.0, "per_mw_no_mrtr": 1.3, "per_mw_st_mrtr": 27.4, "per_mw_asbstos": 0.0, "per_mw_b_brick": 0.5, "per_mw_concrte": 0.0, "per_mw_oth": 0.0, "per_mf_mud": 70.0, "per_mf_wood": 0.0, "per_mf_b_brick": 0.0, "per_mf_stone": 2.6, "per_mf_cement": 27.1, "per_mf_fl_tile": 0.3, "per_mf_oth": 0.0, "per_dw_n_exrm": 1.0, "per_dw_1_room": 27.6, "per_dw_2_room": 45.7, "per_dw_3_room": 24.0, "per_dw_4_room": 1.6, "per_dw_5_room": 0.0, "per_dw_6_room": 0.0, "per_hhsize_1": 2.6, "per_hhsize_2": 22.2, "per_hhsize_3": 9.6, "per_hhsize_4": 15.5, "per_hhsize_5": 11.4, "per_hhsize_6_8": 33.6, "per_hhsize_9p": 5.2, "per_ow_owned": 99.7, "per_ow_rented": 0.3, "per_ow_oth": 0.0, "per_mc_none": 5.4, "per_mcouple_1": 90.4, "per_mcouple_2": 3.9, "per_mcouple_3": 0.3, "per_mcouple_4": 0.0, "per_mcouple_5p": 0.0, "per_dw_t_ts": 0.3, "per_dw_t_unts": 0.0, "per_dw_c_well": 24.5, "per_dw_unc_wel": 0.0, "per_dw_hpump": 0.0, "per_dw_tw_bore": 0.0, "per_dw_spring": 0.0, "per_dw_rivcan": 0.0, "per_dw_tank": 20.7, "per_dw_oth": 54.5, "per_loc_dw_wp": 0.3, "per_loc_dw_np": 99.5, "per_loc_dw_aw": 0.3, "per_light_elec": 18.9, "per_light_kero": 80.6, "per_light_solr": 0.5, "per_light_oil": 0.0, "per_light_oth": 0.0, "per_light_no": 0.0, "per_hh_latrine": 1.6, "per_fl_sewer": 0.3, "per_fl_septict": 1.3, "per_fl_othsys": 0.0, "per_pl_wslab": 0.0, "per_pl_without": 0.0, "per_ns_open": 0.0, "per_sl_ns_hum": 0.0, "per_sl_ns_anml": 0.0, "per_hh_no_lat": 98.4, "per_as_pub": 1.3, "per_as_open": 97.2, "per_hh_bathrm": 32.0, "per_hh_en_wrf": 67.4, "per_hh_no_btrm": 0.5, "per_wwoc_drain": 6.7, "per_wwoc_open": 30.7, "per_wwoc_nodrn": 62.5, "per_cook_fire": 99.5, "per_cook_resdu": 0.5, "per_cook_cwdng": 0.0, "per_cook_coal": 0.0, "per_cook_kero": 0.0, "per_cook_lpng": 0.0, "per_cook_elec": 0.0, "per_cook_biogs": 0.0, "per_cook_oth": 0.0, "per_cook_no": 0.0, "per_kf_inside": 99.7, "per_kf_in_has": 59.7, "per_kf_in_does": 40.1, "per_kf_outside": 0.3, "per_kf_out_has": 0.0, "per_kf_out_dos": 0.3, "per_kf_no_cook": 0.0, "per_hh_banking": 28.9, "per_hh_radio": 30.2, "per_hh_tv": 1.6, "per_hh_cmp_int": 0.0, "per_hh_cmp_wnt": 0.3, "per_hh_ph_ll": 0.0, "per_hh_ph_mob": 69.3, "per_hh_ph_bth": 0.0, "per_hh_bcycl": 1.0, "per_hh_2wheel": 4.1, "per_hh_4wheel": 0.5, "per_hh_tvcomp": 0.0, "per_hh_no_ast": 18.3, "per_hs_perma": 28.9, "per_hs_sperma": 1.0, "per_hs_temp": 70.0, "per_hs_servc": 70.0, "per_hs_nservc": 0.0, "per_hs_unclss": 0.0, "avghhsz_cy": 4.74747475, "st_areashape": 52630178.42377714, "st_lengthshape": 31630.433381036753}, "geometry": {"type": "Polygon", "coordinates": [[[72.08602576706073, 27.470864443036053], [72.0812671412691, 27.47553291403242], [72.07266461808852, 27.48268162463805], [72.07058683998919, 27.483535799932547], [72.05704076113764, 27.475035621503125], [72.04362028293248, 27.46678023447385], [72.03818545031075, 27.46352428139254], [72.01950580952922, 27.452332766328233], [71.99718738099261, 27.441166123082226], [72.00108686523305, 27.439911167884603], [72.01149190115036, 27.436816293393935], [72.02631293552844, 27.432407773331043], [72.04292298186287, 27.424717954061713], [72.05039957014107, 27.4208082954431], [72.05299357949146, 27.41730769574622], [72.0743235944159, 27.423044286537927], [72.08308810450345, 27.427014630728976], [72.09686382597931, 27.433254777397604], [72.11479954043301, 27.440253812632275], [72.10650687493998, 27.448231455483647], [72.10007868348045, 27.45307911141952], [72.09280358821877, 27.460475907522838], [72.08602576706073, 27.470864443036053]]]}}]}