{"type": "FeatureCollection", "features": [{"type": "Feature", "properties": {"premiumdata.sde.IN_Village_PCA.area": 11.4988574, "objectid": 83853, "id": "274814232639415", "name": "Shivani Lakh", "subdistrict": "Ausa", "district": "Latur", "state": "Maharashtra", "country": "India", "censusname": "Shivani Lakh", "villagename_locallang": null, "lgd_villagename": "Shivani Lakh", "lgd_villagecode": 560667, "lgd_subdistrictcode": 4232, "lgd_districtcode": 481, "lgd_statecode": 27, "censuscode2001": "03549800", "censuscode2011": "560667", "censuscode2021": null, "level": "Village", "tru": "Rural", "no_hh": 513, "tot_p": 2374, "tot_m": 1190, "tot_f": 1184, "per_tot_m": 50.126369, "per_tot_f": 49.873631, "p_06": 316, "m_06": 164, "f_06": 152, "per_p_06": 13.31086773, "per_m_06": 51.89873418, "per_f_06": 48.10126582, "p_sc": 301, "m_sc": 142, "f_sc": 159, "per_p_sc": 12.67902275, "per_m_sc": 47.17607973, "per_f_sc": 52.82392027, "p_st": 11, "m_st": 4, "f_st": 7, "per_p_st": 0.46335299, "per_m_st": 36.36363636, "per_f_st": 63.63636364, "p_lit": 1395, "m_lit": 798, "f_lit": 597, "per_p_lit": 58.76158382, "per_m_lit": 57.20430108, "per_f_lit": 42.79569892, "p_ill": 979, "m_ill": 392, "f_ill": 587, "per_p_ill": 41.23841618, "per_m_ill": 40.04085802, "per_f_ill": 59.95914198, "tot_work_p": 1143, "tot_work_m": 667, "tot_work_f": 476, "per_tot_work_p": 48.14658804, "per_tot_work_m": 58.3552056, "per_tot_work_f": 41.6447944, "mainwork_p": 1107, "mainwork_m": 647, "mainwork_f": 460, "per_mainwork_p": 46.63016007, "per_mainwork_m": 58.44625113, "per_mainwork_f": 41.55374887, "main_cl_p": 563, "main_cl_m": 352, "main_cl_f": 211, "per_main_cl_p": 50.85817525, "per_main_cl_m": 62.52220249, "per_main_cl_f": 37.47779751, "main_al_p": 499, "main_al_m": 260, "main_al_f": 239, "per_main_al_p": 45.0767841, "per_main_al_m": 52.10420842, "per_main_al_f": 47.89579158, "main_hh_p": 7, "main_hh_m": 4, "main_hh_f": 3, "per_main_hh_p": 0.63233966, "per_main_hh_m": 57.14285714, "per_main_hh_f": 42.85714286, "main_ot_p": 38, "main_ot_m": 31, "main_ot_f": 7, "per_main_ot_p": 3.43270099, "per_main_ot_m": 81.57894737000001, "per_main_ot_f": 18.42105263, "margwork_p": 36, "margwork_m": 20, "margwork_f": 16, "per_margwork_p": 1.51642797, "per_margwork_m": 55.55555556, "per_margwork_f": 44.44444444000001, "marg_cl_p": 10, "marg_cl_m": 5, "marg_cl_f": 5, "per_marg_cl_p": 27.77777778, "per_marg_cl_m": 50.0, "per_marg_cl_f": 50.0, "marg_al_p": 14, "marg_al_m": 8, "marg_al_f": 6, "per_marg_al_p": 38.88888889, "per_marg_al_m": 57.14285714, "per_marg_al_f": 42.85714286, "marg_hh_p": 1, "marg_hh_m": 1, "marg_hh_f": 0, "per_marg_hh_p": 2.77777778, "per_marg_hh_m": 100.0, "per_marg_hh_f": 0.0, "marg_ot_p": 11, "marg_ot_m": 6, "marg_ot_f": 5, "per_marg_ot_p": 30.55555556, "per_marg_ot_m": 54.54545455, "per_marg_ot_f": 45.45454545, "margwork_3_6_p": 28, "margwork_3_6_m": 15, "margwork_3_6_f": 13, "per_margwork_3_6_p": 77.77777778, "per_margwork_3_6_m": 53.57142857, "per_margwork_3_6_f": 46.42857143, "marg_cl_3_6_p": 4, "marg_cl_3_6_m": 1, "marg_cl_3_6_f": 3, "per_marg_cl_3_6_p": 11.11111111, "per_marg_cl_3_6_m": 25.0, "per_marg_cl_3_6_f": 75.0, "marg_al_3_6_p": 13, "marg_al_3_6_m": 7, "marg_al_3_6_f": 6, "per_marg_al_3_6_p": 36.11111111, "per_marg_al_3_6_m": 53.84615385, "per_marg_al_3_6_f": 46.15384615, "marg_hh_3_6_p": 1, "marg_hh_3_6_m": 1, "marg_hh_3_6_f": 0, "per_marg_hh_3_6_p": 2.77777778, "per_marg_hh_3_6_m": 100.0, "per_marg_hh_3_6_f": 0.0, "marg_ot_3_6_p": 10, "marg_ot_3_6_m": 6, "marg_ot_3_6_f": 4, "per_marg_ot_3_6_p": 27.77777778, "per_marg_ot_3_6_m": 60.0, "per_marg_ot_3_6_f": 40.0, "margwork_0_3_p": 8, "margwork_0_3_m": 5, "margwork_0_3_f": 3, "per_margwork_0_3_p": 22.22222222, "per_margwork_0_3_m": 62.5, "per_margwork_0_3_f": 37.5, "marg_cl_0_3_p": 6, "marg_cl_0_3_m": 4, "marg_cl_0_3_f": 2, "per_marg_cl_0_3_p": 16.66666667, "per_marg_cl_0_3_m": 66.66666667, "per_marg_cl_0_3_f": 33.33333333, "marg_al_0_3_p": 1, "marg_al_0_3_m": 1, "marg_al_0_3_f": 0, "per_marg_al_0_3_p": 2.77777778, "per_marg_al_0_3_m": 100.0, "per_marg_al_0_3_f": 0.0, "marg_hh_0_3_p": 0, "marg_hh_0_3_m": 0, "marg_hh_0_3_f": 0, "per_marg_hh_0_3_p": 0.0, "per_marg_hh_0_3_m": 0.0, "per_marg_hh_0_3_f": 0.0, "marg_ot_0_3_p": 1, "marg_ot_0_3_m": 0, "marg_ot_0_3_f": 1, "per_marg_ot_0_3_p": 2.77777778, "per_marg_ot_0_3_m": 0.0, "per_marg_ot_0_3_f": 100.0, "non_work_p": 1231, "non_work_m": 523, "non_work_f": 708, "per_non_work_p": 51.85341196, "per_non_work_m": 42.48578392, "per_non_work_f": 57.51421608, "per_hc_tot_tot": 100, "per_hc_tot_god": 46.9, "per_hc_tot_liv": 44.6, "per_hc_tot_dil": 8.5, "per_hc_res_tot": 97.0, "per_hc_res_god": 46.5, "per_hc_res_liv": 42.4, "per_hc_res_dil": 8.1, "per_hc_oth_tot": 3.0, "per_hc_oth_god": 0.4, "per_hc_oth_liv": 2.2, "per_hc_oth_dil": 0.4, "per_mt_grsbam": 3.2, "per_mt_plastic": 0.4, "per_mt_h_tiles": 5.7, "per_mt_m_tiles": 0.0, "per_mt_b_brick": 0.4, "per_mt_stone": 2.2, "per_mt_asbstos": 86.3, "per_mt_concrte": 1.8, "per_mt_oth": 0.0, "per_mw_grsbam": 3.8, "per_mw_plastic": 0.0, "per_mw_mud": 5.1, "per_mw_wood": 0.0, "per_mw_no_mrtr": 2.8, "per_mw_st_mrtr": 46.5, "per_mw_asbstos": 0.8, "per_mw_b_brick": 40.6, "per_mw_concrte": 0.4, "per_mw_oth": 0.0, "per_mf_mud": 73.9, "per_mf_wood": 0.0, "per_mf_b_brick": 0.0, "per_mf_stone": 17.8, "per_mf_cement": 1.2, "per_mf_fl_tile": 7.1, "per_mf_oth": 0.0, "per_dw_n_exrm": 0.2, "per_dw_1_room": 45.0, "per_dw_2_room": 44.4, "per_dw_3_room": 5.1, "per_dw_4_room": 4.0, "per_dw_5_room": 1.2, "per_dw_6_room": 0.2, "per_hhsize_1": 4.6, "per_hhsize_2": 11.9, "per_hhsize_3": 12.3, "per_hhsize_4": 19.4, "per_hhsize_5": 23.0, "per_hhsize_6_8": 25.0, "per_hhsize_9p": 4.0, "per_ow_owned": 98.2, "per_ow_rented": 1.4, "per_ow_oth": 0.4, "per_mc_none": 9.9, "per_mcouple_1": 71.3, "per_mcouple_2": 16.2, "per_mcouple_3": 2.2, "per_mcouple_4": 0.2, "per_mcouple_5p": 0.2, "per_dw_t_ts": 1.4, "per_dw_t_unts": 66.5, "per_dw_c_well": 0.2, "per_dw_unc_wel": 19.0, "per_dw_hpump": 12.7, "per_dw_tw_bore": 0.2, "per_dw_spring": 0.0, "per_dw_rivcan": 0.0, "per_dw_tank": 0.0, "per_dw_oth": 0.0, "per_loc_dw_wp": 15.8, "per_loc_dw_np": 62.4, "per_loc_dw_aw": 21.8, "per_light_elec": 52.5, "per_light_kero": 47.5, "per_light_solr": 0.0, "per_light_oil": 0.0, "per_light_oth": 0.0, "per_light_no": 0.0, "per_hh_latrine": 5.3, "per_fl_sewer": 0.0, "per_fl_septict": 1.0, "per_fl_othsys": 0.0, "per_pl_wslab": 4.4, "per_pl_without": 0.0, "per_ns_open": 0.0, "per_sl_ns_hum": 0.0, "per_sl_ns_anml": 0.0, "per_hh_no_lat": 94.7, "per_as_pub": 0.0, "per_as_open": 94.7, "per_hh_bathrm": 16.2, "per_hh_en_wrf": 36.0, "per_hh_no_btrm": 47.7, "per_wwoc_drain": 0.0, "per_wwoc_open": 35.2, "per_wwoc_nodrn": 64.8, "per_cook_fire": 65.1, "per_cook_resdu": 18.6, "per_cook_cwdng": 15.4, "per_cook_coal": 0.0, "per_cook_kero": 0.6, "per_cook_lpng": 0.2, "per_cook_elec": 0.0, "per_cook_biogs": 0.0, "per_cook_oth": 0.0, "per_cook_no": 0.0, "per_kf_inside": 77.6, "per_kf_in_has": 16.6, "per_kf_in_does": 61.0, "per_kf_outside": 22.4, "per_kf_out_has": 16.8, "per_kf_out_dos": 5.5, "per_kf_no_cook": 0.0, "per_hh_banking": 38.8, "per_hh_radio": 3.0, "per_hh_tv": 14.1, "per_hh_cmp_int": 0.0, "per_hh_cmp_wnt": 1.4, "per_hh_ph_ll": 2.6, "per_hh_ph_mob": 35.0, "per_hh_ph_bth": 1.2, "per_hh_bcycl": 16.2, "per_hh_2wheel": 5.3, "per_hh_4wheel": 0.4, "per_hh_tvcomp": 0.0, "per_hh_no_ast": 52.5, "per_hs_perma": 88.3, "per_hs_sperma": 10.9, "per_hs_temp": 0.8, "per_hs_servc": 0.0, "per_hs_nservc": 0.8, "per_hs_unclss": 0.0, "avghhsz_cy": 4.62768031, "st_areashape": 12799795.333425416, "st_lengthshape": 14823.622286736754}, "geometry": {"type": "Polygon", "coordinates": [[[76.67254398468496, 18.106263892697186], [76.67622002916814, 18.107949639838214], [76.68637234294488, 18.10890368575154], [76.68851750097872, 18.11855847724133], [76.68995380830333, 18.127554865580326], [76.69160179733645, 18.13382769057568], [76.69281953287435, 18.137789004540537], [76.6864953717146, 18.136980800428464], [76.67186372824955, 18.135812893990014], [76.6657974599331, 18.135744775634244], [76.66117409167717, 18.135603943434102], [76.65508850239563, 18.13553492350081], [76.65345101466818, 18.134010801847104], [76.65142020318683, 18.129909023991523], [76.65184294946123, 18.1280963719192], [76.65372090002055, 18.126214941266184], [76.65471784223803, 18.12449960588098], [76.65524058357997, 18.12144710342553], [76.65542704688349, 18.115503056269354], [76.65511864985655, 18.112299870740863], [76.65365880667147, 18.109207095346097], [76.6539973727189, 18.108635062853374], [76.66084828979163, 18.109201370496645], [76.6655300817787, 18.10812808727219], [76.67254398468496, 18.106263892697186]]]}}]}