{"type": "FeatureCollection", "features": [{"type": "Feature", "properties": {"premiumdata.sde.IN_Village_PCA.area": 1.4147009, "objectid": 553546, "id": "203402571206588", "name": "Bara Dighi", "subdistrict": "Pathna", "district": "Sahebganj", "state": "Jharkhand", "country": "India", "censusname": "Bara Dighi", "villagename_locallang": null, "lgd_villagename": "Bara Dighi", "lgd_villagecode": 359374, "lgd_subdistrictcode": 2571, "lgd_districtcode": 340, "lgd_statecode": 20, "censuscode2001": "01661500", "censuscode2011": "359374", "censuscode2021": null, "level": "Village", "tru": "Rural", "no_hh": 371, "tot_p": 1790, "tot_m": 906, "tot_f": 884, "per_tot_m": 50.61452514, "per_tot_f": 49.38547486, "p_06": 341, "m_06": 173, "f_06": 168, "per_p_06": 19.05027933, "per_m_06": 50.73313783, "per_f_06": 49.26686217, "p_sc": 165, "m_sc": 86, "f_sc": 79, "per_p_sc": 9.21787709, "per_m_sc": 52.12121212, "per_f_sc": 47.87878788, "p_st": 430, "m_st": 209, "f_st": 221, "per_p_st": 24.02234637, "per_m_st": 48.60465116, "per_f_st": 51.39534884, "p_lit": 787, "m_lit": 481, "f_lit": 306, "per_p_lit": 43.96648045, "per_m_lit": 61.11817027, "per_f_lit": 38.88182973, "p_ill": 1003, "m_ill": 425, "f_ill": 578, "per_p_ill": 56.03351955, "per_m_ill": 42.37288136, "per_f_ill": 57.62711864, "tot_work_p": 750, "tot_work_m": 458, "tot_work_f": 292, "per_tot_work_p": 41.89944134, "per_tot_work_m": 61.06666667, "per_tot_work_f": 38.93333333, "mainwork_p": 660, "mainwork_m": 435, "mainwork_f": 225, "per_mainwork_p": 36.87150838, "per_mainwork_m": 65.90909091, "per_mainwork_f": 34.09090909, "main_cl_p": 228, "main_cl_m": 184, "main_cl_f": 44, "per_main_cl_p": 34.54545455, "per_main_cl_m": 80.70175439, "per_main_cl_f": 19.29824561, "main_al_p": 293, "main_al_m": 160, "main_al_f": 133, "per_main_al_p": 44.39393939, "per_main_al_m": 54.60750853, "per_main_al_f": 45.39249147, "main_hh_p": 1, "main_hh_m": 0, "main_hh_f": 1, "per_main_hh_p": 0.15151515, "per_main_hh_m": 0.0, "per_main_hh_f": 100.0, "main_ot_p": 138, "main_ot_m": 91, "main_ot_f": 47, "per_main_ot_p": 20.90909091, "per_main_ot_m": 65.94202899, "per_main_ot_f": 34.05797101, "margwork_p": 90, "margwork_m": 23, "margwork_f": 67, "per_margwork_p": 5.02793296, "per_margwork_m": 25.55555556, "per_margwork_f": 74.44444444, "marg_cl_p": 37, "marg_cl_m": 15, "marg_cl_f": 22, "per_marg_cl_p": 41.11111111, "per_marg_cl_m": 40.54054054, "per_marg_cl_f": 59.45945946000001, "marg_al_p": 47, "marg_al_m": 5, "marg_al_f": 42, "per_marg_al_p": 52.22222222, "per_marg_al_m": 10.63829787, "per_marg_al_f": 89.36170213, "marg_hh_p": 0, "marg_hh_m": 0, "marg_hh_f": 0, "per_marg_hh_p": 0.0, "per_marg_hh_m": 0.0, "per_marg_hh_f": 0.0, "marg_ot_p": 6, "marg_ot_m": 3, "marg_ot_f": 3, "per_marg_ot_p": 6.66666667, "per_marg_ot_m": 50.0, "per_marg_ot_f": 50.0, "margwork_3_6_p": 31, "margwork_3_6_m": 10, "margwork_3_6_f": 21, "per_margwork_3_6_p": 34.44444444000001, "per_margwork_3_6_m": 32.25806452, "per_margwork_3_6_f": 67.74193548, "marg_cl_3_6_p": 17, "marg_cl_3_6_m": 5, "marg_cl_3_6_f": 12, "per_marg_cl_3_6_p": 18.88888889, "per_marg_cl_3_6_m": 29.41176471, "per_marg_cl_3_6_f": 70.58823529, "marg_al_3_6_p": 9, "marg_al_3_6_m": 2, "marg_al_3_6_f": 7, "per_marg_al_3_6_p": 10.0, "per_marg_al_3_6_m": 22.22222222, "per_marg_al_3_6_f": 77.77777778, "marg_hh_3_6_p": 0, "marg_hh_3_6_m": 0, "marg_hh_3_6_f": 0, "per_marg_hh_3_6_p": 0.0, "per_marg_hh_3_6_m": 0.0, "per_marg_hh_3_6_f": 0.0, "marg_ot_3_6_p": 5, "marg_ot_3_6_m": 3, "marg_ot_3_6_f": 2, "per_marg_ot_3_6_p": 5.55555556, "per_marg_ot_3_6_m": 60.0, "per_marg_ot_3_6_f": 40.0, "margwork_0_3_p": 59, "margwork_0_3_m": 13, "margwork_0_3_f": 46, "per_margwork_0_3_p": 65.55555556, "per_margwork_0_3_m": 22.03389831, "per_margwork_0_3_f": 77.96610169, "marg_cl_0_3_p": 20, "marg_cl_0_3_m": 10, "marg_cl_0_3_f": 10, "per_marg_cl_0_3_p": 22.22222222, "per_marg_cl_0_3_m": 50.0, "per_marg_cl_0_3_f": 50.0, "marg_al_0_3_p": 38, "marg_al_0_3_m": 3, "marg_al_0_3_f": 35, "per_marg_al_0_3_p": 42.22222222, "per_marg_al_0_3_m": 7.89473684, "per_marg_al_0_3_f": 92.10526316, "marg_hh_0_3_p": 0, "marg_hh_0_3_m": 0, "marg_hh_0_3_f": 0, "per_marg_hh_0_3_p": 0.0, "per_marg_hh_0_3_m": 0.0, "per_marg_hh_0_3_f": 0.0, "marg_ot_0_3_p": 1, "marg_ot_0_3_m": 0, "marg_ot_0_3_f": 1, "per_marg_ot_0_3_p": 1.11111111, "per_marg_ot_0_3_m": 0.0, "per_marg_ot_0_3_f": 100.0, "non_work_p": 1040, "non_work_m": 448, "non_work_f": 592, "per_non_work_p": 58.10055866, "per_non_work_m": 43.07692308, "per_non_work_f": 56.92307692, "per_hc_tot_tot": 100, "per_hc_tot_god": 36.4, "per_hc_tot_liv": 24.7, "per_hc_tot_dil": 38.8, "per_hc_res_tot": 97.3, "per_hc_res_god": 36.4, "per_hc_res_liv": 23.7, "per_hc_res_dil": 37.2, "per_hc_oth_tot": 2.7, "per_hc_oth_god": 0.0, "per_hc_oth_liv": 1.1, "per_hc_oth_dil": 1.6, "per_mt_grsbam": 8.8, "per_mt_plastic": 0.0, "per_mt_h_tiles": 53.7, "per_mt_m_tiles": 25.8, "per_mt_b_brick": 0.0, "per_mt_stone": 0.5, "per_mt_asbstos": 0.5, "per_mt_concrte": 10.6, "per_mt_oth": 0.0, "per_mw_grsbam": 10.1, "per_mw_plastic": 0.0, "per_mw_mud": 73.9, "per_mw_wood": 0.3, "per_mw_no_mrtr": 0.0, "per_mw_st_mrtr": 0.0, "per_mw_asbstos": 0.0, "per_mw_b_brick": 14.9, "per_mw_concrte": 0.0, "per_mw_oth": 0.8, "per_mf_mud": 87.2, "per_mf_wood": 0.0, "per_mf_b_brick": 0.0, "per_mf_stone": 0.0, "per_mf_cement": 12.8, "per_mf_fl_tile": 0.0, "per_mf_oth": 0.0, "per_dw_n_exrm": 0.8, "per_dw_1_room": 58.8, "per_dw_2_room": 37.8, "per_dw_3_room": 1.3, "per_dw_4_room": 0.8, "per_dw_5_room": 0.3, "per_dw_6_room": 0.3, "per_hhsize_1": 2.1, "per_hhsize_2": 8.2, "per_hhsize_3": 14.6, "per_hhsize_4": 20.5, "per_hhsize_5": 25.5, "per_hhsize_6_8": 27.4, "per_hhsize_9p": 1.6, "per_ow_owned": 94.9, "per_ow_rented": 3.7, "per_ow_oth": 1.3, "per_mc_none": 12.0, "per_mcouple_1": 77.7, "per_mcouple_2": 9.0, "per_mcouple_3": 1.3, "per_mcouple_4": 0.0, "per_mcouple_5p": 0.0, "per_dw_t_ts": 0.0, "per_dw_t_unts": 0.3, "per_dw_c_well": 0.0, "per_dw_unc_wel": 30.3, "per_dw_hpump": 69.4, "per_dw_tw_bore": 0.0, "per_dw_spring": 0.0, "per_dw_rivcan": 0.0, "per_dw_tank": 0.0, "per_dw_oth": 0.0, "per_loc_dw_wp": 1.9, "per_loc_dw_np": 43.1, "per_loc_dw_aw": 55.1, "per_light_elec": 16.0, "per_light_kero": 84.0, "per_light_solr": 0.0, "per_light_oil": 0.0, "per_light_oth": 0.0, "per_light_no": 0.0, "per_hh_latrine": 10.1, "per_fl_sewer": 0.0, "per_fl_septict": 9.6, "per_fl_othsys": 0.5, "per_pl_wslab": 0.0, "per_pl_without": 0.0, "per_ns_open": 0.0, "per_sl_ns_hum": 0.0, "per_sl_ns_anml": 0.0, "per_hh_no_lat": 89.9, "per_as_pub": 0.0, "per_as_open": 89.9, "per_hh_bathrm": 0.3, "per_hh_en_wrf": 20.2, "per_hh_no_btrm": 79.5, "per_wwoc_drain": 0.0, "per_wwoc_open": 7.4, "per_wwoc_nodrn": 92.6, "per_cook_fire": 76.9, "per_cook_resdu": 18.9, "per_cook_cwdng": 1.9, "per_cook_coal": 1.1, "per_cook_kero": 0.0, "per_cook_lpng": 1.3, "per_cook_elec": 0.0, "per_cook_biogs": 0.0, "per_cook_oth": 0.0, "per_cook_no": 0.0, "per_kf_inside": 94.9, "per_kf_in_has": 9.6, "per_kf_in_does": 85.4, "per_kf_outside": 5.1, "per_kf_out_has": 3.7, "per_kf_out_dos": 1.3, "per_kf_no_cook": 0.0, "per_hh_banking": 17.8, "per_hh_radio": 26.3, "per_hh_tv": 3.2, "per_hh_cmp_int": 0.5, "per_hh_cmp_wnt": 0.5, "per_hh_ph_ll": 0.0, "per_hh_ph_mob": 16.8, "per_hh_ph_bth": 0.3, "per_hh_bcycl": 54.5, "per_hh_2wheel": 7.7, "per_hh_4wheel": 0.5, "per_hh_tvcomp": 0.3, "per_hh_no_ast": 39.6, "per_hs_perma": 14.4, "per_hs_sperma": 76.9, "per_hs_temp": 8.0, "per_hs_servc": 2.1, "per_hs_nservc": 5.9, "per_hs_unclss": 0.8, "avghhsz_cy": 4.82479784, "st_areashape": 1726763.463105705, "st_lengthshape": 6764.083136679967}, "geometry": {"type": "Polygon", "coordinates": [[[87.7744655600815, 24.894612276881986], [87.77184157574669, 24.89445704841881], [87.76608021899388, 24.89528493293014], [87.7655668309107, 24.894974476685242], [87.76060407824211, 24.893939617169035], [87.75752374884466, 24.89611281188995], [87.75707813864965, 24.896707223574126], [87.75598358459509, 24.896578491263305], [87.75592654157454, 24.89600932671244], [87.75617281560801, 24.895798825398852], [87.75889278403261, 24.89347392784208], [87.75889278403261, 24.889334389058824], [87.76180198436842, 24.88912740806954], [87.76670769401649, 24.888144245873956], [87.76779151320339, 24.886695360146128], [87.76893237630918, 24.88648837554885], [87.77115705860187, 24.886177897187633], [87.77298243885245, 24.88788551729353], [87.77600572433107, 24.88783377167536], [87.77788814850051, 24.889282644047732], [87.77874085631765, 24.889179509249487], [87.77875268084175, 24.889193767255033], [87.77845857960425, 24.889851838791962], [87.77845857960425, 24.89078324301071], [87.77885788164635, 24.89166289700546], [87.77845857960425, 24.892025105460778], [87.7774888464584, 24.892025105460778], [87.77691841445635, 24.891611152970086], [87.7744655600815, 24.894612276881986]]]}}]}