{"type": "FeatureCollection", "features": [{"type": "Feature", "properties": {"premiumdata.sde.IN_Village_PCA.area": 0.40708609, "objectid": 376575, "id": "9183804411162", "name": "Ghennapur", "subdistrict": "Sitapur", "district": "Sitapur", "state": "Uttar Pradesh", "country": "India", "censusname": "Ghennapur", "villagename_locallang": null, "lgd_villagename": "Ghennapur", "lgd_villagecode": 137383, "lgd_subdistrictcode": 804, "lgd_districtcode": 183, "lgd_statecode": 9, "censuscode2001": "03025800", "censuscode2011": "137383", "censuscode2021": null, "level": "Village", "tru": "Rural", "no_hh": 101, "tot_p": 545, "tot_m": 295, "tot_f": 250, "per_tot_m": 54.12844037, "per_tot_f": 45.87155963, "p_06": 76, "m_06": 42, "f_06": 34, "per_p_06": 13.94495413, "per_m_06": 55.26315789, "per_f_06": 44.73684211, "p_sc": 0, "m_sc": 0, "f_sc": 0, "per_p_sc": 0.0, "per_m_sc": 0.0, "per_f_sc": 0.0, "p_st": 0, "m_st": 0, "f_st": 0, "per_p_st": 0.0, "per_m_st": 0.0, "per_f_st": 0.0, "p_lit": 350, "m_lit": 228, "f_lit": 122, "per_p_lit": 64.22018349, "per_m_lit": 65.14285714, "per_f_lit": 34.85714286, "p_ill": 195, "m_ill": 67, "f_ill": 128, "per_p_ill": 35.77981651, "per_m_ill": 34.35897436, "per_f_ill": 65.64102564000001, "tot_work_p": 126, "tot_work_m": 90, "tot_work_f": 36, "per_tot_work_p": 23.11926606, "per_tot_work_m": 71.42857143, "per_tot_work_f": 28.57142857, "mainwork_p": 93, "mainwork_m": 75, "mainwork_f": 18, "per_mainwork_p": 17.06422018, "per_mainwork_m": 80.64516129, "per_mainwork_f": 19.35483871, "main_cl_p": 57, "main_cl_m": 52, "main_cl_f": 5, "per_main_cl_p": 61.29032258, "per_main_cl_m": 91.22807017999999, "per_main_cl_f": 8.77192982, "main_al_p": 9, "main_al_m": 5, "main_al_f": 4, "per_main_al_p": 9.67741935, "per_main_al_m": 55.55555556, "per_main_al_f": 44.44444444000001, "main_hh_p": 0, "main_hh_m": 0, "main_hh_f": 0, "per_main_hh_p": 0.0, "per_main_hh_m": 0.0, "per_main_hh_f": 0.0, "main_ot_p": 27, "main_ot_m": 18, "main_ot_f": 9, "per_main_ot_p": 29.03225806, "per_main_ot_m": 66.66666667, "per_main_ot_f": 33.33333333, "margwork_p": 33, "margwork_m": 15, "margwork_f": 18, "per_margwork_p": 6.05504587, "per_margwork_m": 45.45454545, "per_margwork_f": 54.54545455, "marg_cl_p": 4, "marg_cl_m": 1, "marg_cl_f": 3, "per_marg_cl_p": 12.12121212, "per_marg_cl_m": 25.0, "per_marg_cl_f": 75.0, "marg_al_p": 21, "marg_al_m": 8, "marg_al_f": 13, "per_marg_al_p": 63.63636364, "per_marg_al_m": 38.0952381, "per_marg_al_f": 61.9047619, "marg_hh_p": 0, "marg_hh_m": 0, "marg_hh_f": 0, "per_marg_hh_p": 0.0, "per_marg_hh_m": 0.0, "per_marg_hh_f": 0.0, "marg_ot_p": 8, "marg_ot_m": 6, "marg_ot_f": 2, "per_marg_ot_p": 24.24242424, "per_marg_ot_m": 75.0, "per_marg_ot_f": 25.0, "margwork_3_6_p": 30, "margwork_3_6_m": 14, "margwork_3_6_f": 16, "per_margwork_3_6_p": 90.90909091, "per_margwork_3_6_m": 46.66666667000001, "per_margwork_3_6_f": 53.33333333, "marg_cl_3_6_p": 3, "marg_cl_3_6_m": 1, "marg_cl_3_6_f": 2, "per_marg_cl_3_6_p": 9.09090909, "per_marg_cl_3_6_m": 33.33333333, "per_marg_cl_3_6_f": 66.66666667, "marg_al_3_6_p": 20, "marg_al_3_6_m": 7, "marg_al_3_6_f": 13, "per_marg_al_3_6_p": 60.60606061, "per_marg_al_3_6_m": 35.0, "per_marg_al_3_6_f": 65.0, "marg_hh_3_6_p": 0, "marg_hh_3_6_m": 0, "marg_hh_3_6_f": 0, "per_marg_hh_3_6_p": 0.0, "per_marg_hh_3_6_m": 0.0, "per_marg_hh_3_6_f": 0.0, "marg_ot_3_6_p": 7, "marg_ot_3_6_m": 6, "marg_ot_3_6_f": 1, "per_marg_ot_3_6_p": 21.21212121, "per_marg_ot_3_6_m": 85.71428571, "per_marg_ot_3_6_f": 14.28571429, "margwork_0_3_p": 3, "margwork_0_3_m": 1, "margwork_0_3_f": 2, "per_margwork_0_3_p": 9.09090909, "per_margwork_0_3_m": 33.33333333, "per_margwork_0_3_f": 66.66666667, "marg_cl_0_3_p": 1, "marg_cl_0_3_m": 0, "marg_cl_0_3_f": 1, "per_marg_cl_0_3_p": 3.03030303, "per_marg_cl_0_3_m": 0.0, "per_marg_cl_0_3_f": 100.0, "marg_al_0_3_p": 1, "marg_al_0_3_m": 1, "marg_al_0_3_f": 0, "per_marg_al_0_3_p": 3.03030303, "per_marg_al_0_3_m": 100.0, "per_marg_al_0_3_f": 0.0, "marg_hh_0_3_p": 0, "marg_hh_0_3_m": 0, "marg_hh_0_3_f": 0, "per_marg_hh_0_3_p": 0.0, "per_marg_hh_0_3_m": 0.0, "per_marg_hh_0_3_f": 0.0, "marg_ot_0_3_p": 1, "marg_ot_0_3_m": 0, "marg_ot_0_3_f": 1, "per_marg_ot_0_3_p": 3.03030303, "per_marg_ot_0_3_m": 0.0, "per_marg_ot_0_3_f": 100.0, "non_work_p": 419, "non_work_m": 205, "non_work_f": 214, "per_non_work_p": 76.88073394, "per_non_work_m": 48.92601432, "per_non_work_f": 51.07398568, "per_hc_tot_tot": 100, "per_hc_tot_god": 43.6, "per_hc_tot_liv": 46.5, "per_hc_tot_dil": 9.9, "per_hc_res_tot": 100.0, "per_hc_res_god": 43.6, "per_hc_res_liv": 46.5, "per_hc_res_dil": 9.9, "per_hc_oth_tot": 0.0, "per_hc_oth_god": 0.0, "per_hc_oth_liv": 0.0, "per_hc_oth_dil": 0.0, "per_mt_grsbam": 47.5, "per_mt_plastic": 0.0, "per_mt_h_tiles": 0.0, "per_mt_m_tiles": 0.0, "per_mt_b_brick": 51.5, "per_mt_stone": 1.0, "per_mt_asbstos": 0.0, "per_mt_concrte": 0.0, "per_mt_oth": 0.0, "per_mw_grsbam": 38.6, "per_mw_plastic": 2.0, "per_mw_mud": 4.0, "per_mw_wood": 0.0, "per_mw_no_mrtr": 0.0, "per_mw_st_mrtr": 0.0, "per_mw_asbstos": 0.0, "per_mw_b_brick": 55.4, "per_mw_concrte": 0.0, "per_mw_oth": 0.0, "per_mf_mud": 47.5, "per_mf_wood": 0.0, "per_mf_b_brick": 52.5, "per_mf_stone": 0.0, "per_mf_cement": 0.0, "per_mf_fl_tile": 0.0, "per_mf_oth": 0.0, "per_dw_n_exrm": 47.5, "per_dw_1_room": 12.9, "per_dw_2_room": 28.7, "per_dw_3_room": 5.0, "per_dw_4_room": 2.0, "per_dw_5_room": 1.0, "per_dw_6_room": 3.0, "per_hhsize_1": 1.0, "per_hhsize_2": 7.9, "per_hhsize_3": 10.9, "per_hhsize_4": 13.9, "per_hhsize_5": 18.8, "per_hhsize_6_8": 42.6, "per_hhsize_9p": 5.0, "per_ow_owned": 100.0, "per_ow_rented": 0.0, "per_ow_oth": 0.0, "per_mc_none": 3.0, "per_mcouple_1": 79.2, "per_mcouple_2": 13.9, "per_mcouple_3": 4.0, "per_mcouple_4": 0.0, "per_mcouple_5p": 0.0, "per_dw_t_ts": 38.6, "per_dw_t_unts": 2.0, "per_dw_c_well": 0.0, "per_dw_unc_wel": 7.9, "per_dw_hpump": 51.5, "per_dw_tw_bore": 0.0, "per_dw_spring": 0.0, "per_dw_rivcan": 0.0, "per_dw_tank": 0.0, "per_dw_oth": 0.0, "per_loc_dw_wp": 37.6, "per_loc_dw_np": 56.4, "per_loc_dw_aw": 5.9, "per_light_elec": 29.7, "per_light_kero": 67.3, "per_light_solr": 3.0, "per_light_oil": 0.0, "per_light_oth": 0.0, "per_light_no": 0.0, "per_hh_latrine": 0.0, "per_fl_sewer": 0.0, "per_fl_septict": 0.0, "per_fl_othsys": 0.0, "per_pl_wslab": 0.0, "per_pl_without": 0.0, "per_ns_open": 0.0, "per_sl_ns_hum": 0.0, "per_sl_ns_anml": 0.0, "per_hh_no_lat": 100.0, "per_as_pub": 0.0, "per_as_open": 100.0, "per_hh_bathrm": 19.8, "per_hh_en_wrf": 7.9, "per_hh_no_btrm": 72.3, "per_wwoc_drain": 12.9, "per_wwoc_open": 61.4, "per_wwoc_nodrn": 25.7, "per_cook_fire": 0.0, "per_cook_resdu": 89.1, "per_cook_cwdng": 0.0, "per_cook_coal": 0.0, "per_cook_kero": 0.0, "per_cook_lpng": 10.9, "per_cook_elec": 0.0, "per_cook_biogs": 0.0, "per_cook_oth": 0.0, "per_cook_no": 0.0, "per_kf_inside": 99.0, "per_kf_in_has": 18.8, "per_kf_in_does": 80.2, "per_kf_outside": 1.0, "per_kf_out_has": 1.0, "per_kf_out_dos": 0.0, "per_kf_no_cook": 0.0, "per_hh_banking": 80.2, "per_hh_radio": 16.8, "per_hh_tv": 20.8, "per_hh_cmp_int": 0.0, "per_hh_cmp_wnt": 2.0, "per_hh_ph_ll": 0.0, "per_hh_ph_mob": 43.6, "per_hh_ph_bth": 0.0, "per_hh_bcycl": 84.2, "per_hh_2wheel": 19.8, "per_hh_4wheel": 5.0, "per_hh_tvcomp": 0.0, "per_hh_no_ast": 9.9, "per_hs_perma": 50.5, "per_hs_sperma": 6.9, "per_hs_temp": 42.6, "per_hs_servc": 4.0, "per_hs_nservc": 38.6, "per_hs_unclss": 0.0, "avghhsz_cy": 5.3960396, "st_areashape": 521481.40765884, "st_lengthshape": 3252.5883725021413}, "geometry": {"type": "Polygon", "coordinates": [[[80.67275718299136, 27.716610237400058], [80.67258387821009, 27.71733657042933], [80.67224497439614, 27.7182067860225], [80.67223246984737, 27.719153239088037], [80.67256047350368, 27.719540749768342], [80.67263367272464, 27.720196833854803], [80.67262982524026, 27.720488056447685], [80.67213299310774, 27.72091972120584], [80.67073199945526, 27.72163319569547], [80.66734355689849, 27.72407332303084], [80.66645830311862, 27.725081941645534], [80.66569062174143, 27.724649374930074], [80.66399247168115, 27.723424263139524], [80.66350348004447, 27.72259308649282], [80.66351107080861, 27.722021301120677], [80.66380518821579, 27.721388980838523], [80.66565331021611, 27.71964789131915], [80.66718495214856, 27.719437308275282], [80.66862407928487, 27.71868956504648], [80.67284481274899, 27.71650880827107], [80.67275718299136, 27.716610237400058]]]}}]}