{"type": "FeatureCollection", "features": [{"type": "Feature", "properties": {"premiumdata.sde.IN_Village_PCA.area": 2.24300773, "objectid": 68358, "id": "244593935277729", "name": "Vareth", "subdistrict": "Mandvi Surat", "district": "Surat", "state": "Gujarat", "country": "India", "censusname": "Vareth", "villagename_locallang": null, "lgd_villagename": "Vareth", "lgd_villagecode": 524064, "lgd_subdistrictcode": 3935, "lgd_districtcode": 459, "lgd_statecode": 24, "censuscode2001": "01686500", "censuscode2011": "524064", "censuscode2021": null, "level": "Village", "tru": "Rural", "no_hh": 482, "tot_p": 2212, "tot_m": 1085, "tot_f": 1127, "per_tot_m": 49.05063291, "per_tot_f": 50.94936709, "p_06": 257, "m_06": 129, "f_06": 128, "per_p_06": 11.61844485, "per_m_06": 50.19455253, "per_f_06": 49.80544747, "p_sc": 10, "m_sc": 4, "f_sc": 6, "per_p_sc": 0.45207957, "per_m_sc": 40.0, "per_f_sc": 60.0, "p_st": 2133, "m_st": 1048, "f_st": 1085, "per_p_st": 96.42857143, "per_m_st": 49.13267698, "per_f_st": 50.86732302, "p_lit": 1283, "m_lit": 704, "f_lit": 579, "per_p_lit": 58.00180832, "per_m_lit": 54.87139517, "per_f_lit": 45.12860483, "p_ill": 929, "m_ill": 381, "f_ill": 548, "per_p_ill": 41.99819168, "per_m_ill": 41.01184069, "per_f_ill": 58.98815931, "tot_work_p": 1287, "tot_work_m": 714, "tot_work_f": 573, "per_tot_work_p": 58.18264014, "per_tot_work_m": 55.47785548, "per_tot_work_f": 44.52214452, "mainwork_p": 1003, "mainwork_m": 673, "mainwork_f": 330, "per_mainwork_p": 45.34358047, "per_mainwork_m": 67.09870389, "per_mainwork_f": 32.90129611, "main_cl_p": 260, "main_cl_m": 216, "main_cl_f": 44, "per_main_cl_p": 25.9222333, "per_main_cl_m": 83.07692308, "per_main_cl_f": 16.92307692, "main_al_p": 495, "main_al_m": 275, "main_al_f": 220, "per_main_al_p": 49.35194417, "per_main_al_m": 55.55555556, "per_main_al_f": 44.44444444000001, "main_hh_p": 62, "main_hh_m": 32, "main_hh_f": 30, "per_main_hh_p": 6.18145563, "per_main_hh_m": 51.61290323, "per_main_hh_f": 48.38709677, "main_ot_p": 186, "main_ot_m": 150, "main_ot_f": 36, "per_main_ot_p": 18.5443669, "per_main_ot_m": 80.64516129, "per_main_ot_f": 19.35483871, "margwork_p": 284, "margwork_m": 41, "margwork_f": 243, "per_margwork_p": 12.83905967, "per_margwork_m": 14.43661972, "per_margwork_f": 85.56338028, "marg_cl_p": 1, "marg_cl_m": 0, "marg_cl_f": 1, "per_marg_cl_p": 0.35211268, "per_marg_cl_m": 0.0, "per_marg_cl_f": 100.0, "marg_al_p": 271, "marg_al_m": 35, "marg_al_f": 236, "per_marg_al_p": 95.42253521, "per_marg_al_m": 12.91512915, "per_marg_al_f": 87.08487085, "marg_hh_p": 0, "marg_hh_m": 0, "marg_hh_f": 0, "per_marg_hh_p": 0.0, "per_marg_hh_m": 0.0, "per_marg_hh_f": 0.0, "marg_ot_p": 12, "marg_ot_m": 6, "marg_ot_f": 6, "per_marg_ot_p": 4.22535211, "per_marg_ot_m": 50.0, "per_marg_ot_f": 50.0, "margwork_3_6_p": 259, "margwork_3_6_m": 27, "margwork_3_6_f": 232, "per_margwork_3_6_p": 91.1971831, "per_margwork_3_6_m": 10.42471042, "per_margwork_3_6_f": 89.57528957999999, "marg_cl_3_6_p": 1, "marg_cl_3_6_m": 0, "marg_cl_3_6_f": 1, "per_marg_cl_3_6_p": 0.35211268, "per_marg_cl_3_6_m": 0.0, "per_marg_cl_3_6_f": 100.0, "marg_al_3_6_p": 247, "marg_al_3_6_m": 22, "marg_al_3_6_f": 225, "per_marg_al_3_6_p": 86.97183099, "per_marg_al_3_6_m": 8.90688259, "per_marg_al_3_6_f": 91.09311741, "marg_hh_3_6_p": 0, "marg_hh_3_6_m": 0, "marg_hh_3_6_f": 0, "per_marg_hh_3_6_p": 0.0, "per_marg_hh_3_6_m": 0.0, "per_marg_hh_3_6_f": 0.0, "marg_ot_3_6_p": 11, "marg_ot_3_6_m": 5, "marg_ot_3_6_f": 6, "per_marg_ot_3_6_p": 3.87323944, "per_marg_ot_3_6_m": 45.45454545, "per_marg_ot_3_6_f": 54.54545455, "margwork_0_3_p": 25, "margwork_0_3_m": 14, "margwork_0_3_f": 11, "per_margwork_0_3_p": 8.8028169, "per_margwork_0_3_m": 56.0, "per_margwork_0_3_f": 44.0, "marg_cl_0_3_p": 0, "marg_cl_0_3_m": 0, "marg_cl_0_3_f": 0, "per_marg_cl_0_3_p": 0.0, "per_marg_cl_0_3_m": 0.0, "per_marg_cl_0_3_f": 0.0, "marg_al_0_3_p": 24, "marg_al_0_3_m": 13, "marg_al_0_3_f": 11, "per_marg_al_0_3_p": 8.45070423, "per_marg_al_0_3_m": 54.16666667000001, "per_marg_al_0_3_f": 45.83333333, "marg_hh_0_3_p": 0, "marg_hh_0_3_m": 0, "marg_hh_0_3_f": 0, "per_marg_hh_0_3_p": 0.0, "per_marg_hh_0_3_m": 0.0, "per_marg_hh_0_3_f": 0.0, "marg_ot_0_3_p": 1, "marg_ot_0_3_m": 1, "marg_ot_0_3_f": 0, "per_marg_ot_0_3_p": 0.35211268, "per_marg_ot_0_3_m": 100.0, "per_marg_ot_0_3_f": 0.0, "non_work_p": 925, "non_work_m": 371, "non_work_f": 554, "per_non_work_p": 41.81735986, "per_non_work_m": 40.10810811, "per_non_work_f": 59.89189189, "per_hc_tot_tot": 100, "per_hc_tot_god": 78.1, "per_hc_tot_liv": 21.1, "per_hc_tot_dil": 0.8, "per_hc_res_tot": 89.2, "per_hc_res_god": 68.7, "per_hc_res_liv": 19.7, "per_hc_res_dil": 0.8, "per_hc_oth_tot": 10.8, "per_hc_oth_god": 9.3, "per_hc_oth_liv": 1.4, "per_hc_oth_dil": 0.0, "per_mt_grsbam": 0.6, "per_mt_plastic": 0.0, "per_mt_h_tiles": 0.0, "per_mt_m_tiles": 73.5, "per_mt_b_brick": 0.0, "per_mt_stone": 0.0, "per_mt_asbstos": 19.3, "per_mt_concrte": 6.6, "per_mt_oth": 0.0, "per_mw_grsbam": 64.2, "per_mw_plastic": 0.0, "per_mw_mud": 1.0, "per_mw_wood": 0.2, "per_mw_no_mrtr": 0.0, "per_mw_st_mrtr": 0.0, "per_mw_asbstos": 0.0, "per_mw_b_brick": 34.6, "per_mw_concrte": 0.0, "per_mw_oth": 0.0, "per_mf_mud": 70.0, "per_mf_wood": 0.0, "per_mf_b_brick": 0.0, "per_mf_stone": 0.8, "per_mf_cement": 23.4, "per_mf_fl_tile": 5.8, "per_mf_oth": 0.0, "per_dw_n_exrm": 0.8, "per_dw_1_room": 73.5, "per_dw_2_room": 25.1, "per_dw_3_room": 0.4, "per_dw_4_room": 0.2, "per_dw_5_room": 0.0, "per_dw_6_room": 0.0, "per_hhsize_1": 3.5, "per_hhsize_2": 11.6, "per_hhsize_3": 11.4, "per_hhsize_4": 24.8, "per_hhsize_5": 22.4, "per_hhsize_6_8": 22.4, "per_hhsize_9p": 3.9, "per_ow_owned": 98.6, "per_ow_rented": 0.0, "per_ow_oth": 1.4, "per_mc_none": 14.1, "per_mcouple_1": 62.7, "per_mcouple_2": 20.3, "per_mcouple_3": 2.3, "per_mcouple_4": 0.6, "per_mcouple_5p": 0.0, "per_dw_t_ts": 0.2, "per_dw_t_unts": 41.2, "per_dw_c_well": 2.9, "per_dw_unc_wel": 1.9, "per_dw_hpump": 46.6, "per_dw_tw_bore": 7.0, "per_dw_spring": 0.0, "per_dw_rivcan": 0.2, "per_dw_tank": 0.0, "per_dw_oth": 0.0, "per_loc_dw_wp": 23.6, "per_loc_dw_np": 59.4, "per_loc_dw_aw": 17.0, "per_light_elec": 87.2, "per_light_kero": 12.8, "per_light_solr": 0.0, "per_light_oil": 0.0, "per_light_oth": 0.0, "per_light_no": 0.0, "per_hh_latrine": 12.2, "per_fl_sewer": 0.0, "per_fl_septict": 10.1, "per_fl_othsys": 0.0, "per_pl_wslab": 1.2, "per_pl_without": 0.8, "per_ns_open": 0.0, "per_sl_ns_hum": 0.0, "per_sl_ns_anml": 0.0, "per_hh_no_lat": 87.8, "per_as_pub": 1.9, "per_as_open": 85.9, "per_hh_bathrm": 10.6, "per_hh_en_wrf": 61.3, "per_hh_no_btrm": 28.2, "per_wwoc_drain": 0.4, "per_wwoc_open": 1.2, "per_wwoc_nodrn": 98.3, "per_cook_fire": 81.6, "per_cook_resdu": 0.2, "per_cook_cwdng": 0.0, "per_cook_coal": 0.0, "per_cook_kero": 0.0, "per_cook_lpng": 16.4, "per_cook_elec": 0.0, "per_cook_biogs": 1.7, "per_cook_oth": 0.0, "per_cook_no": 0.2, "per_kf_inside": 99.0, "per_kf_in_has": 74.3, "per_kf_in_does": 24.6, "per_kf_outside": 0.8, "per_kf_out_has": 0.0, "per_kf_out_dos": 0.8, "per_kf_no_cook": 0.2, "per_hh_banking": 45.3, "per_hh_radio": 20.3, "per_hh_tv": 32.9, "per_hh_cmp_int": 0.0, "per_hh_cmp_wnt": 0.8, "per_hh_ph_ll": 1.0, "per_hh_ph_mob": 44.1, "per_hh_ph_bth": 1.0, "per_hh_bcycl": 49.3, "per_hh_2wheel": 26.5, "per_hh_4wheel": 1.2, "per_hh_tvcomp": 0.8, "per_hh_no_ast": 30.6, "per_hs_perma": 34.6, "per_hs_sperma": 64.8, "per_hs_temp": 0.6, "per_hs_servc": 0.0, "per_hs_nservc": 0.6, "per_hs_unclss": 0.0, "avghhsz_cy": 4.58921162, "st_areashape": 2595008.036655805, "st_lengthshape": 6578.471309449429}, "geometry": {"type": "Polygon", "coordinates": [[[73.3393437018247, 21.253802092095388], [73.33282376362855, 21.256531747868287], [73.3305926961108, 21.25552236108541], [73.3280472415998, 21.25475472366103], [73.32680771922132, 21.254414925727335], [73.32392738445051, 21.25381194277037], [73.32202671370104, 21.25306991869929], [73.31980396637945, 21.251623648458022], [73.3190217870919, 21.249509506120592], [73.31875417717214, 21.248244364521558], [73.31851693659715, 21.24683100294297], [73.31844483691415, 21.246094282914513], [73.31754894708129, 21.242104551121454], [73.31875305427803, 21.241915283455402], [73.3197344224034, 21.241818428218394], [73.320718916666, 21.24176955011744], [73.32170530098396, 21.24176919594643], [73.32268998568938, 21.241816756163473], [73.32367060372151, 21.241912877941783], [73.32464342886853, 21.242056491139934], [73.3256073023038, 21.24224822441707], [73.32655981564393, 21.242486383768856], [73.32749739808577, 21.242771566786654], [73.3284163782147, 21.243101573673226], [73.32931667608064, 21.243476400778306], [73.33076524091732, 21.244198253934186], [73.33160103794923, 21.244686944108224], [73.33240727142514, 21.24521604907979], [73.3331827268228, 21.245784081438238], [73.33391078530944, 21.247059592615834], [73.33438312757066, 21.247820104119764], [73.33482657372417, 21.248493001520682], [73.33548209774317, 21.249423283802], [73.33617104807391, 21.25033104863582], [73.33689458084817, 21.251215743866293], [73.33764912885589, 21.252076228770903], [73.338437002564, 21.252911399479956], [73.33925471920422, 21.25372011864749], [73.3393437018247, 21.253802092095388]]]}}]}