{"type": "FeatureCollection", "features": [{"type": "Feature", "properties": {"premiumdata.sde.IN_Village_PCA.area": 8.37283479, "objectid": 94333, "id": "285234988659017", "name": "Agarru", "subdistrict": "Palacole", "district": "West Godavari", "state": "Andhra Pradesh", "country": "India", "censusname": "Agarru", "villagename_locallang": null, "lgd_villagename": "Agarru", "lgd_villagecode": 588784, "lgd_subdistrictcode": 4988, "lgd_districtcode": 523, "lgd_statecode": 28, "censuscode2001": "01978800", "censuscode2011": "588784", "censuscode2021": null, "level": "Village", "tru": "Rural", "no_hh": 1267, "tot_p": 4363, "tot_m": 2212, "tot_f": 2151, "per_tot_m": 50.69906028, "per_tot_f": 49.30093972, "p_06": 405, "m_06": 200, "f_06": 205, "per_p_06": 9.28260371, "per_m_06": 49.38271605, "per_f_06": 50.61728395, "p_sc": 1613, "m_sc": 824, "f_sc": 789, "per_p_sc": 36.96997479, "per_m_sc": 51.0849349, "per_f_sc": 48.9150651, "p_st": 26, "m_st": 12, "f_st": 14, "per_p_st": 0.59592024, "per_m_st": 46.15384615, "per_f_st": 53.84615385, "p_lit": 3330, "m_lit": 1762, "f_lit": 1568, "per_p_lit": 76.32363053, "per_m_lit": 52.91291291, "per_f_lit": 47.08708709, "p_ill": 1033, "m_ill": 450, "f_ill": 583, "per_p_ill": 23.67636947, "per_m_ill": 43.5624395, "per_f_ill": 56.4375605, "tot_work_p": 2337, "tot_work_m": 1422, "tot_work_f": 915, "per_tot_work_p": 53.56406143, "per_tot_work_m": 60.84724005, "per_tot_work_f": 39.15275995, "mainwork_p": 2029, "mainwork_m": 1372, "mainwork_f": 657, "per_mainwork_p": 46.5046986, "per_mainwork_m": 67.619517, "per_mainwork_f": 32.380483, "main_cl_p": 145, "main_cl_m": 140, "main_cl_f": 5, "per_main_cl_p": 7.14637753, "per_main_cl_m": 96.55172414, "per_main_cl_f": 3.44827586, "main_al_p": 1534, "main_al_m": 1004, "main_al_f": 530, "per_main_al_p": 75.60374569, "per_main_al_m": 65.44980443, "per_main_al_f": 34.55019557, "main_hh_p": 10, "main_hh_m": 10, "main_hh_f": 0, "per_main_hh_p": 0.49285362, "per_main_hh_m": 100.0, "per_main_hh_f": 0.0, "main_ot_p": 340, "main_ot_m": 218, "main_ot_f": 122, "per_main_ot_p": 16.75702316, "per_main_ot_m": 64.11764706, "per_main_ot_f": 35.88235294, "margwork_p": 308, "margwork_m": 50, "margwork_f": 258, "per_margwork_p": 7.05936282, "per_margwork_m": 16.23376623, "per_margwork_f": 83.76623377, "marg_cl_p": 0, "marg_cl_m": 0, "marg_cl_f": 0, "per_marg_cl_p": 0.0, "per_marg_cl_m": 0.0, "per_marg_cl_f": 0.0, "marg_al_p": 213, "marg_al_m": 42, "marg_al_f": 171, "per_marg_al_p": 69.15584416, "per_marg_al_m": 19.71830986, "per_marg_al_f": 80.28169014, "marg_hh_p": 45, "marg_hh_m": 1, "marg_hh_f": 44, "per_marg_hh_p": 14.61038961, "per_marg_hh_m": 2.22222222, "per_marg_hh_f": 97.77777778, "marg_ot_p": 50, "marg_ot_m": 7, "marg_ot_f": 43, "per_marg_ot_p": 16.23376623, "per_marg_ot_m": 14.0, "per_marg_ot_f": 86.0, "margwork_3_6_p": 198, "margwork_3_6_m": 34, "margwork_3_6_f": 164, "per_margwork_3_6_p": 64.28571429, "per_margwork_3_6_m": 17.17171717, "per_margwork_3_6_f": 82.82828283, "marg_cl_3_6_p": 0, "marg_cl_3_6_m": 0, "marg_cl_3_6_f": 0, "per_marg_cl_3_6_p": 0.0, "per_marg_cl_3_6_m": 0.0, "per_marg_cl_3_6_f": 0.0, "marg_al_3_6_p": 157, "marg_al_3_6_m": 29, "marg_al_3_6_f": 128, "per_marg_al_3_6_p": 50.97402597, "per_marg_al_3_6_m": 18.47133758, "per_marg_al_3_6_f": 81.52866242, "marg_hh_3_6_p": 15, "marg_hh_3_6_m": 0, "marg_hh_3_6_f": 15, "per_marg_hh_3_6_p": 4.87012987, "per_marg_hh_3_6_m": 0.0, "per_marg_hh_3_6_f": 100.0, "marg_ot_3_6_p": 26, "marg_ot_3_6_m": 5, "marg_ot_3_6_f": 21, "per_marg_ot_3_6_p": 8.44155844, "per_marg_ot_3_6_m": 19.23076923, "per_marg_ot_3_6_f": 80.76923077, "margwork_0_3_p": 110, "margwork_0_3_m": 16, "margwork_0_3_f": 94, "per_margwork_0_3_p": 35.71428571, "per_margwork_0_3_m": 14.54545455, "per_margwork_0_3_f": 85.45454545, "marg_cl_0_3_p": 0, "marg_cl_0_3_m": 0, "marg_cl_0_3_f": 0, "per_marg_cl_0_3_p": 0.0, "per_marg_cl_0_3_m": 0.0, "per_marg_cl_0_3_f": 0.0, "marg_al_0_3_p": 56, "marg_al_0_3_m": 13, "marg_al_0_3_f": 43, "per_marg_al_0_3_p": 18.18181818, "per_marg_al_0_3_m": 23.21428571, "per_marg_al_0_3_f": 76.78571429, "marg_hh_0_3_p": 30, "marg_hh_0_3_m": 1, "marg_hh_0_3_f": 29, "per_marg_hh_0_3_p": 0.0, "per_marg_hh_0_3_m": 3.33333333, "per_marg_hh_0_3_f": 96.66666667, "marg_ot_0_3_p": 24, "marg_ot_0_3_m": 2, "marg_ot_0_3_f": 22, "per_marg_ot_0_3_p": 7.79220779, "per_marg_ot_0_3_m": 8.33333333, "per_marg_ot_0_3_f": 91.66666667, "non_work_p": 2026, "non_work_m": 790, "non_work_f": 1236, "per_non_work_p": 46.43593857, "per_non_work_m": 38.99308983, "per_non_work_f": 61.00691017, "per_hc_tot_tot": 100, "per_hc_tot_god": 74.5, "per_hc_tot_liv": 23.0, "per_hc_tot_dil": 2.5, "per_hc_res_tot": 98.9, "per_hc_res_god": 73.5, "per_hc_res_liv": 22.9, "per_hc_res_dil": 2.5, "per_hc_oth_tot": 1.1, "per_hc_oth_god": 0.9, "per_hc_oth_liv": 0.2, "per_hc_oth_dil": 0.0, "per_mt_grsbam": 24.9, "per_mt_plastic": 0.0, "per_mt_h_tiles": 14.5, "per_mt_m_tiles": 7.4, "per_mt_b_brick": 0.0, "per_mt_stone": 0.2, "per_mt_asbstos": 2.1, "per_mt_concrte": 50.8, "per_mt_oth": 0.1, "per_mw_grsbam": 14.3, "per_mw_plastic": 0.3, "per_mw_mud": 9.1, "per_mw_wood": 0.4, "per_mw_no_mrtr": 0.9, "per_mw_st_mrtr": 18.7, "per_mw_asbstos": 0.0, "per_mw_b_brick": 56.1, "per_mw_concrte": 0.0, "per_mw_oth": 0.1, "per_mf_mud": 27.4, "per_mf_wood": 0.1, "per_mf_b_brick": 1.5, "per_mf_stone": 1.9, "per_mf_cement": 68.7, "per_mf_fl_tile": 0.4, "per_mf_oth": 0.1, "per_dw_n_exrm": 0.5, "per_dw_1_room": 29.8, "per_dw_2_room": 51.4, "per_dw_3_room": 9.1, "per_dw_4_room": 7.5, "per_dw_5_room": 0.8, "per_dw_6_room": 0.9, "per_hhsize_1": 9.3, "per_hhsize_2": 19.0, "per_hhsize_3": 19.0, "per_hhsize_4": 32.1, "per_hhsize_5": 12.8, "per_hhsize_6_8": 7.4, "per_hhsize_9p": 0.5, "per_ow_owned": 89.9, "per_ow_rented": 5.9, "per_ow_oth": 4.2, "per_mc_none": 21.2, "per_mcouple_1": 72.3, "per_mcouple_2": 6.0, "per_mcouple_3": 0.5, "per_mcouple_4": 0.0, "per_mcouple_5p": 0.0, "per_dw_t_ts": 76.8, "per_dw_t_unts": 22.6, "per_dw_c_well": 0.3, "per_dw_unc_wel": 0.2, "per_dw_hpump": 0.0, "per_dw_tw_bore": 0.0, "per_dw_spring": 0.0, "per_dw_rivcan": 0.0, "per_dw_tank": 0.0, "per_dw_oth": 0.2, "per_loc_dw_wp": 26.4, "per_loc_dw_np": 54.5, "per_loc_dw_aw": 19.0, "per_light_elec": 94.0, "per_light_kero": 6.0, "per_light_solr": 0.0, "per_light_oil": 0.0, "per_light_oth": 0.0, "per_light_no": 0.0, "per_hh_latrine": 51.2, "per_fl_sewer": 0.9, "per_fl_septict": 47.3, "per_fl_othsys": 0.0, "per_pl_wslab": 2.9, "per_pl_without": 0.0, "per_ns_open": 0.0, "per_sl_ns_hum": 0.0, "per_sl_ns_anml": 0.0, "per_hh_no_lat": 48.8, "per_as_pub": 13.6, "per_as_open": 35.3, "per_hh_bathrm": 44.1, "per_hh_en_wrf": 14.7, "per_hh_no_btrm": 41.2, "per_wwoc_drain": 0.5, "per_wwoc_open": 23.9, "per_wwoc_nodrn": 75.6, "per_cook_fire": 66.5, "per_cook_resdu": 0.3, "per_cook_cwdng": 0.1, "per_cook_coal": 0.1, "per_cook_kero": 1.3, "per_cook_lpng": 31.1, "per_cook_elec": 0.0, "per_cook_biogs": 0.0, "per_cook_oth": 0.0, "per_cook_no": 0.5, "per_kf_inside": 41.8, "per_kf_in_has": 38.3, "per_kf_in_does": 3.4, "per_kf_outside": 57.7, "per_kf_out_has": 26.6, "per_kf_out_dos": 31.1, "per_kf_no_cook": 0.5, "per_hh_banking": 36.2, "per_hh_radio": 4.5, "per_hh_tv": 47.1, "per_hh_cmp_int": 0.0, "per_hh_cmp_wnt": 1.3, "per_hh_ph_ll": 4.5, "per_hh_ph_mob": 40.9, "per_hh_ph_bth": 2.0, "per_hh_bcycl": 59.3, "per_hh_2wheel": 14.9, "per_hh_4wheel": 0.2, "per_hh_tvcomp": 0.3, "per_hh_no_ast": 17.5, "per_hs_perma": 72.2, "per_hs_sperma": 6.3, "per_hs_temp": 21.4, "per_hs_servc": 7.4, "per_hs_nservc": 14.0, "per_hs_unclss": 0.2, "avghhsz_cy": 3.44356748, "st_areashape": 9158402.3876052, "st_lengthshape": 14200.925757497998}, "geometry": {"type": "Polygon", "coordinates": [[[81.68775999961245, 16.50738000001584], [81.68522999971763, 16.507629999482315], [81.6839899994354, 16.507619999923303], [81.68361000039212, 16.507410000451223], [81.6832499996437, 16.506849999595463], [81.68213999995614, 16.505019999699826], [81.68137000002721, 16.50422000015041], [81.68060000009825, 16.504069999758766], [81.67981000007782, 16.50417999948314], [81.67922000007398, 16.504359999836765], [81.67826000017423, 16.505269999633935], [81.67749999939271, 16.505429999628802], [81.67634999952217, 16.505500000769246], [81.67546999998841, 16.505300000396684], [81.67471000010521, 16.50523000004515], [81.67344999973149, 16.505750000082713], [81.67240000031838, 16.506749999271946], [81.67153999997777, 16.507969999684924], [81.6701699999992, 16.50856000013732], [81.66793999968003, 16.508930000626375], [81.66647000014238, 16.508909999919705], [81.66594000041292, 16.508689999761334], [81.6661499995769, 16.50754999955043], [81.66609000020077, 16.504660000053786], [81.66566000003047, 16.50264000023187], [81.66521999981438, 16.500649999744045], [81.66517999963143, 16.497089999870703], [81.6651499994942, 16.494050000432658], [81.66506954458073, 16.493169600785677], [81.67022325572253, 16.489382856855684], [81.67250565207729, 16.487680661419834], [81.67453444953577, 16.485978451016017], [81.6765632469942, 16.48719431687135], [81.68252283947234, 16.487802247366027], [81.68607323480009, 16.484397813729966], [81.68683403328556, 16.481358090440654], [81.68924323043595, 16.47503531217394], [81.69109479657708, 16.47472562830341], [81.69351999990917, 16.47431999972763], [81.69418000023325, 16.475499999862087], [81.6945500001291, 16.476799999778073], [81.69500999953833, 16.478139999612168], [81.69584999978747, 16.47934000005565], [81.69678000044827, 16.48088999960262], [81.69758999966189, 16.482859999179816], [81.69814000038113, 16.484900000229842], [81.69877999971538, 16.486990000148264], [81.69938999981075, 16.48831999954639], [81.7007599997893, 16.490140000189623], [81.70148999953527, 16.492080000167487], [81.70176999991776, 16.49280999942588], [81.70200000007154, 16.49339000017737], [81.70181000010075, 16.494249999517425], [81.70089000038396, 16.49576999975985], [81.70019999992266, 16.496660000099325], [81.69964999920343, 16.49794999999154], [81.69890000026432, 16.49869999953998], [81.69764999993633, 16.500150000527793], [81.69598000038212, 16.500839999848075], [81.69453000003763, 16.501489999789744], [81.69221000020508, 16.50200999954836], [81.6907399997691, 16.502049999803194], [81.68862999999882, 16.502650000048433], [81.68751999941294, 16.503069999629307], [81.68706000000371, 16.503769999487716], [81.68716000046113, 16.504349999247307], [81.68751000026552, 16.506579999895248], [81.68775999961245, 16.50738000001584]]]}}]}