{"type": "FeatureCollection", "features": [{"type": "Feature", "properties": {"premiumdata.sde.IN_Village_PCA.area": 9.18778012, "objectid": 619536, "id": "147111878248237", "name": "Waikhong Ningthoumanai", "subdistrict": "Kakching", "district": "Kakching", "state": "Manipur", "country": "India", "censusname": "Waikhong Ningthoumanai", "villagename_locallang": null, "lgd_villagename": "Waikhong Ningthoumanai", "lgd_villagecode": 270011, "lgd_subdistrictcode": 1878, "lgd_districtcode": 711, "lgd_statecode": 14, "censuscode2001": "00148200", "censuscode2011": "270011", "censuscode2021": null, "level": "Village", "tru": "Rural", "no_hh": 281, "tot_p": 1300, "tot_m": 687, "tot_f": 613, "per_tot_m": 52.84615385, "per_tot_f": 47.15384615, "p_06": 162, "m_06": 87, "f_06": 75, "per_p_06": 12.46153846, "per_m_06": 53.7037037, "per_f_06": 46.2962963, "p_sc": 57, "m_sc": 31, "f_sc": 26, "per_p_sc": 4.38461538, "per_m_sc": 54.38596491, "per_f_sc": 45.61403509, "p_st": 2, "m_st": 2, "f_st": 0, "per_p_st": 0.15384615, "per_m_st": 100.0, "per_f_st": 0.0, "p_lit": 621, "m_lit": 375, "f_lit": 246, "per_p_lit": 47.76923077, "per_m_lit": 60.38647343, "per_f_lit": 39.61352657, "p_ill": 679, "m_ill": 312, "f_ill": 367, "per_p_ill": 52.23076923, "per_m_ill": 45.94992636, "per_f_ill": 54.05007364, "tot_work_p": 689, "tot_work_m": 384, "tot_work_f": 305, "per_tot_work_p": 53.0, "per_tot_work_m": 55.7329463, "per_tot_work_f": 44.2670537, "mainwork_p": 453, "mainwork_m": 339, "mainwork_f": 114, "per_mainwork_p": 34.84615385, "per_mainwork_m": 74.83443709000001, "per_mainwork_f": 25.16556291, "main_cl_p": 210, "main_cl_m": 181, "main_cl_f": 29, "per_main_cl_p": 46.35761589, "per_main_cl_m": 86.19047619, "per_main_cl_f": 13.80952381, "main_al_p": 49, "main_al_m": 19, "main_al_f": 30, "per_main_al_p": 10.81677704, "per_main_al_m": 38.7755102, "per_main_al_f": 61.2244898, "main_hh_p": 9, "main_hh_m": 6, "main_hh_f": 3, "per_main_hh_p": 1.98675497, "per_main_hh_m": 66.66666667, "per_main_hh_f": 33.33333333, "main_ot_p": 185, "main_ot_m": 133, "main_ot_f": 52, "per_main_ot_p": 40.8388521, "per_main_ot_m": 71.89189189, "per_main_ot_f": 28.10810811, "margwork_p": 236, "margwork_m": 45, "margwork_f": 191, "per_margwork_p": 18.15384615, "per_margwork_m": 19.06779661, "per_margwork_f": 80.93220339, "marg_cl_p": 140, "marg_cl_m": 29, "marg_cl_f": 111, "per_marg_cl_p": 59.3220339, "per_marg_cl_m": 20.71428571, "per_marg_cl_f": 79.28571429, "marg_al_p": 74, "marg_al_m": 12, "marg_al_f": 62, "per_marg_al_p": 31.3559322, "per_marg_al_m": 16.21621622, "per_marg_al_f": 83.78378378, "marg_hh_p": 4, "marg_hh_m": 1, "marg_hh_f": 3, "per_marg_hh_p": 1.69491525, "per_marg_hh_m": 25.0, "per_marg_hh_f": 75.0, "marg_ot_p": 18, "marg_ot_m": 3, "marg_ot_f": 15, "per_marg_ot_p": 7.62711864, "per_marg_ot_m": 16.66666667, "per_marg_ot_f": 83.33333332999999, "margwork_3_6_p": 196, "margwork_3_6_m": 25, "margwork_3_6_f": 171, "per_margwork_3_6_p": 83.05084746, "per_margwork_3_6_m": 12.75510204, "per_margwork_3_6_f": 87.24489796, "marg_cl_3_6_p": 110, "marg_cl_3_6_m": 10, "marg_cl_3_6_f": 100, "per_marg_cl_3_6_p": 46.61016949, "per_marg_cl_3_6_m": 9.09090909, "per_marg_cl_3_6_f": 90.90909091, "marg_al_3_6_p": 66, "marg_al_3_6_m": 11, "marg_al_3_6_f": 55, "per_marg_al_3_6_p": 27.96610169, "per_marg_al_3_6_m": 16.66666667, "per_marg_al_3_6_f": 83.33333332999999, "marg_hh_3_6_p": 4, "marg_hh_3_6_m": 1, "marg_hh_3_6_f": 3, "per_marg_hh_3_6_p": 1.69491525, "per_marg_hh_3_6_m": 25.0, "per_marg_hh_3_6_f": 75.0, "marg_ot_3_6_p": 16, "marg_ot_3_6_m": 3, "marg_ot_3_6_f": 13, "per_marg_ot_3_6_p": 6.77966102, "per_marg_ot_3_6_m": 18.75, "per_marg_ot_3_6_f": 81.25, "margwork_0_3_p": 40, "margwork_0_3_m": 20, "margwork_0_3_f": 20, "per_margwork_0_3_p": 16.94915254, "per_margwork_0_3_m": 50.0, "per_margwork_0_3_f": 50.0, "marg_cl_0_3_p": 30, "marg_cl_0_3_m": 19, "marg_cl_0_3_f": 11, "per_marg_cl_0_3_p": 12.71186441, "per_marg_cl_0_3_m": 63.33333333, "per_marg_cl_0_3_f": 36.66666667000001, "marg_al_0_3_p": 8, "marg_al_0_3_m": 1, "marg_al_0_3_f": 7, "per_marg_al_0_3_p": 3.38983051, "per_marg_al_0_3_m": 12.5, "per_marg_al_0_3_f": 87.5, "marg_hh_0_3_p": 0, "marg_hh_0_3_m": 0, "marg_hh_0_3_f": 0, "per_marg_hh_0_3_p": 0.0, "per_marg_hh_0_3_m": 0.0, "per_marg_hh_0_3_f": 0.0, "marg_ot_0_3_p": 2, "marg_ot_0_3_m": 0, "marg_ot_0_3_f": 2, "per_marg_ot_0_3_p": 0.84745763, "per_marg_ot_0_3_m": 0.0, "per_marg_ot_0_3_f": 100.0, "non_work_p": 611, "non_work_m": 303, "non_work_f": 308, "per_non_work_p": 47.0, "per_non_work_m": 49.5908347, "per_non_work_f": 50.4091653, "per_hc_tot_tot": 100, "per_hc_tot_god": 59.4, "per_hc_tot_liv": 34.4, "per_hc_tot_dil": 6.2, "per_hc_res_tot": 95.7, "per_hc_res_god": 56.5, "per_hc_res_liv": 33.0, "per_hc_res_dil": 6.2, "per_hc_oth_tot": 4.3, "per_hc_oth_god": 2.9, "per_hc_oth_liv": 1.4, "per_hc_oth_dil": 0.0, "per_mt_grsbam": 29.0, "per_mt_plastic": 0.0, "per_mt_h_tiles": 0.0, "per_mt_m_tiles": 0.0, "per_mt_b_brick": 1.1, "per_mt_stone": 0.0, "per_mt_asbstos": 68.8, "per_mt_concrte": 1.1, "per_mt_oth": 0.0, "per_mw_grsbam": 0.4, "per_mw_plastic": 0.0, "per_mw_mud": 96.7, "per_mw_wood": 0.0, "per_mw_no_mrtr": 0.4, "per_mw_st_mrtr": 0.0, "per_mw_asbstos": 0.0, "per_mw_b_brick": 2.5, "per_mw_concrte": 0.0, "per_mw_oth": 0.0, "per_mf_mud": 92.4, "per_mf_wood": 0.0, "per_mf_b_brick": 2.5, "per_mf_stone": 0.4, "per_mf_cement": 4.7, "per_mf_fl_tile": 0.0, "per_mf_oth": 0.0, "per_dw_n_exrm": 1.4, "per_dw_1_room": 14.5, "per_dw_2_room": 31.5, "per_dw_3_room": 30.8, "per_dw_4_room": 15.2, "per_dw_5_room": 3.6, "per_dw_6_room": 2.9, "per_hhsize_1": 1.1, "per_hhsize_2": 6.9, "per_hhsize_3": 14.9, "per_hhsize_4": 25.4, "per_hhsize_5": 25.7, "per_hhsize_6_8": 24.6, "per_hhsize_9p": 1.4, "per_ow_owned": 93.8, "per_ow_rented": 3.3, "per_ow_oth": 2.9, "per_mc_none": 4.7, "per_mcouple_1": 78.3, "per_mcouple_2": 16.3, "per_mcouple_3": 0.4, "per_mcouple_4": 0.4, "per_mcouple_5p": 0.0, "per_dw_t_ts": 0.0, "per_dw_t_unts": 0.0, "per_dw_c_well": 0.0, "per_dw_unc_wel": 0.0, "per_dw_hpump": 93.1, "per_dw_tw_bore": 0.0, "per_dw_spring": 0.7, "per_dw_rivcan": 0.0, "per_dw_tank": 5.8, "per_dw_oth": 0.4, "per_loc_dw_wp": 6.2, "per_loc_dw_np": 46.0, "per_loc_dw_aw": 47.8, "per_light_elec": 66.7, "per_light_kero": 33.0, "per_light_solr": 0.4, "per_light_oil": 0.0, "per_light_oth": 0.0, "per_light_no": 0.0, "per_hh_latrine": 86.2, "per_fl_sewer": 3.6, "per_fl_septict": 6.9, "per_fl_othsys": 0.7, "per_pl_wslab": 40.9, "per_pl_without": 34.1, "per_ns_open": 0.0, "per_sl_ns_hum": 0.0, "per_sl_ns_anml": 0.0, "per_hh_no_lat": 13.8, "per_as_pub": 1.1, "per_as_open": 12.7, "per_hh_bathrm": 4.0, "per_hh_en_wrf": 9.1, "per_hh_no_btrm": 87.0, "per_wwoc_drain": 2.5, "per_wwoc_open": 23.6, "per_wwoc_nodrn": 73.9, "per_cook_fire": 82.2, "per_cook_resdu": 0.0, "per_cook_cwdng": 0.4, "per_cook_coal": 0.0, "per_cook_kero": 0.0, "per_cook_lpng": 17.4, "per_cook_elec": 0.0, "per_cook_biogs": 0.0, "per_cook_oth": 0.0, "per_cook_no": 0.0, "per_kf_inside": 97.1, "per_kf_in_has": 92.8, "per_kf_in_does": 4.3, "per_kf_outside": 2.9, "per_kf_out_has": 2.9, "per_kf_out_dos": 0.0, "per_kf_no_cook": 0.0, "per_hh_banking": 2.2, "per_hh_radio": 72.5, "per_hh_tv": 38.4, "per_hh_cmp_int": 0.0, "per_hh_cmp_wnt": 9.4, "per_hh_ph_ll": 1.4, "per_hh_ph_mob": 63.4, "per_hh_ph_bth": 3.6, "per_hh_bcycl": 50.7, "per_hh_2wheel": 6.2, "per_hh_4wheel": 2.2, "per_hh_tvcomp": 1.1, "per_hh_no_ast": 11.2, "per_hs_perma": 2.9, "per_hs_sperma": 68.1, "per_hs_temp": 29.0, "per_hs_servc": 28.6, "per_hs_nservc": 0.4, "per_hs_unclss": 0.0, "avghhsz_cy": 4.62633452, "st_areashape": 11132366.059602955, "st_lengthshape": 17380.37885713192}, "geometry": {"type": "Polygon", "coordinates": [[[93.9455874094954, 24.421786100093286], [93.9381745081776, 24.427613200756543], [93.92923774972756, 24.434451372239216], [93.92372358059487, 24.43782704152834], [93.91925520136985, 24.439644671923393], [93.91573754154935, 24.440942963421847], [93.91145930602556, 24.442673998227775], [93.90315157488695, 24.445757515015043], [93.90161936611754, 24.44345295617634], [93.89667562719026, 24.43981777817445], [93.89363332707204, 24.4360093841126], [93.89705591459274, 24.433239571100682], [93.90000314330948, 24.430729375025923], [93.90390109143078, 24.429084737110873], [93.90979554796597, 24.42544914489662], [93.91588014910072, 24.424323821407878], [93.92139431913171, 24.421553750967615], [93.92766906396771, 24.41774480543086], [93.93194729859317, 24.413243176426544], [93.93299308939915, 24.411598310585113], [93.93337337769997, 24.409780275260868], [93.93358458330137, 24.406852671332835], [93.93619906076553, 24.403822484842145], [93.93917005710804, 24.40230736432999], [93.94380481151022, 24.403930707098716], [93.94404249136134, 24.40782664411279], [93.93976425673588, 24.410423869491503], [93.93881353733137, 24.41323746927351], [93.94047729539096, 24.417457751359713], [93.94297293292956, 24.42016298692043], [93.9455874094954, 24.421786100093286]]]}}]}