{"type": "FeatureCollection", "features": [{"type": "Feature", "properties": {"premiumdata.sde.IN_Village_PCA.area": 1.61909032, "objectid": 650727, "id": "182862065234982", "name": "Udalguri T E", "subdistrict": "Chabua", "district": "Dibrugarh", "state": "Assam", "country": "India", "censusname": "Udalguri T.E.", "villagename_locallang": null, "lgd_villagename": "Udalguri T.E.", "lgd_villagecode": 291399, "lgd_subdistrictcode": 2065, "lgd_districtcode": 286, "lgd_statecode": 18, "censuscode2001": "01658400", "censuscode2011": "291399", "censuscode2021": null, "level": "Village", "tru": "Rural", "no_hh": 273, "tot_p": 1504, "tot_m": 752, "tot_f": 752, "per_tot_m": 50.0, "per_tot_f": 50.0, "p_06": 247, "m_06": 123, "f_06": 124, "per_p_06": 16.42287234, "per_m_06": 49.79757085, "per_f_06": 50.20242915, "p_sc": 0, "m_sc": 0, "f_sc": 0, "per_p_sc": 0.0, "per_m_sc": 0.0, "per_f_sc": 0.0, "p_st": 0, "m_st": 0, "f_st": 0, "per_p_st": 0.0, "per_m_st": 0.0, "per_f_st": 0.0, "p_lit": 635, "m_lit": 406, "f_lit": 229, "per_p_lit": 42.22074468, "per_m_lit": 63.93700787, "per_f_lit": 36.06299213, "p_ill": 869, "m_ill": 346, "f_ill": 523, "per_p_ill": 57.77925532, "per_m_ill": 39.81588032000001, "per_f_ill": 60.18411968, "tot_work_p": 712, "tot_work_m": 365, "tot_work_f": 347, "per_tot_work_p": 47.34042553, "per_tot_work_m": 51.26404494000001, "per_tot_work_f": 48.73595506, "mainwork_p": 679, "mainwork_m": 347, "mainwork_f": 332, "per_mainwork_p": 45.1462766, "per_mainwork_m": 51.10456554, "per_mainwork_f": 48.89543446, "main_cl_p": 3, "main_cl_m": 3, "main_cl_f": 0, "per_main_cl_p": 0.44182622, "per_main_cl_m": 100.0, "per_main_cl_f": 0.0, "main_al_p": 0, "main_al_m": 0, "main_al_f": 0, "per_main_al_p": 0.0, "per_main_al_m": 0.0, "per_main_al_f": 0.0, "main_hh_p": 0, "main_hh_m": 0, "main_hh_f": 0, "per_main_hh_p": 0.0, "per_main_hh_m": 0.0, "per_main_hh_f": 0.0, "main_ot_p": 676, "main_ot_m": 344, "main_ot_f": 332, "per_main_ot_p": 99.55817378, "per_main_ot_m": 50.88757396, "per_main_ot_f": 49.11242604, "margwork_p": 33, "margwork_m": 18, "margwork_f": 15, "per_margwork_p": 2.19414894, "per_margwork_m": 54.54545455, "per_margwork_f": 45.45454545, "marg_cl_p": 0, "marg_cl_m": 0, "marg_cl_f": 0, "per_marg_cl_p": 0.0, "per_marg_cl_m": 0.0, "per_marg_cl_f": 0.0, "marg_al_p": 3, "marg_al_m": 2, "marg_al_f": 1, "per_marg_al_p": 9.09090909, "per_marg_al_m": 66.66666667, "per_marg_al_f": 33.33333333, "marg_hh_p": 0, "marg_hh_m": 0, "marg_hh_f": 0, "per_marg_hh_p": 0.0, "per_marg_hh_m": 0.0, "per_marg_hh_f": 0.0, "marg_ot_p": 30, "marg_ot_m": 16, "marg_ot_f": 14, "per_marg_ot_p": 90.90909091, "per_marg_ot_m": 53.33333333, "per_marg_ot_f": 46.66666667000001, "margwork_3_6_p": 33, "margwork_3_6_m": 18, "margwork_3_6_f": 15, "per_margwork_3_6_p": 100.0, "per_margwork_3_6_m": 54.54545455, "per_margwork_3_6_f": 45.45454545, "marg_cl_3_6_p": 0, "marg_cl_3_6_m": 0, "marg_cl_3_6_f": 0, "per_marg_cl_3_6_p": 0.0, "per_marg_cl_3_6_m": 0.0, "per_marg_cl_3_6_f": 0.0, "marg_al_3_6_p": 3, "marg_al_3_6_m": 2, "marg_al_3_6_f": 1, "per_marg_al_3_6_p": 9.09090909, "per_marg_al_3_6_m": 66.66666667, "per_marg_al_3_6_f": 33.33333333, "marg_hh_3_6_p": 0, "marg_hh_3_6_m": 0, "marg_hh_3_6_f": 0, "per_marg_hh_3_6_p": 0.0, "per_marg_hh_3_6_m": 0.0, "per_marg_hh_3_6_f": 0.0, "marg_ot_3_6_p": 30, "marg_ot_3_6_m": 16, "marg_ot_3_6_f": 14, "per_marg_ot_3_6_p": 90.90909091, "per_marg_ot_3_6_m": 53.33333333, "per_marg_ot_3_6_f": 46.66666667000001, "margwork_0_3_p": 0, "margwork_0_3_m": 0, "margwork_0_3_f": 0, "per_margwork_0_3_p": 0.0, "per_margwork_0_3_m": 0.0, "per_margwork_0_3_f": 0.0, "marg_cl_0_3_p": 0, "marg_cl_0_3_m": 0, "marg_cl_0_3_f": 0, "per_marg_cl_0_3_p": 0.0, "per_marg_cl_0_3_m": 0.0, "per_marg_cl_0_3_f": 0.0, "marg_al_0_3_p": 0, "marg_al_0_3_m": 0, "marg_al_0_3_f": 0, "per_marg_al_0_3_p": 0.0, "per_marg_al_0_3_m": 0.0, "per_marg_al_0_3_f": 0.0, "marg_hh_0_3_p": 0, "marg_hh_0_3_m": 0, "marg_hh_0_3_f": 0, "per_marg_hh_0_3_p": 0.0, "per_marg_hh_0_3_m": 0.0, "per_marg_hh_0_3_f": 0.0, "marg_ot_0_3_p": 0, "marg_ot_0_3_m": 0, "marg_ot_0_3_f": 0, "per_marg_ot_0_3_p": 0.0, "per_marg_ot_0_3_m": 0.0, "per_marg_ot_0_3_f": 0.0, "non_work_p": 792, "non_work_m": 387, "non_work_f": 405, "per_non_work_p": 52.65957447, "per_non_work_m": 48.86363636, "per_non_work_f": 51.13636364, "per_hc_tot_tot": 100, "per_hc_tot_god": 16.7, "per_hc_tot_liv": 77.3, "per_hc_tot_dil": 5.9, "per_hc_res_tot": 91.8, "per_hc_res_god": 16.4, "per_hc_res_liv": 69.5, "per_hc_res_dil": 5.9, "per_hc_oth_tot": 8.2, "per_hc_oth_god": 0.4, "per_hc_oth_liv": 7.8, "per_hc_oth_dil": 0.0, "per_mt_grsbam": 0.0, "per_mt_plastic": 0.0, "per_mt_h_tiles": 0.0, "per_mt_m_tiles": 0.0, "per_mt_b_brick": 0.0, "per_mt_stone": 0.4, "per_mt_asbstos": 99.6, "per_mt_concrte": 0.0, "per_mt_oth": 0.0, "per_mw_grsbam": 54.3, "per_mw_plastic": 0.0, "per_mw_mud": 0.0, "per_mw_wood": 0.0, "per_mw_no_mrtr": 0.7, "per_mw_st_mrtr": 0.0, "per_mw_asbstos": 0.0, "per_mw_b_brick": 45.0, "per_mw_concrte": 0.0, "per_mw_oth": 0.0, "per_mf_mud": 75.5, "per_mf_wood": 0.0, "per_mf_b_brick": 7.8, "per_mf_stone": 0.0, "per_mf_cement": 16.4, "per_mf_fl_tile": 0.0, "per_mf_oth": 0.4, "per_dw_n_exrm": 0.0, "per_dw_1_room": 12.6, "per_dw_2_room": 75.1, "per_dw_3_room": 8.2, "per_dw_4_room": 1.9, "per_dw_5_room": 2.2, "per_dw_6_room": 0.0, "per_hhsize_1": 1.1, "per_hhsize_2": 5.2, "per_hhsize_3": 13.8, "per_hhsize_4": 15.6, "per_hhsize_5": 18.2, "per_hhsize_6_8": 35.7, "per_hhsize_9p": 10.4, "per_ow_owned": 1.9, "per_ow_rented": 98.1, "per_ow_oth": 0.0, "per_mc_none": 11.5, "per_mcouple_1": 77.3, "per_mcouple_2": 10.8, "per_mcouple_3": 0.4, "per_mcouple_4": 0.0, "per_mcouple_5p": 0.0, "per_dw_t_ts": 0.0, "per_dw_t_unts": 0.0, "per_dw_c_well": 0.4, "per_dw_unc_wel": 0.0, "per_dw_hpump": 99.6, "per_dw_tw_bore": 0.0, "per_dw_spring": 0.0, "per_dw_rivcan": 0.0, "per_dw_tank": 0.0, "per_dw_oth": 0.0, "per_loc_dw_wp": 81.8, "per_loc_dw_np": 17.8, "per_loc_dw_aw": 0.4, "per_light_elec": 79.6, "per_light_kero": 20.4, "per_light_solr": 0.0, "per_light_oil": 0.0, "per_light_oth": 0.0, "per_light_no": 0.0, "per_hh_latrine": 43.5, "per_fl_sewer": 7.8, "per_fl_septict": 0.4, "per_fl_othsys": 0.0, "per_pl_wslab": 32.7, "per_pl_without": 2.6, "per_ns_open": 0.0, "per_sl_ns_hum": 0.0, "per_sl_ns_anml": 0.0, "per_hh_no_lat": 56.5, "per_as_pub": 11.9, "per_as_open": 44.6, "per_hh_bathrm": 5.9, "per_hh_en_wrf": 25.3, "per_hh_no_btrm": 68.8, "per_wwoc_drain": 0.0, "per_wwoc_open": 0.4, "per_wwoc_nodrn": 99.6, "per_cook_fire": 95.9, "per_cook_resdu": 0.0, "per_cook_cwdng": 0.0, "per_cook_coal": 0.0, "per_cook_kero": 0.0, "per_cook_lpng": 4.1, "per_cook_elec": 0.0, "per_cook_biogs": 0.0, "per_cook_oth": 0.0, "per_cook_no": 0.0, "per_kf_inside": 100.0, "per_kf_in_has": 84.8, "per_kf_in_does": 15.2, "per_kf_outside": 0.0, "per_kf_out_has": 0.0, "per_kf_out_dos": 0.0, "per_kf_no_cook": 0.0, "per_hh_banking": 37.2, "per_hh_radio": 4.5, "per_hh_tv": 50.9, "per_hh_cmp_int": 0.0, "per_hh_cmp_wnt": 3.0, "per_hh_ph_ll": 1.5, "per_hh_ph_mob": 25.3, "per_hh_ph_bth": 0.0, "per_hh_bcycl": 50.2, "per_hh_2wheel": 7.8, "per_hh_4wheel": 1.1, "per_hh_tvcomp": 0.0, "per_hh_no_ast": 31.6, "per_hs_perma": 45.7, "per_hs_sperma": 54.3, "per_hs_temp": 0.0, "per_hs_servc": 0.0, "per_hs_nservc": 0.0, "per_hs_unclss": 0.0, "avghhsz_cy": 5.50915751, "st_areashape": 2067598.38096761, "st_lengthshape": 8361.883067117564}, "geometry": {"type": "Polygon", "coordinates": [[[95.24994665391239, 27.54933412490091], [95.2489959354062, 27.554222950474866], [95.24833043200267, 27.558100139837254], [95.24766492859915, 27.559448695591364], [95.24519305958466, 27.55675156751887], [95.24319655027246, 27.555487266275602], [95.24129511236168, 27.55405437398798], [95.2395838181522, 27.552284304853256], [95.24081975265943, 27.54840690934797], [95.2406296089582, 27.54604668920165], [95.23939367445097, 27.543349232765003], [95.23616122973318, 27.542927748939906], [95.23112241940443, 27.54250626349779], [95.22722447218145, 27.540820306356117], [95.23045691689923, 27.54073600825803], [95.23464008012324, 27.54115750049137], [95.23692180543645, 27.54039881362576], [95.23853802734622, 27.53964012152139], [95.24034439295717, 27.54023021592157], [95.24243597456915, 27.541578990311255], [95.24709449749543, 27.543096342504665], [95.24809647477008, 27.545358094301164], [95.24994665391239, 27.54933412490091]]]}}]}