{"type": "FeatureCollection", "features": [{"type": "Feature", "properties": {"premiumdata.sde.IN_Village_PCA.area": 5.45227813, "objectid": 284155, "id": "234293692545579", "name": "Ghoghri", "subdistrict": "Jaitpur", "district": "Shahdol", "state": "Madhya Pradesh", "country": "India", "censusname": "Ghoghri", "villagename_locallang": null, "lgd_villagename": "Ghoghri", "lgd_villagecode": 501609, "lgd_subdistrictcode": 3692, "lgd_districtcode": 429, "lgd_statecode": 23, "censuscode2001": "01995800", "censuscode2011": "501609", "censuscode2021": null, "level": "Village", "tru": "Rural", "no_hh": 268, "tot_p": 953, "tot_m": 461, "tot_f": 492, "per_tot_m": 48.37355719, "per_tot_f": 51.62644281, "p_06": 136, "m_06": 69, "f_06": 67, "per_p_06": 14.27072403, "per_m_06": 50.73529412, "per_f_06": 49.26470588, "p_sc": 0, "m_sc": 0, "f_sc": 0, "per_p_sc": 0.0, "per_m_sc": 0.0, "per_f_sc": 0.0, "p_st": 621, "m_st": 302, "f_st": 319, "per_p_st": 65.16264428, "per_m_st": 48.63123994, "per_f_st": 51.36876006, "p_lit": 552, "m_lit": 296, "f_lit": 256, "per_p_lit": 57.92235047, "per_m_lit": 53.62318841, "per_f_lit": 46.37681159, "p_ill": 401, "m_ill": 165, "f_ill": 236, "per_p_ill": 42.07764953, "per_m_ill": 41.14713217, "per_f_ill": 58.85286783, "tot_work_p": 495, "tot_work_m": 276, "tot_work_f": 219, "per_tot_work_p": 51.9412382, "per_tot_work_m": 55.75757576, "per_tot_work_f": 44.24242424000001, "mainwork_p": 122, "mainwork_m": 111, "mainwork_f": 11, "per_mainwork_p": 12.80167891, "per_mainwork_m": 90.98360656, "per_mainwork_f": 9.01639344, "main_cl_p": 80, "main_cl_m": 76, "main_cl_f": 4, "per_main_cl_p": 65.57377049, "per_main_cl_m": 95.0, "per_main_cl_f": 5.0, "main_al_p": 21, "main_al_m": 19, "main_al_f": 2, "per_main_al_p": 17.21311475, "per_main_al_m": 90.47619048, "per_main_al_f": 9.52380952, "main_hh_p": 6, "main_hh_m": 5, "main_hh_f": 1, "per_main_hh_p": 4.91803279, "per_main_hh_m": 83.33333332999999, "per_main_hh_f": 16.66666667, "main_ot_p": 15, "main_ot_m": 11, "main_ot_f": 4, "per_main_ot_p": 12.29508197, "per_main_ot_m": 73.33333332999999, "per_main_ot_f": 26.66666667, "margwork_p": 373, "margwork_m": 165, "margwork_f": 208, "per_margwork_p": 39.13955929, "per_margwork_m": 44.23592493, "per_margwork_f": 55.76407507, "marg_cl_p": 77, "marg_cl_m": 27, "marg_cl_f": 50, "per_marg_cl_p": 20.64343164, "per_marg_cl_m": 35.06493506, "per_marg_cl_f": 64.93506494, "marg_al_p": 288, "marg_al_m": 131, "marg_al_f": 157, "per_marg_al_p": 77.21179625, "per_marg_al_m": 45.48611111, "per_marg_al_f": 54.51388889, "marg_hh_p": 1, "marg_hh_m": 1, "marg_hh_f": 0, "per_marg_hh_p": 0.26809651, "per_marg_hh_m": 100.0, "per_marg_hh_f": 0.0, "marg_ot_p": 7, "marg_ot_m": 6, "marg_ot_f": 1, "per_marg_ot_p": 1.8766756, "per_marg_ot_m": 85.71428571, "per_marg_ot_f": 14.28571429, "margwork_3_6_p": 354, "margwork_3_6_m": 158, "margwork_3_6_f": 196, "per_margwork_3_6_p": 94.90616621999999, "per_margwork_3_6_m": 44.63276836, "per_margwork_3_6_f": 55.36723164, "marg_cl_3_6_p": 77, "marg_cl_3_6_m": 27, "marg_cl_3_6_f": 50, "per_marg_cl_3_6_p": 20.64343164, "per_marg_cl_3_6_m": 35.06493506, "per_marg_cl_3_6_f": 64.93506494, "marg_al_3_6_p": 269, "marg_al_3_6_m": 124, "marg_al_3_6_f": 145, "per_marg_al_3_6_p": 72.11796247000001, "per_marg_al_3_6_m": 46.09665428, "per_marg_al_3_6_f": 53.90334572, "marg_hh_3_6_p": 1, "marg_hh_3_6_m": 1, "marg_hh_3_6_f": 0, "per_marg_hh_3_6_p": 0.26809651, "per_marg_hh_3_6_m": 100.0, "per_marg_hh_3_6_f": 0.0, "marg_ot_3_6_p": 7, "marg_ot_3_6_m": 6, "marg_ot_3_6_f": 1, "per_marg_ot_3_6_p": 1.8766756, "per_marg_ot_3_6_m": 85.71428571, "per_marg_ot_3_6_f": 14.28571429, "margwork_0_3_p": 19, "margwork_0_3_m": 7, "margwork_0_3_f": 12, "per_margwork_0_3_p": 5.09383378, "per_margwork_0_3_m": 36.84210526, "per_margwork_0_3_f": 63.15789474, "marg_cl_0_3_p": 0, "marg_cl_0_3_m": 0, "marg_cl_0_3_f": 0, "per_marg_cl_0_3_p": 0.0, "per_marg_cl_0_3_m": 0.0, "per_marg_cl_0_3_f": 0.0, "marg_al_0_3_p": 19, "marg_al_0_3_m": 7, "marg_al_0_3_f": 12, "per_marg_al_0_3_p": 5.09383378, "per_marg_al_0_3_m": 36.84210526, "per_marg_al_0_3_f": 63.15789474, "marg_hh_0_3_p": 0, "marg_hh_0_3_m": 0, "marg_hh_0_3_f": 0, "per_marg_hh_0_3_p": 0.0, "per_marg_hh_0_3_m": 0.0, "per_marg_hh_0_3_f": 0.0, "marg_ot_0_3_p": 0, "marg_ot_0_3_m": 0, "marg_ot_0_3_f": 0, "per_marg_ot_0_3_p": 0.0, "per_marg_ot_0_3_m": 0.0, "per_marg_ot_0_3_f": 0.0, "non_work_p": 458, "non_work_m": 185, "non_work_f": 273, "per_non_work_p": 48.0587618, "per_non_work_m": 40.3930131, "per_non_work_f": 59.6069869, "per_hc_tot_tot": 100, "per_hc_tot_god": 58.8, "per_hc_tot_liv": 39.7, "per_hc_tot_dil": 1.5, "per_hc_res_tot": 98.5, "per_hc_res_god": 58.1, "per_hc_res_liv": 39.0, "per_hc_res_dil": 1.5, "per_hc_oth_tot": 1.5, "per_hc_oth_god": 0.7, "per_hc_oth_liv": 0.7, "per_hc_oth_dil": 0.0, "per_mt_grsbam": 12.1, "per_mt_plastic": 0.4, "per_mt_h_tiles": 80.1, "per_mt_m_tiles": 0.0, "per_mt_b_brick": 0.0, "per_mt_stone": 0.4, "per_mt_asbstos": 1.8, "per_mt_concrte": 5.1, "per_mt_oth": 0.0, "per_mw_grsbam": 0.4, "per_mw_plastic": 0.0, "per_mw_mud": 94.1, "per_mw_wood": 0.0, "per_mw_no_mrtr": 0.0, "per_mw_st_mrtr": 0.0, "per_mw_asbstos": 0.0, "per_mw_b_brick": 5.1, "per_mw_concrte": 0.0, "per_mw_oth": 0.4, "per_mf_mud": 91.9, "per_mf_wood": 0.0, "per_mf_b_brick": 0.0, "per_mf_stone": 0.0, "per_mf_cement": 8.1, "per_mf_fl_tile": 0.0, "per_mf_oth": 0.0, "per_dw_n_exrm": 0.4, "per_dw_1_room": 27.6, "per_dw_2_room": 48.9, "per_dw_3_room": 14.7, "per_dw_4_room": 7.7, "per_dw_5_room": 0.7, "per_dw_6_room": 0.0, "per_hhsize_1": 6.6, "per_hhsize_2": 21.0, "per_hhsize_3": 19.1, "per_hhsize_4": 22.8, "per_hhsize_5": 14.0, "per_hhsize_6_8": 16.5, "per_hhsize_9p": 0.0, "per_ow_owned": 94.1, "per_ow_rented": 4.4, "per_ow_oth": 1.5, "per_mc_none": 14.0, "per_mcouple_1": 80.9, "per_mcouple_2": 5.1, "per_mcouple_3": 0.0, "per_mcouple_4": 0.0, "per_mcouple_5p": 0.0, "per_dw_t_ts": 0.0, "per_dw_t_unts": 0.0, "per_dw_c_well": 0.0, "per_dw_unc_wel": 34.9, "per_dw_hpump": 64.7, "per_dw_tw_bore": 0.0, "per_dw_spring": 0.4, "per_dw_rivcan": 0.0, "per_dw_tank": 0.0, "per_dw_oth": 0.0, "per_loc_dw_wp": 23.5, "per_loc_dw_np": 61.4, "per_loc_dw_aw": 15.1, "per_light_elec": 15.8, "per_light_kero": 83.5, "per_light_solr": 0.7, "per_light_oil": 0.0, "per_light_oth": 0.0, "per_light_no": 0.0, "per_hh_latrine": 7.0, "per_fl_sewer": 0.4, "per_fl_septict": 2.6, "per_fl_othsys": 1.1, "per_pl_wslab": 2.2, "per_pl_without": 0.7, "per_ns_open": 0.0, "per_sl_ns_hum": 0.0, "per_sl_ns_anml": 0.0, "per_hh_no_lat": 93.0, "per_as_pub": 0.0, "per_as_open": 93.0, "per_hh_bathrm": 1.1, "per_hh_en_wrf": 0.7, "per_hh_no_btrm": 98.2, "per_wwoc_drain": 0.0, "per_wwoc_open": 0.0, "per_wwoc_nodrn": 100.0, "per_cook_fire": 99.3, "per_cook_resdu": 0.4, "per_cook_cwdng": 0.4, "per_cook_coal": 0.0, "per_cook_kero": 0.0, "per_cook_lpng": 0.0, "per_cook_elec": 0.0, "per_cook_biogs": 0.0, "per_cook_oth": 0.0, "per_cook_no": 0.0, "per_kf_inside": 98.5, "per_kf_in_has": 98.5, "per_kf_in_does": 0.0, "per_kf_outside": 1.5, "per_kf_out_has": 1.5, "per_kf_out_dos": 0.0, "per_kf_no_cook": 0.0, "per_hh_banking": 48.9, "per_hh_radio": 15.1, "per_hh_tv": 7.4, "per_hh_cmp_int": 0.0, "per_hh_cmp_wnt": 4.0, "per_hh_ph_ll": 0.4, "per_hh_ph_mob": 23.2, "per_hh_ph_bth": 0.0, "per_hh_bcycl": 50.4, "per_hh_2wheel": 5.1, "per_hh_4wheel": 0.0, "per_hh_tvcomp": 0.4, "per_hh_no_ast": 36.0, "per_hs_perma": 5.1, "per_hs_sperma": 82.0, "per_hs_temp": 12.5, "per_hs_servc": 12.1, "per_hs_nservc": 0.4, "per_hs_unclss": 0.4, "avghhsz_cy": 3.55597015, "st_areashape": 6506472.63240809, "st_lengthshape": 10456.009273559885}, "geometry": {"type": "Polygon", "coordinates": [[[81.64182000057404, 23.445620000630477], [81.64156000028302, 23.445729999709478], [81.6397700001799, 23.444340000043702], [81.63518999989094, 23.433749999871416], [81.6341499996253, 23.43210000037893], [81.63756999999796, 23.426419999745335], [81.64001000037943, 23.425790000007595], [81.64521999995694, 23.42410000012176], [81.65282999973293, 23.42503999989976], [81.65931999977559, 23.42547999988528], [81.66140000030695, 23.427380000246853], [81.66556999961878, 23.432380000275067], [81.66692000040415, 23.43386000058891], [81.66482999982705, 23.435779999493437], [81.6620599997327, 23.438890000035563], [81.66193000003638, 23.440430000378424], [81.66319000041008, 23.443809999486284], [81.65702000003455, 23.44156000052276], [81.6531300002069, 23.44162000037697], [81.64484000001532, 23.444259999955847], [81.64182000057404, 23.445620000630477]]]}}]}