{"type": "FeatureCollection", "features": [{"type": "Feature", "properties": {"premiumdata.sde.IN_Village_PCA.area": 1.86987785, "objectid": 635912, "id": "186172152227156", "name": "Kahibari", "subdistrict": "Udalguri", "district": "Udalguri", "state": "Assam", "country": "India", "censusname": "Kahibari", "villagename_locallang": null, "lgd_villagename": "Kahibari", "lgd_villagecode": 305890, "lgd_subdistrictcode": 2152, "lgd_districtcode": 617, "lgd_statecode": 18, "censuscode2001": "00846300", "censuscode2011": "305890", "censuscode2021": null, "level": "Village", "tru": "Rural", "no_hh": 183, "tot_p": 933, "tot_m": 427, "tot_f": 506, "per_tot_m": 45.76634512, "per_tot_f": 54.23365488, "p_06": 88, "m_06": 34, "f_06": 54, "per_p_06": 9.43193998, "per_m_06": 38.63636364, "per_f_06": 61.36363636, "p_sc": 0, "m_sc": 0, "f_sc": 0, "per_p_sc": 0.0, "per_m_sc": 0.0, "per_f_sc": 0.0, "p_st": 866, "m_st": 391, "f_st": 475, "per_p_st": 92.81886388, "per_m_st": 45.15011547, "per_f_st": 54.84988453, "p_lit": 613, "m_lit": 310, "f_lit": 303, "per_p_lit": 65.70203644, "per_m_lit": 50.57096248, "per_f_lit": 49.42903752, "p_ill": 320, "m_ill": 117, "f_ill": 203, "per_p_ill": 34.29796356, "per_m_ill": 36.5625, "per_f_ill": 63.4375, "tot_work_p": 506, "tot_work_m": 272, "tot_work_f": 234, "per_tot_work_p": 54.23365488, "per_tot_work_m": 53.75494071, "per_tot_work_f": 46.24505929, "mainwork_p": 408, "mainwork_m": 232, "mainwork_f": 176, "per_mainwork_p": 43.72990354, "per_mainwork_m": 56.8627451, "per_mainwork_f": 43.1372549, "main_cl_p": 133, "main_cl_m": 120, "main_cl_f": 13, "per_main_cl_p": 32.59803922, "per_main_cl_m": 90.22556391, "per_main_cl_f": 9.77443609, "main_al_p": 17, "main_al_m": 11, "main_al_f": 6, "per_main_al_p": 4.16666667, "per_main_al_m": 64.70588235, "per_main_al_f": 35.29411765, "main_hh_p": 139, "main_hh_m": 8, "main_hh_f": 131, "per_main_hh_p": 34.06862745, "per_main_hh_m": 5.75539568, "per_main_hh_f": 94.24460432000001, "main_ot_p": 119, "main_ot_m": 93, "main_ot_f": 26, "per_main_ot_p": 29.16666667, "per_main_ot_m": 78.1512605, "per_main_ot_f": 21.8487395, "margwork_p": 98, "margwork_m": 40, "margwork_f": 58, "per_margwork_p": 10.50375134, "per_margwork_m": 40.81632653, "per_margwork_f": 59.18367347, "marg_cl_p": 18, "marg_cl_m": 12, "marg_cl_f": 6, "per_marg_cl_p": 18.36734694, "per_marg_cl_m": 66.66666667, "per_marg_cl_f": 33.33333333, "marg_al_p": 3, "marg_al_m": 2, "marg_al_f": 1, "per_marg_al_p": 3.06122449, "per_marg_al_m": 66.66666667, "per_marg_al_f": 33.33333333, "marg_hh_p": 16, "marg_hh_m": 0, "marg_hh_f": 16, "per_marg_hh_p": 16.32653061, "per_marg_hh_m": 0.0, "per_marg_hh_f": 100.0, "marg_ot_p": 61, "marg_ot_m": 26, "marg_ot_f": 35, "per_marg_ot_p": 62.24489796, "per_marg_ot_m": 42.62295082, "per_marg_ot_f": 57.37704918, "margwork_3_6_p": 92, "margwork_3_6_m": 38, "margwork_3_6_f": 54, "per_margwork_3_6_p": 93.87755102, "per_margwork_3_6_m": 41.30434783, "per_margwork_3_6_f": 58.69565217, "marg_cl_3_6_p": 17, "marg_cl_3_6_m": 11, "marg_cl_3_6_f": 6, "per_marg_cl_3_6_p": 17.34693878, "per_marg_cl_3_6_m": 64.70588235, "per_marg_cl_3_6_f": 35.29411765, "marg_al_3_6_p": 3, "marg_al_3_6_m": 2, "marg_al_3_6_f": 1, "per_marg_al_3_6_p": 3.06122449, "per_marg_al_3_6_m": 66.66666667, "per_marg_al_3_6_f": 33.33333333, "marg_hh_3_6_p": 14, "marg_hh_3_6_m": 0, "marg_hh_3_6_f": 14, "per_marg_hh_3_6_p": 14.28571429, "per_marg_hh_3_6_m": 0.0, "per_marg_hh_3_6_f": 100.0, "marg_ot_3_6_p": 58, "marg_ot_3_6_m": 25, "marg_ot_3_6_f": 33, "per_marg_ot_3_6_p": 59.18367347, "per_marg_ot_3_6_m": 43.10344828, "per_marg_ot_3_6_f": 56.89655172000001, "margwork_0_3_p": 6, "margwork_0_3_m": 2, "margwork_0_3_f": 4, "per_margwork_0_3_p": 6.12244898, "per_margwork_0_3_m": 33.33333333, "per_margwork_0_3_f": 66.66666667, "marg_cl_0_3_p": 1, "marg_cl_0_3_m": 1, "marg_cl_0_3_f": 0, "per_marg_cl_0_3_p": 1.02040816, "per_marg_cl_0_3_m": 100.0, "per_marg_cl_0_3_f": 0.0, "marg_al_0_3_p": 0, "marg_al_0_3_m": 0, "marg_al_0_3_f": 0, "per_marg_al_0_3_p": 0.0, "per_marg_al_0_3_m": 0.0, "per_marg_al_0_3_f": 0.0, "marg_hh_0_3_p": 2, "marg_hh_0_3_m": 0, "marg_hh_0_3_f": 2, "per_marg_hh_0_3_p": 2.04081633, "per_marg_hh_0_3_m": 0.0, "per_marg_hh_0_3_f": 100.0, "marg_ot_0_3_p": 3, "marg_ot_0_3_m": 1, "marg_ot_0_3_f": 2, "per_marg_ot_0_3_p": 3.06122449, "per_marg_ot_0_3_m": 33.33333333, "per_marg_ot_0_3_f": 66.66666667, "non_work_p": 427, "non_work_m": 155, "non_work_f": 272, "per_non_work_p": 45.76634512, "per_non_work_m": 36.29976581, "per_non_work_f": 63.70023419, "per_hc_tot_tot": 100, "per_hc_tot_god": 17.5, "per_hc_tot_liv": 80.2, "per_hc_tot_dil": 2.3, "per_hc_res_tot": 100.0, "per_hc_res_god": 17.5, "per_hc_res_liv": 80.2, "per_hc_res_dil": 2.3, "per_hc_oth_tot": 0.0, "per_hc_oth_god": 0.0, "per_hc_oth_liv": 0.0, "per_hc_oth_dil": 0.0, "per_mt_grsbam": 45.2, "per_mt_plastic": 0.0, "per_mt_h_tiles": 0.6, "per_mt_m_tiles": 0.0, "per_mt_b_brick": 0.0, "per_mt_stone": 0.0, "per_mt_asbstos": 54.2, "per_mt_concrte": 0.0, "per_mt_oth": 0.0, "per_mw_grsbam": 84.7, "per_mw_plastic": 0.0, "per_mw_mud": 0.0, "per_mw_wood": 0.0, "per_mw_no_mrtr": 0.0, "per_mw_st_mrtr": 0.6, "per_mw_asbstos": 0.0, "per_mw_b_brick": 14.7, "per_mw_concrte": 0.0, "per_mw_oth": 0.0, "per_mf_mud": 83.6, "per_mf_wood": 1.1, "per_mf_b_brick": 4.0, "per_mf_stone": 0.0, "per_mf_cement": 11.3, "per_mf_fl_tile": 0.0, "per_mf_oth": 0.0, "per_dw_n_exrm": 2.3, "per_dw_1_room": 15.3, "per_dw_2_room": 67.2, "per_dw_3_room": 7.3, "per_dw_4_room": 4.5, "per_dw_5_room": 2.8, "per_dw_6_room": 0.6, "per_hhsize_1": 0.6, "per_hhsize_2": 2.3, "per_hhsize_3": 13.0, "per_hhsize_4": 20.3, "per_hhsize_5": 29.9, "per_hhsize_6_8": 29.9, "per_hhsize_9p": 4.0, "per_ow_owned": 96.0, "per_ow_rented": 4.0, "per_ow_oth": 0.0, "per_mc_none": 1.1, "per_mcouple_1": 84.7, "per_mcouple_2": 11.3, "per_mcouple_3": 2.8, "per_mcouple_4": 0.0, "per_mcouple_5p": 0.0, "per_dw_t_ts": 10.2, "per_dw_t_unts": 3.4, "per_dw_c_well": 0.6, "per_dw_unc_wel": 67.8, "per_dw_hpump": 16.9, "per_dw_tw_bore": 0.0, "per_dw_spring": 0.0, "per_dw_rivcan": 0.0, "per_dw_tank": 0.6, "per_dw_oth": 0.6, "per_loc_dw_wp": 43.5, "per_loc_dw_np": 55.4, "per_loc_dw_aw": 1.1, "per_light_elec": 57.1, "per_light_kero": 42.9, "per_light_solr": 0.0, "per_light_oil": 0.0, "per_light_oth": 0.0, "per_light_no": 0.0, "per_hh_latrine": 23.7, "per_fl_sewer": 5.6, "per_fl_septict": 7.3, "per_fl_othsys": 5.1, "per_pl_wslab": 4.0, "per_pl_without": 1.1, "per_ns_open": 0.6, "per_sl_ns_hum": 0.0, "per_sl_ns_anml": 0.0, "per_hh_no_lat": 76.3, "per_as_pub": 4.0, "per_as_open": 72.3, "per_hh_bathrm": 8.5, "per_hh_en_wrf": 30.5, "per_hh_no_btrm": 61.0, "per_wwoc_drain": 3.4, "per_wwoc_open": 6.8, "per_wwoc_nodrn": 89.8, "per_cook_fire": 83.1, "per_cook_resdu": 13.6, "per_cook_cwdng": 1.1, "per_cook_coal": 0.0, "per_cook_kero": 0.0, "per_cook_lpng": 2.3, "per_cook_elec": 0.0, "per_cook_biogs": 0.0, "per_cook_oth": 0.0, "per_cook_no": 0.0, "per_kf_inside": 78.5, "per_kf_in_has": 72.3, "per_kf_in_does": 6.2, "per_kf_outside": 21.5, "per_kf_out_has": 19.8, "per_kf_out_dos": 1.7, "per_kf_no_cook": 0.0, "per_hh_banking": 98.9, "per_hh_radio": 26.0, "per_hh_tv": 32.2, "per_hh_cmp_int": 8.5, "per_hh_cmp_wnt": 36.2, "per_hh_ph_ll": 18.1, "per_hh_ph_mob": 67.8, "per_hh_ph_bth": 5.6, "per_hh_bcycl": 88.7, "per_hh_2wheel": 16.9, "per_hh_4wheel": 5.6, "per_hh_tvcomp": 7.3, "per_hh_no_ast": 0.0, "per_hs_perma": 14.7, "per_hs_sperma": 40.7, "per_hs_temp": 44.6, "per_hs_servc": 0.0, "per_hs_nservc": 44.6, "per_hs_unclss": 0.0, "avghhsz_cy": 5.09836066, "st_areashape": 2354616.558462255, "st_lengthshape": 6543.710366090436}, "geometry": {"type": "Polygon", "coordinates": [[[92.15396370479864, 26.76242012977681], [92.14512201864838, 26.76242012977681], [92.13742119560392, 26.76382077140744], [92.13884727381242, 26.75669005100455], [92.14155682267803, 26.755161980983598], [92.14312550933617, 26.752742495031445], [92.14319950356612, 26.75247819833961], [92.14412376399228, 26.749176842781257], [92.15258830055534, 26.749073298628833], [92.1523950181405, 26.751341716042983], [92.15396370479864, 26.76242012977681]]]}}]}