{"type": "FeatureCollection", "features": [{"type": "Feature", "properties": {"premiumdata.sde.IN_Village_PCA.area": 1.50331799, "objectid": 568632, "id": "9123965430796", "name": "Guddanpur", "subdistrict": "Sagri", "district": "Azamgarh", "state": "Uttar Pradesh", "country": "India", "censusname": "Guddanpur", "villagename_locallang": null, "lgd_villagename": "Guddanpur", "lgd_villagecode": 192756, "lgd_subdistrictcode": 965, "lgd_districtcode": 123, "lgd_statecode": 9, "censuscode2001": "08581900", "censuscode2011": "192756", "censuscode2021": null, "level": "Village", "tru": "Rural", "no_hh": 26, "tot_p": 213, "tot_m": 120, "tot_f": 93, "per_tot_m": 56.33802817, "per_tot_f": 43.66197183000001, "p_06": 41, "m_06": 26, "f_06": 15, "per_p_06": 19.24882629, "per_m_06": 63.41463415, "per_f_06": 36.58536585, "p_sc": 9, "m_sc": 4, "f_sc": 5, "per_p_sc": 4.22535211, "per_m_sc": 44.44444444000001, "per_f_sc": 55.55555556, "p_st": 0, "m_st": 0, "f_st": 0, "per_p_st": 0.0, "per_m_st": 0.0, "per_f_st": 0.0, "p_lit": 127, "m_lit": 79, "f_lit": 48, "per_p_lit": 59.62441315, "per_m_lit": 62.20472441, "per_f_lit": 37.79527559, "p_ill": 86, "m_ill": 41, "f_ill": 45, "per_p_ill": 40.37558685, "per_m_ill": 47.6744186, "per_f_ill": 52.3255814, "tot_work_p": 50, "tot_work_m": 48, "tot_work_f": 2, "per_tot_work_p": 23.4741784, "per_tot_work_m": 96.0, "per_tot_work_f": 4.0, "mainwork_p": 43, "mainwork_m": 41, "mainwork_f": 2, "per_mainwork_p": 20.18779343, "per_mainwork_m": 95.34883721, "per_mainwork_f": 4.65116279, "main_cl_p": 40, "main_cl_m": 38, "main_cl_f": 2, "per_main_cl_p": 93.02325581000001, "per_main_cl_m": 95.0, "per_main_cl_f": 5.0, "main_al_p": 0, "main_al_m": 0, "main_al_f": 0, "per_main_al_p": 0.0, "per_main_al_m": 0.0, "per_main_al_f": 0.0, "main_hh_p": 2, "main_hh_m": 2, "main_hh_f": 0, "per_main_hh_p": 4.65116279, "per_main_hh_m": 100.0, "per_main_hh_f": 0.0, "main_ot_p": 1, "main_ot_m": 1, "main_ot_f": 0, "per_main_ot_p": 2.3255814, "per_main_ot_m": 100.0, "per_main_ot_f": 0.0, "margwork_p": 7, "margwork_m": 7, "margwork_f": 0, "per_margwork_p": 3.28638498, "per_margwork_m": 100.0, "per_margwork_f": 0.0, "marg_cl_p": 0, "marg_cl_m": 0, "marg_cl_f": 0, "per_marg_cl_p": 0.0, "per_marg_cl_m": 0.0, "per_marg_cl_f": 0.0, "marg_al_p": 1, "marg_al_m": 1, "marg_al_f": 0, "per_marg_al_p": 14.28571429, "per_marg_al_m": 100.0, "per_marg_al_f": 0.0, "marg_hh_p": 0, "marg_hh_m": 0, "marg_hh_f": 0, "per_marg_hh_p": 0.0, "per_marg_hh_m": 0.0, "per_marg_hh_f": 0.0, "marg_ot_p": 6, "marg_ot_m": 6, "marg_ot_f": 0, "per_marg_ot_p": 85.71428571, "per_marg_ot_m": 100.0, "per_marg_ot_f": 0.0, "margwork_3_6_p": 5, "margwork_3_6_m": 5, "margwork_3_6_f": 0, "per_margwork_3_6_p": 71.42857143, "per_margwork_3_6_m": 100.0, "per_margwork_3_6_f": 0.0, "marg_cl_3_6_p": 0, "marg_cl_3_6_m": 0, "marg_cl_3_6_f": 0, "per_marg_cl_3_6_p": 0.0, "per_marg_cl_3_6_m": 0.0, "per_marg_cl_3_6_f": 0.0, "marg_al_3_6_p": 0, "marg_al_3_6_m": 0, "marg_al_3_6_f": 0, "per_marg_al_3_6_p": 0.0, "per_marg_al_3_6_m": 0.0, "per_marg_al_3_6_f": 0.0, "marg_hh_3_6_p": 0, "marg_hh_3_6_m": 0, "marg_hh_3_6_f": 0, "per_marg_hh_3_6_p": 0.0, "per_marg_hh_3_6_m": 0.0, "per_marg_hh_3_6_f": 0.0, "marg_ot_3_6_p": 5, "marg_ot_3_6_m": 5, "marg_ot_3_6_f": 0, "per_marg_ot_3_6_p": 71.42857143, "per_marg_ot_3_6_m": 100.0, "per_marg_ot_3_6_f": 0.0, "margwork_0_3_p": 2, "margwork_0_3_m": 2, "margwork_0_3_f": 0, "per_margwork_0_3_p": 28.57142857, "per_margwork_0_3_m": 100.0, "per_margwork_0_3_f": 0.0, "marg_cl_0_3_p": 0, "marg_cl_0_3_m": 0, "marg_cl_0_3_f": 0, "per_marg_cl_0_3_p": 0.0, "per_marg_cl_0_3_m": 0.0, "per_marg_cl_0_3_f": 0.0, "marg_al_0_3_p": 1, "marg_al_0_3_m": 1, "marg_al_0_3_f": 0, "per_marg_al_0_3_p": 14.28571429, "per_marg_al_0_3_m": 100.0, "per_marg_al_0_3_f": 0.0, "marg_hh_0_3_p": 0, "marg_hh_0_3_m": 0, "marg_hh_0_3_f": 0, "per_marg_hh_0_3_p": 0.0, "per_marg_hh_0_3_m": 0.0, "per_marg_hh_0_3_f": 0.0, "marg_ot_0_3_p": 1, "marg_ot_0_3_m": 1, "marg_ot_0_3_f": 0, "per_marg_ot_0_3_p": 14.28571429, "per_marg_ot_0_3_m": 100.0, "per_marg_ot_0_3_f": 0.0, "non_work_p": 163, "non_work_m": 72, "non_work_f": 91, "per_non_work_p": 76.5258216, "per_non_work_m": 44.17177914, "per_non_work_f": 55.82822086, "per_hc_tot_tot": 100, "per_hc_tot_god": 23.1, "per_hc_tot_liv": 50.0, "per_hc_tot_dil": 26.9, "per_hc_res_tot": 100.0, "per_hc_res_god": 23.1, "per_hc_res_liv": 50.0, "per_hc_res_dil": 26.9, "per_hc_oth_tot": 0.0, "per_hc_oth_god": 0.0, "per_hc_oth_liv": 0.0, "per_hc_oth_dil": 0.0, "per_mt_grsbam": 26.9, "per_mt_plastic": 0.0, "per_mt_h_tiles": 0.0, "per_mt_m_tiles": 0.0, "per_mt_b_brick": 15.4, "per_mt_stone": 0.0, "per_mt_asbstos": 15.4, "per_mt_concrte": 42.3, "per_mt_oth": 0.0, "per_mw_grsbam": 11.5, "per_mw_plastic": 0.0, "per_mw_mud": 11.5, "per_mw_wood": 0.0, "per_mw_no_mrtr": 0.0, "per_mw_st_mrtr": 0.0, "per_mw_asbstos": 0.0, "per_mw_b_brick": 73.1, "per_mw_concrte": 0.0, "per_mw_oth": 3.8, "per_mf_mud": 96.2, "per_mf_wood": 0.0, "per_mf_b_brick": 0.0, "per_mf_stone": 0.0, "per_mf_cement": 3.8, "per_mf_fl_tile": 0.0, "per_mf_oth": 0.0, "per_dw_n_exrm": 0.0, "per_dw_1_room": 15.4, "per_dw_2_room": 34.6, "per_dw_3_room": 11.5, "per_dw_4_room": 15.4, "per_dw_5_room": 7.7, "per_dw_6_room": 15.4, "per_hhsize_1": 3.8, "per_hhsize_2": 0.0, "per_hhsize_3": 3.8, "per_hhsize_4": 7.7, "per_hhsize_5": 7.7, "per_hhsize_6_8": 30.8, "per_hhsize_9p": 46.2, "per_ow_owned": 100.0, "per_ow_rented": 0.0, "per_ow_oth": 0.0, "per_mc_none": 7.7, "per_mcouple_1": 46.2, "per_mcouple_2": 26.9, "per_mcouple_3": 19.2, "per_mcouple_4": 0.0, "per_mcouple_5p": 0.0, "per_dw_t_ts": 3.8, "per_dw_t_unts": 0.0, "per_dw_c_well": 0.0, "per_dw_unc_wel": 0.0, "per_dw_hpump": 92.3, "per_dw_tw_bore": 3.8, "per_dw_spring": 0.0, "per_dw_rivcan": 0.0, "per_dw_tank": 0.0, "per_dw_oth": 0.0, "per_loc_dw_wp": 15.4, "per_loc_dw_np": 76.9, "per_loc_dw_aw": 7.7, "per_light_elec": 19.2, "per_light_kero": 80.8, "per_light_solr": 0.0, "per_light_oil": 0.0, "per_light_oth": 0.0, "per_light_no": 0.0, "per_hh_latrine": 3.8, "per_fl_sewer": 0.0, "per_fl_septict": 0.0, "per_fl_othsys": 0.0, "per_pl_wslab": 0.0, "per_pl_without": 3.8, "per_ns_open": 0.0, "per_sl_ns_hum": 0.0, "per_sl_ns_anml": 0.0, "per_hh_no_lat": 96.2, "per_as_pub": 0.0, "per_as_open": 96.2, "per_hh_bathrm": 7.7, "per_hh_en_wrf": 23.1, "per_hh_no_btrm": 69.2, "per_wwoc_drain": 3.8, "per_wwoc_open": 11.5, "per_wwoc_nodrn": 84.6, "per_cook_fire": 100.0, "per_cook_resdu": 0.0, "per_cook_cwdng": 0.0, "per_cook_coal": 0.0, "per_cook_kero": 0.0, "per_cook_lpng": 0.0, "per_cook_elec": 0.0, "per_cook_biogs": 0.0, "per_cook_oth": 0.0, "per_cook_no": 0.0, "per_kf_inside": 100.0, "per_kf_in_has": 26.9, "per_kf_in_does": 73.1, "per_kf_outside": 0.0, "per_kf_out_has": 0.0, "per_kf_out_dos": 0.0, "per_kf_no_cook": 0.0, "per_hh_banking": 76.9, "per_hh_radio": 3.8, "per_hh_tv": 0.0, "per_hh_cmp_int": 0.0, "per_hh_cmp_wnt": 0.0, "per_hh_ph_ll": 0.0, "per_hh_ph_mob": 88.5, "per_hh_ph_bth": 0.0, "per_hh_bcycl": 84.6, "per_hh_2wheel": 7.7, "per_hh_4wheel": 0.0, "per_hh_tvcomp": 0.0, "per_hh_no_ast": 0.0, "per_hs_perma": 69.2, "per_hs_sperma": 3.8, "per_hs_temp": 23.1, "per_hs_servc": 11.5, "per_hs_nservc": 11.5, "per_hs_unclss": 3.8, "avghhsz_cy": 8.19230769, "st_areashape": 1878032.681106145, "st_lengthshape": 8362.810755149216}, "geometry": {"type": "Polygon", "coordinates": [[[83.30503316549795, 26.298783976430453], [83.3050106923445, 26.298757272293965], [83.30484395784123, 26.298758050248622], [83.3046207947651, 26.29860892043162], [83.30400945977321, 26.29861177132499], [83.30373214984503, 26.298713177718344], [83.3029609641399, 26.299918106116497], [83.3018560048994, 26.301074537710914], [83.30166822376735, 26.301148059376786], [83.3014678222039, 26.30122651276935], [83.30113436487547, 26.301228061397644], [83.30068946884111, 26.301180070821985], [83.29522867939923, 26.298702538418645], [83.29350156945084, 26.297959654212274], [83.29294523740549, 26.2978620991122], [83.29261205406326, 26.297913687718626], [83.2925023203597, 26.29816446126807], [83.29250239941145, 26.298178514453944], [83.29222268559154, 26.298060744677027], [83.29116503971872, 26.29776525746394], [83.2892732056967, 26.29737348401569], [83.28782710404055, 26.2971798682765], [83.28587998410265, 26.2968383667989], [83.28471235030305, 26.29674356988478], [83.28232314875261, 26.296854538214223], [83.28132334899422, 26.2969591691496], [83.27993535216724, 26.297215736817957], [83.27954659993985, 26.297267552014347], [83.27941544501006, 26.297297710624008], [83.27943637845111, 26.297078208468214], [83.27943554301788, 26.29692804161726], [83.27959698374917, 26.295976241867276], [83.2796826542812, 26.295206056183943], [83.27974639603882, 26.295213427650737], [83.28024658607386, 26.29521116619785], [83.28119162992242, 26.295256930006744], [83.28330544573599, 26.295597742728866], [83.28375489443222, 26.295520980001744], [83.28390407675313, 26.295430425448284], [83.28405117947416, 26.294965368232948], [83.28417923970781, 26.292840666561897], [83.28428758461591, 26.29233961455749], [83.28428646351844, 26.29213939030709], [83.28423004213208, 26.291989474782728], [83.28361733631108, 26.291741972237737], [83.28239276818712, 26.29139714460352], [83.2806284122904, 26.29095539773409], [83.28072557317323, 26.289065078179878], [83.28219802151837, 26.28905840621786], [83.28269789354981, 26.289006080754326], [83.28347479074347, 26.28880232226851], [83.2838079381531, 26.288750750549088], [83.28430726490716, 26.288598307305445], [83.28497411937684, 26.288595273338558], [83.28525282528702, 26.28874417763389], [83.28569825492066, 26.288892321436094], [83.2865323954592, 26.288988634900885], [83.28655437453925, 26.288990054828023], [83.28677780890662, 26.289617729380225], [83.28705706458571, 26.28986674335794], [83.28733605705845, 26.29006568531383], [83.29057143208067, 26.292203327960454], [83.29318963845158, 26.29329255315825], [83.29424697081234, 26.29353795923122], [83.29519342771087, 26.293833942050192], [83.29574946151554, 26.29388143472657], [83.29686151385351, 26.293976414383366], [83.29830759484845, 26.294169955740347], [83.29925408139135, 26.294465900704704], [83.30086745564161, 26.29475876037021], [83.30234319541395, 26.29492362145833], [83.3031040370186, 26.294862959106055], [83.3031443399338, 26.294914229317875], [83.30359237468176, 26.295512828967325], [83.30398456027017, 26.29606161514704], [83.30443175599166, 26.29651004470221], [83.30592466795899, 26.29814461526751], [83.30503316549795, 26.298783976430453]]]}}]}