{"type": "FeatureCollection", "features": [{"type": "Feature", "properties": {"premiumdata.sde.IN_Village_PCA.area": 12.12995297, "objectid": 600969, "id": "101881115326951", "name": "Belsara", "subdistrict": "Raniganj", "district": "Araria", "state": "Bihar", "country": "India", "censusname": "Belsara", "villagename_locallang": "\u092c\u0947\u0932\u094d\u0938\u0930\u093e", "lgd_villagename": "Belsara", "lgd_villagecode": 221794, "lgd_subdistrictcode": 1115, "lgd_districtcode": 188, "lgd_statecode": 10, "censuscode2001": "00582400", "censuscode2011": "221794", "censuscode2021": null, "level": "Village", "tru": "Rural", "no_hh": 1629, "tot_p": 9124, "tot_m": 4849, "tot_f": 4275, "per_tot_m": 53.1455502, "per_tot_f": 46.8544498, "p_06": 1730, "m_06": 923, "f_06": 807, "per_p_06": 18.96098203, "per_m_06": 53.35260116, "per_f_06": 46.64739884, "p_sc": 2393, "m_sc": 1286, "f_sc": 1107, "per_p_sc": 26.22753178, "per_m_sc": 53.74007522, "per_f_sc": 46.25992478, "p_st": 97, "m_st": 52, "f_st": 45, "per_p_st": 1.06313021, "per_m_st": 53.60824742, "per_f_st": 46.39175258, "p_lit": 3636, "m_lit": 2472, "f_lit": 1164, "per_p_lit": 39.85094257, "per_m_lit": 67.98679868, "per_f_lit": 32.01320132, "p_ill": 5488, "m_ill": 2377, "f_ill": 3111, "per_p_ill": 60.14905743, "per_m_ill": 43.31268222000001, "per_f_ill": 56.68731778, "tot_work_p": 4894, "tot_work_m": 2589, "tot_work_f": 2305, "per_tot_work_p": 53.63875493, "per_tot_work_m": 52.90151206, "per_tot_work_f": 47.09848794, "mainwork_p": 1903, "mainwork_m": 1363, "mainwork_f": 540, "per_mainwork_p": 20.85708023, "per_mainwork_m": 71.62375197, "per_mainwork_f": 28.37624803, "main_cl_p": 335, "main_cl_m": 299, "main_cl_f": 36, "per_main_cl_p": 17.6037835, "per_main_cl_m": 89.25373134, "per_main_cl_f": 10.74626866, "main_al_p": 1045, "main_al_m": 842, "main_al_f": 203, "per_main_al_p": 54.9132948, "per_main_al_m": 80.57416268, "per_main_al_f": 19.42583732, "main_hh_p": 12, "main_hh_m": 10, "main_hh_f": 2, "per_main_hh_p": 0.63058329, "per_main_hh_m": 83.33333332999999, "per_main_hh_f": 16.66666667, "main_ot_p": 511, "main_ot_m": 212, "main_ot_f": 299, "per_main_ot_p": 26.85233841, "per_main_ot_m": 41.48727984, "per_main_ot_f": 58.51272016, "margwork_p": 2991, "margwork_m": 1226, "margwork_f": 1765, "per_margwork_p": 32.7816747, "per_margwork_m": 40.98963557, "per_margwork_f": 59.01036443, "marg_cl_p": 436, "marg_cl_m": 150, "marg_cl_f": 286, "per_marg_cl_p": 14.57706453, "per_marg_cl_m": 34.40366972, "per_marg_cl_f": 65.59633028, "marg_al_p": 2512, "marg_al_m": 1053, "marg_al_f": 1459, "per_marg_al_p": 83.9852892, "per_marg_al_m": 41.91878981, "per_marg_al_f": 58.08121019, "marg_hh_p": 19, "marg_hh_m": 8, "marg_hh_f": 11, "per_marg_hh_p": 0.63523905, "per_marg_hh_m": 42.10526316000001, "per_marg_hh_f": 57.89473684, "marg_ot_p": 24, "marg_ot_m": 15, "marg_ot_f": 9, "per_marg_ot_p": 0.80240722, "per_marg_ot_m": 62.5, "per_marg_ot_f": 37.5, "margwork_3_6_p": 2694, "margwork_3_6_m": 1138, "margwork_3_6_f": 1556, "per_margwork_3_6_p": 90.07021063, "per_margwork_3_6_m": 42.2420193, "per_margwork_3_6_f": 57.7579807, "marg_cl_3_6_p": 341, "marg_cl_3_6_m": 131, "marg_cl_3_6_f": 210, "per_marg_cl_3_6_p": 11.40086927, "per_marg_cl_3_6_m": 38.41642229, "per_marg_cl_3_6_f": 61.58357771, "marg_al_3_6_p": 2317, "marg_al_3_6_m": 986, "marg_al_3_6_f": 1331, "per_marg_al_3_6_p": 77.46573052, "per_marg_al_3_6_m": 42.55502805, "per_marg_al_3_6_f": 57.44497195, "marg_hh_3_6_p": 14, "marg_hh_3_6_m": 8, "marg_hh_3_6_f": 6, "per_marg_hh_3_6_p": 0.46807088, "per_marg_hh_3_6_m": 57.14285714, "per_marg_hh_3_6_f": 42.85714286, "marg_ot_3_6_p": 22, "marg_ot_3_6_m": 13, "marg_ot_3_6_f": 9, "per_marg_ot_3_6_p": 0.73553995, "per_marg_ot_3_6_m": 59.09090909, "per_marg_ot_3_6_f": 40.90909091, "margwork_0_3_p": 297, "margwork_0_3_m": 88, "margwork_0_3_f": 209, "per_margwork_0_3_p": 9.92978937, "per_margwork_0_3_m": 29.62962963, "per_margwork_0_3_f": 70.37037037, "marg_cl_0_3_p": 95, "marg_cl_0_3_m": 19, "marg_cl_0_3_f": 76, "per_marg_cl_0_3_p": 3.17619525, "per_marg_cl_0_3_m": 20.0, "per_marg_cl_0_3_f": 80.0, "marg_al_0_3_p": 195, "marg_al_0_3_m": 67, "marg_al_0_3_f": 128, "per_marg_al_0_3_p": 6.51955868, "per_marg_al_0_3_m": 34.35897436, "per_marg_al_0_3_f": 65.64102564000001, "marg_hh_0_3_p": 5, "marg_hh_0_3_m": 0, "marg_hh_0_3_f": 5, "per_marg_hh_0_3_p": 0.16716817, "per_marg_hh_0_3_m": 0.0, "per_marg_hh_0_3_f": 100.0, "marg_ot_0_3_p": 2, "marg_ot_0_3_m": 2, "marg_ot_0_3_f": 0, "per_marg_ot_0_3_p": 0.06686727, "per_marg_ot_0_3_m": 100.0, "per_marg_ot_0_3_f": 0.0, "non_work_p": 4230, "non_work_m": 2260, "non_work_f": 1970, "per_non_work_p": 46.36124507, "per_non_work_m": 53.42789598, "per_non_work_f": 46.57210402, "per_hc_tot_tot": 100, "per_hc_tot_god": 31.7, "per_hc_tot_liv": 67.8, "per_hc_tot_dil": 0.5, "per_hc_res_tot": 93.3, "per_hc_res_god": 26.6, "per_hc_res_liv": 66.1, "per_hc_res_dil": 0.5, "per_hc_oth_tot": 6.7, "per_hc_oth_god": 5.1, "per_hc_oth_liv": 1.6, "per_hc_oth_dil": 0.0, "per_mt_grsbam": 64.3, "per_mt_plastic": 0.5, "per_mt_h_tiles": 0.2, "per_mt_m_tiles": 0.2, "per_mt_b_brick": 0.7, "per_mt_stone": 0.5, "per_mt_asbstos": 31.5, "per_mt_concrte": 1.8, "per_mt_oth": 0.1, "per_mw_grsbam": 91.5, "per_mw_plastic": 0.4, "per_mw_mud": 0.6, "per_mw_wood": 0.0, "per_mw_no_mrtr": 0.0, "per_mw_st_mrtr": 0.0, "per_mw_asbstos": 0.0, "per_mw_b_brick": 7.3, "per_mw_concrte": 0.1, "per_mw_oth": 0.1, "per_mf_mud": 89.0, "per_mf_wood": 8.1, "per_mf_b_brick": 1.6, "per_mf_stone": 0.0, "per_mf_cement": 0.8, "per_mf_fl_tile": 0.0, "per_mf_oth": 0.4, "per_dw_n_exrm": 2.4, "per_dw_1_room": 45.1, "per_dw_2_room": 43.3, "per_dw_3_room": 7.6, "per_dw_4_room": 1.3, "per_dw_5_room": 0.2, "per_dw_6_room": 0.2, "per_hhsize_1": 1.0, "per_hhsize_2": 5.6, "per_hhsize_3": 9.4, "per_hhsize_4": 18.3, "per_hhsize_5": 20.9, "per_hhsize_6_8": 38.4, "per_hhsize_9p": 6.4, "per_ow_owned": 99.5, "per_ow_rented": 0.5, "per_ow_oth": 0.1, "per_mc_none": 5.4, "per_mcouple_1": 75.1, "per_mcouple_2": 15.9, "per_mcouple_3": 3.1, "per_mcouple_4": 0.4, "per_mcouple_5p": 0.0, "per_dw_t_ts": 0.5, "per_dw_t_unts": 0.1, "per_dw_c_well": 0.1, "per_dw_unc_wel": 0.2, "per_dw_hpump": 98.7, "per_dw_tw_bore": 0.3, "per_dw_spring": 0.0, "per_dw_rivcan": 0.0, "per_dw_tank": 0.1, "per_dw_oth": 0.0, "per_loc_dw_wp": 76.2, "per_loc_dw_np": 21.7, "per_loc_dw_aw": 2.1, "per_light_elec": 0.5, "per_light_kero": 98.9, "per_light_solr": 0.4, "per_light_oil": 0.0, "per_light_oth": 0.1, "per_light_no": 0.0, "per_hh_latrine": 2.1, "per_fl_sewer": 0.7, "per_fl_septict": 0.7, "per_fl_othsys": 0.4, "per_pl_wslab": 0.1, "per_pl_without": 0.1, "per_ns_open": 0.1, "per_sl_ns_hum": 0.0, "per_sl_ns_anml": 0.0, "per_hh_no_lat": 97.9, "per_as_pub": 0.0, "per_as_open": 97.9, "per_hh_bathrm": 4.9, "per_hh_en_wrf": 28.5, "per_hh_no_btrm": 66.6, "per_wwoc_drain": 6.4, "per_wwoc_open": 3.4, "per_wwoc_nodrn": 90.2, "per_cook_fire": 39.6, "per_cook_resdu": 52.9, "per_cook_cwdng": 6.9, "per_cook_coal": 0.0, "per_cook_kero": 0.1, "per_cook_lpng": 0.1, "per_cook_elec": 0.1, "per_cook_biogs": 0.1, "per_cook_oth": 0.1, "per_cook_no": 0.2, "per_kf_inside": 83.4, "per_kf_in_has": 63.5, "per_kf_in_does": 20.0, "per_kf_outside": 16.4, "per_kf_out_has": 14.3, "per_kf_out_dos": 2.1, "per_kf_no_cook": 0.2, "per_hh_banking": 24.3, "per_hh_radio": 29.0, "per_hh_tv": 2.8, "per_hh_cmp_int": 1.8, "per_hh_cmp_wnt": 4.1, "per_hh_ph_ll": 1.6, "per_hh_ph_mob": 32.6, "per_hh_ph_bth": 0.5, "per_hh_bcycl": 63.0, "per_hh_2wheel": 4.9, "per_hh_4wheel": 0.9, "per_hh_tvcomp": 0.3, "per_hh_no_ast": 25.5, "per_hs_perma": 5.4, "per_hs_sperma": 31.7, "per_hs_temp": 62.8, "per_hs_servc": 0.1, "per_hs_nservc": 62.7, "per_hs_unclss": 0.2, "avghhsz_cy": 5.6009822, "st_areashape": 15079720.69843526, "st_lengthshape": 22713.066066911244}, "geometry": {"type": "Polygon", "coordinates": [[[87.20877777574783, 25.993246189767664], [87.20903330512367, 25.994414977793596], [87.20984370588417, 25.99635962397978], [87.21063443623491, 25.998620316778336], [87.21100912443825, 26.00045919137818], [87.21117087329165, 26.001350518253133], [87.21143636678062, 26.002496635882707], [87.2121815309869, 26.003832145176773], [87.21245178285191, 26.00454056374609], [87.21387171299061, 26.006575056003985], [87.2152162349511, 26.007928211102673], [87.21690053388798, 26.009402965313917], [87.21698129692359, 26.010427369047694], [87.21666768068485, 26.011754505863976], [87.21610454210462, 26.01343827511834], [87.21610004783324, 26.013993318270064], [87.21535143229966, 26.01481975431455], [87.21441268564124, 26.015091126599664], [87.21352354215615, 26.01499688032561], [87.21309883665612, 26.01478504935226], [87.21145583417116, 26.015232804659508], [87.21077196201671, 26.015824446779256], [87.21013823292313, 26.01661007211572], [87.20990410141737, 26.01748129460787], [87.21032969175795, 26.018893677789123], [87.21062009822467, 26.019836705635747], [87.21089531507825, 26.020513568751166], [87.21268978609658, 26.022195870725838], [87.21382995570293, 26.023806377996323], [87.21242133176044, 26.0238387933903], [87.21023336541, 26.02378142792059], [87.20789057801366, 26.023683568971023], [87.20703142568266, 26.023693094374114], [87.20546785403172, 26.023567538198048], [87.2038095011352, 26.023586551889316], [87.20247554875233, 26.023239766668336], [87.2009868498837, 26.02295622385995], [87.19791450471251, 26.022420652701076], [87.19626615276002, 26.022412505164198], [87.19637051543647, 26.02164070975222], [87.19692933132355, 26.020534722981512], [87.1968591971544, 26.02018717718198], [87.19652936003656, 26.019916569047574], [87.19608475056481, 26.0198446168231], [87.19365754398962, 26.020473112132766], [87.19223914188522, 26.020843871380723], [87.19023612068553, 26.02082669698433], [87.18834799311232, 26.020656070935207], [87.18544555709057, 26.02007962728], [87.18398679996871, 26.01976875012897], [87.18384166635478, 26.019150514663067], [87.18284235707652, 26.01856419793325], [87.18216307261822, 26.018573496100913], [87.18106467467256, 26.01949463507192], [87.18062022420258, 26.019733990928575], [87.17949618564376, 26.019432057378836], [87.17923637130403, 26.019183887956235], [87.17900133878803, 26.018692031932442], [87.17768268291788, 26.01877830020669], [87.17666356938086, 26.018367973163798], [87.17638368577936, 26.01803864763659], [87.17663336442773, 26.01781288207712], [87.17737768242102, 26.017920917615182], [87.17831667701448, 26.017861908057494], [87.17896089124406, 26.017681153614543], [87.17986501233985, 26.017712358167753], [87.18027434137716, 26.017287992809337], [87.18018927541132, 26.0168051631667], [87.17920008385813, 26.016480524400475], [87.17873542129426, 26.016020343197013], [87.17850035374397, 26.015379624208393], [87.17846969873492, 26.01408880698269], [87.17820990325981, 26.01383169988881], [87.17782036680315, 26.01389496839123], [87.17755590188519, 26.014454700610422], [87.17727678005505, 26.01581330696146], [87.1769227189673, 26.017099644180234], [87.17651828395164, 26.01728030910309], [87.17614857510993, 26.01725791026498], [87.1757538975949, 26.017045977617528], [87.17547356573408, 26.01557026669592], [87.17459933787602, 26.015322290125134], [87.17305589208071, 26.01512427904041], [87.17151244179381, 26.01498032830732], [87.16996883879334, 26.014358001242822], [87.1668919140108, 26.014065602653844], [87.16296679903871, 26.013803261747448], [87.16227171141794, 26.01373281785994], [87.16219161583057, 26.013186742688525], [87.16307054457256, 26.012735215885147], [87.16356491891446, 26.012410157362698], [87.1650081100291, 26.01184110781532], [87.1661266230506, 26.01108257020441], [87.1664711116907, 26.010473210779708], [87.16724011269304, 26.0100035933498], [87.1699369746519, 26.0095469576007], [87.17170508999807, 26.00961407213091], [87.17332330976099, 26.009604518135927], [87.17460167978395, 26.009161796911346], [87.17585008200902, 26.00858374187474], [87.17677369385154, 26.00775294182178], [87.17700318466053, 26.007139086740516], [87.17714275860119, 26.006651614246376], [87.17703763056011, 26.006159754967157], [87.17622826825207, 26.005428864333314], [87.17462459490854, 26.0042695352381], [87.17359044087873, 26.00352521586425], [87.17166713707564, 26.002438149831537], [87.17081787609423, 26.00170731677722], [87.1696889515986, 26.00111647389655], [87.16997940567603, 26.000467949216073], [87.17069187569754, 25.99887752176854], [87.17172046376584, 25.99842134900761], [87.1736029067999, 25.997626466062734], [87.17607958269949, 25.99677710418075], [87.1781967132965, 25.996117451808225], [87.18150742283505, 25.99555658979703], [87.18528285871791, 25.99546024225001], [87.18595680898005, 25.9950898768155], [87.18608596605662, 25.993857716924563], [87.18734947524982, 25.993875240043423], [87.18722883869373, 25.99246723029764], [87.18683339581406, 25.99078844364033], [87.1869431061614, 25.990458935801886], [87.18852618023715, 25.990571142030284], [87.19043877163047, 25.990565775616293], [87.19395933929752, 25.99044228504443], [87.1945786091083, 25.99061800568757], [87.19437961430657, 25.991850183399624], [87.19461959025155, 25.992265245957494], [87.19524372443962, 25.99207990695317], [87.19653671274718, 25.9915287167892], [87.19805974073438, 25.99140611381971], [87.1995779609382, 25.991549763196872], [87.20166055490576, 25.991738146343543], [87.2015711842131, 25.992505493836028], [87.20135269507138, 25.994486872930803], [87.20112957331774, 25.996874434087793], [87.20150457413477, 25.997515111130014], [87.20198901580457, 25.997600588353304], [87.20499019104906, 25.997296638283007], [87.20486946376312, 25.99595174261773], [87.20462800200464, 25.993410997627116], [87.20475764686641, 25.99308147534099], [87.20501712523625, 25.992909830347575], [87.20679029630084, 25.99333759917425], [87.20877777574783, 25.993246189767664]]]}}]}