{"type": "FeatureCollection", "features": [{"type": "Feature", "properties": {"premiumdata.sde.IN_Village_PCA.area": 10.46789803, "objectid": 214017, "id": "234033536554326", "name": "Anjan Khedi", "subdistrict": "Kukshi", "district": "Dhar", "state": "Madhya Pradesh", "country": "India", "censusname": "Anjan Khedi", "villagename_locallang": null, "lgd_villagename": "Anjan Khedi", "lgd_villagecode": 475425, "lgd_subdistrictcode": 3536, "lgd_districtcode": 403, "lgd_statecode": 23, "censuscode2001": "03104300", "censuscode2011": "475425", "censuscode2021": null, "level": "Village", "tru": "Rural", "no_hh": 179, "tot_p": 926, "tot_m": 486, "tot_f": 440, "per_tot_m": 52.4838013, "per_tot_f": 47.5161987, "p_06": 146, "m_06": 89, "f_06": 57, "per_p_06": 15.76673866, "per_m_06": 60.95890411, "per_f_06": 39.04109589, "p_sc": 0, "m_sc": 0, "f_sc": 0, "per_p_sc": 0.0, "per_m_sc": 0.0, "per_f_sc": 0.0, "p_st": 859, "m_st": 447, "f_st": 412, "per_p_st": 92.76457883, "per_m_st": 52.03725262, "per_f_st": 47.96274738, "p_lit": 392, "m_lit": 239, "f_lit": 153, "per_p_lit": 42.33261339, "per_m_lit": 60.96938776, "per_f_lit": 39.03061224, "p_ill": 534, "m_ill": 247, "f_ill": 287, "per_p_ill": 57.66738661, "per_m_ill": 46.25468165, "per_f_ill": 53.74531835, "tot_work_p": 376, "tot_work_m": 234, "tot_work_f": 142, "per_tot_work_p": 40.60475162, "per_tot_work_m": 62.23404255000001, "per_tot_work_f": 37.76595745, "mainwork_p": 183, "mainwork_m": 149, "mainwork_f": 34, "per_mainwork_p": 19.76241901, "per_mainwork_m": 81.42076503, "per_mainwork_f": 18.57923497, "main_cl_p": 142, "main_cl_m": 132, "main_cl_f": 10, "per_main_cl_p": 77.59562842000001, "per_main_cl_m": 92.95774648, "per_main_cl_f": 7.04225352, "main_al_p": 15, "main_al_m": 8, "main_al_f": 7, "per_main_al_p": 8.19672131, "per_main_al_m": 53.33333333, "per_main_al_f": 46.66666667000001, "main_hh_p": 13, "main_hh_m": 2, "main_hh_f": 11, "per_main_hh_p": 7.10382514, "per_main_hh_m": 15.38461538, "per_main_hh_f": 84.61538462, "main_ot_p": 13, "main_ot_m": 7, "main_ot_f": 6, "per_main_ot_p": 7.10382514, "per_main_ot_m": 53.84615385, "per_main_ot_f": 46.15384615, "margwork_p": 193, "margwork_m": 85, "margwork_f": 108, "per_margwork_p": 20.84233261, "per_margwork_m": 44.04145078000001, "per_margwork_f": 55.95854922, "marg_cl_p": 5, "marg_cl_m": 2, "marg_cl_f": 3, "per_marg_cl_p": 2.59067358, "per_marg_cl_m": 40.0, "per_marg_cl_f": 60.0, "marg_al_p": 177, "marg_al_m": 75, "marg_al_f": 102, "per_marg_al_p": 91.70984456000001, "per_marg_al_m": 42.37288136, "per_marg_al_f": 57.62711864, "marg_hh_p": 7, "marg_hh_m": 5, "marg_hh_f": 2, "per_marg_hh_p": 3.62694301, "per_marg_hh_m": 71.42857143, "per_marg_hh_f": 28.57142857, "marg_ot_p": 4, "marg_ot_m": 3, "marg_ot_f": 1, "per_marg_ot_p": 2.07253886, "per_marg_ot_m": 75.0, "per_marg_ot_f": 25.0, "margwork_3_6_p": 141, "margwork_3_6_m": 59, "margwork_3_6_f": 82, "per_margwork_3_6_p": 73.05699482, "per_margwork_3_6_m": 41.84397163, "per_margwork_3_6_f": 58.15602837, "marg_cl_3_6_p": 5, "marg_cl_3_6_m": 2, "marg_cl_3_6_f": 3, "per_marg_cl_3_6_p": 2.59067358, "per_marg_cl_3_6_m": 40.0, "per_marg_cl_3_6_f": 60.0, "marg_al_3_6_p": 125, "marg_al_3_6_m": 49, "marg_al_3_6_f": 76, "per_marg_al_3_6_p": 64.76683938000001, "per_marg_al_3_6_m": 39.2, "per_marg_al_3_6_f": 60.8, "marg_hh_3_6_p": 7, "marg_hh_3_6_m": 5, "marg_hh_3_6_f": 2, "per_marg_hh_3_6_p": 3.62694301, "per_marg_hh_3_6_m": 71.42857143, "per_marg_hh_3_6_f": 28.57142857, "marg_ot_3_6_p": 4, "marg_ot_3_6_m": 3, "marg_ot_3_6_f": 1, "per_marg_ot_3_6_p": 2.07253886, "per_marg_ot_3_6_m": 75.0, "per_marg_ot_3_6_f": 25.0, "margwork_0_3_p": 52, "margwork_0_3_m": 26, "margwork_0_3_f": 26, "per_margwork_0_3_p": 26.94300518, "per_margwork_0_3_m": 50.0, "per_margwork_0_3_f": 50.0, "marg_cl_0_3_p": 0, "marg_cl_0_3_m": 0, "marg_cl_0_3_f": 0, "per_marg_cl_0_3_p": 0.0, "per_marg_cl_0_3_m": 0.0, "per_marg_cl_0_3_f": 0.0, "marg_al_0_3_p": 52, "marg_al_0_3_m": 26, "marg_al_0_3_f": 26, "per_marg_al_0_3_p": 26.94300518, "per_marg_al_0_3_m": 50.0, "per_marg_al_0_3_f": 50.0, "marg_hh_0_3_p": 0, "marg_hh_0_3_m": 0, "marg_hh_0_3_f": 0, "per_marg_hh_0_3_p": 0.0, "per_marg_hh_0_3_m": 0.0, "per_marg_hh_0_3_f": 0.0, "marg_ot_0_3_p": 0, "marg_ot_0_3_m": 0, "marg_ot_0_3_f": 0, "per_marg_ot_0_3_p": 0.0, "per_marg_ot_0_3_m": 0.0, "per_marg_ot_0_3_f": 0.0, "non_work_p": 550, "non_work_m": 252, "non_work_f": 298, "per_non_work_p": 59.39524838000001, "per_non_work_m": 45.81818182, "per_non_work_f": 54.18181818, "per_hc_tot_tot": 100, "per_hc_tot_god": 6.3, "per_hc_tot_liv": 74.7, "per_hc_tot_dil": 19.0, "per_hc_res_tot": 97.1, "per_hc_res_god": 6.3, "per_hc_res_liv": 73.0, "per_hc_res_dil": 17.8, "per_hc_oth_tot": 2.9, "per_hc_oth_god": 0.0, "per_hc_oth_liv": 1.7, "per_hc_oth_dil": 1.1, "per_mt_grsbam": 14.9, "per_mt_plastic": 4.0, "per_mt_h_tiles": 16.7, "per_mt_m_tiles": 54.6, "per_mt_b_brick": 0.0, "per_mt_stone": 0.0, "per_mt_asbstos": 1.1, "per_mt_concrte": 8.6, "per_mt_oth": 0.0, "per_mw_grsbam": 4.6, "per_mw_plastic": 0.0, "per_mw_mud": 76.4, "per_mw_wood": 0.0, "per_mw_no_mrtr": 3.4, "per_mw_st_mrtr": 3.4, "per_mw_asbstos": 0.0, "per_mw_b_brick": 11.5, "per_mw_concrte": 0.6, "per_mw_oth": 0.0, "per_mf_mud": 97.7, "per_mf_wood": 0.0, "per_mf_b_brick": 0.0, "per_mf_stone": 0.0, "per_mf_cement": 2.3, "per_mf_fl_tile": 0.0, "per_mf_oth": 0.0, "per_dw_n_exrm": 0.0, "per_dw_1_room": 26.4, "per_dw_2_room": 65.5, "per_dw_3_room": 5.2, "per_dw_4_room": 1.7, "per_dw_5_room": 0.0, "per_dw_6_room": 1.1, "per_hhsize_1": 1.7, "per_hhsize_2": 5.7, "per_hhsize_3": 8.0, "per_hhsize_4": 19.5, "per_hhsize_5": 21.8, "per_hhsize_6_8": 39.1, "per_hhsize_9p": 4.0, "per_ow_owned": 97.7, "per_ow_rented": 2.3, "per_ow_oth": 0.0, "per_mc_none": 9.2, "per_mcouple_1": 77.0, "per_mcouple_2": 12.6, "per_mcouple_3": 1.1, "per_mcouple_4": 0.0, "per_mcouple_5p": 0.0, "per_dw_t_ts": 0.0, "per_dw_t_unts": 0.0, "per_dw_c_well": 0.0, "per_dw_unc_wel": 53.4, "per_dw_hpump": 46.0, "per_dw_tw_bore": 0.6, "per_dw_spring": 0.0, "per_dw_rivcan": 0.0, "per_dw_tank": 0.0, "per_dw_oth": 0.0, "per_loc_dw_wp": 0.0, "per_loc_dw_np": 47.1, "per_loc_dw_aw": 52.9, "per_light_elec": 42.0, "per_light_kero": 57.5, "per_light_solr": 0.0, "per_light_oil": 0.0, "per_light_oth": 0.0, "per_light_no": 0.6, "per_hh_latrine": 1.1, "per_fl_sewer": 0.0, "per_fl_septict": 1.1, "per_fl_othsys": 0.0, "per_pl_wslab": 0.0, "per_pl_without": 0.0, "per_ns_open": 0.0, "per_sl_ns_hum": 0.0, "per_sl_ns_anml": 0.0, "per_hh_no_lat": 98.9, "per_as_pub": 0.0, "per_as_open": 98.9, "per_hh_bathrm": 1.7, "per_hh_en_wrf": 0.0, "per_hh_no_btrm": 98.3, "per_wwoc_drain": 0.0, "per_wwoc_open": 26.4, "per_wwoc_nodrn": 73.6, "per_cook_fire": 40.2, "per_cook_resdu": 59.8, "per_cook_cwdng": 0.0, "per_cook_coal": 0.0, "per_cook_kero": 0.0, "per_cook_lpng": 0.0, "per_cook_elec": 0.0, "per_cook_biogs": 0.0, "per_cook_oth": 0.0, "per_cook_no": 0.0, "per_kf_inside": 100.0, "per_kf_in_has": 1.7, "per_kf_in_does": 98.3, "per_kf_outside": 0.0, "per_kf_out_has": 0.0, "per_kf_out_dos": 0.0, "per_kf_no_cook": 0.0, "per_hh_banking": 13.2, "per_hh_radio": 2.3, "per_hh_tv": 1.7, "per_hh_cmp_int": 0.0, "per_hh_cmp_wnt": 0.6, "per_hh_ph_ll": 1.1, "per_hh_ph_mob": 20.7, "per_hh_ph_bth": 0.6, "per_hh_bcycl": 23.0, "per_hh_2wheel": 6.3, "per_hh_4wheel": 0.6, "per_hh_tvcomp": 0.0, "per_hh_no_ast": 64.4, "per_hs_perma": 15.5, "per_hs_sperma": 69.0, "per_hs_temp": 15.5, "per_hs_servc": 10.9, "per_hs_nservc": 4.6, "per_hs_unclss": 0.0, "avghhsz_cy": 5.17318436, "st_areashape": 12292370.97755732, "st_lengthshape": 15871.866567040866}, "geometry": {"type": "Polygon", "coordinates": [[[74.91265000022706, 22.336950000258067], [74.90797000037898, 22.332879998958557], [74.90633000096197, 22.33216999953904], [74.9045299999148, 22.3318699996695], [74.89461000035202, 22.3325499996662], [74.89388000060605, 22.33259999958398], [74.89104000019151, 22.33089999980233], [74.88589000088844, 22.32049000010473], [74.89086000026644, 22.316589999783925], [74.89738000044636, 22.312659999123294], [74.9023199996871, 22.313879999533206], [74.90816000034977, 22.315179999312946], [74.91411999976471, 22.315349999181752], [74.91423000026788, 22.31749999935657], [74.9195400003028, 22.321629999750765], [74.92699000024524, 22.325050000149364], [74.9327599996894, 22.326189999105075], [74.93451000050786, 22.326969999102868], [74.9350200010441, 22.327199999633326], [74.93496999991709, 22.33289000008319], [74.93584000120175, 22.3348200001367], [74.93823999960362, 22.340099999443705], [74.93784000046887, 22.340959999987902], [74.92948000085539, 22.347309999024112], [74.92800000037369, 22.34881999944293], [74.92033000032323, 22.342299999344977], [74.91541000027566, 22.339339999416833], [74.91265000022706, 22.336950000258067]]]}}]}