{"type": "FeatureCollection", "features": [{"type": "Feature", "properties": {"premiumdata.sde.IN_Village_PCA.area": 0.56035846, "objectid": 303312, "id": "9179999389209", "name": "Suwajag", "subdistrict": "Aurai", "district": "Bhadohi", "state": "Uttar Pradesh", "country": "India", "censusname": "Suwajag", "villagename_locallang": null, "lgd_villagename": "Suwajag", "lgd_villagecode": 210629, "lgd_subdistrictcode": 999, "lgd_districtcode": 179, "lgd_statecode": 9, "censuscode2001": "10318200", "censuscode2011": "210629", "censuscode2021": null, "level": "Village", "tru": "Rural", "no_hh": 70, "tot_p": 494, "tot_m": 246, "tot_f": 248, "per_tot_m": 49.79757085, "per_tot_f": 50.20242915, "p_06": 85, "m_06": 46, "f_06": 39, "per_p_06": 17.20647773, "per_m_06": 54.11764706, "per_f_06": 45.88235294, "p_sc": 50, "m_sc": 25, "f_sc": 25, "per_p_sc": 10.12145749, "per_m_sc": 50.0, "per_f_sc": 50.0, "p_st": 0, "m_st": 0, "f_st": 0, "per_p_st": 0.0, "per_m_st": 0.0, "per_f_st": 0.0, "p_lit": 292, "m_lit": 174, "f_lit": 118, "per_p_lit": 59.10931174, "per_m_lit": 59.5890411, "per_f_lit": 40.4109589, "p_ill": 202, "m_ill": 72, "f_ill": 130, "per_p_ill": 40.89068826, "per_m_ill": 35.64356436000001, "per_f_ill": 64.35643563999999, "tot_work_p": 218, "tot_work_m": 108, "tot_work_f": 110, "per_tot_work_p": 44.12955466, "per_tot_work_m": 49.5412844, "per_tot_work_f": 50.4587156, "mainwork_p": 53, "mainwork_m": 35, "mainwork_f": 18, "per_mainwork_p": 10.72874494, "per_mainwork_m": 66.03773585, "per_mainwork_f": 33.96226415, "main_cl_p": 44, "main_cl_m": 27, "main_cl_f": 17, "per_main_cl_p": 83.01886792, "per_main_cl_m": 61.36363636, "per_main_cl_f": 38.63636364, "main_al_p": 0, "main_al_m": 0, "main_al_f": 0, "per_main_al_p": 0.0, "per_main_al_m": 0.0, "per_main_al_f": 0.0, "main_hh_p": 1, "main_hh_m": 0, "main_hh_f": 1, "per_main_hh_p": 1.88679245, "per_main_hh_m": 0.0, "per_main_hh_f": 100.0, "main_ot_p": 8, "main_ot_m": 8, "main_ot_f": 0, "per_main_ot_p": 15.09433962, "per_main_ot_m": 100.0, "per_main_ot_f": 0.0, "margwork_p": 165, "margwork_m": 73, "margwork_f": 92, "per_margwork_p": 33.40080972, "per_margwork_m": 44.24242424000001, "per_margwork_f": 55.75757576, "marg_cl_p": 137, "marg_cl_m": 55, "marg_cl_f": 82, "per_marg_cl_p": 83.03030303, "per_marg_cl_m": 40.1459854, "per_marg_cl_f": 59.8540146, "marg_al_p": 5, "marg_al_m": 0, "marg_al_f": 5, "per_marg_al_p": 3.03030303, "per_marg_al_m": 0.0, "per_marg_al_f": 100.0, "marg_hh_p": 0, "marg_hh_m": 0, "marg_hh_f": 0, "per_marg_hh_p": 0.0, "per_marg_hh_m": 0.0, "per_marg_hh_f": 0.0, "marg_ot_p": 23, "marg_ot_m": 18, "marg_ot_f": 5, "per_marg_ot_p": 13.93939394, "per_marg_ot_m": 78.26086957, "per_marg_ot_f": 21.73913043, "margwork_3_6_p": 48, "margwork_3_6_m": 38, "margwork_3_6_f": 10, "per_margwork_3_6_p": 29.09090909, "per_margwork_3_6_m": 79.16666667, "per_margwork_3_6_f": 20.83333333, "marg_cl_3_6_p": 33, "marg_cl_3_6_m": 24, "marg_cl_3_6_f": 9, "per_marg_cl_3_6_p": 20.0, "per_marg_cl_3_6_m": 72.72727273, "per_marg_cl_3_6_f": 27.27272727, "marg_al_3_6_p": 0, "marg_al_3_6_m": 0, "marg_al_3_6_f": 0, "per_marg_al_3_6_p": 0.0, "per_marg_al_3_6_m": 0.0, "per_marg_al_3_6_f": 0.0, "marg_hh_3_6_p": 0, "marg_hh_3_6_m": 0, "marg_hh_3_6_f": 0, "per_marg_hh_3_6_p": 0.0, "per_marg_hh_3_6_m": 0.0, "per_marg_hh_3_6_f": 0.0, "marg_ot_3_6_p": 15, "marg_ot_3_6_m": 14, "marg_ot_3_6_f": 1, "per_marg_ot_3_6_p": 9.09090909, "per_marg_ot_3_6_m": 93.33333332999999, "per_marg_ot_3_6_f": 6.66666667, "margwork_0_3_p": 117, "margwork_0_3_m": 35, "margwork_0_3_f": 82, "per_margwork_0_3_p": 70.90909091, "per_margwork_0_3_m": 29.91452991, "per_margwork_0_3_f": 70.08547009, "marg_cl_0_3_p": 104, "marg_cl_0_3_m": 31, "marg_cl_0_3_f": 73, "per_marg_cl_0_3_p": 63.03030303, "per_marg_cl_0_3_m": 29.80769231, "per_marg_cl_0_3_f": 70.19230769, "marg_al_0_3_p": 5, "marg_al_0_3_m": 0, "marg_al_0_3_f": 5, "per_marg_al_0_3_p": 3.03030303, "per_marg_al_0_3_m": 0.0, "per_marg_al_0_3_f": 100.0, "marg_hh_0_3_p": 0, "marg_hh_0_3_m": 0, "marg_hh_0_3_f": 0, "per_marg_hh_0_3_p": 0.0, "per_marg_hh_0_3_m": 0.0, "per_marg_hh_0_3_f": 0.0, "marg_ot_0_3_p": 8, "marg_ot_0_3_m": 4, "marg_ot_0_3_f": 4, "per_marg_ot_0_3_p": 4.84848485, "per_marg_ot_0_3_m": 50.0, "per_marg_ot_0_3_f": 50.0, "non_work_p": 276, "non_work_m": 138, "non_work_f": 138, "per_non_work_p": 55.87044534, "per_non_work_m": 50.0, "per_non_work_f": 50.0, "per_hc_tot_tot": 100, "per_hc_tot_god": 7.3, "per_hc_tot_liv": 92.7, "per_hc_tot_dil": 0.0, "per_hc_res_tot": 100.0, "per_hc_res_god": 7.3, "per_hc_res_liv": 92.7, "per_hc_res_dil": 0.0, "per_hc_oth_tot": 0.0, "per_hc_oth_god": 0.0, "per_hc_oth_liv": 0.0, "per_hc_oth_dil": 0.0, "per_mt_grsbam": 7.3, "per_mt_plastic": 0.0, "per_mt_h_tiles": 3.6, "per_mt_m_tiles": 0.0, "per_mt_b_brick": 0.0, "per_mt_stone": 78.2, "per_mt_asbstos": 7.3, "per_mt_concrte": 0.0, "per_mt_oth": 3.6, "per_mw_grsbam": 7.3, "per_mw_plastic": 0.0, "per_mw_mud": 3.6, "per_mw_wood": 0.0, "per_mw_no_mrtr": 0.0, "per_mw_st_mrtr": 0.0, "per_mw_asbstos": 0.0, "per_mw_b_brick": 87.3, "per_mw_concrte": 0.0, "per_mw_oth": 1.8, "per_mf_mud": 80.0, "per_mf_wood": 0.0, "per_mf_b_brick": 1.8, "per_mf_stone": 0.0, "per_mf_cement": 18.2, "per_mf_fl_tile": 0.0, "per_mf_oth": 0.0, "per_dw_n_exrm": 9.1, "per_dw_1_room": 27.3, "per_dw_2_room": 27.3, "per_dw_3_room": 9.1, "per_dw_4_room": 10.9, "per_dw_5_room": 3.6, "per_dw_6_room": 12.7, "per_hhsize_1": 3.6, "per_hhsize_2": 1.8, "per_hhsize_3": 3.6, "per_hhsize_4": 9.1, "per_hhsize_5": 7.3, "per_hhsize_6_8": 40.0, "per_hhsize_9p": 34.5, "per_ow_owned": 100.0, "per_ow_rented": 0.0, "per_ow_oth": 0.0, "per_mc_none": 7.3, "per_mcouple_1": 14.5, "per_mcouple_2": 41.8, "per_mcouple_3": 18.2, "per_mcouple_4": 12.7, "per_mcouple_5p": 5.5, "per_dw_t_ts": 0.0, "per_dw_t_unts": 0.0, "per_dw_c_well": 5.5, "per_dw_unc_wel": 61.8, "per_dw_hpump": 27.3, "per_dw_tw_bore": 3.6, "per_dw_spring": 1.8, "per_dw_rivcan": 0.0, "per_dw_tank": 0.0, "per_dw_oth": 0.0, "per_loc_dw_wp": 69.1, "per_loc_dw_np": 14.5, "per_loc_dw_aw": 16.4, "per_light_elec": 69.1, "per_light_kero": 30.9, "per_light_solr": 0.0, "per_light_oil": 0.0, "per_light_oth": 0.0, "per_light_no": 0.0, "per_hh_latrine": 0.0, "per_fl_sewer": 0.0, "per_fl_septict": 0.0, "per_fl_othsys": 0.0, "per_pl_wslab": 0.0, "per_pl_without": 0.0, "per_ns_open": 0.0, "per_sl_ns_hum": 0.0, "per_sl_ns_anml": 0.0, "per_hh_no_lat": 100.0, "per_as_pub": 0.0, "per_as_open": 100.0, "per_hh_bathrm": 1.8, "per_hh_en_wrf": 1.8, "per_hh_no_btrm": 96.4, "per_wwoc_drain": 0.0, "per_wwoc_open": 0.0, "per_wwoc_nodrn": 100.0, "per_cook_fire": 0.0, "per_cook_resdu": 0.0, "per_cook_cwdng": 94.5, "per_cook_coal": 0.0, "per_cook_kero": 0.0, "per_cook_lpng": 1.8, "per_cook_elec": 1.8, "per_cook_biogs": 0.0, "per_cook_oth": 0.0, "per_cook_no": 1.8, "per_kf_inside": 60.0, "per_kf_in_has": 29.1, "per_kf_in_does": 30.9, "per_kf_outside": 38.2, "per_kf_out_has": 25.5, "per_kf_out_dos": 12.7, "per_kf_no_cook": 1.8, "per_hh_banking": 83.6, "per_hh_radio": 18.2, "per_hh_tv": 40.0, "per_hh_cmp_int": 1.8, "per_hh_cmp_wnt": 3.6, "per_hh_ph_ll": 3.6, "per_hh_ph_mob": 78.2, "per_hh_ph_bth": 7.3, "per_hh_bcycl": 87.3, "per_hh_2wheel": 27.3, "per_hh_4wheel": 7.3, "per_hh_tvcomp": 3.6, "per_hh_no_ast": 1.8, "per_hs_perma": 87.3, "per_hs_sperma": 1.8, "per_hs_temp": 5.5, "per_hs_servc": 1.8, "per_hs_nservc": 3.6, "per_hs_unclss": 5.5, "avghhsz_cy": 7.05714286, "st_areashape": 689153.74771305, "st_lengthshape": 3484.007248021397}, "geometry": {"type": "Polygon", "coordinates": [[[82.59731956711022, 25.361155916324392], [82.59741459179929, 25.36037129147578], [82.5973374148383, 25.35899972401237], [82.59718879576103, 25.35841085002999], [82.59816852266442, 25.357819340630627], [82.6010358507282, 25.35613617495118], [82.60299793300548, 25.355208300788743], [82.60428107937081, 25.354795478658712], [82.60594195473668, 25.35455370813909], [82.60624363236526, 25.35456392770349], [82.60692361750947, 25.354586968600795], [82.60718803571504, 25.354689564387485], [82.6074902972486, 25.354860702210438], [82.60756614470297, 25.35513495230505], [82.60760442910376, 25.35554640705264], [82.6076802927278, 25.355820657215478], [82.60798295490997, 25.35630041471045], [82.60828526585085, 25.356505841138112], [82.6085875166046, 25.35667697639021], [82.60873920522515, 25.35719118353116], [82.60881507154416, 25.357465432398342], [82.60887565123198, 25.35751247746003], [82.60835332581004, 25.358010165749256], [82.60790097555547, 25.358559303681957], [82.60729755202628, 25.359074308077613], [82.60703330090736, 25.359108878279564], [82.6063538772102, 25.359246757170233], [82.60575022730558, 25.359590300616073], [82.60499593891096, 25.360242618268167], [82.60427882100616, 25.360449110313155], [82.60386351368065, 25.360449540538365], [82.60348585924028, 25.360381349010932], [82.6031082227662, 25.3603131566333], [82.60269298461094, 25.36038216562756], [82.60242908922487, 25.36069105655615], [82.60236313042513, 25.360911672968644], [82.60148544045994, 25.360897769440868], [82.60080583350644, 25.360898461857353], [82.60008863834653, 25.361036354129954], [82.59861667958326, 25.36148362138128], [82.5982014108853, 25.361518329701436], [82.59789918708098, 25.361381468076026], [82.59731956711022, 25.361155916324392]]]}}]}