{"type": "FeatureCollection", "features": [{"type": "Feature", "properties": {"premiumdata.sde.IN_Village_PCA.area": 3.44761183, "objectid": 411204, "id": "9132716442640", "name": "Takhatpur", "subdistrict": "Chandpur", "district": "Bijnor", "state": "Uttar Pradesh", "country": "India", "censusname": "Takhatpur", "villagename_locallang": null, "lgd_villagename": "Takhatpur", "lgd_villagecode": 114145, "lgd_subdistrictcode": 716, "lgd_districtcode": 132, "lgd_statecode": 9, "censuscode2001": "00528200", "censuscode2011": "114145", "censuscode2021": null, "level": "Village", "tru": "Rural", "no_hh": 121, "tot_p": 675, "tot_m": 366, "tot_f": 309, "per_tot_m": 54.22222222, "per_tot_f": 45.77777778, "p_06": 90, "m_06": 50, "f_06": 40, "per_p_06": 13.33333333, "per_m_06": 55.55555556, "per_f_06": 44.44444444000001, "p_sc": 36, "m_sc": 21, "f_sc": 15, "per_p_sc": 5.33333333, "per_m_sc": 58.33333333, "per_f_sc": 41.66666667000001, "p_st": 0, "m_st": 0, "f_st": 0, "per_p_st": 0.0, "per_m_st": 0.0, "per_f_st": 0.0, "p_lit": 398, "m_lit": 250, "f_lit": 148, "per_p_lit": 58.96296296, "per_m_lit": 62.81407035, "per_f_lit": 37.18592965, "p_ill": 277, "m_ill": 116, "f_ill": 161, "per_p_ill": 41.03703704, "per_m_ill": 41.87725632, "per_f_ill": 58.12274368, "tot_work_p": 325, "tot_work_m": 173, "tot_work_f": 152, "per_tot_work_p": 48.14814815, "per_tot_work_m": 53.23076923, "per_tot_work_f": 46.76923077, "mainwork_p": 295, "mainwork_m": 156, "mainwork_f": 139, "per_mainwork_p": 43.7037037, "per_mainwork_m": 52.88135593000001, "per_mainwork_f": 47.11864407, "main_cl_p": 280, "main_cl_m": 144, "main_cl_f": 136, "per_main_cl_p": 94.91525424, "per_main_cl_m": 51.42857143, "per_main_cl_f": 48.57142857, "main_al_p": 1, "main_al_m": 1, "main_al_f": 0, "per_main_al_p": 0.33898305, "per_main_al_m": 100.0, "per_main_al_f": 0.0, "main_hh_p": 0, "main_hh_m": 0, "main_hh_f": 0, "per_main_hh_p": 0.0, "per_main_hh_m": 0.0, "per_main_hh_f": 0.0, "main_ot_p": 14, "main_ot_m": 11, "main_ot_f": 3, "per_main_ot_p": 4.74576271, "per_main_ot_m": 78.57142857, "per_main_ot_f": 21.42857143, "margwork_p": 30, "margwork_m": 17, "margwork_f": 13, "per_margwork_p": 4.44444444, "per_margwork_m": 56.66666667000001, "per_margwork_f": 43.33333333, "marg_cl_p": 4, "marg_cl_m": 3, "marg_cl_f": 1, "per_marg_cl_p": 13.33333333, "per_marg_cl_m": 75.0, "per_marg_cl_f": 25.0, "marg_al_p": 21, "marg_al_m": 12, "marg_al_f": 9, "per_marg_al_p": 70.0, "per_marg_al_m": 57.14285714, "per_marg_al_f": 42.85714286, "marg_hh_p": 0, "marg_hh_m": 0, "marg_hh_f": 0, "per_marg_hh_p": 0.0, "per_marg_hh_m": 0.0, "per_marg_hh_f": 0.0, "marg_ot_p": 5, "marg_ot_m": 2, "marg_ot_f": 3, "per_marg_ot_p": 16.66666667, "per_marg_ot_m": 40.0, "per_marg_ot_f": 60.0, "margwork_3_6_p": 30, "margwork_3_6_m": 17, "margwork_3_6_f": 13, "per_margwork_3_6_p": 100.0, "per_margwork_3_6_m": 56.66666667000001, "per_margwork_3_6_f": 43.33333333, "marg_cl_3_6_p": 4, "marg_cl_3_6_m": 3, "marg_cl_3_6_f": 1, "per_marg_cl_3_6_p": 13.33333333, "per_marg_cl_3_6_m": 75.0, "per_marg_cl_3_6_f": 25.0, "marg_al_3_6_p": 21, "marg_al_3_6_m": 12, "marg_al_3_6_f": 9, "per_marg_al_3_6_p": 70.0, "per_marg_al_3_6_m": 57.14285714, "per_marg_al_3_6_f": 42.85714286, "marg_hh_3_6_p": 0, "marg_hh_3_6_m": 0, "marg_hh_3_6_f": 0, "per_marg_hh_3_6_p": 0.0, "per_marg_hh_3_6_m": 0.0, "per_marg_hh_3_6_f": 0.0, "marg_ot_3_6_p": 5, "marg_ot_3_6_m": 2, "marg_ot_3_6_f": 3, "per_marg_ot_3_6_p": 16.66666667, "per_marg_ot_3_6_m": 40.0, "per_marg_ot_3_6_f": 60.0, "margwork_0_3_p": 0, "margwork_0_3_m": 0, "margwork_0_3_f": 0, "per_margwork_0_3_p": 0.0, "per_margwork_0_3_m": 0.0, "per_margwork_0_3_f": 0.0, "marg_cl_0_3_p": 0, "marg_cl_0_3_m": 0, "marg_cl_0_3_f": 0, "per_marg_cl_0_3_p": 0.0, "per_marg_cl_0_3_m": 0.0, "per_marg_cl_0_3_f": 0.0, "marg_al_0_3_p": 0, "marg_al_0_3_m": 0, "marg_al_0_3_f": 0, "per_marg_al_0_3_p": 0.0, "per_marg_al_0_3_m": 0.0, "per_marg_al_0_3_f": 0.0, "marg_hh_0_3_p": 0, "marg_hh_0_3_m": 0, "marg_hh_0_3_f": 0, "per_marg_hh_0_3_p": 0.0, "per_marg_hh_0_3_m": 0.0, "per_marg_hh_0_3_f": 0.0, "marg_ot_0_3_p": 0, "marg_ot_0_3_m": 0, "marg_ot_0_3_f": 0, "per_marg_ot_0_3_p": 0.0, "per_marg_ot_0_3_m": 0.0, "per_marg_ot_0_3_f": 0.0, "non_work_p": 350, "non_work_m": 193, "non_work_f": 157, "per_non_work_p": 51.85185185, "per_non_work_m": 55.14285714, "per_non_work_f": 44.85714286, "per_hc_tot_tot": 100, "per_hc_tot_god": 35.5, "per_hc_tot_liv": 48.8, "per_hc_tot_dil": 15.7, "per_hc_res_tot": 87.6, "per_hc_res_god": 33.1, "per_hc_res_liv": 38.8, "per_hc_res_dil": 15.7, "per_hc_oth_tot": 12.4, "per_hc_oth_god": 2.5, "per_hc_oth_liv": 9.9, "per_hc_oth_dil": 0.0, "per_mt_grsbam": 24.8, "per_mt_plastic": 0.8, "per_mt_h_tiles": 0.0, "per_mt_m_tiles": 0.0, "per_mt_b_brick": 70.2, "per_mt_stone": 0.0, "per_mt_asbstos": 3.3, "per_mt_concrte": 0.0, "per_mt_oth": 0.8, "per_mw_grsbam": 5.8, "per_mw_plastic": 0.0, "per_mw_mud": 8.3, "per_mw_wood": 0.0, "per_mw_no_mrtr": 0.0, "per_mw_st_mrtr": 0.0, "per_mw_asbstos": 0.0, "per_mw_b_brick": 86.0, "per_mw_concrte": 0.0, "per_mw_oth": 0.0, "per_mf_mud": 90.9, "per_mf_wood": 0.0, "per_mf_b_brick": 0.0, "per_mf_stone": 0.0, "per_mf_cement": 9.1, "per_mf_fl_tile": 0.0, "per_mf_oth": 0.0, "per_dw_n_exrm": 0.0, "per_dw_1_room": 50.4, "per_dw_2_room": 32.2, "per_dw_3_room": 10.7, "per_dw_4_room": 5.0, "per_dw_5_room": 1.7, "per_dw_6_room": 0.0, "per_hhsize_1": 2.5, "per_hhsize_2": 6.6, "per_hhsize_3": 9.1, "per_hhsize_4": 16.5, "per_hhsize_5": 21.5, "per_hhsize_6_8": 32.2, "per_hhsize_9p": 11.6, "per_ow_owned": 99.2, "per_ow_rented": 0.0, "per_ow_oth": 0.8, "per_mc_none": 13.2, "per_mcouple_1": 66.1, "per_mcouple_2": 15.7, "per_mcouple_3": 3.3, "per_mcouple_4": 1.7, "per_mcouple_5p": 0.0, "per_dw_t_ts": 0.8, "per_dw_t_unts": 0.0, "per_dw_c_well": 0.8, "per_dw_unc_wel": 0.0, "per_dw_hpump": 98.3, "per_dw_tw_bore": 0.0, "per_dw_spring": 0.0, "per_dw_rivcan": 0.0, "per_dw_tank": 0.0, "per_dw_oth": 0.0, "per_loc_dw_wp": 79.3, "per_loc_dw_np": 11.6, "per_loc_dw_aw": 9.1, "per_light_elec": 14.9, "per_light_kero": 85.1, "per_light_solr": 0.0, "per_light_oil": 0.0, "per_light_oth": 0.0, "per_light_no": 0.0, "per_hh_latrine": 9.9, "per_fl_sewer": 0.0, "per_fl_septict": 0.0, "per_fl_othsys": 4.1, "per_pl_wslab": 5.0, "per_pl_without": 0.8, "per_ns_open": 0.0, "per_sl_ns_hum": 0.0, "per_sl_ns_anml": 0.0, "per_hh_no_lat": 90.1, "per_as_pub": 0.0, "per_as_open": 90.1, "per_hh_bathrm": 19.0, "per_hh_en_wrf": 21.5, "per_hh_no_btrm": 59.5, "per_wwoc_drain": 2.5, "per_wwoc_open": 2.5, "per_wwoc_nodrn": 95.0, "per_cook_fire": 87.6, "per_cook_resdu": 7.4, "per_cook_cwdng": 1.7, "per_cook_coal": 0.0, "per_cook_kero": 0.0, "per_cook_lpng": 3.3, "per_cook_elec": 0.0, "per_cook_biogs": 0.0, "per_cook_oth": 0.0, "per_cook_no": 0.0, "per_kf_inside": 97.5, "per_kf_in_has": 47.9, "per_kf_in_does": 49.6, "per_kf_outside": 2.5, "per_kf_out_has": 0.8, "per_kf_out_dos": 1.7, "per_kf_no_cook": 0.0, "per_hh_banking": 89.3, "per_hh_radio": 20.7, "per_hh_tv": 18.2, "per_hh_cmp_int": 0.0, "per_hh_cmp_wnt": 5.8, "per_hh_ph_ll": 4.1, "per_hh_ph_mob": 51.2, "per_hh_ph_bth": 1.7, "per_hh_bcycl": 42.1, "per_hh_2wheel": 9.1, "per_hh_4wheel": 3.3, "per_hh_tvcomp": 1.7, "per_hh_no_ast": 23.1, "per_hs_perma": 73.6, "per_hs_sperma": 11.6, "per_hs_temp": 14.0, "per_hs_servc": 8.3, "per_hs_nservc": 5.8, "per_hs_unclss": 0.8, "avghhsz_cy": 5.5785124, "st_areashape": 4534281.22215342, "st_lengthshape": 9900.433196825992}, "geometry": {"type": "Polygon", "coordinates": [[[78.14032595202643, 29.137917170432925], [78.14030952992472, 29.1376628805523], [78.14014320505322, 29.1360814314266], [78.14002975591765, 29.13575227198879], [78.13969703520779, 29.135499320861182], [78.13911298654267, 29.135348956298365], [78.13864509094209, 29.135446252471414], [78.13713917496275, 29.135707021203043], [78.13751425303491, 29.13495604356792], [78.13774928016097, 29.13439071208973], [78.13830782924845, 29.133398234868146], [78.13892822824154, 29.1324072766129], [78.139668141795, 29.131555236885166], [78.14054840633177, 29.130189917647268], [78.14161091748018, 29.128937843470037], [78.14235773907814, 29.127868364938344], [78.1430539549829, 29.126444107353915], [78.14339478298822, 29.125473390849887], [78.14375622912596, 29.124829628071478], [78.14376586715063, 29.124797388858298], [78.14472959416047, 29.12486532010098], [78.14594699642339, 29.12495955632196], [78.14721659619421, 29.124947931293306], [78.1478798753691, 29.12481426848072], [78.14920508085604, 29.124589753581414], [78.15046256774356, 29.124192187824228], [78.15292872347283, 29.123395800816212], [78.15351883486782, 29.12326031930032], [78.15415361768524, 29.12325448785626], [78.15473895543279, 29.123268858900715], [78.15488732657502, 29.123208231018708], [78.15505002764264, 29.12269804995438], [78.155226877176, 29.12250956621862], [78.15532512052873, 29.12249055875694], [78.15611766817129, 29.122895647411898], [78.15643268308692, 29.12296764804319], [78.15702004653545, 29.122917791437054], [78.15820366046557, 29.12253976108788], [78.15850039736013, 29.122418499719934], [78.15870641698739, 29.122080768611713], [78.15898557115688, 29.121744831133803], [78.15955264076482, 29.121565912641756], [78.15987241944639, 29.121488065359177], [78.15999707686174, 29.12140541842762], [78.16005879291839, 29.120999876588236], [78.16015907634514, 29.120916632059448], [78.16077354196577, 29.120781738205345], [78.1611719169465, 29.120534408411256], [78.16211093579449, 29.12017178766098], [78.16258043488781, 29.119990467389233], [78.1629571353174, 29.11965691271769], [78.16345170189872, 29.119454785597387], [78.164562230694, 29.1189570513343], [78.16502560237879, 29.11896840079817], [78.1658486846562, 29.119181385474896], [78.16605421290498, 29.119263925109664], [78.16664396407555, 29.119500792210577], [78.1672366850764, 29.12005091510141], [78.16825607888781, 29.121768371489285], [78.16874656532113, 29.122270241137443], [78.16820030069516, 29.122870402055998], [78.16782088555682, 29.123289602075133], [78.16733165586658, 29.12409173184225], [78.16679299098793, 29.124914095970524], [78.16605373679789, 29.125902920584963], [78.16545208474645, 29.12640235860697], [78.16488228246341, 29.126666914578465], [78.1647250710005, 29.127005843797896], [78.16396345684473, 29.127929839128996], [78.16274162229419, 29.130277946783405], [78.16176591086015, 29.13102529096997], [78.16138779738064, 29.13140165092073], [78.16056046517363, 29.132088355661118], [78.16013628518807, 29.132377881087212], [78.1595223244206, 29.13326262999892], [78.15851673232524, 29.134180606452553], [78.15792521776183, 29.1343589027299], [78.15724023528968, 29.134406367636256], [78.15562757969163, 29.135223745963362], [78.15495810663289, 29.135550087840056], [78.1547866928053, 29.135567297604815], [78.15457058419908, 29.135454874232902], [78.15428129793153, 29.13534065466659], [78.15384090066009, 29.135372692841283], [78.15248628702571, 29.1365177157878], [78.14984007567587, 29.138359398422914], [78.14941791779796, 29.138584676512764], [78.14915165714774, 29.138513865330566], [78.14864830953452, 29.13822299035904], [78.14838204978258, 29.138152177358354], [78.1479179315978, 29.138162185337197], [78.1467328049047, 29.1385829346374], [78.14658373038165, 29.138664968306124], [78.14632957003829, 29.13898007126616], [78.14622106792501, 29.139320172919255], [78.14621355441598, 29.139555640347755], [78.14603803618586, 29.139701291036435], [78.14586661607011, 29.139718493044548], [78.14519320030556, 29.139402008274754], [78.14412292142494, 29.138518734738625], [78.14304171903044, 29.137977970107304], [78.14228033484338, 29.13735937050286], [78.14184608115019, 29.137198726750317], [78.14138401741245, 29.13714450032536], [78.14121121568778, 29.137204513463818], [78.14032595202643, 29.137917170432925]]]}}]}