{"type": "FeatureCollection", "features": [{"type": "Feature", "properties": {"premiumdata.sde.IN_Village_PCA.area": 3.39896897, "objectid": 68691, "id": "274863955610981", "name": "Khokarwada", "subdistrict": "Nawapur", "district": "Nandurbar", "state": "Maharashtra", "country": "India", "censusname": "Khokarwada", "villagename_locallang": "\u0916\u094b\u0915\u093e\u0930\u0935\u093e\u0921\u093e", "lgd_villagename": "Khokarwada", "lgd_villagecode": 525790, "lgd_subdistrictcode": 3955, "lgd_districtcode": 486, "lgd_statecode": 27, "censuscode2001": "00078800", "censuscode2011": "525790", "censuscode2021": null, "level": "Village", "tru": "Rural", "no_hh": 182, "tot_p": 672, "tot_m": 333, "tot_f": 339, "per_tot_m": 49.55357143, "per_tot_f": 50.44642857, "p_06": 57, "m_06": 26, "f_06": 31, "per_p_06": 8.48214286, "per_m_06": 45.61403509, "per_f_06": 54.38596491, "p_sc": 0, "m_sc": 0, "f_sc": 0, "per_p_sc": 0.0, "per_m_sc": 0.0, "per_f_sc": 0.0, "p_st": 669, "m_st": 331, "f_st": 338, "per_p_st": 99.55357143, "per_m_st": 49.47683109, "per_f_st": 50.52316891, "p_lit": 385, "m_lit": 212, "f_lit": 173, "per_p_lit": 57.29166667000001, "per_m_lit": 55.06493506, "per_f_lit": 44.93506494, "p_ill": 287, "m_ill": 121, "f_ill": 166, "per_p_ill": 42.70833333, "per_m_ill": 42.16027875, "per_f_ill": 57.83972125, "tot_work_p": 511, "tot_work_m": 264, "tot_work_f": 247, "per_tot_work_p": 76.04166667, "per_tot_work_m": 51.66340509, "per_tot_work_f": 48.33659491, "mainwork_p": 337, "mainwork_m": 213, "mainwork_f": 124, "per_mainwork_p": 50.14880952, "per_mainwork_m": 63.20474777, "per_mainwork_f": 36.79525223, "main_cl_p": 201, "main_cl_m": 127, "main_cl_f": 74, "per_main_cl_p": 59.64391691, "per_main_cl_m": 63.1840796, "per_main_cl_f": 36.8159204, "main_al_p": 119, "main_al_m": 76, "main_al_f": 43, "per_main_al_p": 35.3115727, "per_main_al_m": 63.86554622, "per_main_al_f": 36.13445378, "main_hh_p": 0, "main_hh_m": 0, "main_hh_f": 0, "per_main_hh_p": 0.0, "per_main_hh_m": 0.0, "per_main_hh_f": 0.0, "main_ot_p": 17, "main_ot_m": 10, "main_ot_f": 7, "per_main_ot_p": 5.04451039, "per_main_ot_m": 58.82352941000001, "per_main_ot_f": 41.17647059, "margwork_p": 174, "margwork_m": 51, "margwork_f": 123, "per_margwork_p": 25.89285714, "per_margwork_m": 29.31034483, "per_margwork_f": 70.68965517, "marg_cl_p": 4, "marg_cl_m": 1, "marg_cl_f": 3, "per_marg_cl_p": 2.29885057, "per_marg_cl_m": 25.0, "per_marg_cl_f": 75.0, "marg_al_p": 164, "marg_al_m": 49, "marg_al_f": 115, "per_marg_al_p": 94.25287356, "per_marg_al_m": 29.87804878, "per_marg_al_f": 70.12195122, "marg_hh_p": 0, "marg_hh_m": 0, "marg_hh_f": 0, "per_marg_hh_p": 0.0, "per_marg_hh_m": 0.0, "per_marg_hh_f": 0.0, "marg_ot_p": 6, "marg_ot_m": 1, "marg_ot_f": 5, "per_marg_ot_p": 3.44827586, "per_marg_ot_m": 16.66666667, "per_marg_ot_f": 83.33333332999999, "margwork_3_6_p": 158, "margwork_3_6_m": 45, "margwork_3_6_f": 113, "per_margwork_3_6_p": 90.8045977, "per_margwork_3_6_m": 28.48101266, "per_margwork_3_6_f": 71.51898734, "marg_cl_3_6_p": 4, "marg_cl_3_6_m": 1, "marg_cl_3_6_f": 3, "per_marg_cl_3_6_p": 2.29885057, "per_marg_cl_3_6_m": 25.0, "per_marg_cl_3_6_f": 75.0, "marg_al_3_6_p": 149, "marg_al_3_6_m": 43, "marg_al_3_6_f": 106, "per_marg_al_3_6_p": 85.63218391, "per_marg_al_3_6_m": 28.8590604, "per_marg_al_3_6_f": 71.1409396, "marg_hh_3_6_p": 0, "marg_hh_3_6_m": 0, "marg_hh_3_6_f": 0, "per_marg_hh_3_6_p": 0.0, "per_marg_hh_3_6_m": 0.0, "per_marg_hh_3_6_f": 0.0, "marg_ot_3_6_p": 5, "marg_ot_3_6_m": 1, "marg_ot_3_6_f": 4, "per_marg_ot_3_6_p": 2.87356322, "per_marg_ot_3_6_m": 20.0, "per_marg_ot_3_6_f": 80.0, "margwork_0_3_p": 16, "margwork_0_3_m": 6, "margwork_0_3_f": 10, "per_margwork_0_3_p": 9.1954023, "per_margwork_0_3_m": 37.5, "per_margwork_0_3_f": 62.5, "marg_cl_0_3_p": 0, "marg_cl_0_3_m": 0, "marg_cl_0_3_f": 0, "per_marg_cl_0_3_p": 0.0, "per_marg_cl_0_3_m": 0.0, "per_marg_cl_0_3_f": 0.0, "marg_al_0_3_p": 15, "marg_al_0_3_m": 6, "marg_al_0_3_f": 9, "per_marg_al_0_3_p": 8.62068966, "per_marg_al_0_3_m": 40.0, "per_marg_al_0_3_f": 60.0, "marg_hh_0_3_p": 0, "marg_hh_0_3_m": 0, "marg_hh_0_3_f": 0, "per_marg_hh_0_3_p": 0.0, "per_marg_hh_0_3_m": 0.0, "per_marg_hh_0_3_f": 0.0, "marg_ot_0_3_p": 1, "marg_ot_0_3_m": 0, "marg_ot_0_3_f": 1, "per_marg_ot_0_3_p": 0.57471264, "per_marg_ot_0_3_m": 0.0, "per_marg_ot_0_3_f": 100.0, "non_work_p": 161, "non_work_m": 69, "non_work_f": 92, "per_non_work_p": 23.95833333, "per_non_work_m": 42.85714286, "per_non_work_f": 57.14285714, "per_hc_tot_tot": 100, "per_hc_tot_god": 92.4, "per_hc_tot_liv": 5.4, "per_hc_tot_dil": 2.2, "per_hc_res_tot": 100.0, "per_hc_res_god": 92.4, "per_hc_res_liv": 5.4, "per_hc_res_dil": 2.2, "per_hc_oth_tot": 0.0, "per_hc_oth_god": 0.0, "per_hc_oth_liv": 0.0, "per_hc_oth_dil": 0.0, "per_mt_grsbam": 0.0, "per_mt_plastic": 0.0, "per_mt_h_tiles": 2.2, "per_mt_m_tiles": 87.5, "per_mt_b_brick": 0.0, "per_mt_stone": 0.5, "per_mt_asbstos": 9.2, "per_mt_concrte": 0.5, "per_mt_oth": 0.0, "per_mw_grsbam": 78.8, "per_mw_plastic": 0.0, "per_mw_mud": 0.0, "per_mw_wood": 2.2, "per_mw_no_mrtr": 0.0, "per_mw_st_mrtr": 0.0, "per_mw_asbstos": 0.0, "per_mw_b_brick": 19.0, "per_mw_concrte": 0.0, "per_mw_oth": 0.0, "per_mf_mud": 89.7, "per_mf_wood": 0.0, "per_mf_b_brick": 0.0, "per_mf_stone": 0.0, "per_mf_cement": 3.3, "per_mf_fl_tile": 7.1, "per_mf_oth": 0.0, "per_dw_n_exrm": 0.5, "per_dw_1_room": 97.8, "per_dw_2_room": 1.6, "per_dw_3_room": 0.0, "per_dw_4_room": 0.0, "per_dw_5_room": 0.0, "per_dw_6_room": 0.0, "per_hhsize_1": 3.8, "per_hhsize_2": 12.0, "per_hhsize_3": 14.7, "per_hhsize_4": 27.2, "per_hhsize_5": 24.5, "per_hhsize_6_8": 17.4, "per_hhsize_9p": 0.5, "per_ow_owned": 98.4, "per_ow_rented": 1.6, "per_ow_oth": 0.0, "per_mc_none": 7.1, "per_mcouple_1": 79.9, "per_mcouple_2": 13.0, "per_mcouple_3": 0.0, "per_mcouple_4": 0.0, "per_mcouple_5p": 0.0, "per_dw_t_ts": 0.0, "per_dw_t_unts": 10.9, "per_dw_c_well": 0.0, "per_dw_unc_wel": 22.8, "per_dw_hpump": 66.3, "per_dw_tw_bore": 0.0, "per_dw_spring": 0.0, "per_dw_rivcan": 0.0, "per_dw_tank": 0.0, "per_dw_oth": 0.0, "per_loc_dw_wp": 53.8, "per_loc_dw_np": 31.5, "per_loc_dw_aw": 14.7, "per_light_elec": 97.3, "per_light_kero": 2.2, "per_light_solr": 0.0, "per_light_oil": 0.0, "per_light_oth": 0.0, "per_light_no": 0.5, "per_hh_latrine": 11.4, "per_fl_sewer": 0.0, "per_fl_septict": 4.3, "per_fl_othsys": 0.0, "per_pl_wslab": 7.1, "per_pl_without": 0.0, "per_ns_open": 0.0, "per_sl_ns_hum": 0.0, "per_sl_ns_anml": 0.0, "per_hh_no_lat": 88.6, "per_as_pub": 0.0, "per_as_open": 88.6, "per_hh_bathrm": 7.6, "per_hh_en_wrf": 3.8, "per_hh_no_btrm": 88.6, "per_wwoc_drain": 0.0, "per_wwoc_open": 0.0, "per_wwoc_nodrn": 100.0, "per_cook_fire": 95.7, "per_cook_resdu": 1.6, "per_cook_cwdng": 0.0, "per_cook_coal": 0.0, "per_cook_kero": 0.0, "per_cook_lpng": 2.7, "per_cook_elec": 0.0, "per_cook_biogs": 0.0, "per_cook_oth": 0.0, "per_cook_no": 0.0, "per_kf_inside": 94.0, "per_kf_in_has": 7.1, "per_kf_in_does": 87.0, "per_kf_outside": 6.0, "per_kf_out_has": 0.5, "per_kf_out_dos": 5.4, "per_kf_no_cook": 0.0, "per_hh_banking": 16.3, "per_hh_radio": 7.6, "per_hh_tv": 16.3, "per_hh_cmp_int": 0.0, "per_hh_cmp_wnt": 0.5, "per_hh_ph_ll": 2.7, "per_hh_ph_mob": 23.4, "per_hh_ph_bth": 0.0, "per_hh_bcycl": 37.5, "per_hh_2wheel": 20.1, "per_hh_4wheel": 0.5, "per_hh_tvcomp": 0.0, "per_hh_no_ast": 42.9, "per_hs_perma": 19.0, "per_hs_sperma": 81.0, "per_hs_temp": 0.0, "per_hs_servc": 0.0, "per_hs_nservc": 0.0, "per_hs_unclss": 0.0, "avghhsz_cy": 3.69230769, "st_areashape": 3927096.328656745, "st_lengthshape": 9823.586579856648}, "geometry": {"type": "Polygon", "coordinates": [[[73.60720488756594, 21.159960370184443], [73.60714845000993, 21.160416347923366], [73.60401414354199, 21.154925731880493], [73.60361047838254, 21.154657216044495], [73.60333648503438, 21.15447495659061], [73.60049356060358, 21.15012025777692], [73.60108157443234, 21.14931689364139], [73.60135975392976, 21.148911771986], [73.60236355119119, 21.147449890969327], [73.6046239163636, 21.144501243846555], [73.60485154765995, 21.14391782635537], [73.61254651189215, 21.143109274170925], [73.61294530369118, 21.143050115750214], [73.61528882770605, 21.14270246571266], [73.61736121411707, 21.142596373530733], [73.61532362394858, 21.141094896042283], [73.61496742666709, 21.140569702928822], [73.61378075127844, 21.13966030750137], [73.61302470937238, 21.139068350691687], [73.61171303970019, 21.138041349153312], [73.61163581602676, 21.13798088414266], [73.61228257518356, 21.13634353271542], [73.61312139594475, 21.134219922885343], [73.6176630696121, 21.137785015545766], [73.6221549155273, 21.141695925383853], [73.62229115851486, 21.14235266997067], [73.62072784647704, 21.15544713511138], [73.61955622505592, 21.155569242999434], [73.61820214771579, 21.155623856533023], [73.61629973692956, 21.155637825543863], [73.61444504465126, 21.155684192865277], [73.6140146357475, 21.15578551880794], [73.61066144577745, 21.157686513240336], [73.6092754953127, 21.158413491445714], [73.60855802167505, 21.15893010803698], [73.60751876251948, 21.15888143372093], [73.60720488756594, 21.159960370184443]]]}}]}