{"type": "FeatureCollection", "features": [{"type": "Feature", "properties": {"premiumdata.sde.IN_Village_PCA.area": 11.45781292, "objectid": 102147, "id": "274794130624974", "name": "Dhakephal", "subdistrict": "Ghansawangi", "district": "Jalna", "state": "Maharashtra", "country": "India", "censusname": "Dhakephal", "villagename_locallang": "\u0922\u093e\u0915\u0947\u092b\u0933", "lgd_villagename": "Dhakephal", "lgd_villagecode": 547959, "lgd_subdistrictcode": 4130, "lgd_districtcode": 479, "lgd_statecode": 27, "censuscode2001": "02289000", "censuscode2011": "547959", "censuscode2021": null, "level": "Village", "tru": "Rural", "no_hh": 449, "tot_p": 2022, "tot_m": 1014, "tot_f": 1008, "per_tot_m": 50.14836795, "per_tot_f": 49.85163205, "p_06": 285, "m_06": 147, "f_06": 138, "per_p_06": 14.09495549, "per_m_06": 51.57894737, "per_f_06": 48.42105263, "p_sc": 452, "m_sc": 227, "f_sc": 225, "per_p_sc": 22.35410485, "per_m_sc": 50.22123894000001, "per_f_sc": 49.77876106, "p_st": 8, "m_st": 4, "f_st": 4, "per_p_st": 0.39564787, "per_m_st": 50.0, "per_f_st": 50.0, "p_lit": 1038, "m_lit": 590, "f_lit": 448, "per_p_lit": 51.33531157, "per_m_lit": 56.84007707000001, "per_f_lit": 43.15992293, "p_ill": 984, "m_ill": 424, "f_ill": 560, "per_p_ill": 48.66468843, "per_m_ill": 43.08943089, "per_f_ill": 56.91056911, "tot_work_p": 1028, "tot_work_m": 557, "tot_work_f": 471, "per_tot_work_p": 50.84075173, "per_tot_work_m": 54.18287938, "per_tot_work_f": 45.81712062, "mainwork_p": 963, "mainwork_m": 531, "mainwork_f": 432, "per_mainwork_p": 47.62611276, "per_mainwork_m": 55.14018692, "per_mainwork_f": 44.85981308, "main_cl_p": 482, "main_cl_m": 263, "main_cl_f": 219, "per_main_cl_p": 50.05192108000001, "per_main_cl_m": 54.56431535, "per_main_cl_f": 45.43568465, "main_al_p": 350, "main_al_m": 171, "main_al_f": 179, "per_main_al_p": 36.34475597, "per_main_al_m": 48.85714286, "per_main_al_f": 51.14285714, "main_hh_p": 8, "main_hh_m": 8, "main_hh_f": 0, "per_main_hh_p": 0.83073728, "per_main_hh_m": 100.0, "per_main_hh_f": 0.0, "main_ot_p": 123, "main_ot_m": 89, "main_ot_f": 34, "per_main_ot_p": 12.77258567, "per_main_ot_m": 72.35772358, "per_main_ot_f": 27.64227642, "margwork_p": 65, "margwork_m": 26, "margwork_f": 39, "per_margwork_p": 3.21463897, "per_margwork_m": 40.0, "per_margwork_f": 60.0, "marg_cl_p": 29, "marg_cl_m": 12, "marg_cl_f": 17, "per_marg_cl_p": 44.61538462, "per_marg_cl_m": 41.37931034, "per_marg_cl_f": 58.62068966, "marg_al_p": 34, "marg_al_m": 14, "marg_al_f": 20, "per_marg_al_p": 52.30769231, "per_marg_al_m": 41.17647059, "per_marg_al_f": 58.82352941000001, "marg_hh_p": 1, "marg_hh_m": 0, "marg_hh_f": 1, "per_marg_hh_p": 1.53846154, "per_marg_hh_m": 0.0, "per_marg_hh_f": 100.0, "marg_ot_p": 1, "marg_ot_m": 0, "marg_ot_f": 1, "per_marg_ot_p": 1.53846154, "per_marg_ot_m": 0.0, "per_marg_ot_f": 100.0, "margwork_3_6_p": 47, "margwork_3_6_m": 19, "margwork_3_6_f": 28, "per_margwork_3_6_p": 72.30769231, "per_margwork_3_6_m": 40.42553191, "per_margwork_3_6_f": 59.57446809, "marg_cl_3_6_p": 18, "marg_cl_3_6_m": 8, "marg_cl_3_6_f": 10, "per_marg_cl_3_6_p": 27.69230769, "per_marg_cl_3_6_m": 44.44444444000001, "per_marg_cl_3_6_f": 55.55555556, "marg_al_3_6_p": 27, "marg_al_3_6_m": 11, "marg_al_3_6_f": 16, "per_marg_al_3_6_p": 41.53846154, "per_marg_al_3_6_m": 40.74074074, "per_marg_al_3_6_f": 59.25925926, "marg_hh_3_6_p": 1, "marg_hh_3_6_m": 0, "marg_hh_3_6_f": 1, "per_marg_hh_3_6_p": 1.53846154, "per_marg_hh_3_6_m": 0.0, "per_marg_hh_3_6_f": 100.0, "marg_ot_3_6_p": 1, "marg_ot_3_6_m": 0, "marg_ot_3_6_f": 1, "per_marg_ot_3_6_p": 1.53846154, "per_marg_ot_3_6_m": 0.0, "per_marg_ot_3_6_f": 100.0, "margwork_0_3_p": 18, "margwork_0_3_m": 7, "margwork_0_3_f": 11, "per_margwork_0_3_p": 27.69230769, "per_margwork_0_3_m": 38.88888889, "per_margwork_0_3_f": 61.11111111, "marg_cl_0_3_p": 11, "marg_cl_0_3_m": 4, "marg_cl_0_3_f": 7, "per_marg_cl_0_3_p": 16.92307692, "per_marg_cl_0_3_m": 36.36363636, "per_marg_cl_0_3_f": 63.63636364, "marg_al_0_3_p": 7, "marg_al_0_3_m": 3, "marg_al_0_3_f": 4, "per_marg_al_0_3_p": 10.76923077, "per_marg_al_0_3_m": 42.85714286, "per_marg_al_0_3_f": 57.14285714, "marg_hh_0_3_p": 0, "marg_hh_0_3_m": 0, "marg_hh_0_3_f": 0, "per_marg_hh_0_3_p": 0.0, "per_marg_hh_0_3_m": 0.0, "per_marg_hh_0_3_f": 0.0, "marg_ot_0_3_p": 0, "marg_ot_0_3_m": 0, "marg_ot_0_3_f": 0, "per_marg_ot_0_3_p": 0.0, "per_marg_ot_0_3_m": 0.0, "per_marg_ot_0_3_f": 0.0, "non_work_p": 994, "non_work_m": 457, "non_work_f": 537, "per_non_work_p": 49.15924827, "per_non_work_m": 45.97585513, "per_non_work_f": 54.02414487, "per_hc_tot_tot": 100, "per_hc_tot_god": 27.8, "per_hc_tot_liv": 58.7, "per_hc_tot_dil": 13.6, "per_hc_res_tot": 98.1, "per_hc_res_god": 26.7, "per_hc_res_liv": 58.0, "per_hc_res_dil": 13.4, "per_hc_oth_tot": 1.9, "per_hc_oth_god": 1.0, "per_hc_oth_liv": 0.6, "per_hc_oth_dil": 0.2, "per_mt_grsbam": 12.7, "per_mt_plastic": 1.3, "per_mt_h_tiles": 2.5, "per_mt_m_tiles": 0.0, "per_mt_b_brick": 0.0, "per_mt_stone": 0.0, "per_mt_asbstos": 80.2, "per_mt_concrte": 3.3, "per_mt_oth": 0.0, "per_mw_grsbam": 3.3, "per_mw_plastic": 0.0, "per_mw_mud": 25.5, "per_mw_wood": 0.2, "per_mw_no_mrtr": 3.8, "per_mw_st_mrtr": 18.6, "per_mw_asbstos": 0.0, "per_mw_b_brick": 48.6, "per_mw_concrte": 0.0, "per_mw_oth": 0.0, "per_mf_mud": 69.1, "per_mf_wood": 0.0, "per_mf_b_brick": 0.0, "per_mf_stone": 11.7, "per_mf_cement": 18.4, "per_mf_fl_tile": 0.8, "per_mf_oth": 0.0, "per_dw_n_exrm": 2.5, "per_dw_1_room": 55.9, "per_dw_2_room": 33.6, "per_dw_3_room": 5.6, "per_dw_4_room": 1.5, "per_dw_5_room": 0.4, "per_dw_6_room": 0.4, "per_hhsize_1": 5.4, "per_hhsize_2": 11.5, "per_hhsize_3": 9.0, "per_hhsize_4": 20.0, "per_hhsize_5": 21.7, "per_hhsize_6_8": 26.3, "per_hhsize_9p": 6.1, "per_ow_owned": 96.7, "per_ow_rented": 1.5, "per_ow_oth": 1.9, "per_mc_none": 10.9, "per_mcouple_1": 68.3, "per_mcouple_2": 16.1, "per_mcouple_3": 4.4, "per_mcouple_4": 0.4, "per_mcouple_5p": 0.0, "per_dw_t_ts": 0.0, "per_dw_t_unts": 0.4, "per_dw_c_well": 0.0, "per_dw_unc_wel": 99.0, "per_dw_hpump": 0.0, "per_dw_tw_bore": 0.4, "per_dw_spring": 0.0, "per_dw_rivcan": 0.0, "per_dw_tank": 0.0, "per_dw_oth": 0.2, "per_loc_dw_wp": 7.3, "per_loc_dw_np": 57.6, "per_loc_dw_aw": 35.1, "per_light_elec": 82.7, "per_light_kero": 17.3, "per_light_solr": 0.0, "per_light_oil": 0.0, "per_light_oth": 0.0, "per_light_no": 0.0, "per_hh_latrine": 4.0, "per_fl_sewer": 0.2, "per_fl_septict": 2.1, "per_fl_othsys": 0.0, "per_pl_wslab": 1.7, "per_pl_without": 0.0, "per_ns_open": 0.0, "per_sl_ns_hum": 0.0, "per_sl_ns_anml": 0.0, "per_hh_no_lat": 96.0, "per_as_pub": 0.0, "per_as_open": 96.0, "per_hh_bathrm": 5.0, "per_hh_en_wrf": 70.6, "per_hh_no_btrm": 24.4, "per_wwoc_drain": 0.0, "per_wwoc_open": 87.9, "per_wwoc_nodrn": 12.1, "per_cook_fire": 35.5, "per_cook_resdu": 62.6, "per_cook_cwdng": 0.2, "per_cook_coal": 0.0, "per_cook_kero": 0.0, "per_cook_lpng": 1.7, "per_cook_elec": 0.0, "per_cook_biogs": 0.0, "per_cook_oth": 0.0, "per_cook_no": 0.0, "per_kf_inside": 34.0, "per_kf_in_has": 3.3, "per_kf_in_does": 30.7, "per_kf_outside": 66.0, "per_kf_out_has": 1.9, "per_kf_out_dos": 64.1, "per_kf_no_cook": 0.0, "per_hh_banking": 79.5, "per_hh_radio": 8.6, "per_hh_tv": 34.4, "per_hh_cmp_int": 0.4, "per_hh_cmp_wnt": 2.3, "per_hh_ph_ll": 12.3, "per_hh_ph_mob": 32.6, "per_hh_ph_bth": 16.5, "per_hh_bcycl": 14.2, "per_hh_2wheel": 11.3, "per_hh_4wheel": 2.3, "per_hh_tvcomp": 0.6, "per_hh_no_ast": 30.9, "per_hs_perma": 63.5, "per_hs_sperma": 30.1, "per_hs_temp": 6.5, "per_hs_servc": 5.4, "per_hs_nservc": 1.0, "per_hs_unclss": 0.0, "avghhsz_cy": 4.50334076, "st_areashape": 12965199.260964954, "st_lengthshape": 15374.406961906945}, "geometry": {"type": "Polygon", "coordinates": [[[76.07260415272845, 19.499612506571818], [76.07422301209185, 19.50018148157286], [76.07690916343759, 19.500899416746044], [76.07983191216452, 19.502371537370355], [76.08319782048237, 19.50963844690119], [76.08489639185251, 19.51142490180113], [76.08732824181939, 19.513142678957323], [76.08975849637837, 19.515056122076203], [76.09194248139544, 19.517384045048708], [76.0948460376163, 19.518862643507187], [76.09462862285969, 19.52120735547535], [76.09441572303567, 19.52536786847878], [76.09420647665989, 19.53032694174565], [76.09479885989424, 19.536011194559666], [76.09499045437465, 19.537068674009028], [76.08519285206596, 19.54327184651482], [76.08528416850955, 19.543005731897722], [76.07856892040091, 19.534508649249396], [76.07531575244786, 19.531068060843328], [76.07002527819395, 19.529433822919138], [76.06003046962924, 19.52364229306789], [76.06011637911314, 19.52303119080222], [76.06025559372765, 19.522042528556984], [76.06007701673401, 19.514784643622637], [76.06009870296327, 19.514607469070167], [76.06114673326928, 19.50613154105711], [76.06159700212736, 19.495633635200004], [76.06200767684096, 19.495889216441466], [76.07260415272845, 19.499612506571818]]]}}]}