{"type": "FeatureCollection", "features": [{"type": "Feature", "properties": {"premiumdata.sde.IN_Village_PCA.area": 2.3981177, "objectid": 338476, "id": "9176724462103", "name": "Imarta Near Akbarabad", "subdistrict": "Tanda", "district": "Rampur", "state": "Uttar Pradesh", "country": "India", "censusname": "Imarta Near Akbarabad", "villagename_locallang": null, "lgd_villagename": "Imarta Near Akbarabad", "lgd_villagecode": 116482, "lgd_subdistrictcode": 724, "lgd_districtcode": 176, "lgd_statecode": 9, "censuscode2001": "00743200", "censuscode2011": "116482", "censuscode2021": null, "level": "Village", "tru": "Rural", "no_hh": 67, "tot_p": 391, "tot_m": 205, "tot_f": 186, "per_tot_m": 52.42966752, "per_tot_f": 47.57033248, "p_06": 38, "m_06": 18, "f_06": 20, "per_p_06": 9.71867008, "per_m_06": 47.36842105, "per_f_06": 52.63157895000001, "p_sc": 74, "m_sc": 38, "f_sc": 36, "per_p_sc": 18.9258312, "per_m_sc": 51.35135135, "per_f_sc": 48.64864865, "p_st": 0, "m_st": 0, "f_st": 0, "per_p_st": 0.0, "per_m_st": 0.0, "per_f_st": 0.0, "p_lit": 272, "m_lit": 155, "f_lit": 117, "per_p_lit": 69.56521739, "per_m_lit": 56.98529412, "per_f_lit": 43.01470588, "p_ill": 119, "m_ill": 50, "f_ill": 69, "per_p_ill": 30.43478261, "per_m_ill": 42.01680672000001, "per_f_ill": 57.98319328, "tot_work_p": 156, "tot_work_m": 141, "tot_work_f": 15, "per_tot_work_p": 39.89769821, "per_tot_work_m": 90.38461538, "per_tot_work_f": 9.61538462, "mainwork_p": 152, "mainwork_m": 137, "mainwork_f": 15, "per_mainwork_p": 38.87468031, "per_mainwork_m": 90.13157895, "per_mainwork_f": 9.86842105, "main_cl_p": 107, "main_cl_m": 100, "main_cl_f": 7, "per_main_cl_p": 70.39473684000001, "per_main_cl_m": 93.45794393, "per_main_cl_f": 6.54205607, "main_al_p": 28, "main_al_m": 23, "main_al_f": 5, "per_main_al_p": 18.42105263, "per_main_al_m": 82.14285714, "per_main_al_f": 17.85714286, "main_hh_p": 0, "main_hh_m": 0, "main_hh_f": 0, "per_main_hh_p": 0.0, "per_main_hh_m": 0.0, "per_main_hh_f": 0.0, "main_ot_p": 17, "main_ot_m": 14, "main_ot_f": 3, "per_main_ot_p": 11.18421053, "per_main_ot_m": 82.35294118, "per_main_ot_f": 17.64705882, "margwork_p": 4, "margwork_m": 4, "margwork_f": 0, "per_margwork_p": 1.0230179, "per_margwork_m": 100.0, "per_margwork_f": 0.0, "marg_cl_p": 0, "marg_cl_m": 0, "marg_cl_f": 0, "per_marg_cl_p": 0.0, "per_marg_cl_m": 0.0, "per_marg_cl_f": 0.0, "marg_al_p": 4, "marg_al_m": 4, "marg_al_f": 0, "per_marg_al_p": 100.0, "per_marg_al_m": 100.0, "per_marg_al_f": 0.0, "marg_hh_p": 0, "marg_hh_m": 0, "marg_hh_f": 0, "per_marg_hh_p": 0.0, "per_marg_hh_m": 0.0, "per_marg_hh_f": 0.0, "marg_ot_p": 0, "marg_ot_m": 0, "marg_ot_f": 0, "per_marg_ot_p": 0.0, "per_marg_ot_m": 0.0, "per_marg_ot_f": 0.0, "margwork_3_6_p": 4, "margwork_3_6_m": 4, "margwork_3_6_f": 0, "per_margwork_3_6_p": 100.0, "per_margwork_3_6_m": 100.0, "per_margwork_3_6_f": 0.0, "marg_cl_3_6_p": 0, "marg_cl_3_6_m": 0, "marg_cl_3_6_f": 0, "per_marg_cl_3_6_p": 0.0, "per_marg_cl_3_6_m": 0.0, "per_marg_cl_3_6_f": 0.0, "marg_al_3_6_p": 4, "marg_al_3_6_m": 4, "marg_al_3_6_f": 0, "per_marg_al_3_6_p": 100.0, "per_marg_al_3_6_m": 100.0, "per_marg_al_3_6_f": 0.0, "marg_hh_3_6_p": 0, "marg_hh_3_6_m": 0, "marg_hh_3_6_f": 0, "per_marg_hh_3_6_p": 0.0, "per_marg_hh_3_6_m": 0.0, "per_marg_hh_3_6_f": 0.0, "marg_ot_3_6_p": 0, "marg_ot_3_6_m": 0, "marg_ot_3_6_f": 0, "per_marg_ot_3_6_p": 0.0, "per_marg_ot_3_6_m": 0.0, "per_marg_ot_3_6_f": 0.0, "margwork_0_3_p": 0, "margwork_0_3_m": 0, "margwork_0_3_f": 0, "per_margwork_0_3_p": 0.0, "per_margwork_0_3_m": 0.0, "per_margwork_0_3_f": 0.0, "marg_cl_0_3_p": 0, "marg_cl_0_3_m": 0, "marg_cl_0_3_f": 0, "per_marg_cl_0_3_p": 0.0, "per_marg_cl_0_3_m": 0.0, "per_marg_cl_0_3_f": 0.0, "marg_al_0_3_p": 0, "marg_al_0_3_m": 0, "marg_al_0_3_f": 0, "per_marg_al_0_3_p": 0.0, "per_marg_al_0_3_m": 0.0, "per_marg_al_0_3_f": 0.0, "marg_hh_0_3_p": 0, "marg_hh_0_3_m": 0, "marg_hh_0_3_f": 0, "per_marg_hh_0_3_p": 0.0, "per_marg_hh_0_3_m": 0.0, "per_marg_hh_0_3_f": 0.0, "marg_ot_0_3_p": 0, "marg_ot_0_3_m": 0, "marg_ot_0_3_f": 0, "per_marg_ot_0_3_p": 0.0, "per_marg_ot_0_3_m": 0.0, "per_marg_ot_0_3_f": 0.0, "non_work_p": 235, "non_work_m": 64, "non_work_f": 171, "per_non_work_p": 60.10230179, "per_non_work_m": 27.23404255, "per_non_work_f": 72.76595745, "per_hc_tot_tot": 100, "per_hc_tot_god": 1.5, "per_hc_tot_liv": 79.1, "per_hc_tot_dil": 19.4, "per_hc_res_tot": 100.0, "per_hc_res_god": 1.5, "per_hc_res_liv": 79.1, "per_hc_res_dil": 19.4, "per_hc_oth_tot": 0.0, "per_hc_oth_god": 0.0, "per_hc_oth_liv": 0.0, "per_hc_oth_dil": 0.0, "per_mt_grsbam": 32.8, "per_mt_plastic": 0.0, "per_mt_h_tiles": 0.0, "per_mt_m_tiles": 0.0, "per_mt_b_brick": 65.7, "per_mt_stone": 0.0, "per_mt_asbstos": 1.5, "per_mt_concrte": 0.0, "per_mt_oth": 0.0, "per_mw_grsbam": 25.4, "per_mw_plastic": 0.0, "per_mw_mud": 1.5, "per_mw_wood": 0.0, "per_mw_no_mrtr": 0.0, "per_mw_st_mrtr": 0.0, "per_mw_asbstos": 0.0, "per_mw_b_brick": 73.1, "per_mw_concrte": 0.0, "per_mw_oth": 0.0, "per_mf_mud": 58.2, "per_mf_wood": 0.0, "per_mf_b_brick": 0.0, "per_mf_stone": 0.0, "per_mf_cement": 41.8, "per_mf_fl_tile": 0.0, "per_mf_oth": 0.0, "per_dw_n_exrm": 16.4, "per_dw_1_room": 17.9, "per_dw_2_room": 17.9, "per_dw_3_room": 17.9, "per_dw_4_room": 17.9, "per_dw_5_room": 9.0, "per_dw_6_room": 3.0, "per_hhsize_1": 3.0, "per_hhsize_2": 6.0, "per_hhsize_3": 19.4, "per_hhsize_4": 22.4, "per_hhsize_5": 10.4, "per_hhsize_6_8": 25.4, "per_hhsize_9p": 13.4, "per_ow_owned": 98.5, "per_ow_rented": 0.0, "per_ow_oth": 1.5, "per_mc_none": 6.0, "per_mcouple_1": 64.2, "per_mcouple_2": 20.9, "per_mcouple_3": 7.5, "per_mcouple_4": 1.5, "per_mcouple_5p": 0.0, "per_dw_t_ts": 0.0, "per_dw_t_unts": 0.0, "per_dw_c_well": 0.0, "per_dw_unc_wel": 0.0, "per_dw_hpump": 91.0, "per_dw_tw_bore": 0.0, "per_dw_spring": 0.0, "per_dw_rivcan": 0.0, "per_dw_tank": 0.0, "per_dw_oth": 9.0, "per_loc_dw_wp": 83.6, "per_loc_dw_np": 9.0, "per_loc_dw_aw": 7.5, "per_light_elec": 0.0, "per_light_kero": 94.0, "per_light_solr": 0.0, "per_light_oil": 0.0, "per_light_oth": 0.0, "per_light_no": 6.0, "per_hh_latrine": 98.5, "per_fl_sewer": 0.0, "per_fl_septict": 98.5, "per_fl_othsys": 0.0, "per_pl_wslab": 0.0, "per_pl_without": 0.0, "per_ns_open": 0.0, "per_sl_ns_hum": 0.0, "per_sl_ns_anml": 0.0, "per_hh_no_lat": 1.5, "per_as_pub": 0.0, "per_as_open": 1.5, "per_hh_bathrm": 77.6, "per_hh_en_wrf": 6.0, "per_hh_no_btrm": 16.4, "per_wwoc_drain": 1.5, "per_wwoc_open": 83.6, "per_wwoc_nodrn": 14.9, "per_cook_fire": 95.5, "per_cook_resdu": 3.0, "per_cook_cwdng": 0.0, "per_cook_coal": 0.0, "per_cook_kero": 0.0, "per_cook_lpng": 0.0, "per_cook_elec": 0.0, "per_cook_biogs": 0.0, "per_cook_oth": 0.0, "per_cook_no": 1.5, "per_kf_inside": 97.0, "per_kf_in_has": 68.7, "per_kf_in_does": 28.4, "per_kf_outside": 1.5, "per_kf_out_has": 0.0, "per_kf_out_dos": 1.5, "per_kf_no_cook": 1.5, "per_hh_banking": 89.6, "per_hh_radio": 40.3, "per_hh_tv": 62.7, "per_hh_cmp_int": 0.0, "per_hh_cmp_wnt": 0.0, "per_hh_ph_ll": 7.5, "per_hh_ph_mob": 86.6, "per_hh_ph_bth": 0.0, "per_hh_bcycl": 35.8, "per_hh_2wheel": 43.3, "per_hh_4wheel": 3.0, "per_hh_tvcomp": 0.0, "per_hh_no_ast": 3.0, "per_hs_perma": 65.7, "per_hs_sperma": 9.0, "per_hs_temp": 25.4, "per_hs_servc": 1.5, "per_hs_nservc": 23.9, "per_hs_unclss": 0.0, "avghhsz_cy": 5.8358209, "st_areashape": 3151491.782543865, "st_lengthshape": 7872.877610991973}, "geometry": {"type": "Polygon", "coordinates": [[[78.99547785958212, 29.100218633987808], [78.99545590745156, 29.100187623313374], [78.99420123768071, 29.09814812898652], [78.9935658970095, 29.096820427640836], [78.9930855606406, 29.095663673517613], [78.99341800826261, 29.095296049705652], [78.9935605529319, 29.09471126315258], [78.99351263589632, 29.09409473310325], [78.99264685310023, 29.09181106798177], [78.99185080472297, 29.090536119811475], [78.99050069973303, 29.088494655464405], [78.98963522146582, 29.08744216196514], [78.9885879556261, 29.086022281830125], [78.98809403134018, 29.085396871264596], [78.98794013555897, 29.085183954835752], [78.98794517151444, 29.084988183969696], [78.9880812366356, 29.08465509599534], [78.9889500710087, 29.08433654906935], [78.99075429952762, 29.083588841406872], [78.99298131384678, 29.082513704646367], [78.99492443179011, 29.081320978282527], [78.99611826046336, 29.080757006217908], [78.99688645657521, 29.08063229783218], [78.99811212872864, 29.080068927290235], [78.99832076784327, 29.079986525798873], [78.99952894889978, 29.07950932989833], [79.00029998458625, 29.079272741318945], [79.00093858973521, 29.07922941818849], [79.00131872352577, 29.07932087226475], [79.00151284856037, 29.079478192870063], [79.00238041541064, 29.080181335819006], [79.00316276897135, 29.08103520311538], [79.00337266033749, 29.081264273783223], [79.00441789508633, 29.08276799111408], [79.00538547766538, 29.08481579825184], [79.00601443580648, 29.08639522040935], [79.00624323581104, 29.087004849896825], [79.00731825869471, 29.088593051007997], [79.00811515597988, 29.089839966538758], [79.00835071850189, 29.090600130646553], [79.00861243816834, 29.091584644196097], [79.00859527226157, 29.092255868779436], [79.00841092089728, 29.093231577139445], [79.0083089019254, 29.093481396555852], [79.00801572146106, 29.093727442796773], [79.0074705015758, 29.093856597880812], [79.00630374812522, 29.09377410301847], [79.00483812338297, 29.09374516194034], [79.00311331851158, 29.09387897030216], [79.00065425498147, 29.094054209123986], [78.99886498610702, 29.094214699687686], [78.99796640492156, 29.09444875069261], [78.99754360923981, 29.09477614819568], [78.99714763186259, 29.095299955660636], [78.99638134736567, 29.097831086139045], [78.99596455512496, 29.099165926726755], [78.99559395964609, 29.099942056400796], [78.99547785958212, 29.100218633987808]]]}}]}