{"type": "FeatureCollection", "features": [{"type": "Feature", "properties": {"premiumdata.sde.IN_Village_PCA.area": 1.23852417, "objectid": 497258, "id": "101891478293056", "name": "Shekhpura", "subdistrict": "Goh", "district": "Aurangabad", "state": "Bihar", "country": "India", "censusname": "Shekhpura", "villagename_locallang": "\u0936\u0947\u0916\u092a\u0941\u0930\u093e", "lgd_villagename": "Shekhpura", "lgd_villagecode": 252939, "lgd_subdistrictcode": 1478, "lgd_districtcode": 189, "lgd_statecode": 10, "censuscode2001": "03801000", "censuscode2011": "252939", "censuscode2021": null, "level": "Village", "tru": "Rural", "no_hh": 154, "tot_p": 989, "tot_m": 486, "tot_f": 503, "per_tot_m": 49.14054601, "per_tot_f": 50.85945399, "p_06": 200, "m_06": 97, "f_06": 103, "per_p_06": 20.22244692, "per_m_06": 48.5, "per_f_06": 51.5, "p_sc": 304, "m_sc": 151, "f_sc": 153, "per_p_sc": 30.73811931, "per_m_sc": 49.67105263, "per_f_sc": 50.32894737, "p_st": 0, "m_st": 0, "f_st": 0, "per_p_st": 0.0, "per_m_st": 0.0, "per_f_st": 0.0, "p_lit": 593, "m_lit": 331, "f_lit": 262, "per_p_lit": 59.95955511, "per_m_lit": 55.81787521, "per_f_lit": 44.18212479, "p_ill": 396, "m_ill": 155, "f_ill": 241, "per_p_ill": 40.04044489, "per_m_ill": 39.14141414, "per_f_ill": 60.85858586, "tot_work_p": 292, "tot_work_m": 229, "tot_work_f": 63, "per_tot_work_p": 29.5247725, "per_tot_work_m": 78.42465753, "per_tot_work_f": 21.57534247, "mainwork_p": 258, "mainwork_m": 210, "mainwork_f": 48, "per_mainwork_p": 26.08695652, "per_mainwork_m": 81.39534884000001, "per_mainwork_f": 18.60465116, "main_cl_p": 92, "main_cl_m": 87, "main_cl_f": 5, "per_main_cl_p": 35.65891473, "per_main_cl_m": 94.56521739, "per_main_cl_f": 5.43478261, "main_al_p": 147, "main_al_m": 109, "main_al_f": 38, "per_main_al_p": 56.97674419, "per_main_al_m": 74.14965986, "per_main_al_f": 25.85034014, "main_hh_p": 3, "main_hh_m": 3, "main_hh_f": 0, "per_main_hh_p": 1.1627907, "per_main_hh_m": 100.0, "per_main_hh_f": 0.0, "main_ot_p": 16, "main_ot_m": 11, "main_ot_f": 5, "per_main_ot_p": 6.20155039, "per_main_ot_m": 68.75, "per_main_ot_f": 31.25, "margwork_p": 34, "margwork_m": 19, "margwork_f": 15, "per_margwork_p": 3.43781598, "per_margwork_m": 55.88235294, "per_margwork_f": 44.11764706, "marg_cl_p": 18, "marg_cl_m": 10, "marg_cl_f": 8, "per_marg_cl_p": 52.94117647, "per_marg_cl_m": 55.55555556, "per_marg_cl_f": 44.44444444000001, "marg_al_p": 7, "marg_al_m": 5, "marg_al_f": 2, "per_marg_al_p": 20.58823529, "per_marg_al_m": 71.42857143, "per_marg_al_f": 28.57142857, "marg_hh_p": 4, "marg_hh_m": 3, "marg_hh_f": 1, "per_marg_hh_p": 11.76470588, "per_marg_hh_m": 75.0, "per_marg_hh_f": 25.0, "marg_ot_p": 5, "marg_ot_m": 1, "marg_ot_f": 4, "per_marg_ot_p": 14.70588235, "per_marg_ot_m": 20.0, "per_marg_ot_f": 80.0, "margwork_3_6_p": 28, "margwork_3_6_m": 16, "margwork_3_6_f": 12, "per_margwork_3_6_p": 82.35294118, "per_margwork_3_6_m": 57.14285714, "per_margwork_3_6_f": 42.85714286, "marg_cl_3_6_p": 15, "marg_cl_3_6_m": 9, "marg_cl_3_6_f": 6, "per_marg_cl_3_6_p": 44.11764706, "per_marg_cl_3_6_m": 60.0, "per_marg_cl_3_6_f": 40.0, "marg_al_3_6_p": 5, "marg_al_3_6_m": 3, "marg_al_3_6_f": 2, "per_marg_al_3_6_p": 14.70588235, "per_marg_al_3_6_m": 60.0, "per_marg_al_3_6_f": 40.0, "marg_hh_3_6_p": 3, "marg_hh_3_6_m": 3, "marg_hh_3_6_f": 0, "per_marg_hh_3_6_p": 8.82352941, "per_marg_hh_3_6_m": 100.0, "per_marg_hh_3_6_f": 0.0, "marg_ot_3_6_p": 5, "marg_ot_3_6_m": 1, "marg_ot_3_6_f": 4, "per_marg_ot_3_6_p": 14.70588235, "per_marg_ot_3_6_m": 20.0, "per_marg_ot_3_6_f": 80.0, "margwork_0_3_p": 6, "margwork_0_3_m": 3, "margwork_0_3_f": 3, "per_margwork_0_3_p": 17.64705882, "per_margwork_0_3_m": 50.0, "per_margwork_0_3_f": 50.0, "marg_cl_0_3_p": 3, "marg_cl_0_3_m": 1, "marg_cl_0_3_f": 2, "per_marg_cl_0_3_p": 8.82352941, "per_marg_cl_0_3_m": 33.33333333, "per_marg_cl_0_3_f": 66.66666667, "marg_al_0_3_p": 2, "marg_al_0_3_m": 2, "marg_al_0_3_f": 0, "per_marg_al_0_3_p": 5.88235294, "per_marg_al_0_3_m": 100.0, "per_marg_al_0_3_f": 0.0, "marg_hh_0_3_p": 1, "marg_hh_0_3_m": 0, "marg_hh_0_3_f": 1, "per_marg_hh_0_3_p": 2.94117647, "per_marg_hh_0_3_m": 0.0, "per_marg_hh_0_3_f": 100.0, "marg_ot_0_3_p": 0, "marg_ot_0_3_m": 0, "marg_ot_0_3_f": 0, "per_marg_ot_0_3_p": 0.0, "per_marg_ot_0_3_m": 0.0, "per_marg_ot_0_3_f": 0.0, "non_work_p": 697, "non_work_m": 257, "non_work_f": 440, "per_non_work_p": 70.4752275, "per_non_work_m": 36.8723099, "per_non_work_f": 63.1276901, "per_hc_tot_tot": 100, "per_hc_tot_god": 11.8, "per_hc_tot_liv": 55.3, "per_hc_tot_dil": 32.9, "per_hc_res_tot": 96.7, "per_hc_res_god": 9.2, "per_hc_res_liv": 54.6, "per_hc_res_dil": 32.9, "per_hc_oth_tot": 3.3, "per_hc_oth_god": 2.6, "per_hc_oth_liv": 0.7, "per_hc_oth_dil": 0.0, "per_mt_grsbam": 34.9, "per_mt_plastic": 0.0, "per_mt_h_tiles": 30.9, "per_mt_m_tiles": 0.0, "per_mt_b_brick": 0.0, "per_mt_stone": 1.3, "per_mt_asbstos": 0.0, "per_mt_concrte": 32.9, "per_mt_oth": 0.0, "per_mw_grsbam": 0.0, "per_mw_plastic": 0.0, "per_mw_mud": 56.6, "per_mw_wood": 0.0, "per_mw_no_mrtr": 0.0, "per_mw_st_mrtr": 0.0, "per_mw_asbstos": 0.0, "per_mw_b_brick": 43.4, "per_mw_concrte": 0.0, "per_mw_oth": 0.0, "per_mf_mud": 84.2, "per_mf_wood": 0.0, "per_mf_b_brick": 0.0, "per_mf_stone": 0.7, "per_mf_cement": 15.1, "per_mf_fl_tile": 0.0, "per_mf_oth": 0.0, "per_dw_n_exrm": 0.0, "per_dw_1_room": 23.0, "per_dw_2_room": 30.3, "per_dw_3_room": 11.2, "per_dw_4_room": 18.4, "per_dw_5_room": 10.5, "per_dw_6_room": 6.6, "per_hhsize_1": 1.3, "per_hhsize_2": 5.9, "per_hhsize_3": 10.5, "per_hhsize_4": 15.1, "per_hhsize_5": 17.8, "per_hhsize_6_8": 32.2, "per_hhsize_9p": 17.1, "per_ow_owned": 100.0, "per_ow_rented": 0.0, "per_ow_oth": 0.0, "per_mc_none": 6.6, "per_mcouple_1": 64.5, "per_mcouple_2": 15.1, "per_mcouple_3": 9.2, "per_mcouple_4": 3.9, "per_mcouple_5p": 0.7, "per_dw_t_ts": 0.0, "per_dw_t_unts": 0.0, "per_dw_c_well": 0.0, "per_dw_unc_wel": 0.0, "per_dw_hpump": 100.0, "per_dw_tw_bore": 0.0, "per_dw_spring": 0.0, "per_dw_rivcan": 0.0, "per_dw_tank": 0.0, "per_dw_oth": 0.0, "per_loc_dw_wp": 80.3, "per_loc_dw_np": 15.8, "per_loc_dw_aw": 3.9, "per_light_elec": 0.0, "per_light_kero": 95.4, "per_light_solr": 4.6, "per_light_oil": 0.0, "per_light_oth": 0.0, "per_light_no": 0.0, "per_hh_latrine": 9.2, "per_fl_sewer": 0.0, "per_fl_septict": 7.9, "per_fl_othsys": 1.3, "per_pl_wslab": 0.0, "per_pl_without": 0.0, "per_ns_open": 0.0, "per_sl_ns_hum": 0.0, "per_sl_ns_anml": 0.0, "per_hh_no_lat": 90.8, "per_as_pub": 0.0, "per_as_open": 90.8, "per_hh_bathrm": 3.3, "per_hh_en_wrf": 5.3, "per_hh_no_btrm": 91.4, "per_wwoc_drain": 0.7, "per_wwoc_open": 77.0, "per_wwoc_nodrn": 22.4, "per_cook_fire": 0.0, "per_cook_resdu": 17.8, "per_cook_cwdng": 82.2, "per_cook_coal": 0.0, "per_cook_kero": 0.0, "per_cook_lpng": 0.0, "per_cook_elec": 0.0, "per_cook_biogs": 0.0, "per_cook_oth": 0.0, "per_cook_no": 0.0, "per_kf_inside": 100.0, "per_kf_in_has": 2.0, "per_kf_in_does": 98.0, "per_kf_outside": 0.0, "per_kf_out_has": 0.0, "per_kf_out_dos": 0.0, "per_kf_no_cook": 0.0, "per_hh_banking": 50.0, "per_hh_radio": 26.3, "per_hh_tv": 6.6, "per_hh_cmp_int": 0.0, "per_hh_cmp_wnt": 1.3, "per_hh_ph_ll": 0.0, "per_hh_ph_mob": 61.8, "per_hh_ph_bth": 0.7, "per_hh_bcycl": 63.8, "per_hh_2wheel": 9.2, "per_hh_4wheel": 0.0, "per_hh_tvcomp": 0.0, "per_hh_no_ast": 28.9, "per_hs_perma": 38.8, "per_hs_sperma": 30.9, "per_hs_temp": 30.3, "per_hs_servc": 30.3, "per_hs_nservc": 0.0, "per_hs_unclss": 0.0, "avghhsz_cy": 6.42207792, "st_areashape": 1516076.09950128, "st_lengthshape": 5063.8602099853715}, "geometry": {"type": "Polygon", "coordinates": [[[84.69806637104845, 25.07560476170075], [84.69716318869209, 25.076078373353297], [84.6953568221828, 25.075432539049373], [84.6940733515257, 25.074485309730168], [84.69269480946711, 25.072332489091234], [84.6936455279733, 25.071040777565937], [84.69255220191576, 25.06953376438149], [84.69245712961595, 25.068198965720764], [84.69502407093023, 25.06647662334895], [84.70015795266045, 25.06505567312965], [84.70367561248092, 25.062515144238727], [84.70386575618215, 25.06479731640366], [84.70415097218319, 25.066648859408247], [84.70462633188545, 25.06738085670365], [84.7047689394368, 25.06871566427953], [84.70557705039165, 25.070308802142417], [84.7061474823937, 25.071815805790507], [84.70529183528895, 25.07254777220725], [84.70262982167492, 25.073667242703625], [84.69901709045298, 25.075131149030003], [84.69806637104845, 25.07560476170075]]]}}]}