{"type": "FeatureCollection", "features": [{"type": "Feature", "properties": {"premiumdata.sde.IN_Village_PCA.area": 0.31363331, "objectid": 441750, "id": "222129606780", "name": "Dharoh", "subdistrict": "Sarkaghat", "district": "Mandi", "state": "Himachal Pradesh", "country": "India", "censusname": "Dharoh (276)", "villagename_locallang": null, "lgd_villagename": "Dharoh", "lgd_villagecode": 13924, "lgd_subdistrictcode": 129, "lgd_districtcode": 22, "lgd_statecode": 2, "censuscode2001": "00709200", "censuscode2011": "013924", "censuscode2021": null, "level": "Village", "tru": "Rural", "no_hh": 32, "tot_p": 181, "tot_m": 91, "tot_f": 90, "per_tot_m": 50.27624309, "per_tot_f": 49.72375691, "p_06": 15, "m_06": 8, "f_06": 7, "per_p_06": 8.28729282, "per_m_06": 53.33333333, "per_f_06": 46.66666667000001, "p_sc": 52, "m_sc": 25, "f_sc": 27, "per_p_sc": 28.72928177, "per_m_sc": 48.07692308, "per_f_sc": 51.92307692, "p_st": 0, "m_st": 0, "f_st": 0, "per_p_st": 0.0, "per_m_st": 0.0, "per_f_st": 0.0, "p_lit": 147, "m_lit": 78, "f_lit": 69, "per_p_lit": 81.21546961, "per_m_lit": 53.06122449, "per_f_lit": 46.93877551, "p_ill": 34, "m_ill": 13, "f_ill": 21, "per_p_ill": 18.78453039, "per_m_ill": 38.23529412, "per_f_ill": 61.76470588, "tot_work_p": 54, "tot_work_m": 45, "tot_work_f": 9, "per_tot_work_p": 29.83425414, "per_tot_work_m": 83.33333332999999, "per_tot_work_f": 16.66666667, "mainwork_p": 25, "mainwork_m": 20, "mainwork_f": 5, "per_mainwork_p": 13.8121547, "per_mainwork_m": 80.0, "per_mainwork_f": 20.0, "main_cl_p": 1, "main_cl_m": 0, "main_cl_f": 1, "per_main_cl_p": 4.0, "per_main_cl_m": 0.0, "per_main_cl_f": 100.0, "main_al_p": 0, "main_al_m": 0, "main_al_f": 0, "per_main_al_p": 0.0, "per_main_al_m": 0.0, "per_main_al_f": 0.0, "main_hh_p": 0, "main_hh_m": 0, "main_hh_f": 0, "per_main_hh_p": 0.0, "per_main_hh_m": 0.0, "per_main_hh_f": 0.0, "main_ot_p": 24, "main_ot_m": 20, "main_ot_f": 4, "per_main_ot_p": 96.0, "per_main_ot_m": 83.33333332999999, "per_main_ot_f": 16.66666667, "margwork_p": 29, "margwork_m": 25, "margwork_f": 4, "per_margwork_p": 16.02209945, "per_margwork_m": 86.20689655, "per_margwork_f": 13.79310345, "marg_cl_p": 6, "marg_cl_m": 5, "marg_cl_f": 1, "per_marg_cl_p": 20.68965517, "per_marg_cl_m": 83.33333332999999, "per_marg_cl_f": 16.66666667, "marg_al_p": 0, "marg_al_m": 0, "marg_al_f": 0, "per_marg_al_p": 0.0, "per_marg_al_m": 0.0, "per_marg_al_f": 0.0, "marg_hh_p": 0, "marg_hh_m": 0, "marg_hh_f": 0, "per_marg_hh_p": 0.0, "per_marg_hh_m": 0.0, "per_marg_hh_f": 0.0, "marg_ot_p": 23, "marg_ot_m": 20, "marg_ot_f": 3, "per_marg_ot_p": 79.31034483, "per_marg_ot_m": 86.95652174, "per_marg_ot_f": 13.04347826, "margwork_3_6_p": 29, "margwork_3_6_m": 25, "margwork_3_6_f": 4, "per_margwork_3_6_p": 100.0, "per_margwork_3_6_m": 86.20689655, "per_margwork_3_6_f": 13.79310345, "marg_cl_3_6_p": 6, "marg_cl_3_6_m": 5, "marg_cl_3_6_f": 1, "per_marg_cl_3_6_p": 20.68965517, "per_marg_cl_3_6_m": 83.33333332999999, "per_marg_cl_3_6_f": 16.66666667, "marg_al_3_6_p": 0, "marg_al_3_6_m": 0, "marg_al_3_6_f": 0, "per_marg_al_3_6_p": 0.0, "per_marg_al_3_6_m": 0.0, "per_marg_al_3_6_f": 0.0, "marg_hh_3_6_p": 0, "marg_hh_3_6_m": 0, "marg_hh_3_6_f": 0, "per_marg_hh_3_6_p": 0.0, "per_marg_hh_3_6_m": 0.0, "per_marg_hh_3_6_f": 0.0, "marg_ot_3_6_p": 23, "marg_ot_3_6_m": 20, "marg_ot_3_6_f": 3, "per_marg_ot_3_6_p": 79.31034483, "per_marg_ot_3_6_m": 86.95652174, "per_marg_ot_3_6_f": 13.04347826, "margwork_0_3_p": 0, "margwork_0_3_m": 0, "margwork_0_3_f": 0, "per_margwork_0_3_p": 0.0, "per_margwork_0_3_m": 0.0, "per_margwork_0_3_f": 0.0, "marg_cl_0_3_p": 0, "marg_cl_0_3_m": 0, "marg_cl_0_3_f": 0, "per_marg_cl_0_3_p": 0.0, "per_marg_cl_0_3_m": 0.0, "per_marg_cl_0_3_f": 0.0, "marg_al_0_3_p": 0, "marg_al_0_3_m": 0, "marg_al_0_3_f": 0, "per_marg_al_0_3_p": 0.0, "per_marg_al_0_3_m": 0.0, "per_marg_al_0_3_f": 0.0, "marg_hh_0_3_p": 0, "marg_hh_0_3_m": 0, "marg_hh_0_3_f": 0, "per_marg_hh_0_3_p": 0.0, "per_marg_hh_0_3_m": 0.0, "per_marg_hh_0_3_f": 0.0, "marg_ot_0_3_p": 0, "marg_ot_0_3_m": 0, "marg_ot_0_3_f": 0, "per_marg_ot_0_3_p": 0.0, "per_marg_ot_0_3_m": 0.0, "per_marg_ot_0_3_f": 0.0, "non_work_p": 127, "non_work_m": 46, "non_work_f": 81, "per_non_work_p": 70.16574586, "per_non_work_m": 36.22047244, "per_non_work_f": 63.77952756, "per_hc_tot_tot": 100, "per_hc_tot_god": 100.0, "per_hc_tot_liv": 0.0, "per_hc_tot_dil": 0.0, "per_hc_res_tot": 100.0, "per_hc_res_god": 100.0, "per_hc_res_liv": 0.0, "per_hc_res_dil": 0.0, "per_hc_oth_tot": 0.0, "per_hc_oth_god": 0.0, "per_hc_oth_liv": 0.0, "per_hc_oth_dil": 0.0, "per_mt_grsbam": 0.0, "per_mt_plastic": 0.0, "per_mt_h_tiles": 0.0, "per_mt_m_tiles": 0.0, "per_mt_b_brick": 0.0, "per_mt_stone": 57.6, "per_mt_asbstos": 0.0, "per_mt_concrte": 42.4, "per_mt_oth": 0.0, "per_mw_grsbam": 0.0, "per_mw_plastic": 0.0, "per_mw_mud": 24.2, "per_mw_wood": 0.0, "per_mw_no_mrtr": 0.0, "per_mw_st_mrtr": 3.0, "per_mw_asbstos": 0.0, "per_mw_b_brick": 72.7, "per_mw_concrte": 0.0, "per_mw_oth": 0.0, "per_mf_mud": 24.2, "per_mf_wood": 0.0, "per_mf_b_brick": 0.0, "per_mf_stone": 0.0, "per_mf_cement": 75.8, "per_mf_fl_tile": 0.0, "per_mf_oth": 0.0, "per_dw_n_exrm": 0.0, "per_dw_1_room": 0.0, "per_dw_2_room": 15.2, "per_dw_3_room": 12.1, "per_dw_4_room": 21.2, "per_dw_5_room": 6.1, "per_dw_6_room": 45.5, "per_hhsize_1": 6.1, "per_hhsize_2": 0.0, "per_hhsize_3": 3.0, "per_hhsize_4": 45.5, "per_hhsize_5": 12.1, "per_hhsize_6_8": 18.2, "per_hhsize_9p": 15.2, "per_ow_owned": 100.0, "per_ow_rented": 0.0, "per_ow_oth": 0.0, "per_mc_none": 15.2, "per_mcouple_1": 39.4, "per_mcouple_2": 30.3, "per_mcouple_3": 12.1, "per_mcouple_4": 0.0, "per_mcouple_5p": 3.0, "per_dw_t_ts": 93.9, "per_dw_t_unts": 0.0, "per_dw_c_well": 0.0, "per_dw_unc_wel": 0.0, "per_dw_hpump": 6.1, "per_dw_tw_bore": 0.0, "per_dw_spring": 0.0, "per_dw_rivcan": 0.0, "per_dw_tank": 0.0, "per_dw_oth": 0.0, "per_loc_dw_wp": 93.9, "per_loc_dw_np": 6.1, "per_loc_dw_aw": 0.0, "per_light_elec": 100.0, "per_light_kero": 0.0, "per_light_solr": 0.0, "per_light_oil": 0.0, "per_light_oth": 0.0, "per_light_no": 0.0, "per_hh_latrine": 100.0, "per_fl_sewer": 0.0, "per_fl_septict": 100.0, "per_fl_othsys": 0.0, "per_pl_wslab": 0.0, "per_pl_without": 0.0, "per_ns_open": 0.0, "per_sl_ns_hum": 0.0, "per_sl_ns_anml": 0.0, "per_hh_no_lat": 0.0, "per_as_pub": 0.0, "per_as_open": 0.0, "per_hh_bathrm": 97.0, "per_hh_en_wrf": 0.0, "per_hh_no_btrm": 3.0, "per_wwoc_drain": 0.0, "per_wwoc_open": 100.0, "per_wwoc_nodrn": 0.0, "per_cook_fire": 36.4, "per_cook_resdu": 0.0, "per_cook_cwdng": 0.0, "per_cook_coal": 0.0, "per_cook_kero": 0.0, "per_cook_lpng": 63.6, "per_cook_elec": 0.0, "per_cook_biogs": 0.0, "per_cook_oth": 0.0, "per_cook_no": 0.0, "per_kf_inside": 100.0, "per_kf_in_has": 100.0, "per_kf_in_does": 0.0, "per_kf_outside": 0.0, "per_kf_out_has": 0.0, "per_kf_out_dos": 0.0, "per_kf_no_cook": 0.0, "per_hh_banking": 93.9, "per_hh_radio": 15.2, "per_hh_tv": 90.9, "per_hh_cmp_int": 15.2, "per_hh_cmp_wnt": 0.0, "per_hh_ph_ll": 15.2, "per_hh_ph_mob": 72.7, "per_hh_ph_bth": 9.1, "per_hh_bcycl": 0.0, "per_hh_2wheel": 3.0, "per_hh_4wheel": 6.1, "per_hh_tvcomp": null, "per_hh_no_ast": 0.0, "per_hs_perma": 75.8, "per_hs_sperma": 24.2, "per_hs_temp": 0.0, "per_hs_servc": 0.0, "per_hs_nservc": 0.0, "per_hs_unclss": 0.0, "avghhsz_cy": 5.65625, "st_areashape": 434323.80444044, "st_lengthshape": 3115.2145132929368}, "geometry": {"type": "Polygon", "coordinates": [[[76.71946355881146, 31.66770801866681], [76.72105335048889, 31.66752804199869], [76.72130858611563, 31.667513595560315], [76.72098044142383, 31.668076006477698], [76.72109928134938, 31.669593169932924], [76.72169348097724, 31.67131259199215], [76.72204999985561, 31.67242514197478], [76.72264419948343, 31.67318369089635], [76.72317897914847, 31.67419508083984], [76.7234760789624, 31.675155890318898], [76.72285811170879, 31.67521151617649], [76.72220449211817, 31.675717200717884], [76.7210755137236, 31.676425155519723], [76.72006537435627, 31.677031968860764], [76.71947117562675, 31.676526291479355], [76.71887697599894, 31.675666632311255], [76.71792625659438, 31.675009241283007], [76.71739235368507, 31.67472796206109], [76.71792625659438, 31.673745013980994], [76.71846103625946, 31.672632479045593], [76.71875813607335, 31.67157050221148], [76.71875813607335, 31.670609655637232], [76.71893639596172, 31.669294796566454], [76.71946355881146, 31.66770801866681]]]}}]}