{"type": "FeatureCollection", "features": [{"type": "Feature", "properties": {"premiumdata.sde.IN_Village_PCA.area": 4.21562123, "objectid": 31283, "id": "295425591111435", "name": "Jaderi", "subdistrict": "Kolar", "district": "Kolar", "state": "Karnataka", "country": "India", "censusname": "Jaderi", "villagename_locallang": null, "lgd_villagename": "Jaderi", "lgd_villagecode": 621948, "lgd_subdistrictcode": 5591, "lgd_districtcode": 542, "lgd_statecode": 29, "censuscode2001": "01905900", "censuscode2011": "621948", "censuscode2021": null, "level": "Village", "tru": "Rural", "no_hh": 154, "tot_p": 704, "tot_m": 356, "tot_f": 348, "per_tot_m": 50.56818182, "per_tot_f": 49.43181818, "p_06": 78, "m_06": 46, "f_06": 32, "per_p_06": 11.07954545, "per_m_06": 58.97435897, "per_f_06": 41.02564103, "p_sc": 91, "m_sc": 51, "f_sc": 40, "per_p_sc": 12.92613636, "per_m_sc": 56.04395604, "per_f_sc": 43.95604396, "p_st": 51, "m_st": 22, "f_st": 29, "per_p_st": 7.24431818, "per_m_st": 43.1372549, "per_f_st": 56.8627451, "p_lit": 458, "m_lit": 258, "f_lit": 200, "per_p_lit": 65.05681818, "per_m_lit": 56.33187773, "per_f_lit": 43.66812227, "p_ill": 246, "m_ill": 98, "f_ill": 148, "per_p_ill": 34.94318182, "per_m_ill": 39.83739837, "per_f_ill": 60.16260163, "tot_work_p": 257, "tot_work_m": 222, "tot_work_f": 35, "per_tot_work_p": 36.50568182, "per_tot_work_m": 86.38132296, "per_tot_work_f": 13.61867704, "mainwork_p": 256, "mainwork_m": 221, "mainwork_f": 35, "per_mainwork_p": 36.36363636, "per_mainwork_m": 86.328125, "per_mainwork_f": 13.671875, "main_cl_p": 152, "main_cl_m": 146, "main_cl_f": 6, "per_main_cl_p": 59.375, "per_main_cl_m": 96.05263158, "per_main_cl_f": 3.94736842, "main_al_p": 72, "main_al_m": 51, "main_al_f": 21, "per_main_al_p": 28.125, "per_main_al_m": 70.83333332999999, "per_main_al_f": 29.16666667, "main_hh_p": 0, "main_hh_m": 0, "main_hh_f": 0, "per_main_hh_p": 0.0, "per_main_hh_m": 0.0, "per_main_hh_f": 0.0, "main_ot_p": 32, "main_ot_m": 24, "main_ot_f": 8, "per_main_ot_p": 12.5, "per_main_ot_m": 75.0, "per_main_ot_f": 25.0, "margwork_p": 1, "margwork_m": 1, "margwork_f": 0, "per_margwork_p": 0.14204545, "per_margwork_m": 100.0, "per_margwork_f": 0.0, "marg_cl_p": 0, "marg_cl_m": 0, "marg_cl_f": 0, "per_marg_cl_p": 0.0, "per_marg_cl_m": 0.0, "per_marg_cl_f": 0.0, "marg_al_p": 0, "marg_al_m": 0, "marg_al_f": 0, "per_marg_al_p": 0.0, "per_marg_al_m": 0.0, "per_marg_al_f": 0.0, "marg_hh_p": 0, "marg_hh_m": 0, "marg_hh_f": 0, "per_marg_hh_p": 0.0, "per_marg_hh_m": 0.0, "per_marg_hh_f": 0.0, "marg_ot_p": 1, "marg_ot_m": 1, "marg_ot_f": 0, "per_marg_ot_p": 100.0, "per_marg_ot_m": 100.0, "per_marg_ot_f": 0.0, "margwork_3_6_p": 1, "margwork_3_6_m": 1, "margwork_3_6_f": 0, "per_margwork_3_6_p": 100.0, "per_margwork_3_6_m": 100.0, "per_margwork_3_6_f": 0.0, "marg_cl_3_6_p": 0, "marg_cl_3_6_m": 0, "marg_cl_3_6_f": 0, "per_marg_cl_3_6_p": 0.0, "per_marg_cl_3_6_m": 0.0, "per_marg_cl_3_6_f": 0.0, "marg_al_3_6_p": 0, "marg_al_3_6_m": 0, "marg_al_3_6_f": 0, "per_marg_al_3_6_p": 0.0, "per_marg_al_3_6_m": 0.0, "per_marg_al_3_6_f": 0.0, "marg_hh_3_6_p": 0, "marg_hh_3_6_m": 0, "marg_hh_3_6_f": 0, "per_marg_hh_3_6_p": 0.0, "per_marg_hh_3_6_m": 0.0, "per_marg_hh_3_6_f": 0.0, "marg_ot_3_6_p": 1, "marg_ot_3_6_m": 1, "marg_ot_3_6_f": 0, "per_marg_ot_3_6_p": 100.0, "per_marg_ot_3_6_m": 100.0, "per_marg_ot_3_6_f": 0.0, "margwork_0_3_p": 0, "margwork_0_3_m": 0, "margwork_0_3_f": 0, "per_margwork_0_3_p": 0.0, "per_margwork_0_3_m": 0.0, "per_margwork_0_3_f": 0.0, "marg_cl_0_3_p": 0, "marg_cl_0_3_m": 0, "marg_cl_0_3_f": 0, "per_marg_cl_0_3_p": 0.0, "per_marg_cl_0_3_m": 0.0, "per_marg_cl_0_3_f": 0.0, "marg_al_0_3_p": 0, "marg_al_0_3_m": 0, "marg_al_0_3_f": 0, "per_marg_al_0_3_p": 0.0, "per_marg_al_0_3_m": 0.0, "per_marg_al_0_3_f": 0.0, "marg_hh_0_3_p": 0, "marg_hh_0_3_m": 0, "marg_hh_0_3_f": 0, "per_marg_hh_0_3_p": 0.0, "per_marg_hh_0_3_m": 0.0, "per_marg_hh_0_3_f": 0.0, "marg_ot_0_3_p": 0, "marg_ot_0_3_m": 0, "marg_ot_0_3_f": 0, "per_marg_ot_0_3_p": 0.0, "per_marg_ot_0_3_m": 0.0, "per_marg_ot_0_3_f": 0.0, "non_work_p": 447, "non_work_m": 134, "non_work_f": 313, "per_non_work_p": 63.49431818, "per_non_work_m": 29.97762864, "per_non_work_f": 70.02237136000001, "per_hc_tot_tot": 100, "per_hc_tot_god": 94.2, "per_hc_tot_liv": 5.2, "per_hc_tot_dil": 0.6, "per_hc_res_tot": 94.2, "per_hc_res_god": 88.3, "per_hc_res_liv": 5.2, "per_hc_res_dil": 0.6, "per_hc_oth_tot": 5.8, "per_hc_oth_god": 5.8, "per_hc_oth_liv": 0.0, "per_hc_oth_dil": 0.0, "per_mt_grsbam": 16.2, "per_mt_plastic": 0.0, "per_mt_h_tiles": 3.2, "per_mt_m_tiles": 0.6, "per_mt_b_brick": 0.0, "per_mt_stone": 77.9, "per_mt_asbstos": 1.3, "per_mt_concrte": 0.6, "per_mt_oth": 0.0, "per_mw_grsbam": 0.0, "per_mw_plastic": 0.0, "per_mw_mud": 24.7, "per_mw_wood": 0.0, "per_mw_no_mrtr": 0.0, "per_mw_st_mrtr": 3.9, "per_mw_asbstos": 0.0, "per_mw_b_brick": 71.4, "per_mw_concrte": 0.0, "per_mw_oth": 0.0, "per_mf_mud": 23.4, "per_mf_wood": 0.0, "per_mf_b_brick": 0.0, "per_mf_stone": 0.6, "per_mf_cement": 68.2, "per_mf_fl_tile": 7.8, "per_mf_oth": 0.0, "per_dw_n_exrm": 29.9, "per_dw_1_room": 48.7, "per_dw_2_room": 18.2, "per_dw_3_room": 1.9, "per_dw_4_room": 1.3, "per_dw_5_room": 0.0, "per_dw_6_room": 0.0, "per_hhsize_1": 4.5, "per_hhsize_2": 8.4, "per_hhsize_3": 10.4, "per_hhsize_4": 26.6, "per_hhsize_5": 19.5, "per_hhsize_6_8": 22.7, "per_hhsize_9p": 7.8, "per_ow_owned": 95.5, "per_ow_rented": 1.9, "per_ow_oth": 2.6, "per_mc_none": 9.7, "per_mcouple_1": 62.3, "per_mcouple_2": 20.1, "per_mcouple_3": 7.8, "per_mcouple_4": 0.0, "per_mcouple_5p": 0.0, "per_dw_t_ts": 0.6, "per_dw_t_unts": 74.0, "per_dw_c_well": 0.0, "per_dw_unc_wel": 0.0, "per_dw_hpump": 0.0, "per_dw_tw_bore": 25.3, "per_dw_spring": 0.0, "per_dw_rivcan": 0.0, "per_dw_tank": 0.0, "per_dw_oth": 0.0, "per_loc_dw_wp": 26.6, "per_loc_dw_np": 61.0, "per_loc_dw_aw": 12.3, "per_light_elec": 96.8, "per_light_kero": 3.2, "per_light_solr": 0.0, "per_light_oil": 0.0, "per_light_oth": 0.0, "per_light_no": 0.0, "per_hh_latrine": 18.8, "per_fl_sewer": 0.0, "per_fl_septict": 0.0, "per_fl_othsys": 1.3, "per_pl_wslab": 17.5, "per_pl_without": 0.0, "per_ns_open": 0.0, "per_sl_ns_hum": 0.0, "per_sl_ns_anml": 0.0, "per_hh_no_lat": 81.2, "per_as_pub": 0.0, "per_as_open": 81.2, "per_hh_bathrm": 37.7, "per_hh_en_wrf": 40.3, "per_hh_no_btrm": 22.1, "per_wwoc_drain": 0.0, "per_wwoc_open": 55.8, "per_wwoc_nodrn": 44.2, "per_cook_fire": 93.5, "per_cook_resdu": 0.0, "per_cook_cwdng": 0.0, "per_cook_coal": 0.0, "per_cook_kero": 0.0, "per_cook_lpng": 0.6, "per_cook_elec": 0.0, "per_cook_biogs": 5.8, "per_cook_oth": 0.0, "per_cook_no": 0.0, "per_kf_inside": 99.4, "per_kf_in_has": 98.7, "per_kf_in_does": 0.6, "per_kf_outside": 0.6, "per_kf_out_has": 0.0, "per_kf_out_dos": 0.6, "per_kf_no_cook": 0.0, "per_hh_banking": 54.5, "per_hh_radio": 6.5, "per_hh_tv": 52.6, "per_hh_cmp_int": 0.0, "per_hh_cmp_wnt": 0.6, "per_hh_ph_ll": 13.0, "per_hh_ph_mob": 42.9, "per_hh_ph_bth": 12.3, "per_hh_bcycl": 53.9, "per_hh_2wheel": 26.0, "per_hh_4wheel": 2.6, "per_hh_tvcomp": 0.0, "per_hh_no_ast": 16.9, "per_hs_perma": 74.7, "per_hs_sperma": 9.7, "per_hs_temp": 15.6, "per_hs_servc": 15.6, "per_hs_nservc": 0.0, "per_hs_unclss": 0.0, "avghhsz_cy": 4.57142857, "st_areashape": 4476919.644609615, "st_lengthshape": 10080.704938150953}, "geometry": {"type": "Polygon", "coordinates": [[[78.24487633324955, 13.27760908558403], [78.24458478861733, 13.277639816428326], [78.24419985961977, 13.27835393391752], [78.24387737611087, 13.279006825784144], [78.24336762530628, 13.280006576357804], [78.24297244203974, 13.281067468894529], [78.24253559670697, 13.282118179232517], [78.24204664639274, 13.283087318857483], [78.24188031702971, 13.28367894504932], [78.24125042194572, 13.283883209186913], [78.24027176224092, 13.284250810237424], [78.23909530608695, 13.284740883780199], [78.23838735369299, 13.285047165362682], [78.23831390384211, 13.283833495897943], [78.23825092834743, 13.282752409883022], [78.23833370271097, 13.281599867894482], [78.23840607727846, 13.280477927643203], [78.23846821195004, 13.279733360354696], [78.23856166099412, 13.279151966930685], [78.23789494486495, 13.278519904751574], [78.23680131427851, 13.277903321302526], [78.2359317055576, 13.277602814214617], [78.23480168781226, 13.27709842876769], [78.23374471837084, 13.276940780341484], [78.23237537326415, 13.276798553680486], [78.23146938636751, 13.27663063459106], [78.23053222972712, 13.276620812640951], [78.22912121985921, 13.276437788912272], [78.22841834833652, 13.276417666750408], [78.22742391780857, 13.276392556668144], [78.22675111200013, 13.276291622329865], [78.22610551616161, 13.276281670094274], [78.22545068743862, 13.276372916245483], [78.22578326262145, 13.27482251389303], [78.22586127142239, 13.274608301193634], [78.22596498641352, 13.273603640963826], [78.22600642569758, 13.273088567411232], [78.22621940367502, 13.271915578980455], [78.22628170183997, 13.271482090299722], [78.2264012622144, 13.271033280034484], [78.22668218426837, 13.270502814612598], [78.22704093456191, 13.269339968187175], [78.22749348244585, 13.268386168993613], [78.22777430029524, 13.26762112086166], [78.22814877469953, 13.266733645083697], [78.22848162117354, 13.265897182311441], [78.22888735784802, 13.265081086328692], [78.22937637912916, 13.264234359991312], [78.22962603891291, 13.26368350469703], [78.22987569061183, 13.263112251217503], [78.23038551058671, 13.262224718754677], [78.23095773832102, 13.261194370177726], [78.23155608906376, 13.260388394034845], [78.23200357224613, 13.259842555007479], [78.23269046184163, 13.259138531031406], [78.23320558996153, 13.258526369055268], [78.23351257034524, 13.258128474048869], [78.23412680240394, 13.257954834151192], [78.2344599165759, 13.257801708679613], [78.23504289444921, 13.2575872816191], [78.23567790723531, 13.257321837208192], [78.23626085187097, 13.257046213895128], [78.23694791573962, 13.256770544802063], [78.23756208581452, 13.256474505883002], [78.23844625712451, 13.257117472916779], [78.23969602478881, 13.257830875152097], [78.24119572532473, 13.258625752644956], [78.24226960734796, 13.259267029957751], [78.24246697440239, 13.260685424962867], [78.24282200926395, 13.26282709612622], [78.2432604059872, 13.265091120337411], [78.2438655587733, 13.26766104138744], [78.24424161870407, 13.270169870384255], [78.24759453019637, 13.270331512765718], [78.24879590202305, 13.270330948823933], [78.25005105239254, 13.270382675832284], [78.25104238103782, 13.271684766435303], [78.24879587237865, 13.273577832011602], [78.248560758116, 13.274180454024235], [78.24583255483518, 13.274018537046185], [78.24566635123625, 13.27483454705129], [78.24531242669242, 13.275059092162659], [78.24529180586508, 13.275477267917667], [78.24505256204704, 13.275987336236827], [78.24487633324955, 13.27760908558403]]]}}]}