{"type": "FeatureCollection", "features": [{"type": "Feature", "properties": {"premiumdata.sde.IN_Village_PCA.area": 3.82442261, "objectid": 324115, "id": "6701402350014", "name": "Makrani", "subdistrict": "Dadri", "district": "Charki Dadri", "state": "Haryana", "country": "India", "censusname": "Makrani (75)", "villagename_locallang": null, "lgd_villagename": "Makrani", "lgd_villagecode": 61502, "lgd_subdistrictcode": 402, "lgd_districtcode": 701, "lgd_statecode": 6, "censuscode2001": "00460900", "censuscode2011": "061502", "censuscode2021": null, "level": "Village", "tru": "Rural", "no_hh": 305, "tot_p": 1610, "tot_m": 836, "tot_f": 774, "per_tot_m": 51.92546584, "per_tot_f": 48.07453416, "p_06": 214, "m_06": 116, "f_06": 98, "per_p_06": 13.29192547, "per_m_06": 54.20560748, "per_f_06": 45.79439252, "p_sc": 480, "m_sc": 256, "f_sc": 224, "per_p_sc": 29.8136646, "per_m_sc": 53.33333333, "per_f_sc": 46.66666667000001, "p_st": 0, "m_st": 0, "f_st": 0, "per_p_st": 0.0, "per_m_st": 0.0, "per_f_st": 0.0, "p_lit": 1034, "m_lit": 618, "f_lit": 416, "per_p_lit": 64.22360248000001, "per_m_lit": 59.76789168, "per_f_lit": 40.23210832, "p_ill": 576, "m_ill": 218, "f_ill": 358, "per_p_ill": 35.77639752, "per_m_ill": 37.84722222, "per_f_ill": 62.15277778, "tot_work_p": 637, "tot_work_m": 409, "tot_work_f": 228, "per_tot_work_p": 39.56521739, "per_tot_work_m": 64.20722135, "per_tot_work_f": 35.79277865, "mainwork_p": 462, "mainwork_m": 344, "mainwork_f": 118, "per_mainwork_p": 28.69565217, "per_mainwork_m": 74.45887446, "per_mainwork_f": 25.54112554, "main_cl_p": 227, "main_cl_m": 217, "main_cl_f": 10, "per_main_cl_p": 49.13419913, "per_main_cl_m": 95.59471366, "per_main_cl_f": 4.40528634, "main_al_p": 4, "main_al_m": 4, "main_al_f": 0, "per_main_al_p": 0.86580087, "per_main_al_m": 100.0, "per_main_al_f": 0.0, "main_hh_p": 1, "main_hh_m": 0, "main_hh_f": 1, "per_main_hh_p": 0.21645022, "per_main_hh_m": 0.0, "per_main_hh_f": 100.0, "main_ot_p": 230, "main_ot_m": 123, "main_ot_f": 107, "per_main_ot_p": 49.78354978, "per_main_ot_m": 53.47826087, "per_main_ot_f": 46.52173913, "margwork_p": 175, "margwork_m": 65, "margwork_f": 110, "per_margwork_p": 10.86956522, "per_margwork_m": 37.14285714, "per_margwork_f": 62.85714286, "marg_cl_p": 77, "marg_cl_m": 17, "marg_cl_f": 60, "per_marg_cl_p": 44.0, "per_marg_cl_m": 22.07792208, "per_marg_cl_f": 77.92207792, "marg_al_p": 15, "marg_al_m": 14, "marg_al_f": 1, "per_marg_al_p": 8.57142857, "per_marg_al_m": 93.33333332999999, "per_marg_al_f": 6.66666667, "marg_hh_p": 1, "marg_hh_m": 1, "marg_hh_f": 0, "per_marg_hh_p": 0.57142857, "per_marg_hh_m": 100.0, "per_marg_hh_f": 0.0, "marg_ot_p": 82, "marg_ot_m": 33, "marg_ot_f": 49, "per_marg_ot_p": 46.85714286, "per_marg_ot_m": 40.24390244, "per_marg_ot_f": 59.75609756, "margwork_3_6_p": 118, "margwork_3_6_m": 51, "margwork_3_6_f": 67, "per_margwork_3_6_p": 67.42857143, "per_margwork_3_6_m": 43.22033898, "per_margwork_3_6_f": 56.77966102, "marg_cl_3_6_p": 51, "marg_cl_3_6_m": 10, "marg_cl_3_6_f": 41, "per_marg_cl_3_6_p": 29.14285714, "per_marg_cl_3_6_m": 19.60784314, "per_marg_cl_3_6_f": 80.39215686, "marg_al_3_6_p": 9, "marg_al_3_6_m": 8, "marg_al_3_6_f": 1, "per_marg_al_3_6_p": 5.14285714, "per_marg_al_3_6_m": 88.88888889, "per_marg_al_3_6_f": 11.11111111, "marg_hh_3_6_p": 1, "marg_hh_3_6_m": 1, "marg_hh_3_6_f": 0, "per_marg_hh_3_6_p": 0.57142857, "per_marg_hh_3_6_m": 100.0, "per_marg_hh_3_6_f": 0.0, "marg_ot_3_6_p": 57, "marg_ot_3_6_m": 32, "marg_ot_3_6_f": 25, "per_marg_ot_3_6_p": 32.57142857, "per_marg_ot_3_6_m": 56.14035088000001, "per_marg_ot_3_6_f": 43.85964912, "margwork_0_3_p": 57, "margwork_0_3_m": 14, "margwork_0_3_f": 43, "per_margwork_0_3_p": 32.57142857, "per_margwork_0_3_m": 24.56140351, "per_margwork_0_3_f": 75.43859649000001, "marg_cl_0_3_p": 26, "marg_cl_0_3_m": 7, "marg_cl_0_3_f": 19, "per_marg_cl_0_3_p": 14.85714286, "per_marg_cl_0_3_m": 26.92307692, "per_marg_cl_0_3_f": 73.07692308, "marg_al_0_3_p": 6, "marg_al_0_3_m": 6, "marg_al_0_3_f": 0, "per_marg_al_0_3_p": 3.42857143, "per_marg_al_0_3_m": 100.0, "per_marg_al_0_3_f": 0.0, "marg_hh_0_3_p": 0, "marg_hh_0_3_m": 0, "marg_hh_0_3_f": 0, "per_marg_hh_0_3_p": 0.0, "per_marg_hh_0_3_m": 0.0, "per_marg_hh_0_3_f": 0.0, "marg_ot_0_3_p": 25, "marg_ot_0_3_m": 1, "marg_ot_0_3_f": 24, "per_marg_ot_0_3_p": 14.28571429, "per_marg_ot_0_3_m": 4.0, "per_marg_ot_0_3_f": 96.0, "non_work_p": 973, "non_work_m": 427, "non_work_f": 546, "per_non_work_p": 60.43478261, "per_non_work_m": 43.88489209, "per_non_work_f": 56.11510791, "per_hc_tot_tot": 100, "per_hc_tot_god": 54.6, "per_hc_tot_liv": 44.4, "per_hc_tot_dil": 1.0, "per_hc_res_tot": 62.7, "per_hc_res_god": 30.2, "per_hc_res_liv": 31.9, "per_hc_res_dil": 0.7, "per_hc_oth_tot": 37.3, "per_hc_oth_god": 24.4, "per_hc_oth_liv": 12.5, "per_hc_oth_dil": 0.3, "per_mt_grsbam": 5.1, "per_mt_plastic": 1.4, "per_mt_h_tiles": 0.0, "per_mt_m_tiles": 0.0, "per_mt_b_brick": 32.2, "per_mt_stone": 29.8, "per_mt_asbstos": 2.7, "per_mt_concrte": 28.8, "per_mt_oth": 0.0, "per_mw_grsbam": 0.0, "per_mw_plastic": 0.0, "per_mw_mud": 0.3, "per_mw_wood": 0.0, "per_mw_no_mrtr": 0.0, "per_mw_st_mrtr": 0.3, "per_mw_asbstos": 0.0, "per_mw_b_brick": 99.0, "per_mw_concrte": 0.3, "per_mw_oth": 0.0, "per_mf_mud": 37.3, "per_mf_wood": 0.0, "per_mf_b_brick": 2.0, "per_mf_stone": 1.4, "per_mf_cement": 51.2, "per_mf_fl_tile": 8.1, "per_mf_oth": 0.0, "per_dw_n_exrm": 0.3, "per_dw_1_room": 15.9, "per_dw_2_room": 36.9, "per_dw_3_room": 18.6, "per_dw_4_room": 11.2, "per_dw_5_room": 7.8, "per_dw_6_room": 9.2, "per_hhsize_1": 1.4, "per_hhsize_2": 6.4, "per_hhsize_3": 10.2, "per_hhsize_4": 26.1, "per_hhsize_5": 20.7, "per_hhsize_6_8": 25.8, "per_hhsize_9p": 9.5, "per_ow_owned": 100.0, "per_ow_rented": 0.0, "per_ow_oth": 0.0, "per_mc_none": 11.2, "per_mcouple_1": 65.1, "per_mcouple_2": 16.3, "per_mcouple_3": 6.1, "per_mcouple_4": 1.4, "per_mcouple_5p": 0.0, "per_dw_t_ts": 61.7, "per_dw_t_unts": 0.0, "per_dw_c_well": 0.0, "per_dw_unc_wel": 0.0, "per_dw_hpump": 0.0, "per_dw_tw_bore": 0.0, "per_dw_spring": 0.0, "per_dw_rivcan": 0.0, "per_dw_tank": 37.3, "per_dw_oth": 1.0, "per_loc_dw_wp": 51.9, "per_loc_dw_np": 9.5, "per_loc_dw_aw": 38.6, "per_light_elec": 83.1, "per_light_kero": 16.6, "per_light_solr": 0.0, "per_light_oil": 0.0, "per_light_oth": 0.0, "per_light_no": 0.3, "per_hh_latrine": 25.1, "per_fl_sewer": 0.0, "per_fl_septict": 0.3, "per_fl_othsys": 0.0, "per_pl_wslab": 24.4, "per_pl_without": 0.0, "per_ns_open": 0.3, "per_sl_ns_hum": 0.0, "per_sl_ns_anml": 0.0, "per_hh_no_lat": 74.9, "per_as_pub": 0.0, "per_as_open": 74.9, "per_hh_bathrm": 46.1, "per_hh_en_wrf": 8.8, "per_hh_no_btrm": 45.1, "per_wwoc_drain": 1.4, "per_wwoc_open": 65.4, "per_wwoc_nodrn": 33.2, "per_cook_fire": 60.0, "per_cook_resdu": 0.0, "per_cook_cwdng": 0.0, "per_cook_coal": 0.0, "per_cook_kero": 0.0, "per_cook_lpng": 40.0, "per_cook_elec": 0.0, "per_cook_biogs": 0.0, "per_cook_oth": 0.0, "per_cook_no": 0.0, "per_kf_inside": 94.6, "per_kf_in_has": 58.6, "per_kf_in_does": 35.9, "per_kf_outside": 5.4, "per_kf_out_has": 2.0, "per_kf_out_dos": 3.4, "per_kf_no_cook": 0.0, "per_hh_banking": 77.3, "per_hh_radio": 16.6, "per_hh_tv": 46.1, "per_hh_cmp_int": 0.3, "per_hh_cmp_wnt": 1.4, "per_hh_ph_ll": 1.4, "per_hh_ph_mob": 74.9, "per_hh_ph_bth": 1.0, "per_hh_bcycl": 28.5, "per_hh_2wheel": 15.9, "per_hh_4wheel": 8.8, "per_hh_tvcomp": null, "per_hh_no_ast": 15.3, "per_hs_perma": 93.6, "per_hs_sperma": 6.1, "per_hs_temp": 0.3, "per_hs_servc": 0.3, "per_hs_nservc": 0.0, "per_hs_unclss": 0.0, "avghhsz_cy": 5.27868852, "st_areashape": 4970832.42105504, "st_lengthshape": 12390.30977257358}, "geometry": {"type": "Polygon", "coordinates": [[[76.27321230086912, 28.517115657403032], [76.27030574337685, 28.51693846997153], [76.2702152506884, 28.516933120694944], [76.26636518007683, 28.51628397997853], [76.26458188769392, 28.515950738850584], [76.26259102519157, 28.515256702292135], [76.25855283478306, 28.51422576859868], [76.25636603983578, 28.512905444112256], [76.25474662082196, 28.511982819968047], [76.25415619950823, 28.51120419280451], [76.25409655406828, 28.511135654065654], [76.25416494550585, 28.510356711212435], [76.25391342800604, 28.509042167127333], [76.25317651213071, 28.507868912580424], [76.25268935844707, 28.50720066467372], [76.25572688940944, 28.507330733401748], [76.2600332772359, 28.5074359990492], [76.26497022489967, 28.50782935909863], [76.27004078438547, 28.50820990345872], [76.27239154882159, 28.508118865044867], [76.27281626060979, 28.508042332469945], [76.27416206087291, 28.507798536327574], [76.2754798220211, 28.507510242018565], [76.27690225845939, 28.50706003200802], [76.27839289589242, 28.506107823363887], [76.27900397037284, 28.505152597659823], [76.28002648133828, 28.50380668955359], [76.28047163608744, 28.50197500397575], [76.28054202178488, 28.5013856276895], [76.2805836353421, 28.498675095260612], [76.28094804951354, 28.497844090334272], [76.28149912731278, 28.496846844837616], [76.28223998858884, 28.495943339746976], [76.28342965896063, 28.494618884764943], [76.2839558282737, 28.493944488792536], [76.28757614576818, 28.49142082299926], [76.28839603273812, 28.49324067233338], [76.28920591966232, 28.495030523548255], [76.2895858675016, 28.495820457884463], [76.28966585708778, 28.496200427391383], [76.28981760499714, 28.496552720290424], [76.28868593704661, 28.49692534107], [76.28833290991975, 28.4983123118978], [76.28751104306295, 28.502499704012667], [76.28742189245749, 28.50387032598306], [76.28681800809261, 28.50562517435027], [76.28610533056025, 28.507445673136072], [76.28565500421001, 28.508851102100415], [76.28466674780302, 28.51071230616467], [76.28408944907892, 28.512175889831703], [76.28252955423247, 28.514294257968633], [76.28158181184477, 28.516035782610608], [76.28070313822433, 28.51677861433621], [76.28034720055597, 28.516922707088373], [76.28003511684311, 28.51704060503028], [76.27891243563867, 28.517087341090917], [76.27528338382464, 28.517103293387876], [76.27523499068197, 28.517101938113655], [76.27321230086912, 28.517115657403032]]]}}]}