{"type": "FeatureCollection", "features": [{"type": "Feature", "properties": {"premiumdata.sde.IN_Village_PCA.area": 3.91656509, "objectid": 407941, "id": "658359354611", "name": "Sonti", "subdistrict": "Ambala", "district": "Ambala", "state": "Haryana", "country": "India", "censusname": "Sonti (317)", "villagename_locallang": null, "lgd_villagename": "Sonti", "lgd_villagecode": 57478, "lgd_subdistrictcode": 359, "lgd_districtcode": 58, "lgd_statecode": 6, "censuscode2001": "00056300", "censuscode2011": "057478", "censuscode2021": null, "level": "Village", "tru": "Rural", "no_hh": 294, "tot_p": 1602, "tot_m": 829, "tot_f": 773, "per_tot_m": 51.74781523, "per_tot_f": 48.25218477, "p_06": 186, "m_06": 99, "f_06": 87, "per_p_06": 11.61048689, "per_m_06": 53.22580645, "per_f_06": 46.77419355, "p_sc": 233, "m_sc": 118, "f_sc": 115, "per_p_sc": 14.5443196, "per_m_sc": 50.64377682, "per_f_sc": 49.35622318, "p_st": 0, "m_st": 0, "f_st": 0, "per_p_st": 0.0, "per_m_st": 0.0, "per_f_st": 0.0, "p_lit": 868, "m_lit": 502, "f_lit": 366, "per_p_lit": 54.18227216, "per_m_lit": 57.83410138, "per_f_lit": 42.16589862, "p_ill": 734, "m_ill": 327, "f_ill": 407, "per_p_ill": 45.81772784, "per_m_ill": 44.55040872, "per_f_ill": 55.44959128, "tot_work_p": 507, "tot_work_m": 458, "tot_work_f": 49, "per_tot_work_p": 31.64794007, "per_tot_work_m": 90.33530572000001, "per_tot_work_f": 9.66469428, "mainwork_p": 414, "mainwork_m": 379, "mainwork_f": 35, "per_mainwork_p": 25.84269663, "per_mainwork_m": 91.54589372, "per_mainwork_f": 8.45410628, "main_cl_p": 242, "main_cl_m": 229, "main_cl_f": 13, "per_main_cl_p": 58.45410628, "per_main_cl_m": 94.62809917, "per_main_cl_f": 5.37190083, "main_al_p": 94, "main_al_m": 81, "main_al_f": 13, "per_main_al_p": 22.70531401, "per_main_al_m": 86.17021277, "per_main_al_f": 13.82978723, "main_hh_p": 9, "main_hh_m": 7, "main_hh_f": 2, "per_main_hh_p": 2.17391304, "per_main_hh_m": 77.77777778, "per_main_hh_f": 22.22222222, "main_ot_p": 69, "main_ot_m": 62, "main_ot_f": 7, "per_main_ot_p": 16.66666667, "per_main_ot_m": 89.85507246, "per_main_ot_f": 10.14492754, "margwork_p": 93, "margwork_m": 79, "margwork_f": 14, "per_margwork_p": 5.80524345, "per_margwork_m": 84.94623656, "per_margwork_f": 15.05376344, "marg_cl_p": 2, "marg_cl_m": 1, "marg_cl_f": 1, "per_marg_cl_p": 2.15053763, "per_marg_cl_m": 50.0, "per_marg_cl_f": 50.0, "marg_al_p": 84, "marg_al_m": 75, "marg_al_f": 9, "per_marg_al_p": 90.32258065, "per_marg_al_m": 89.28571429, "per_marg_al_f": 10.71428571, "marg_hh_p": 1, "marg_hh_m": 1, "marg_hh_f": 0, "per_marg_hh_p": 1.07526882, "per_marg_hh_m": 100.0, "per_marg_hh_f": 0.0, "marg_ot_p": 6, "marg_ot_m": 2, "marg_ot_f": 4, "per_marg_ot_p": 6.4516129, "per_marg_ot_m": 33.33333333, "per_marg_ot_f": 66.66666667, "margwork_3_6_p": 91, "margwork_3_6_m": 78, "margwork_3_6_f": 13, "per_margwork_3_6_p": 97.84946237, "per_margwork_3_6_m": 85.71428571, "per_margwork_3_6_f": 14.28571429, "marg_cl_3_6_p": 2, "marg_cl_3_6_m": 1, "marg_cl_3_6_f": 1, "per_marg_cl_3_6_p": 2.15053763, "per_marg_cl_3_6_m": 50.0, "per_marg_cl_3_6_f": 50.0, "marg_al_3_6_p": 82, "marg_al_3_6_m": 74, "marg_al_3_6_f": 8, "per_marg_al_3_6_p": 88.17204301, "per_marg_al_3_6_m": 90.24390244, "per_marg_al_3_6_f": 9.75609756, "marg_hh_3_6_p": 1, "marg_hh_3_6_m": 1, "marg_hh_3_6_f": 0, "per_marg_hh_3_6_p": 1.07526882, "per_marg_hh_3_6_m": 100.0, "per_marg_hh_3_6_f": 0.0, "marg_ot_3_6_p": 6, "marg_ot_3_6_m": 2, "marg_ot_3_6_f": 4, "per_marg_ot_3_6_p": 6.4516129, "per_marg_ot_3_6_m": 33.33333333, "per_marg_ot_3_6_f": 66.66666667, "margwork_0_3_p": 2, "margwork_0_3_m": 1, "margwork_0_3_f": 1, "per_margwork_0_3_p": 2.15053763, "per_margwork_0_3_m": 50.0, "per_margwork_0_3_f": 50.0, "marg_cl_0_3_p": 0, "marg_cl_0_3_m": 0, "marg_cl_0_3_f": 0, "per_marg_cl_0_3_p": 0.0, "per_marg_cl_0_3_m": 0.0, "per_marg_cl_0_3_f": 0.0, "marg_al_0_3_p": 2, "marg_al_0_3_m": 1, "marg_al_0_3_f": 1, "per_marg_al_0_3_p": 2.15053763, "per_marg_al_0_3_m": 50.0, "per_marg_al_0_3_f": 50.0, "marg_hh_0_3_p": 0, "marg_hh_0_3_m": 0, "marg_hh_0_3_f": 0, "per_marg_hh_0_3_p": 0.0, "per_marg_hh_0_3_m": 0.0, "per_marg_hh_0_3_f": 0.0, "marg_ot_0_3_p": 0, "marg_ot_0_3_m": 0, "marg_ot_0_3_f": 0, "per_marg_ot_0_3_p": 0.0, "per_marg_ot_0_3_m": 0.0, "per_marg_ot_0_3_f": 0.0, "non_work_p": 1095, "non_work_m": 371, "non_work_f": 724, "per_non_work_p": 68.35205993000001, "per_non_work_m": 33.88127854, "per_non_work_f": 66.11872146, "per_hc_tot_tot": 100, "per_hc_tot_god": 35.6, "per_hc_tot_liv": 62.0, "per_hc_tot_dil": 2.4, "per_hc_res_tot": 82.4, "per_hc_res_god": 27.8, "per_hc_res_liv": 52.5, "per_hc_res_dil": 2.0, "per_hc_oth_tot": 17.6, "per_hc_oth_god": 7.8, "per_hc_oth_liv": 9.5, "per_hc_oth_dil": 0.3, "per_mt_grsbam": 16.9, "per_mt_plastic": 0.0, "per_mt_h_tiles": 39.7, "per_mt_m_tiles": 4.7, "per_mt_b_brick": 5.4, "per_mt_stone": 1.0, "per_mt_asbstos": 2.4, "per_mt_concrte": 29.8, "per_mt_oth": 0.0, "per_mw_grsbam": 1.7, "per_mw_plastic": 0.0, "per_mw_mud": 4.7, "per_mw_wood": 1.4, "per_mw_no_mrtr": 0.3, "per_mw_st_mrtr": 0.0, "per_mw_asbstos": 0.0, "per_mw_b_brick": 71.2, "per_mw_concrte": 20.7, "per_mw_oth": 0.0, "per_mf_mud": 63.4, "per_mf_wood": 0.0, "per_mf_b_brick": 8.5, "per_mf_stone": 2.4, "per_mf_cement": 22.0, "per_mf_fl_tile": 3.7, "per_mf_oth": 0.0, "per_dw_n_exrm": 1.4, "per_dw_1_room": 24.7, "per_dw_2_room": 33.6, "per_dw_3_room": 18.0, "per_dw_4_room": 13.6, "per_dw_5_room": 5.4, "per_dw_6_room": 3.4, "per_hhsize_1": 2.4, "per_hhsize_2": 7.1, "per_hhsize_3": 6.4, "per_hhsize_4": 19.0, "per_hhsize_5": 23.1, "per_hhsize_6_8": 33.6, "per_hhsize_9p": 8.5, "per_ow_owned": 98.6, "per_ow_rented": 0.7, "per_ow_oth": 0.7, "per_mc_none": 10.5, "per_mcouple_1": 61.0, "per_mcouple_2": 20.7, "per_mcouple_3": 6.8, "per_mcouple_4": 0.7, "per_mcouple_5p": 0.3, "per_dw_t_ts": 1.4, "per_dw_t_unts": 96.3, "per_dw_c_well": 0.3, "per_dw_unc_wel": 0.0, "per_dw_hpump": 1.4, "per_dw_tw_bore": 0.7, "per_dw_spring": 0.0, "per_dw_rivcan": 0.0, "per_dw_tank": 0.0, "per_dw_oth": 0.0, "per_loc_dw_wp": 92.9, "per_loc_dw_np": 7.1, "per_loc_dw_aw": 0.0, "per_light_elec": 98.3, "per_light_kero": 1.7, "per_light_solr": 0.0, "per_light_oil": 0.0, "per_light_oth": 0.0, "per_light_no": 0.0, "per_hh_latrine": 52.9, "per_fl_sewer": 2.7, "per_fl_septict": 45.1, "per_fl_othsys": 1.0, "per_pl_wslab": 4.1, "per_pl_without": 0.0, "per_ns_open": 0.0, "per_sl_ns_hum": 0.0, "per_sl_ns_anml": 0.0, "per_hh_no_lat": 47.1, "per_as_pub": 0.0, "per_as_open": 47.1, "per_hh_bathrm": 80.3, "per_hh_en_wrf": 15.9, "per_hh_no_btrm": 3.7, "per_wwoc_drain": 31.2, "per_wwoc_open": 67.8, "per_wwoc_nodrn": 1.0, "per_cook_fire": 71.5, "per_cook_resdu": 1.0, "per_cook_cwdng": 13.6, "per_cook_coal": 0.0, "per_cook_kero": 0.7, "per_cook_lpng": 13.2, "per_cook_elec": 0.0, "per_cook_biogs": 0.0, "per_cook_oth": 0.0, "per_cook_no": 0.0, "per_kf_inside": 97.6, "per_kf_in_has": 79.3, "per_kf_in_does": 18.3, "per_kf_outside": 2.4, "per_kf_out_has": 0.3, "per_kf_out_dos": 2.0, "per_kf_no_cook": 0.0, "per_hh_banking": 68.5, "per_hh_radio": 29.8, "per_hh_tv": 68.1, "per_hh_cmp_int": 1.4, "per_hh_cmp_wnt": 0.3, "per_hh_ph_ll": 3.1, "per_hh_ph_mob": 72.2, "per_hh_ph_bth": 2.0, "per_hh_bcycl": 73.2, "per_hh_2wheel": 33.9, "per_hh_4wheel": 2.4, "per_hh_tvcomp": null, "per_hh_no_ast": 4.1, "per_hs_perma": 79.3, "per_hs_sperma": 16.6, "per_hs_temp": 4.1, "per_hs_servc": 2.4, "per_hs_nservc": 1.7, "per_hs_unclss": 0.0, "avghhsz_cy": 5.44897959, "st_areashape": 5257366.078689225, "st_lengthshape": 9984.78431839497}, "geometry": {"type": "Polygon", "coordinates": [[[76.66007906600707, 30.17643884245174], [76.65603572555708, 30.179415903319445], [76.65337830233412, 30.181573216914227], [76.65326745921122, 30.18120600374377], [76.6530810722645, 30.180851958585148], [76.65293507716619, 30.180576600206727], [76.65304558252257, 30.18017434084186], [76.65317135205223, 30.18006496017244], [76.65311580023506, 30.17950100811622], [76.65268786349496, 30.179147007306703], [76.65268754908462, 30.179146885387496], [76.65166232520704, 30.178749456593632], [76.65165114746996, 30.178745123395398], [76.65100183619946, 30.17830814500142], [76.65099987517718, 30.1783054130553], [76.65076023071053, 30.177971525643375], [76.65090500859161, 30.1778086837243], [76.65093122861812, 30.177779191287975], [76.65131856240568, 30.177442386852487], [76.65181653539861, 30.176887023443257], [76.65180372182937, 30.176882300323218], [76.65161513490852, 30.17681278920273], [76.65161117333811, 30.176806913643144], [76.65140880715911, 30.176506813108265], [76.65077955976048, 30.175960464412213], [76.65077858598673, 30.17596010174898], [76.64999448879603, 30.17566778155111], [76.64998559457639, 30.175660059985102], [76.64984854400338, 30.175541080384786], [76.64960689629363, 30.175283224618703], [76.64960485711796, 30.175283463030613], [76.64934524489917, 30.175313863266275], [76.64835071196326, 30.175257317702226], [76.64827343798422, 30.175252923000055], [76.6482641449126, 30.175244851937695], [76.64795150963415, 30.174973336757716], [76.64784569168697, 30.174881436777095], [76.64779016053103, 30.174479219394822], [76.64747798249509, 30.173963470566935], [76.64747225393852, 30.173962134820925], [76.64727176523846, 30.173915386804826], [76.64636616910896, 30.174414005021386], [76.64556632355304, 30.17489943656202], [76.64534483763151, 30.17485140062851], [76.64533672943779, 30.174843628520218], [76.64495732418088, 30.1744799144451], [76.64490182177104, 30.173850357665014], [76.64489200049005, 30.173842409190172], [76.64460485041623, 30.173610012120665], [76.64397579076548, 30.173273502522598], [76.64328636253099, 30.17285395484534], [76.64267748173648, 30.17253057355137], [76.64267080006739, 30.172524045385853], [76.64223459523342, 30.172097827310925], [76.64206324608453, 30.1711972655951], [76.64197962371139, 30.170722455541277], [76.6471529073466, 30.165896210618126], [76.64985009539392, 30.16236996006988], [76.6515949317978, 30.15953588782058], [76.6560312124211, 30.154300850300746], [76.65656515485628, 30.15466077140037], [76.65657282646882, 30.15466594299237], [76.65737571461861, 30.15520714882997], [76.65777032925156, 30.15577085230012], [76.6588139353548, 30.15671774800527], [76.65912863855503, 30.156991061891052], [76.66025723786055, 30.1579712152413], [76.66077913748104, 30.1587062591989], [76.66110583947854, 30.159166378126404], [76.66110671623423, 30.15916761310024], [76.66120058568987, 30.1592998165711], [76.6613010460847, 30.159441300784252], [76.66186631277387, 30.15987478453776], [76.66214475547766, 30.160088309749373], [76.66245745723143, 30.16032810573673], [76.6624642853259, 30.160333341497925], [76.66298847565038, 30.160735312915588], [76.66407889565802, 30.16176791484206], [76.66457001540364, 30.16250264156957], [76.66480080517653, 30.162847906219802], [76.66552273266133, 30.163927891203866], [76.66636905705008, 30.164532025689798], [76.66681596710731, 30.165569348017097], [76.66828033510646, 30.166971592390396], [76.66838442379672, 30.167071263148713], [76.66839264877149, 30.167079139164493], [76.66974474442813, 30.16837381837001], [76.66795426013307, 30.170109993169614], [76.66372846556064, 30.173741599796497], [76.66007906600707, 30.17643884245174]]]}}]}