{"type": "FeatureCollection", "features": [{"type": "Feature", "properties": {"premiumdata.sde.IN_Village_PCA.area": 4.7496854, "objectid": 475286, "id": "203282498188157", "name": "Ratangara", "subdistrict": "Kandi", "district": "Garhwa", "state": "Jharkhand", "country": "India", "censusname": "Ratamgara", "villagename_locallang": null, "lgd_villagename": "Ratangara", "lgd_villagecode": 347298, "lgd_subdistrictcode": 2498, "lgd_districtcode": 328, "lgd_statecode": 20, "censuscode2001": "00016400", "censuscode2011": "347298", "censuscode2021": null, "level": "Village", "tru": "Rural", "no_hh": 165, "tot_p": 949, "tot_m": 487, "tot_f": 462, "per_tot_m": 51.31717597, "per_tot_f": 48.68282403, "p_06": 155, "m_06": 67, "f_06": 88, "per_p_06": 16.33298209, "per_m_06": 43.22580645, "per_f_06": 56.77419355, "p_sc": 95, "m_sc": 46, "f_sc": 49, "per_p_sc": 10.01053741, "per_m_sc": 48.42105263, "per_f_sc": 51.57894737, "p_st": 0, "m_st": 0, "f_st": 0, "per_p_st": 0.0, "per_m_st": 0.0, "per_f_st": 0.0, "p_lit": 587, "m_lit": 359, "f_lit": 228, "per_p_lit": 61.85458377, "per_m_lit": 61.15843271, "per_f_lit": 38.84156729, "p_ill": 362, "m_ill": 128, "f_ill": 234, "per_p_ill": 38.14541623, "per_m_ill": 35.35911602, "per_f_ill": 64.64088398, "tot_work_p": 330, "tot_work_m": 243, "tot_work_f": 87, "per_tot_work_p": 34.77344573, "per_tot_work_m": 73.63636364, "per_tot_work_f": 26.36363636, "mainwork_p": 204, "mainwork_m": 200, "mainwork_f": 4, "per_mainwork_p": 21.49631191, "per_mainwork_m": 98.03921569, "per_mainwork_f": 1.96078431, "main_cl_p": 57, "main_cl_m": 57, "main_cl_f": 0, "per_main_cl_p": 27.94117647, "per_main_cl_m": 100.0, "per_main_cl_f": 0.0, "main_al_p": 87, "main_al_m": 87, "main_al_f": 0, "per_main_al_p": 42.64705882, "per_main_al_m": 100.0, "per_main_al_f": 0.0, "main_hh_p": 0, "main_hh_m": 0, "main_hh_f": 0, "per_main_hh_p": 0.0, "per_main_hh_m": 0.0, "per_main_hh_f": 0.0, "main_ot_p": 60, "main_ot_m": 56, "main_ot_f": 4, "per_main_ot_p": 29.41176471, "per_main_ot_m": 93.33333332999999, "per_main_ot_f": 6.66666667, "margwork_p": 126, "margwork_m": 43, "margwork_f": 83, "per_margwork_p": 13.27713383, "per_margwork_m": 34.12698413, "per_margwork_f": 65.87301587, "marg_cl_p": 2, "marg_cl_m": 2, "marg_cl_f": 0, "per_marg_cl_p": 1.58730159, "per_marg_cl_m": 100.0, "per_marg_cl_f": 0.0, "marg_al_p": 120, "marg_al_m": 38, "marg_al_f": 82, "per_marg_al_p": 95.23809524, "per_marg_al_m": 31.66666667, "per_marg_al_f": 68.33333332999999, "marg_hh_p": 0, "marg_hh_m": 0, "marg_hh_f": 0, "per_marg_hh_p": 0.0, "per_marg_hh_m": 0.0, "per_marg_hh_f": 0.0, "marg_ot_p": 4, "marg_ot_m": 3, "marg_ot_f": 1, "per_marg_ot_p": 3.17460317, "per_marg_ot_m": 75.0, "per_marg_ot_f": 25.0, "margwork_3_6_p": 112, "margwork_3_6_m": 31, "margwork_3_6_f": 81, "per_margwork_3_6_p": 88.88888889, "per_margwork_3_6_m": 27.67857143, "per_margwork_3_6_f": 72.32142857, "marg_cl_3_6_p": 1, "marg_cl_3_6_m": 1, "marg_cl_3_6_f": 0, "per_marg_cl_3_6_p": 0.79365079, "per_marg_cl_3_6_m": 100.0, "per_marg_cl_3_6_f": 0.0, "marg_al_3_6_p": 107, "marg_al_3_6_m": 27, "marg_al_3_6_f": 80, "per_marg_al_3_6_p": 84.92063492, "per_marg_al_3_6_m": 25.23364486, "per_marg_al_3_6_f": 74.76635514, "marg_hh_3_6_p": 0, "marg_hh_3_6_m": 0, "marg_hh_3_6_f": 0, "per_marg_hh_3_6_p": 0.0, "per_marg_hh_3_6_m": 0.0, "per_marg_hh_3_6_f": 0.0, "marg_ot_3_6_p": 4, "marg_ot_3_6_m": 3, "marg_ot_3_6_f": 1, "per_marg_ot_3_6_p": 3.17460317, "per_marg_ot_3_6_m": 75.0, "per_marg_ot_3_6_f": 25.0, "margwork_0_3_p": 14, "margwork_0_3_m": 12, "margwork_0_3_f": 2, "per_margwork_0_3_p": 11.11111111, "per_margwork_0_3_m": 85.71428571, "per_margwork_0_3_f": 14.28571429, "marg_cl_0_3_p": 1, "marg_cl_0_3_m": 1, "marg_cl_0_3_f": 0, "per_marg_cl_0_3_p": 0.79365079, "per_marg_cl_0_3_m": 100.0, "per_marg_cl_0_3_f": 0.0, "marg_al_0_3_p": 13, "marg_al_0_3_m": 11, "marg_al_0_3_f": 2, "per_marg_al_0_3_p": 10.31746032, "per_marg_al_0_3_m": 84.61538462, "per_marg_al_0_3_f": 15.38461538, "marg_hh_0_3_p": 0, "marg_hh_0_3_m": 0, "marg_hh_0_3_f": 0, "per_marg_hh_0_3_p": 0.0, "per_marg_hh_0_3_m": 0.0, "per_marg_hh_0_3_f": 0.0, "marg_ot_0_3_p": 0, "marg_ot_0_3_m": 0, "marg_ot_0_3_f": 0, "per_marg_ot_0_3_p": 0.0, "per_marg_ot_0_3_m": 0.0, "per_marg_ot_0_3_f": 0.0, "non_work_p": 619, "non_work_m": 244, "non_work_f": 375, "per_non_work_p": 65.22655427000001, "per_non_work_m": 39.4184168, "per_non_work_f": 60.5815832, "per_hc_tot_tot": 100, "per_hc_tot_god": 36.0, "per_hc_tot_liv": 61.0, "per_hc_tot_dil": 3.0, "per_hc_res_tot": 94.5, "per_hc_res_god": 31.1, "per_hc_res_liv": 60.4, "per_hc_res_dil": 3.0, "per_hc_oth_tot": 5.5, "per_hc_oth_god": 4.9, "per_hc_oth_liv": 0.6, "per_hc_oth_dil": 0.0, "per_mt_grsbam": 47.6, "per_mt_plastic": 0.0, "per_mt_h_tiles": 37.2, "per_mt_m_tiles": 0.0, "per_mt_b_brick": 0.0, "per_mt_stone": 0.0, "per_mt_asbstos": 0.6, "per_mt_concrte": 14.6, "per_mt_oth": 0.0, "per_mw_grsbam": 1.8, "per_mw_plastic": 0.0, "per_mw_mud": 82.9, "per_mw_wood": 0.0, "per_mw_no_mrtr": 0.0, "per_mw_st_mrtr": 0.0, "per_mw_asbstos": 0.0, "per_mw_b_brick": 15.2, "per_mw_concrte": 0.0, "per_mw_oth": 0.0, "per_mf_mud": 86.0, "per_mf_wood": 0.0, "per_mf_b_brick": 5.5, "per_mf_stone": 0.0, "per_mf_cement": 8.5, "per_mf_fl_tile": 0.0, "per_mf_oth": 0.0, "per_dw_n_exrm": 0.0, "per_dw_1_room": 29.3, "per_dw_2_room": 49.4, "per_dw_3_room": 13.4, "per_dw_4_room": 4.9, "per_dw_5_room": 1.8, "per_dw_6_room": 1.2, "per_hhsize_1": 3.7, "per_hhsize_2": 7.3, "per_hhsize_3": 9.8, "per_hhsize_4": 12.8, "per_hhsize_5": 16.5, "per_hhsize_6_8": 37.2, "per_hhsize_9p": 12.8, "per_ow_owned": 100.0, "per_ow_rented": 0.0, "per_ow_oth": 0.0, "per_mc_none": 5.5, "per_mcouple_1": 70.1, "per_mcouple_2": 17.7, "per_mcouple_3": 5.5, "per_mcouple_4": 1.2, "per_mcouple_5p": 0.0, "per_dw_t_ts": 0.0, "per_dw_t_unts": 0.0, "per_dw_c_well": 1.2, "per_dw_unc_wel": 21.3, "per_dw_hpump": 77.4, "per_dw_tw_bore": 0.0, "per_dw_spring": 0.0, "per_dw_rivcan": 0.0, "per_dw_tank": 0.0, "per_dw_oth": 0.0, "per_loc_dw_wp": 50.0, "per_loc_dw_np": 47.6, "per_loc_dw_aw": 2.4, "per_light_elec": 0.0, "per_light_kero": 100.0, "per_light_solr": 0.0, "per_light_oil": 0.0, "per_light_oth": 0.0, "per_light_no": 0.0, "per_hh_latrine": 4.3, "per_fl_sewer": 0.0, "per_fl_septict": 4.3, "per_fl_othsys": 0.0, "per_pl_wslab": 0.0, "per_pl_without": 0.0, "per_ns_open": 0.0, "per_sl_ns_hum": 0.0, "per_sl_ns_anml": 0.0, "per_hh_no_lat": 95.7, "per_as_pub": 0.0, "per_as_open": 95.7, "per_hh_bathrm": 0.0, "per_hh_en_wrf": 47.0, "per_hh_no_btrm": 53.0, "per_wwoc_drain": 0.0, "per_wwoc_open": 72.6, "per_wwoc_nodrn": 27.4, "per_cook_fire": 40.2, "per_cook_resdu": 7.9, "per_cook_cwdng": 51.8, "per_cook_coal": 0.0, "per_cook_kero": 0.0, "per_cook_lpng": 0.0, "per_cook_elec": 0.0, "per_cook_biogs": 0.0, "per_cook_oth": 0.0, "per_cook_no": 0.0, "per_kf_inside": 95.7, "per_kf_in_has": 61.0, "per_kf_in_does": 34.8, "per_kf_outside": 4.3, "per_kf_out_has": 0.0, "per_kf_out_dos": 4.3, "per_kf_no_cook": 0.0, "per_hh_banking": 23.2, "per_hh_radio": 30.5, "per_hh_tv": 0.6, "per_hh_cmp_int": 0.0, "per_hh_cmp_wnt": 0.0, "per_hh_ph_ll": 0.6, "per_hh_ph_mob": 24.4, "per_hh_ph_bth": 0.0, "per_hh_bcycl": 48.2, "per_hh_2wheel": 3.0, "per_hh_4wheel": 0.6, "per_hh_tvcomp": 0.0, "per_hh_no_ast": 39.6, "per_hs_perma": 15.2, "per_hs_sperma": 37.2, "per_hs_temp": 47.6, "per_hs_servc": 45.7, "per_hs_nservc": 1.8, "per_hs_unclss": 0.0, "avghhsz_cy": 5.75151515, "st_areashape": 5756680.37220312, "st_lengthshape": 10513.079318318778}, "geometry": {"type": "Polygon", "coordinates": [[[83.74289999953263, 24.459860000523516], [83.7431299996864, 24.459640000056964], [83.74316999986935, 24.459299999843793], [83.7424900003521, 24.457119999566455], [83.74187000021098, 24.455240000802696], [83.74094999959593, 24.452620000057095], [83.74033999950053, 24.45046999961367], [83.73985999999984, 24.449930000428797], [83.73990999933025, 24.447759999649747], [83.73992999942172, 24.446520000186062], [83.74018999971273, 24.445360000010588], [83.7411599996582, 24.443189999872715], [83.74410999967762, 24.438900000006484], [83.74630999985956, 24.43568000044384], [83.74665000051648, 24.434919999779176], [83.74661999948096, 24.434210000099284], [83.74647999973888, 24.434029999764103], [83.74797000026633, 24.434049999723154], [83.74924999983322, 24.43410000042478], [83.7510000006517, 24.434359999500764], [83.75201999992757, 24.434680000081208], [83.75344000013484, 24.43503000037412], [83.75387000030514, 24.435069999971862], [83.75426000029248, 24.43520000021262], [83.75462000014258, 24.435449999606888], [83.7556200002253, 24.43635000002874], [83.7559099997552, 24.43649999933821], [83.75633999992552, 24.436599999596577], [83.75742000037417, 24.43665999987707], [83.75809999989141, 24.43669000000664], [83.75892000004907, 24.43688999932487], [83.75952000009869, 24.436920000217526], [83.75995000026901, 24.436899999895843], [83.76046999995268, 24.436710000361668], [83.76077999957407, 24.436729999895668], [83.76147000003537, 24.43693999971822], [83.76176000046361, 24.437020000142812], [83.7617300003264, 24.437890000153732], [83.76163000076727, 24.439440000649054], [83.76140999976094, 24.440619999425913], [83.76145999998965, 24.442290000026148], [83.76129000011035, 24.442839999332925], [83.76112999937845, 24.443110000092034], [83.76108000004804, 24.444220000589816], [83.76112000023103, 24.44525999934052], [83.76130000015606, 24.44576000026188], [83.76147000003537, 24.446460000509287], [83.76145999998965, 24.44699000007314], [83.76130000015606, 24.44790999928529], [83.76110999928697, 24.449029999643585], [83.76092000021447, 24.450490000235636], [83.76070000010645, 24.4514100000647], [83.76068000001499, 24.452019999972332], [83.7603800004393, 24.45306999988117], [83.76018999957019, 24.453400000475202], [83.7594499997785, 24.454120000034933], [83.75866999980383, 24.454959999908716], [83.75785999969192, 24.456079999750774], [83.75720999941356, 24.456879999616245], [83.75710999985445, 24.45709000021097], [83.75697000011236, 24.457380000223125], [83.75679999933476, 24.457730000448407], [83.75642000029146, 24.458449999793068], [83.75582000024183, 24.459719999973732], [83.75548999963065, 24.460549999791727], [83.7553300006954, 24.460889999901465], [83.75527000042094, 24.460620000442493], [83.75512999978052, 24.459109999733773], [83.75516999996351, 24.4579399996262], [83.75514999987203, 24.457589999984382], [83.75504000026716, 24.457289999867868], [83.75486999948954, 24.4570500002415], [83.75441000008031, 24.45677000009952], [83.75391999963556, 24.456540000130605], [83.75350999955671, 24.45646999966564], [83.75307000023898, 24.456459999829676], [83.75226000012708, 24.456449999175195], [83.75127999923752, 24.45650999981928], [83.75090000019425, 24.456480000318543], [83.75065999999474, 24.456399999979485], [83.75009000008232, 24.455850000157547], [83.7498199997456, 24.455739999741464], [83.74942999975825, 24.455799999905985], [83.74823000055736, 24.456879999616245], [83.7478200004785, 24.45768999986445], [83.74716000015442, 24.458789999847504], [83.74635000004251, 24.4598700000896], [83.74598000014666, 24.460190000502926], [83.74534999995981, 24.46048999943658], [83.74503000029267, 24.460560000120715], [83.74445000033454, 24.460529999949074], [83.74392999975255, 24.460330000530313], [83.7436100000854, 24.46021000039955], [83.74289999953263, 24.459860000523516]]]}}]}