{"type": "FeatureCollection", "features": [{"type": "Feature", "properties": {"premiumdata.sde.IN_Village_PCA.area": 1.61262086, "objectid": 210321, "id": "246723772288213", "name": "Chamarpur", "subdistrict": "Bayad", "district": "Arvalli", "state": "Gujarat", "country": "India", "censusname": "Chamarpur", "villagename_locallang": null, "lgd_villagename": "Chamarpur", "lgd_villagecode": 511025, "lgd_subdistrictcode": 3772, "lgd_districtcode": 672, "lgd_statecode": 24, "censuscode2001": "00461400", "censuscode2011": "511025", "censuscode2021": null, "level": "Village", "tru": "Rural", "no_hh": 141, "tot_p": 783, "tot_m": 389, "tot_f": 394, "per_tot_m": 49.6807152, "per_tot_f": 50.3192848, "p_06": 90, "m_06": 50, "f_06": 40, "per_p_06": 11.49425287, "per_m_06": 55.55555556, "per_f_06": 44.44444444000001, "p_sc": 0, "m_sc": 0, "f_sc": 0, "per_p_sc": 0.0, "per_m_sc": 0.0, "per_f_sc": 0.0, "p_st": 0, "m_st": 0, "f_st": 0, "per_p_st": 0.0, "per_m_st": 0.0, "per_f_st": 0.0, "p_lit": 539, "m_lit": 307, "f_lit": 232, "per_p_lit": 68.83780332, "per_m_lit": 56.95732839, "per_f_lit": 43.04267161, "p_ill": 244, "m_ill": 82, "f_ill": 162, "per_p_ill": 31.16219668, "per_m_ill": 33.60655738, "per_f_ill": 66.39344262, "tot_work_p": 473, "tot_work_m": 228, "tot_work_f": 245, "per_tot_work_p": 60.40868455, "per_tot_work_m": 48.20295983, "per_tot_work_f": 51.79704017, "mainwork_p": 469, "mainwork_m": 227, "mainwork_f": 242, "per_mainwork_p": 59.89782886, "per_mainwork_m": 48.40085288, "per_mainwork_f": 51.59914712, "main_cl_p": 157, "main_cl_m": 152, "main_cl_f": 5, "per_main_cl_p": 33.47547974, "per_main_cl_m": 96.81528662000001, "per_main_cl_f": 3.18471338, "main_al_p": 192, "main_al_m": 61, "main_al_f": 131, "per_main_al_p": 40.93816631, "per_main_al_m": 31.77083333, "per_main_al_f": 68.22916667, "main_hh_p": 0, "main_hh_m": 0, "main_hh_f": 0, "per_main_hh_p": 0.0, "per_main_hh_m": 0.0, "per_main_hh_f": 0.0, "main_ot_p": 120, "main_ot_m": 14, "main_ot_f": 106, "per_main_ot_p": 25.58635394, "per_main_ot_m": 11.66666667, "per_main_ot_f": 88.33333332999999, "margwork_p": 4, "margwork_m": 1, "margwork_f": 3, "per_margwork_p": 0.51085568, "per_margwork_m": 25.0, "per_margwork_f": 75.0, "marg_cl_p": 0, "marg_cl_m": 0, "marg_cl_f": 0, "per_marg_cl_p": 0.0, "per_marg_cl_m": 0.0, "per_marg_cl_f": 0.0, "marg_al_p": 2, "marg_al_m": 1, "marg_al_f": 1, "per_marg_al_p": 50.0, "per_marg_al_m": 50.0, "per_marg_al_f": 50.0, "marg_hh_p": 0, "marg_hh_m": 0, "marg_hh_f": 0, "per_marg_hh_p": 0.0, "per_marg_hh_m": 0.0, "per_marg_hh_f": 0.0, "marg_ot_p": 2, "marg_ot_m": 0, "marg_ot_f": 2, "per_marg_ot_p": 50.0, "per_marg_ot_m": 0.0, "per_marg_ot_f": 100.0, "margwork_3_6_p": 4, "margwork_3_6_m": 1, "margwork_3_6_f": 3, "per_margwork_3_6_p": 100.0, "per_margwork_3_6_m": 25.0, "per_margwork_3_6_f": 75.0, "marg_cl_3_6_p": 0, "marg_cl_3_6_m": 0, "marg_cl_3_6_f": 0, "per_marg_cl_3_6_p": 0.0, "per_marg_cl_3_6_m": 0.0, "per_marg_cl_3_6_f": 0.0, "marg_al_3_6_p": 2, "marg_al_3_6_m": 1, "marg_al_3_6_f": 1, "per_marg_al_3_6_p": 50.0, "per_marg_al_3_6_m": 50.0, "per_marg_al_3_6_f": 50.0, "marg_hh_3_6_p": 0, "marg_hh_3_6_m": 0, "marg_hh_3_6_f": 0, "per_marg_hh_3_6_p": 0.0, "per_marg_hh_3_6_m": 0.0, "per_marg_hh_3_6_f": 0.0, "marg_ot_3_6_p": 2, "marg_ot_3_6_m": 0, "marg_ot_3_6_f": 2, "per_marg_ot_3_6_p": 50.0, "per_marg_ot_3_6_m": 0.0, "per_marg_ot_3_6_f": 100.0, "margwork_0_3_p": 0, "margwork_0_3_m": 0, "margwork_0_3_f": 0, "per_margwork_0_3_p": 0.0, "per_margwork_0_3_m": 0.0, "per_margwork_0_3_f": 0.0, "marg_cl_0_3_p": 0, "marg_cl_0_3_m": 0, "marg_cl_0_3_f": 0, "per_marg_cl_0_3_p": 0.0, "per_marg_cl_0_3_m": 0.0, "per_marg_cl_0_3_f": 0.0, "marg_al_0_3_p": 0, "marg_al_0_3_m": 0, "marg_al_0_3_f": 0, "per_marg_al_0_3_p": 0.0, "per_marg_al_0_3_m": 0.0, "per_marg_al_0_3_f": 0.0, "marg_hh_0_3_p": 0, "marg_hh_0_3_m": 0, "marg_hh_0_3_f": 0, "per_marg_hh_0_3_p": 0.0, "per_marg_hh_0_3_m": 0.0, "per_marg_hh_0_3_f": 0.0, "marg_ot_0_3_p": 0, "marg_ot_0_3_m": 0, "marg_ot_0_3_f": 0, "per_marg_ot_0_3_p": 0.0, "per_marg_ot_0_3_m": 0.0, "per_marg_ot_0_3_f": 0.0, "non_work_p": 310, "non_work_m": 161, "non_work_f": 149, "per_non_work_p": 39.59131545, "per_non_work_m": 51.93548387, "per_non_work_f": 48.06451613, "per_hc_tot_tot": 100, "per_hc_tot_god": 30.9, "per_hc_tot_liv": 66.9, "per_hc_tot_dil": 2.2, "per_hc_res_tot": 100.0, "per_hc_res_god": 30.9, "per_hc_res_liv": 66.9, "per_hc_res_dil": 2.2, "per_hc_oth_tot": 0.0, "per_hc_oth_god": 0.0, "per_hc_oth_liv": 0.0, "per_hc_oth_dil": 0.0, "per_mt_grsbam": 2.2, "per_mt_plastic": 2.2, "per_mt_h_tiles": 0.0, "per_mt_m_tiles": 67.6, "per_mt_b_brick": 0.0, "per_mt_stone": 0.0, "per_mt_asbstos": 0.7, "per_mt_concrte": 26.5, "per_mt_oth": 0.7, "per_mw_grsbam": 2.2, "per_mw_plastic": 0.0, "per_mw_mud": 66.9, "per_mw_wood": 0.0, "per_mw_no_mrtr": 1.5, "per_mw_st_mrtr": 0.0, "per_mw_asbstos": 0.0, "per_mw_b_brick": 28.7, "per_mw_concrte": 0.0, "per_mw_oth": 0.7, "per_mf_mud": 72.1, "per_mf_wood": 0.0, "per_mf_b_brick": 0.0, "per_mf_stone": 0.0, "per_mf_cement": 27.9, "per_mf_fl_tile": 0.0, "per_mf_oth": 0.0, "per_dw_n_exrm": 2.2, "per_dw_1_room": 69.1, "per_dw_2_room": 28.7, "per_dw_3_room": 0.0, "per_dw_4_room": 0.0, "per_dw_5_room": 0.0, "per_dw_6_room": 0.0, "per_hhsize_1": 1.5, "per_hhsize_2": 8.1, "per_hhsize_3": 5.1, "per_hhsize_4": 17.6, "per_hhsize_5": 21.3, "per_hhsize_6_8": 38.2, "per_hhsize_9p": 8.1, "per_ow_owned": 100.0, "per_ow_rented": 0.0, "per_ow_oth": 0.0, "per_mc_none": 6.6, "per_mcouple_1": 57.4, "per_mcouple_2": 25.0, "per_mcouple_3": 10.3, "per_mcouple_4": 0.7, "per_mcouple_5p": 0.0, "per_dw_t_ts": 0.0, "per_dw_t_unts": 0.0, "per_dw_c_well": 0.0, "per_dw_unc_wel": 0.0, "per_dw_hpump": 98.5, "per_dw_tw_bore": 1.5, "per_dw_spring": 0.0, "per_dw_rivcan": 0.0, "per_dw_tank": 0.0, "per_dw_oth": 0.0, "per_loc_dw_wp": 0.0, "per_loc_dw_np": 52.2, "per_loc_dw_aw": 47.8, "per_light_elec": 69.9, "per_light_kero": 20.6, "per_light_solr": 0.0, "per_light_oil": 1.5, "per_light_oth": 8.1, "per_light_no": 0.0, "per_hh_latrine": 0.0, "per_fl_sewer": 0.0, "per_fl_septict": 0.0, "per_fl_othsys": 0.0, "per_pl_wslab": 0.0, "per_pl_without": 0.0, "per_ns_open": 0.0, "per_sl_ns_hum": 0.0, "per_sl_ns_anml": 0.0, "per_hh_no_lat": 100.0, "per_as_pub": 0.0, "per_as_open": 100.0, "per_hh_bathrm": 1.5, "per_hh_en_wrf": 36.0, "per_hh_no_btrm": 62.5, "per_wwoc_drain": 0.0, "per_wwoc_open": 0.0, "per_wwoc_nodrn": 100.0, "per_cook_fire": 100.0, "per_cook_resdu": 0.0, "per_cook_cwdng": 0.0, "per_cook_coal": 0.0, "per_cook_kero": 0.0, "per_cook_lpng": 0.0, "per_cook_elec": 0.0, "per_cook_biogs": 0.0, "per_cook_oth": 0.0, "per_cook_no": 0.0, "per_kf_inside": 5.1, "per_kf_in_has": 4.4, "per_kf_in_does": 0.7, "per_kf_outside": 94.9, "per_kf_out_has": 91.2, "per_kf_out_dos": 3.7, "per_kf_no_cook": 0.0, "per_hh_banking": 29.4, "per_hh_radio": 0.0, "per_hh_tv": 36.0, "per_hh_cmp_int": 0.7, "per_hh_cmp_wnt": 0.7, "per_hh_ph_ll": 0.0, "per_hh_ph_mob": 34.6, "per_hh_ph_bth": 0.0, "per_hh_bcycl": 56.6, "per_hh_2wheel": 14.0, "per_hh_4wheel": 1.5, "per_hh_tvcomp": 0.7, "per_hh_no_ast": 28.7, "per_hs_perma": 30.1, "per_hs_sperma": 64.7, "per_hs_temp": 4.4, "per_hs_servc": 2.2, "per_hs_nservc": 2.2, "per_hs_unclss": 0.7, "avghhsz_cy": 5.55319149, "st_areashape": 1919296.209066645, "st_lengthshape": 6081.5941220829545}, "geometry": {"type": "Polygon", "coordinates": [[[73.19887931065139, 23.259397896814246], [73.19750308265296, 23.25938019399911], [73.19674079565905, 23.259267988632782], [73.19597752950149, 23.259168273375323], [73.19521067367604, 23.259080931886267], [73.19444281622906, 23.259004947410023], [73.19367384576944, 23.258942427804712], [73.19290389614616, 23.258892398399254], [73.19213277961133, 23.25885371780475], [73.1913607171505, 23.258828435274772], [73.19058881548808, 23.25881569414555], [73.18981705755614, 23.258814283691375], [73.18904426566333, 23.258826343940406], [73.1882728445996, 23.2588497142289], [73.18750161308041, 23.25888660803019], [73.18673054415629, 23.258935968937642], [73.18596084965455, 23.258996566402505], [73.18519257089771, 23.259070665054672], [73.18442560547781, 23.259157131724482], [73.18366131793576, 23.259254891838275], [73.18270129288321, 23.259618513308315], [73.18196436083817, 23.25876069137478], [73.18150007466842, 23.258167634699884], [73.18105770649326, 23.257561962061715], [73.18064213057147, 23.256953634914936], [73.1801014076525, 23.25622059586401], [73.17952191164923, 23.255516258589843], [73.17890115422837, 23.254839753645232], [73.17951731856321, 23.254459557112447], [73.18037162088997, 23.254326723249722], [73.18117721296879, 23.25403309593864], [73.1822282068169, 23.253527030805], [73.18323241191348, 23.25308382039756], [73.18425283339752, 23.25267418366297], [73.18528846425767, 23.25229709417531], [73.18633676854982, 23.25195258852625], [73.18739779837628, 23.25164278400138], [73.18846908965827, 23.251367947432524], [73.18955048698717, 23.25112792139264], [73.19063984249118, 23.250921625675467], [73.19173695225275, 23.250751395379723], [73.19283950580491, 23.25061606688537], [73.1945008114638, 23.25047948122856], [73.19561057130119, 23.25043440907011], [73.19672216280343, 23.250423096664928], [73.1978342564639, 23.25044903364968], [73.19894304791742, 23.25051001133655], [73.20019815157453, 23.250624186780467], [73.19931157008463, 23.25507635612589], [73.19873212169207, 23.2576759292645], [73.19870384362525, 23.258287125204173], [73.19887931065139, 23.259397896814246]]]}}]}