{"type": "FeatureCollection", "features": [{"type": "Feature", "properties": {"premiumdata.sde.IN_Village_PCA.area": 0.66432008, "objectid": 574691, "id": "9137962436440", "name": "Bankata Diksit", "subdistrict": "Salempur", "district": "Deoria", "state": "Uttar Pradesh", "country": "India", "censusname": "Bankata Diksit", "villagename_locallang": null, "lgd_villagename": "Bankata Diksit", "lgd_villagecode": 191148, "lgd_subdistrictcode": 962, "lgd_districtcode": 137, "lgd_statecode": 9, "censuscode2001": "08421200", "censuscode2011": "191148", "censuscode2021": null, "level": "Village", "tru": "Rural", "no_hh": 2, "tot_p": 26, "tot_m": 12, "tot_f": 14, "per_tot_m": 46.15384615, "per_tot_f": 53.84615385, "p_06": 6, "m_06": 1, "f_06": 5, "per_p_06": 23.07692308, "per_m_06": 16.66666667, "per_f_06": 83.33333332999999, "p_sc": 0, "m_sc": 0, "f_sc": 0, "per_p_sc": 0.0, "per_m_sc": 0.0, "per_f_sc": 0.0, "p_st": 0, "m_st": 0, "f_st": 0, "per_p_st": 0.0, "per_m_st": 0.0, "per_f_st": 0.0, "p_lit": 15, "m_lit": 10, "f_lit": 5, "per_p_lit": 57.69230769, "per_m_lit": 66.66666667, "per_f_lit": 33.33333333, "p_ill": 11, "m_ill": 2, "f_ill": 9, "per_p_ill": 42.30769231, "per_m_ill": 18.18181818, "per_f_ill": 81.81818182, "tot_work_p": 7, "tot_work_m": 5, "tot_work_f": 2, "per_tot_work_p": 26.92307692, "per_tot_work_m": 71.42857143, "per_tot_work_f": 28.57142857, "mainwork_p": 4, "mainwork_m": 4, "mainwork_f": 0, "per_mainwork_p": 15.38461538, "per_mainwork_m": 100.0, "per_mainwork_f": 0.0, "main_cl_p": 1, "main_cl_m": 1, "main_cl_f": 0, "per_main_cl_p": 25.0, "per_main_cl_m": 100.0, "per_main_cl_f": 0.0, "main_al_p": 0, "main_al_m": 0, "main_al_f": 0, "per_main_al_p": 0.0, "per_main_al_m": 0.0, "per_main_al_f": 0.0, "main_hh_p": 0, "main_hh_m": 0, "main_hh_f": 0, "per_main_hh_p": 0.0, "per_main_hh_m": 0.0, "per_main_hh_f": 0.0, "main_ot_p": 3, "main_ot_m": 3, "main_ot_f": 0, "per_main_ot_p": 75.0, "per_main_ot_m": 100.0, "per_main_ot_f": 0.0, "margwork_p": 3, "margwork_m": 1, "margwork_f": 2, "per_margwork_p": 11.53846154, "per_margwork_m": 33.33333333, "per_margwork_f": 66.66666667, "marg_cl_p": 0, "marg_cl_m": 0, "marg_cl_f": 0, "per_marg_cl_p": 0.0, "per_marg_cl_m": 0.0, "per_marg_cl_f": 0.0, "marg_al_p": 3, "marg_al_m": 1, "marg_al_f": 2, "per_marg_al_p": 100.0, "per_marg_al_m": 33.33333333, "per_marg_al_f": 66.66666667, "marg_hh_p": 0, "marg_hh_m": 0, "marg_hh_f": 0, "per_marg_hh_p": 0.0, "per_marg_hh_m": 0.0, "per_marg_hh_f": 0.0, "marg_ot_p": 0, "marg_ot_m": 0, "marg_ot_f": 0, "per_marg_ot_p": 0.0, "per_marg_ot_m": 0.0, "per_marg_ot_f": 0.0, "margwork_3_6_p": 3, "margwork_3_6_m": 1, "margwork_3_6_f": 2, "per_margwork_3_6_p": 100.0, "per_margwork_3_6_m": 33.33333333, "per_margwork_3_6_f": 66.66666667, "marg_cl_3_6_p": 0, "marg_cl_3_6_m": 0, "marg_cl_3_6_f": 0, "per_marg_cl_3_6_p": 0.0, "per_marg_cl_3_6_m": 0.0, "per_marg_cl_3_6_f": 0.0, "marg_al_3_6_p": 3, "marg_al_3_6_m": 1, "marg_al_3_6_f": 2, "per_marg_al_3_6_p": 100.0, "per_marg_al_3_6_m": 33.33333333, "per_marg_al_3_6_f": 66.66666667, "marg_hh_3_6_p": 0, "marg_hh_3_6_m": 0, "marg_hh_3_6_f": 0, "per_marg_hh_3_6_p": 0.0, "per_marg_hh_3_6_m": 0.0, "per_marg_hh_3_6_f": 0.0, "marg_ot_3_6_p": 0, "marg_ot_3_6_m": 0, "marg_ot_3_6_f": 0, "per_marg_ot_3_6_p": 0.0, "per_marg_ot_3_6_m": 0.0, "per_marg_ot_3_6_f": 0.0, "margwork_0_3_p": 0, "margwork_0_3_m": 0, "margwork_0_3_f": 0, "per_margwork_0_3_p": 0.0, "per_margwork_0_3_m": 0.0, "per_margwork_0_3_f": 0.0, "marg_cl_0_3_p": 0, "marg_cl_0_3_m": 0, "marg_cl_0_3_f": 0, "per_marg_cl_0_3_p": 0.0, "per_marg_cl_0_3_m": 0.0, "per_marg_cl_0_3_f": 0.0, "marg_al_0_3_p": 0, "marg_al_0_3_m": 0, "marg_al_0_3_f": 0, "per_marg_al_0_3_p": 0.0, "per_marg_al_0_3_m": 0.0, "per_marg_al_0_3_f": 0.0, "marg_hh_0_3_p": 0, "marg_hh_0_3_m": 0, "marg_hh_0_3_f": 0, "per_marg_hh_0_3_p": 0.0, "per_marg_hh_0_3_m": 0.0, "per_marg_hh_0_3_f": 0.0, "marg_ot_0_3_p": 0, "marg_ot_0_3_m": 0, "marg_ot_0_3_f": 0, "per_marg_ot_0_3_p": 0.0, "per_marg_ot_0_3_m": 0.0, "per_marg_ot_0_3_f": 0.0, "non_work_p": 19, "non_work_m": 7, "non_work_f": 12, "per_non_work_p": 73.07692308, "per_non_work_m": 36.84210526, "per_non_work_f": 63.15789474, "per_hc_tot_tot": 100, "per_hc_tot_god": 100.0, "per_hc_tot_liv": 0.0, "per_hc_tot_dil": 0.0, "per_hc_res_tot": 100.0, "per_hc_res_god": 100.0, "per_hc_res_liv": 0.0, "per_hc_res_dil": 0.0, "per_hc_oth_tot": 0.0, "per_hc_oth_god": 0.0, "per_hc_oth_liv": 0.0, "per_hc_oth_dil": 0.0, "per_mt_grsbam": 0.0, "per_mt_plastic": 0.0, "per_mt_h_tiles": 0.0, "per_mt_m_tiles": 0.0, "per_mt_b_brick": 0.0, "per_mt_stone": 0.0, "per_mt_asbstos": 50.0, "per_mt_concrte": 50.0, "per_mt_oth": 0.0, "per_mw_grsbam": 0.0, "per_mw_plastic": 0.0, "per_mw_mud": 0.0, "per_mw_wood": 0.0, "per_mw_no_mrtr": 0.0, "per_mw_st_mrtr": 0.0, "per_mw_asbstos": 0.0, "per_mw_b_brick": 100.0, "per_mw_concrte": 0.0, "per_mw_oth": 0.0, "per_mf_mud": 100.0, "per_mf_wood": 0.0, "per_mf_b_brick": 0.0, "per_mf_stone": 0.0, "per_mf_cement": 0.0, "per_mf_fl_tile": 0.0, "per_mf_oth": 0.0, "per_dw_n_exrm": 0.0, "per_dw_1_room": 0.0, "per_dw_2_room": 50.0, "per_dw_3_room": 0.0, "per_dw_4_room": 0.0, "per_dw_5_room": 0.0, "per_dw_6_room": 50.0, "per_hhsize_1": 0.0, "per_hhsize_2": 0.0, "per_hhsize_3": 0.0, "per_hhsize_4": 0.0, "per_hhsize_5": 0.0, "per_hhsize_6_8": 50.0, "per_hhsize_9p": 50.0, "per_ow_owned": 100.0, "per_ow_rented": 0.0, "per_ow_oth": 0.0, "per_mc_none": 0.0, "per_mcouple_1": 0.0, "per_mcouple_2": 50.0, "per_mcouple_3": 0.0, "per_mcouple_4": 0.0, "per_mcouple_5p": 50.0, "per_dw_t_ts": 0.0, "per_dw_t_unts": 0.0, "per_dw_c_well": 0.0, "per_dw_unc_wel": 0.0, "per_dw_hpump": 100.0, "per_dw_tw_bore": 0.0, "per_dw_spring": 0.0, "per_dw_rivcan": 0.0, "per_dw_tank": 0.0, "per_dw_oth": 0.0, "per_loc_dw_wp": 50.0, "per_loc_dw_np": 50.0, "per_loc_dw_aw": 0.0, "per_light_elec": 0.0, "per_light_kero": 100.0, "per_light_solr": 0.0, "per_light_oil": 0.0, "per_light_oth": 0.0, "per_light_no": 0.0, "per_hh_latrine": 0.0, "per_fl_sewer": 0.0, "per_fl_septict": 0.0, "per_fl_othsys": 0.0, "per_pl_wslab": 0.0, "per_pl_without": 0.0, "per_ns_open": 0.0, "per_sl_ns_hum": 0.0, "per_sl_ns_anml": 0.0, "per_hh_no_lat": 100.0, "per_as_pub": 0.0, "per_as_open": 100.0, "per_hh_bathrm": 0.0, "per_hh_en_wrf": 100.0, "per_hh_no_btrm": 0.0, "per_wwoc_drain": 0.0, "per_wwoc_open": 100.0, "per_wwoc_nodrn": 0.0, "per_cook_fire": 100.0, "per_cook_resdu": 0.0, "per_cook_cwdng": 0.0, "per_cook_coal": 0.0, "per_cook_kero": 0.0, "per_cook_lpng": 0.0, "per_cook_elec": 0.0, "per_cook_biogs": 0.0, "per_cook_oth": 0.0, "per_cook_no": 0.0, "per_kf_inside": 100.0, "per_kf_in_has": 0.0, "per_kf_in_does": 100.0, "per_kf_outside": 0.0, "per_kf_out_has": 0.0, "per_kf_out_dos": 0.0, "per_kf_no_cook": 0.0, "per_hh_banking": 100.0, "per_hh_radio": 50.0, "per_hh_tv": 0.0, "per_hh_cmp_int": 0.0, "per_hh_cmp_wnt": 100.0, "per_hh_ph_ll": 0.0, "per_hh_ph_mob": 100.0, "per_hh_ph_bth": 0.0, "per_hh_bcycl": 100.0, "per_hh_2wheel": 0.0, "per_hh_4wheel": 0.0, "per_hh_tvcomp": 0.0, "per_hh_no_ast": 0.0, "per_hs_perma": 100.0, "per_hs_sperma": 0.0, "per_hs_temp": 0.0, "per_hs_servc": 0.0, "per_hs_nservc": 0.0, "per_hs_unclss": 0.0, "avghhsz_cy": 13.0, "st_areashape": 831488.28070262, "st_lengthshape": 4047.916214244635}, "geometry": {"type": "Polygon", "coordinates": [[[83.93511647885282, 26.41136197425677], [83.93521902064415, 26.410722771741685], [83.93510680669213, 26.41001502509116], [83.93489298609495, 26.40963884600676], [83.93441450564539, 26.409237345165547], [83.93414675469012, 26.40871986813223], [83.93408751349207, 26.408058941928015], [83.93408892833867, 26.40803228875647], [83.93426355813494, 26.40475030434532], [83.93403331094447, 26.402767903988472], [83.93398861706414, 26.402069853263026], [83.93660058283875, 26.402454973761046], [83.93775779707934, 26.40244533930723], [83.93870380571853, 26.40234276619847], [83.93908850295074, 26.402244808275512], [83.93989349585325, 26.402080285928307], [83.94052187997093, 26.401790849520587], [83.94087228222054, 26.401756351472383], [83.94136389244629, 26.40181545476941], [83.94225713314735, 26.402145247473126], [83.94151842692963, 26.40320322978415], [83.94114045268901, 26.403964080249388], [83.94069948858069, 26.405420013941583], [83.9405712567688, 26.406589142316193], [83.94068912112398, 26.407819405912274], [83.94112524061799, 26.409299583245854], [83.94141204394214, 26.409896993410577], [83.94162825585461, 26.410463508653677], [83.94175302016947, 26.410866736631846], [83.94122398882394, 26.410676529025807], [83.9405065160846, 26.410590344834723], [83.93958627202609, 26.41069019362318], [83.93851574610873, 26.411113712469078], [83.93769977399683, 26.411396951359983], [83.93672832866207, 26.411497121270838], [83.93511647885282, 26.41136197425677]]]}}]}