{"type": "FeatureCollection", "features": [{"type": "Feature", "properties": {"premiumdata.sde.IN_Village_PCA.area": 1.86397531, "objectid": 195686, "id": "21365288351284", "name": "Bahanada", "subdistrict": "Khunta", "district": "Mayurbhanj", "state": "Odisha", "country": "India", "censusname": "Bahanada", "villagename_locallang": null, "lgd_villagename": "Bahanada", "lgd_villagecode": 390881, "lgd_subdistrictcode": 2883, "lgd_districtcode": 365, "lgd_statecode": 21, "censuscode2001": "01044700", "censuscode2011": "390881", "censuscode2021": null, "level": "Village", "tru": "Rural", "no_hh": 317, "tot_p": 1425, "tot_m": 514, "tot_f": 911, "per_tot_m": 36.07017544, "per_tot_f": 63.92982456, "p_06": 160, "m_06": 82, "f_06": 78, "per_p_06": 11.22807018, "per_m_06": 51.25, "per_f_06": 48.75, "p_sc": 214, "m_sc": 87, "f_sc": 127, "per_p_sc": 15.01754386, "per_m_sc": 40.65420561000001, "per_f_sc": 59.34579439, "p_st": 925, "m_st": 294, "f_st": 631, "per_p_st": 64.9122807, "per_m_st": 31.78378378, "per_f_st": 68.21621622, "p_lit": 872, "m_lit": 300, "f_lit": 572, "per_p_lit": 61.19298246, "per_m_lit": 34.40366972, "per_f_lit": 65.59633028, "p_ill": 553, "m_ill": 214, "f_ill": 339, "per_p_ill": 38.80701754, "per_m_ill": 38.69801085, "per_f_ill": 61.30198915, "tot_work_p": 532, "tot_work_m": 293, "tot_work_f": 239, "per_tot_work_p": 37.33333333, "per_tot_work_m": 55.07518797, "per_tot_work_f": 44.92481203, "mainwork_p": 188, "mainwork_m": 147, "mainwork_f": 41, "per_mainwork_p": 13.19298246, "per_mainwork_m": 78.19148936, "per_mainwork_f": 21.80851064, "main_cl_p": 87, "main_cl_m": 75, "main_cl_f": 12, "per_main_cl_p": 46.27659574, "per_main_cl_m": 86.20689655, "per_main_cl_f": 13.79310345, "main_al_p": 3, "main_al_m": 2, "main_al_f": 1, "per_main_al_p": 1.59574468, "per_main_al_m": 66.66666667, "per_main_al_f": 33.33333333, "main_hh_p": 7, "main_hh_m": 4, "main_hh_f": 3, "per_main_hh_p": 3.72340426, "per_main_hh_m": 57.14285714, "per_main_hh_f": 42.85714286, "main_ot_p": 91, "main_ot_m": 66, "main_ot_f": 25, "per_main_ot_p": 48.40425532, "per_main_ot_m": 72.52747253, "per_main_ot_f": 27.47252747, "margwork_p": 344, "margwork_m": 146, "margwork_f": 198, "per_margwork_p": 24.14035088, "per_margwork_m": 42.44186047, "per_margwork_f": 57.55813953000001, "marg_cl_p": 37, "marg_cl_m": 30, "marg_cl_f": 7, "per_marg_cl_p": 10.75581395, "per_marg_cl_m": 81.08108108, "per_marg_cl_f": 18.91891892, "marg_al_p": 300, "marg_al_m": 112, "marg_al_f": 188, "per_marg_al_p": 87.20930233, "per_marg_al_m": 37.33333333, "per_marg_al_f": 62.66666667000001, "marg_hh_p": 2, "marg_hh_m": 0, "marg_hh_f": 2, "per_marg_hh_p": 0.58139535, "per_marg_hh_m": 0.0, "per_marg_hh_f": 100.0, "marg_ot_p": 5, "marg_ot_m": 4, "marg_ot_f": 1, "per_marg_ot_p": 1.45348837, "per_marg_ot_m": 80.0, "per_marg_ot_f": 20.0, "margwork_3_6_p": 330, "margwork_3_6_m": 143, "margwork_3_6_f": 187, "per_margwork_3_6_p": 95.93023256, "per_margwork_3_6_m": 43.33333333, "per_margwork_3_6_f": 56.66666667000001, "marg_cl_3_6_p": 36, "marg_cl_3_6_m": 29, "marg_cl_3_6_f": 7, "per_marg_cl_3_6_p": 10.46511628, "per_marg_cl_3_6_m": 80.55555556, "per_marg_cl_3_6_f": 19.44444444, "marg_al_3_6_p": 287, "marg_al_3_6_m": 110, "marg_al_3_6_f": 177, "per_marg_al_3_6_p": 83.43023256, "per_marg_al_3_6_m": 38.32752613, "per_marg_al_3_6_f": 61.67247387, "marg_hh_3_6_p": 2, "marg_hh_3_6_m": 0, "marg_hh_3_6_f": 2, "per_marg_hh_3_6_p": 0.58139535, "per_marg_hh_3_6_m": 0.0, "per_marg_hh_3_6_f": 100.0, "marg_ot_3_6_p": 5, "marg_ot_3_6_m": 4, "marg_ot_3_6_f": 1, "per_marg_ot_3_6_p": 1.45348837, "per_marg_ot_3_6_m": 80.0, "per_marg_ot_3_6_f": 20.0, "margwork_0_3_p": 14, "margwork_0_3_m": 3, "margwork_0_3_f": 11, "per_margwork_0_3_p": 4.06976744, "per_margwork_0_3_m": 21.42857143, "per_margwork_0_3_f": 78.57142857, "marg_cl_0_3_p": 1, "marg_cl_0_3_m": 1, "marg_cl_0_3_f": 0, "per_marg_cl_0_3_p": 0.29069767, "per_marg_cl_0_3_m": 100.0, "per_marg_cl_0_3_f": 0.0, "marg_al_0_3_p": 13, "marg_al_0_3_m": 2, "marg_al_0_3_f": 11, "per_marg_al_0_3_p": 3.77906977, "per_marg_al_0_3_m": 15.38461538, "per_marg_al_0_3_f": 84.61538462, "marg_hh_0_3_p": 0, "marg_hh_0_3_m": 0, "marg_hh_0_3_f": 0, "per_marg_hh_0_3_p": 0.0, "per_marg_hh_0_3_m": 0.0, "per_marg_hh_0_3_f": 0.0, "marg_ot_0_3_p": 0, "marg_ot_0_3_m": 0, "marg_ot_0_3_f": 0, "per_marg_ot_0_3_p": 0.0, "per_marg_ot_0_3_m": 0.0, "per_marg_ot_0_3_f": 0.0, "non_work_p": 893, "non_work_m": 221, "non_work_f": 672, "per_non_work_p": 62.66666667000001, "per_non_work_m": 24.74804031, "per_non_work_f": 75.25195969, "per_hc_tot_tot": 100, "per_hc_tot_god": 23.2, "per_hc_tot_liv": 75.6, "per_hc_tot_dil": 1.2, "per_hc_res_tot": 98.2, "per_hc_res_god": 22.6, "per_hc_res_liv": 74.4, "per_hc_res_dil": 1.2, "per_hc_oth_tot": 1.8, "per_hc_oth_god": 0.6, "per_hc_oth_liv": 1.2, "per_hc_oth_dil": 0.0, "per_mt_grsbam": 61.1, "per_mt_plastic": 0.3, "per_mt_h_tiles": 25.6, "per_mt_m_tiles": 0.0, "per_mt_b_brick": 0.0, "per_mt_stone": 0.0, "per_mt_asbstos": 7.5, "per_mt_concrte": 5.4, "per_mt_oth": 0.0, "per_mw_grsbam": 0.0, "per_mw_plastic": 0.0, "per_mw_mud": 89.2, "per_mw_wood": 0.0, "per_mw_no_mrtr": 0.0, "per_mw_st_mrtr": 0.3, "per_mw_asbstos": 0.0, "per_mw_b_brick": 9.3, "per_mw_concrte": 0.0, "per_mw_oth": 1.2, "per_mf_mud": 84.0, "per_mf_wood": 0.0, "per_mf_b_brick": 0.0, "per_mf_stone": 0.0, "per_mf_cement": 16.0, "per_mf_fl_tile": 0.0, "per_mf_oth": 0.0, "per_dw_n_exrm": 2.7, "per_dw_1_room": 28.9, "per_dw_2_room": 47.0, "per_dw_3_room": 13.9, "per_dw_4_room": 4.2, "per_dw_5_room": 1.5, "per_dw_6_room": 1.8, "per_hhsize_1": 8.1, "per_hhsize_2": 15.1, "per_hhsize_3": 13.0, "per_hhsize_4": 21.7, "per_hhsize_5": 19.0, "per_hhsize_6_8": 19.9, "per_hhsize_9p": 3.3, "per_ow_owned": 97.0, "per_ow_rented": 0.3, "per_ow_oth": 2.7, "per_mc_none": 19.3, "per_mcouple_1": 66.3, "per_mcouple_2": 12.7, "per_mcouple_3": 1.5, "per_mcouple_4": 0.3, "per_mcouple_5p": 0.0, "per_dw_t_ts": 0.0, "per_dw_t_unts": 25.0, "per_dw_c_well": 1.2, "per_dw_unc_wel": 0.9, "per_dw_hpump": 60.8, "per_dw_tw_bore": 3.0, "per_dw_spring": 9.0, "per_dw_rivcan": 0.0, "per_dw_tank": 0.0, "per_dw_oth": 0.0, "per_loc_dw_wp": 9.9, "per_loc_dw_np": 81.0, "per_loc_dw_aw": 9.0, "per_light_elec": 25.6, "per_light_kero": 74.4, "per_light_solr": 0.0, "per_light_oil": 0.0, "per_light_oth": 0.0, "per_light_no": 0.0, "per_hh_latrine": 30.4, "per_fl_sewer": 0.0, "per_fl_septict": 10.5, "per_fl_othsys": 19.6, "per_pl_wslab": 0.0, "per_pl_without": 0.3, "per_ns_open": 0.0, "per_sl_ns_hum": 0.0, "per_sl_ns_anml": 0.0, "per_hh_no_lat": 69.6, "per_as_pub": 0.0, "per_as_open": 69.6, "per_hh_bathrm": 6.9, "per_hh_en_wrf": 7.5, "per_hh_no_btrm": 85.5, "per_wwoc_drain": 0.0, "per_wwoc_open": 1.2, "per_wwoc_nodrn": 98.8, "per_cook_fire": 92.5, "per_cook_resdu": 0.9, "per_cook_cwdng": 0.0, "per_cook_coal": 0.0, "per_cook_kero": 0.0, "per_cook_lpng": 6.3, "per_cook_elec": 0.0, "per_cook_biogs": 0.3, "per_cook_oth": 0.0, "per_cook_no": 0.0, "per_kf_inside": 94.3, "per_kf_in_has": 37.3, "per_kf_in_does": 56.9, "per_kf_outside": 5.7, "per_kf_out_has": 3.3, "per_kf_out_dos": 2.4, "per_kf_no_cook": 0.0, "per_hh_banking": 46.1, "per_hh_radio": 12.3, "per_hh_tv": 15.4, "per_hh_cmp_int": 0.0, "per_hh_cmp_wnt": 0.0, "per_hh_ph_ll": 0.6, "per_hh_ph_mob": 25.0, "per_hh_ph_bth": 0.9, "per_hh_bcycl": 69.6, "per_hh_2wheel": 11.4, "per_hh_4wheel": 0.6, "per_hh_tvcomp": 0.0, "per_hh_no_ast": 22.9, "per_hs_perma": 9.3, "per_hs_sperma": 29.5, "per_hs_temp": 59.9, "per_hs_servc": 59.9, "per_hs_nservc": 0.0, "per_hs_unclss": 1.2, "avghhsz_cy": 4.49526814, "st_areashape": 2170105.12226113, "st_lengthshape": 6041.4814581463315}, "geometry": {"type": "Polygon", "coordinates": [[[86.5919356287826, 21.703778995105232], [86.5942173540958, 21.70648193072956], [86.59558638928375, 21.708548847596152], [86.59609977826527, 21.71093371497911], [86.596670209369, 21.713159555042626], [86.59809628757748, 21.71565033557793], [86.59615682128579, 21.71861801766301], [86.59598569132586, 21.71941292221538], [86.59615682128579, 21.720419795398126], [86.59461665613793, 21.72137366805085], [86.59290536282671, 21.72211556500007], [86.59159337065933, 21.722539504276384], [86.59056659359462, 21.721320675384376], [86.58857008428241, 21.718247060646245], [86.58817078224033, 21.7168162181929], [86.58777148019821, 21.71543835636077], [86.58754330811603, 21.714484443514475], [86.58697287611398, 21.714060480497498], [86.5868587900729, 21.712841579760322], [86.58452002173914, 21.711357687209315], [86.58440593569806, 21.710297753874297], [86.58400663365593, 21.708442852795468], [86.58400663365593, 21.707647887633048], [86.58366437463438, 21.7063759344067], [86.58434889177917, 21.70563395629166], [86.58720104909446, 21.704944973903977], [86.58919755840668, 21.70404399054703], [86.5919356287826, 21.703778995105232]]]}}]}