{"type": "FeatureCollection", "features": [{"type": "Feature", "properties": {"premiumdata.sde.IN_Village_PCA.area": 1.57898357, "objectid": 226878, "id": "895662508614", "name": "Charpotiya", "subdistrict": "Bhadesar", "district": "Chittorgarh", "state": "Rajasthan", "country": "India", "censusname": "Charpotiya", "villagename_locallang": null, "lgd_villagename": "Charpotiya", "lgd_villagecode": 101292, "lgd_subdistrictcode": 662, "lgd_districtcode": 95, "lgd_statecode": 8, "censuscode2001": "03659300", "censuscode2011": "101292", "censuscode2021": null, "level": "Village", "tru": "Rural", "no_hh": 99, "tot_p": 418, "tot_m": 208, "tot_f": 210, "per_tot_m": 49.76076555, "per_tot_f": 50.23923445, "p_06": 37, "m_06": 16, "f_06": 21, "per_p_06": 8.85167464, "per_m_06": 43.24324324, "per_f_06": 56.75675676, "p_sc": 127, "m_sc": 63, "f_sc": 64, "per_p_sc": 30.38277512, "per_m_sc": 49.60629921, "per_f_sc": 50.39370079, "p_st": 0, "m_st": 0, "f_st": 0, "per_p_st": 0.0, "per_m_st": 0.0, "per_f_st": 0.0, "p_lit": 236, "m_lit": 150, "f_lit": 86, "per_p_lit": 56.45933014, "per_m_lit": 63.55932203, "per_f_lit": 36.44067797, "p_ill": 182, "m_ill": 58, "f_ill": 124, "per_p_ill": 43.54066986, "per_m_ill": 31.86813187, "per_f_ill": 68.13186813, "tot_work_p": 231, "tot_work_m": 144, "tot_work_f": 87, "per_tot_work_p": 55.26315789, "per_tot_work_m": 62.33766234, "per_tot_work_f": 37.66233766, "mainwork_p": 230, "mainwork_m": 143, "mainwork_f": 87, "per_mainwork_p": 55.02392344, "per_mainwork_m": 62.17391304, "per_mainwork_f": 37.82608696, "main_cl_p": 220, "main_cl_m": 133, "main_cl_f": 87, "per_main_cl_p": 95.65217391, "per_main_cl_m": 60.45454545, "per_main_cl_f": 39.54545455, "main_al_p": 0, "main_al_m": 0, "main_al_f": 0, "per_main_al_p": 0.0, "per_main_al_m": 0.0, "per_main_al_f": 0.0, "main_hh_p": 0, "main_hh_m": 0, "main_hh_f": 0, "per_main_hh_p": 0.0, "per_main_hh_m": 0.0, "per_main_hh_f": 0.0, "main_ot_p": 10, "main_ot_m": 10, "main_ot_f": 0, "per_main_ot_p": 4.34782609, "per_main_ot_m": 100.0, "per_main_ot_f": 0.0, "margwork_p": 1, "margwork_m": 1, "margwork_f": 0, "per_margwork_p": 0.23923445, "per_margwork_m": 100.0, "per_margwork_f": 0.0, "marg_cl_p": 0, "marg_cl_m": 0, "marg_cl_f": 0, "per_marg_cl_p": 0.0, "per_marg_cl_m": 0.0, "per_marg_cl_f": 0.0, "marg_al_p": 0, "marg_al_m": 0, "marg_al_f": 0, "per_marg_al_p": 0.0, "per_marg_al_m": 0.0, "per_marg_al_f": 0.0, "marg_hh_p": 0, "marg_hh_m": 0, "marg_hh_f": 0, "per_marg_hh_p": 0.0, "per_marg_hh_m": 0.0, "per_marg_hh_f": 0.0, "marg_ot_p": 1, "marg_ot_m": 1, "marg_ot_f": 0, "per_marg_ot_p": 100.0, "per_marg_ot_m": 100.0, "per_marg_ot_f": 0.0, "margwork_3_6_p": 1, "margwork_3_6_m": 1, "margwork_3_6_f": 0, "per_margwork_3_6_p": 100.0, "per_margwork_3_6_m": 100.0, "per_margwork_3_6_f": 0.0, "marg_cl_3_6_p": 0, "marg_cl_3_6_m": 0, "marg_cl_3_6_f": 0, "per_marg_cl_3_6_p": 0.0, "per_marg_cl_3_6_m": 0.0, "per_marg_cl_3_6_f": 0.0, "marg_al_3_6_p": 0, "marg_al_3_6_m": 0, "marg_al_3_6_f": 0, "per_marg_al_3_6_p": 0.0, "per_marg_al_3_6_m": 0.0, "per_marg_al_3_6_f": 0.0, "marg_hh_3_6_p": 0, "marg_hh_3_6_m": 0, "marg_hh_3_6_f": 0, "per_marg_hh_3_6_p": 0.0, "per_marg_hh_3_6_m": 0.0, "per_marg_hh_3_6_f": 0.0, "marg_ot_3_6_p": 1, "marg_ot_3_6_m": 1, "marg_ot_3_6_f": 0, "per_marg_ot_3_6_p": 100.0, "per_marg_ot_3_6_m": 100.0, "per_marg_ot_3_6_f": 0.0, "margwork_0_3_p": 0, "margwork_0_3_m": 0, "margwork_0_3_f": 0, "per_margwork_0_3_p": 0.0, "per_margwork_0_3_m": 0.0, "per_margwork_0_3_f": 0.0, "marg_cl_0_3_p": 0, "marg_cl_0_3_m": 0, "marg_cl_0_3_f": 0, "per_marg_cl_0_3_p": 0.0, "per_marg_cl_0_3_m": 0.0, "per_marg_cl_0_3_f": 0.0, "marg_al_0_3_p": 0, "marg_al_0_3_m": 0, "marg_al_0_3_f": 0, "per_marg_al_0_3_p": 0.0, "per_marg_al_0_3_m": 0.0, "per_marg_al_0_3_f": 0.0, "marg_hh_0_3_p": 0, "marg_hh_0_3_m": 0, "marg_hh_0_3_f": 0, "per_marg_hh_0_3_p": 0.0, "per_marg_hh_0_3_m": 0.0, "per_marg_hh_0_3_f": 0.0, "marg_ot_0_3_p": 0, "marg_ot_0_3_m": 0, "marg_ot_0_3_f": 0, "per_marg_ot_0_3_p": 0.0, "per_marg_ot_0_3_m": 0.0, "per_marg_ot_0_3_f": 0.0, "non_work_p": 187, "non_work_m": 64, "non_work_f": 123, "per_non_work_p": 44.73684211, "per_non_work_m": 34.22459893, "per_non_work_f": 65.77540107, "per_hc_tot_tot": 100, "per_hc_tot_god": 3.0, "per_hc_tot_liv": 97.0, "per_hc_tot_dil": 0.0, "per_hc_res_tot": 99.0, "per_hc_res_god": 3.0, "per_hc_res_liv": 96.0, "per_hc_res_dil": 0.0, "per_hc_oth_tot": 1.0, "per_hc_oth_god": 0.0, "per_hc_oth_liv": 1.0, "per_hc_oth_dil": 0.0, "per_mt_grsbam": 0.0, "per_mt_plastic": 0.0, "per_mt_h_tiles": 51.0, "per_mt_m_tiles": 0.0, "per_mt_b_brick": 0.0, "per_mt_stone": 49.0, "per_mt_asbstos": 0.0, "per_mt_concrte": 0.0, "per_mt_oth": 0.0, "per_mw_grsbam": 0.0, "per_mw_plastic": 0.0, "per_mw_mud": 51.0, "per_mw_wood": 0.0, "per_mw_no_mrtr": 0.0, "per_mw_st_mrtr": 46.0, "per_mw_asbstos": 0.0, "per_mw_b_brick": 3.0, "per_mw_concrte": 0.0, "per_mw_oth": 0.0, "per_mf_mud": 53.0, "per_mf_wood": 0.0, "per_mf_b_brick": 0.0, "per_mf_stone": 47.0, "per_mf_cement": 0.0, "per_mf_fl_tile": 0.0, "per_mf_oth": 0.0, "per_dw_n_exrm": 1.0, "per_dw_1_room": 63.0, "per_dw_2_room": 22.0, "per_dw_3_room": 7.0, "per_dw_4_room": 5.0, "per_dw_5_room": 2.0, "per_dw_6_room": 0.0, "per_hhsize_1": 4.0, "per_hhsize_2": 19.0, "per_hhsize_3": 7.0, "per_hhsize_4": 28.0, "per_hhsize_5": 16.0, "per_hhsize_6_8": 23.0, "per_hhsize_9p": 3.0, "per_ow_owned": 100.0, "per_ow_rented": 0.0, "per_ow_oth": 0.0, "per_mc_none": 8.0, "per_mcouple_1": 65.0, "per_mcouple_2": 24.0, "per_mcouple_3": 3.0, "per_mcouple_4": 0.0, "per_mcouple_5p": 0.0, "per_dw_t_ts": 0.0, "per_dw_t_unts": 0.0, "per_dw_c_well": 0.0, "per_dw_unc_wel": 0.0, "per_dw_hpump": 88.0, "per_dw_tw_bore": 12.0, "per_dw_spring": 0.0, "per_dw_rivcan": 0.0, "per_dw_tank": 0.0, "per_dw_oth": 0.0, "per_loc_dw_wp": 2.0, "per_loc_dw_np": 66.0, "per_loc_dw_aw": 32.0, "per_light_elec": 47.0, "per_light_kero": 48.0, "per_light_solr": 4.0, "per_light_oil": 0.0, "per_light_oth": 1.0, "per_light_no": 0.0, "per_hh_latrine": 9.0, "per_fl_sewer": 0.0, "per_fl_septict": 1.0, "per_fl_othsys": 0.0, "per_pl_wslab": 8.0, "per_pl_without": 0.0, "per_ns_open": 0.0, "per_sl_ns_hum": 0.0, "per_sl_ns_anml": 0.0, "per_hh_no_lat": 91.0, "per_as_pub": 0.0, "per_as_open": 91.0, "per_hh_bathrm": 12.0, "per_hh_en_wrf": 1.0, "per_hh_no_btrm": 87.0, "per_wwoc_drain": 1.0, "per_wwoc_open": 1.0, "per_wwoc_nodrn": 98.0, "per_cook_fire": 98.0, "per_cook_resdu": 0.0, "per_cook_cwdng": 0.0, "per_cook_coal": 0.0, "per_cook_kero": 0.0, "per_cook_lpng": 2.0, "per_cook_elec": 0.0, "per_cook_biogs": 0.0, "per_cook_oth": 0.0, "per_cook_no": 0.0, "per_kf_inside": 91.0, "per_kf_in_has": 38.0, "per_kf_in_does": 53.0, "per_kf_outside": 9.0, "per_kf_out_has": 8.0, "per_kf_out_dos": 1.0, "per_kf_no_cook": 0.0, "per_hh_banking": 80.0, "per_hh_radio": 11.0, "per_hh_tv": 15.0, "per_hh_cmp_int": 0.0, "per_hh_cmp_wnt": 0.0, "per_hh_ph_ll": 0.0, "per_hh_ph_mob": 35.0, "per_hh_ph_bth": 1.0, "per_hh_bcycl": 45.0, "per_hh_2wheel": 29.0, "per_hh_4wheel": 0.0, "per_hh_tvcomp": 0.0, "per_hh_no_ast": 31.0, "per_hs_perma": 49.0, "per_hs_sperma": 51.0, "per_hs_temp": 0.0, "per_hs_servc": 0.0, "per_hs_nservc": 0.0, "per_hs_unclss": 0.0, "avghhsz_cy": 4.22222222, "st_areashape": 1920826.47493679, "st_lengthshape": 5879.482846070396}, "geometry": {"type": "Polygon", "coordinates": [[[74.46634926038388, 24.68366197260025], [74.46380723384404, 24.68412278387965], [74.46030600870168, 24.684832905076235], [74.45636031512304, 24.68515051702854], [74.4533856563491, 24.684945666663882], [74.44670188430975, 24.684786892768873], [74.44715292122736, 24.682998281345814], [74.4478349545304, 24.68197699837775], [74.44953705807627, 24.680119989219353], [74.4506066722036, 24.678721560128448], [74.45119307894633, 24.677433826721863], [74.45122860282424, 24.676353319403233], [74.45089261314504, 24.67569642319049], [74.45422872075167, 24.67581522457251], [74.45914212267347, 24.675934355620218], [74.46162205316935, 24.675734461292937], [74.46202849681795, 24.67540824943414], [74.46479172900493, 24.678689079262295], [74.4650628872701, 24.67939917100543], [74.46539649910872, 24.680272665912234], [74.46578101038969, 24.681927826963875], [74.46584082201794, 24.683043835587718], [74.46634926038388, 24.68366197260025]]]}}]}