{"type": "FeatureCollection", "features": [{"type": "Feature", "properties": {"premiumdata.sde.IN_Village_PCA.area": 1.70558149, "objectid": 173747, "id": "223863271264565", "name": "Karramal", "subdistrict": "Baramkela", "district": "Raigarh", "state": "Chhattisgarh", "country": "India", "censusname": "Karramal", "villagename_locallang": "\u0915\u0930\u094d\u0930\u093e\u092e\u093e\u0932", "lgd_villagename": "Karramal", "lgd_villagecode": 435760, "lgd_subdistrictcode": 3271, "lgd_districtcode": 386, "lgd_statecode": 22, "censuscode2001": "00462200", "censuscode2011": "435760", "censuscode2021": null, "level": "Village", "tru": "Rural", "no_hh": 55, "tot_p": 233, "tot_m": 109, "tot_f": 124, "per_tot_m": 46.78111588, "per_tot_f": 53.21888412, "p_06": 35, "m_06": 13, "f_06": 22, "per_p_06": 15.02145923, "per_m_06": 37.14285714, "per_f_06": 62.85714286, "p_sc": 68, "m_sc": 33, "f_sc": 35, "per_p_sc": 29.18454936, "per_m_sc": 48.52941176, "per_f_sc": 51.47058824, "p_st": 121, "m_st": 53, "f_st": 68, "per_p_st": 51.93133047, "per_m_st": 43.80165289, "per_f_st": 56.19834711, "p_lit": 145, "m_lit": 83, "f_lit": 62, "per_p_lit": 62.23175966, "per_m_lit": 57.24137931, "per_f_lit": 42.75862069, "p_ill": 88, "m_ill": 26, "f_ill": 62, "per_p_ill": 37.76824034, "per_m_ill": 29.54545455, "per_f_ill": 70.45454545, "tot_work_p": 108, "tot_work_m": 61, "tot_work_f": 47, "per_tot_work_p": 46.35193133, "per_tot_work_m": 56.48148148, "per_tot_work_f": 43.51851852, "mainwork_p": 107, "mainwork_m": 60, "mainwork_f": 47, "per_mainwork_p": 45.92274678, "per_mainwork_m": 56.07476636, "per_mainwork_f": 43.92523364, "main_cl_p": 9, "main_cl_m": 7, "main_cl_f": 2, "per_main_cl_p": 8.41121495, "per_main_cl_m": 77.77777778, "per_main_cl_f": 22.22222222, "main_al_p": 91, "main_al_m": 48, "main_al_f": 43, "per_main_al_p": 85.04672897, "per_main_al_m": 52.74725275, "per_main_al_f": 47.25274725, "main_hh_p": 0, "main_hh_m": 0, "main_hh_f": 0, "per_main_hh_p": 0.0, "per_main_hh_m": 0.0, "per_main_hh_f": 0.0, "main_ot_p": 7, "main_ot_m": 5, "main_ot_f": 2, "per_main_ot_p": 6.54205607, "per_main_ot_m": 71.42857143, "per_main_ot_f": 28.57142857, "margwork_p": 1, "margwork_m": 1, "margwork_f": 0, "per_margwork_p": 0.42918455, "per_margwork_m": 100.0, "per_margwork_f": 0.0, "marg_cl_p": 0, "marg_cl_m": 0, "marg_cl_f": 0, "per_marg_cl_p": 0.0, "per_marg_cl_m": 0.0, "per_marg_cl_f": 0.0, "marg_al_p": 1, "marg_al_m": 1, "marg_al_f": 0, "per_marg_al_p": 100.0, "per_marg_al_m": 100.0, "per_marg_al_f": 0.0, "marg_hh_p": 0, "marg_hh_m": 0, "marg_hh_f": 0, "per_marg_hh_p": 0.0, "per_marg_hh_m": 0.0, "per_marg_hh_f": 0.0, "marg_ot_p": 0, "marg_ot_m": 0, "marg_ot_f": 0, "per_marg_ot_p": 0.0, "per_marg_ot_m": 0.0, "per_marg_ot_f": 0.0, "margwork_3_6_p": 1, "margwork_3_6_m": 1, "margwork_3_6_f": 0, "per_margwork_3_6_p": 100.0, "per_margwork_3_6_m": 100.0, "per_margwork_3_6_f": 0.0, "marg_cl_3_6_p": 0, "marg_cl_3_6_m": 0, "marg_cl_3_6_f": 0, "per_marg_cl_3_6_p": 0.0, "per_marg_cl_3_6_m": 0.0, "per_marg_cl_3_6_f": 0.0, "marg_al_3_6_p": 1, "marg_al_3_6_m": 1, "marg_al_3_6_f": 0, "per_marg_al_3_6_p": 100.0, "per_marg_al_3_6_m": 100.0, "per_marg_al_3_6_f": 0.0, "marg_hh_3_6_p": 0, "marg_hh_3_6_m": 0, "marg_hh_3_6_f": 0, "per_marg_hh_3_6_p": 0.0, "per_marg_hh_3_6_m": 0.0, "per_marg_hh_3_6_f": 0.0, "marg_ot_3_6_p": 0, "marg_ot_3_6_m": 0, "marg_ot_3_6_f": 0, "per_marg_ot_3_6_p": 0.0, "per_marg_ot_3_6_m": 0.0, "per_marg_ot_3_6_f": 0.0, "margwork_0_3_p": 0, "margwork_0_3_m": 0, "margwork_0_3_f": 0, "per_margwork_0_3_p": 0.0, "per_margwork_0_3_m": 0.0, "per_margwork_0_3_f": 0.0, "marg_cl_0_3_p": 0, "marg_cl_0_3_m": 0, "marg_cl_0_3_f": 0, "per_marg_cl_0_3_p": 0.0, "per_marg_cl_0_3_m": 0.0, "per_marg_cl_0_3_f": 0.0, "marg_al_0_3_p": 0, "marg_al_0_3_m": 0, "marg_al_0_3_f": 0, "per_marg_al_0_3_p": 0.0, "per_marg_al_0_3_m": 0.0, "per_marg_al_0_3_f": 0.0, "marg_hh_0_3_p": 0, "marg_hh_0_3_m": 0, "marg_hh_0_3_f": 0, "per_marg_hh_0_3_p": 0.0, "per_marg_hh_0_3_m": 0.0, "per_marg_hh_0_3_f": 0.0, "marg_ot_0_3_p": 0, "marg_ot_0_3_m": 0, "marg_ot_0_3_f": 0, "per_marg_ot_0_3_p": 0.0, "per_marg_ot_0_3_m": 0.0, "per_marg_ot_0_3_f": 0.0, "non_work_p": 125, "non_work_m": 48, "non_work_f": 77, "per_non_work_p": 53.64806867, "per_non_work_m": 38.4, "per_non_work_f": 61.6, "per_hc_tot_tot": 100, "per_hc_tot_god": 0.0, "per_hc_tot_liv": 100.0, "per_hc_tot_dil": 0.0, "per_hc_res_tot": 98.1, "per_hc_res_god": 0.0, "per_hc_res_liv": 98.1, "per_hc_res_dil": 0.0, "per_hc_oth_tot": 1.9, "per_hc_oth_god": 0.0, "per_hc_oth_liv": 1.9, "per_hc_oth_dil": 0.0, "per_mt_grsbam": 0.0, "per_mt_plastic": 0.0, "per_mt_h_tiles": 94.3, "per_mt_m_tiles": 0.0, "per_mt_b_brick": 0.0, "per_mt_stone": 0.0, "per_mt_asbstos": 0.0, "per_mt_concrte": 5.7, "per_mt_oth": 0.0, "per_mw_grsbam": 0.0, "per_mw_plastic": 0.0, "per_mw_mud": 75.5, "per_mw_wood": 0.0, "per_mw_no_mrtr": 0.0, "per_mw_st_mrtr": 0.0, "per_mw_asbstos": 0.0, "per_mw_b_brick": 24.5, "per_mw_concrte": 0.0, "per_mw_oth": 0.0, "per_mf_mud": 92.5, "per_mf_wood": 0.0, "per_mf_b_brick": 0.0, "per_mf_stone": 0.0, "per_mf_cement": 7.5, "per_mf_fl_tile": 0.0, "per_mf_oth": 0.0, "per_dw_n_exrm": 1.9, "per_dw_1_room": 32.1, "per_dw_2_room": 37.7, "per_dw_3_room": 18.9, "per_dw_4_room": 5.7, "per_dw_5_room": 3.8, "per_dw_6_room": 0.0, "per_hhsize_1": 7.5, "per_hhsize_2": 15.1, "per_hhsize_3": 17.0, "per_hhsize_4": 15.1, "per_hhsize_5": 17.0, "per_hhsize_6_8": 26.4, "per_hhsize_9p": 1.9, "per_ow_owned": 100.0, "per_ow_rented": 0.0, "per_ow_oth": 0.0, "per_mc_none": 17.0, "per_mcouple_1": 66.0, "per_mcouple_2": 17.0, "per_mcouple_3": 0.0, "per_mcouple_4": 0.0, "per_mcouple_5p": 0.0, "per_dw_t_ts": 0.0, "per_dw_t_unts": 0.0, "per_dw_c_well": 0.0, "per_dw_unc_wel": 0.0, "per_dw_hpump": 100.0, "per_dw_tw_bore": 0.0, "per_dw_spring": 0.0, "per_dw_rivcan": 0.0, "per_dw_tank": 0.0, "per_dw_oth": 0.0, "per_loc_dw_wp": 0.0, "per_loc_dw_np": 100.0, "per_loc_dw_aw": 0.0, "per_light_elec": 64.2, "per_light_kero": 35.8, "per_light_solr": 0.0, "per_light_oil": 0.0, "per_light_oth": 0.0, "per_light_no": 0.0, "per_hh_latrine": 3.8, "per_fl_sewer": 0.0, "per_fl_septict": 0.0, "per_fl_othsys": 3.8, "per_pl_wslab": 0.0, "per_pl_without": 0.0, "per_ns_open": 0.0, "per_sl_ns_hum": 0.0, "per_sl_ns_anml": 0.0, "per_hh_no_lat": 96.2, "per_as_pub": 0.0, "per_as_open": 96.2, "per_hh_bathrm": 1.9, "per_hh_en_wrf": 0.0, "per_hh_no_btrm": 98.1, "per_wwoc_drain": 0.0, "per_wwoc_open": 20.8, "per_wwoc_nodrn": 79.2, "per_cook_fire": 100.0, "per_cook_resdu": 0.0, "per_cook_cwdng": 0.0, "per_cook_coal": 0.0, "per_cook_kero": 0.0, "per_cook_lpng": 0.0, "per_cook_elec": 0.0, "per_cook_biogs": 0.0, "per_cook_oth": 0.0, "per_cook_no": 0.0, "per_kf_inside": 100.0, "per_kf_in_has": 11.3, "per_kf_in_does": 88.7, "per_kf_outside": 0.0, "per_kf_out_has": 0.0, "per_kf_out_dos": 0.0, "per_kf_no_cook": 0.0, "per_hh_banking": 37.7, "per_hh_radio": 15.1, "per_hh_tv": 26.4, "per_hh_cmp_int": 0.0, "per_hh_cmp_wnt": 0.0, "per_hh_ph_ll": 5.7, "per_hh_ph_mob": 15.1, "per_hh_ph_bth": 1.9, "per_hh_bcycl": 73.6, "per_hh_2wheel": 13.2, "per_hh_4wheel": 1.9, "per_hh_tvcomp": 0.0, "per_hh_no_ast": 22.6, "per_hs_perma": 24.5, "per_hs_sperma": 75.5, "per_hs_temp": 0.0, "per_hs_servc": 0.0, "per_hs_nservc": 0.0, "per_hs_unclss": 0.0, "avghhsz_cy": 4.23636364, "st_areashape": 1977708.46611864, "st_lengthshape": 6302.284297972547}, "geometry": {"type": "Polygon", "coordinates": [[[83.23542360076873, 21.417664576873985], [83.2334270905582, 21.417664576873985], [83.23114536524494, 21.419124927873828], [83.22971928703647, 21.41992147665849], [83.22758016927457, 21.420917156112097], [83.22572626751372, 21.421912829613778], [83.22430018930524, 21.4229748728631], [83.2223036790947, 21.42231109694648], [83.21980804245445, 21.421315426160103], [83.21759762091686, 21.419855097898402], [83.2161002389327, 21.419456823868103], [83.21380651122897, 21.419807089415254], [83.21431751518338, 21.419038634591093], [83.21657642328839, 21.416374942905566], [83.21717879848362, 21.414832782972834], [83.21743024681314, 21.41132140905401], [83.22030716978249, 21.41135835000254], [83.22223237531901, 21.41162388114196], [83.22494192418465, 21.412420470828557], [83.22636800239312, 21.412553235075315], [83.2279366890513, 21.413084291692254], [83.23057493414123, 21.413681728810815], [83.23207231612541, 21.414146399971607], [83.23328448300684, 21.414411926044043], [83.23570881587143, 21.414411926044043], [83.23570881587143, 21.415407643054046], [83.23556620832008, 21.41666887524759], [83.23542360076873, 21.417664576873985]]]}}]}