{"type": "FeatureCollection", "features": [{"type": "Feature", "properties": {"premiumdata.sde.IN_Village_PCA.area": 1.06657511, "objectid": 175271, "id": "223863271264473", "name": "Munglipali", "subdistrict": "Baramkela", "district": "Raigarh", "state": "Chhattisgarh", "country": "India", "censusname": "Munglipali", "villagename_locallang": "\u092e\u0941\u0902\u0917\u0932\u0940\u092a\u093e\u0932\u0940", "lgd_villagename": "Munglipali", "lgd_villagecode": 435635, "lgd_subdistrictcode": 3271, "lgd_districtcode": 386, "lgd_statecode": 22, "censuscode2001": "00449300", "censuscode2011": "435635", "censuscode2021": null, "level": "Village", "tru": "Rural", "no_hh": 177, "tot_p": 624, "tot_m": 308, "tot_f": 316, "per_tot_m": 49.35897436, "per_tot_f": 50.64102564, "p_06": 80, "m_06": 43, "f_06": 37, "per_p_06": 12.82051282, "per_m_06": 53.75, "per_f_06": 46.25, "p_sc": 93, "m_sc": 44, "f_sc": 49, "per_p_sc": 14.90384615, "per_m_sc": 47.31182796, "per_f_sc": 52.68817204, "p_st": 158, "m_st": 67, "f_st": 91, "per_p_st": 25.32051282, "per_m_st": 42.40506329, "per_f_st": 57.59493671000001, "p_lit": 435, "m_lit": 234, "f_lit": 201, "per_p_lit": 69.71153846, "per_m_lit": 53.79310345, "per_f_lit": 46.20689655, "p_ill": 189, "m_ill": 74, "f_ill": 115, "per_p_ill": 30.28846154, "per_m_ill": 39.15343915, "per_f_ill": 60.84656085, "tot_work_p": 331, "tot_work_m": 195, "tot_work_f": 136, "per_tot_work_p": 53.04487179, "per_tot_work_m": 58.91238671, "per_tot_work_f": 41.08761329, "mainwork_p": 99, "mainwork_m": 75, "mainwork_f": 24, "per_mainwork_p": 15.86538462, "per_mainwork_m": 75.75757576, "per_mainwork_f": 24.24242424, "main_cl_p": 37, "main_cl_m": 33, "main_cl_f": 4, "per_main_cl_p": 37.37373737, "per_main_cl_m": 89.18918919, "per_main_cl_f": 10.81081081, "main_al_p": 0, "main_al_m": 0, "main_al_f": 0, "per_main_al_p": 0.0, "per_main_al_m": 0.0, "per_main_al_f": 0.0, "main_hh_p": 0, "main_hh_m": 0, "main_hh_f": 0, "per_main_hh_p": 0.0, "per_main_hh_m": 0.0, "per_main_hh_f": 0.0, "main_ot_p": 62, "main_ot_m": 42, "main_ot_f": 20, "per_main_ot_p": 62.62626263, "per_main_ot_m": 67.74193548, "per_main_ot_f": 32.25806452, "margwork_p": 232, "margwork_m": 120, "margwork_f": 112, "per_margwork_p": 37.17948718, "per_margwork_m": 51.72413793, "per_margwork_f": 48.27586207, "marg_cl_p": 98, "marg_cl_m": 64, "marg_cl_f": 34, "per_marg_cl_p": 42.24137931, "per_marg_cl_m": 65.30612245, "per_marg_cl_f": 34.69387755, "marg_al_p": 114, "marg_al_m": 43, "marg_al_f": 71, "per_marg_al_p": 49.13793103, "per_marg_al_m": 37.71929825, "per_marg_al_f": 62.28070175000001, "marg_hh_p": 0, "marg_hh_m": 0, "marg_hh_f": 0, "per_marg_hh_p": 0.0, "per_marg_hh_m": 0.0, "per_marg_hh_f": 0.0, "marg_ot_p": 20, "marg_ot_m": 13, "marg_ot_f": 7, "per_marg_ot_p": 8.62068966, "per_marg_ot_m": 65.0, "per_marg_ot_f": 35.0, "margwork_3_6_p": 196, "margwork_3_6_m": 107, "margwork_3_6_f": 89, "per_margwork_3_6_p": 84.48275862, "per_margwork_3_6_m": 54.59183673, "per_margwork_3_6_f": 45.40816327, "marg_cl_3_6_p": 82, "marg_cl_3_6_m": 56, "marg_cl_3_6_f": 26, "per_marg_cl_3_6_p": 35.34482759, "per_marg_cl_3_6_m": 68.29268293, "per_marg_cl_3_6_f": 31.70731707, "marg_al_3_6_p": 97, "marg_al_3_6_m": 39, "marg_al_3_6_f": 58, "per_marg_al_3_6_p": 41.81034483, "per_marg_al_3_6_m": 40.20618557, "per_marg_al_3_6_f": 59.79381443, "marg_hh_3_6_p": 0, "marg_hh_3_6_m": 0, "marg_hh_3_6_f": 0, "per_marg_hh_3_6_p": 0.0, "per_marg_hh_3_6_m": 0.0, "per_marg_hh_3_6_f": 0.0, "marg_ot_3_6_p": 17, "marg_ot_3_6_m": 12, "marg_ot_3_6_f": 5, "per_marg_ot_3_6_p": 7.32758621, "per_marg_ot_3_6_m": 70.58823529, "per_marg_ot_3_6_f": 29.41176471, "margwork_0_3_p": 36, "margwork_0_3_m": 13, "margwork_0_3_f": 23, "per_margwork_0_3_p": 15.51724138, "per_margwork_0_3_m": 36.11111111, "per_margwork_0_3_f": 63.88888889, "marg_cl_0_3_p": 16, "marg_cl_0_3_m": 8, "marg_cl_0_3_f": 8, "per_marg_cl_0_3_p": 6.89655172, "per_marg_cl_0_3_m": 50.0, "per_marg_cl_0_3_f": 50.0, "marg_al_0_3_p": 17, "marg_al_0_3_m": 4, "marg_al_0_3_f": 13, "per_marg_al_0_3_p": 7.32758621, "per_marg_al_0_3_m": 23.52941176, "per_marg_al_0_3_f": 76.47058824, "marg_hh_0_3_p": 0, "marg_hh_0_3_m": 0, "marg_hh_0_3_f": 0, "per_marg_hh_0_3_p": 0.0, "per_marg_hh_0_3_m": 0.0, "per_marg_hh_0_3_f": 0.0, "marg_ot_0_3_p": 3, "marg_ot_0_3_m": 1, "marg_ot_0_3_f": 2, "per_marg_ot_0_3_p": 1.29310345, "per_marg_ot_0_3_m": 33.33333333, "per_marg_ot_0_3_f": 66.66666667, "non_work_p": 293, "non_work_m": 113, "non_work_f": 180, "per_non_work_p": 46.95512821000001, "per_non_work_m": 38.5665529, "per_non_work_f": 61.4334471, "per_hc_tot_tot": 100, "per_hc_tot_god": 32.0, "per_hc_tot_liv": 44.9, "per_hc_tot_dil": 23.0, "per_hc_res_tot": 97.2, "per_hc_res_god": 31.5, "per_hc_res_liv": 42.7, "per_hc_res_dil": 23.0, "per_hc_oth_tot": 2.8, "per_hc_oth_god": 0.6, "per_hc_oth_liv": 2.2, "per_hc_oth_dil": 0.0, "per_mt_grsbam": 4.5, "per_mt_plastic": 0.6, "per_mt_h_tiles": 82.6, "per_mt_m_tiles": 0.0, "per_mt_b_brick": 0.6, "per_mt_stone": 0.0, "per_mt_asbstos": 0.6, "per_mt_concrte": 11.2, "per_mt_oth": 0.0, "per_mw_grsbam": 0.0, "per_mw_plastic": 0.6, "per_mw_mud": 69.1, "per_mw_wood": 0.0, "per_mw_no_mrtr": 5.6, "per_mw_st_mrtr": 0.0, "per_mw_asbstos": 0.0, "per_mw_b_brick": 24.2, "per_mw_concrte": 0.0, "per_mw_oth": 0.6, "per_mf_mud": 82.6, "per_mf_wood": 0.0, "per_mf_b_brick": 0.0, "per_mf_stone": 0.6, "per_mf_cement": 16.9, "per_mf_fl_tile": 0.0, "per_mf_oth": 0.0, "per_dw_n_exrm": 2.8, "per_dw_1_room": 71.9, "per_dw_2_room": 23.6, "per_dw_3_room": 1.1, "per_dw_4_room": 0.6, "per_dw_5_room": 0.0, "per_dw_6_room": 0.0, "per_hhsize_1": 9.0, "per_hhsize_2": 23.0, "per_hhsize_3": 14.6, "per_hhsize_4": 25.3, "per_hhsize_5": 18.5, "per_hhsize_6_8": 9.6, "per_hhsize_9p": 0.0, "per_ow_owned": 91.6, "per_ow_rented": 0.6, "per_ow_oth": 7.9, "per_mc_none": 14.6, "per_mcouple_1": 78.1, "per_mcouple_2": 6.7, "per_mcouple_3": 0.6, "per_mcouple_4": 0.0, "per_mcouple_5p": 0.0, "per_dw_t_ts": 0.0, "per_dw_t_unts": 76.4, "per_dw_c_well": 0.0, "per_dw_unc_wel": 0.0, "per_dw_hpump": 19.1, "per_dw_tw_bore": 4.5, "per_dw_spring": 0.0, "per_dw_rivcan": 0.0, "per_dw_tank": 0.0, "per_dw_oth": 0.0, "per_loc_dw_wp": 1.7, "per_loc_dw_np": 70.8, "per_loc_dw_aw": 27.5, "per_light_elec": 100.0, "per_light_kero": 0.0, "per_light_solr": 0.0, "per_light_oil": 0.0, "per_light_oth": 0.0, "per_light_no": 0.0, "per_hh_latrine": 7.3, "per_fl_sewer": 0.0, "per_fl_septict": 7.3, "per_fl_othsys": 0.0, "per_pl_wslab": 0.0, "per_pl_without": 0.0, "per_ns_open": 0.0, "per_sl_ns_hum": 0.0, "per_sl_ns_anml": 0.0, "per_hh_no_lat": 92.7, "per_as_pub": 0.0, "per_as_open": 92.7, "per_hh_bathrm": 0.6, "per_hh_en_wrf": 0.0, "per_hh_no_btrm": 99.4, "per_wwoc_drain": 0.0, "per_wwoc_open": 0.0, "per_wwoc_nodrn": 100.0, "per_cook_fire": 100.0, "per_cook_resdu": 0.0, "per_cook_cwdng": 0.0, "per_cook_coal": 0.0, "per_cook_kero": 0.0, "per_cook_lpng": 0.0, "per_cook_elec": 0.0, "per_cook_biogs": 0.0, "per_cook_oth": 0.0, "per_cook_no": 0.0, "per_kf_inside": 100.0, "per_kf_in_has": 5.6, "per_kf_in_does": 94.4, "per_kf_outside": 0.0, "per_kf_out_has": 0.0, "per_kf_out_dos": 0.0, "per_kf_no_cook": 0.0, "per_hh_banking": 57.9, "per_hh_radio": 1.1, "per_hh_tv": 33.1, "per_hh_cmp_int": 0.0, "per_hh_cmp_wnt": 0.0, "per_hh_ph_ll": 0.6, "per_hh_ph_mob": 30.9, "per_hh_ph_bth": 0.6, "per_hh_bcycl": 59.6, "per_hh_2wheel": 14.0, "per_hh_4wheel": 0.0, "per_hh_tvcomp": 0.0, "per_hh_no_ast": 27.0, "per_hs_perma": 29.8, "per_hs_sperma": 64.6, "per_hs_temp": 5.1, "per_hs_servc": 4.5, "per_hs_nservc": 0.6, "per_hs_unclss": 0.6, "avghhsz_cy": 3.52542373, "st_areashape": 1240044.387407055, "st_lengthshape": 5354.907778411998}, "geometry": {"type": "Polygon", "coordinates": [[[83.29109647131312, 21.61902745523181], [83.29038343265802, 21.619690333915926], [83.28990807295574, 21.621457994712042], [83.28860083467283, 21.620684645407977], [83.28610519713425, 21.618696015585112], [83.28432259914908, 21.617370246894666], [83.28277768101499, 21.61560253611864], [83.28028204347642, 21.613613835559846], [83.27921248504464, 21.611735593299798], [83.27838060646398, 21.610078300558555], [83.27778640683614, 21.60930489122595], [83.27636032862767, 21.6075370818631], [83.27612264877655, 21.606211210036793], [83.2796878447469, 21.605769250896113], [83.28289652094058, 21.6061007210046], [83.28290160720171, 21.606104160346653], [83.28420375922349, 21.606984636745583], [83.28539215847916, 21.610188787387784], [83.28705591653878, 21.612840444298413], [83.28848199474724, 21.615271087785633], [83.28978923303019, 21.617259765552113], [83.29109647131312, 21.61902745523181]]]}}]}