{"type": "FeatureCollection", "features": [{"type": "Feature", "properties": {"premiumdata.sde.IN_Village_PCA.area": 7.01982292, "objectid": 204352, "id": "244553745287857", "name": "Alhabad", "subdistrict": "Radhanpur", "district": "Patan", "state": "Gujarat", "country": "India", "censusname": "Alhabad", "villagename_locallang": null, "lgd_villagename": "Alhabad", "lgd_villagecode": 508684, "lgd_subdistrictcode": 3745, "lgd_districtcode": 455, "lgd_statecode": 24, "censuscode2001": "00228100", "censuscode2011": "508684", "censuscode2021": null, "level": "Village", "tru": "Rural", "no_hh": 312, "tot_p": 1570, "tot_m": 811, "tot_f": 759, "per_tot_m": 51.65605096, "per_tot_f": 48.34394904, "p_06": 186, "m_06": 96, "f_06": 90, "per_p_06": 11.84713376, "per_m_06": 51.61290323, "per_f_06": 48.38709677, "p_sc": 149, "m_sc": 81, "f_sc": 68, "per_p_sc": 9.49044586, "per_m_sc": 54.36241611, "per_f_sc": 45.63758389, "p_st": 0, "m_st": 0, "f_st": 0, "per_p_st": 0.0, "per_m_st": 0.0, "per_f_st": 0.0, "p_lit": 846, "m_lit": 521, "f_lit": 325, "per_p_lit": 53.88535032, "per_m_lit": 61.58392435, "per_f_lit": 38.41607565, "p_ill": 724, "m_ill": 290, "f_ill": 434, "per_p_ill": 46.11464968, "per_m_ill": 40.05524862, "per_f_ill": 59.94475138, "tot_work_p": 509, "tot_work_m": 442, "tot_work_f": 67, "per_tot_work_p": 32.42038217, "per_tot_work_m": 86.83693517, "per_tot_work_f": 13.16306483, "mainwork_p": 454, "mainwork_m": 431, "mainwork_f": 23, "per_mainwork_p": 28.91719745, "per_mainwork_m": 94.9339207, "per_mainwork_f": 5.0660793, "main_cl_p": 234, "main_cl_m": 231, "main_cl_f": 3, "per_main_cl_p": 51.54185022, "per_main_cl_m": 98.71794872, "per_main_cl_f": 1.28205128, "main_al_p": 128, "main_al_m": 118, "main_al_f": 10, "per_main_al_p": 28.1938326, "per_main_al_m": 92.1875, "per_main_al_f": 7.8125, "main_hh_p": 3, "main_hh_m": 3, "main_hh_f": 0, "per_main_hh_p": 0.66079295, "per_main_hh_m": 100.0, "per_main_hh_f": 0.0, "main_ot_p": 89, "main_ot_m": 79, "main_ot_f": 10, "per_main_ot_p": 19.60352423, "per_main_ot_m": 88.76404494, "per_main_ot_f": 11.23595506, "margwork_p": 55, "margwork_m": 11, "margwork_f": 44, "per_margwork_p": 3.50318471, "per_margwork_m": 20.0, "per_margwork_f": 80.0, "marg_cl_p": 1, "marg_cl_m": 1, "marg_cl_f": 0, "per_marg_cl_p": 1.81818182, "per_marg_cl_m": 100.0, "per_marg_cl_f": 0.0, "marg_al_p": 51, "marg_al_m": 9, "marg_al_f": 42, "per_marg_al_p": 92.72727273, "per_marg_al_m": 17.64705882, "per_marg_al_f": 82.35294118, "marg_hh_p": 0, "marg_hh_m": 0, "marg_hh_f": 0, "per_marg_hh_p": 0.0, "per_marg_hh_m": 0.0, "per_marg_hh_f": 0.0, "marg_ot_p": 3, "marg_ot_m": 1, "marg_ot_f": 2, "per_marg_ot_p": 5.45454545, "per_marg_ot_m": 33.33333333, "per_marg_ot_f": 66.66666667, "margwork_3_6_p": 53, "margwork_3_6_m": 9, "margwork_3_6_f": 44, "per_margwork_3_6_p": 96.36363636, "per_margwork_3_6_m": 16.98113208, "per_margwork_3_6_f": 83.01886792, "marg_cl_3_6_p": 1, "marg_cl_3_6_m": 1, "marg_cl_3_6_f": 0, "per_marg_cl_3_6_p": 1.81818182, "per_marg_cl_3_6_m": 100.0, "per_marg_cl_3_6_f": 0.0, "marg_al_3_6_p": 50, "marg_al_3_6_m": 8, "marg_al_3_6_f": 42, "per_marg_al_3_6_p": 90.90909091, "per_marg_al_3_6_m": 16.0, "per_marg_al_3_6_f": 84.0, "marg_hh_3_6_p": 0, "marg_hh_3_6_m": 0, "marg_hh_3_6_f": 0, "per_marg_hh_3_6_p": 0.0, "per_marg_hh_3_6_m": 0.0, "per_marg_hh_3_6_f": 0.0, "marg_ot_3_6_p": 2, "marg_ot_3_6_m": 0, "marg_ot_3_6_f": 2, "per_marg_ot_3_6_p": 3.63636364, "per_marg_ot_3_6_m": 0.0, "per_marg_ot_3_6_f": 100.0, "margwork_0_3_p": 2, "margwork_0_3_m": 2, "margwork_0_3_f": 0, "per_margwork_0_3_p": 3.63636364, "per_margwork_0_3_m": 100.0, "per_margwork_0_3_f": 0.0, "marg_cl_0_3_p": 0, "marg_cl_0_3_m": 0, "marg_cl_0_3_f": 0, "per_marg_cl_0_3_p": 0.0, "per_marg_cl_0_3_m": 0.0, "per_marg_cl_0_3_f": 0.0, "marg_al_0_3_p": 1, "marg_al_0_3_m": 1, "marg_al_0_3_f": 0, "per_marg_al_0_3_p": 1.81818182, "per_marg_al_0_3_m": 100.0, "per_marg_al_0_3_f": 0.0, "marg_hh_0_3_p": 0, "marg_hh_0_3_m": 0, "marg_hh_0_3_f": 0, "per_marg_hh_0_3_p": 0.0, "per_marg_hh_0_3_m": 0.0, "per_marg_hh_0_3_f": 0.0, "marg_ot_0_3_p": 1, "marg_ot_0_3_m": 1, "marg_ot_0_3_f": 0, "per_marg_ot_0_3_p": 1.81818182, "per_marg_ot_0_3_m": 100.0, "per_marg_ot_0_3_f": 0.0, "non_work_p": 1061, "non_work_m": 369, "non_work_f": 692, "per_non_work_p": 67.57961783, "per_non_work_m": 34.77851084, "per_non_work_f": 65.22148916, "per_hc_tot_tot": 100, "per_hc_tot_god": 51.3, "per_hc_tot_liv": 43.1, "per_hc_tot_dil": 5.6, "per_hc_res_tot": 99.7, "per_hc_res_god": 51.0, "per_hc_res_liv": 43.1, "per_hc_res_dil": 5.6, "per_hc_oth_tot": 0.3, "per_hc_oth_god": 0.3, "per_hc_oth_liv": 0.0, "per_hc_oth_dil": 0.0, "per_mt_grsbam": 2.6, "per_mt_plastic": 0.0, "per_mt_h_tiles": 15.1, "per_mt_m_tiles": 21.7, "per_mt_b_brick": 0.3, "per_mt_stone": 11.2, "per_mt_asbstos": 17.4, "per_mt_concrte": 31.6, "per_mt_oth": 0.0, "per_mw_grsbam": 1.6, "per_mw_plastic": 0.0, "per_mw_mud": 12.2, "per_mw_wood": 0.0, "per_mw_no_mrtr": 0.3, "per_mw_st_mrtr": 0.0, "per_mw_asbstos": 0.0, "per_mw_b_brick": 85.9, "per_mw_concrte": 0.0, "per_mw_oth": 0.0, "per_mf_mud": 46.7, "per_mf_wood": 0.0, "per_mf_b_brick": 0.7, "per_mf_stone": 8.6, "per_mf_cement": 28.0, "per_mf_fl_tile": 16.1, "per_mf_oth": 0.0, "per_dw_n_exrm": 1.0, "per_dw_1_room": 81.6, "per_dw_2_room": 15.8, "per_dw_3_room": 1.3, "per_dw_4_room": 0.3, "per_dw_5_room": 0.0, "per_dw_6_room": 0.0, "per_hhsize_1": 1.6, "per_hhsize_2": 7.9, "per_hhsize_3": 9.5, "per_hhsize_4": 17.4, "per_hhsize_5": 20.4, "per_hhsize_6_8": 36.5, "per_hhsize_9p": 6.6, "per_ow_owned": 97.4, "per_ow_rented": 2.3, "per_ow_oth": 0.3, "per_mc_none": 4.6, "per_mcouple_1": 75.0, "per_mcouple_2": 17.4, "per_mcouple_3": 3.0, "per_mcouple_4": 0.0, "per_mcouple_5p": 0.0, "per_dw_t_ts": 0.7, "per_dw_t_unts": 99.3, "per_dw_c_well": 0.0, "per_dw_unc_wel": 0.0, "per_dw_hpump": 0.0, "per_dw_tw_bore": 0.0, "per_dw_spring": 0.0, "per_dw_rivcan": 0.0, "per_dw_tank": 0.0, "per_dw_oth": 0.0, "per_loc_dw_wp": 67.8, "per_loc_dw_np": 22.0, "per_loc_dw_aw": 10.2, "per_light_elec": 60.2, "per_light_kero": 39.1, "per_light_solr": 0.0, "per_light_oil": 0.0, "per_light_oth": 0.0, "per_light_no": 0.7, "per_hh_latrine": 21.1, "per_fl_sewer": 0.0, "per_fl_septict": 0.0, "per_fl_othsys": 0.3, "per_pl_wslab": 20.7, "per_pl_without": 0.0, "per_ns_open": 0.0, "per_sl_ns_hum": 0.0, "per_sl_ns_anml": 0.0, "per_hh_no_lat": 78.9, "per_as_pub": 0.3, "per_as_open": 78.6, "per_hh_bathrm": 34.9, "per_hh_en_wrf": 3.3, "per_hh_no_btrm": 61.8, "per_wwoc_drain": 1.0, "per_wwoc_open": 3.9, "per_wwoc_nodrn": 95.1, "per_cook_fire": 96.1, "per_cook_resdu": 0.0, "per_cook_cwdng": 0.0, "per_cook_coal": 0.0, "per_cook_kero": 0.0, "per_cook_lpng": 3.9, "per_cook_elec": 0.0, "per_cook_biogs": 0.0, "per_cook_oth": 0.0, "per_cook_no": 0.0, "per_kf_inside": 36.2, "per_kf_in_has": 33.9, "per_kf_in_does": 2.3, "per_kf_outside": 63.8, "per_kf_out_has": 17.1, "per_kf_out_dos": 46.7, "per_kf_no_cook": 0.0, "per_hh_banking": 45.4, "per_hh_radio": 3.3, "per_hh_tv": 22.4, "per_hh_cmp_int": 0.0, "per_hh_cmp_wnt": 1.3, "per_hh_ph_ll": 2.0, "per_hh_ph_mob": 51.0, "per_hh_ph_bth": 0.0, "per_hh_bcycl": 12.5, "per_hh_2wheel": 11.2, "per_hh_4wheel": 0.7, "per_hh_tvcomp": 0.0, "per_hh_no_ast": 42.8, "per_hs_perma": 86.2, "per_hs_sperma": 11.2, "per_hs_temp": 2.6, "per_hs_servc": 2.0, "per_hs_nservc": 0.7, "per_hs_unclss": 0.0, "avghhsz_cy": 5.03205128, "st_areashape": 8436624.4792601, "st_lengthshape": 13020.939161820585}, "geometry": {"type": "Polygon", "coordinates": [[[71.6640586545159, 23.92156715649044], [71.66331842745042, 23.921132136103502], [71.66272421075459, 23.920869356698013], [71.66210302393901, 23.920665337122532], [71.66146171036945, 23.920522339124357], [71.66065083979007, 23.920419526830962], [71.65980548019193, 23.9202344983284], [71.65900157694587, 23.919931864486028], [71.65826021530818, 23.91951610228614], [71.65759918910805, 23.918999441928033], [71.65703371221309, 23.918393293199735], [71.65657955185324, 23.91771446184652], [71.65624629484913, 23.91697745287579], [71.65604321720441, 23.91620159024841], [71.6559746613752, 23.91540487211749], [71.65604319384823, 23.9146086729963], [71.65624576214815, 23.91383224758224], [71.6565780750229, 23.913093652891114], [71.65687204690299, 23.91224459546404], [71.65675294646597, 23.911628687760157], [71.65660978465412, 23.911016229522563], [71.6564438810925, 23.910408426354536], [71.65625468421554, 23.90980751534151], [71.65604275996193, 23.90921231565125], [71.65580869762644, 23.90862392206709], [71.65555192318564, 23.908043583783865], [71.65527376614612, 23.907472357847073], [71.65497398665771, 23.906910154040773], [71.65465282277395, 23.90635834643051], [71.65431070119462, 23.90581673230041], [71.65394838189448, 23.90528754312779], [71.65356574899076, 23.904768731669048], [71.65316416702444, 23.904263395846645], [71.65274345184092, 23.903771827367436], [71.65230443528014, 23.903293845709726], [71.65184696103515, 23.902829365612195], [71.65129175188392, 23.902339450652413], [71.65055304566621, 23.90195069207206], [71.64980319135584, 23.901227819420495], [71.64953231336507, 23.900627201632382], [71.64943950032823, 23.899982942723067], [71.64953233672126, 23.899337930763465], [71.64980288143707, 23.89873624143867], [71.65024919680958, 23.898182381825922], [71.65067156040165, 23.89765570497934], [71.65105277217054, 23.89710433751073], [71.65139151159285, 23.896528357950107], [71.6516853684886, 23.895933304090022], [71.65193369337584, 23.895321559132135], [71.65213470130213, 23.894694082965124], [71.65228776793832, 23.89405673798555], [71.65239224649744, 23.893410620523394], [71.65244686047347, 23.892758987859118], [71.65245246596083, 23.8921064196927], [71.65240817452573, 23.89145521166252], [71.65231475243115, 23.890807520645733], [71.65217231915298, 23.890169172536183], [71.65198187002454, 23.88953999498774], [71.65174410842671, 23.888925693291547], [71.65133701709276, 23.88838430265223], [71.65095200185695, 23.887867693627634], [71.65072668462074, 23.887275909218644], [71.65067506203464, 23.886650598586346], [71.65080174694758, 23.886034864651826], [71.65109738699917, 23.885469156444742], [71.651542640563, 23.884992094441415], [71.65210655798259, 23.884637508403337], [71.6527507614324, 23.88442831686326], [71.65343147870358, 23.884379289074385], [71.65410205040189, 23.884493924326485], [71.65471751045757, 23.884763498254163], [71.65523513948723, 23.885171173192276], [71.65562008195951, 23.88568776752163], [71.65686743495233, 23.886036068790478], [71.65774846485377, 23.886306805857956], [71.65897313808058, 23.886683249804687], [71.66001653577466, 23.887031215738478], [71.6610531772395, 23.8873961124245], [71.66208240670493, 23.887777902758007], [71.66310445952954, 23.88817675332615], [71.66460586147458, 23.88863669300638], [71.66531815183303, 23.88873314532989], [71.66602448456455, 23.888863427721486], [71.66672155925872, 23.889026455065004], [71.66740831051362, 23.889223454343682], [71.6680827746121, 23.889454316983397], [71.6687431881612, 23.889715774636834], [71.66938777429334, 23.89000992156545], [71.6700146025289, 23.89033355510382], [71.67062236671755, 23.890687813418204], [71.67120867284898, 23.891070298750858], [71.67177244833475, 23.891481104484434], [71.67231153362499, 23.891917997947974], [71.6728255119013, 23.892379820792293], [71.67331199723834, 23.892866598211725], [71.67377014252484, 23.89337616489758], [71.67419896500381, 23.89390718510279], [71.67459638417706, 23.894457504231507], [71.6749618898016, 23.895026113456456], [71.67529433922024, 23.89561287537655], [71.67559360936387, 23.896213323448112], [71.67585724154357, 23.89682860977611], [71.67608594363175, 23.8974553717283], [71.67640810734041, 23.898156212746272], [71.67607973357818, 23.898934356029926], [71.67586750299905, 23.899698409504257], [71.67562626941267, 23.900455823298977], [71.67535618822752, 23.901205470733537], [71.67505790084083, 23.901945042514928], [71.67473182047752, 23.90267577400795], [71.67437867926459, 23.903395207311014], [71.67399788161902, 23.904102404731066], [71.6735900949891, 23.90479846038425], [71.67315702258048, 23.905479914509467], [71.67269808408163, 23.90614681086373], [71.67221394065251, 23.906799109431223], [71.67170515104527, 23.907435782239062], [71.67095815517412, 23.907867843009683], [71.67031102950469, 23.908179884450124], [71.66977299524335, 23.908636006517682], [71.66938201699068, 23.90920320985519], [71.6691633365078, 23.909843118768226], [71.6691327264145, 23.910513817859172], [71.66929134014757, 23.91116806284443], [71.66962995200907, 23.911761517481708], [71.67012379095506, 23.912255048652142], [71.67074032000593, 23.912612648348716], [71.67143758693956, 23.912811780499744], [71.67215510279803, 23.91291603349486], [71.67280024319068, 23.91316386344523], [71.67335351018428, 23.9135555709059], [71.67377745660788, 23.914066296058035], [71.67404224671598, 23.914660183293705], [71.67413085923056, 23.91529769112067], [71.67403626124124, 23.915934756466985], [71.67376522335033, 23.91652746164331], [71.67333731805127, 23.917037348119663], [71.67278004007991, 23.91742804692759], [71.67213213018125, 23.917672419284184], [71.67143788428193, 23.91775541551652], [71.6707776351245, 23.917688281940123], [71.67011369658621, 23.917631224162054], [71.66944759400643, 23.91763843244713], [71.66878523380808, 23.91771007676801], [71.66813401092264, 23.917844899798638], [71.6675019661702, 23.91804061683615], [71.66689591596716, 23.918296011447953], [71.66632125469674, 23.918607752614427], [71.66578545724046, 23.918974658267217], [71.66529396559235, 23.919388788091208], [71.6648523672734, 23.91984893698731], [71.66446561379747, 23.92034842105076], [71.66413777902444, 23.920882700477197], [71.6640586545159, 23.92156715649044]]]}}]}