{"type": "FeatureCollection", "features": [{"type": "Feature", "properties": {"premiumdata.sde.IN_Village_PCA.area": 0.92949678, "objectid": 54831, "id": "244563823280447", "name": "Mahira", "subdistrict": "Ranavav", "district": "Porbandar", "state": "Gujarat", "country": "India", "censusname": "Mahira", "villagename_locallang": null, "lgd_villagename": "Mahira", "lgd_villagecode": 514268, "lgd_subdistrictcode": 3823, "lgd_districtcode": 456, "lgd_statecode": 24, "censuscode2001": "00793600", "censuscode2011": "514268", "censuscode2021": null, "level": "Village", "tru": "Rural", "no_hh": 134, "tot_p": 677, "tot_m": 334, "tot_f": 343, "per_tot_m": 49.33530281, "per_tot_f": 50.66469719, "p_06": 101, "m_06": 50, "f_06": 51, "per_p_06": 14.91875923, "per_m_06": 49.5049505, "per_f_06": 50.4950495, "p_sc": 120, "m_sc": 60, "f_sc": 60, "per_p_sc": 17.72525849, "per_m_sc": 50.0, "per_f_sc": 50.0, "p_st": 0, "m_st": 0, "f_st": 0, "per_p_st": 0.0, "per_m_st": 0.0, "per_f_st": 0.0, "p_lit": 379, "m_lit": 213, "f_lit": 166, "per_p_lit": 55.98227474, "per_m_lit": 56.2005277, "per_f_lit": 43.7994723, "p_ill": 298, "m_ill": 121, "f_ill": 177, "per_p_ill": 44.01772526, "per_m_ill": 40.60402685, "per_f_ill": 59.39597315, "tot_work_p": 205, "tot_work_m": 198, "tot_work_f": 7, "per_tot_work_p": 30.28064993, "per_tot_work_m": 96.58536585, "per_tot_work_f": 3.41463415, "mainwork_p": 204, "mainwork_m": 197, "mainwork_f": 7, "per_mainwork_p": 30.13293944, "per_mainwork_m": 96.56862745000001, "per_mainwork_f": 3.43137255, "main_cl_p": 113, "main_cl_m": 110, "main_cl_f": 3, "per_main_cl_p": 55.39215686, "per_main_cl_m": 97.34513274, "per_main_cl_f": 2.65486726, "main_al_p": 52, "main_al_m": 48, "main_al_f": 4, "per_main_al_p": 25.49019608, "per_main_al_m": 92.30769231, "per_main_al_f": 7.69230769, "main_hh_p": 2, "main_hh_m": 2, "main_hh_f": 0, "per_main_hh_p": 0.98039216, "per_main_hh_m": 100.0, "per_main_hh_f": 0.0, "main_ot_p": 37, "main_ot_m": 37, "main_ot_f": 0, "per_main_ot_p": 18.1372549, "per_main_ot_m": 100.0, "per_main_ot_f": 0.0, "margwork_p": 1, "margwork_m": 1, "margwork_f": 0, "per_margwork_p": 0.14771049, "per_margwork_m": 100.0, "per_margwork_f": 0.0, "marg_cl_p": 1, "marg_cl_m": 1, "marg_cl_f": 0, "per_marg_cl_p": 100.0, "per_marg_cl_m": 100.0, "per_marg_cl_f": 0.0, "marg_al_p": 0, "marg_al_m": 0, "marg_al_f": 0, "per_marg_al_p": 0.0, "per_marg_al_m": 0.0, "per_marg_al_f": 0.0, "marg_hh_p": 0, "marg_hh_m": 0, "marg_hh_f": 0, "per_marg_hh_p": 0.0, "per_marg_hh_m": 0.0, "per_marg_hh_f": 0.0, "marg_ot_p": 0, "marg_ot_m": 0, "marg_ot_f": 0, "per_marg_ot_p": 0.0, "per_marg_ot_m": 0.0, "per_marg_ot_f": 0.0, "margwork_3_6_p": 1, "margwork_3_6_m": 1, "margwork_3_6_f": 0, "per_margwork_3_6_p": 100.0, "per_margwork_3_6_m": 100.0, "per_margwork_3_6_f": 0.0, "marg_cl_3_6_p": 1, "marg_cl_3_6_m": 1, "marg_cl_3_6_f": 0, "per_marg_cl_3_6_p": 100.0, "per_marg_cl_3_6_m": 100.0, "per_marg_cl_3_6_f": 0.0, "marg_al_3_6_p": 0, "marg_al_3_6_m": 0, "marg_al_3_6_f": 0, "per_marg_al_3_6_p": 0.0, "per_marg_al_3_6_m": 0.0, "per_marg_al_3_6_f": 0.0, "marg_hh_3_6_p": 0, "marg_hh_3_6_m": 0, "marg_hh_3_6_f": 0, "per_marg_hh_3_6_p": 0.0, "per_marg_hh_3_6_m": 0.0, "per_marg_hh_3_6_f": 0.0, "marg_ot_3_6_p": 0, "marg_ot_3_6_m": 0, "marg_ot_3_6_f": 0, "per_marg_ot_3_6_p": 0.0, "per_marg_ot_3_6_m": 0.0, "per_marg_ot_3_6_f": 0.0, "margwork_0_3_p": 0, "margwork_0_3_m": 0, "margwork_0_3_f": 0, "per_margwork_0_3_p": 0.0, "per_margwork_0_3_m": 0.0, "per_margwork_0_3_f": 0.0, "marg_cl_0_3_p": 0, "marg_cl_0_3_m": 0, "marg_cl_0_3_f": 0, "per_marg_cl_0_3_p": 0.0, "per_marg_cl_0_3_m": 0.0, "per_marg_cl_0_3_f": 0.0, "marg_al_0_3_p": 0, "marg_al_0_3_m": 0, "marg_al_0_3_f": 0, "per_marg_al_0_3_p": 0.0, "per_marg_al_0_3_m": 0.0, "per_marg_al_0_3_f": 0.0, "marg_hh_0_3_p": 0, "marg_hh_0_3_m": 0, "marg_hh_0_3_f": 0, "per_marg_hh_0_3_p": 0.0, "per_marg_hh_0_3_m": 0.0, "per_marg_hh_0_3_f": 0.0, "marg_ot_0_3_p": 0, "marg_ot_0_3_m": 0, "marg_ot_0_3_f": 0, "per_marg_ot_0_3_p": 0.0, "per_marg_ot_0_3_m": 0.0, "per_marg_ot_0_3_f": 0.0, "non_work_p": 472, "non_work_m": 136, "non_work_f": 336, "per_non_work_p": 69.71935007, "per_non_work_m": 28.81355932, "per_non_work_f": 71.18644068, "per_hc_tot_tot": 100, "per_hc_tot_god": 37.5, "per_hc_tot_liv": 55.1, "per_hc_tot_dil": 7.4, "per_hc_res_tot": 100.0, "per_hc_res_god": 37.5, "per_hc_res_liv": 55.1, "per_hc_res_dil": 7.4, "per_hc_oth_tot": 0.0, "per_hc_oth_god": 0.0, "per_hc_oth_liv": 0.0, "per_hc_oth_dil": 0.0, "per_mt_grsbam": 2.9, "per_mt_plastic": 0.0, "per_mt_h_tiles": 1.5, "per_mt_m_tiles": 50.0, "per_mt_b_brick": 0.0, "per_mt_stone": 19.9, "per_mt_asbstos": 0.0, "per_mt_concrte": 25.7, "per_mt_oth": 0.0, "per_mw_grsbam": 0.7, "per_mw_plastic": 0.0, "per_mw_mud": 18.4, "per_mw_wood": 0.0, "per_mw_no_mrtr": 43.4, "per_mw_st_mrtr": 37.5, "per_mw_asbstos": 0.0, "per_mw_b_brick": 0.0, "per_mw_concrte": 0.0, "per_mw_oth": 0.0, "per_mf_mud": 44.1, "per_mf_wood": 0.0, "per_mf_b_brick": 0.0, "per_mf_stone": 0.7, "per_mf_cement": 50.7, "per_mf_fl_tile": 4.4, "per_mf_oth": 0.0, "per_dw_n_exrm": 2.2, "per_dw_1_room": 50.7, "per_dw_2_room": 42.6, "per_dw_3_room": 2.9, "per_dw_4_room": 1.5, "per_dw_5_room": 0.0, "per_dw_6_room": 0.0, "per_hhsize_1": 7.4, "per_hhsize_2": 9.6, "per_hhsize_3": 15.4, "per_hhsize_4": 16.9, "per_hhsize_5": 16.2, "per_hhsize_6_8": 27.9, "per_hhsize_9p": 6.6, "per_ow_owned": 91.9, "per_ow_rented": 7.4, "per_ow_oth": 0.7, "per_mc_none": 19.1, "per_mcouple_1": 59.6, "per_mcouple_2": 16.2, "per_mcouple_3": 2.9, "per_mcouple_4": 1.5, "per_mcouple_5p": 0.7, "per_dw_t_ts": 74.3, "per_dw_t_unts": 0.0, "per_dw_c_well": 25.7, "per_dw_unc_wel": 0.0, "per_dw_hpump": 0.0, "per_dw_tw_bore": 0.0, "per_dw_spring": 0.0, "per_dw_rivcan": 0.0, "per_dw_tank": 0.0, "per_dw_oth": 0.0, "per_loc_dw_wp": 75.0, "per_loc_dw_np": 20.6, "per_loc_dw_aw": 4.4, "per_light_elec": 75.7, "per_light_kero": 24.3, "per_light_solr": 0.0, "per_light_oil": 0.0, "per_light_oth": 0.0, "per_light_no": 0.0, "per_hh_latrine": 20.6, "per_fl_sewer": 0.0, "per_fl_septict": 20.6, "per_fl_othsys": 0.0, "per_pl_wslab": 0.0, "per_pl_without": 0.0, "per_ns_open": 0.0, "per_sl_ns_hum": 0.0, "per_sl_ns_anml": 0.0, "per_hh_no_lat": 79.4, "per_as_pub": 0.0, "per_as_open": 79.4, "per_hh_bathrm": 11.0, "per_hh_en_wrf": 0.0, "per_hh_no_btrm": 89.0, "per_wwoc_drain": 0.0, "per_wwoc_open": 0.0, "per_wwoc_nodrn": 100.0, "per_cook_fire": 72.8, "per_cook_resdu": 0.7, "per_cook_cwdng": 25.7, "per_cook_coal": 0.0, "per_cook_kero": 0.0, "per_cook_lpng": 0.7, "per_cook_elec": 0.0, "per_cook_biogs": 0.0, "per_cook_oth": 0.0, "per_cook_no": 0.0, "per_kf_inside": 77.2, "per_kf_in_has": 57.4, "per_kf_in_does": 19.9, "per_kf_outside": 22.8, "per_kf_out_has": 0.7, "per_kf_out_dos": 22.1, "per_kf_no_cook": 0.0, "per_hh_banking": 43.4, "per_hh_radio": 0.7, "per_hh_tv": 22.1, "per_hh_cmp_int": 0.0, "per_hh_cmp_wnt": 2.9, "per_hh_ph_ll": 0.7, "per_hh_ph_mob": 76.5, "per_hh_ph_bth": 0.0, "per_hh_bcycl": 14.0, "per_hh_2wheel": 19.9, "per_hh_4wheel": 0.7, "per_hh_tvcomp": 0.0, "per_hh_no_ast": 19.1, "per_hs_perma": 79.4, "per_hs_sperma": 19.1, "per_hs_temp": 1.5, "per_hs_servc": 0.7, "per_hs_nservc": 0.7, "per_hs_unclss": 0.0, "avghhsz_cy": 5.05223881, "st_areashape": 1080191.5076858, "st_lengthshape": 4063.074582633827}, "geometry": {"type": "Polygon", "coordinates": [[[69.9003949384772, 21.579335367256927], [69.89992895359325, 21.57995535306011], [69.8994182254216, 21.580543307427774], [69.89886428918312, 21.581097139054798], [69.89827028179475, 21.581612826177633], [69.89764000043522, 21.582089337563943], [69.89697572682536, 21.582523272958696], [69.89628057991578, 21.58291295205848], [69.89555816284911, 21.583256727116332], [69.89481155505018, 21.583552385677095], [69.89404561101475, 21.583798817051864], [69.89326276158398, 21.5839948988155], [69.89246713631327, 21.584139472578148], [69.89166309203168, 21.584231621309033], [69.89085415462677, 21.584271732698145], [69.89005650814664, 21.58422907190197], [69.8891582252019, 21.583442101545167], [69.88857542070342, 21.58292707332853], [69.88805372050892, 21.582358400633524], [69.88759899241377, 21.5817417689726], [69.88721598311598, 21.581083771919783], [69.88690883295067, 21.58039149431262], [69.88668041473011, 21.57967276372196], [69.88653436483459, 21.578935986756573], [69.88647124650775, 21.578188536013425], [69.88649194009865, 21.57743893620284], [69.88661790186781, 21.57667714116875], [69.88746642982392, 21.57680375016687], [69.88834691354965, 21.57662817445478], [69.8892358432357, 21.576496173838184], [69.89013154082907, 21.57640755797217], [69.89102971328106, 21.576362416320787], [69.89192987460308, 21.576361850776106], [69.89282831115978, 21.576404777865687], [69.89372321284583, 21.576491607716545], [69.89461158377974, 21.576622440493843], [69.8954916165512, 21.57679662449266], [69.89636033055005, 21.577012978350524], [69.89721581416144, 21.57727220525455], [69.89805522691238, 21.5775723752889], [69.89887718449901, 21.57791362269197], [69.89967817989852, 21.578294276458244], [69.90045640929378, 21.57871360951797], [69.9003949384772, 21.579335367256927]]]}}]}