{"type": "FeatureCollection", "features": [{"type": "Feature", "properties": {"premiumdata.sde.IN_Village_PCA.area": 2.97208266, "objectid": 125268, "id": "223813354271965", "name": "Vijaipur", "subdistrict": "Pakhanjur", "district": "Kanker", "state": "Chhattisgarh", "country": "India", "censusname": "Vijaipur", "villagename_locallang": "\u0935\u093f\u091c\u092f\u092a\u0941\u0930", "lgd_villagename": "Vijaipur", "lgd_villagecode": 448345, "lgd_subdistrictcode": 3354, "lgd_districtcode": 381, "lgd_statecode": 22, "censuscode2001": "01728500", "censuscode2011": "448345", "censuscode2021": null, "level": "Village", "tru": "Rural", "no_hh": 106, "tot_p": 535, "tot_m": 273, "tot_f": 262, "per_tot_m": 51.02803738, "per_tot_f": 48.97196262, "p_06": 75, "m_06": 36, "f_06": 39, "per_p_06": 14.01869159, "per_m_06": 48.0, "per_f_06": 52.0, "p_sc": 0, "m_sc": 0, "f_sc": 0, "per_p_sc": 0.0, "per_m_sc": 0.0, "per_f_sc": 0.0, "p_st": 0, "m_st": 0, "f_st": 0, "per_p_st": 0.0, "per_m_st": 0.0, "per_f_st": 0.0, "p_lit": 370, "m_lit": 211, "f_lit": 159, "per_p_lit": 69.1588785, "per_m_lit": 57.02702703, "per_f_lit": 42.97297297, "p_ill": 165, "m_ill": 62, "f_ill": 103, "per_p_ill": 30.8411215, "per_m_ill": 37.57575758, "per_f_ill": 62.42424242, "tot_work_p": 138, "tot_work_m": 128, "tot_work_f": 10, "per_tot_work_p": 25.79439252, "per_tot_work_m": 92.75362319, "per_tot_work_f": 7.24637681, "mainwork_p": 138, "mainwork_m": 128, "mainwork_f": 10, "per_mainwork_p": 25.79439252, "per_mainwork_m": 92.75362319, "per_mainwork_f": 7.24637681, "main_cl_p": 131, "main_cl_m": 123, "main_cl_f": 8, "per_main_cl_p": 94.92753623, "per_main_cl_m": 93.89312977, "per_main_cl_f": 6.10687023, "main_al_p": 3, "main_al_m": 2, "main_al_f": 1, "per_main_al_p": 2.17391304, "per_main_al_m": 66.66666667, "per_main_al_f": 33.33333333, "main_hh_p": 0, "main_hh_m": 0, "main_hh_f": 0, "per_main_hh_p": 0.0, "per_main_hh_m": 0.0, "per_main_hh_f": 0.0, "main_ot_p": 4, "main_ot_m": 3, "main_ot_f": 1, "per_main_ot_p": 2.89855072, "per_main_ot_m": 75.0, "per_main_ot_f": 25.0, "margwork_p": 0, "margwork_m": 0, "margwork_f": 0, "per_margwork_p": 0.0, "per_margwork_m": 0.0, "per_margwork_f": 0.0, "marg_cl_p": 0, "marg_cl_m": 0, "marg_cl_f": 0, "per_marg_cl_p": 0.0, "per_marg_cl_m": 0.0, "per_marg_cl_f": 0.0, "marg_al_p": 0, "marg_al_m": 0, "marg_al_f": 0, "per_marg_al_p": 0.0, "per_marg_al_m": 0.0, "per_marg_al_f": 0.0, "marg_hh_p": 0, "marg_hh_m": 0, "marg_hh_f": 0, "per_marg_hh_p": 0.0, "per_marg_hh_m": 0.0, "per_marg_hh_f": 0.0, "marg_ot_p": 0, "marg_ot_m": 0, "marg_ot_f": 0, "per_marg_ot_p": 0.0, "per_marg_ot_m": 0.0, "per_marg_ot_f": 0.0, "margwork_3_6_p": 0, "margwork_3_6_m": 0, "margwork_3_6_f": 0, "per_margwork_3_6_p": 0.0, "per_margwork_3_6_m": 0.0, "per_margwork_3_6_f": 0.0, "marg_cl_3_6_p": 0, "marg_cl_3_6_m": 0, "marg_cl_3_6_f": 0, "per_marg_cl_3_6_p": 0.0, "per_marg_cl_3_6_m": 0.0, "per_marg_cl_3_6_f": 0.0, "marg_al_3_6_p": 0, "marg_al_3_6_m": 0, "marg_al_3_6_f": 0, "per_marg_al_3_6_p": 0.0, "per_marg_al_3_6_m": 0.0, "per_marg_al_3_6_f": 0.0, "marg_hh_3_6_p": 0, "marg_hh_3_6_m": 0, "marg_hh_3_6_f": 0, "per_marg_hh_3_6_p": 0.0, "per_marg_hh_3_6_m": 0.0, "per_marg_hh_3_6_f": 0.0, "marg_ot_3_6_p": 0, "marg_ot_3_6_m": 0, "marg_ot_3_6_f": 0, "per_marg_ot_3_6_p": 0.0, "per_marg_ot_3_6_m": 0.0, "per_marg_ot_3_6_f": 0.0, "margwork_0_3_p": 0, "margwork_0_3_m": 0, "margwork_0_3_f": 0, "per_margwork_0_3_p": 0.0, "per_margwork_0_3_m": 0.0, "per_margwork_0_3_f": 0.0, "marg_cl_0_3_p": 0, "marg_cl_0_3_m": 0, "marg_cl_0_3_f": 0, "per_marg_cl_0_3_p": 0.0, "per_marg_cl_0_3_m": 0.0, "per_marg_cl_0_3_f": 0.0, "marg_al_0_3_p": 0, "marg_al_0_3_m": 0, "marg_al_0_3_f": 0, "per_marg_al_0_3_p": 0.0, "per_marg_al_0_3_m": 0.0, "per_marg_al_0_3_f": 0.0, "marg_hh_0_3_p": 0, "marg_hh_0_3_m": 0, "marg_hh_0_3_f": 0, "per_marg_hh_0_3_p": 0.0, "per_marg_hh_0_3_m": 0.0, "per_marg_hh_0_3_f": 0.0, "marg_ot_0_3_p": 0, "marg_ot_0_3_m": 0, "marg_ot_0_3_f": 0, "per_marg_ot_0_3_p": 0.0, "per_marg_ot_0_3_m": 0.0, "per_marg_ot_0_3_f": 0.0, "non_work_p": 397, "non_work_m": 145, "non_work_f": 252, "per_non_work_p": 74.20560748, "per_non_work_m": 36.52392947, "per_non_work_f": 63.47607053, "per_hc_tot_tot": 100, "per_hc_tot_god": 82.2, "per_hc_tot_liv": 15.9, "per_hc_tot_dil": 1.9, "per_hc_res_tot": 98.1, "per_hc_res_god": 80.4, "per_hc_res_liv": 15.9, "per_hc_res_dil": 1.9, "per_hc_oth_tot": 1.9, "per_hc_oth_god": 1.9, "per_hc_oth_liv": 0.0, "per_hc_oth_dil": 0.0, "per_mt_grsbam": 1.9, "per_mt_plastic": 0.0, "per_mt_h_tiles": 52.3, "per_mt_m_tiles": 30.8, "per_mt_b_brick": 0.0, "per_mt_stone": 0.0, "per_mt_asbstos": 12.1, "per_mt_concrte": 2.8, "per_mt_oth": 0.0, "per_mw_grsbam": 0.9, "per_mw_plastic": 0.0, "per_mw_mud": 91.6, "per_mw_wood": 0.0, "per_mw_no_mrtr": 0.0, "per_mw_st_mrtr": 0.0, "per_mw_asbstos": 0.0, "per_mw_b_brick": 7.5, "per_mw_concrte": 0.0, "per_mw_oth": 0.0, "per_mf_mud": 90.7, "per_mf_wood": 0.0, "per_mf_b_brick": 0.0, "per_mf_stone": 0.0, "per_mf_cement": 9.3, "per_mf_fl_tile": 0.0, "per_mf_oth": 0.0, "per_dw_n_exrm": 0.0, "per_dw_1_room": 13.1, "per_dw_2_room": 56.1, "per_dw_3_room": 29.9, "per_dw_4_room": 0.0, "per_dw_5_room": 0.9, "per_dw_6_room": 0.0, "per_hhsize_1": 0.9, "per_hhsize_2": 4.7, "per_hhsize_3": 11.2, "per_hhsize_4": 22.4, "per_hhsize_5": 19.6, "per_hhsize_6_8": 41.1, "per_hhsize_9p": 0.0, "per_ow_owned": 97.2, "per_ow_rented": 0.0, "per_ow_oth": 2.8, "per_mc_none": 6.5, "per_mcouple_1": 70.1, "per_mcouple_2": 22.4, "per_mcouple_3": 0.9, "per_mcouple_4": 0.0, "per_mcouple_5p": 0.0, "per_dw_t_ts": 0.0, "per_dw_t_unts": 0.0, "per_dw_c_well": 0.0, "per_dw_unc_wel": 15.9, "per_dw_hpump": 84.1, "per_dw_tw_bore": 0.0, "per_dw_spring": 0.0, "per_dw_rivcan": 0.0, "per_dw_tank": 0.0, "per_dw_oth": 0.0, "per_loc_dw_wp": 15.0, "per_loc_dw_np": 41.1, "per_loc_dw_aw": 43.9, "per_light_elec": 86.9, "per_light_kero": 13.1, "per_light_solr": 0.0, "per_light_oil": 0.0, "per_light_oth": 0.0, "per_light_no": 0.0, "per_hh_latrine": 16.8, "per_fl_sewer": 0.0, "per_fl_septict": 16.8, "per_fl_othsys": 0.0, "per_pl_wslab": 0.0, "per_pl_without": 0.0, "per_ns_open": 0.0, "per_sl_ns_hum": 0.0, "per_sl_ns_anml": 0.0, "per_hh_no_lat": 83.2, "per_as_pub": 0.0, "per_as_open": 83.2, "per_hh_bathrm": 6.5, "per_hh_en_wrf": 58.9, "per_hh_no_btrm": 34.6, "per_wwoc_drain": 1.9, "per_wwoc_open": 23.4, "per_wwoc_nodrn": 74.8, "per_cook_fire": 100.0, "per_cook_resdu": 0.0, "per_cook_cwdng": 0.0, "per_cook_coal": 0.0, "per_cook_kero": 0.0, "per_cook_lpng": 0.0, "per_cook_elec": 0.0, "per_cook_biogs": 0.0, "per_cook_oth": 0.0, "per_cook_no": 0.0, "per_kf_inside": 98.1, "per_kf_in_has": 89.7, "per_kf_in_does": 8.4, "per_kf_outside": 1.9, "per_kf_out_has": 0.9, "per_kf_out_dos": 0.9, "per_kf_no_cook": 0.0, "per_hh_banking": 42.1, "per_hh_radio": 13.1, "per_hh_tv": 29.9, "per_hh_cmp_int": 0.0, "per_hh_cmp_wnt": 0.0, "per_hh_ph_ll": 0.0, "per_hh_ph_mob": 18.7, "per_hh_ph_bth": 0.0, "per_hh_bcycl": 90.7, "per_hh_2wheel": 8.4, "per_hh_4wheel": 0.0, "per_hh_tvcomp": 0.0, "per_hh_no_ast": 4.7, "per_hs_perma": 7.5, "per_hs_sperma": 90.7, "per_hs_temp": 1.9, "per_hs_servc": 0.9, "per_hs_nservc": 0.9, "per_hs_unclss": 0.0, "avghhsz_cy": 5.04716981, "st_areashape": 3381174.05262604, "st_lengthshape": 10006.01756934903}, "geometry": {"type": "Polygon", "coordinates": [[[80.54486944834083, 19.958431204091088], [80.54485985972349, 19.95844023961852], [80.544799828008, 19.958501462670398], [80.5447397953942, 19.958562686542887], [80.5446797636787, 19.958623909547285], [80.54461973196321, 19.958685132527897], [80.54455970024773, 19.958746355484752], [80.5444996676339, 19.958807579262206], [80.54443963591841, 19.958868802171573], [80.54437960420294, 19.958930025057157], [80.54431957158911, 19.958991248763354], [80.54425953987362, 19.95905247160141], [80.54419950815816, 19.95911369441574], [80.54413947554433, 19.959174918050667], [80.54407944382886, 19.959236140817456], [80.54401941211337, 19.959297363560477], [80.54395938039787, 19.959358586279784], [80.54389934778408, 19.959419809819664], [80.54383931606857, 19.95948103249143], [80.54377928435308, 19.959542255139414], [80.54371925173928, 19.959603478608024], [80.54365922002378, 19.959664701208546], [80.54359918830829, 19.95972592378526], [80.54353915659277, 19.959787146338225], [80.543479123979, 19.959848369711814], [80.54341909226349, 19.959909592217286], [80.54335906054798, 19.959970814698966], [80.5432990279342, 19.960032038001273], [80.5432389962187, 19.96009326043545], [80.5431789645032, 19.960154482845887], [80.54311893278769, 19.960215705232546], [80.5430589001739, 19.960276928439804], [80.54299886845841, 19.960338150778945], [80.5429388367429, 19.960399373094347], [80.54287880412912, 19.96046059623031], [80.54281877241363, 19.960521818498183], [80.5427587406981, 19.96058304074229], [80.54269870808433, 19.960644263806994], [80.54263867636882, 19.960705486003608], [80.54257864465333, 19.960766708176433], [80.54251861293785, 19.960827930325493], [80.54245858032404, 19.960889153295163], [80.54239854860855, 19.96095037539673], [80.54231647762587, 19.960982736774646], [80.54223440574489, 19.96101509899026], [80.5421523347622, 19.96104746035492], [80.54207026288123, 19.96107982255725], [80.54198819189858, 19.96111218390864], [80.54190612001754, 19.96114454609769], [80.5418240490349, 19.961176908280134], [80.54174197715392, 19.96120927045595], [80.54165990617123, 19.96124163178075], [80.54157783429025, 19.961273993943273], [80.54149576330758, 19.961306355254806], [80.54141369142657, 19.961338717404047], [80.54133162044391, 19.961371078702296], [80.54124954856294, 19.961403440838268], [80.54117736982815, 19.96144976846385], [80.54110519109341, 19.96149609607582], [80.54103301235865, 19.961542423674192], [80.54096083362387, 19.96158875125896], [80.54088865488912, 19.961635078830106], [80.54081647615433, 19.961681406387676], [80.54074429652125, 19.961727734775955], [80.54067211778651, 19.961774062306272], [80.54059993905173, 19.961820389823018], [80.54052776031698, 19.96186671732615], [80.54045558158222, 19.96191304481568], [80.54038340284744, 19.961959372291588], [80.5403112241127, 19.962005699753906], [80.5402390444796, 19.962052028046973], [80.54016686574484, 19.962098355482077], [80.54009468701008, 19.962144683747894], [80.54002250827533, 19.962191011155774], [80.53995032954055, 19.962237338550068], [80.5398781508058, 19.962283665930748], [80.53980597207101, 19.962329994142163], [80.53973379333627, 19.962376321495643], [80.53966161460151, 19.9624226488355], [80.53958943676506, 19.962468976161738], [80.53951725713198, 19.962515304318718], [80.53944507929552, 19.96256163161776], [80.53937290056074, 19.962607959747547], [80.53938054791877, 19.962585099224803], [80.53939050035382, 19.96255533621246], [80.53939713351389, 19.962489604263126], [80.53939718292122, 19.96244665346438], [80.5394049129242, 19.96242371946057], [80.53941485457949, 19.962394039163243], [80.5394214859429, 19.96232825817487], [80.53942154343507, 19.962271923661785], [80.53942152277385, 19.962250040838992], [80.53941567653797, 19.96220738887234], [80.53931589886272, 19.961953790333], [80.53918435406409, 19.961682571584507], [80.53895650537542, 19.961306249711356], [80.53877230223317, 19.9610911689154], [80.538443096631, 19.960614458210863], [80.538249107242, 19.960330763536806], [80.53791646019398, 19.959942283107093], [80.53768838333322, 19.959761823265232], [80.53748633605616, 19.95961564578697], [80.53740696540925, 19.959578014497975], [80.53736061234059, 19.95954983999802], [80.53731435718827, 19.95950909554849], [80.53722474305215, 19.959239646594398], [80.53724281446073, 19.95903993286078], [80.5373453454723, 19.95860435581324], [80.53780671481233, 19.957518624974682], [80.53797114873018, 19.957201524857], [80.53799766340411, 19.957105379004712], [80.53806004241741, 19.95687918224547], [80.53838948697145, 19.95535546815425], [80.53839162496185, 19.955299535609267], [80.53841424274405, 19.95519494901773], [80.53846083476458, 19.953980422415846], [80.53848498417435, 19.95381788379426], [80.53886281468455, 19.952260003752848], [80.53886035599562, 19.95225284834139], [80.53888758393188, 19.952101249634694], [80.53888798547881, 19.952099597150145], [80.53888791630854, 19.952099399561288], [80.53890835477787, 19.951985608606154], [80.53890732710519, 19.951971002218947], [80.53893347975806, 19.951825228745335], [80.53892694990425, 19.951731502197593], [80.53888397450108, 19.951696208013512], [80.53875921377946, 19.951668271071217], [80.53863445215954, 19.951640333279563], [80.53849985129231, 19.951646416331783], [80.53836525042509, 19.95165259057884], [80.53816814567872, 19.95168978213724], [80.53785620659461, 19.95174866037981], [80.53774127344222, 19.951770256719165], [80.53764610412439, 19.951760979311775], [80.5375508377885, 19.951751613241992], [80.53730130646383, 19.951708036353807], [80.53711751115671, 19.951636629744343], [80.53693362152646, 19.951565224791388], [80.53658698860777, 19.951406339936735], [80.53623238673423, 19.951313086849176], [80.5358121314881, 19.95122604681277], [80.53521137415868, 19.951027290622314], [80.5349717620314, 19.950940288426445], [80.53463038605375, 19.950772614387077], [80.5340417919133, 19.95034293718477], [80.53309613990525, 19.94948430462017], [80.53166422983398, 19.948406125141], [80.53155271656784, 19.948169757567292], [80.5313175573894, 19.94781943608596], [80.53108808813997, 19.947079268390834], [80.53102267012605, 19.94671229748366], [80.5309819665622, 19.946477171214724], [80.5326474161495, 19.946283636053842], [80.53517752923203, 19.945799376165155], [80.53664435322519, 19.945418609322427], [80.53686466684526, 19.944863757898343], [80.53761544192879, 19.944148927261885], [80.53893539766119, 19.944080207618093], [80.54003499665441, 19.944670458890837], [80.54047446237286, 19.945676454901182], [80.54058324026892, 19.94786161737787], [80.54094979782059, 19.948069911038036], [80.54072940964039, 19.948867479902628], [80.54190257885872, 19.949041514397017], [80.54399263423305, 19.948695633095678], [80.54443315816691, 19.94762063422947], [80.54487403603699, 19.945921369305], [80.546854429573, 19.94477769722943], [80.54755062840978, 19.9456450707693], [80.54854037691847, 19.945957661207242], [80.5501171259563, 19.945680851009794], [80.55072072375864, 19.94621697183317], [80.55086674490808, 19.947708515607722], [80.55302979558573, 19.94805626776992], [80.55643907187059, 19.94923682873094], [80.55614509100734, 19.950728174247523], [80.55640072818099, 19.953225530415654], [80.55737198576784, 19.95417674136776], [80.55164589417815, 19.960073038999404], [80.55157271472018, 19.96002717452006], [80.5514995352622, 19.959981310871758], [80.55142635580421, 19.959935446365776], [80.5513531763462, 19.959889581846447], [80.55127999688823, 19.9598437173138], [80.55120681743024, 19.959797853612166], [80.55113363797226, 19.95975198905285], [80.55106045851427, 19.959706124480167], [80.55098727905626, 19.9596602598942], [80.55091409959827, 19.95961439613921], [80.55084092014029, 19.959568531526553], [80.5507677406823, 19.95952266690056], [80.55069456122432, 19.959476802261225], [80.5506213817663, 19.95943093845294], [80.55054820230832, 19.959385073786937], [80.55047502195201, 19.95933920910763], [80.55040184249403, 19.959293344414945], [80.55032866303604, 19.95924748055332], [80.55025548357806, 19.95920161583401], [80.55018230412004, 19.959155751101317], [80.55010912466206, 19.959109886355343], [80.55003594520407, 19.959064022440373], [80.54996276574609, 19.959018157667742], [80.5498895862881, 19.958972292881718], [80.54981640683009, 19.958926428082414], [80.5497432273721, 19.95888056411411], [80.54967004791412, 19.9588346992881], [80.54959686845613, 19.958788834448796], [80.54952368899815, 19.958742969596145], [80.54945050954014, 19.958697105574522], [80.54937733008215, 19.958651240695183], [80.5493004486669, 19.958632066927372], [80.54922356635329, 19.95861289231286], [80.54914668493804, 19.95859371769602], [80.54906980352274, 19.958574543921188], [80.54899292210746, 19.95855537014405], [80.54891603979387, 19.958536195520228], [80.54883915837861, 19.9585170217384], [80.54875317523286, 19.95849557830766], [80.54866719118883, 19.958474134029633], [80.54858120804307, 19.958452689748718], [80.54849522399903, 19.95843124546485], [80.54840924085329, 19.958409802022445], [80.54832325680924, 19.95838835773278], [80.54823727366349, 19.958366914284557], [80.54815128961944, 19.958345469989027], [80.54806530647375, 19.958324025690604], [80.54797932242965, 19.958302581389272], [80.54789333928395, 19.958281137929387], [80.5478073552399, 19.958259693622214], [80.54772137209416, 19.958238249312114], [80.54763538805011, 19.95821680499914], [80.54754940490437, 19.958195361527586], [80.54746342086032, 19.958173917208747], [80.54737743771457, 19.958152472887033], [80.54729145367052, 19.958131028562356], [80.54720547052479, 19.958109584234776], [80.54711948648074, 19.95808813990432], [80.54703350333503, 19.958066695570903], [80.54694751929095, 19.958045251234594], [80.54697536077656, 19.958119716610277], [80.54700320316047, 19.95819418195082], [80.54703104464608, 19.958268646411813], [80.54705888703002, 19.958343111682066], [80.54708672851558, 19.958417576917153], [80.5471145700012, 19.95849204211712], [80.5471424114868, 19.95856650643758], [80.54717025387072, 19.95864097156724], [80.54719809535631, 19.95871543666175], [80.54722593774022, 19.958789901721133], [80.54725377922583, 19.958864365900975], [80.54728162160973, 19.95893883089004], [80.54730946309535, 19.959013295843985], [80.54723483375648, 19.959040978178066], [80.54716020441765, 19.959068660507274], [80.54708557507878, 19.959096342831664], [80.54701094573991, 19.95912402515114], [80.54693631640106, 19.959151708310145], [80.54686168706218, 19.959179390619955], [80.54678705772336, 19.95920707376924], [80.54671242838448, 19.9592347560693], [80.54667220362269, 19.959164165983434], [80.54663197796256, 19.959093575021598], [80.5465917532008, 19.959022984872565], [80.54655152754069, 19.95895239384756], [80.54651130188057, 19.958881803635364], [80.54647107622046, 19.958811212547193], [80.54643085145865, 19.95874062227182], [80.54639062579857, 19.958670031120494], [80.54635040103678, 19.958599440781942], [80.54631017537668, 19.95852884956745], [80.54626995061487, 19.958458259165745], [80.54622972495476, 19.958387667888076], [80.54618949929466, 19.958317077423192], [80.54614927363455, 19.95824648608237], [80.54610904887276, 19.95817589555433], [80.54606882321264, 19.95810530415032], [80.54602859845085, 19.958034713559115], [80.54598837279076, 19.957964122091948], [80.54590844967993, 19.95799748549961], [80.5458285265691, 19.95803084805585], [80.54574860345828, 19.958064211449404], [80.54566868034745, 19.95809757399156], [80.54558875723662, 19.958130937370992], [80.5455088341258, 19.958164299899014], [80.54542891101497, 19.95819766326435], [80.5453489870058, 19.958231026622624], [80.54526906389498, 19.95826438912949], [80.54518914078415, 19.958297752473644], [80.54510921767331, 19.958331114966413], [80.5450292945625, 19.958364478296467], [80.54494937145166, 19.958397840775103], [80.54486944834083, 19.958431204091088]]]}}]}