{"type": "FeatureCollection", "features": [{"type": "Feature", "properties": {"premiumdata.sde.IN_Village_PCA.area": 8.1088816, "objectid": 219530, "id": "234233500548368", "name": "Sukheda", "subdistrict": "Piploda", "district": "Ratlam", "state": "Madhya Pradesh", "country": "India", "censusname": "Sukheda", "villagename_locallang": null, "lgd_villagename": "Sukheda", "lgd_villagecode": 470019, "lgd_subdistrictcode": 3500, "lgd_districtcode": 423, "lgd_statecode": 23, "censuscode2001": "02424100", "censuscode2011": "470019", "censuscode2021": null, "level": "Village", "tru": "Rural", "no_hh": 1419, "tot_p": 6485, "tot_m": 3258, "tot_f": 3227, "per_tot_m": 50.23901311, "per_tot_f": 49.76098689, "p_06": 892, "m_06": 463, "f_06": 429, "per_p_06": 13.75481881, "per_m_06": 51.9058296, "per_f_06": 48.0941704, "p_sc": 1201, "m_sc": 579, "f_sc": 622, "per_p_sc": 18.51966076, "per_m_sc": 48.20982515, "per_f_sc": 51.79017485, "p_st": 121, "m_st": 69, "f_st": 52, "per_p_st": 1.86584426, "per_m_st": 57.02479339000001, "per_f_st": 42.97520661, "p_lit": 3898, "m_lit": 2376, "f_lit": 1522, "per_p_lit": 60.1079414, "per_m_lit": 60.95433556, "per_f_lit": 39.04566444, "p_ill": 2587, "m_ill": 882, "f_ill": 1705, "per_p_ill": 39.8920586, "per_m_ill": 34.09354465, "per_f_ill": 65.90645535, "tot_work_p": 3093, "tot_work_m": 1877, "tot_work_f": 1216, "per_tot_work_p": 47.69468003, "per_tot_work_m": 60.68541869, "per_tot_work_f": 39.31458131, "mainwork_p": 2326, "mainwork_m": 1599, "mainwork_f": 727, "per_mainwork_p": 35.86738628, "per_mainwork_m": 68.74462597, "per_mainwork_f": 31.25537403, "main_cl_p": 753, "main_cl_m": 512, "main_cl_f": 241, "per_main_cl_p": 32.37317283, "per_main_cl_m": 67.99468792, "per_main_cl_f": 32.00531208, "main_al_p": 758, "main_al_m": 389, "main_al_f": 369, "per_main_al_p": 32.58813414, "per_main_al_m": 51.31926121, "per_main_al_f": 48.68073879, "main_hh_p": 130, "main_hh_m": 113, "main_hh_f": 17, "per_main_hh_p": 5.58899398, "per_main_hh_m": 86.92307692, "per_main_hh_f": 13.07692308, "main_ot_p": 685, "main_ot_m": 585, "main_ot_f": 100, "per_main_ot_p": 29.44969905, "per_main_ot_m": 85.40145985, "per_main_ot_f": 14.59854015, "margwork_p": 767, "margwork_m": 278, "margwork_f": 489, "per_margwork_p": 11.82729375, "per_margwork_m": 36.24511082, "per_margwork_f": 63.75488918000001, "marg_cl_p": 80, "marg_cl_m": 21, "marg_cl_f": 59, "per_marg_cl_p": 10.43024772, "per_marg_cl_m": 26.25, "per_marg_cl_f": 73.75, "marg_al_p": 572, "marg_al_m": 195, "marg_al_f": 377, "per_marg_al_p": 74.57627119, "per_marg_al_m": 34.09090909, "per_marg_al_f": 65.90909091, "marg_hh_p": 38, "marg_hh_m": 14, "marg_hh_f": 24, "per_marg_hh_p": 4.95436767, "per_marg_hh_m": 36.84210526, "per_marg_hh_f": 63.15789474, "marg_ot_p": 77, "marg_ot_m": 48, "marg_ot_f": 29, "per_marg_ot_p": 10.03911343, "per_marg_ot_m": 62.33766234, "per_marg_ot_f": 37.66233766, "margwork_3_6_p": 688, "margwork_3_6_m": 227, "margwork_3_6_f": 461, "per_margwork_3_6_p": 89.70013038, "per_margwork_3_6_m": 32.99418605, "per_margwork_3_6_f": 67.00581395, "marg_cl_3_6_p": 70, "marg_cl_3_6_m": 13, "marg_cl_3_6_f": 57, "per_marg_cl_3_6_p": 9.12646675, "per_marg_cl_3_6_m": 18.57142857, "per_marg_cl_3_6_f": 81.42857143, "marg_al_3_6_p": 527, "marg_al_3_6_m": 168, "marg_al_3_6_f": 359, "per_marg_al_3_6_p": 68.70925684, "per_marg_al_3_6_m": 31.87855787, "per_marg_al_3_6_f": 68.12144213, "marg_hh_3_6_p": 21, "marg_hh_3_6_m": 3, "marg_hh_3_6_f": 18, "per_marg_hh_3_6_p": 2.73794003, "per_marg_hh_3_6_m": 14.28571429, "per_marg_hh_3_6_f": 85.71428571, "marg_ot_3_6_p": 70, "marg_ot_3_6_m": 43, "marg_ot_3_6_f": 27, "per_marg_ot_3_6_p": 9.12646675, "per_marg_ot_3_6_m": 61.42857143, "per_marg_ot_3_6_f": 38.57142857, "margwork_0_3_p": 79, "margwork_0_3_m": 51, "margwork_0_3_f": 28, "per_margwork_0_3_p": 10.29986962, "per_margwork_0_3_m": 64.55696203, "per_margwork_0_3_f": 35.44303797, "marg_cl_0_3_p": 10, "marg_cl_0_3_m": 8, "marg_cl_0_3_f": 2, "per_marg_cl_0_3_p": 1.30378096, "per_marg_cl_0_3_m": 80.0, "per_marg_cl_0_3_f": 20.0, "marg_al_0_3_p": 45, "marg_al_0_3_m": 27, "marg_al_0_3_f": 18, "per_marg_al_0_3_p": 5.86701434, "per_marg_al_0_3_m": 60.0, "per_marg_al_0_3_f": 40.0, "marg_hh_0_3_p": 17, "marg_hh_0_3_m": 11, "marg_hh_0_3_f": 6, "per_marg_hh_0_3_p": 2.21642764, "per_marg_hh_0_3_m": 64.70588235, "per_marg_hh_0_3_f": 35.29411765, "marg_ot_0_3_p": 7, "marg_ot_0_3_m": 5, "marg_ot_0_3_f": 2, "per_marg_ot_0_3_p": 0.91264668, "per_marg_ot_0_3_m": 71.42857143, "per_marg_ot_0_3_f": 28.57142857, "non_work_p": 3392, "non_work_m": 1381, "non_work_f": 2011, "per_non_work_p": 52.30531997, "per_non_work_m": 40.7134434, "per_non_work_f": 59.2865566, "per_hc_tot_tot": 100, "per_hc_tot_god": 40.8, "per_hc_tot_liv": 58.5, "per_hc_tot_dil": 0.7, "per_hc_res_tot": 93.0, "per_hc_res_god": 35.9, "per_hc_res_liv": 56.3, "per_hc_res_dil": 0.7, "per_hc_oth_tot": 7.0, "per_hc_oth_god": 4.8, "per_hc_oth_liv": 2.2, "per_hc_oth_dil": 0.0, "per_mt_grsbam": 5.0, "per_mt_plastic": 0.6, "per_mt_h_tiles": 19.2, "per_mt_m_tiles": 18.7, "per_mt_b_brick": 0.6, "per_mt_stone": 10.7, "per_mt_asbstos": 34.3, "per_mt_concrte": 10.9, "per_mt_oth": 0.0, "per_mw_grsbam": 1.8, "per_mw_plastic": 0.1, "per_mw_mud": 56.1, "per_mw_wood": 0.1, "per_mw_no_mrtr": 1.2, "per_mw_st_mrtr": 2.0, "per_mw_asbstos": 0.0, "per_mw_b_brick": 37.6, "per_mw_concrte": 1.1, "per_mw_oth": 0.0, "per_mf_mud": 62.9, "per_mf_wood": 0.4, "per_mf_b_brick": 0.6, "per_mf_stone": 14.2, "per_mf_cement": 5.5, "per_mf_fl_tile": 16.4, "per_mf_oth": 0.0, "per_dw_n_exrm": 1.0, "per_dw_1_room": 33.0, "per_dw_2_room": 36.1, "per_dw_3_room": 14.0, "per_dw_4_room": 9.0, "per_dw_5_room": 2.8, "per_dw_6_room": 4.1, "per_hhsize_1": 5.1, "per_hhsize_2": 10.3, "per_hhsize_3": 12.6, "per_hhsize_4": 22.5, "per_hhsize_5": 21.7, "per_hhsize_6_8": 25.0, "per_hhsize_9p": 2.7, "per_ow_owned": 91.5, "per_ow_rented": 7.6, "per_ow_oth": 1.0, "per_mc_none": 12.5, "per_mcouple_1": 67.3, "per_mcouple_2": 17.6, "per_mcouple_3": 2.4, "per_mcouple_4": 0.3, "per_mcouple_5p": 0.0, "per_dw_t_ts": 5.7, "per_dw_t_unts": 28.9, "per_dw_c_well": 0.0, "per_dw_unc_wel": 1.7, "per_dw_hpump": 59.1, "per_dw_tw_bore": 3.9, "per_dw_spring": 0.0, "per_dw_rivcan": 0.0, "per_dw_tank": 0.3, "per_dw_oth": 0.5, "per_loc_dw_wp": 24.2, "per_loc_dw_np": 35.5, "per_loc_dw_aw": 40.2, "per_light_elec": 87.5, "per_light_kero": 12.3, "per_light_solr": 0.0, "per_light_oil": 0.2, "per_light_oth": 0.0, "per_light_no": 0.1, "per_hh_latrine": 37.0, "per_fl_sewer": 0.8, "per_fl_septict": 31.9, "per_fl_othsys": 0.9, "per_pl_wslab": 2.7, "per_pl_without": 0.5, "per_ns_open": 0.0, "per_sl_ns_hum": 0.0, "per_sl_ns_anml": 0.2, "per_hh_no_lat": 63.0, "per_as_pub": 0.4, "per_as_open": 62.6, "per_hh_bathrm": 34.1, "per_hh_en_wrf": 27.3, "per_hh_no_btrm": 38.6, "per_wwoc_drain": 1.8, "per_wwoc_open": 69.3, "per_wwoc_nodrn": 28.9, "per_cook_fire": 74.5, "per_cook_resdu": 0.7, "per_cook_cwdng": 0.0, "per_cook_coal": 0.1, "per_cook_kero": 0.6, "per_cook_lpng": 23.6, "per_cook_elec": 0.1, "per_cook_biogs": 0.0, "per_cook_oth": 0.0, "per_cook_no": 0.5, "per_kf_inside": 96.6, "per_kf_in_has": 41.8, "per_kf_in_does": 54.7, "per_kf_outside": 2.9, "per_kf_out_has": 1.1, "per_kf_out_dos": 1.9, "per_kf_no_cook": 0.5, "per_hh_banking": 46.7, "per_hh_radio": 15.1, "per_hh_tv": 49.4, "per_hh_cmp_int": 0.6, "per_hh_cmp_wnt": 1.0, "per_hh_ph_ll": 3.3, "per_hh_ph_mob": 52.0, "per_hh_ph_bth": 8.1, "per_hh_bcycl": 43.4, "per_hh_2wheel": 24.9, "per_hh_4wheel": 2.1, "per_hh_tvcomp": 0.9, "per_hh_no_ast": 20.7, "per_hs_perma": 41.1, "per_hs_sperma": 54.0, "per_hs_temp": 4.9, "per_hs_servc": 4.7, "per_hs_nservc": 0.2, "per_hs_unclss": 0.0, "avghhsz_cy": 4.5701198, "st_areashape": 9713614.029577306, "st_lengthshape": 12491.87342130078}, "geometry": {"type": "Polygon", "coordinates": [[[74.95033000010945, 23.69856999968334], [74.9484899997776, 23.698690000012327], [74.94549000042781, 23.698619999148363], [74.94363000000449, 23.69803000012806], [74.94161999979335, 23.697170000306944], [74.93991000005614, 23.695909999711283], [74.93662000027811, 23.69405999960486], [74.93555999992094, 23.69317999933998], [74.93472000057012, 23.692319999650994], [74.93389000036673, 23.691240000072245], [74.93362000003, 23.690090000107695], [74.93350000037941, 23.689149999839014], [74.93367999940614, 23.687899999887186], [74.93425000021685, 23.68656999958158], [74.93523000020807, 23.684889999277072], [74.9355000005448, 23.683859999310148], [74.93584000030343, 23.682889999455075], [74.93680000020318, 23.681529999657272], [74.93810000075985, 23.680019999784808], [74.93925000063038, 23.678239999484767], [74.94022000057585, 23.676609999491234], [74.94063999980212, 23.675019999126636], [74.94073000021378, 23.674449999811166], [74.94128000003471, 23.674519999644502], [74.94266000005899, 23.674729999742276], [74.94457999985848, 23.675070000203696], [74.94739000013578, 23.675540000014006], [74.95188000001308, 23.676659999137208], [74.95495999972883, 23.6771899991443], [74.9582699995983, 23.677789999196786], [74.95830999978129, 23.677799999859882], [74.96053000005472, 23.67813999891481], [74.96306999999528, 23.678399999579277], [74.96606999934512, 23.678100000475336], [74.96848000048767, 23.67761999932452], [74.97037999929732, 23.677379999321893], [74.972629999708, 23.67704999900986], [74.97392000021892, 23.676919999455883], [74.9737000001109, 23.677670000229394], [74.97310000006128, 23.67852999930616], [74.9726099996165, 23.679290000436723], [74.97246000072698, 23.680119999738487], [74.97260000046907, 23.68174000000599], [74.97285000071433, 23.68413999964178], [74.97277999949581, 23.685589999219346], [74.97242999969146, 23.686939999560565], [74.97201000046522, 23.688569999815805], [74.97176000021996, 23.689970000100097], [74.97156999935083, 23.69040000016528], [74.97125999972945, 23.691039999840253], [74.97061000034942, 23.691849999340278], [74.96961999941415, 23.69263999969961], [74.96795999990569, 23.693729999480823], [74.96545000010231, 23.694930000345742], [74.96351000021137, 23.695839999824322], [74.96120000042454, 23.696689999320473], [74.95898999929855, 23.69742999928177], [74.95651999967816, 23.697910000014904], [74.95412000037797, 23.69822999952312], [74.95155000030017, 23.698499999577596], [74.95033000010945, 23.69856999968334]]]}}]}