{"type": "FeatureCollection", "features": [{"type": "Feature", "properties": {"premiumdata.sde.IN_Village_PCA.area": 2.08945254, "objectid": 352310, "id": "9175827362102", "name": "Kharagpur Kurmiana", "subdistrict": "Dalmau", "district": "Rae Bareli", "state": "Uttar Pradesh", "country": "India", "censusname": "Kharagpur Kurmiana", "villagename_locallang": null, "lgd_villagename": "Kharagpur Kurmiana", "lgd_villagecode": 144921, "lgd_subdistrictcode": 827, "lgd_districtcode": 175, "lgd_statecode": 9, "censuscode2001": "03780900", "censuscode2011": "144921", "censuscode2021": null, "level": "Village", "tru": "Rural", "no_hh": 307, "tot_p": 1499, "tot_m": 748, "tot_f": 751, "per_tot_m": 49.89993329, "per_tot_f": 50.10006671, "p_06": 197, "m_06": 117, "f_06": 80, "per_p_06": 13.14209473, "per_m_06": 59.39086294, "per_f_06": 40.60913706, "p_sc": 230, "m_sc": 104, "f_sc": 126, "per_p_sc": 15.34356237, "per_m_sc": 45.2173913, "per_f_sc": 54.7826087, "p_st": 0, "m_st": 0, "f_st": 0, "per_p_st": 0.0, "per_m_st": 0.0, "per_f_st": 0.0, "p_lit": 992, "m_lit": 540, "f_lit": 452, "per_p_lit": 66.17745163000001, "per_m_lit": 54.43548387, "per_f_lit": 45.56451613, "p_ill": 507, "m_ill": 208, "f_ill": 299, "per_p_ill": 33.82254837, "per_m_ill": 41.02564103, "per_f_ill": 58.97435897, "tot_work_p": 798, "tot_work_m": 405, "tot_work_f": 393, "per_tot_work_p": 53.23549033, "per_tot_work_m": 50.7518797, "per_tot_work_f": 49.2481203, "mainwork_p": 199, "mainwork_m": 181, "mainwork_f": 18, "per_mainwork_p": 13.27551701, "per_mainwork_m": 90.95477387, "per_mainwork_f": 9.04522613, "main_cl_p": 139, "main_cl_m": 131, "main_cl_f": 8, "per_main_cl_p": 69.84924623, "per_main_cl_m": 94.24460432000001, "per_main_cl_f": 5.75539568, "main_al_p": 24, "main_al_m": 21, "main_al_f": 3, "per_main_al_p": 12.06030151, "per_main_al_m": 87.5, "per_main_al_f": 12.5, "main_hh_p": 1, "main_hh_m": 1, "main_hh_f": 0, "per_main_hh_p": 0.50251256, "per_main_hh_m": 100.0, "per_main_hh_f": 0.0, "main_ot_p": 35, "main_ot_m": 28, "main_ot_f": 7, "per_main_ot_p": 17.5879397, "per_main_ot_m": 80.0, "per_main_ot_f": 20.0, "margwork_p": 599, "margwork_m": 224, "margwork_f": 375, "per_margwork_p": 39.95997332, "per_margwork_m": 37.39565943, "per_margwork_f": 62.60434057000001, "marg_cl_p": 94, "marg_cl_m": 64, "marg_cl_f": 30, "per_marg_cl_p": 15.69282137, "per_marg_cl_m": 68.08510638, "per_marg_cl_f": 31.91489362, "marg_al_p": 485, "marg_al_m": 146, "marg_al_f": 339, "per_marg_al_p": 80.96828047, "per_marg_al_m": 30.10309278, "per_marg_al_f": 69.89690722, "marg_hh_p": 6, "marg_hh_m": 4, "marg_hh_f": 2, "per_marg_hh_p": 1.00166945, "per_marg_hh_m": 66.66666667, "per_marg_hh_f": 33.33333333, "marg_ot_p": 14, "marg_ot_m": 10, "marg_ot_f": 4, "per_marg_ot_p": 2.33722871, "per_marg_ot_m": 71.42857143, "per_marg_ot_f": 28.57142857, "margwork_3_6_p": 436, "margwork_3_6_m": 156, "margwork_3_6_f": 280, "per_margwork_3_6_p": 72.78797997, "per_margwork_3_6_m": 35.77981651, "per_margwork_3_6_f": 64.22018349, "marg_cl_3_6_p": 79, "marg_cl_3_6_m": 56, "marg_cl_3_6_f": 23, "per_marg_cl_3_6_p": 13.18864775, "per_marg_cl_3_6_m": 70.88607595, "per_marg_cl_3_6_f": 29.11392405, "marg_al_3_6_p": 341, "marg_al_3_6_m": 89, "marg_al_3_6_f": 252, "per_marg_al_3_6_p": 56.92821369, "per_marg_al_3_6_m": 26.09970674, "per_marg_al_3_6_f": 73.90029326, "marg_hh_3_6_p": 4, "marg_hh_3_6_m": 3, "marg_hh_3_6_f": 1, "per_marg_hh_3_6_p": 0.66777963, "per_marg_hh_3_6_m": 75.0, "per_marg_hh_3_6_f": 25.0, "marg_ot_3_6_p": 12, "marg_ot_3_6_m": 8, "marg_ot_3_6_f": 4, "per_marg_ot_3_6_p": 2.0033389, "per_marg_ot_3_6_m": 66.66666667, "per_marg_ot_3_6_f": 33.33333333, "margwork_0_3_p": 163, "margwork_0_3_m": 68, "margwork_0_3_f": 95, "per_margwork_0_3_p": 27.21202003, "per_margwork_0_3_m": 41.71779141, "per_margwork_0_3_f": 58.28220859, "marg_cl_0_3_p": 15, "marg_cl_0_3_m": 8, "marg_cl_0_3_f": 7, "per_marg_cl_0_3_p": 2.50417362, "per_marg_cl_0_3_m": 53.33333333, "per_marg_cl_0_3_f": 46.66666667000001, "marg_al_0_3_p": 144, "marg_al_0_3_m": 57, "marg_al_0_3_f": 87, "per_marg_al_0_3_p": 24.04006678, "per_marg_al_0_3_m": 39.58333333, "per_marg_al_0_3_f": 60.41666667000001, "marg_hh_0_3_p": 2, "marg_hh_0_3_m": 1, "marg_hh_0_3_f": 1, "per_marg_hh_0_3_p": 0.33388982, "per_marg_hh_0_3_m": 50.0, "per_marg_hh_0_3_f": 50.0, "marg_ot_0_3_p": 2, "marg_ot_0_3_m": 2, "marg_ot_0_3_f": 0, "per_marg_ot_0_3_p": 0.33388982, "per_marg_ot_0_3_m": 100.0, "per_marg_ot_0_3_f": 0.0, "non_work_p": 701, "non_work_m": 343, "non_work_f": 358, "per_non_work_p": 46.76450967, "per_non_work_m": 48.93009986, "per_non_work_f": 51.06990014, "per_hc_tot_tot": 100, "per_hc_tot_god": 62.5, "per_hc_tot_liv": 32.4, "per_hc_tot_dil": 5.1, "per_hc_res_tot": 99.7, "per_hc_res_god": 62.2, "per_hc_res_liv": 32.4, "per_hc_res_dil": 5.1, "per_hc_oth_tot": 0.3, "per_hc_oth_god": 0.3, "per_hc_oth_liv": 0.0, "per_hc_oth_dil": 0.0, "per_mt_grsbam": 29.8, "per_mt_plastic": 0.0, "per_mt_h_tiles": 0.0, "per_mt_m_tiles": 0.0, "per_mt_b_brick": 58.1, "per_mt_stone": 0.3, "per_mt_asbstos": 1.0, "per_mt_concrte": 10.5, "per_mt_oth": 0.3, "per_mw_grsbam": 8.3, "per_mw_plastic": 0.0, "per_mw_mud": 18.4, "per_mw_wood": 0.0, "per_mw_no_mrtr": 0.0, "per_mw_st_mrtr": 0.0, "per_mw_asbstos": 0.0, "per_mw_b_brick": 68.6, "per_mw_concrte": 0.0, "per_mw_oth": 4.8, "per_mf_mud": 90.8, "per_mf_wood": 0.0, "per_mf_b_brick": 2.9, "per_mf_stone": 0.3, "per_mf_cement": 6.0, "per_mf_fl_tile": 0.0, "per_mf_oth": 0.0, "per_dw_n_exrm": 3.8, "per_dw_1_room": 35.6, "per_dw_2_room": 31.1, "per_dw_3_room": 13.3, "per_dw_4_room": 7.3, "per_dw_5_room": 6.0, "per_dw_6_room": 2.9, "per_hhsize_1": 2.2, "per_hhsize_2": 10.5, "per_hhsize_3": 8.9, "per_hhsize_4": 18.4, "per_hhsize_5": 17.1, "per_hhsize_6_8": 33.3, "per_hhsize_9p": 9.5, "per_ow_owned": 99.7, "per_ow_rented": 0.3, "per_ow_oth": 0.0, "per_mc_none": 7.0, "per_mcouple_1": 68.9, "per_mcouple_2": 18.1, "per_mcouple_3": 4.4, "per_mcouple_4": 1.0, "per_mcouple_5p": 0.6, "per_dw_t_ts": 0.0, "per_dw_t_unts": 0.3, "per_dw_c_well": 0.3, "per_dw_unc_wel": 7.3, "per_dw_hpump": 92.1, "per_dw_tw_bore": 0.0, "per_dw_spring": 0.0, "per_dw_rivcan": 0.0, "per_dw_tank": 0.0, "per_dw_oth": 0.0, "per_loc_dw_wp": 50.2, "per_loc_dw_np": 42.5, "per_loc_dw_aw": 7.3, "per_light_elec": 86.7, "per_light_kero": 13.3, "per_light_solr": 0.0, "per_light_oil": 0.0, "per_light_oth": 0.0, "per_light_no": 0.0, "per_hh_latrine": 12.4, "per_fl_sewer": 0.3, "per_fl_septict": 8.9, "per_fl_othsys": 0.3, "per_pl_wslab": 2.9, "per_pl_without": 0.0, "per_ns_open": 0.0, "per_sl_ns_hum": 0.0, "per_sl_ns_anml": 0.0, "per_hh_no_lat": 87.6, "per_as_pub": 0.0, "per_as_open": 87.6, "per_hh_bathrm": 19.0, "per_hh_en_wrf": 53.0, "per_hh_no_btrm": 27.9, "per_wwoc_drain": 6.0, "per_wwoc_open": 73.3, "per_wwoc_nodrn": 20.6, "per_cook_fire": 94.3, "per_cook_resdu": 0.6, "per_cook_cwdng": 0.0, "per_cook_coal": 0.0, "per_cook_kero": 0.0, "per_cook_lpng": 4.4, "per_cook_elec": 0.6, "per_cook_biogs": 0.0, "per_cook_oth": 0.0, "per_cook_no": 0.0, "per_kf_inside": 65.7, "per_kf_in_has": 48.6, "per_kf_in_does": 17.1, "per_kf_outside": 34.3, "per_kf_out_has": 25.1, "per_kf_out_dos": 9.2, "per_kf_no_cook": 0.0, "per_hh_banking": 98.7, "per_hh_radio": 14.9, "per_hh_tv": 16.8, "per_hh_cmp_int": 0.0, "per_hh_cmp_wnt": 0.6, "per_hh_ph_ll": 1.9, "per_hh_ph_mob": 53.3, "per_hh_ph_bth": 0.3, "per_hh_bcycl": 89.5, "per_hh_2wheel": 18.7, "per_hh_4wheel": 1.6, "per_hh_tvcomp": 0.0, "per_hh_no_ast": 6.7, "per_hs_perma": 60.6, "per_hs_sperma": 12.4, "per_hs_temp": 21.9, "per_hs_servc": 14.6, "per_hs_nservc": 7.3, "per_hs_unclss": 5.1, "avghhsz_cy": 4.88273616, "st_areashape": 2602866.529590895, "st_lengthshape": 7140.026402615185}, "geometry": {"type": "Polygon", "coordinates": [[[81.09716512236774, 26.118030950501502], [81.09760808882083, 26.11884856601814], [81.09789811889348, 26.120608419977835], [81.09800155630518, 26.12257025685512], [81.0979520393701, 26.123420839006204], [81.09744956941086, 26.124452754236533], [81.09664075866837, 26.127406123092378], [81.09621102889098, 26.129363581000796], [81.09616223959128, 26.130140178275784], [81.09658858810994, 26.132622594256453], [81.09687125738714, 26.133068890266298], [81.09685139653452, 26.13417481124227], [81.09676380989602, 26.13472909848197], [81.09597643026129, 26.135536652595583], [81.09436426334673, 26.13678146267862], [81.09250262709126, 26.138357212964515], [81.09200874143289, 26.13849302826177], [81.09171216443849, 26.138299129401066], [81.09032248057544, 26.13780678810509], [81.08987653800375, 26.137285151888232], [81.08971842732723, 26.136691875641482], [81.08902749351634, 26.13605723612478], [81.08821352644414, 26.135421584268073], [81.08739733244835, 26.135007883491912], [81.0867899608235, 26.134225926488266], [81.08618183371551, 26.133517955637885], [81.08524224623399, 26.133140258403568], [81.08463040010068, 26.13280223258955], [81.08381385845688, 26.13242553792468], [81.08334233995076, 26.132403160296967], [81.08355264094871, 26.13188690021087], [81.08360374161363, 26.130888338084656], [81.08344977217054, 26.12988810198692], [81.08300833105679, 26.12892246719088], [81.08366825143082, 26.12855789725479], [81.08470252493655, 26.127678422604912], [81.08573753146756, 26.126724935202702], [81.08665020452486, 26.125696438779038], [81.087686299814, 26.124631949438275], [81.08856466082074, 26.1229371675453], [81.08857210336285, 26.122197223232117], [81.08839369345584, 26.121585266164843], [81.08934325313535, 26.120964052146924], [81.09055843655953, 26.12043748998974], [81.09158555228909, 26.120260899228775], [81.09389581977385, 26.118910789757877], [81.095381058332, 26.11803490681305], [81.09583621492351, 26.1176316301326], [81.09608894155565, 26.11696767784225], [81.0961384665756, 26.11611708824012], [81.09716512236774, 26.118030950501502]]]}}]}