{"type": "FeatureCollection", "features": [{"type": "Feature", "properties": {"premiumdata.sde.IN_Village_PCA.area": 11.07179201, "objectid": 213293, "id": "236393712536002", "name": "Siyali", "subdistrict": "Jobat", "district": "Alirajpur", "state": "Madhya Pradesh", "country": "India", "censusname": "Siyali", "villagename_locallang": "\u0938\u093f\u092f\u093e\u0932\u0940", "lgd_villagename": "Siyali", "lgd_villagecode": 505012, "lgd_subdistrictcode": 3712, "lgd_districtcode": 639, "lgd_statecode": 23, "censuscode2001": "02943800", "censuscode2011": "505012", "censuscode2021": null, "level": "Village", "tru": "Rural", "no_hh": 347, "tot_p": 1926, "tot_m": 999, "tot_f": 927, "per_tot_m": 51.86915888, "per_tot_f": 48.13084112, "p_06": 409, "m_06": 228, "f_06": 181, "per_p_06": 21.2357217, "per_m_06": 55.74572127, "per_f_06": 44.25427873, "p_sc": 11, "m_sc": 4, "f_sc": 7, "per_p_sc": 0.57113188, "per_m_sc": 36.36363636, "per_f_sc": 63.63636364, "p_st": 1910, "m_st": 991, "f_st": 919, "per_p_st": 99.16926272, "per_m_st": 51.88481675, "per_f_st": 48.11518325, "p_lit": 305, "m_lit": 213, "f_lit": 92, "per_p_lit": 15.83592939, "per_m_lit": 69.83606557, "per_f_lit": 30.16393443, "p_ill": 1621, "m_ill": 786, "f_ill": 835, "per_p_ill": 84.16407061, "per_m_ill": 48.48858729000001, "per_f_ill": 51.51141271, "tot_work_p": 1067, "tot_work_m": 516, "tot_work_f": 551, "per_tot_work_p": 55.39979232, "per_tot_work_m": 48.35988754, "per_tot_work_f": 51.64011246, "mainwork_p": 845, "mainwork_m": 414, "mainwork_f": 431, "per_mainwork_p": 43.87331256, "per_mainwork_m": 48.99408284, "per_mainwork_f": 51.00591716, "main_cl_p": 820, "main_cl_m": 400, "main_cl_f": 420, "per_main_cl_p": 97.04142012, "per_main_cl_m": 48.7804878, "per_main_cl_f": 51.2195122, "main_al_p": 8, "main_al_m": 3, "main_al_f": 5, "per_main_al_p": 0.94674556, "per_main_al_m": 37.5, "per_main_al_f": 62.5, "main_hh_p": 1, "main_hh_m": 1, "main_hh_f": 0, "per_main_hh_p": 0.1183432, "per_main_hh_m": 100.0, "per_main_hh_f": 0.0, "main_ot_p": 16, "main_ot_m": 10, "main_ot_f": 6, "per_main_ot_p": 1.89349112, "per_main_ot_m": 62.5, "per_main_ot_f": 37.5, "margwork_p": 222, "margwork_m": 102, "margwork_f": 120, "per_margwork_p": 11.52647975, "per_margwork_m": 45.94594595, "per_margwork_f": 54.05405405, "marg_cl_p": 149, "marg_cl_m": 66, "marg_cl_f": 83, "per_marg_cl_p": 67.11711711999999, "per_marg_cl_m": 44.29530201, "per_marg_cl_f": 55.70469799, "marg_al_p": 71, "marg_al_m": 34, "marg_al_f": 37, "per_marg_al_p": 31.98198198, "per_marg_al_m": 47.88732394, "per_marg_al_f": 52.11267606, "marg_hh_p": 2, "marg_hh_m": 2, "marg_hh_f": 0, "per_marg_hh_p": 0.9009009, "per_marg_hh_m": 100.0, "per_marg_hh_f": 0.0, "marg_ot_p": 0, "marg_ot_m": 0, "marg_ot_f": 0, "per_marg_ot_p": 0.0, "per_marg_ot_m": 0.0, "per_marg_ot_f": 0.0, "margwork_3_6_p": 135, "margwork_3_6_m": 56, "margwork_3_6_f": 79, "per_margwork_3_6_p": 60.81081081, "per_margwork_3_6_m": 41.48148148, "per_margwork_3_6_f": 58.51851852, "marg_cl_3_6_p": 98, "marg_cl_3_6_m": 37, "marg_cl_3_6_f": 61, "per_marg_cl_3_6_p": 44.14414414, "per_marg_cl_3_6_m": 37.75510204, "per_marg_cl_3_6_f": 62.24489796, "marg_al_3_6_p": 37, "marg_al_3_6_m": 19, "marg_al_3_6_f": 18, "per_marg_al_3_6_p": 16.66666667, "per_marg_al_3_6_m": 51.35135135, "per_marg_al_3_6_f": 48.64864865, "marg_hh_3_6_p": 0, "marg_hh_3_6_m": 0, "marg_hh_3_6_f": 0, "per_marg_hh_3_6_p": 0.0, "per_marg_hh_3_6_m": 0.0, "per_marg_hh_3_6_f": 0.0, "marg_ot_3_6_p": 0, "marg_ot_3_6_m": 0, "marg_ot_3_6_f": 0, "per_marg_ot_3_6_p": 0.0, "per_marg_ot_3_6_m": 0.0, "per_marg_ot_3_6_f": 0.0, "margwork_0_3_p": 87, "margwork_0_3_m": 46, "margwork_0_3_f": 41, "per_margwork_0_3_p": 39.18918919, "per_margwork_0_3_m": 52.87356322, "per_margwork_0_3_f": 47.12643678, "marg_cl_0_3_p": 51, "marg_cl_0_3_m": 29, "marg_cl_0_3_f": 22, "per_marg_cl_0_3_p": 22.97297297, "per_marg_cl_0_3_m": 56.8627451, "per_marg_cl_0_3_f": 43.1372549, "marg_al_0_3_p": 34, "marg_al_0_3_m": 15, "marg_al_0_3_f": 19, "per_marg_al_0_3_p": 15.31531532, "per_marg_al_0_3_m": 44.11764706, "per_marg_al_0_3_f": 55.88235294, "marg_hh_0_3_p": 2, "marg_hh_0_3_m": 2, "marg_hh_0_3_f": 0, "per_marg_hh_0_3_p": 0.9009009, "per_marg_hh_0_3_m": 100.0, "per_marg_hh_0_3_f": 0.0, "marg_ot_0_3_p": 0, "marg_ot_0_3_m": 0, "marg_ot_0_3_f": 0, "per_marg_ot_0_3_p": 0.0, "per_marg_ot_0_3_m": 0.0, "per_marg_ot_0_3_f": 0.0, "non_work_p": 859, "non_work_m": 483, "non_work_f": 376, "per_non_work_p": 44.60020768, "per_non_work_m": 56.22817229, "per_non_work_f": 43.77182771, "per_hc_tot_tot": 100, "per_hc_tot_god": 37.5, "per_hc_tot_liv": 60.8, "per_hc_tot_dil": 1.7, "per_hc_res_tot": 36.0, "per_hc_res_god": 2.2, "per_hc_res_liv": 32.1, "per_hc_res_dil": 1.7, "per_hc_oth_tot": 64.0, "per_hc_oth_god": 35.3, "per_hc_oth_liv": 28.7, "per_hc_oth_dil": 0.0, "per_mt_grsbam": 63.7, "per_mt_plastic": 0.2, "per_mt_h_tiles": 32.8, "per_mt_m_tiles": 0.0, "per_mt_b_brick": 0.0, "per_mt_stone": 0.2, "per_mt_asbstos": 2.0, "per_mt_concrte": 1.0, "per_mt_oth": 0.0, "per_mw_grsbam": 2.0, "per_mw_plastic": 0.0, "per_mw_mud": 87.5, "per_mw_wood": 0.0, "per_mw_no_mrtr": 1.0, "per_mw_st_mrtr": 2.0, "per_mw_asbstos": 0.0, "per_mw_b_brick": 7.6, "per_mw_concrte": 0.0, "per_mw_oth": 0.0, "per_mf_mud": 97.3, "per_mf_wood": 0.0, "per_mf_b_brick": 0.2, "per_mf_stone": 0.0, "per_mf_cement": 2.5, "per_mf_fl_tile": 0.0, "per_mf_oth": 0.0, "per_dw_n_exrm": 48.0, "per_dw_1_room": 47.5, "per_dw_2_room": 3.2, "per_dw_3_room": 0.5, "per_dw_4_room": 0.5, "per_dw_5_room": 0.0, "per_dw_6_room": 0.2, "per_hhsize_1": 0.7, "per_hhsize_2": 1.5, "per_hhsize_3": 2.9, "per_hhsize_4": 7.4, "per_hhsize_5": 13.2, "per_hhsize_6_8": 55.4, "per_hhsize_9p": 18.9, "per_ow_owned": 99.8, "per_ow_rented": 0.2, "per_ow_oth": 0.0, "per_mc_none": 4.2, "per_mcouple_1": 64.2, "per_mcouple_2": 28.2, "per_mcouple_3": 3.2, "per_mcouple_4": 0.2, "per_mcouple_5p": 0.0, "per_dw_t_ts": 0.0, "per_dw_t_unts": 0.2, "per_dw_c_well": 0.0, "per_dw_unc_wel": 2.7, "per_dw_hpump": 97.1, "per_dw_tw_bore": 0.0, "per_dw_spring": 0.0, "per_dw_rivcan": 0.0, "per_dw_tank": 0.0, "per_dw_oth": 0.0, "per_loc_dw_wp": 6.6, "per_loc_dw_np": 68.6, "per_loc_dw_aw": 24.8, "per_light_elec": 71.8, "per_light_kero": 28.2, "per_light_solr": 0.0, "per_light_oil": 0.0, "per_light_oth": 0.0, "per_light_no": 0.0, "per_hh_latrine": 7.8, "per_fl_sewer": 0.0, "per_fl_septict": 0.0, "per_fl_othsys": 0.2, "per_pl_wslab": 0.0, "per_pl_without": 7.6, "per_ns_open": 0.0, "per_sl_ns_hum": 0.0, "per_sl_ns_anml": 0.0, "per_hh_no_lat": 92.2, "per_as_pub": 18.1, "per_as_open": 74.0, "per_hh_bathrm": 0.5, "per_hh_en_wrf": 37.7, "per_hh_no_btrm": 61.8, "per_wwoc_drain": 0.0, "per_wwoc_open": 0.0, "per_wwoc_nodrn": 100.0, "per_cook_fire": 100.0, "per_cook_resdu": 0.0, "per_cook_cwdng": 0.0, "per_cook_coal": 0.0, "per_cook_kero": 0.0, "per_cook_lpng": 0.0, "per_cook_elec": 0.0, "per_cook_biogs": 0.0, "per_cook_oth": 0.0, "per_cook_no": 0.0, "per_kf_inside": 99.5, "per_kf_in_has": 23.8, "per_kf_in_does": 75.7, "per_kf_outside": 0.5, "per_kf_out_has": 0.0, "per_kf_out_dos": 0.5, "per_kf_no_cook": 0.0, "per_hh_banking": 42.9, "per_hh_radio": 3.2, "per_hh_tv": 0.2, "per_hh_cmp_int": 0.0, "per_hh_cmp_wnt": 4.4, "per_hh_ph_ll": 0.0, "per_hh_ph_mob": 13.7, "per_hh_ph_bth": 0.0, "per_hh_bcycl": 6.4, "per_hh_2wheel": 3.9, "per_hh_4wheel": 1.2, "per_hh_tvcomp": 0.0, "per_hh_no_ast": 73.3, "per_hs_perma": 2.9, "per_hs_sperma": 40.7, "per_hs_temp": 56.4, "per_hs_servc": 54.9, "per_hs_nservc": 1.5, "per_hs_unclss": 0.0, "avghhsz_cy": 5.55043228, "st_areashape": 13042421.696965314, "st_lengthshape": 15130.673702010363}, "geometry": {"type": "Polygon", "coordinates": [[[74.66265000021193, 22.555099999522838], [74.65411000067343, 22.563609999450218], [74.64856502202144, 22.568845936142566], [74.64850164497983, 22.56829512700252], [74.6451761321037, 22.56742867904259], [74.64380025534652, 22.566999939962148], [74.64221528043564, 22.56647636374249], [74.64050387393672, 22.5659662688582], [74.63668258894012, 22.56528029168593], [74.63404274484895, 22.56496439724411], [74.63209814558374, 22.564824538410264], [74.631923089986, 22.563880863980003], [74.63202023020757, 22.563614438387937], [74.63211745666743, 22.563447430205997], [74.63210772162468, 22.563271290910507], [74.63203475686403, 22.56287851514985], [74.63201047180867, 22.562612120803465], [74.63210768389544, 22.562336668800164], [74.6320979659207, 22.561961886915103], [74.63208821111502, 22.561609768557933], [74.63221455826141, 22.56139302462937], [74.6323799192406, 22.56111758844144], [74.63262774466456, 22.5607834339259], [74.63260828895213, 22.56016479402742], [74.63258880269699, 22.55967265521039], [74.63261188760316, 22.559546377828557], [74.63263254705808, 22.559433361966658], [74.6327054354619, 22.55922117398575], [74.63270524501905, 22.559217434242026], [74.63270462877477, 22.55920535971391], [74.63269575880967, 22.55903149385781], [74.63262762069706, 22.5587967174047], [74.6325158406313, 22.558530359971144], [74.63249637683403, 22.558318127462623], [74.63252556040267, 22.55811941190187], [74.63252552447008, 22.557902708944845], [74.63244288215887, 22.557695059776723], [74.63235053983924, 22.557527974740893], [74.63235046887233, 22.55740156183146], [74.63235532606308, 22.55712606540796], [74.63233095207447, 22.556385635192637], [74.63231492343486, 22.55581338836871], [74.63231147390417, 22.555690245832643], [74.6323649434265, 22.555247771019282], [74.63207815896699, 22.554733086700022], [74.62903987252147, 22.555965789092596], [74.62652800601897, 22.55603050691861], [74.62499000042102, 22.551339999046537], [74.62096000085128, 22.54154999906238], [74.62053000068096, 22.539799999360298], [74.6238900007792, 22.537599999458223], [74.62518000039181, 22.53669999919998], [74.6258200006244, 22.534499999685753], [74.62590000099034, 22.534269999734295], [74.63028000036446, 22.531480000011232], [74.63731000018232, 22.53028999957724], [74.64017000068834, 22.52958999970625], [74.64210000053355, 22.52875999912651], [74.64196000079146, 22.52945999905512], [74.64540000035731, 22.535869999865056], [74.6506500001178, 22.54258999939377], [74.65200000000485, 22.543549999765236], [74.65665000061404, 22.546050000129807], [74.65849000004755, 22.54765999955254], [74.66206000020804, 22.55418999960851], [74.66265000021193, 22.555099999522838]]]}}]}