{"type": "FeatureCollection", "features": [{"type": "Feature", "properties": {"premiumdata.sde.IN_Village_PCA.area": 3.12785144, "objectid": 254874, "id": "234183635558043", "name": "Saonwari", "subdistrict": "Gadarwara", "district": "Narsinghpur", "state": "Madhya Pradesh", "country": "India", "censusname": "Saonwari", "villagename_locallang": null, "lgd_villagename": "Saonwari", "lgd_villagecode": 490854, "lgd_subdistrictcode": 3635, "lgd_districtcode": 418, "lgd_statecode": 23, "censuscode2001": "04760100", "censuscode2011": "490854", "censuscode2021": null, "level": "Village", "tru": "Rural", "no_hh": 112, "tot_p": 530, "tot_m": 275, "tot_f": 255, "per_tot_m": 51.88679245, "per_tot_f": 48.11320755, "p_06": 41, "m_06": 22, "f_06": 19, "per_p_06": 7.73584906, "per_m_06": 53.65853659, "per_f_06": 46.34146341, "p_sc": 92, "m_sc": 50, "f_sc": 42, "per_p_sc": 17.35849057, "per_m_sc": 54.34782609, "per_f_sc": 45.65217391, "p_st": 5, "m_st": 2, "f_st": 3, "per_p_st": 0.94339623, "per_m_st": 40.0, "per_f_st": 60.0, "p_lit": 371, "m_lit": 211, "f_lit": 160, "per_p_lit": 70.0, "per_m_lit": 56.87331536, "per_f_lit": 43.12668464, "p_ill": 159, "m_ill": 64, "f_ill": 95, "per_p_ill": 30.0, "per_m_ill": 40.25157233, "per_f_ill": 59.74842767, "tot_work_p": 185, "tot_work_m": 147, "tot_work_f": 38, "per_tot_work_p": 34.90566038, "per_tot_work_m": 79.45945946, "per_tot_work_f": 20.54054054, "mainwork_p": 71, "mainwork_m": 64, "mainwork_f": 7, "per_mainwork_p": 13.39622642, "per_mainwork_m": 90.14084507, "per_mainwork_f": 9.85915493, "main_cl_p": 62, "main_cl_m": 56, "main_cl_f": 6, "per_main_cl_p": 87.32394366, "per_main_cl_m": 90.32258065, "per_main_cl_f": 9.67741935, "main_al_p": 4, "main_al_m": 4, "main_al_f": 0, "per_main_al_p": 5.63380282, "per_main_al_m": 100.0, "per_main_al_f": 0.0, "main_hh_p": 0, "main_hh_m": 0, "main_hh_f": 0, "per_main_hh_p": 0.0, "per_main_hh_m": 0.0, "per_main_hh_f": 0.0, "main_ot_p": 5, "main_ot_m": 4, "main_ot_f": 1, "per_main_ot_p": 7.04225352, "per_main_ot_m": 80.0, "per_main_ot_f": 20.0, "margwork_p": 114, "margwork_m": 83, "margwork_f": 31, "per_margwork_p": 21.50943396, "per_margwork_m": 72.80701754, "per_margwork_f": 27.19298246, "marg_cl_p": 8, "marg_cl_m": 6, "marg_cl_f": 2, "per_marg_cl_p": 7.01754386, "per_marg_cl_m": 75.0, "per_marg_cl_f": 25.0, "marg_al_p": 104, "marg_al_m": 77, "marg_al_f": 27, "per_marg_al_p": 91.22807017999999, "per_marg_al_m": 74.03846154, "per_marg_al_f": 25.96153846, "marg_hh_p": 0, "marg_hh_m": 0, "marg_hh_f": 0, "per_marg_hh_p": 0.0, "per_marg_hh_m": 0.0, "per_marg_hh_f": 0.0, "marg_ot_p": 2, "marg_ot_m": 0, "marg_ot_f": 2, "per_marg_ot_p": 1.75438596, "per_marg_ot_m": 0.0, "per_marg_ot_f": 100.0, "margwork_3_6_p": 112, "margwork_3_6_m": 82, "margwork_3_6_f": 30, "per_margwork_3_6_p": 98.24561404, "per_margwork_3_6_m": 73.21428571, "per_margwork_3_6_f": 26.78571429, "marg_cl_3_6_p": 8, "marg_cl_3_6_m": 6, "marg_cl_3_6_f": 2, "per_marg_cl_3_6_p": 7.01754386, "per_marg_cl_3_6_m": 75.0, "per_marg_cl_3_6_f": 25.0, "marg_al_3_6_p": 102, "marg_al_3_6_m": 76, "marg_al_3_6_f": 26, "per_marg_al_3_6_p": 89.47368421, "per_marg_al_3_6_m": 74.50980392, "per_marg_al_3_6_f": 25.49019608, "marg_hh_3_6_p": 0, "marg_hh_3_6_m": 0, "marg_hh_3_6_f": 0, "per_marg_hh_3_6_p": 0.0, "per_marg_hh_3_6_m": 0.0, "per_marg_hh_3_6_f": 0.0, "marg_ot_3_6_p": 2, "marg_ot_3_6_m": 0, "marg_ot_3_6_f": 2, "per_marg_ot_3_6_p": 1.75438596, "per_marg_ot_3_6_m": 0.0, "per_marg_ot_3_6_f": 100.0, "margwork_0_3_p": 2, "margwork_0_3_m": 1, "margwork_0_3_f": 1, "per_margwork_0_3_p": 1.75438596, "per_margwork_0_3_m": 50.0, "per_margwork_0_3_f": 50.0, "marg_cl_0_3_p": 0, "marg_cl_0_3_m": 0, "marg_cl_0_3_f": 0, "per_marg_cl_0_3_p": 0.0, "per_marg_cl_0_3_m": 0.0, "per_marg_cl_0_3_f": 0.0, "marg_al_0_3_p": 2, "marg_al_0_3_m": 1, "marg_al_0_3_f": 1, "per_marg_al_0_3_p": 1.75438596, "per_marg_al_0_3_m": 50.0, "per_marg_al_0_3_f": 50.0, "marg_hh_0_3_p": 0, "marg_hh_0_3_m": 0, "marg_hh_0_3_f": 0, "per_marg_hh_0_3_p": 0.0, "per_marg_hh_0_3_m": 0.0, "per_marg_hh_0_3_f": 0.0, "marg_ot_0_3_p": 0, "marg_ot_0_3_m": 0, "marg_ot_0_3_f": 0, "per_marg_ot_0_3_p": 0.0, "per_marg_ot_0_3_m": 0.0, "per_marg_ot_0_3_f": 0.0, "non_work_p": 345, "non_work_m": 128, "non_work_f": 217, "per_non_work_p": 65.09433962, "per_non_work_m": 37.10144928, "per_non_work_f": 62.89855072, "per_hc_tot_tot": 100, "per_hc_tot_god": 48.2, "per_hc_tot_liv": 40.2, "per_hc_tot_dil": 11.6, "per_hc_res_tot": 98.2, "per_hc_res_god": 48.2, "per_hc_res_liv": 38.4, "per_hc_res_dil": 11.6, "per_hc_oth_tot": 1.8, "per_hc_oth_god": 0.0, "per_hc_oth_liv": 1.8, "per_hc_oth_dil": 0.0, "per_mt_grsbam": 0.0, "per_mt_plastic": 0.0, "per_mt_h_tiles": 36.6, "per_mt_m_tiles": 58.0, "per_mt_b_brick": 0.0, "per_mt_stone": 0.0, "per_mt_asbstos": 0.0, "per_mt_concrte": 5.4, "per_mt_oth": 0.0, "per_mw_grsbam": 0.9, "per_mw_plastic": 0.0, "per_mw_mud": 65.2, "per_mw_wood": 0.0, "per_mw_no_mrtr": 0.0, "per_mw_st_mrtr": 0.0, "per_mw_asbstos": 0.0, "per_mw_b_brick": 33.9, "per_mw_concrte": 0.0, "per_mw_oth": 0.0, "per_mf_mud": 90.2, "per_mf_wood": 2.7, "per_mf_b_brick": 0.0, "per_mf_stone": 0.0, "per_mf_cement": 6.2, "per_mf_fl_tile": 0.9, "per_mf_oth": 0.0, "per_dw_n_exrm": 0.9, "per_dw_1_room": 81.2, "per_dw_2_room": 17.9, "per_dw_3_room": 0.0, "per_dw_4_room": 0.0, "per_dw_5_room": 0.0, "per_dw_6_room": 0.0, "per_hhsize_1": 1.8, "per_hhsize_2": 8.0, "per_hhsize_3": 11.6, "per_hhsize_4": 22.3, "per_hhsize_5": 30.4, "per_hhsize_6_8": 24.1, "per_hhsize_9p": 1.8, "per_ow_owned": 95.5, "per_ow_rented": 0.0, "per_ow_oth": 4.5, "per_mc_none": 7.1, "per_mcouple_1": 83.9, "per_mcouple_2": 8.0, "per_mcouple_3": 0.9, "per_mcouple_4": 0.0, "per_mcouple_5p": 0.0, "per_dw_t_ts": 0.9, "per_dw_t_unts": 0.0, "per_dw_c_well": 0.0, "per_dw_unc_wel": 0.0, "per_dw_hpump": 69.6, "per_dw_tw_bore": 29.5, "per_dw_spring": 0.0, "per_dw_rivcan": 0.0, "per_dw_tank": 0.0, "per_dw_oth": 0.0, "per_loc_dw_wp": 7.1, "per_loc_dw_np": 92.9, "per_loc_dw_aw": 0.0, "per_light_elec": 20.5, "per_light_kero": 79.5, "per_light_solr": 0.0, "per_light_oil": 0.0, "per_light_oth": 0.0, "per_light_no": 0.0, "per_hh_latrine": 16.1, "per_fl_sewer": 0.0, "per_fl_septict": 16.1, "per_fl_othsys": 0.0, "per_pl_wslab": 0.0, "per_pl_without": 0.0, "per_ns_open": 0.0, "per_sl_ns_hum": 0.0, "per_sl_ns_anml": 0.0, "per_hh_no_lat": 83.9, "per_as_pub": 0.0, "per_as_open": 83.9, "per_hh_bathrm": 3.6, "per_hh_en_wrf": 2.7, "per_hh_no_btrm": 93.8, "per_wwoc_drain": 0.0, "per_wwoc_open": 0.9, "per_wwoc_nodrn": 99.1, "per_cook_fire": 98.2, "per_cook_resdu": 0.9, "per_cook_cwdng": 0.0, "per_cook_coal": 0.9, "per_cook_kero": 0.0, "per_cook_lpng": 0.0, "per_cook_elec": 0.0, "per_cook_biogs": 0.0, "per_cook_oth": 0.0, "per_cook_no": 0.0, "per_kf_inside": 68.8, "per_kf_in_has": 0.0, "per_kf_in_does": 68.8, "per_kf_outside": 31.2, "per_kf_out_has": 6.2, "per_kf_out_dos": 25.0, "per_kf_no_cook": 0.0, "per_hh_banking": 28.6, "per_hh_radio": 0.0, "per_hh_tv": 20.5, "per_hh_cmp_int": 0.0, "per_hh_cmp_wnt": 6.2, "per_hh_ph_ll": 0.9, "per_hh_ph_mob": 31.2, "per_hh_ph_bth": 0.9, "per_hh_bcycl": 56.2, "per_hh_2wheel": 10.7, "per_hh_4wheel": 1.8, "per_hh_tvcomp": 0.9, "per_hh_no_ast": 22.3, "per_hs_perma": 33.9, "per_hs_sperma": 66.1, "per_hs_temp": 0.0, "per_hs_servc": 0.0, "per_hs_nservc": 0.0, "per_hs_unclss": 0.0, "avghhsz_cy": 4.73214286, "st_areashape": 3700533.98943377, "st_lengthshape": 7795.845229332153}, "geometry": {"type": "Polygon", "coordinates": [[[78.64803000005297, 22.85253999976789], [78.64806000019017, 22.852209999364362], [78.64889999954103, 22.84965000030703], [78.65003000021838, 22.84699999938358], [78.65144000037989, 22.844529999989444], [78.65265000052489, 22.843429999995998], [78.6543400001706, 22.842170000045122], [78.65517000037399, 22.841409999989956], [78.65630000015304, 22.84109000061358], [78.65807000016467, 22.840779999568472], [78.6601200005588, 22.840999999928947], [78.66264000040789, 22.84174999995133], [78.66617000038545, 22.84321000025433], [78.67064000017123, 22.84555000041757], [78.67342999945872, 22.84691000012618], [78.67482999957453, 22.847970000109363], [78.67614000017693, 22.84896999929789], [78.67521000041444, 22.849470000273445], [78.67225000034928, 22.85138999938384], [78.66907999932356, 22.853120000367174], [78.66621999971584, 22.854939999826858], [78.66367999977527, 22.857450000217508], [78.66115999992616, 22.856080000366997], [78.65618999964987, 22.854870000266363], [78.65140999934437, 22.853099999873905], [78.64803000005297, 22.85253999976789]]]}}]}