{"type": "FeatureCollection", "features": [{"type": "Feature", "properties": {"premiumdata.sde.IN_Village_PCA.area": 6.1108757, "objectid": 245606, "id": "896482505517", "name": "Sankhan Toomli", "subdistrict": "Rajgarh", "district": "Churu", "state": "Rajasthan", "country": "India", "censusname": "Sankhan Toomli", "villagename_locallang": null, "lgd_villagename": "Sankhan Toomli", "lgd_villagecode": 70265, "lgd_subdistrictcode": 482, "lgd_districtcode": 96, "lgd_statecode": 8, "censuscode2001": "00602000", "censuscode2011": "070265", "censuscode2021": null, "level": "Village", "tru": "Rural", "no_hh": 152, "tot_p": 864, "tot_m": 456, "tot_f": 408, "per_tot_m": 52.77777778, "per_tot_f": 47.22222222, "p_06": 123, "m_06": 69, "f_06": 54, "per_p_06": 14.23611111, "per_m_06": 56.09756098, "per_f_06": 43.90243902, "p_sc": 231, "m_sc": 112, "f_sc": 119, "per_p_sc": 26.73611111, "per_m_sc": 48.48484848, "per_f_sc": 51.51515152, "p_st": 0, "m_st": 0, "f_st": 0, "per_p_st": 0.0, "per_m_st": 0.0, "per_f_st": 0.0, "p_lit": 534, "m_lit": 336, "f_lit": 198, "per_p_lit": 61.80555556, "per_m_lit": 62.92134831, "per_f_lit": 37.07865169, "p_ill": 330, "m_ill": 120, "f_ill": 210, "per_p_ill": 38.19444444000001, "per_m_ill": 36.36363636, "per_f_ill": 63.63636364, "tot_work_p": 412, "tot_work_m": 207, "tot_work_f": 205, "per_tot_work_p": 47.68518519, "per_tot_work_m": 50.24271845, "per_tot_work_f": 49.75728155, "mainwork_p": 411, "mainwork_m": 207, "mainwork_f": 204, "per_mainwork_p": 47.56944444000001, "per_mainwork_m": 50.3649635, "per_mainwork_f": 49.6350365, "main_cl_p": 363, "main_cl_m": 169, "main_cl_f": 194, "per_main_cl_p": 88.32116788, "per_main_cl_m": 46.55647383, "per_main_cl_f": 53.44352617, "main_al_p": 0, "main_al_m": 0, "main_al_f": 0, "per_main_al_p": 0.0, "per_main_al_m": 0.0, "per_main_al_f": 0.0, "main_hh_p": 0, "main_hh_m": 0, "main_hh_f": 0, "per_main_hh_p": 0.0, "per_main_hh_m": 0.0, "per_main_hh_f": 0.0, "main_ot_p": 48, "main_ot_m": 38, "main_ot_f": 10, "per_main_ot_p": 11.67883212, "per_main_ot_m": 79.16666667, "per_main_ot_f": 20.83333333, "margwork_p": 1, "margwork_m": 0, "margwork_f": 1, "per_margwork_p": 0.11574074, "per_margwork_m": 0.0, "per_margwork_f": 100.0, "marg_cl_p": 0, "marg_cl_m": 0, "marg_cl_f": 0, "per_marg_cl_p": 0.0, "per_marg_cl_m": 0.0, "per_marg_cl_f": 0.0, "marg_al_p": 0, "marg_al_m": 0, "marg_al_f": 0, "per_marg_al_p": 0.0, "per_marg_al_m": 0.0, "per_marg_al_f": 0.0, "marg_hh_p": 0, "marg_hh_m": 0, "marg_hh_f": 0, "per_marg_hh_p": 0.0, "per_marg_hh_m": 0.0, "per_marg_hh_f": 0.0, "marg_ot_p": 1, "marg_ot_m": 0, "marg_ot_f": 1, "per_marg_ot_p": 100.0, "per_marg_ot_m": 0.0, "per_marg_ot_f": 100.0, "margwork_3_6_p": 1, "margwork_3_6_m": 0, "margwork_3_6_f": 1, "per_margwork_3_6_p": 100.0, "per_margwork_3_6_m": 0.0, "per_margwork_3_6_f": 100.0, "marg_cl_3_6_p": 0, "marg_cl_3_6_m": 0, "marg_cl_3_6_f": 0, "per_marg_cl_3_6_p": 0.0, "per_marg_cl_3_6_m": 0.0, "per_marg_cl_3_6_f": 0.0, "marg_al_3_6_p": 0, "marg_al_3_6_m": 0, "marg_al_3_6_f": 0, "per_marg_al_3_6_p": 0.0, "per_marg_al_3_6_m": 0.0, "per_marg_al_3_6_f": 0.0, "marg_hh_3_6_p": 0, "marg_hh_3_6_m": 0, "marg_hh_3_6_f": 0, "per_marg_hh_3_6_p": 0.0, "per_marg_hh_3_6_m": 0.0, "per_marg_hh_3_6_f": 0.0, "marg_ot_3_6_p": 1, "marg_ot_3_6_m": 0, "marg_ot_3_6_f": 1, "per_marg_ot_3_6_p": 100.0, "per_marg_ot_3_6_m": 0.0, "per_marg_ot_3_6_f": 100.0, "margwork_0_3_p": 0, "margwork_0_3_m": 0, "margwork_0_3_f": 0, "per_margwork_0_3_p": 0.0, "per_margwork_0_3_m": 0.0, "per_margwork_0_3_f": 0.0, "marg_cl_0_3_p": 0, "marg_cl_0_3_m": 0, "marg_cl_0_3_f": 0, "per_marg_cl_0_3_p": 0.0, "per_marg_cl_0_3_m": 0.0, "per_marg_cl_0_3_f": 0.0, "marg_al_0_3_p": 0, "marg_al_0_3_m": 0, "marg_al_0_3_f": 0, "per_marg_al_0_3_p": 0.0, "per_marg_al_0_3_m": 0.0, "per_marg_al_0_3_f": 0.0, "marg_hh_0_3_p": 0, "marg_hh_0_3_m": 0, "marg_hh_0_3_f": 0, "per_marg_hh_0_3_p": 0.0, "per_marg_hh_0_3_m": 0.0, "per_marg_hh_0_3_f": 0.0, "marg_ot_0_3_p": 0, "marg_ot_0_3_m": 0, "marg_ot_0_3_f": 0, "per_marg_ot_0_3_p": 0.0, "per_marg_ot_0_3_m": 0.0, "per_marg_ot_0_3_f": 0.0, "non_work_p": 452, "non_work_m": 249, "non_work_f": 203, "per_non_work_p": 52.31481481, "per_non_work_m": 55.08849558, "per_non_work_f": 44.91150442, "per_hc_tot_tot": 100, "per_hc_tot_god": 48.1, "per_hc_tot_liv": 48.7, "per_hc_tot_dil": 3.2, "per_hc_res_tot": 99.4, "per_hc_res_god": 48.1, "per_hc_res_liv": 48.1, "per_hc_res_dil": 3.2, "per_hc_oth_tot": 0.6, "per_hc_oth_god": 0.0, "per_hc_oth_liv": 0.6, "per_hc_oth_dil": 0.0, "per_mt_grsbam": 7.1, "per_mt_plastic": 0.0, "per_mt_h_tiles": 0.0, "per_mt_m_tiles": 0.0, "per_mt_b_brick": 7.8, "per_mt_stone": 81.8, "per_mt_asbstos": 3.2, "per_mt_concrte": 0.0, "per_mt_oth": 0.0, "per_mw_grsbam": 0.0, "per_mw_plastic": 0.0, "per_mw_mud": 3.2, "per_mw_wood": 0.0, "per_mw_no_mrtr": 1.3, "per_mw_st_mrtr": 40.9, "per_mw_asbstos": 0.0, "per_mw_b_brick": 54.5, "per_mw_concrte": 0.0, "per_mw_oth": 0.0, "per_mf_mud": 16.2, "per_mf_wood": 0.0, "per_mf_b_brick": 3.2, "per_mf_stone": 2.6, "per_mf_cement": 73.4, "per_mf_fl_tile": 4.5, "per_mf_oth": 0.0, "per_dw_n_exrm": 0.0, "per_dw_1_room": 24.0, "per_dw_2_room": 32.5, "per_dw_3_room": 10.4, "per_dw_4_room": 13.6, "per_dw_5_room": 8.4, "per_dw_6_room": 11.0, "per_hhsize_1": 1.9, "per_hhsize_2": 4.5, "per_hhsize_3": 6.5, "per_hhsize_4": 14.9, "per_hhsize_5": 20.1, "per_hhsize_6_8": 34.4, "per_hhsize_9p": 17.5, "per_ow_owned": 100.0, "per_ow_rented": 0.0, "per_ow_oth": 0.0, "per_mc_none": 7.1, "per_mcouple_1": 64.9, "per_mcouple_2": 15.6, "per_mcouple_3": 11.7, "per_mcouple_4": 0.6, "per_mcouple_5p": 0.0, "per_dw_t_ts": 51.3, "per_dw_t_unts": 34.4, "per_dw_c_well": 0.6, "per_dw_unc_wel": 10.4, "per_dw_hpump": 0.0, "per_dw_tw_bore": 0.0, "per_dw_spring": 0.0, "per_dw_rivcan": 0.0, "per_dw_tank": 0.0, "per_dw_oth": 3.2, "per_loc_dw_wp": 50.0, "per_loc_dw_np": 37.7, "per_loc_dw_aw": 12.3, "per_light_elec": 66.2, "per_light_kero": 33.1, "per_light_solr": 0.0, "per_light_oil": 0.0, "per_light_oth": 0.0, "per_light_no": 0.6, "per_hh_latrine": 23.4, "per_fl_sewer": 4.5, "per_fl_septict": 11.0, "per_fl_othsys": 1.3, "per_pl_wslab": 5.8, "per_pl_without": 0.6, "per_ns_open": 0.0, "per_sl_ns_hum": 0.0, "per_sl_ns_anml": 0.0, "per_hh_no_lat": 76.6, "per_as_pub": 3.9, "per_as_open": 72.7, "per_hh_bathrm": 39.0, "per_hh_en_wrf": 44.8, "per_hh_no_btrm": 16.2, "per_wwoc_drain": 0.6, "per_wwoc_open": 9.7, "per_wwoc_nodrn": 89.6, "per_cook_fire": 69.5, "per_cook_resdu": 19.5, "per_cook_cwdng": 0.0, "per_cook_coal": 0.0, "per_cook_kero": 0.0, "per_cook_lpng": 11.0, "per_cook_elec": 0.0, "per_cook_biogs": 0.0, "per_cook_oth": 0.0, "per_cook_no": 0.0, "per_kf_inside": 100.0, "per_kf_in_has": 74.7, "per_kf_in_does": 25.3, "per_kf_outside": 0.0, "per_kf_out_has": 0.0, "per_kf_out_dos": 0.0, "per_kf_no_cook": 0.0, "per_hh_banking": 57.1, "per_hh_radio": 15.6, "per_hh_tv": 33.1, "per_hh_cmp_int": 0.6, "per_hh_cmp_wnt": 5.2, "per_hh_ph_ll": 2.6, "per_hh_ph_mob": 77.9, "per_hh_ph_bth": 2.6, "per_hh_bcycl": 5.2, "per_hh_2wheel": 7.8, "per_hh_4wheel": 5.2, "per_hh_tvcomp": 1.3, "per_hh_no_ast": 15.6, "per_hs_perma": 92.9, "per_hs_sperma": 3.9, "per_hs_temp": 3.2, "per_hs_servc": 3.2, "per_hs_nservc": 0.0, "per_hs_unclss": 0.0, "avghhsz_cy": 5.68421053, "st_areashape": 7919306.81636945, "st_lengthshape": 11681.11227697594}, "geometry": {"type": "Polygon", "coordinates": [[[75.39619692014568, 28.363109071916508], [75.39552871730477, 28.36323649273059], [75.39312150632946, 28.36443688264513], [75.38991235582532, 28.35903861594115], [75.39778777992001, 28.340901387100633], [75.39983719012099, 28.33618105436753], [75.40058659257879, 28.3358291391891], [75.4007804148811, 28.335964372230354], [75.40113737752725, 28.336239549439263], [75.40203691452015, 28.337250132290333], [75.40589714328097, 28.337003107964055], [75.40684531416504, 28.33730802586521], [75.40687350868856, 28.33721268302698], [75.4099279764873, 28.338299089775287], [75.40992899607515, 28.338299642447616], [75.41329875636895, 28.339383165637226], [75.41855879300607, 28.341595696628154], [75.41843120887954, 28.344084978960467], [75.41764574175802, 28.3468592936556], [75.41745897841719, 28.35158255998273], [75.41607717727075, 28.351831148126248], [75.41553670857499, 28.352169589775567], [75.41505346974938, 28.355025324924767], [75.41506885250033, 28.35526446127561], [75.41487016043081, 28.35583288770347], [75.41466640186314, 28.356460015580534], [75.4140496688947, 28.357276761195187], [75.41437133852996, 28.358205999310936], [75.41456576180522, 28.360069078722326], [75.41442454035435, 28.364151764048053], [75.40125883604186, 28.362144597434966], [75.39619692014568, 28.363109071916508]]]}}]}