{"type": "FeatureCollection", "features": [{"type": "Feature", "properties": {"premiumdata.sde.IN_Village_PCA.area": 6.99073168, "objectid": 245541, "id": "896482505431", "name": "Sardarpura", "subdistrict": "Rajgarh", "district": "Churu", "state": "Rajasthan", "country": "India", "censusname": "Sardarpura", "villagename_locallang": null, "lgd_villagename": "Sardarpura", "lgd_villagecode": 70234, "lgd_subdistrictcode": 482, "lgd_districtcode": 96, "lgd_statecode": 8, "censuscode2001": "00599000", "censuscode2011": "070234", "censuscode2021": null, "level": "Village", "tru": "Rural", "no_hh": 368, "tot_p": 1825, "tot_m": 967, "tot_f": 858, "per_tot_m": 52.98630137, "per_tot_f": 47.01369863, "p_06": 227, "m_06": 124, "f_06": 103, "per_p_06": 12.43835616, "per_m_06": 54.62555066, "per_f_06": 45.37444934, "p_sc": 515, "m_sc": 251, "f_sc": 264, "per_p_sc": 28.21917808, "per_m_sc": 48.73786408, "per_f_sc": 51.26213592, "p_st": 1, "m_st": 0, "f_st": 1, "per_p_st": 0.05479452, "per_m_st": 0.0, "per_f_st": 100.0, "p_lit": 1060, "m_lit": 666, "f_lit": 394, "per_p_lit": 58.08219178, "per_m_lit": 62.83018868, "per_f_lit": 37.16981132, "p_ill": 765, "m_ill": 301, "f_ill": 464, "per_p_ill": 41.91780822, "per_m_ill": 39.34640523, "per_f_ill": 60.65359477, "tot_work_p": 935, "tot_work_m": 510, "tot_work_f": 425, "per_tot_work_p": 51.23287671, "per_tot_work_m": 54.54545455, "per_tot_work_f": 45.45454545, "mainwork_p": 601, "mainwork_m": 334, "mainwork_f": 267, "per_mainwork_p": 32.93150685, "per_mainwork_m": 55.57404326, "per_mainwork_f": 44.42595674, "main_cl_p": 362, "main_cl_m": 199, "main_cl_f": 163, "per_main_cl_p": 60.23294509, "per_main_cl_m": 54.97237569, "per_main_cl_f": 45.02762431, "main_al_p": 164, "main_al_m": 81, "main_al_f": 83, "per_main_al_p": 27.28785358, "per_main_al_m": 49.3902439, "per_main_al_f": 50.6097561, "main_hh_p": 3, "main_hh_m": 3, "main_hh_f": 0, "per_main_hh_p": 0.49916805, "per_main_hh_m": 100.0, "per_main_hh_f": 0.0, "main_ot_p": 72, "main_ot_m": 51, "main_ot_f": 21, "per_main_ot_p": 11.98003328, "per_main_ot_m": 70.83333332999999, "per_main_ot_f": 29.16666667, "margwork_p": 334, "margwork_m": 176, "margwork_f": 158, "per_margwork_p": 18.30136986, "per_margwork_m": 52.69461078, "per_margwork_f": 47.30538922, "marg_cl_p": 215, "marg_cl_m": 112, "marg_cl_f": 103, "per_marg_cl_p": 64.37125749, "per_marg_cl_m": 52.09302326, "per_marg_cl_f": 47.90697674, "marg_al_p": 99, "marg_al_m": 51, "marg_al_f": 48, "per_marg_al_p": 29.64071856, "per_marg_al_m": 51.51515152, "per_marg_al_f": 48.48484848, "marg_hh_p": 7, "marg_hh_m": 1, "marg_hh_f": 6, "per_marg_hh_p": 2.09580838, "per_marg_hh_m": 14.28571429, "per_marg_hh_f": 85.71428571, "marg_ot_p": 13, "marg_ot_m": 12, "marg_ot_f": 1, "per_marg_ot_p": 3.89221557, "per_marg_ot_m": 92.30769231, "per_marg_ot_f": 7.69230769, "margwork_3_6_p": 145, "margwork_3_6_m": 98, "margwork_3_6_f": 47, "per_margwork_3_6_p": 43.41317365, "per_margwork_3_6_m": 67.5862069, "per_margwork_3_6_f": 32.4137931, "marg_cl_3_6_p": 95, "marg_cl_3_6_m": 72, "marg_cl_3_6_f": 23, "per_marg_cl_3_6_p": 28.44311377, "per_marg_cl_3_6_m": 75.78947368, "per_marg_cl_3_6_f": 24.21052632, "marg_al_3_6_p": 42, "marg_al_3_6_m": 20, "marg_al_3_6_f": 22, "per_marg_al_3_6_p": 12.5748503, "per_marg_al_3_6_m": 47.61904762, "per_marg_al_3_6_f": 52.38095238, "marg_hh_3_6_p": 3, "marg_hh_3_6_m": 1, "marg_hh_3_6_f": 2, "per_marg_hh_3_6_p": 0.89820359, "per_marg_hh_3_6_m": 33.33333333, "per_marg_hh_3_6_f": 66.66666667, "marg_ot_3_6_p": 5, "marg_ot_3_6_m": 5, "marg_ot_3_6_f": 0, "per_marg_ot_3_6_p": 1.49700599, "per_marg_ot_3_6_m": 100.0, "per_marg_ot_3_6_f": 0.0, "margwork_0_3_p": 189, "margwork_0_3_m": 78, "margwork_0_3_f": 111, "per_margwork_0_3_p": 56.58682635, "per_margwork_0_3_m": 41.26984127, "per_margwork_0_3_f": 58.73015873, "marg_cl_0_3_p": 120, "marg_cl_0_3_m": 40, "marg_cl_0_3_f": 80, "per_marg_cl_0_3_p": 35.92814371, "per_marg_cl_0_3_m": 33.33333333, "per_marg_cl_0_3_f": 66.66666667, "marg_al_0_3_p": 57, "marg_al_0_3_m": 31, "marg_al_0_3_f": 26, "per_marg_al_0_3_p": 17.06586826, "per_marg_al_0_3_m": 54.38596491, "per_marg_al_0_3_f": 45.61403509, "marg_hh_0_3_p": 4, "marg_hh_0_3_m": 0, "marg_hh_0_3_f": 4, "per_marg_hh_0_3_p": 1.19760479, "per_marg_hh_0_3_m": 0.0, "per_marg_hh_0_3_f": 100.0, "marg_ot_0_3_p": 8, "marg_ot_0_3_m": 7, "marg_ot_0_3_f": 1, "per_marg_ot_0_3_p": 2.39520958, "per_marg_ot_0_3_m": 87.5, "per_marg_ot_0_3_f": 12.5, "non_work_p": 890, "non_work_m": 457, "non_work_f": 433, "per_non_work_p": 48.76712329, "per_non_work_m": 51.34831461, "per_non_work_f": 48.65168539, "per_hc_tot_tot": 100, "per_hc_tot_god": 72.2, "per_hc_tot_liv": 19.3, "per_hc_tot_dil": 8.4, "per_hc_res_tot": 98.6, "per_hc_res_god": 71.7, "per_hc_res_liv": 18.5, "per_hc_res_dil": 8.4, "per_hc_oth_tot": 1.4, "per_hc_oth_god": 0.5, "per_hc_oth_liv": 0.8, "per_hc_oth_dil": 0.0, "per_mt_grsbam": 13.1, "per_mt_plastic": 0.0, "per_mt_h_tiles": 0.3, "per_mt_m_tiles": 0.0, "per_mt_b_brick": 24.0, "per_mt_stone": 61.9, "per_mt_asbstos": 0.8, "per_mt_concrte": 0.0, "per_mt_oth": 0.0, "per_mw_grsbam": 2.2, "per_mw_plastic": 0.0, "per_mw_mud": 38.7, "per_mw_wood": 0.0, "per_mw_no_mrtr": 0.0, "per_mw_st_mrtr": 1.1, "per_mw_asbstos": 0.0, "per_mw_b_brick": 57.8, "per_mw_concrte": 0.3, "per_mw_oth": 0.0, "per_mf_mud": 35.1, "per_mf_wood": 0.0, "per_mf_b_brick": 0.8, "per_mf_stone": 0.5, "per_mf_cement": 60.5, "per_mf_fl_tile": 3.0, "per_mf_oth": 0.0, "per_dw_n_exrm": 0.5, "per_dw_1_room": 22.9, "per_dw_2_room": 30.8, "per_dw_3_room": 15.8, "per_dw_4_room": 12.8, "per_dw_5_room": 6.3, "per_dw_6_room": 10.9, "per_hhsize_1": 2.7, "per_hhsize_2": 7.1, "per_hhsize_3": 11.4, "per_hhsize_4": 26.7, "per_hhsize_5": 19.1, "per_hhsize_6_8": 26.2, "per_hhsize_9p": 6.8, "per_ow_owned": 99.7, "per_ow_rented": 0.3, "per_ow_oth": 0.0, "per_mc_none": 7.6, "per_mcouple_1": 68.7, "per_mcouple_2": 16.6, "per_mcouple_3": 6.0, "per_mcouple_4": 0.8, "per_mcouple_5p": 0.3, "per_dw_t_ts": 88.8, "per_dw_t_unts": 4.1, "per_dw_c_well": 0.0, "per_dw_unc_wel": 0.0, "per_dw_hpump": 0.0, "per_dw_tw_bore": 4.1, "per_dw_spring": 0.0, "per_dw_rivcan": 0.0, "per_dw_tank": 2.5, "per_dw_oth": 0.5, "per_loc_dw_wp": 2.5, "per_loc_dw_np": 36.5, "per_loc_dw_aw": 61.0, "per_light_elec": 28.9, "per_light_kero": 70.6, "per_light_solr": 0.0, "per_light_oil": 0.0, "per_light_oth": 0.5, "per_light_no": 0.0, "per_hh_latrine": 41.7, "per_fl_sewer": 0.3, "per_fl_septict": 20.7, "per_fl_othsys": 0.0, "per_pl_wslab": 20.7, "per_pl_without": 0.0, "per_ns_open": 0.0, "per_sl_ns_hum": 0.0, "per_sl_ns_anml": 0.0, "per_hh_no_lat": 58.3, "per_as_pub": 0.0, "per_as_open": 58.3, "per_hh_bathrm": 61.0, "per_hh_en_wrf": 22.6, "per_hh_no_btrm": 16.3, "per_wwoc_drain": 0.3, "per_wwoc_open": 43.6, "per_wwoc_nodrn": 56.1, "per_cook_fire": 82.6, "per_cook_resdu": 0.8, "per_cook_cwdng": 0.3, "per_cook_coal": 0.0, "per_cook_kero": 0.0, "per_cook_lpng": 16.3, "per_cook_elec": 0.0, "per_cook_biogs": 0.0, "per_cook_oth": 0.0, "per_cook_no": 0.0, "per_kf_inside": 98.6, "per_kf_in_has": 72.8, "per_kf_in_does": 25.9, "per_kf_outside": 1.4, "per_kf_out_has": 0.0, "per_kf_out_dos": 1.4, "per_kf_no_cook": 0.0, "per_hh_banking": 95.6, "per_hh_radio": 12.8, "per_hh_tv": 24.3, "per_hh_cmp_int": 0.8, "per_hh_cmp_wnt": 1.6, "per_hh_ph_ll": 2.7, "per_hh_ph_mob": 67.8, "per_hh_ph_bth": 3.5, "per_hh_bcycl": 4.9, "per_hh_2wheel": 9.3, "per_hh_4wheel": 3.8, "per_hh_tvcomp": 1.1, "per_hh_no_ast": 24.8, "per_hs_perma": 57.8, "per_hs_sperma": 30.5, "per_hs_temp": 11.7, "per_hs_servc": 9.5, "per_hs_nservc": 2.2, "per_hs_unclss": 0.0, "avghhsz_cy": 4.95923913, "st_areashape": 9088344.72976674, "st_lengthshape": 14587.829419858259}, "geometry": {"type": "Polygon", "coordinates": [[[75.52349279887297, 28.523085707394767], [75.52530236158802, 28.52697748127006], [75.53042092255106, 28.534125062323472], [75.53400091826573, 28.539692866205147], [75.52519744644768, 28.537493414159634], [75.5092297718982, 28.529046536462186], [75.50091861278842, 28.523972954581378], [75.49430120828225, 28.517023209833244], [75.48962876057078, 28.509729136985083], [75.48928662821167, 28.507284866883847], [75.49707148865097, 28.50803292446385], [75.5065153586553, 28.508192865189848], [75.51359739428432, 28.5079462299402], [75.51815977142404, 28.506580488925408], [75.51878638406396, 28.511404237383953], [75.5191209481168, 28.51226679292046], [75.5224262156614, 28.520798019523525], [75.52349279887297, 28.523085707394767]]]}}]}