{"type": "FeatureCollection", "features": [{"type": "Feature", "properties": {"premiumdata.sde.IN_Village_PCA.area": 0.02305613, "objectid": 613953, "id": "176581984161929", "name": "Mawkyllung", "subdistrict": "Mawkyrwat", "district": "South West Khasi Hills", "state": "Meghalaya", "country": "India", "censusname": "Mawkyllung", "villagename_locallang": null, "lgd_villagename": "Mawkyllung", "lgd_villagecode": 277357, "lgd_subdistrictcode": 1984, "lgd_districtcode": 658, "lgd_statecode": 17, "censuscode2001": "00393100", "censuscode2011": "277357", "censuscode2021": null, "level": "Village", "tru": "Rural", "no_hh": 15, "tot_p": 83, "tot_m": 38, "tot_f": 45, "per_tot_m": 45.78313253, "per_tot_f": 54.21686747, "p_06": 22, "m_06": 10, "f_06": 12, "per_p_06": 26.5060241, "per_m_06": 45.45454545, "per_f_06": 54.54545455, "p_sc": 0, "m_sc": 0, "f_sc": 0, "per_p_sc": 0.0, "per_m_sc": 0.0, "per_f_sc": 0.0, "p_st": 83, "m_st": 38, "f_st": 45, "per_p_st": 100.0, "per_m_st": 45.78313253, "per_f_st": 54.21686747, "p_lit": 56, "m_lit": 27, "f_lit": 29, "per_p_lit": 67.46987952, "per_m_lit": 48.21428571, "per_f_lit": 51.78571429, "p_ill": 27, "m_ill": 11, "f_ill": 16, "per_p_ill": 32.53012048, "per_m_ill": 40.74074074, "per_f_ill": 59.25925926, "tot_work_p": 36, "tot_work_m": 17, "tot_work_f": 19, "per_tot_work_p": 43.37349398, "per_tot_work_m": 47.22222222, "per_tot_work_f": 52.77777778, "mainwork_p": 22, "mainwork_m": 13, "mainwork_f": 9, "per_mainwork_p": 26.5060241, "per_mainwork_m": 59.09090909, "per_mainwork_f": 40.90909091, "main_cl_p": 6, "main_cl_m": 4, "main_cl_f": 2, "per_main_cl_p": 27.27272727, "per_main_cl_m": 66.66666667, "per_main_cl_f": 33.33333333, "main_al_p": 1, "main_al_m": 0, "main_al_f": 1, "per_main_al_p": 4.54545455, "per_main_al_m": 0.0, "per_main_al_f": 100.0, "main_hh_p": 0, "main_hh_m": 0, "main_hh_f": 0, "per_main_hh_p": 0.0, "per_main_hh_m": 0.0, "per_main_hh_f": 0.0, "main_ot_p": 15, "main_ot_m": 9, "main_ot_f": 6, "per_main_ot_p": 68.18181818, "per_main_ot_m": 60.0, "per_main_ot_f": 40.0, "margwork_p": 14, "margwork_m": 4, "margwork_f": 10, "per_margwork_p": 16.86746988, "per_margwork_m": 28.57142857, "per_margwork_f": 71.42857143, "marg_cl_p": 0, "marg_cl_m": 0, "marg_cl_f": 0, "per_marg_cl_p": 0.0, "per_marg_cl_m": 0.0, "per_marg_cl_f": 0.0, "marg_al_p": 1, "marg_al_m": 0, "marg_al_f": 1, "per_marg_al_p": 7.14285714, "per_marg_al_m": 0.0, "per_marg_al_f": 100.0, "marg_hh_p": 0, "marg_hh_m": 0, "marg_hh_f": 0, "per_marg_hh_p": 0.0, "per_marg_hh_m": 0.0, "per_marg_hh_f": 0.0, "marg_ot_p": 13, "marg_ot_m": 4, "marg_ot_f": 9, "per_marg_ot_p": 92.85714286, "per_marg_ot_m": 30.76923077, "per_marg_ot_f": 69.23076923, "margwork_3_6_p": 11, "margwork_3_6_m": 4, "margwork_3_6_f": 7, "per_margwork_3_6_p": 78.57142857, "per_margwork_3_6_m": 36.36363636, "per_margwork_3_6_f": 63.63636364, "marg_cl_3_6_p": 0, "marg_cl_3_6_m": 0, "marg_cl_3_6_f": 0, "per_marg_cl_3_6_p": 0.0, "per_marg_cl_3_6_m": 0.0, "per_marg_cl_3_6_f": 0.0, "marg_al_3_6_p": 1, "marg_al_3_6_m": 0, "marg_al_3_6_f": 1, "per_marg_al_3_6_p": 7.14285714, "per_marg_al_3_6_m": 0.0, "per_marg_al_3_6_f": 100.0, "marg_hh_3_6_p": 0, "marg_hh_3_6_m": 0, "marg_hh_3_6_f": 0, "per_marg_hh_3_6_p": 0.0, "per_marg_hh_3_6_m": 0.0, "per_marg_hh_3_6_f": 0.0, "marg_ot_3_6_p": 10, "marg_ot_3_6_m": 4, "marg_ot_3_6_f": 6, "per_marg_ot_3_6_p": 71.42857143, "per_marg_ot_3_6_m": 40.0, "per_marg_ot_3_6_f": 60.0, "margwork_0_3_p": 3, "margwork_0_3_m": 0, "margwork_0_3_f": 3, "per_margwork_0_3_p": 21.42857143, "per_margwork_0_3_m": 0.0, "per_margwork_0_3_f": 100.0, "marg_cl_0_3_p": 0, "marg_cl_0_3_m": 0, "marg_cl_0_3_f": 0, "per_marg_cl_0_3_p": 0.0, "per_marg_cl_0_3_m": 0.0, "per_marg_cl_0_3_f": 0.0, "marg_al_0_3_p": 0, "marg_al_0_3_m": 0, "marg_al_0_3_f": 0, "per_marg_al_0_3_p": 0.0, "per_marg_al_0_3_m": 0.0, "per_marg_al_0_3_f": 0.0, "marg_hh_0_3_p": 0, "marg_hh_0_3_m": 0, "marg_hh_0_3_f": 0, "per_marg_hh_0_3_p": 0.0, "per_marg_hh_0_3_m": 0.0, "per_marg_hh_0_3_f": 0.0, "marg_ot_0_3_p": 3, "marg_ot_0_3_m": 0, "marg_ot_0_3_f": 3, "per_marg_ot_0_3_p": 21.42857143, "per_marg_ot_0_3_m": 0.0, "per_marg_ot_0_3_f": 100.0, "non_work_p": 47, "non_work_m": 21, "non_work_f": 26, "per_non_work_p": 56.62650602, "per_non_work_m": 44.68085106, "per_non_work_f": 55.31914894, "per_hc_tot_tot": 100, "per_hc_tot_god": 42.9, "per_hc_tot_liv": 50.0, "per_hc_tot_dil": 7.1, "per_hc_res_tot": 92.9, "per_hc_res_god": 35.7, "per_hc_res_liv": 50.0, "per_hc_res_dil": 7.1, "per_hc_oth_tot": 7.1, "per_hc_oth_god": 7.1, "per_hc_oth_liv": 0.0, "per_hc_oth_dil": 0.0, "per_mt_grsbam": 21.4, "per_mt_plastic": 0.0, "per_mt_h_tiles": 0.0, "per_mt_m_tiles": 0.0, "per_mt_b_brick": 0.0, "per_mt_stone": 0.0, "per_mt_asbstos": 50.0, "per_mt_concrte": 28.6, "per_mt_oth": 0.0, "per_mw_grsbam": 21.4, "per_mw_plastic": 0.0, "per_mw_mud": 0.0, "per_mw_wood": 14.3, "per_mw_no_mrtr": 0.0, "per_mw_st_mrtr": 0.0, "per_mw_asbstos": 0.0, "per_mw_b_brick": 35.7, "per_mw_concrte": 28.6, "per_mw_oth": 0.0, "per_mf_mud": 7.1, "per_mf_wood": 42.9, "per_mf_b_brick": 0.0, "per_mf_stone": 0.0, "per_mf_cement": 50.0, "per_mf_fl_tile": 0.0, "per_mf_oth": 0.0, "per_dw_n_exrm": 0.0, "per_dw_1_room": 28.6, "per_dw_2_room": 21.4, "per_dw_3_room": 21.4, "per_dw_4_room": 14.3, "per_dw_5_room": 14.3, "per_dw_6_room": 0.0, "per_hhsize_1": 0.0, "per_hhsize_2": 0.0, "per_hhsize_3": 14.3, "per_hhsize_4": 28.6, "per_hhsize_5": 7.1, "per_hhsize_6_8": 35.7, "per_hhsize_9p": 14.3, "per_ow_owned": 100.0, "per_ow_rented": 0.0, "per_ow_oth": 0.0, "per_mc_none": 0.0, "per_mcouple_1": 92.9, "per_mcouple_2": 7.1, "per_mcouple_3": 0.0, "per_mcouple_4": 0.0, "per_mcouple_5p": 0.0, "per_dw_t_ts": 0.0, "per_dw_t_unts": 0.0, "per_dw_c_well": 0.0, "per_dw_unc_wel": 100.0, "per_dw_hpump": 0.0, "per_dw_tw_bore": 0.0, "per_dw_spring": 0.0, "per_dw_rivcan": 0.0, "per_dw_tank": 0.0, "per_dw_oth": 0.0, "per_loc_dw_wp": 0.0, "per_loc_dw_np": 28.6, "per_loc_dw_aw": 71.4, "per_light_elec": 78.6, "per_light_kero": 21.4, "per_light_solr": 0.0, "per_light_oil": 0.0, "per_light_oth": 0.0, "per_light_no": 0.0, "per_hh_latrine": 21.4, "per_fl_sewer": 0.0, "per_fl_septict": 0.0, "per_fl_othsys": 0.0, "per_pl_wslab": 14.3, "per_pl_without": 7.1, "per_ns_open": 0.0, "per_sl_ns_hum": 0.0, "per_sl_ns_anml": 0.0, "per_hh_no_lat": 78.6, "per_as_pub": 0.0, "per_as_open": 78.6, "per_hh_bathrm": 14.3, "per_hh_en_wrf": 0.0, "per_hh_no_btrm": 85.7, "per_wwoc_drain": 0.0, "per_wwoc_open": 100.0, "per_wwoc_nodrn": 0.0, "per_cook_fire": 100.0, "per_cook_resdu": 0.0, "per_cook_cwdng": 0.0, "per_cook_coal": 0.0, "per_cook_kero": 0.0, "per_cook_lpng": 0.0, "per_cook_elec": 0.0, "per_cook_biogs": 0.0, "per_cook_oth": 0.0, "per_cook_no": 0.0, "per_kf_inside": 92.9, "per_kf_in_has": 92.9, "per_kf_in_does": 0.0, "per_kf_outside": 7.1, "per_kf_out_has": 7.1, "per_kf_out_dos": 0.0, "per_kf_no_cook": 0.0, "per_hh_banking": 35.7, "per_hh_radio": 35.7, "per_hh_tv": 14.3, "per_hh_cmp_int": 0.0, "per_hh_cmp_wnt": 0.0, "per_hh_ph_ll": 0.0, "per_hh_ph_mob": 92.9, "per_hh_ph_bth": 0.0, "per_hh_bcycl": 0.0, "per_hh_2wheel": 0.0, "per_hh_4wheel": 21.4, "per_hh_tvcomp": 0.0, "per_hh_no_ast": 7.1, "per_hs_perma": 64.3, "per_hs_sperma": 14.3, "per_hs_temp": 21.4, "per_hs_servc": 0.0, "per_hs_nservc": 21.4, "per_hs_unclss": 0.0, "avghhsz_cy": 5.53333333, "st_areashape": 31363.87350204, "st_lengthshape": 628.0581775956349}, "geometry": {"type": "Polygon", "coordinates": [[[91.43651114163235, 25.399950140739193], [91.43642169817616, 25.399946108493847], [91.43633314405209, 25.399934050708033], [91.43624635871079, 25.399914089101408], [91.43616220453497, 25.399886420048382], [91.43608151875448, 25.399851320258605], [91.43600510266651, 25.39980913703961], [91.4359337153475, 25.399760289919865], [91.43586806736485, 25.399705265780394], [91.43580881089545, 25.39964460992889], [91.4357565334375, 25.399578925288516], [91.43571175601384, 25.39950886590651], [91.43567492329056, 25.399435126405297], [91.43564640178032, 25.39935844035991], [91.43562647355404, 25.399279570560335], [91.43561533803779, 25.399199300085613], [91.4356131057243, 25.39911842662352], [91.43561979817318, 25.39903775435585], [91.43563534890906, 25.398958085032092], [91.43565960432002, 25.398880209854433], [91.43569232186101, 25.39880490379735], [91.43573317813843, 25.398732914246494], [91.43578176531722, 25.398664956940987], [91.43583760190033, 25.39860170785827], [91.43590013183062, 25.398543795098735], [91.43596873527055, 25.398491794016504], [91.43604272860217, 25.398446222350096], [91.43612137700362, 25.398407532107022], [91.43620389983889, 25.39837610794057], [91.4362894760478, 25.39835226309193], [91.43637725492579, 25.398336232898007], [91.43646636420871, 25.398328178037186], [91.436555919056, 25.398328178037186], [91.43664502833894, 25.398336232898007], [91.43673280721693, 25.39835226309193], [91.43681838342583, 25.39837610794057], [91.43690090626109, 25.398407532107022], [91.43697955466253, 25.398446222350096], [91.43705354799418, 25.398491794016504], [91.43712215143412, 25.398543795098735], [91.43718468136441, 25.39860170785827], [91.43724051794753, 25.398664956940987], [91.43728910512628, 25.398732914246494], [91.43732996140373, 25.39880490379735], [91.43736267894468, 25.398880209854433], [91.43738693435567, 25.398958085032092], [91.43740248509157, 25.39903775435585], [91.43740917754045, 25.39911842662352], [91.43740694522695, 25.399199300085613], [91.43739580971067, 25.399279570560335], [91.43737588148441, 25.39935844035991], [91.43734735997415, 25.399435126405297], [91.43731052725086, 25.39950886590651], [91.4372657498272, 25.399578925288516], [91.43721347236925, 25.39964460992889], [91.43715421589985, 25.399705265780394], [91.4370885679172, 25.399760289919865], [91.43701718059823, 25.39980913703961], [91.43694076451027, 25.399851320258605], [91.43686007872974, 25.399886420048382], [91.43677592455394, 25.399914089101408], [91.43668913921266, 25.399934050708033], [91.43660058508858, 25.399946108493847], [91.43651114163235, 25.399950140739193]]]}}]}