{"type": "FeatureCollection", "features": [{"type": "Feature", "properties": {"premiumdata.sde.IN_Village_PCA.area": 2.06682112, "objectid": 464502, "id": "21365286549648", "name": "Batduma", "subdistrict": "Rairangpur", "district": "Mayurbhanj", "state": "Odisha", "country": "India", "censusname": "Batduma", "villagename_locallang": null, "lgd_villagename": "Batduma", "lgd_villagecode": 388292, "lgd_subdistrictcode": 2865, "lgd_districtcode": 365, "lgd_statecode": 21, "censuscode2001": "00815600", "censuscode2011": "388292", "censuscode2021": null, "level": "Village", "tru": "Rural", "no_hh": 111, "tot_p": 434, "tot_m": 202, "tot_f": 232, "per_tot_m": 46.5437788, "per_tot_f": 53.4562212, "p_06": 76, "m_06": 31, "f_06": 45, "per_p_06": 17.51152074, "per_m_06": 40.78947368, "per_f_06": 59.21052632000001, "p_sc": 0, "m_sc": 0, "f_sc": 0, "per_p_sc": 0.0, "per_m_sc": 0.0, "per_f_sc": 0.0, "p_st": 434, "m_st": 202, "f_st": 232, "per_p_st": 100.0, "per_m_st": 46.5437788, "per_f_st": 53.4562212, "p_lit": 163, "m_lit": 113, "f_lit": 50, "per_p_lit": 37.55760369, "per_m_lit": 69.32515337000001, "per_f_lit": 30.67484663, "p_ill": 271, "m_ill": 89, "f_ill": 182, "per_p_ill": 62.44239631000001, "per_m_ill": 32.84132841, "per_f_ill": 67.15867159000001, "tot_work_p": 236, "tot_work_m": 106, "tot_work_f": 130, "per_tot_work_p": 54.37788018, "per_tot_work_m": 44.91525424, "per_tot_work_f": 55.08474576, "mainwork_p": 104, "mainwork_m": 103, "mainwork_f": 1, "per_mainwork_p": 23.96313364, "per_mainwork_m": 99.03846154, "per_mainwork_f": 0.96153846, "main_cl_p": 102, "main_cl_m": 102, "main_cl_f": 0, "per_main_cl_p": 98.07692308, "per_main_cl_m": 100.0, "per_main_cl_f": 0.0, "main_al_p": 1, "main_al_m": 1, "main_al_f": 0, "per_main_al_p": 0.96153846, "per_main_al_m": 100.0, "per_main_al_f": 0.0, "main_hh_p": 0, "main_hh_m": 0, "main_hh_f": 0, "per_main_hh_p": 0.0, "per_main_hh_m": 0.0, "per_main_hh_f": 0.0, "main_ot_p": 1, "main_ot_m": 0, "main_ot_f": 1, "per_main_ot_p": 0.96153846, "per_main_ot_m": 0.0, "per_main_ot_f": 100.0, "margwork_p": 132, "margwork_m": 3, "margwork_f": 129, "per_margwork_p": 30.41474654, "per_margwork_m": 2.27272727, "per_margwork_f": 97.72727273, "marg_cl_p": 0, "marg_cl_m": 0, "marg_cl_f": 0, "per_marg_cl_p": 0.0, "per_marg_cl_m": 0.0, "per_marg_cl_f": 0.0, "marg_al_p": 131, "marg_al_m": 2, "marg_al_f": 129, "per_marg_al_p": 99.24242424, "per_marg_al_m": 1.52671756, "per_marg_al_f": 98.47328244, "marg_hh_p": 0, "marg_hh_m": 0, "marg_hh_f": 0, "per_marg_hh_p": 0.0, "per_marg_hh_m": 0.0, "per_marg_hh_f": 0.0, "marg_ot_p": 1, "marg_ot_m": 1, "marg_ot_f": 0, "per_marg_ot_p": 0.75757576, "per_marg_ot_m": 100.0, "per_marg_ot_f": 0.0, "margwork_3_6_p": 132, "margwork_3_6_m": 3, "margwork_3_6_f": 129, "per_margwork_3_6_p": 100.0, "per_margwork_3_6_m": 2.27272727, "per_margwork_3_6_f": 97.72727273, "marg_cl_3_6_p": 0, "marg_cl_3_6_m": 0, "marg_cl_3_6_f": 0, "per_marg_cl_3_6_p": 0.0, "per_marg_cl_3_6_m": 0.0, "per_marg_cl_3_6_f": 0.0, "marg_al_3_6_p": 131, "marg_al_3_6_m": 2, "marg_al_3_6_f": 129, "per_marg_al_3_6_p": 99.24242424, "per_marg_al_3_6_m": 1.52671756, "per_marg_al_3_6_f": 98.47328244, "marg_hh_3_6_p": 0, "marg_hh_3_6_m": 0, "marg_hh_3_6_f": 0, "per_marg_hh_3_6_p": 0.0, "per_marg_hh_3_6_m": 0.0, "per_marg_hh_3_6_f": 0.0, "marg_ot_3_6_p": 1, "marg_ot_3_6_m": 1, "marg_ot_3_6_f": 0, "per_marg_ot_3_6_p": 0.75757576, "per_marg_ot_3_6_m": 100.0, "per_marg_ot_3_6_f": 0.0, "margwork_0_3_p": 0, "margwork_0_3_m": 0, "margwork_0_3_f": 0, "per_margwork_0_3_p": 0.0, "per_margwork_0_3_m": 0.0, "per_margwork_0_3_f": 0.0, "marg_cl_0_3_p": 0, "marg_cl_0_3_m": 0, "marg_cl_0_3_f": 0, "per_marg_cl_0_3_p": 0.0, "per_marg_cl_0_3_m": 0.0, "per_marg_cl_0_3_f": 0.0, "marg_al_0_3_p": 0, "marg_al_0_3_m": 0, "marg_al_0_3_f": 0, "per_marg_al_0_3_p": 0.0, "per_marg_al_0_3_m": 0.0, "per_marg_al_0_3_f": 0.0, "marg_hh_0_3_p": 0, "marg_hh_0_3_m": 0, "marg_hh_0_3_f": 0, "per_marg_hh_0_3_p": 0.0, "per_marg_hh_0_3_m": 0.0, "per_marg_hh_0_3_f": 0.0, "marg_ot_0_3_p": 0, "marg_ot_0_3_m": 0, "marg_ot_0_3_f": 0, "per_marg_ot_0_3_p": 0.0, "per_marg_ot_0_3_m": 0.0, "per_marg_ot_0_3_f": 0.0, "non_work_p": 198, "non_work_m": 96, "non_work_f": 102, "per_non_work_p": 45.62211982, "per_non_work_m": 48.48484848, "per_non_work_f": 51.51515152, "per_hc_tot_tot": 100, "per_hc_tot_god": 1.7, "per_hc_tot_liv": 97.5, "per_hc_tot_dil": 0.8, "per_hc_res_tot": 100.0, "per_hc_res_god": 1.7, "per_hc_res_liv": 97.5, "per_hc_res_dil": 0.8, "per_hc_oth_tot": 0.0, "per_hc_oth_god": 0.0, "per_hc_oth_liv": 0.0, "per_hc_oth_dil": 0.0, "per_mt_grsbam": 65.0, "per_mt_plastic": 0.0, "per_mt_h_tiles": 26.7, "per_mt_m_tiles": 0.8, "per_mt_b_brick": 0.0, "per_mt_stone": 0.0, "per_mt_asbstos": 7.5, "per_mt_concrte": 0.0, "per_mt_oth": 0.0, "per_mw_grsbam": 0.0, "per_mw_plastic": 0.0, "per_mw_mud": 92.5, "per_mw_wood": 0.0, "per_mw_no_mrtr": 0.0, "per_mw_st_mrtr": 0.0, "per_mw_asbstos": 0.0, "per_mw_b_brick": 7.5, "per_mw_concrte": 0.0, "per_mw_oth": 0.0, "per_mf_mud": 100.0, "per_mf_wood": 0.0, "per_mf_b_brick": 0.0, "per_mf_stone": 0.0, "per_mf_cement": 0.0, "per_mf_fl_tile": 0.0, "per_mf_oth": 0.0, "per_dw_n_exrm": 12.5, "per_dw_1_room": 67.5, "per_dw_2_room": 19.2, "per_dw_3_room": 0.8, "per_dw_4_room": 0.0, "per_dw_5_room": 0.0, "per_dw_6_room": 0.0, "per_hhsize_1": 5.0, "per_hhsize_2": 9.2, "per_hhsize_3": 10.8, "per_hhsize_4": 18.3, "per_hhsize_5": 20.8, "per_hhsize_6_8": 28.3, "per_hhsize_9p": 7.5, "per_ow_owned": 100.0, "per_ow_rented": 0.0, "per_ow_oth": 0.0, "per_mc_none": 30.8, "per_mcouple_1": 51.7, "per_mcouple_2": 15.0, "per_mcouple_3": 2.5, "per_mcouple_4": 0.0, "per_mcouple_5p": 0.0, "per_dw_t_ts": 0.0, "per_dw_t_unts": 0.0, "per_dw_c_well": 0.0, "per_dw_unc_wel": 40.0, "per_dw_hpump": 60.0, "per_dw_tw_bore": 0.0, "per_dw_spring": 0.0, "per_dw_rivcan": 0.0, "per_dw_tank": 0.0, "per_dw_oth": 0.0, "per_loc_dw_wp": 0.0, "per_loc_dw_np": 15.8, "per_loc_dw_aw": 84.2, "per_light_elec": 0.0, "per_light_kero": 100.0, "per_light_solr": 0.0, "per_light_oil": 0.0, "per_light_oth": 0.0, "per_light_no": 0.0, "per_hh_latrine": 0.0, "per_fl_sewer": 0.0, "per_fl_septict": 0.0, "per_fl_othsys": 0.0, "per_pl_wslab": 0.0, "per_pl_without": 0.0, "per_ns_open": 0.0, "per_sl_ns_hum": 0.0, "per_sl_ns_anml": 0.0, "per_hh_no_lat": 100.0, "per_as_pub": 0.0, "per_as_open": 100.0, "per_hh_bathrm": 0.0, "per_hh_en_wrf": 0.0, "per_hh_no_btrm": 100.0, "per_wwoc_drain": 0.0, "per_wwoc_open": 0.0, "per_wwoc_nodrn": 100.0, "per_cook_fire": 100.0, "per_cook_resdu": 0.0, "per_cook_cwdng": 0.0, "per_cook_coal": 0.0, "per_cook_kero": 0.0, "per_cook_lpng": 0.0, "per_cook_elec": 0.0, "per_cook_biogs": 0.0, "per_cook_oth": 0.0, "per_cook_no": 0.0, "per_kf_inside": 92.5, "per_kf_in_has": 92.5, "per_kf_in_does": 0.0, "per_kf_outside": 7.5, "per_kf_out_has": 0.0, "per_kf_out_dos": 7.5, "per_kf_no_cook": 0.0, "per_hh_banking": 9.2, "per_hh_radio": 0.0, "per_hh_tv": 0.0, "per_hh_cmp_int": 0.0, "per_hh_cmp_wnt": 0.0, "per_hh_ph_ll": 0.0, "per_hh_ph_mob": 0.0, "per_hh_ph_bth": 0.0, "per_hh_bcycl": 85.8, "per_hh_2wheel": 0.8, "per_hh_4wheel": 0.0, "per_hh_tvcomp": 0.0, "per_hh_no_ast": 14.2, "per_hs_perma": 6.7, "per_hs_sperma": 29.2, "per_hs_temp": 64.2, "per_hs_servc": 64.2, "per_hs_nservc": 0.0, "per_hs_unclss": 0.0, "avghhsz_cy": 3.90990991, "st_areashape": 2421221.81360148, "st_lengthshape": 5986.10332447801}, "geometry": {"type": "Polygon", "coordinates": [[[86.29205949422506, 22.161092485685394], [86.29183394522352, 22.16217482870873], [86.29130363916856, 22.16287445412868], [86.29086881324855, 22.16380756629968], [86.29033857905884, 22.16444498571819], [86.28993956178267, 22.165332927880034], [86.28911551381634, 22.16607581930284], [86.2887049289343, 22.16679911175352], [86.28747109738313, 22.16631846984552], [86.28620006479943, 22.16615533462585], [86.28499436938128, 22.166191183892366], [86.28450316788897, 22.166017266779196], [86.28404146527399, 22.16599646782414], [86.28318274772758, 22.16623958271704], [86.28200798220297, 22.16605997280374], [86.28143857517867, 22.165891047082077], [86.28130924921878, 22.165140818724264], [86.28106611210231, 22.164389607177654], [86.28049440718748, 22.163164593277287], [86.28038322539972, 22.162431579980673], [86.28015774916172, 22.161720455637514], [86.27891144540116, 22.15970704501231], [86.27812191699627, 22.159030866119657], [86.27835854402187, 22.15831197311728], [86.27853093611479, 22.157075860954457], [86.27856355304446, 22.156298452976547], [86.27890752605158, 22.155693693695287], [86.28017693807452, 22.154557139764464], [86.28082251415007, 22.15352924321616], [86.28161871703752, 22.15222435866737], [86.28276108661804, 22.151387653904774], [86.28395049108852, 22.150812335165543], [86.28471846531649, 22.150750182815838], [86.285138750207, 22.150634388724274], [86.28521714169024, 22.150470335075276], [86.28644195595261, 22.15005422705001], [86.28800181935804, 22.149890473084067], [86.28889477080159, 22.15014708702498], [86.28930048142493, 22.150746387994715], [86.28958983237122, 22.151980163735974], [86.2905513342541, 22.15314579528526], [86.29181574715248, 22.15350746065609], [86.2933728769845, 22.154149586747927], [86.29327498577138, 22.15465954637321], [86.29316324792644, 22.155748761168518], [86.29326775074006, 22.156805016162227], [86.29292573965353, 22.158556307647025], [86.29205949422506, 22.161092485685394]]]}}]}