{"type": "FeatureCollection", "features": [{"type": "Feature", "properties": {"premiumdata.sde.IN_Village_PCA.area": 2.57646926, "objectid": 132085, "id": "274734065645646", "name": "Pandharwani", "subdistrict": "Chimur", "district": "Chandrapur", "state": "Maharashtra", "country": "India", "censusname": "Pandharwani", "villagename_locallang": null, "lgd_villagename": "Pandharwani", "lgd_villagecode": 540511, "lgd_subdistrictcode": 4065, "lgd_districtcode": 473, "lgd_statecode": 27, "censuscode2001": "01547200", "censuscode2011": "540511", "censuscode2021": null, "level": "Village", "tru": "Rural", "no_hh": 97, "tot_p": 359, "tot_m": 176, "tot_f": 183, "per_tot_m": 49.02506964, "per_tot_f": 50.97493036, "p_06": 46, "m_06": 18, "f_06": 28, "per_p_06": 12.81337047, "per_m_06": 39.13043478, "per_f_06": 60.86956522000001, "p_sc": 47, "m_sc": 25, "f_sc": 22, "per_p_sc": 13.09192201, "per_m_sc": 53.19148936, "per_f_sc": 46.80851064, "p_st": 266, "m_st": 128, "f_st": 138, "per_p_st": 74.09470752, "per_m_st": 48.12030075, "per_f_st": 51.87969925, "p_lit": 215, "m_lit": 118, "f_lit": 97, "per_p_lit": 59.88857939, "per_m_lit": 54.88372093, "per_f_lit": 45.11627907, "p_ill": 144, "m_ill": 58, "f_ill": 86, "per_p_ill": 40.11142061, "per_m_ill": 40.27777778, "per_f_ill": 59.72222222, "tot_work_p": 244, "tot_work_m": 126, "tot_work_f": 118, "per_tot_work_p": 67.96657382, "per_tot_work_m": 51.63934426, "per_tot_work_f": 48.36065574, "mainwork_p": 188, "mainwork_m": 95, "mainwork_f": 93, "per_mainwork_p": 52.36768802, "per_mainwork_m": 50.53191489, "per_mainwork_f": 49.46808511, "main_cl_p": 94, "main_cl_m": 47, "main_cl_f": 47, "per_main_cl_p": 50.0, "per_main_cl_m": 50.0, "per_main_cl_f": 50.0, "main_al_p": 87, "main_al_m": 43, "main_al_f": 44, "per_main_al_p": 46.27659574, "per_main_al_m": 49.42528736, "per_main_al_f": 50.57471264, "main_hh_p": 1, "main_hh_m": 1, "main_hh_f": 0, "per_main_hh_p": 0.53191489, "per_main_hh_m": 100.0, "per_main_hh_f": 0.0, "main_ot_p": 6, "main_ot_m": 4, "main_ot_f": 2, "per_main_ot_p": 3.19148936, "per_main_ot_m": 66.66666667, "per_main_ot_f": 33.33333333, "margwork_p": 56, "margwork_m": 31, "margwork_f": 25, "per_margwork_p": 15.59888579, "per_margwork_m": 55.35714286, "per_margwork_f": 44.64285714, "marg_cl_p": 24, "marg_cl_m": 13, "marg_cl_f": 11, "per_marg_cl_p": 42.85714286, "per_marg_cl_m": 54.16666667000001, "per_marg_cl_f": 45.83333333, "marg_al_p": 31, "marg_al_m": 17, "marg_al_f": 14, "per_marg_al_p": 55.35714286, "per_marg_al_m": 54.83870968, "per_marg_al_f": 45.16129032, "marg_hh_p": 0, "marg_hh_m": 0, "marg_hh_f": 0, "per_marg_hh_p": 0.0, "per_marg_hh_m": 0.0, "per_marg_hh_f": 0.0, "marg_ot_p": 1, "marg_ot_m": 1, "marg_ot_f": 0, "per_marg_ot_p": 1.78571429, "per_marg_ot_m": 100.0, "per_marg_ot_f": 0.0, "margwork_3_6_p": 51, "margwork_3_6_m": 29, "margwork_3_6_f": 22, "per_margwork_3_6_p": 91.07142857, "per_margwork_3_6_m": 56.8627451, "per_margwork_3_6_f": 43.1372549, "marg_cl_3_6_p": 22, "marg_cl_3_6_m": 13, "marg_cl_3_6_f": 9, "per_marg_cl_3_6_p": 39.28571429, "per_marg_cl_3_6_m": 59.09090909, "per_marg_cl_3_6_f": 40.90909091, "marg_al_3_6_p": 28, "marg_al_3_6_m": 15, "marg_al_3_6_f": 13, "per_marg_al_3_6_p": 50.0, "per_marg_al_3_6_m": 53.57142857, "per_marg_al_3_6_f": 46.42857143, "marg_hh_3_6_p": 0, "marg_hh_3_6_m": 0, "marg_hh_3_6_f": 0, "per_marg_hh_3_6_p": 0.0, "per_marg_hh_3_6_m": 0.0, "per_marg_hh_3_6_f": 0.0, "marg_ot_3_6_p": 1, "marg_ot_3_6_m": 1, "marg_ot_3_6_f": 0, "per_marg_ot_3_6_p": 1.78571429, "per_marg_ot_3_6_m": 100.0, "per_marg_ot_3_6_f": 0.0, "margwork_0_3_p": 5, "margwork_0_3_m": 2, "margwork_0_3_f": 3, "per_margwork_0_3_p": 8.92857143, "per_margwork_0_3_m": 40.0, "per_margwork_0_3_f": 60.0, "marg_cl_0_3_p": 2, "marg_cl_0_3_m": 0, "marg_cl_0_3_f": 2, "per_marg_cl_0_3_p": 3.57142857, "per_marg_cl_0_3_m": 0.0, "per_marg_cl_0_3_f": 100.0, "marg_al_0_3_p": 3, "marg_al_0_3_m": 2, "marg_al_0_3_f": 1, "per_marg_al_0_3_p": 5.35714286, "per_marg_al_0_3_m": 66.66666667, "per_marg_al_0_3_f": 33.33333333, "marg_hh_0_3_p": 0, "marg_hh_0_3_m": 0, "marg_hh_0_3_f": 0, "per_marg_hh_0_3_p": 0.0, "per_marg_hh_0_3_m": 0.0, "per_marg_hh_0_3_f": 0.0, "marg_ot_0_3_p": 0, "marg_ot_0_3_m": 0, "marg_ot_0_3_f": 0, "per_marg_ot_0_3_p": 0.0, "per_marg_ot_0_3_m": 0.0, "per_marg_ot_0_3_f": 0.0, "non_work_p": 115, "non_work_m": 50, "non_work_f": 65, "per_non_work_p": 32.03342618, "per_non_work_m": 43.47826087, "per_non_work_f": 56.52173913, "per_hc_tot_tot": 100, "per_hc_tot_god": 29.3, "per_hc_tot_liv": 39.4, "per_hc_tot_dil": 31.3, "per_hc_res_tot": 99.0, "per_hc_res_god": 28.3, "per_hc_res_liv": 39.4, "per_hc_res_dil": 31.3, "per_hc_oth_tot": 1.0, "per_hc_oth_god": 1.0, "per_hc_oth_liv": 0.0, "per_hc_oth_dil": 0.0, "per_mt_grsbam": 6.1, "per_mt_plastic": 0.0, "per_mt_h_tiles": 21.2, "per_mt_m_tiles": 56.6, "per_mt_b_brick": 0.0, "per_mt_stone": 3.0, "per_mt_asbstos": 4.0, "per_mt_concrte": 9.1, "per_mt_oth": 0.0, "per_mw_grsbam": 6.1, "per_mw_plastic": 0.0, "per_mw_mud": 90.9, "per_mw_wood": 0.0, "per_mw_no_mrtr": 2.0, "per_mw_st_mrtr": 1.0, "per_mw_asbstos": 0.0, "per_mw_b_brick": 0.0, "per_mw_concrte": 0.0, "per_mw_oth": 0.0, "per_mf_mud": 85.9, "per_mf_wood": 0.0, "per_mf_b_brick": 0.0, "per_mf_stone": 0.0, "per_mf_cement": 14.1, "per_mf_fl_tile": 0.0, "per_mf_oth": 0.0, "per_dw_n_exrm": 0.0, "per_dw_1_room": 11.1, "per_dw_2_room": 64.6, "per_dw_3_room": 23.2, "per_dw_4_room": 0.0, "per_dw_5_room": 1.0, "per_dw_6_room": 0.0, "per_hhsize_1": 6.1, "per_hhsize_2": 14.1, "per_hhsize_3": 13.1, "per_hhsize_4": 29.3, "per_hhsize_5": 26.3, "per_hhsize_6_8": 10.1, "per_hhsize_9p": 1.0, "per_ow_owned": 99.0, "per_ow_rented": 1.0, "per_ow_oth": 0.0, "per_mc_none": 12.1, "per_mcouple_1": 76.8, "per_mcouple_2": 11.1, "per_mcouple_3": 0.0, "per_mcouple_4": 0.0, "per_mcouple_5p": 0.0, "per_dw_t_ts": 0.0, "per_dw_t_unts": 0.0, "per_dw_c_well": 0.0, "per_dw_unc_wel": 11.1, "per_dw_hpump": 82.8, "per_dw_tw_bore": 6.1, "per_dw_spring": 0.0, "per_dw_rivcan": 0.0, "per_dw_tank": 0.0, "per_dw_oth": 0.0, "per_loc_dw_wp": 2.0, "per_loc_dw_np": 77.8, "per_loc_dw_aw": 20.2, "per_light_elec": 71.7, "per_light_kero": 28.3, "per_light_solr": 0.0, "per_light_oil": 0.0, "per_light_oth": 0.0, "per_light_no": 0.0, "per_hh_latrine": 11.1, "per_fl_sewer": 0.0, "per_fl_septict": 0.0, "per_fl_othsys": 0.0, "per_pl_wslab": 11.1, "per_pl_without": 0.0, "per_ns_open": 0.0, "per_sl_ns_hum": 0.0, "per_sl_ns_anml": 0.0, "per_hh_no_lat": 88.9, "per_as_pub": 0.0, "per_as_open": 88.9, "per_hh_bathrm": 43.4, "per_hh_en_wrf": 44.4, "per_hh_no_btrm": 12.1, "per_wwoc_drain": 9.1, "per_wwoc_open": 81.8, "per_wwoc_nodrn": 9.1, "per_cook_fire": 81.8, "per_cook_resdu": 1.0, "per_cook_cwdng": 15.2, "per_cook_coal": 0.0, "per_cook_kero": 0.0, "per_cook_lpng": 2.0, "per_cook_elec": 0.0, "per_cook_biogs": 0.0, "per_cook_oth": 0.0, "per_cook_no": 0.0, "per_kf_inside": 100.0, "per_kf_in_has": 93.9, "per_kf_in_does": 6.1, "per_kf_outside": 0.0, "per_kf_out_has": 0.0, "per_kf_out_dos": 0.0, "per_kf_no_cook": 0.0, "per_hh_banking": 19.2, "per_hh_radio": 1.0, "per_hh_tv": 15.2, "per_hh_cmp_int": 1.0, "per_hh_cmp_wnt": 0.0, "per_hh_ph_ll": 3.0, "per_hh_ph_mob": 15.2, "per_hh_ph_bth": 0.0, "per_hh_bcycl": 54.5, "per_hh_2wheel": 8.1, "per_hh_4wheel": 0.0, "per_hh_tvcomp": 0.0, "per_hh_no_ast": 39.4, "per_hs_perma": 3.0, "per_hs_sperma": 90.9, "per_hs_temp": 6.1, "per_hs_servc": 1.0, "per_hs_nservc": 5.1, "per_hs_unclss": 0.0, "avghhsz_cy": 3.70103093, "st_areashape": 2950265.10846396, "st_lengthshape": 6830.76621909575}, "geometry": {"type": "Polygon", "coordinates": [[[79.46834724054037, 20.460057379063297], [79.4698740782827, 20.464296823854998], [79.47056300795217, 20.465433338685123], [79.47107355286748, 20.46753266957945], [79.47088877300682, 20.46978248312631], [79.47087313064277, 20.472999653118176], [79.46178613794461, 20.472966363769807], [79.45556283962496, 20.47229696996195], [79.454530269325, 20.471321062644645], [79.4545396216854, 20.46959224770151], [79.45537807773059, 20.468067695510875], [79.45559608088371, 20.466149418914], [79.45540235470114, 20.463648281408034], [79.45437565848484, 20.46171124841942], [79.45397156482899, 20.459783227766103], [79.45439089930191, 20.45817716645951], [79.45521745805945, 20.458765924153344], [79.45957934290585, 20.45786812676699], [79.46435362902783, 20.457360417591225], [79.46575736793184, 20.457283744795088], [79.46644754536128, 20.458098487561333], [79.46834724054037, 20.460057379063297]]]}}]}