{"type": "FeatureCollection", "features": [{"type": "Feature", "properties": {"premiumdata.sde.IN_Village_PCA.area": 2.4938462, "objectid": 319182, "id": "9166775393594", "name": "Siroliya", "subdistrict": "Mainpuri", "district": "Mainpuri", "state": "Uttar Pradesh", "country": "India", "censusname": "Siroliya", "villagename_locallang": null, "lgd_villagename": "Siroliya", "lgd_villagecode": 126432, "lgd_subdistrictcode": 775, "lgd_districtcode": 166, "lgd_statecode": 9, "censuscode2001": "01920900", "censuscode2011": "126432", "censuscode2021": null, "level": "Village", "tru": "Rural", "no_hh": 189, "tot_p": 1170, "tot_m": 643, "tot_f": 527, "per_tot_m": 54.95726496, "per_tot_f": 45.04273504, "p_06": 183, "m_06": 87, "f_06": 96, "per_p_06": 15.64102564, "per_m_06": 47.54098361, "per_f_06": 52.45901639, "p_sc": 371, "m_sc": 194, "f_sc": 177, "per_p_sc": 31.70940171, "per_m_sc": 52.29110512, "per_f_sc": 47.70889488, "p_st": 0, "m_st": 0, "f_st": 0, "per_p_st": 0.0, "per_m_st": 0.0, "per_f_st": 0.0, "p_lit": 727, "m_lit": 470, "f_lit": 257, "per_p_lit": 62.13675214, "per_m_lit": 64.64924346999999, "per_f_lit": 35.35075653000001, "p_ill": 443, "m_ill": 173, "f_ill": 270, "per_p_ill": 37.86324786, "per_m_ill": 39.05191874, "per_f_ill": 60.94808126, "tot_work_p": 364, "tot_work_m": 344, "tot_work_f": 20, "per_tot_work_p": 31.11111111, "per_tot_work_m": 94.50549451, "per_tot_work_f": 5.49450549, "mainwork_p": 335, "mainwork_m": 321, "mainwork_f": 14, "per_mainwork_p": 28.63247863, "per_mainwork_m": 95.82089552000001, "per_mainwork_f": 4.17910448, "main_cl_p": 60, "main_cl_m": 60, "main_cl_f": 0, "per_main_cl_p": 17.91044776, "per_main_cl_m": 100.0, "per_main_cl_f": 0.0, "main_al_p": 258, "main_al_m": 248, "main_al_f": 10, "per_main_al_p": 77.01492537, "per_main_al_m": 96.12403101, "per_main_al_f": 3.87596899, "main_hh_p": 4, "main_hh_m": 1, "main_hh_f": 3, "per_main_hh_p": 1.19402985, "per_main_hh_m": 25.0, "per_main_hh_f": 75.0, "main_ot_p": 13, "main_ot_m": 12, "main_ot_f": 1, "per_main_ot_p": 3.88059701, "per_main_ot_m": 92.30769231, "per_main_ot_f": 7.69230769, "margwork_p": 29, "margwork_m": 23, "margwork_f": 6, "per_margwork_p": 2.47863248, "per_margwork_m": 79.31034483, "per_margwork_f": 20.68965517, "marg_cl_p": 12, "marg_cl_m": 12, "marg_cl_f": 0, "per_marg_cl_p": 41.37931034, "per_marg_cl_m": 100.0, "per_marg_cl_f": 0.0, "marg_al_p": 11, "marg_al_m": 9, "marg_al_f": 2, "per_marg_al_p": 37.93103448, "per_marg_al_m": 81.81818182, "per_marg_al_f": 18.18181818, "marg_hh_p": 1, "marg_hh_m": 0, "marg_hh_f": 1, "per_marg_hh_p": 3.44827586, "per_marg_hh_m": 0.0, "per_marg_hh_f": 100.0, "marg_ot_p": 5, "marg_ot_m": 2, "marg_ot_f": 3, "per_marg_ot_p": 17.24137931, "per_marg_ot_m": 40.0, "per_marg_ot_f": 60.0, "margwork_3_6_p": 29, "margwork_3_6_m": 23, "margwork_3_6_f": 6, "per_margwork_3_6_p": 100.0, "per_margwork_3_6_m": 79.31034483, "per_margwork_3_6_f": 20.68965517, "marg_cl_3_6_p": 12, "marg_cl_3_6_m": 12, "marg_cl_3_6_f": 0, "per_marg_cl_3_6_p": 41.37931034, "per_marg_cl_3_6_m": 100.0, "per_marg_cl_3_6_f": 0.0, "marg_al_3_6_p": 11, "marg_al_3_6_m": 9, "marg_al_3_6_f": 2, "per_marg_al_3_6_p": 37.93103448, "per_marg_al_3_6_m": 81.81818182, "per_marg_al_3_6_f": 18.18181818, "marg_hh_3_6_p": 1, "marg_hh_3_6_m": 0, "marg_hh_3_6_f": 1, "per_marg_hh_3_6_p": 3.44827586, "per_marg_hh_3_6_m": 0.0, "per_marg_hh_3_6_f": 100.0, "marg_ot_3_6_p": 5, "marg_ot_3_6_m": 2, "marg_ot_3_6_f": 3, "per_marg_ot_3_6_p": 17.24137931, "per_marg_ot_3_6_m": 40.0, "per_marg_ot_3_6_f": 60.0, "margwork_0_3_p": 0, "margwork_0_3_m": 0, "margwork_0_3_f": 0, "per_margwork_0_3_p": 0.0, "per_margwork_0_3_m": 0.0, "per_margwork_0_3_f": 0.0, "marg_cl_0_3_p": 0, "marg_cl_0_3_m": 0, "marg_cl_0_3_f": 0, "per_marg_cl_0_3_p": 0.0, "per_marg_cl_0_3_m": 0.0, "per_marg_cl_0_3_f": 0.0, "marg_al_0_3_p": 0, "marg_al_0_3_m": 0, "marg_al_0_3_f": 0, "per_marg_al_0_3_p": 0.0, "per_marg_al_0_3_m": 0.0, "per_marg_al_0_3_f": 0.0, "marg_hh_0_3_p": 0, "marg_hh_0_3_m": 0, "marg_hh_0_3_f": 0, "per_marg_hh_0_3_p": 0.0, "per_marg_hh_0_3_m": 0.0, "per_marg_hh_0_3_f": 0.0, "marg_ot_0_3_p": 0, "marg_ot_0_3_m": 0, "marg_ot_0_3_f": 0, "per_marg_ot_0_3_p": 0.0, "per_marg_ot_0_3_m": 0.0, "per_marg_ot_0_3_f": 0.0, "non_work_p": 806, "non_work_m": 299, "non_work_f": 507, "per_non_work_p": 68.88888889, "per_non_work_m": 37.09677419, "per_non_work_f": 62.90322581, "per_hc_tot_tot": 100, "per_hc_tot_god": 61.3, "per_hc_tot_liv": 38.7, "per_hc_tot_dil": 0.0, "per_hc_res_tot": 90.5, "per_hc_res_god": 60.3, "per_hc_res_liv": 30.2, "per_hc_res_dil": 0.0, "per_hc_oth_tot": 9.5, "per_hc_oth_god": 1.0, "per_hc_oth_liv": 8.5, "per_hc_oth_dil": 0.0, "per_mt_grsbam": 22.1, "per_mt_plastic": 0.0, "per_mt_h_tiles": 0.0, "per_mt_m_tiles": 0.0, "per_mt_b_brick": 53.3, "per_mt_stone": 4.5, "per_mt_asbstos": 0.0, "per_mt_concrte": 20.1, "per_mt_oth": 0.0, "per_mw_grsbam": 9.0, "per_mw_plastic": 0.0, "per_mw_mud": 8.5, "per_mw_wood": 0.0, "per_mw_no_mrtr": 0.0, "per_mw_st_mrtr": 0.0, "per_mw_asbstos": 0.0, "per_mw_b_brick": 79.9, "per_mw_concrte": 0.0, "per_mw_oth": 2.5, "per_mf_mud": 98.0, "per_mf_wood": 0.0, "per_mf_b_brick": 0.0, "per_mf_stone": 0.5, "per_mf_cement": 1.5, "per_mf_fl_tile": 0.0, "per_mf_oth": 0.0, "per_dw_n_exrm": 1.0, "per_dw_1_room": 47.2, "per_dw_2_room": 35.7, "per_dw_3_room": 11.1, "per_dw_4_room": 2.5, "per_dw_5_room": 1.5, "per_dw_6_room": 1.0, "per_hhsize_1": 2.0, "per_hhsize_2": 9.0, "per_hhsize_3": 5.5, "per_hhsize_4": 12.1, "per_hhsize_5": 17.6, "per_hhsize_6_8": 35.7, "per_hhsize_9p": 18.1, "per_ow_owned": 99.5, "per_ow_rented": 0.5, "per_ow_oth": 0.0, "per_mc_none": 5.5, "per_mcouple_1": 63.3, "per_mcouple_2": 22.1, "per_mcouple_3": 6.5, "per_mcouple_4": 2.5, "per_mcouple_5p": 0.0, "per_dw_t_ts": 4.5, "per_dw_t_unts": 29.1, "per_dw_c_well": 3.5, "per_dw_unc_wel": 0.5, "per_dw_hpump": 62.3, "per_dw_tw_bore": 0.0, "per_dw_spring": 0.0, "per_dw_rivcan": 0.0, "per_dw_tank": 0.0, "per_dw_oth": 0.0, "per_loc_dw_wp": 19.6, "per_loc_dw_np": 75.9, "per_loc_dw_aw": 4.5, "per_light_elec": 49.2, "per_light_kero": 48.2, "per_light_solr": 0.0, "per_light_oil": 0.0, "per_light_oth": 2.5, "per_light_no": 0.0, "per_hh_latrine": 12.6, "per_fl_sewer": 7.0, "per_fl_septict": 4.0, "per_fl_othsys": 1.0, "per_pl_wslab": 0.0, "per_pl_without": 0.5, "per_ns_open": 0.0, "per_sl_ns_hum": 0.0, "per_sl_ns_anml": 0.0, "per_hh_no_lat": 87.4, "per_as_pub": 0.0, "per_as_open": 87.4, "per_hh_bathrm": 15.1, "per_hh_en_wrf": 54.8, "per_hh_no_btrm": 30.2, "per_wwoc_drain": 3.0, "per_wwoc_open": 88.4, "per_wwoc_nodrn": 8.5, "per_cook_fire": 65.3, "per_cook_resdu": 28.6, "per_cook_cwdng": 6.0, "per_cook_coal": 0.0, "per_cook_kero": 0.0, "per_cook_lpng": 0.0, "per_cook_elec": 0.0, "per_cook_biogs": 0.0, "per_cook_oth": 0.0, "per_cook_no": 0.0, "per_kf_inside": 97.0, "per_kf_in_has": 37.2, "per_kf_in_does": 59.8, "per_kf_outside": 3.0, "per_kf_out_has": 2.0, "per_kf_out_dos": 1.0, "per_kf_no_cook": 0.0, "per_hh_banking": 48.7, "per_hh_radio": 31.2, "per_hh_tv": 9.5, "per_hh_cmp_int": 1.5, "per_hh_cmp_wnt": 5.0, "per_hh_ph_ll": 10.1, "per_hh_ph_mob": 77.9, "per_hh_ph_bth": 5.5, "per_hh_bcycl": 68.8, "per_hh_2wheel": 15.6, "per_hh_4wheel": 1.5, "per_hh_tvcomp": 0.5, "per_hh_no_ast": 1.0, "per_hs_perma": 74.9, "per_hs_sperma": 5.5, "per_hs_temp": 17.1, "per_hs_servc": 8.0, "per_hs_nservc": 9.0, "per_hs_unclss": 2.5, "avghhsz_cy": 6.19047619, "st_areashape": 3166865.526796375, "st_lengthshape": 7626.587015512684}, "geometry": {"type": "Polygon", "coordinates": [[[78.87747851008464, 27.223706642192624], [78.87791342493784, 27.22448267986453], [78.87868303230302, 27.225120047581914], [78.87899572058205, 27.22588299760353], [78.87947295686496, 27.227297777231357], [78.87989177929819, 27.22863028706455], [78.88000497600714, 27.228929766692566], [78.87990516239928, 27.229278923204028], [78.87968161933577, 27.229733503421617], [78.87957934254743, 27.23017715394907], [78.8797395714514, 27.230990942780952], [78.87984219858274, 27.231695471225812], [78.87969946616553, 27.233691641426763], [78.8795209538506, 27.234741529345776], [78.87926503640257, 27.235276537101168], [78.87842299158783, 27.23625850722613], [78.87768286782861, 27.236810451575654], [78.87672832788918, 27.237465923319032], [78.87638594759505, 27.237837028630317], [78.87612412641896, 27.23860148970733], [78.8761767856609, 27.238899705330258], [78.87620071498345, 27.239143359673033], [78.87597995939228, 27.239489972261687], [78.87434916411371, 27.240563607117657], [78.87350775620452, 27.24151860714722], [78.87224183503477, 27.242518767052278], [78.87168641747436, 27.242939376958528], [78.87110871540675, 27.243062419739093], [78.87068409524669, 27.243107578785462], [78.86925423962242, 27.244590540475198], [78.86763665945998, 27.246312704535335], [78.86668897366616, 27.247580905091827], [78.86661123525809, 27.247483382924337], [78.86611156355099, 27.246642244591666], [78.86523670687221, 27.24453707679785], [78.86498481118167, 27.24376188573099], [78.8645204235023, 27.24330643794517], [78.86413878144039, 27.24315663450894], [78.86389312904107, 27.24300967412864], [78.86376189416123, 27.242824582697622], [78.86379144963237, 27.242561792270177], [78.86381998731234, 27.242501373585487], [78.8641516084843, 27.24179941019569], [78.86416777276955, 27.241181777530826], [78.86383171841163, 27.23929046173578], [78.86358643881319, 27.236529798877577], [78.86345904962106, 27.235331705708454], [78.86347640417405, 27.23380233961518], [78.86373686350416, 27.233382292634186], [78.86391366722341, 27.233143976430984], [78.86413651319428, 27.23284358319641], [78.86540331471298, 27.232100140721524], [78.86774973579469, 27.23083216153436], [78.86934019402206, 27.229852303397855], [78.86966439870305, 27.229595673564003], [78.87012776948953, 27.229220374411277], [78.87069530981468, 27.2283305821758], [78.8717407439895, 27.226508592783162], [78.87265060442165, 27.22553474985486], [78.87266177497223, 27.225527095018926], [78.87371279217656, 27.224807224963673], [78.87451665769339, 27.224418743032075], [78.87561992450787, 27.22385416086006], [78.87644115984905, 27.223668654949858], [78.87700831210199, 27.223660219551544], [78.87747851008464, 27.223706642192624]]]}}]}