{"type": "FeatureCollection", "features": [{"type": "Feature", "properties": {"premiumdata.sde.IN_Village_PCA.area": 1.95217639, "objectid": 287561, "id": "234203438538796", "name": "Palhari", "subdistrict": "Gunnor", "district": "Panna", "state": "Madhya Pradesh", "country": "India", "censusname": "Palhari", "villagename_locallang": null, "lgd_villagename": "Palhari", "lgd_villagecode": 459029, "lgd_subdistrictcode": 3438, "lgd_districtcode": 420, "lgd_statecode": 23, "censuscode2001": "01001600", "censuscode2011": "459029", "censuscode2021": null, "level": "Village", "tru": "Rural", "no_hh": 104, "tot_p": 495, "tot_m": 256, "tot_f": 239, "per_tot_m": 51.71717172, "per_tot_f": 48.28282828, "p_06": 91, "m_06": 46, "f_06": 45, "per_p_06": 18.38383838, "per_m_06": 50.54945055, "per_f_06": 49.45054945, "p_sc": 0, "m_sc": 0, "f_sc": 0, "per_p_sc": 0.0, "per_m_sc": 0.0, "per_f_sc": 0.0, "p_st": 0, "m_st": 0, "f_st": 0, "per_p_st": 0.0, "per_m_st": 0.0, "per_f_st": 0.0, "p_lit": 314, "m_lit": 194, "f_lit": 120, "per_p_lit": 63.43434343, "per_m_lit": 61.78343949, "per_f_lit": 38.21656051, "p_ill": 181, "m_ill": 62, "f_ill": 119, "per_p_ill": 36.56565657, "per_m_ill": 34.25414365, "per_f_ill": 65.74585635, "tot_work_p": 139, "tot_work_m": 135, "tot_work_f": 4, "per_tot_work_p": 28.08080808, "per_tot_work_m": 97.12230216, "per_tot_work_f": 2.87769784, "mainwork_p": 138, "mainwork_m": 134, "mainwork_f": 4, "per_mainwork_p": 27.87878788, "per_mainwork_m": 97.10144928, "per_mainwork_f": 2.89855072, "main_cl_p": 134, "main_cl_m": 132, "main_cl_f": 2, "per_main_cl_p": 97.10144928, "per_main_cl_m": 98.50746269, "per_main_cl_f": 1.49253731, "main_al_p": 2, "main_al_m": 1, "main_al_f": 1, "per_main_al_p": 1.44927536, "per_main_al_m": 50.0, "per_main_al_f": 50.0, "main_hh_p": 0, "main_hh_m": 0, "main_hh_f": 0, "per_main_hh_p": 0.0, "per_main_hh_m": 0.0, "per_main_hh_f": 0.0, "main_ot_p": 2, "main_ot_m": 1, "main_ot_f": 1, "per_main_ot_p": 1.44927536, "per_main_ot_m": 50.0, "per_main_ot_f": 50.0, "margwork_p": 1, "margwork_m": 1, "margwork_f": 0, "per_margwork_p": 0.2020202, "per_margwork_m": 100.0, "per_margwork_f": 0.0, "marg_cl_p": 1, "marg_cl_m": 1, "marg_cl_f": 0, "per_marg_cl_p": 100.0, "per_marg_cl_m": 100.0, "per_marg_cl_f": 0.0, "marg_al_p": 0, "marg_al_m": 0, "marg_al_f": 0, "per_marg_al_p": 0.0, "per_marg_al_m": 0.0, "per_marg_al_f": 0.0, "marg_hh_p": 0, "marg_hh_m": 0, "marg_hh_f": 0, "per_marg_hh_p": 0.0, "per_marg_hh_m": 0.0, "per_marg_hh_f": 0.0, "marg_ot_p": 0, "marg_ot_m": 0, "marg_ot_f": 0, "per_marg_ot_p": 0.0, "per_marg_ot_m": 0.0, "per_marg_ot_f": 0.0, "margwork_3_6_p": 1, "margwork_3_6_m": 1, "margwork_3_6_f": 0, "per_margwork_3_6_p": 100.0, "per_margwork_3_6_m": 100.0, "per_margwork_3_6_f": 0.0, "marg_cl_3_6_p": 1, "marg_cl_3_6_m": 1, "marg_cl_3_6_f": 0, "per_marg_cl_3_6_p": 100.0, "per_marg_cl_3_6_m": 100.0, "per_marg_cl_3_6_f": 0.0, "marg_al_3_6_p": 0, "marg_al_3_6_m": 0, "marg_al_3_6_f": 0, "per_marg_al_3_6_p": 0.0, "per_marg_al_3_6_m": 0.0, "per_marg_al_3_6_f": 0.0, "marg_hh_3_6_p": 0, "marg_hh_3_6_m": 0, "marg_hh_3_6_f": 0, "per_marg_hh_3_6_p": 0.0, "per_marg_hh_3_6_m": 0.0, "per_marg_hh_3_6_f": 0.0, "marg_ot_3_6_p": 0, "marg_ot_3_6_m": 0, "marg_ot_3_6_f": 0, "per_marg_ot_3_6_p": 0.0, "per_marg_ot_3_6_m": 0.0, "per_marg_ot_3_6_f": 0.0, "margwork_0_3_p": 0, "margwork_0_3_m": 0, "margwork_0_3_f": 0, "per_margwork_0_3_p": 0.0, "per_margwork_0_3_m": 0.0, "per_margwork_0_3_f": 0.0, "marg_cl_0_3_p": 0, "marg_cl_0_3_m": 0, "marg_cl_0_3_f": 0, "per_marg_cl_0_3_p": 0.0, "per_marg_cl_0_3_m": 0.0, "per_marg_cl_0_3_f": 0.0, "marg_al_0_3_p": 0, "marg_al_0_3_m": 0, "marg_al_0_3_f": 0, "per_marg_al_0_3_p": 0.0, "per_marg_al_0_3_m": 0.0, "per_marg_al_0_3_f": 0.0, "marg_hh_0_3_p": 0, "marg_hh_0_3_m": 0, "marg_hh_0_3_f": 0, "per_marg_hh_0_3_p": 0.0, "per_marg_hh_0_3_m": 0.0, "per_marg_hh_0_3_f": 0.0, "marg_ot_0_3_p": 0, "marg_ot_0_3_m": 0, "marg_ot_0_3_f": 0, "per_marg_ot_0_3_p": 0.0, "per_marg_ot_0_3_m": 0.0, "per_marg_ot_0_3_f": 0.0, "non_work_p": 356, "non_work_m": 121, "non_work_f": 235, "per_non_work_p": 71.91919192, "per_non_work_m": 33.98876404, "per_non_work_f": 66.01123596000001, "per_hc_tot_tot": 100, "per_hc_tot_god": 86.4, "per_hc_tot_liv": 12.6, "per_hc_tot_dil": 1.0, "per_hc_res_tot": 100.0, "per_hc_res_god": 86.4, "per_hc_res_liv": 12.6, "per_hc_res_dil": 1.0, "per_hc_oth_tot": 0.0, "per_hc_oth_god": 0.0, "per_hc_oth_liv": 0.0, "per_hc_oth_dil": 0.0, "per_mt_grsbam": 0.0, "per_mt_plastic": 0.0, "per_mt_h_tiles": 76.7, "per_mt_m_tiles": 0.0, "per_mt_b_brick": 0.0, "per_mt_stone": 0.0, "per_mt_asbstos": 0.0, "per_mt_concrte": 23.3, "per_mt_oth": 0.0, "per_mw_grsbam": 0.0, "per_mw_plastic": 0.0, "per_mw_mud": 75.7, "per_mw_wood": 0.0, "per_mw_no_mrtr": 2.9, "per_mw_st_mrtr": 0.0, "per_mw_asbstos": 0.0, "per_mw_b_brick": 19.4, "per_mw_concrte": 1.9, "per_mw_oth": 0.0, "per_mf_mud": 92.2, "per_mf_wood": 0.0, "per_mf_b_brick": 0.0, "per_mf_stone": 0.0, "per_mf_cement": 7.8, "per_mf_fl_tile": 0.0, "per_mf_oth": 0.0, "per_dw_n_exrm": 1.0, "per_dw_1_room": 6.8, "per_dw_2_room": 33.0, "per_dw_3_room": 29.1, "per_dw_4_room": 14.6, "per_dw_5_room": 9.7, "per_dw_6_room": 5.8, "per_hhsize_1": 8.7, "per_hhsize_2": 11.7, "per_hhsize_3": 4.9, "per_hhsize_4": 18.4, "per_hhsize_5": 26.2, "per_hhsize_6_8": 22.3, "per_hhsize_9p": 7.8, "per_ow_owned": 100.0, "per_ow_rented": 0.0, "per_ow_oth": 0.0, "per_mc_none": 14.6, "per_mcouple_1": 71.8, "per_mcouple_2": 11.7, "per_mcouple_3": 1.9, "per_mcouple_4": 0.0, "per_mcouple_5p": 0.0, "per_dw_t_ts": 1.9, "per_dw_t_unts": 0.0, "per_dw_c_well": 0.0, "per_dw_unc_wel": 36.9, "per_dw_hpump": 57.3, "per_dw_tw_bore": 3.9, "per_dw_spring": 0.0, "per_dw_rivcan": 0.0, "per_dw_tank": 0.0, "per_dw_oth": 0.0, "per_loc_dw_wp": 19.4, "per_loc_dw_np": 66.0, "per_loc_dw_aw": 14.6, "per_light_elec": 13.6, "per_light_kero": 86.4, "per_light_solr": 0.0, "per_light_oil": 0.0, "per_light_oth": 0.0, "per_light_no": 0.0, "per_hh_latrine": 7.8, "per_fl_sewer": 0.0, "per_fl_septict": 6.8, "per_fl_othsys": 1.0, "per_pl_wslab": 0.0, "per_pl_without": 0.0, "per_ns_open": 0.0, "per_sl_ns_hum": 0.0, "per_sl_ns_anml": 0.0, "per_hh_no_lat": 92.2, "per_as_pub": 0.0, "per_as_open": 92.2, "per_hh_bathrm": 0.0, "per_hh_en_wrf": 17.5, "per_hh_no_btrm": 82.5, "per_wwoc_drain": 0.0, "per_wwoc_open": 0.0, "per_wwoc_nodrn": 100.0, "per_cook_fire": 100.0, "per_cook_resdu": 0.0, "per_cook_cwdng": 0.0, "per_cook_coal": 0.0, "per_cook_kero": 0.0, "per_cook_lpng": 0.0, "per_cook_elec": 0.0, "per_cook_biogs": 0.0, "per_cook_oth": 0.0, "per_cook_no": 0.0, "per_kf_inside": 100.0, "per_kf_in_has": 0.0, "per_kf_in_does": 100.0, "per_kf_outside": 0.0, "per_kf_out_has": 0.0, "per_kf_out_dos": 0.0, "per_kf_no_cook": 0.0, "per_hh_banking": 56.3, "per_hh_radio": 23.3, "per_hh_tv": 9.7, "per_hh_cmp_int": 0.0, "per_hh_cmp_wnt": 0.0, "per_hh_ph_ll": 0.0, "per_hh_ph_mob": 63.1, "per_hh_ph_bth": 0.0, "per_hh_bcycl": 51.5, "per_hh_2wheel": 11.7, "per_hh_4wheel": 2.9, "per_hh_tvcomp": 0.0, "per_hh_no_ast": 16.5, "per_hs_perma": 24.3, "per_hs_sperma": 75.7, "per_hs_temp": 0.0, "per_hs_servc": 0.0, "per_hs_nservc": 0.0, "per_hs_unclss": 0.0, "avghhsz_cy": 4.75961538, "st_areashape": 2366033.188765915, "st_lengthshape": 6221.406400293506}, "geometry": {"type": "Polygon", "coordinates": [[[80.36312999951807, 24.455140000613262], [80.36275000047479, 24.452189999795795], [80.36117000043396, 24.44814999996637], [80.35976000027242, 24.445450000709357], [80.35828999983643, 24.44342999972793], [80.35752999995324, 24.443079999854504], [80.3598299996943, 24.44059999969114], [80.36583000019053, 24.438839999974057], [80.37008999991403, 24.438370000776818], [80.37195999948482, 24.438170000534814], [80.37258000052422, 24.438469999552115], [80.37223999986728, 24.44055999939424], [80.37273999945948, 24.443329999980094], [80.37253000029551, 24.446319999789495], [80.37219999968433, 24.449590000178873], [80.3709100000717, 24.451069999719298], [80.37090000002596, 24.451079999983055], [80.36920999948194, 24.453019999344054], [80.36794000085914, 24.454779999764728], [80.36795000000656, 24.454880000239903], [80.36774999999002, 24.45492000008065], [80.3667699999988, 24.45502999957725], [80.36476999983336, 24.4550499994754], [80.36312999951807, 24.455140000613262]]]}}]}