{"type": "FeatureCollection", "features": [{"type": "Feature", "properties": {"premiumdata.sde.IN_Village_PCA.area": 2.76684935, "objectid": 412195, "id": "9172708390759", "name": "Gyanamazra", "subdistrict": "Muzaffarnagar", "district": "Muzaffarnagar", "state": "Uttar Pradesh", "country": "India", "censusname": "Gyanamazra", "villagename_locallang": null, "lgd_villagename": "Gyanamazra", "lgd_villagecode": 110789, "lgd_subdistrictcode": 708, "lgd_districtcode": 172, "lgd_statecode": 9, "censuscode2001": "00195200", "censuscode2011": "110789", "censuscode2021": null, "level": "Village", "tru": "Rural", "no_hh": 354, "tot_p": 1965, "tot_m": 999, "tot_f": 966, "per_tot_m": 50.83969466, "per_tot_f": 49.16030534, "p_06": 277, "m_06": 144, "f_06": 133, "per_p_06": 14.09669211, "per_m_06": 51.98555957, "per_f_06": 48.01444043, "p_sc": 695, "m_sc": 348, "f_sc": 347, "per_p_sc": 35.36895674, "per_m_sc": 50.07194245, "per_f_sc": 49.92805755, "p_st": 0, "m_st": 0, "f_st": 0, "per_p_st": 0.0, "per_m_st": 0.0, "per_f_st": 0.0, "p_lit": 1256, "m_lit": 724, "f_lit": 532, "per_p_lit": 63.91857506, "per_m_lit": 57.6433121, "per_f_lit": 42.3566879, "p_ill": 709, "m_ill": 275, "f_ill": 434, "per_p_ill": 36.08142494000001, "per_m_ill": 38.78702398, "per_f_ill": 61.21297602, "tot_work_p": 631, "tot_work_m": 527, "tot_work_f": 104, "per_tot_work_p": 32.11195929, "per_tot_work_m": 83.51822504, "per_tot_work_f": 16.48177496, "mainwork_p": 403, "mainwork_m": 376, "mainwork_f": 27, "per_mainwork_p": 20.50890585, "per_mainwork_m": 93.30024814000001, "per_mainwork_f": 6.69975186, "main_cl_p": 205, "main_cl_m": 199, "main_cl_f": 6, "per_main_cl_p": 50.86848635, "per_main_cl_m": 97.07317073, "per_main_cl_f": 2.92682927, "main_al_p": 98, "main_al_m": 97, "main_al_f": 1, "per_main_al_p": 24.31761787, "per_main_al_m": 98.97959184, "per_main_al_f": 1.02040816, "main_hh_p": 19, "main_hh_m": 17, "main_hh_f": 2, "per_main_hh_p": 4.7146402, "per_main_hh_m": 89.47368421, "per_main_hh_f": 10.52631579, "main_ot_p": 81, "main_ot_m": 63, "main_ot_f": 18, "per_main_ot_p": 20.09925558, "per_main_ot_m": 77.77777778, "per_main_ot_f": 22.22222222, "margwork_p": 228, "margwork_m": 151, "margwork_f": 77, "per_margwork_p": 11.60305344, "per_margwork_m": 66.22807017999999, "per_margwork_f": 33.77192982, "marg_cl_p": 12, "marg_cl_m": 11, "marg_cl_f": 1, "per_marg_cl_p": 5.26315789, "per_marg_cl_m": 91.66666667, "per_marg_cl_f": 8.33333333, "marg_al_p": 127, "marg_al_m": 75, "marg_al_f": 52, "per_marg_al_p": 55.70175439, "per_marg_al_m": 59.05511811, "per_marg_al_f": 40.94488189, "marg_hh_p": 4, "marg_hh_m": 4, "marg_hh_f": 0, "per_marg_hh_p": 1.75438596, "per_marg_hh_m": 100.0, "per_marg_hh_f": 0.0, "marg_ot_p": 85, "marg_ot_m": 61, "marg_ot_f": 24, "per_marg_ot_p": 37.28070175000001, "per_marg_ot_m": 71.76470588000001, "per_marg_ot_f": 28.23529412, "margwork_3_6_p": 225, "margwork_3_6_m": 150, "margwork_3_6_f": 75, "per_margwork_3_6_p": 98.68421053, "per_margwork_3_6_m": 66.66666667, "per_margwork_3_6_f": 33.33333333, "marg_cl_3_6_p": 12, "marg_cl_3_6_m": 11, "marg_cl_3_6_f": 1, "per_marg_cl_3_6_p": 5.26315789, "per_marg_cl_3_6_m": 91.66666667, "per_marg_cl_3_6_f": 8.33333333, "marg_al_3_6_p": 125, "marg_al_3_6_m": 74, "marg_al_3_6_f": 51, "per_marg_al_3_6_p": 54.8245614, "per_marg_al_3_6_m": 59.2, "per_marg_al_3_6_f": 40.8, "marg_hh_3_6_p": 4, "marg_hh_3_6_m": 4, "marg_hh_3_6_f": 0, "per_marg_hh_3_6_p": 1.75438596, "per_marg_hh_3_6_m": 100.0, "per_marg_hh_3_6_f": 0.0, "marg_ot_3_6_p": 84, "marg_ot_3_6_m": 61, "marg_ot_3_6_f": 23, "per_marg_ot_3_6_p": 36.84210526, "per_marg_ot_3_6_m": 72.61904762, "per_marg_ot_3_6_f": 27.38095238, "margwork_0_3_p": 3, "margwork_0_3_m": 1, "margwork_0_3_f": 2, "per_margwork_0_3_p": 1.31578947, "per_margwork_0_3_m": 33.33333333, "per_margwork_0_3_f": 66.66666667, "marg_cl_0_3_p": 0, "marg_cl_0_3_m": 0, "marg_cl_0_3_f": 0, "per_marg_cl_0_3_p": 0.0, "per_marg_cl_0_3_m": 0.0, "per_marg_cl_0_3_f": 0.0, "marg_al_0_3_p": 2, "marg_al_0_3_m": 1, "marg_al_0_3_f": 1, "per_marg_al_0_3_p": 0.87719298, "per_marg_al_0_3_m": 50.0, "per_marg_al_0_3_f": 50.0, "marg_hh_0_3_p": 0, "marg_hh_0_3_m": 0, "marg_hh_0_3_f": 0, "per_marg_hh_0_3_p": 0.0, "per_marg_hh_0_3_m": 0.0, "per_marg_hh_0_3_f": 0.0, "marg_ot_0_3_p": 1, "marg_ot_0_3_m": 0, "marg_ot_0_3_f": 1, "per_marg_ot_0_3_p": 0.43859649, "per_marg_ot_0_3_m": 0.0, "per_marg_ot_0_3_f": 100.0, "non_work_p": 1334, "non_work_m": 472, "non_work_f": 862, "per_non_work_p": 67.88804071, "per_non_work_m": 35.38230885, "per_non_work_f": 64.61769115, "per_hc_tot_tot": 100, "per_hc_tot_god": 45.6, "per_hc_tot_liv": 46.7, "per_hc_tot_dil": 7.6, "per_hc_res_tot": 93.2, "per_hc_res_god": 41.1, "per_hc_res_liv": 44.5, "per_hc_res_dil": 7.6, "per_hc_oth_tot": 6.8, "per_hc_oth_god": 4.5, "per_hc_oth_liv": 2.3, "per_hc_oth_dil": 0.0, "per_mt_grsbam": 18.7, "per_mt_plastic": 0.0, "per_mt_h_tiles": 0.3, "per_mt_m_tiles": 1.1, "per_mt_b_brick": 34.3, "per_mt_stone": 0.0, "per_mt_asbstos": 1.1, "per_mt_concrte": 43.6, "per_mt_oth": 0.8, "per_mw_grsbam": 2.0, "per_mw_plastic": 0.0, "per_mw_mud": 2.8, "per_mw_wood": 0.0, "per_mw_no_mrtr": 0.8, "per_mw_st_mrtr": 0.0, "per_mw_asbstos": 0.0, "per_mw_b_brick": 93.8, "per_mw_concrte": 0.0, "per_mw_oth": 0.6, "per_mf_mud": 67.1, "per_mf_wood": 0.0, "per_mf_b_brick": 8.5, "per_mf_stone": 0.6, "per_mf_cement": 22.4, "per_mf_fl_tile": 1.4, "per_mf_oth": 0.0, "per_dw_n_exrm": 0.6, "per_dw_1_room": 25.5, "per_dw_2_room": 32.0, "per_dw_3_room": 17.8, "per_dw_4_room": 12.2, "per_dw_5_room": 6.8, "per_dw_6_room": 5.1, "per_hhsize_1": 3.7, "per_hhsize_2": 8.5, "per_hhsize_3": 8.5, "per_hhsize_4": 12.5, "per_hhsize_5": 21.0, "per_hhsize_6_8": 34.6, "per_hhsize_9p": 11.3, "per_ow_owned": 99.7, "per_ow_rented": 0.3, "per_ow_oth": 0.0, "per_mc_none": 11.3, "per_mcouple_1": 62.0, "per_mcouple_2": 19.0, "per_mcouple_3": 5.9, "per_mcouple_4": 1.7, "per_mcouple_5p": 0.0, "per_dw_t_ts": 9.6, "per_dw_t_unts": 22.7, "per_dw_c_well": 1.1, "per_dw_unc_wel": 0.0, "per_dw_hpump": 66.0, "per_dw_tw_bore": 0.3, "per_dw_spring": 0.3, "per_dw_rivcan": 0.0, "per_dw_tank": 0.0, "per_dw_oth": 0.0, "per_loc_dw_wp": 63.2, "per_loc_dw_np": 30.0, "per_loc_dw_aw": 6.8, "per_light_elec": 69.7, "per_light_kero": 29.2, "per_light_solr": 1.1, "per_light_oil": 0.0, "per_light_oth": 0.0, "per_light_no": 0.0, "per_hh_latrine": 46.7, "per_fl_sewer": 1.4, "per_fl_septict": 43.9, "per_fl_othsys": 0.3, "per_pl_wslab": 1.1, "per_pl_without": 0.0, "per_ns_open": 0.0, "per_sl_ns_hum": 0.0, "per_sl_ns_anml": 0.0, "per_hh_no_lat": 53.3, "per_as_pub": 0.0, "per_as_open": 53.3, "per_hh_bathrm": 53.0, "per_hh_en_wrf": 32.3, "per_hh_no_btrm": 14.7, "per_wwoc_drain": 0.6, "per_wwoc_open": 99.2, "per_wwoc_nodrn": 0.3, "per_cook_fire": 28.0, "per_cook_resdu": 3.1, "per_cook_cwdng": 60.1, "per_cook_coal": 0.6, "per_cook_kero": 0.0, "per_cook_lpng": 7.6, "per_cook_elec": 0.0, "per_cook_biogs": 0.0, "per_cook_oth": 0.0, "per_cook_no": 0.6, "per_kf_inside": 78.8, "per_kf_in_has": 55.8, "per_kf_in_does": 22.9, "per_kf_outside": 20.7, "per_kf_out_has": 1.7, "per_kf_out_dos": 19.0, "per_kf_no_cook": 0.6, "per_hh_banking": 90.4, "per_hh_radio": 55.2, "per_hh_tv": 69.1, "per_hh_cmp_int": 1.1, "per_hh_cmp_wnt": 3.1, "per_hh_ph_ll": 6.5, "per_hh_ph_mob": 70.5, "per_hh_ph_bth": 7.9, "per_hh_bcycl": 79.0, "per_hh_2wheel": 22.1, "per_hh_4wheel": 2.0, "per_hh_tvcomp": 1.1, "per_hh_no_ast": 5.4, "per_hs_perma": 79.9, "per_hs_sperma": 13.9, "per_hs_temp": 4.8, "per_hs_servc": 2.8, "per_hs_nservc": 2.0, "per_hs_unclss": 1.4, "avghhsz_cy": 5.55084746, "st_areashape": 3670897.41649869, "st_lengthshape": 9709.908676850442}, "geometry": {"type": "Polygon", "coordinates": [[[77.49755730755894, 29.58408402736404], [77.49696690780478, 29.584190369458238], [77.4964468200862, 29.58429867382014], [77.49592371492658, 29.584488891677424], [77.49539757435961, 29.584760978038638], [77.49344685487236, 29.58642070278374], [77.49266789874005, 29.587082629743687], [77.49178599118461, 29.586176194480384], [77.49012947624111, 29.58489539722508], [77.48778771831407, 29.58243551449089], [77.48721081664536, 29.581604310697], [77.48612687798251, 29.581371003645177], [77.4861249924187, 29.581371346602847], [77.48488510442591, 29.581596889078188], [77.48396892344742, 29.582029781817475], [77.48396276729277, 29.582028542021817], [77.48311465525664, 29.581857735997154], [77.48254113754156, 29.580867856113528], [77.48195078180483, 29.579892179554435], [77.48160212138855, 29.57919428629329], [77.48152971807497, 29.57870273565722], [77.4818170729647, 29.578360955032235], [77.48266105993704, 29.57822989588953], [77.48327468922618, 29.5780663889095], [77.48426189819756, 29.57723336943404], [77.4842649686392, 29.577230778005116], [77.48450452417264, 29.577102874458138], [77.48450461220756, 29.57710282758269], [77.48568255327667, 29.576473900558426], [77.48805902210628, 29.574794338947353], [77.49036308402907, 29.573431034100363], [77.49523751344059, 29.570578502051678], [77.49663706978866, 29.569637309430053], [77.49664221354196, 29.569633849764447], [77.49664040792823, 29.569630158829284], [77.49649143671141, 29.56932563121275], [77.49751035980557, 29.569841327138025], [77.50010200299351, 29.57377179855861], [77.50072424083798, 29.574711485405665], [77.50102592924641, 29.57543722446204], [77.50113028743125, 29.575788524580336], [77.50116812087776, 29.57603550341098], [77.50116209318222, 29.57619929259182], [77.50113261316953, 29.576362407276548], [77.50110467466588, 29.5764845647939], [77.50104725435293, 29.57676985103384], [77.50101854419644, 29.576912494242073], [77.50113235355641, 29.577325537385807], [77.50200182393677, 29.578559060608082], [77.50261873477163, 29.579006751402652], [77.50333088678953, 29.579416130555877], [77.50377086814093, 29.579571944835816], [77.50407250354871, 29.57966239270995], [77.50428266800273, 29.579688775896255], [77.50447088212272, 29.579673587069184], [77.50470747770731, 29.579618741806527], [77.50542480491956, 29.579249547406892], [77.50794182415856, 29.577783296965826], [77.50904141237194, 29.577109935466318], [77.50982261878404, 29.578497761639483], [77.51008201900044, 29.57909933257492], [77.51034442947136, 29.579619016021176], [77.51070284738825, 29.58007988467177], [77.51115346030107, 29.580584368911186], [77.51254688385067, 29.58160710981898], [77.51302549096269, 29.581989372438507], [77.5135270383521, 29.582259938257124], [77.5134227187948, 29.58229604301859], [77.51074692592262, 29.583614451690767], [77.50962065145706, 29.584259094205397], [77.50877440881499, 29.58462469629322], [77.50832537783539, 29.584714538116398], [77.50797237226809, 29.584745626704333], [77.50748097853634, 29.584711335981957], [77.50556832336261, 29.584411693396852], [77.50500514705311, 29.5844163798232], [77.50458104072938, 29.584465926718472], [77.50398687972911, 29.584674649309832], [77.50343957575238, 29.584884686225145], [77.50303515690639, 29.585037260253593], [77.50258463202847, 29.58516804495103], [77.50223085301171, 29.585219578056275], [77.50183393060681, 29.585167450461313], [77.50145974456171, 29.585136423717813], [77.50120422057577, 29.5850677769065], [77.50085873031414, 29.584894108249152], [77.50005280585867, 29.58448208898172], [77.49928925583347, 29.584194226257303], [77.49866102532775, 29.584053600252194], [77.4981220083095, 29.58403843708048], [77.49755730755894, 29.58408402736404]]]}}]}