{"type": "FeatureCollection", "features": [{"type": "Feature", "properties": {"premiumdata.sde.IN_Village_PCA.area": 0.02584059, "objectid": 134151, "id": "223813350270952", "name": "Gumadi Chuwa", "subdistrict": "Durgkondal", "district": "Kanker", "state": "Chhattisgarh", "country": "India", "censusname": "Gumadi Chuwa", "villagename_locallang": "\u0917\u0941\u092e\u0926\u0940 \u091a\u0941\u0935\u093e", "lgd_villagename": "Gumadi Chuwa", "lgd_villagecode": 447774, "lgd_subdistrictcode": 3350, "lgd_districtcode": 381, "lgd_statecode": 22, "censuscode2001": "01671800", "censuscode2011": "447774", "censuscode2021": null, "level": "Village", "tru": "Rural", "no_hh": 12, "tot_p": 46, "tot_m": 24, "tot_f": 22, "per_tot_m": 52.17391304, "per_tot_f": 47.82608696, "p_06": 9, "m_06": 4, "f_06": 5, "per_p_06": 19.56521739, "per_m_06": 44.44444444000001, "per_f_06": 55.55555556, "p_sc": 0, "m_sc": 0, "f_sc": 0, "per_p_sc": 0.0, "per_m_sc": 0.0, "per_f_sc": 0.0, "p_st": 42, "m_st": 22, "f_st": 20, "per_p_st": 91.30434783, "per_m_st": 52.38095238, "per_f_st": 47.61904762, "p_lit": 6, "m_lit": 5, "f_lit": 1, "per_p_lit": 13.04347826, "per_m_lit": 83.33333332999999, "per_f_lit": 16.66666667, "p_ill": 40, "m_ill": 19, "f_ill": 21, "per_p_ill": 86.95652174, "per_m_ill": 47.5, "per_f_ill": 52.5, "tot_work_p": 29, "tot_work_m": 14, "tot_work_f": 15, "per_tot_work_p": 63.04347826, "per_tot_work_m": 48.27586207, "per_tot_work_f": 51.72413793, "mainwork_p": 26, "mainwork_m": 13, "mainwork_f": 13, "per_mainwork_p": 56.52173913, "per_mainwork_m": 50.0, "per_mainwork_f": 50.0, "main_cl_p": 0, "main_cl_m": 0, "main_cl_f": 0, "per_main_cl_p": 0.0, "per_main_cl_m": 0.0, "per_main_cl_f": 0.0, "main_al_p": 26, "main_al_m": 13, "main_al_f": 13, "per_main_al_p": 100.0, "per_main_al_m": 50.0, "per_main_al_f": 50.0, "main_hh_p": 0, "main_hh_m": 0, "main_hh_f": 0, "per_main_hh_p": 0.0, "per_main_hh_m": 0.0, "per_main_hh_f": 0.0, "main_ot_p": 0, "main_ot_m": 0, "main_ot_f": 0, "per_main_ot_p": 0.0, "per_main_ot_m": 0.0, "per_main_ot_f": 0.0, "margwork_p": 3, "margwork_m": 1, "margwork_f": 2, "per_margwork_p": 6.52173913, "per_margwork_m": 33.33333333, "per_margwork_f": 66.66666667, "marg_cl_p": 0, "marg_cl_m": 0, "marg_cl_f": 0, "per_marg_cl_p": 0.0, "per_marg_cl_m": 0.0, "per_marg_cl_f": 0.0, "marg_al_p": 3, "marg_al_m": 1, "marg_al_f": 2, "per_marg_al_p": 100.0, "per_marg_al_m": 33.33333333, "per_marg_al_f": 66.66666667, "marg_hh_p": 0, "marg_hh_m": 0, "marg_hh_f": 0, "per_marg_hh_p": 0.0, "per_marg_hh_m": 0.0, "per_marg_hh_f": 0.0, "marg_ot_p": 0, "marg_ot_m": 0, "marg_ot_f": 0, "per_marg_ot_p": 0.0, "per_marg_ot_m": 0.0, "per_marg_ot_f": 0.0, "margwork_3_6_p": 3, "margwork_3_6_m": 1, "margwork_3_6_f": 2, "per_margwork_3_6_p": 100.0, "per_margwork_3_6_m": 33.33333333, "per_margwork_3_6_f": 66.66666667, "marg_cl_3_6_p": 0, "marg_cl_3_6_m": 0, "marg_cl_3_6_f": 0, "per_marg_cl_3_6_p": 0.0, "per_marg_cl_3_6_m": 0.0, "per_marg_cl_3_6_f": 0.0, "marg_al_3_6_p": 3, "marg_al_3_6_m": 1, "marg_al_3_6_f": 2, "per_marg_al_3_6_p": 100.0, "per_marg_al_3_6_m": 33.33333333, "per_marg_al_3_6_f": 66.66666667, "marg_hh_3_6_p": 0, "marg_hh_3_6_m": 0, "marg_hh_3_6_f": 0, "per_marg_hh_3_6_p": 0.0, "per_marg_hh_3_6_m": 0.0, "per_marg_hh_3_6_f": 0.0, "marg_ot_3_6_p": 0, "marg_ot_3_6_m": 0, "marg_ot_3_6_f": 0, "per_marg_ot_3_6_p": 0.0, "per_marg_ot_3_6_m": 0.0, "per_marg_ot_3_6_f": 0.0, "margwork_0_3_p": 0, "margwork_0_3_m": 0, "margwork_0_3_f": 0, "per_margwork_0_3_p": 0.0, "per_margwork_0_3_m": 0.0, "per_margwork_0_3_f": 0.0, "marg_cl_0_3_p": 0, "marg_cl_0_3_m": 0, "marg_cl_0_3_f": 0, "per_marg_cl_0_3_p": 0.0, "per_marg_cl_0_3_m": 0.0, "per_marg_cl_0_3_f": 0.0, "marg_al_0_3_p": 0, "marg_al_0_3_m": 0, "marg_al_0_3_f": 0, "per_marg_al_0_3_p": 0.0, "per_marg_al_0_3_m": 0.0, "per_marg_al_0_3_f": 0.0, "marg_hh_0_3_p": 0, "marg_hh_0_3_m": 0, "marg_hh_0_3_f": 0, "per_marg_hh_0_3_p": 0.0, "per_marg_hh_0_3_m": 0.0, "per_marg_hh_0_3_f": 0.0, "marg_ot_0_3_p": 0, "marg_ot_0_3_m": 0, "marg_ot_0_3_f": 0, "per_marg_ot_0_3_p": 0.0, "per_marg_ot_0_3_m": 0.0, "per_marg_ot_0_3_f": 0.0, "non_work_p": 17, "non_work_m": 10, "non_work_f": 7, "per_non_work_p": 36.95652174, "per_non_work_m": 58.82352941000001, "per_non_work_f": 41.17647059, "per_hc_tot_tot": 100, "per_hc_tot_god": 28.6, "per_hc_tot_liv": 71.4, "per_hc_tot_dil": 0.0, "per_hc_res_tot": 100.0, "per_hc_res_god": 28.6, "per_hc_res_liv": 71.4, "per_hc_res_dil": 0.0, "per_hc_oth_tot": 0.0, "per_hc_oth_god": 0.0, "per_hc_oth_liv": 0.0, "per_hc_oth_dil": 0.0, "per_mt_grsbam": 0.0, "per_mt_plastic": 35.7, "per_mt_h_tiles": 64.3, "per_mt_m_tiles": 0.0, "per_mt_b_brick": 0.0, "per_mt_stone": 0.0, "per_mt_asbstos": 0.0, "per_mt_concrte": 0.0, "per_mt_oth": 0.0, "per_mw_grsbam": 14.3, "per_mw_plastic": 0.0, "per_mw_mud": 85.7, "per_mw_wood": 0.0, "per_mw_no_mrtr": 0.0, "per_mw_st_mrtr": 0.0, "per_mw_asbstos": 0.0, "per_mw_b_brick": 0.0, "per_mw_concrte": 0.0, "per_mw_oth": 0.0, "per_mf_mud": 100.0, "per_mf_wood": 0.0, "per_mf_b_brick": 0.0, "per_mf_stone": 0.0, "per_mf_cement": 0.0, "per_mf_fl_tile": 0.0, "per_mf_oth": 0.0, "per_dw_n_exrm": 0.0, "per_dw_1_room": 78.6, "per_dw_2_room": 21.4, "per_dw_3_room": 0.0, "per_dw_4_room": 0.0, "per_dw_5_room": 0.0, "per_dw_6_room": 0.0, "per_hhsize_1": 0.0, "per_hhsize_2": 21.4, "per_hhsize_3": 28.6, "per_hhsize_4": 14.3, "per_hhsize_5": 21.4, "per_hhsize_6_8": 14.3, "per_hhsize_9p": 0.0, "per_ow_owned": 100.0, "per_ow_rented": 0.0, "per_ow_oth": 0.0, "per_mc_none": 7.1, "per_mcouple_1": 78.6, "per_mcouple_2": 14.3, "per_mcouple_3": 0.0, "per_mcouple_4": 0.0, "per_mcouple_5p": 0.0, "per_dw_t_ts": 0.0, "per_dw_t_unts": 0.0, "per_dw_c_well": 0.0, "per_dw_unc_wel": 0.0, "per_dw_hpump": 100.0, "per_dw_tw_bore": 0.0, "per_dw_spring": 0.0, "per_dw_rivcan": 0.0, "per_dw_tank": 0.0, "per_dw_oth": 0.0, "per_loc_dw_wp": 0.0, "per_loc_dw_np": 0.0, "per_loc_dw_aw": 100.0, "per_light_elec": 78.6, "per_light_kero": 21.4, "per_light_solr": 0.0, "per_light_oil": 0.0, "per_light_oth": 0.0, "per_light_no": 0.0, "per_hh_latrine": 0.0, "per_fl_sewer": 0.0, "per_fl_septict": 0.0, "per_fl_othsys": 0.0, "per_pl_wslab": 0.0, "per_pl_without": 0.0, "per_ns_open": 0.0, "per_sl_ns_hum": 0.0, "per_sl_ns_anml": 0.0, "per_hh_no_lat": 100.0, "per_as_pub": 0.0, "per_as_open": 100.0, "per_hh_bathrm": 0.0, "per_hh_en_wrf": 0.0, "per_hh_no_btrm": 100.0, "per_wwoc_drain": 0.0, "per_wwoc_open": 0.0, "per_wwoc_nodrn": 100.0, "per_cook_fire": 100.0, "per_cook_resdu": 0.0, "per_cook_cwdng": 0.0, "per_cook_coal": 0.0, "per_cook_kero": 0.0, "per_cook_lpng": 0.0, "per_cook_elec": 0.0, "per_cook_biogs": 0.0, "per_cook_oth": 0.0, "per_cook_no": 0.0, "per_kf_inside": 100.0, "per_kf_in_has": 78.6, "per_kf_in_does": 21.4, "per_kf_outside": 0.0, "per_kf_out_has": 0.0, "per_kf_out_dos": 0.0, "per_kf_no_cook": 0.0, "per_hh_banking": 0.0, "per_hh_radio": 0.0, "per_hh_tv": 0.0, "per_hh_cmp_int": 0.0, "per_hh_cmp_wnt": 0.0, "per_hh_ph_ll": 0.0, "per_hh_ph_mob": 0.0, "per_hh_ph_bth": 0.0, "per_hh_bcycl": 28.6, "per_hh_2wheel": 0.0, "per_hh_4wheel": 0.0, "per_hh_tvcomp": 0.0, "per_hh_no_ast": 71.4, "per_hs_perma": 0.0, "per_hs_sperma": 64.3, "per_hs_temp": 35.7, "per_hs_servc": 21.4, "per_hs_nservc": 14.3, "per_hs_unclss": 0.0, "avghhsz_cy": 3.83333333, "st_areashape": 31363.87350204, "st_lengthshape": 628.0581775956349}, "geometry": {"type": "Polygon", "coordinates": [[[80.84906163300403, 20.182116895640622], [80.84897218954782, 20.18211270598151], [80.84888363542375, 20.182100177475142], [80.84879685008246, 20.182079436593447], [80.84871269590664, 20.18205068737782], [80.84863201012615, 20.182014217341337], [80.8485555940382, 20.181970387351175], [80.84848420671918, 20.18191963331511], [80.84841855873654, 20.181862461122797], [80.84835930226713, 20.181799437371478], [80.84830702480917, 20.18173118852302], [80.84826224738552, 20.181658394159076], [80.84822541466224, 20.18158177602015], [80.848196893152, 20.181502096319768], [80.84817696492571, 20.18142014762656], [80.84816582940945, 20.181336743589863], [80.84816359709598, 20.181252713037644], [80.84817028954485, 20.181168891544914], [80.84818584028069, 20.181086112159054], [80.8482100956917, 20.18100519696797], [80.84824281323269, 20.18092695119793], [80.84828366951011, 20.180852151409084], [80.84833225668888, 20.18078154127935], [80.848388093272, 20.180715823172545], [80.8484506232023, 20.180655649706317], [80.84851922664224, 20.180601618692922], [80.84859321997385, 20.180554268079863], [80.8486718683753, 20.180514067517795], [80.84875439121056, 20.18048141667402], [80.84883996741948, 20.180456641016292], [80.84892774629746, 20.180439985067206], [80.84901685558037, 20.180431615776726], [80.84910641042768, 20.180431615776726], [80.84919551971059, 20.180439985067206], [80.8492832985886, 20.180456641016292], [80.84936887479749, 20.18048141667402], [80.84945139763275, 20.180514067517795], [80.8495300460342, 20.180554268079863], [80.84960403936586, 20.180601618692922], [80.8496726428058, 20.180655649706317], [80.84973517273608, 20.180715823172545], [80.8497910093192, 20.18078154127935], [80.84983959649794, 20.180852151409084], [80.84988045277541, 20.18092695119793], [80.84991317031636, 20.18100519696797], [80.84993742572736, 20.181086112159054], [80.84995297646324, 20.181168891544914], [80.84995966891208, 20.181252713037644], [80.84995743659863, 20.181336743589863], [80.84994630108234, 20.18142014762656], [80.8499263728561, 20.181502096319768], [80.84989785134582, 20.18158177602015], [80.84986101862253, 20.181658394159076], [80.84981624119888, 20.18173118852302], [80.84976396374093, 20.181799437371478], [80.84970470727153, 20.181862461122797], [80.84963905928888, 20.18191963331511], [80.8495676719699, 20.181970387351175], [80.84949125588194, 20.182014217341337], [80.84941057010141, 20.18205068737782], [80.84932641592562, 20.182079436593447], [80.84923963058434, 20.182100177475142], [80.84915107646023, 20.18211270598151], [80.84906163300403, 20.182116895640622]]]}}]}