{"type": "FeatureCollection", "features": [{"type": "Feature", "properties": {"premiumdata.sde.IN_Village_PCA.area": 1.86106727, "objectid": 530183, "id": "193032321123604", "name": "Chandigachha", "subdistrict": "Habra - II", "district": "24 Paraganas North", "state": "West Bengal", "country": "India", "censusname": "Chandigachha", "villagename_locallang": null, "lgd_villagename": "Chandigachha", "lgd_villagecode": 322926, "lgd_subdistrictcode": 2321, "lgd_districtcode": 303, "lgd_statecode": 19, "censuscode2001": "01667200", "censuscode2011": "322926", "censuscode2021": null, "level": "Village", "tru": "Rural", "no_hh": 540, "tot_p": 2211, "tot_m": 1129, "tot_f": 1082, "per_tot_m": 51.06286748, "per_tot_f": 48.93713252, "p_06": 289, "m_06": 128, "f_06": 161, "per_p_06": 13.07100859, "per_m_06": 44.29065744, "per_f_06": 55.70934256, "p_sc": 0, "m_sc": 0, "f_sc": 0, "per_p_sc": 0.0, "per_m_sc": 0.0, "per_f_sc": 0.0, "p_st": 0, "m_st": 0, "f_st": 0, "per_p_st": 0.0, "per_m_st": 0.0, "per_f_st": 0.0, "p_lit": 1399, "m_lit": 746, "f_lit": 653, "per_p_lit": 63.27453641, "per_m_lit": 53.32380272, "per_f_lit": 46.67619728, "p_ill": 812, "m_ill": 383, "f_ill": 429, "per_p_ill": 36.72546359, "per_m_ill": 47.16748768, "per_f_ill": 52.83251232000001, "tot_work_p": 733, "tot_work_m": 687, "tot_work_f": 46, "per_tot_work_p": 33.15241972, "per_tot_work_m": 93.72442019, "per_tot_work_f": 6.27557981, "mainwork_p": 678, "mainwork_m": 649, "mainwork_f": 29, "per_mainwork_p": 30.66485753, "per_mainwork_m": 95.72271386, "per_mainwork_f": 4.27728614, "main_cl_p": 195, "main_cl_m": 187, "main_cl_f": 8, "per_main_cl_p": 28.76106195, "per_main_cl_m": 95.8974359, "per_main_cl_f": 4.1025641, "main_al_p": 387, "main_al_m": 376, "main_al_f": 11, "per_main_al_p": 57.07964602, "per_main_al_m": 97.15762274000001, "per_main_al_f": 2.84237726, "main_hh_p": 16, "main_hh_m": 16, "main_hh_f": 0, "per_main_hh_p": 2.35988201, "per_main_hh_m": 100.0, "per_main_hh_f": 0.0, "main_ot_p": 80, "main_ot_m": 70, "main_ot_f": 10, "per_main_ot_p": 11.79941003, "per_main_ot_m": 87.5, "per_main_ot_f": 12.5, "margwork_p": 55, "margwork_m": 38, "margwork_f": 17, "per_margwork_p": 2.48756219, "per_margwork_m": 69.09090909000001, "per_margwork_f": 30.90909091, "marg_cl_p": 5, "marg_cl_m": 3, "marg_cl_f": 2, "per_marg_cl_p": 9.09090909, "per_marg_cl_m": 60.0, "per_marg_cl_f": 40.0, "marg_al_p": 19, "marg_al_m": 17, "marg_al_f": 2, "per_marg_al_p": 34.54545455, "per_marg_al_m": 89.47368421, "per_marg_al_f": 10.52631579, "marg_hh_p": 18, "marg_hh_m": 14, "marg_hh_f": 4, "per_marg_hh_p": 32.72727273, "per_marg_hh_m": 77.77777778, "per_marg_hh_f": 22.22222222, "marg_ot_p": 13, "marg_ot_m": 4, "marg_ot_f": 9, "per_marg_ot_p": 23.63636364, "per_marg_ot_m": 30.76923077, "per_marg_ot_f": 69.23076923, "margwork_3_6_p": 30, "margwork_3_6_m": 22, "margwork_3_6_f": 8, "per_margwork_3_6_p": 54.54545455, "per_margwork_3_6_m": 73.33333332999999, "per_margwork_3_6_f": 26.66666667, "marg_cl_3_6_p": 1, "marg_cl_3_6_m": 0, "marg_cl_3_6_f": 1, "per_marg_cl_3_6_p": 1.81818182, "per_marg_cl_3_6_m": 0.0, "per_marg_cl_3_6_f": 100.0, "marg_al_3_6_p": 12, "marg_al_3_6_m": 10, "marg_al_3_6_f": 2, "per_marg_al_3_6_p": 21.81818182, "per_marg_al_3_6_m": 83.33333332999999, "per_marg_al_3_6_f": 16.66666667, "marg_hh_3_6_p": 14, "marg_hh_3_6_m": 11, "marg_hh_3_6_f": 3, "per_marg_hh_3_6_p": 25.45454545, "per_marg_hh_3_6_m": 78.57142857, "per_marg_hh_3_6_f": 21.42857143, "marg_ot_3_6_p": 3, "marg_ot_3_6_m": 1, "marg_ot_3_6_f": 2, "per_marg_ot_3_6_p": 5.45454545, "per_marg_ot_3_6_m": 33.33333333, "per_marg_ot_3_6_f": 66.66666667, "margwork_0_3_p": 25, "margwork_0_3_m": 16, "margwork_0_3_f": 9, "per_margwork_0_3_p": 45.45454545, "per_margwork_0_3_m": 64.0, "per_margwork_0_3_f": 36.0, "marg_cl_0_3_p": 4, "marg_cl_0_3_m": 3, "marg_cl_0_3_f": 1, "per_marg_cl_0_3_p": 7.27272727, "per_marg_cl_0_3_m": 75.0, "per_marg_cl_0_3_f": 25.0, "marg_al_0_3_p": 7, "marg_al_0_3_m": 7, "marg_al_0_3_f": 0, "per_marg_al_0_3_p": 12.72727273, "per_marg_al_0_3_m": 100.0, "per_marg_al_0_3_f": 0.0, "marg_hh_0_3_p": 4, "marg_hh_0_3_m": 3, "marg_hh_0_3_f": 1, "per_marg_hh_0_3_p": 7.27272727, "per_marg_hh_0_3_m": 75.0, "per_marg_hh_0_3_f": 25.0, "marg_ot_0_3_p": 10, "marg_ot_0_3_m": 3, "marg_ot_0_3_f": 7, "per_marg_ot_0_3_p": 18.18181818, "per_marg_ot_0_3_m": 30.0, "per_marg_ot_0_3_f": 70.0, "non_work_p": 1478, "non_work_m": 442, "non_work_f": 1036, "per_non_work_p": 66.84758028, "per_non_work_m": 29.9052774, "per_non_work_f": 70.0947226, "per_hc_tot_tot": 100, "per_hc_tot_god": 33.1, "per_hc_tot_liv": 61.7, "per_hc_tot_dil": 5.2, "per_hc_res_tot": 99.8, "per_hc_res_god": 33.1, "per_hc_res_liv": 61.5, "per_hc_res_dil": 5.2, "per_hc_oth_tot": 0.2, "per_hc_oth_god": 0.0, "per_hc_oth_liv": 0.2, "per_hc_oth_dil": 0.0, "per_mt_grsbam": 0.7, "per_mt_plastic": 0.2, "per_mt_h_tiles": 74.1, "per_mt_m_tiles": 0.2, "per_mt_b_brick": 0.0, "per_mt_stone": 0.9, "per_mt_asbstos": 2.0, "per_mt_concrte": 21.9, "per_mt_oth": 0.0, "per_mw_grsbam": 17.4, "per_mw_plastic": 0.0, "per_mw_mud": 24.8, "per_mw_wood": 0.6, "per_mw_no_mrtr": 0.0, "per_mw_st_mrtr": 0.0, "per_mw_asbstos": 0.0, "per_mw_b_brick": 57.2, "per_mw_concrte": 0.0, "per_mw_oth": 0.0, "per_mf_mud": 75.7, "per_mf_wood": 0.2, "per_mf_b_brick": 2.6, "per_mf_stone": 13.3, "per_mf_cement": 8.1, "per_mf_fl_tile": 0.0, "per_mf_oth": 0.0, "per_dw_n_exrm": 4.6, "per_dw_1_room": 71.1, "per_dw_2_room": 20.4, "per_dw_3_room": 2.6, "per_dw_4_room": 0.9, "per_dw_5_room": 0.2, "per_dw_6_room": 0.2, "per_hhsize_1": 3.1, "per_hhsize_2": 11.3, "per_hhsize_3": 20.9, "per_hhsize_4": 32.0, "per_hhsize_5": 18.0, "per_hhsize_6_8": 13.1, "per_hhsize_9p": 1.5, "per_ow_owned": 99.3, "per_ow_rented": 0.2, "per_ow_oth": 0.6, "per_mc_none": 13.1, "per_mcouple_1": 77.0, "per_mcouple_2": 8.1, "per_mcouple_3": 1.5, "per_mcouple_4": 0.0, "per_mcouple_5p": 0.2, "per_dw_t_ts": 2.0, "per_dw_t_unts": 0.0, "per_dw_c_well": 1.1, "per_dw_unc_wel": 0.0, "per_dw_hpump": 96.9, "per_dw_tw_bore": 0.0, "per_dw_spring": 0.0, "per_dw_rivcan": 0.0, "per_dw_tank": 0.0, "per_dw_oth": 0.0, "per_loc_dw_wp": 3.1, "per_loc_dw_np": 45.2, "per_loc_dw_aw": 51.7, "per_light_elec": 47.8, "per_light_kero": 52.2, "per_light_solr": 0.0, "per_light_oil": 0.0, "per_light_oth": 0.0, "per_light_no": 0.0, "per_hh_latrine": 82.8, "per_fl_sewer": 0.2, "per_fl_septict": 4.1, "per_fl_othsys": 9.1, "per_pl_wslab": 41.3, "per_pl_without": 2.2, "per_ns_open": 0.0, "per_sl_ns_hum": 0.0, "per_sl_ns_anml": 25.9, "per_hh_no_lat": 17.2, "per_as_pub": 0.0, "per_as_open": 17.2, "per_hh_bathrm": 3.9, "per_hh_en_wrf": 1.1, "per_hh_no_btrm": 95.0, "per_wwoc_drain": 0.0, "per_wwoc_open": 0.0, "per_wwoc_nodrn": 100.0, "per_cook_fire": 6.9, "per_cook_resdu": 66.1, "per_cook_cwdng": 25.4, "per_cook_coal": 0.4, "per_cook_kero": 0.0, "per_cook_lpng": 0.6, "per_cook_elec": 0.0, "per_cook_biogs": 0.7, "per_cook_oth": 0.0, "per_cook_no": 0.0, "per_kf_inside": 95.9, "per_kf_in_has": 56.3, "per_kf_in_does": 39.6, "per_kf_outside": 4.1, "per_kf_out_has": 0.0, "per_kf_out_dos": 4.1, "per_kf_no_cook": 0.0, "per_hh_banking": 15.7, "per_hh_radio": 1.5, "per_hh_tv": 10.0, "per_hh_cmp_int": 0.0, "per_hh_cmp_wnt": 0.4, "per_hh_ph_ll": 1.1, "per_hh_ph_mob": 21.9, "per_hh_ph_bth": 0.0, "per_hh_bcycl": 85.7, "per_hh_2wheel": 3.5, "per_hh_4wheel": 0.0, "per_hh_tvcomp": 0.0, "per_hh_no_ast": 11.5, "per_hs_perma": 57.2, "per_hs_sperma": 41.9, "per_hs_temp": 0.9, "per_hs_servc": 0.2, "per_hs_nservc": 0.7, "per_hs_unclss": 0.0, "avghhsz_cy": 4.09444444, "st_areashape": 2202248.451598055, "st_lengthshape": 8633.936352660596}, "geometry": {"type": "Polygon", "coordinates": [[[88.57686999944312, 22.87049999854349], [88.5767699989857, 22.86940999875448], [88.57633999881541, 22.869009999030126], [88.57607999852439, 22.86792999844355], [88.57563999920664, 22.867899998902473], [88.57465999921546, 22.86742999915763], [88.57348999925341, 22.8670399990331], [88.57344999907045, 22.86680999894418], [88.57351999939064, 22.866219999130834], [88.57402999902858, 22.86520999877819], [88.57403999907434, 22.86492999912955], [88.57362999899549, 22.8648599989203], [88.57309999926608, 22.864989998688976], [88.57293999853418, 22.864849998296222], [88.5723699995201, 22.864569999561155], [88.57068999902185, 22.86468999814371], [88.57056999937126, 22.86470999858697], [88.56891999901022, 22.865259998447776], [88.56823999859462, 22.865159998262435], [88.56776999913967, 22.864999998475003], [88.56778999923114, 22.86471999922134], [88.56812999898978, 22.864449999217168], [88.56892999905597, 22.864409999078948], [88.56939999940924, 22.864189998522104], [88.569799998544, 22.863939998849055], [88.56994999923015, 22.863599998919746], [88.5694399995922, 22.863359998895653], [88.5682999988691, 22.863579998313146], [88.56801999938493, 22.86345999875029], [88.56803999947641, 22.863139999121977], [88.56806999871532, 22.863139999121977], [88.56878999931385, 22.862849999402844], [88.56976999930507, 22.862609998881773], [88.57023999965836, 22.862449998574828], [88.57044999882233, 22.862019998213253], [88.57052999918827, 22.861469999309527], [88.57117999946662, 22.860919999007542], [88.5718499989381, 22.86090999892122], [88.57303999899165, 22.86156999889952], [88.57330999843005, 22.86156999889952], [88.57399999889135, 22.86081999893921], [88.57400999893711, 22.86060999930119], [88.57347999920769, 22.860029998378725], [88.57318999967778, 22.85894999925613], [88.57347999920769, 22.85784999837905], [88.57335999955708, 22.856109998378695], [88.57371999850889, 22.856169998521153], [88.57449999848357, 22.855719998876655], [88.57544999923584, 22.855519999292248], [88.57744999940128, 22.85520999968607], [88.57775999902267, 22.855109999555467], [88.57830999884357, 22.855519999292248], [88.5787399990139, 22.855709999235533], [88.57898999925916, 22.855679998652178], [88.57918999927567, 22.855499999152084], [88.57998999934185, 22.855579999695145], [88.58043999960366, 22.855499999152084], [88.58107999893792, 22.85600999808242], [88.58178999949071, 22.856109998378695], [88.58183999882111, 22.856269998699723], [88.58177999944498, 22.856429998832414], [88.58151999915397, 22.85663999830685], [88.58182999877536, 22.857149998754373], [88.58215999938656, 22.857259998567535], [88.58307999910332, 22.856979999093728], [88.58440999889892, 22.856829998340157], [88.58474999955584, 22.85665999910708], [88.58479999888627, 22.856739998967427], [88.58523999910231, 22.856839998726645], [88.58557999886094, 22.85739999850205], [88.58592999866532, 22.85838999841705], [88.58565999922688, 22.858779998535802], [88.5852799992853, 22.859419999361904], [88.58510999850766, 22.860399998510946], [88.58532999951402, 22.860959999345347], [88.5851199994517, 22.86141999907304], [88.58491999943516, 22.86184999884999], [88.58492999948092, 22.862099999057307], [88.58514999869065, 22.86219999901146], [88.58588999848233, 22.862209999002808], [88.58620999904781, 22.862549999099162], [88.5860699993057, 22.862829998685804], [88.58566999927264, 22.86293999886813], [88.58452999944782, 22.863159998965624], [88.58441999984298, 22.863359998895653], [88.5843999997515, 22.863799999029908], [88.58481999897774, 22.864219998054644], [88.58586999928919, 22.864299998431193], [88.5860699993057, 22.8647399988324], [88.5859199995179, 22.865079998392268], [88.58541999902738, 22.86527999880709], [88.58540999898163, 22.865599999189552], [88.58555999876945, 22.86603999869174], [88.58551999858646, 22.866339998739274], [88.58478999973883, 22.86669999858409], [88.5845199994021, 22.86731999929953], [88.58391999935246, 22.86787999892883], [88.58386999912375, 22.86838999940588], [88.58397999872861, 22.869129999484965], [88.58371999933591, 22.86946999881848], [88.58288999913253, 22.870149998243313], [88.58252999928243, 22.87062999870905], [88.58227999903717, 22.870529999165726], [88.58216999943232, 22.870299999191825], [88.5822399988542, 22.86999999878452], [88.58254999937391, 22.86979999869671], [88.58243999887073, 22.86916999906123], [88.58124999881723, 22.867829998568034], [88.5804999998781, 22.867859998952262], [88.58000999943334, 22.86826999912506], [88.57956999921728, 22.86830999895455], [88.57911999895549, 22.869039998326084], [88.57858999922607, 22.869399999293048], [88.5781399998626, 22.870289998968207], [88.57779999920564, 22.87049999854349], [88.57686999944312, 22.87049999854349]]]}}]}