{"type": "FeatureCollection", "features": [{"type": "Feature", "properties": {"premiumdata.sde.IN_Village_PCA.area": 1.51562046, "objectid": 539738, "id": "203262668210058", "name": "Amgachhi", "subdistrict": "Ramgarh", "district": "Dumka", "state": "Jharkhand", "country": "India", "censusname": "Amgachhi", "villagename_locallang": null, "lgd_villagename": "Amgachhi", "lgd_villagecode": 370457, "lgd_subdistrictcode": 2668, "lgd_districtcode": 326, "lgd_statecode": 20, "censuscode2001": "01941300", "censuscode2011": "370457", "censuscode2021": null, "level": "Village", "tru": "Rural", "no_hh": 57, "tot_p": 240, "tot_m": 117, "tot_f": 123, "per_tot_m": 48.75, "per_tot_f": 51.25, "p_06": 41, "m_06": 21, "f_06": 20, "per_p_06": 17.08333333, "per_m_06": 51.2195122, "per_f_06": 48.7804878, "p_sc": 0, "m_sc": 0, "f_sc": 0, "per_p_sc": 0.0, "per_m_sc": 0.0, "per_f_sc": 0.0, "p_st": 225, "m_st": 109, "f_st": 116, "per_p_st": 93.75, "per_m_st": 48.44444444000001, "per_f_st": 51.55555556, "p_lit": 107, "m_lit": 66, "f_lit": 41, "per_p_lit": 44.58333333, "per_m_lit": 61.68224299, "per_f_lit": 38.31775701, "p_ill": 133, "m_ill": 51, "f_ill": 82, "per_p_ill": 55.41666667000001, "per_m_ill": 38.34586466, "per_f_ill": 61.65413534, "tot_work_p": 83, "tot_work_m": 67, "tot_work_f": 16, "per_tot_work_p": 34.58333333, "per_tot_work_m": 80.72289157, "per_tot_work_f": 19.27710843, "mainwork_p": 52, "mainwork_m": 43, "mainwork_f": 9, "per_mainwork_p": 21.66666667, "per_mainwork_m": 82.69230769, "per_mainwork_f": 17.30769231, "main_cl_p": 51, "main_cl_m": 42, "main_cl_f": 9, "per_main_cl_p": 98.07692308, "per_main_cl_m": 82.35294118, "per_main_cl_f": 17.64705882, "main_al_p": 0, "main_al_m": 0, "main_al_f": 0, "per_main_al_p": 0.0, "per_main_al_m": 0.0, "per_main_al_f": 0.0, "main_hh_p": 0, "main_hh_m": 0, "main_hh_f": 0, "per_main_hh_p": 0.0, "per_main_hh_m": 0.0, "per_main_hh_f": 0.0, "main_ot_p": 1, "main_ot_m": 1, "main_ot_f": 0, "per_main_ot_p": 1.92307692, "per_main_ot_m": 100.0, "per_main_ot_f": 0.0, "margwork_p": 31, "margwork_m": 24, "margwork_f": 7, "per_margwork_p": 12.91666667, "per_margwork_m": 77.41935484000001, "per_margwork_f": 22.58064516, "marg_cl_p": 2, "marg_cl_m": 1, "marg_cl_f": 1, "per_marg_cl_p": 6.4516129, "per_marg_cl_m": 50.0, "per_marg_cl_f": 50.0, "marg_al_p": 27, "marg_al_m": 21, "marg_al_f": 6, "per_marg_al_p": 87.09677419, "per_marg_al_m": 77.77777778, "per_marg_al_f": 22.22222222, "marg_hh_p": 1, "marg_hh_m": 1, "marg_hh_f": 0, "per_marg_hh_p": 3.22580645, "per_marg_hh_m": 100.0, "per_marg_hh_f": 0.0, "marg_ot_p": 1, "marg_ot_m": 1, "marg_ot_f": 0, "per_marg_ot_p": 3.22580645, "per_marg_ot_m": 100.0, "per_marg_ot_f": 0.0, "margwork_3_6_p": 3, "margwork_3_6_m": 3, "margwork_3_6_f": 0, "per_margwork_3_6_p": 9.67741935, "per_margwork_3_6_m": 100.0, "per_margwork_3_6_f": 0.0, "marg_cl_3_6_p": 0, "marg_cl_3_6_m": 0, "marg_cl_3_6_f": 0, "per_marg_cl_3_6_p": 0.0, "per_marg_cl_3_6_m": 0.0, "per_marg_cl_3_6_f": 0.0, "marg_al_3_6_p": 1, "marg_al_3_6_m": 1, "marg_al_3_6_f": 0, "per_marg_al_3_6_p": 3.22580645, "per_marg_al_3_6_m": 100.0, "per_marg_al_3_6_f": 0.0, "marg_hh_3_6_p": 1, "marg_hh_3_6_m": 1, "marg_hh_3_6_f": 0, "per_marg_hh_3_6_p": 3.22580645, "per_marg_hh_3_6_m": 100.0, "per_marg_hh_3_6_f": 0.0, "marg_ot_3_6_p": 1, "marg_ot_3_6_m": 1, "marg_ot_3_6_f": 0, "per_marg_ot_3_6_p": 3.22580645, "per_marg_ot_3_6_m": 100.0, "per_marg_ot_3_6_f": 0.0, "margwork_0_3_p": 28, "margwork_0_3_m": 21, "margwork_0_3_f": 7, "per_margwork_0_3_p": 90.32258065, "per_margwork_0_3_m": 75.0, "per_margwork_0_3_f": 25.0, "marg_cl_0_3_p": 2, "marg_cl_0_3_m": 1, "marg_cl_0_3_f": 1, "per_marg_cl_0_3_p": 6.4516129, "per_marg_cl_0_3_m": 50.0, "per_marg_cl_0_3_f": 50.0, "marg_al_0_3_p": 26, "marg_al_0_3_m": 20, "marg_al_0_3_f": 6, "per_marg_al_0_3_p": 83.87096774000001, "per_marg_al_0_3_m": 76.92307692, "per_marg_al_0_3_f": 23.07692308, "marg_hh_0_3_p": 0, "marg_hh_0_3_m": 0, "marg_hh_0_3_f": 0, "per_marg_hh_0_3_p": 0.0, "per_marg_hh_0_3_m": 0.0, "per_marg_hh_0_3_f": 0.0, "marg_ot_0_3_p": 0, "marg_ot_0_3_m": 0, "marg_ot_0_3_f": 0, "per_marg_ot_0_3_p": 0.0, "per_marg_ot_0_3_m": 0.0, "per_marg_ot_0_3_f": 0.0, "non_work_p": 157, "non_work_m": 50, "non_work_f": 107, "per_non_work_p": 65.41666667, "per_non_work_m": 31.84713376, "per_non_work_f": 68.15286624, "per_hc_tot_tot": 100, "per_hc_tot_god": 0.0, "per_hc_tot_liv": 84.5, "per_hc_tot_dil": 15.5, "per_hc_res_tot": 100.0, "per_hc_res_god": 0.0, "per_hc_res_liv": 84.5, "per_hc_res_dil": 15.5, "per_hc_oth_tot": 0.0, "per_hc_oth_god": 0.0, "per_hc_oth_liv": 0.0, "per_hc_oth_dil": 0.0, "per_mt_grsbam": 56.9, "per_mt_plastic": 0.0, "per_mt_h_tiles": 43.1, "per_mt_m_tiles": 0.0, "per_mt_b_brick": 0.0, "per_mt_stone": 0.0, "per_mt_asbstos": 0.0, "per_mt_concrte": 0.0, "per_mt_oth": 0.0, "per_mw_grsbam": 0.0, "per_mw_plastic": 0.0, "per_mw_mud": 100.0, "per_mw_wood": 0.0, "per_mw_no_mrtr": 0.0, "per_mw_st_mrtr": 0.0, "per_mw_asbstos": 0.0, "per_mw_b_brick": 0.0, "per_mw_concrte": 0.0, "per_mw_oth": 0.0, "per_mf_mud": 89.7, "per_mf_wood": 0.0, "per_mf_b_brick": 10.3, "per_mf_stone": 0.0, "per_mf_cement": 0.0, "per_mf_fl_tile": 0.0, "per_mf_oth": 0.0, "per_dw_n_exrm": 0.0, "per_dw_1_room": 58.6, "per_dw_2_room": 39.7, "per_dw_3_room": 0.0, "per_dw_4_room": 0.0, "per_dw_5_room": 0.0, "per_dw_6_room": 1.7, "per_hhsize_1": 1.7, "per_hhsize_2": 17.2, "per_hhsize_3": 19.0, "per_hhsize_4": 31.0, "per_hhsize_5": 13.8, "per_hhsize_6_8": 13.8, "per_hhsize_9p": 3.4, "per_ow_owned": 100.0, "per_ow_rented": 0.0, "per_ow_oth": 0.0, "per_mc_none": 27.6, "per_mcouple_1": 62.1, "per_mcouple_2": 10.3, "per_mcouple_3": 0.0, "per_mcouple_4": 0.0, "per_mcouple_5p": 0.0, "per_dw_t_ts": 0.0, "per_dw_t_unts": 0.0, "per_dw_c_well": 0.0, "per_dw_unc_wel": 0.0, "per_dw_hpump": 37.9, "per_dw_tw_bore": 0.0, "per_dw_spring": 62.1, "per_dw_rivcan": 0.0, "per_dw_tank": 0.0, "per_dw_oth": 0.0, "per_loc_dw_wp": 0.0, "per_loc_dw_np": 37.9, "per_loc_dw_aw": 62.1, "per_light_elec": 0.0, "per_light_kero": 100.0, "per_light_solr": 0.0, "per_light_oil": 0.0, "per_light_oth": 0.0, "per_light_no": 0.0, "per_hh_latrine": 0.0, "per_fl_sewer": 0.0, "per_fl_septict": 0.0, "per_fl_othsys": 0.0, "per_pl_wslab": 0.0, "per_pl_without": 0.0, "per_ns_open": 0.0, "per_sl_ns_hum": 0.0, "per_sl_ns_anml": 0.0, "per_hh_no_lat": 100.0, "per_as_pub": 0.0, "per_as_open": 100.0, "per_hh_bathrm": 0.0, "per_hh_en_wrf": 0.0, "per_hh_no_btrm": 100.0, "per_wwoc_drain": 0.0, "per_wwoc_open": 0.0, "per_wwoc_nodrn": 100.0, "per_cook_fire": 100.0, "per_cook_resdu": 0.0, "per_cook_cwdng": 0.0, "per_cook_coal": 0.0, "per_cook_kero": 0.0, "per_cook_lpng": 0.0, "per_cook_elec": 0.0, "per_cook_biogs": 0.0, "per_cook_oth": 0.0, "per_cook_no": 0.0, "per_kf_inside": 100.0, "per_kf_in_has": 0.0, "per_kf_in_does": 100.0, "per_kf_outside": 0.0, "per_kf_out_has": 0.0, "per_kf_out_dos": 0.0, "per_kf_no_cook": 0.0, "per_hh_banking": 37.9, "per_hh_radio": 15.5, "per_hh_tv": 0.0, "per_hh_cmp_int": 0.0, "per_hh_cmp_wnt": 1.7, "per_hh_ph_ll": 0.0, "per_hh_ph_mob": 0.0, "per_hh_ph_bth": 0.0, "per_hh_bcycl": 43.1, "per_hh_2wheel": 0.0, "per_hh_4wheel": 0.0, "per_hh_tvcomp": 0.0, "per_hh_no_ast": 53.4, "per_hs_perma": 0.0, "per_hs_sperma": 43.1, "per_hs_temp": 56.9, "per_hs_servc": 56.9, "per_hs_nservc": 0.0, "per_hs_unclss": 0.0, "avghhsz_cy": 4.21052632, "st_areashape": 1837409.72486241, "st_lengthshape": 8672.877696631505}, "geometry": {"type": "Polygon", "coordinates": [[[87.19215000026296, 24.45223999902677], [87.1902199995194, 24.4537899996912], [87.18906000050146, 24.454889999383585], [87.18769999967036, 24.45606999988382], [87.18612999967525, 24.457109999782094], [87.1848600001541, 24.45783999912686], [87.18300999977652, 24.458590000119056], [87.18165000074201, 24.459289999414775], [87.17993000006078, 24.460819999400787], [87.17975000013573, 24.460979999319946], [87.17880000028174, 24.462089999397893], [87.1776000001825, 24.463959999711385], [87.17650000054068, 24.465579999603825], [87.1756300001543, 24.466759999711222], [87.17476999981369, 24.467379999479878], [87.17377000062929, 24.467829999721], [87.17233000033053, 24.468269999455586], [87.17110000009404, 24.468789999984075], [87.17011000005708, 24.469129999105526], [87.16855000010773, 24.469639999745525], [87.1679299999666, 24.4702699996077], [87.16652999985085, 24.47049999984901], [87.16507999950635, 24.4708299997457], [87.16357000068402, 24.47156999914423], [87.16308999938667, 24.471640000210094], [87.16310999947815, 24.47156999914423], [87.16365000015162, 24.469179999788665], [87.1632800002558, 24.467979999171458], [87.16351999955697, 24.467190000112577], [87.16357000068402, 24.467019999273717], [87.16431000047572, 24.466140000160358], [87.16444000017205, 24.465399999918127], [87.1645199996397, 24.465349999369234], [87.16537999998032, 24.46481000018931], [87.16694999997542, 24.463820000448376], [87.16829999986247, 24.463439999678428], [87.16975000020697, 24.46325999938691], [87.17159999968625, 24.46251000003652], [87.17369999941077, 24.461549999322237], [87.17416000061661, 24.460669999598544], [87.17506000024188, 24.459349999523823], [87.17732999984572, 24.45830999931154], [87.17909999985739, 24.457319999993416], [87.17988999987782, 24.45696999944672], [87.18054000015613, 24.45668999912692], [87.18239999968115, 24.455980000228095], [87.18440999989231, 24.45461999932999], [87.18602000007036, 24.45332999908328], [87.18733999982021, 24.45291999902806], [87.18947999972772, 24.45247000030377], [87.19185999983473, 24.451949999449248], [87.19259999962642, 24.45182000012692], [87.19215000026296, 24.45223999902677]]]}}]}