{"type": "FeatureCollection", "features": [{"type": "Feature", "properties": {"premiumdata.sde.IN_Village_PCA.area": 25.88864993, "objectid": 201914, "id": "244493726273700", "name": "Chapreli", "subdistrict": "Bhuj", "district": "Kachchh", "state": "Gujarat", "country": "India", "censusname": "Chapreli", "villagename_locallang": null, "lgd_villagename": "Chapreli", "lgd_villagecode": 506817, "lgd_subdistrictcode": 3726, "lgd_districtcode": 449, "lgd_statecode": 24, "censuscode2001": "00039000", "censuscode2011": "506817", "censuscode2021": null, "level": "Village", "tru": "Rural", "no_hh": 399, "tot_p": 1793, "tot_m": 892, "tot_f": 901, "per_tot_m": 49.74902398, "per_tot_f": 50.25097602, "p_06": 233, "m_06": 118, "f_06": 115, "per_p_06": 12.99498048, "per_m_06": 50.64377682, "per_f_06": 49.35622318, "p_sc": 119, "m_sc": 52, "f_sc": 67, "per_p_sc": 6.63692136, "per_m_sc": 43.69747899, "per_f_sc": 56.30252101, "p_st": 0, "m_st": 0, "f_st": 0, "per_p_st": 0.0, "per_m_st": 0.0, "per_f_st": 0.0, "p_lit": 1054, "m_lit": 628, "f_lit": 426, "per_p_lit": 58.78416062, "per_m_lit": 59.58254269, "per_f_lit": 40.41745731, "p_ill": 739, "m_ill": 264, "f_ill": 475, "per_p_ill": 41.21583938, "per_m_ill": 35.72395129, "per_f_ill": 64.27604871, "tot_work_p": 674, "tot_work_m": 520, "tot_work_f": 154, "per_tot_work_p": 37.59063023, "per_tot_work_m": 77.15133531000001, "per_tot_work_f": 22.84866469, "mainwork_p": 671, "mainwork_m": 520, "mainwork_f": 151, "per_mainwork_p": 37.42331288, "per_mainwork_m": 77.49627422, "per_mainwork_f": 22.50372578, "main_cl_p": 344, "main_cl_m": 254, "main_cl_f": 90, "per_main_cl_p": 51.26676602, "per_main_cl_m": 73.8372093, "per_main_cl_f": 26.1627907, "main_al_p": 177, "main_al_m": 121, "main_al_f": 56, "per_main_al_p": 26.37853949, "per_main_al_m": 68.36158192, "per_main_al_f": 31.63841808, "main_hh_p": 0, "main_hh_m": 0, "main_hh_f": 0, "per_main_hh_p": 0.0, "per_main_hh_m": 0.0, "per_main_hh_f": 0.0, "main_ot_p": 150, "main_ot_m": 145, "main_ot_f": 5, "per_main_ot_p": 22.35469449, "per_main_ot_m": 96.66666667, "per_main_ot_f": 3.33333333, "margwork_p": 3, "margwork_m": 0, "margwork_f": 3, "per_margwork_p": 0.16731735, "per_margwork_m": 0.0, "per_margwork_f": 100.0, "marg_cl_p": 0, "marg_cl_m": 0, "marg_cl_f": 0, "per_marg_cl_p": 0.0, "per_marg_cl_m": 0.0, "per_marg_cl_f": 0.0, "marg_al_p": 1, "marg_al_m": 0, "marg_al_f": 1, "per_marg_al_p": 33.33333333, "per_marg_al_m": 0.0, "per_marg_al_f": 100.0, "marg_hh_p": 2, "marg_hh_m": 0, "marg_hh_f": 2, "per_marg_hh_p": 66.66666667, "per_marg_hh_m": 0.0, "per_marg_hh_f": 100.0, "marg_ot_p": 0, "marg_ot_m": 0, "marg_ot_f": 0, "per_marg_ot_p": 0.0, "per_marg_ot_m": 0.0, "per_marg_ot_f": 0.0, "margwork_3_6_p": 1, "margwork_3_6_m": 0, "margwork_3_6_f": 1, "per_margwork_3_6_p": 33.33333333, "per_margwork_3_6_m": 0.0, "per_margwork_3_6_f": 100.0, "marg_cl_3_6_p": 0, "marg_cl_3_6_m": 0, "marg_cl_3_6_f": 0, "per_marg_cl_3_6_p": 0.0, "per_marg_cl_3_6_m": 0.0, "per_marg_cl_3_6_f": 0.0, "marg_al_3_6_p": 1, "marg_al_3_6_m": 0, "marg_al_3_6_f": 1, "per_marg_al_3_6_p": 33.33333333, "per_marg_al_3_6_m": 0.0, "per_marg_al_3_6_f": 100.0, "marg_hh_3_6_p": 0, "marg_hh_3_6_m": 0, "marg_hh_3_6_f": 0, "per_marg_hh_3_6_p": 0.0, "per_marg_hh_3_6_m": 0.0, "per_marg_hh_3_6_f": 0.0, "marg_ot_3_6_p": 0, "marg_ot_3_6_m": 0, "marg_ot_3_6_f": 0, "per_marg_ot_3_6_p": 0.0, "per_marg_ot_3_6_m": 0.0, "per_marg_ot_3_6_f": 0.0, "margwork_0_3_p": 2, "margwork_0_3_m": 0, "margwork_0_3_f": 2, "per_margwork_0_3_p": 66.66666667, "per_margwork_0_3_m": 0.0, "per_margwork_0_3_f": 100.0, "marg_cl_0_3_p": 0, "marg_cl_0_3_m": 0, "marg_cl_0_3_f": 0, "per_marg_cl_0_3_p": 0.0, "per_marg_cl_0_3_m": 0.0, "per_marg_cl_0_3_f": 0.0, "marg_al_0_3_p": 0, "marg_al_0_3_m": 0, "marg_al_0_3_f": 0, "per_marg_al_0_3_p": 0.0, "per_marg_al_0_3_m": 0.0, "per_marg_al_0_3_f": 0.0, "marg_hh_0_3_p": 2, "marg_hh_0_3_m": 0, "marg_hh_0_3_f": 2, "per_marg_hh_0_3_p": 66.66666667, "per_marg_hh_0_3_m": 0.0, "per_marg_hh_0_3_f": 100.0, "marg_ot_0_3_p": 0, "marg_ot_0_3_m": 0, "marg_ot_0_3_f": 0, "per_marg_ot_0_3_p": 0.0, "per_marg_ot_0_3_m": 0.0, "per_marg_ot_0_3_f": 0.0, "non_work_p": 1119, "non_work_m": 372, "non_work_f": 747, "per_non_work_p": 62.40936977, "per_non_work_m": 33.24396783, "per_non_work_f": 66.75603217, "per_hc_tot_tot": 100, "per_hc_tot_god": 97.7, "per_hc_tot_liv": 2.3, "per_hc_tot_dil": 0.0, "per_hc_res_tot": 99.0, "per_hc_res_god": 96.7, "per_hc_res_liv": 2.3, "per_hc_res_dil": 0.0, "per_hc_oth_tot": 1.0, "per_hc_oth_god": 1.0, "per_hc_oth_liv": 0.0, "per_hc_oth_dil": 0.0, "per_mt_grsbam": 1.0, "per_mt_plastic": 0.0, "per_mt_h_tiles": 0.0, "per_mt_m_tiles": 8.6, "per_mt_b_brick": 0.0, "per_mt_stone": 0.0, "per_mt_asbstos": 0.3, "per_mt_concrte": 90.1, "per_mt_oth": 0.0, "per_mw_grsbam": 1.0, "per_mw_plastic": 0.0, "per_mw_mud": 0.3, "per_mw_wood": 0.0, "per_mw_no_mrtr": 0.5, "per_mw_st_mrtr": 0.0, "per_mw_asbstos": 0.0, "per_mw_b_brick": 98.2, "per_mw_concrte": 0.0, "per_mw_oth": 0.0, "per_mf_mud": 1.0, "per_mf_wood": 0.0, "per_mf_b_brick": 0.0, "per_mf_stone": 0.0, "per_mf_cement": 30.2, "per_mf_fl_tile": 68.8, "per_mf_oth": 0.0, "per_dw_n_exrm": 0.0, "per_dw_1_room": 3.8, "per_dw_2_room": 84.3, "per_dw_3_room": 11.7, "per_dw_4_room": 0.3, "per_dw_5_room": 0.0, "per_dw_6_room": 0.0, "per_hhsize_1": 4.3, "per_hhsize_2": 12.9, "per_hhsize_3": 11.9, "per_hhsize_4": 16.8, "per_hhsize_5": 22.6, "per_hhsize_6_8": 31.0, "per_hhsize_9p": 0.5, "per_ow_owned": 92.9, "per_ow_rented": 6.6, "per_ow_oth": 0.5, "per_mc_none": 7.6, "per_mcouple_1": 78.9, "per_mcouple_2": 12.4, "per_mcouple_3": 1.0, "per_mcouple_4": 0.0, "per_mcouple_5p": 0.0, "per_dw_t_ts": 99.0, "per_dw_t_unts": 0.0, "per_dw_c_well": 0.0, "per_dw_unc_wel": 0.0, "per_dw_hpump": 0.0, "per_dw_tw_bore": 0.0, "per_dw_spring": 0.0, "per_dw_rivcan": 0.0, "per_dw_tank": 0.0, "per_dw_oth": 1.0, "per_loc_dw_wp": 98.7, "per_loc_dw_np": 1.3, "per_loc_dw_aw": 0.0, "per_light_elec": 99.0, "per_light_kero": 0.0, "per_light_solr": 0.0, "per_light_oil": 0.0, "per_light_oth": 0.0, "per_light_no": 1.0, "per_hh_latrine": 91.4, "per_fl_sewer": 67.0, "per_fl_septict": 24.4, "per_fl_othsys": 0.0, "per_pl_wslab": 0.0, "per_pl_without": 0.0, "per_ns_open": 0.0, "per_sl_ns_hum": 0.0, "per_sl_ns_anml": 0.0, "per_hh_no_lat": 8.6, "per_as_pub": 0.0, "per_as_open": 8.6, "per_hh_bathrm": 92.4, "per_hh_en_wrf": 0.8, "per_hh_no_btrm": 6.9, "per_wwoc_drain": 66.2, "per_wwoc_open": 0.0, "per_wwoc_nodrn": 33.8, "per_cook_fire": 94.7, "per_cook_resdu": 0.0, "per_cook_cwdng": 0.3, "per_cook_coal": 0.0, "per_cook_kero": 0.3, "per_cook_lpng": 4.8, "per_cook_elec": 0.0, "per_cook_biogs": 0.0, "per_cook_oth": 0.0, "per_cook_no": 0.0, "per_kf_inside": 95.9, "per_kf_in_has": 95.9, "per_kf_in_does": 0.0, "per_kf_outside": 4.1, "per_kf_out_has": 1.8, "per_kf_out_dos": 2.3, "per_kf_no_cook": 0.0, "per_hh_banking": 78.9, "per_hh_radio": 11.7, "per_hh_tv": 74.6, "per_hh_cmp_int": 0.3, "per_hh_cmp_wnt": 1.3, "per_hh_ph_ll": 2.3, "per_hh_ph_mob": 72.8, "per_hh_ph_bth": 7.4, "per_hh_bcycl": 5.8, "per_hh_2wheel": 39.1, "per_hh_4wheel": 4.8, "per_hh_tvcomp": 1.0, "per_hh_no_ast": 10.9, "per_hs_perma": 98.7, "per_hs_sperma": 0.3, "per_hs_temp": 1.0, "per_hs_servc": 0.0, "per_hs_nservc": 1.0, "per_hs_unclss": 0.0, "avghhsz_cy": 4.49373434, "st_areashape": 30840270.45867352, "st_lengthshape": 23365.07657802656}, "geometry": {"type": "Polygon", "coordinates": [[[69.80772485324339, 23.336256684450422], [69.8075179335042, 23.336266210404904], [69.80673949120822, 23.336278107742867], [69.80596070934907, 23.336265092761106], [69.80518290126368, 23.33622611956836], [69.804407197931, 23.33616345642418], [69.80363492436608, 23.336074848208423], [69.80286582993894, 23.33596141251552], [69.80210146154853, 23.33582431147023], [69.80134355743489, 23.335661242065292], [69.80059200890189, 23.335474616845275], [69.79984813916793, 23.335264296313653], [69.79911252674808, 23.335029186623995], [69.79838638436794, 23.3347715625496], [69.79767094810936, 23.33449029557787], [69.79696613083577, 23.334185456494996], [69.7962738100261, 23.3338592136544], [69.79554312396724, 23.33386910848622], [69.79567532363772, 23.332535750160027], [69.79567962207634, 23.33164387620805], [69.79561605099865, 23.33075365671836], [69.79548506764706, 23.32986973738719], [69.7952878766624, 23.328996585036048], [69.79502502871196, 23.32813869877213], [69.79469765297802, 23.32729940812742], [69.79430767544856, 23.32648345327315], [69.79385672387087, 23.325695104296024], [69.79314396369354, 23.324559194294537], [69.79247911516187, 23.323555834108248], [69.79173968400374, 23.322597015021202], [69.790929974946, 23.321688395298388], [69.79005283025816, 23.320834475111667], [69.78911386890238, 23.320038806014878], [69.78811592955495, 23.3193058898979], [69.78859939565433, 23.318259918969634], [69.78926465830934, 23.31799765672353], [69.78992448256365, 23.317725343662048], [69.790578976215, 23.31744162846153], [69.79122870160887, 23.317147681650198], [69.79187242446001, 23.316843573280998], [69.79251007020825, 23.316529220788983], [69.79314179426211, 23.31620471237152], [69.79376761638459, 23.315868763497875], [69.79438668946433, 23.31552381183253], [69.7949991877745, 23.315169718712124], [69.79560511490837, 23.314804367209643], [69.79620372706087, 23.314430958921065], [69.79679527755694, 23.314046259906895], [69.79738007901025, 23.313653617796213], [69.79795700762844, 23.31325061287523], [69.79852619815877, 23.31283869288048], [69.79908685918548, 23.31241749968892], [69.79964034896126, 23.311988488477283], [69.80018539187844, 23.31154915122229], [69.80072245506094, 23.311101866255022], [69.80125056473499, 23.310645509036117], [69.80177020599089, 23.310181169285702], [69.80228072755, 23.30970880567047], [69.80278212402247, 23.3092284923547], [69.80327521646845, 23.30873914932698], [69.80375779682898, 23.30824282414596], [69.80423206777309, 23.30773860427632], [69.80469590388692, 23.307226422802607], [69.8051501307221, 23.306707243247835], [69.80559521899595, 23.306181325410183], [69.8060293774677, 23.305647486956968], [69.80653219507494, 23.305005694571282], [69.80699236696069, 23.30429365376598], [69.80747880289043, 23.303596453952654], [69.80799182715593, 23.3029151769875], [69.80852977967055, 23.302251148955257], [69.80909250861906, 23.301604207580663], [69.80967951274144, 23.300975529632098], [69.81028955056605, 23.300367376011447], [69.81092254573605, 23.29977860759832], [69.81157661358603, 23.29921030712789], [69.81225265512613, 23.29866246083655], [69.81294843804292, 23.298138472374152], [69.81366355899283, 23.297636196017972], [69.81439728674721, 23.29715656847077], [69.81514862687105, 23.296701865534036], [69.81591658942095, 23.296271113871786], [69.81670086178309, 23.29586519985275], [69.81749888016574, 23.295485463638002], [69.81850615121239, 23.295050886243924], [69.8195500816074, 23.29451830594023], [69.82061311288035, 23.294019822891087], [69.821694757246, 23.293555403650924], [69.82279297103702, 23.293126046943787], [69.82390620196465, 23.292731722580406], [69.82503417424608, 23.292374908652654], [69.82617463400831, 23.29205303443914], [69.82739676859615, 23.292096643637752], [69.82828468857582, 23.292567580487017], [69.82918013374257, 23.293025097932194], [69.83008501032154, 23.293466827264098], [69.83099798700941, 23.293894039282055], [69.83191908536578, 23.294306508876286], [69.83284762716256, 23.29470449361117], [69.83378371211282, 23.295087772493783], [69.83472676978631, 23.295455248291407], [69.83567744697, 23.29580704077153], [69.83663369281018, 23.29614422348546], [69.83767738425334, 23.296491016657768], [69.83885413864799, 23.297358215103074], [69.84004780113291, 23.29820520369275], [69.84125753986812, 23.29903320967726], [69.84248221758656, 23.299842083250738], [69.84372242627792, 23.300629516270607], [69.84497764312273, 23.30139797105388], [69.84624715485867, 23.302146114662825], [69.8475303730892, 23.302873074551233], [69.84882732027224, 23.30357960762082], [69.85013741070617, 23.304264843792332], [69.85146046652461, 23.3049299805045], [69.85279619847003, 23.305572425846258], [69.85414376122775, 23.306193562048154], [69.85550323564613, 23.306793392708702], [69.8568734134911, 23.307370627802445], [69.85825485081988, 23.307925454074727], [69.86075484069599, 23.30886356920132], [69.8617153795849, 23.308911560235313], [69.86266435535948, 23.309052110315598], [69.86359271120502, 23.309282726833242], [69.86448949126829, 23.30960109108409], [69.86534479521661, 23.310005033533002], [69.86614899939832, 23.310489827861133], [69.86689362192047, 23.311048785848698], [69.86757133792027, 23.311677109290184], [69.86817365921661, 23.312368107458145], [69.86834348661938, 23.313015202717537], [69.86761147464718, 23.313395736135107], [69.86698145469737, 23.313909138723325], [69.86648040407631, 23.314531867764526], [69.86613064232549, 23.31523712207771], [69.8657316537954, 23.318236097142215], [69.86528180804383, 23.32119281221931], [69.86477509084996, 23.324141280115903], [69.86421338957416, 23.327082459063288], [69.86359620475315, 23.33001321421092], [69.86292273239474, 23.33293439913302], [69.86255394522453, 23.334408288272474], [69.86135432960421, 23.33449620390937], [69.86034710886328, 23.334551686783346], [69.85933891614518, 23.334590231550813], [69.8583303146936, 23.33461301114845], [69.85732122905013, 23.334619943100382], [69.85631305250172, 23.334609986461533], [69.85530431270959, 23.334584178051696], [69.85429648111426, 23.334542538482633], [69.85329005448399, 23.334483968227193], [69.85228436896386, 23.334409632763137], [69.85128017015553, 23.33431837151208], [69.85027860430925, 23.33421124353643], [69.84927909021513, 23.334088361801257], [69.84828154612642, 23.333949720488906], [69.84728728807501, 23.33379525686188], [69.84629624239905, 23.3336238309281], [69.84517066861942, 23.33305057096189], [69.84407608492046, 23.332586015838], [69.84294942777257, 23.33219336333768], [69.84179568102897, 23.33187279226768], [69.84061956443819, 23.331627794774466], [69.83942852952548, 23.331460454870495], [69.83822667440519, 23.33136862656425], [69.83702085861277, 23.3313546583883], [69.83581721315011, 23.331418655949207], [69.83399936886644, 23.331266701078796], [69.83304044694505, 23.331480510495425], [69.83141273109126, 23.33119228545246], [69.8301183629714, 23.33121712695973], [69.82882596755192, 23.331283690727275], [69.82753659676001, 23.331393180162557], [69.82625238858604, 23.331542336967647], [69.82497432309196, 23.331734325162312], [69.82370371720802, 23.331965906176016], [69.82244302423322, 23.33223815293718], [69.82119353414835, 23.332552360214102], [69.81995627013451, 23.332904890119554], [69.8187325814612, 23.333298332370433], [69.81752504449672, 23.333730133707608], [69.81652927458067, 23.334204298365666], [69.81582191507482, 23.334508040367712], [69.81510372278498, 23.3347879859106], [69.81437551787295, 23.335044112049243], [69.81363843491097, 23.33527763142968], [69.81289249186531, 23.33548725825462], [69.81214005489852, 23.335672091094683], [69.81137997416695, 23.33583318831293], [69.8106152230942, 23.335969236039613], [69.80984536959068, 23.336080506545795], [69.80907205487834, 23.336166959477083], [69.8082961009157, 23.336229633342377], [69.80772485324339, 23.336256684450422]]]}}]}