{"type": "FeatureCollection", "features": [{"type": "Feature", "properties": {"premiumdata.sde.IN_Village_PCA.area": 1.55949075, "objectid": 355078, "id": "9174883363946", "name": "Devkali", "subdistrict": "Patti", "district": "Pratapgarh", "state": "Uttar Pradesh", "country": "India", "censusname": "Devkali", "villagename_locallang": null, "lgd_villagename": "Devkali", "lgd_villagecode": 159109, "lgd_subdistrictcode": 883, "lgd_districtcode": 174, "lgd_statecode": 9, "censuscode2001": "05217500", "censuscode2011": "159109", "censuscode2021": null, "level": "Village", "tru": "Rural", "no_hh": 105, "tot_p": 670, "tot_m": 329, "tot_f": 341, "per_tot_m": 49.10447761, "per_tot_f": 50.89552239, "p_06": 109, "m_06": 57, "f_06": 52, "per_p_06": 16.26865672, "per_m_06": 52.29357798, "per_f_06": 47.70642202000001, "p_sc": 215, "m_sc": 105, "f_sc": 110, "per_p_sc": 32.08955224, "per_m_sc": 48.8372093, "per_f_sc": 51.1627907, "p_st": 0, "m_st": 0, "f_st": 0, "per_p_st": 0.0, "per_m_st": 0.0, "per_f_st": 0.0, "p_lit": 371, "m_lit": 209, "f_lit": 162, "per_p_lit": 55.37313433, "per_m_lit": 56.33423181000001, "per_f_lit": 43.66576819, "p_ill": 299, "m_ill": 120, "f_ill": 179, "per_p_ill": 44.62686567, "per_m_ill": 40.13377926, "per_f_ill": 59.86622074, "tot_work_p": 333, "tot_work_m": 168, "tot_work_f": 165, "per_tot_work_p": 49.70149254, "per_tot_work_m": 50.45045045000001, "per_tot_work_f": 49.54954955, "mainwork_p": 53, "mainwork_m": 48, "mainwork_f": 5, "per_mainwork_p": 7.91044776, "per_mainwork_m": 90.56603774, "per_mainwork_f": 9.43396226, "main_cl_p": 42, "main_cl_m": 41, "main_cl_f": 1, "per_main_cl_p": 79.24528302, "per_main_cl_m": 97.61904762, "per_main_cl_f": 2.38095238, "main_al_p": 0, "main_al_m": 0, "main_al_f": 0, "per_main_al_p": 0.0, "per_main_al_m": 0.0, "per_main_al_f": 0.0, "main_hh_p": 1, "main_hh_m": 1, "main_hh_f": 0, "per_main_hh_p": 1.88679245, "per_main_hh_m": 100.0, "per_main_hh_f": 0.0, "main_ot_p": 10, "main_ot_m": 6, "main_ot_f": 4, "per_main_ot_p": 18.86792453, "per_main_ot_m": 60.0, "per_main_ot_f": 40.0, "margwork_p": 280, "margwork_m": 120, "margwork_f": 160, "per_margwork_p": 41.79104478, "per_margwork_m": 42.85714286, "per_margwork_f": 57.14285714, "marg_cl_p": 256, "marg_cl_m": 103, "marg_cl_f": 153, "per_marg_cl_p": 91.42857143, "per_marg_cl_m": 40.234375, "per_marg_cl_f": 59.765625, "marg_al_p": 2, "marg_al_m": 1, "marg_al_f": 1, "per_marg_al_p": 0.71428571, "per_marg_al_m": 50.0, "per_marg_al_f": 50.0, "marg_hh_p": 2, "marg_hh_m": 0, "marg_hh_f": 2, "per_marg_hh_p": 0.71428571, "per_marg_hh_m": 0.0, "per_marg_hh_f": 100.0, "marg_ot_p": 20, "marg_ot_m": 16, "marg_ot_f": 4, "per_marg_ot_p": 7.14285714, "per_marg_ot_m": 80.0, "per_marg_ot_f": 20.0, "margwork_3_6_p": 88, "margwork_3_6_m": 53, "margwork_3_6_f": 35, "per_margwork_3_6_p": 31.42857143, "per_margwork_3_6_m": 60.22727273, "per_margwork_3_6_f": 39.77272727, "marg_cl_3_6_p": 74, "marg_cl_3_6_m": 41, "marg_cl_3_6_f": 33, "per_marg_cl_3_6_p": 26.42857143, "per_marg_cl_3_6_m": 55.40540541, "per_marg_cl_3_6_f": 44.59459459, "marg_al_3_6_p": 0, "marg_al_3_6_m": 0, "marg_al_3_6_f": 0, "per_marg_al_3_6_p": 0.0, "per_marg_al_3_6_m": 0.0, "per_marg_al_3_6_f": 0.0, "marg_hh_3_6_p": 0, "marg_hh_3_6_m": 0, "marg_hh_3_6_f": 0, "per_marg_hh_3_6_p": 0.0, "per_marg_hh_3_6_m": 0.0, "per_marg_hh_3_6_f": 0.0, "marg_ot_3_6_p": 14, "marg_ot_3_6_m": 12, "marg_ot_3_6_f": 2, "per_marg_ot_3_6_p": 5.0, "per_marg_ot_3_6_m": 85.71428571, "per_marg_ot_3_6_f": 14.28571429, "margwork_0_3_p": 192, "margwork_0_3_m": 67, "margwork_0_3_f": 125, "per_margwork_0_3_p": 68.57142857, "per_margwork_0_3_m": 34.89583333, "per_margwork_0_3_f": 65.10416667, "marg_cl_0_3_p": 182, "marg_cl_0_3_m": 62, "marg_cl_0_3_f": 120, "per_marg_cl_0_3_p": 65.0, "per_marg_cl_0_3_m": 34.06593407, "per_marg_cl_0_3_f": 65.93406593, "marg_al_0_3_p": 2, "marg_al_0_3_m": 1, "marg_al_0_3_f": 1, "per_marg_al_0_3_p": 0.71428571, "per_marg_al_0_3_m": 50.0, "per_marg_al_0_3_f": 50.0, "marg_hh_0_3_p": 2, "marg_hh_0_3_m": 0, "marg_hh_0_3_f": 2, "per_marg_hh_0_3_p": 0.71428571, "per_marg_hh_0_3_m": 0.0, "per_marg_hh_0_3_f": 100.0, "marg_ot_0_3_p": 6, "marg_ot_0_3_m": 4, "marg_ot_0_3_f": 2, "per_marg_ot_0_3_p": 2.14285714, "per_marg_ot_0_3_m": 66.66666667, "per_marg_ot_0_3_f": 33.33333333, "non_work_p": 337, "non_work_m": 161, "non_work_f": 176, "per_non_work_p": 50.29850746, "per_non_work_m": 47.77448071, "per_non_work_f": 52.22551929, "per_hc_tot_tot": 100, "per_hc_tot_god": 42.9, "per_hc_tot_liv": 44.8, "per_hc_tot_dil": 12.4, "per_hc_res_tot": 99.0, "per_hc_res_god": 41.9, "per_hc_res_liv": 44.8, "per_hc_res_dil": 12.4, "per_hc_oth_tot": 1.0, "per_hc_oth_god": 1.0, "per_hc_oth_liv": 0.0, "per_hc_oth_dil": 0.0, "per_mt_grsbam": 8.6, "per_mt_plastic": 0.0, "per_mt_h_tiles": 61.0, "per_mt_m_tiles": 1.0, "per_mt_b_brick": 7.6, "per_mt_stone": 1.0, "per_mt_asbstos": 1.9, "per_mt_concrte": 19.0, "per_mt_oth": 0.0, "per_mw_grsbam": 1.0, "per_mw_plastic": 0.0, "per_mw_mud": 67.6, "per_mw_wood": 0.0, "per_mw_no_mrtr": 0.0, "per_mw_st_mrtr": 0.0, "per_mw_asbstos": 0.0, "per_mw_b_brick": 31.4, "per_mw_concrte": 0.0, "per_mw_oth": 0.0, "per_mf_mud": 88.6, "per_mf_wood": 0.0, "per_mf_b_brick": 0.0, "per_mf_stone": 0.0, "per_mf_cement": 11.4, "per_mf_fl_tile": 0.0, "per_mf_oth": 0.0, "per_dw_n_exrm": 6.7, "per_dw_1_room": 17.1, "per_dw_2_room": 40.0, "per_dw_3_room": 16.2, "per_dw_4_room": 8.6, "per_dw_5_room": 4.8, "per_dw_6_room": 6.7, "per_hhsize_1": 2.9, "per_hhsize_2": 3.8, "per_hhsize_3": 7.6, "per_hhsize_4": 5.7, "per_hhsize_5": 11.4, "per_hhsize_6_8": 44.8, "per_hhsize_9p": 23.8, "per_ow_owned": 100.0, "per_ow_rented": 0.0, "per_ow_oth": 0.0, "per_mc_none": 14.3, "per_mcouple_1": 44.8, "per_mcouple_2": 29.5, "per_mcouple_3": 9.5, "per_mcouple_4": 1.9, "per_mcouple_5p": 0.0, "per_dw_t_ts": 0.0, "per_dw_t_unts": 0.0, "per_dw_c_well": 1.9, "per_dw_unc_wel": 8.6, "per_dw_hpump": 89.5, "per_dw_tw_bore": 0.0, "per_dw_spring": 0.0, "per_dw_rivcan": 0.0, "per_dw_tank": 0.0, "per_dw_oth": 0.0, "per_loc_dw_wp": 63.8, "per_loc_dw_np": 32.4, "per_loc_dw_aw": 3.8, "per_light_elec": 13.3, "per_light_kero": 79.0, "per_light_solr": 7.6, "per_light_oil": 0.0, "per_light_oth": 0.0, "per_light_no": 0.0, "per_hh_latrine": 3.8, "per_fl_sewer": 0.0, "per_fl_septict": 3.8, "per_fl_othsys": 0.0, "per_pl_wslab": 0.0, "per_pl_without": 0.0, "per_ns_open": 0.0, "per_sl_ns_hum": 0.0, "per_sl_ns_anml": 0.0, "per_hh_no_lat": 96.2, "per_as_pub": 0.0, "per_as_open": 96.2, "per_hh_bathrm": 2.9, "per_hh_en_wrf": 24.8, "per_hh_no_btrm": 72.4, "per_wwoc_drain": 0.0, "per_wwoc_open": 0.0, "per_wwoc_nodrn": 100.0, "per_cook_fire": 19.0, "per_cook_resdu": 8.6, "per_cook_cwdng": 71.4, "per_cook_coal": 0.0, "per_cook_kero": 0.0, "per_cook_lpng": 0.0, "per_cook_elec": 0.0, "per_cook_biogs": 0.0, "per_cook_oth": 0.0, "per_cook_no": 1.0, "per_kf_inside": 70.5, "per_kf_in_has": 35.2, "per_kf_in_does": 35.2, "per_kf_outside": 28.6, "per_kf_out_has": 15.2, "per_kf_out_dos": 13.3, "per_kf_no_cook": 1.0, "per_hh_banking": 100.0, "per_hh_radio": 6.7, "per_hh_tv": 11.4, "per_hh_cmp_int": 0.0, "per_hh_cmp_wnt": 3.8, "per_hh_ph_ll": 0.0, "per_hh_ph_mob": 81.9, "per_hh_ph_bth": 7.6, "per_hh_bcycl": 83.8, "per_hh_2wheel": 15.2, "per_hh_4wheel": 1.9, "per_hh_tvcomp": 0.0, "per_hh_no_ast": 3.8, "per_hs_perma": 30.5, "per_hs_sperma": 61.9, "per_hs_temp": 7.6, "per_hs_servc": 6.7, "per_hs_nservc": 1.0, "per_hs_unclss": 0.0, "avghhsz_cy": 6.38095238, "st_areashape": 1939186.109949825, "st_lengthshape": 7113.368052780187}, "geometry": {"type": "Polygon", "coordinates": [[[82.11050665848275, 26.030072997715706], [82.11017777447748, 26.030766146556356], [82.10960428820343, 26.03123726138623], [82.10903165353231, 26.03141313166327], [82.10894888186372, 26.031412943589313], [82.10872104485316, 26.03141242537693], [82.10834512236467, 26.031382051830867], [82.10785483625563, 26.03133664284417], [82.10636906679312, 26.03066889075233], [82.10538942253476, 26.030238508615867], [82.10504643408119, 26.030134362173456], [82.10476872440269, 26.030059913913497], [82.1044744713499, 26.030059237485172], [82.1042128666678, 26.030073410191665], [82.1040985380816, 26.030098938494376], [82.10478626041532, 26.026912779195985], [82.10480933274509, 26.026805849749145], [82.10563416134742, 26.02535891080579], [82.10627555037541, 26.0227996542126], [82.10620416305642, 26.021653905086712], [82.10620624085966, 26.020912642401452], [82.10621275903537, 26.018587768681922], [82.1061405075371, 26.017745266877416], [82.10599307782928, 26.017104753473376], [82.10543578907814, 26.01629481592343], [82.10357694209166, 26.014033026329145], [82.10174112341745, 26.01227110774692], [82.10206982686138, 26.01081432834498], [82.1026966748599, 26.01046731405269], [82.1031352207035, 26.010468326442606], [82.1035158485675, 26.010284349865557], [82.10377957147702, 26.010073685056447], [82.10401376047496, 26.009968595517044], [82.10433550826366, 26.009916513717144], [82.10503725329897, 26.009891722962827], [82.10541719305346, 26.009945401676546], [82.10559702589187, 26.010518385640815], [82.10575957065265, 26.010843546279794], [82.10681855411688, 26.01207138000306], [82.10794217675574, 26.013579860717932], [82.10861033557923, 26.014304811349593], [82.10929549412114, 26.014793570390605], [82.10975262700632, 26.01498654207558], [82.11030730255828, 26.015371652980306], [82.11061718090711, 26.01562334218746], [82.1109593366224, 26.016022744078317], [82.11224647599916, 26.01754631616968], [82.11291435814157, 26.018374592004307], [82.11348620499017, 26.01925572353188], [82.11368014856507, 26.02005339528632], [82.11402070168593, 26.021043342022576], [82.11416410424627, 26.022401905212224], [82.11417922289253, 26.022844856619997], [82.114161995002, 26.023169614207216], [82.11404697920459, 26.023376047374946], [82.11389938869836, 26.023552889242247], [82.11378440524032, 26.02375930720549], [82.1137676067445, 26.02392168282801], [82.11376720070598, 26.024069305201234], [82.11389768459428, 26.024172958963753], [82.11473033752269, 26.024543899451523], [82.11497527216808, 26.02464780787978], [82.1151711336461, 26.024751591902593], [82.11528529963725, 26.024855177255105], [82.11531762371611, 26.02498812868943], [82.11531734074678, 26.02509147408651], [82.11520268876707, 26.025165029476657], [82.11503923221629, 26.02516466380266], [82.11456517956276, 26.02516360229863], [82.11436897672495, 26.025177937041924], [82.11423804547563, 26.025236695909793], [82.11423782269345, 26.025336015450883], [82.11423717410982, 26.02557223866374], [82.11461052112843, 26.026956904808554], [82.11325340748259, 26.02767951182228], [82.11183498381867, 26.028555361370636], [82.11129409560967, 26.029070864164222], [82.11078603184117, 26.02954214724139], [82.11050665848275, 26.030072997715706]]]}}]}