{"type": "FeatureCollection", "features": [{"type": "Feature", "properties": {"premiumdata.sde.IN_Village_PCA.area": 0.64560204, "objectid": 355461, "id": "9174883363812", "name": "Raghavapur", "subdistrict": "Patti", "district": "Pratapgarh", "state": "Uttar Pradesh", "country": "India", "censusname": "Raghavapur", "villagename_locallang": null, "lgd_villagename": "Raghavapur", "lgd_villagecode": 159450, "lgd_subdistrictcode": 883, "lgd_districtcode": 174, "lgd_statecode": 9, "censuscode2001": "05251600", "censuscode2011": "159450", "censuscode2021": null, "level": "Village", "tru": "Rural", "no_hh": 37, "tot_p": 208, "tot_m": 91, "tot_f": 117, "per_tot_m": 43.75, "per_tot_f": 56.25, "p_06": 25, "m_06": 9, "f_06": 16, "per_p_06": 12.01923077, "per_m_06": 36.0, "per_f_06": 64.0, "p_sc": 13, "m_sc": 7, "f_sc": 6, "per_p_sc": 6.25, "per_m_sc": 53.84615385, "per_f_sc": 46.15384615, "p_st": 0, "m_st": 0, "f_st": 0, "per_p_st": 0.0, "per_m_st": 0.0, "per_f_st": 0.0, "p_lit": 138, "m_lit": 72, "f_lit": 66, "per_p_lit": 66.34615385000001, "per_m_lit": 52.17391304, "per_f_lit": 47.82608696, "p_ill": 70, "m_ill": 19, "f_ill": 51, "per_p_ill": 33.65384615, "per_m_ill": 27.14285714, "per_f_ill": 72.85714286, "tot_work_p": 61, "tot_work_m": 34, "tot_work_f": 27, "per_tot_work_p": 29.32692308, "per_tot_work_m": 55.73770492, "per_tot_work_f": 44.26229508, "mainwork_p": 61, "mainwork_m": 34, "mainwork_f": 27, "per_mainwork_p": 29.32692308, "per_mainwork_m": 55.73770492, "per_mainwork_f": 44.26229508, "main_cl_p": 50, "main_cl_m": 28, "main_cl_f": 22, "per_main_cl_p": 81.96721311, "per_main_cl_m": 56.0, "per_main_cl_f": 44.0, "main_al_p": 3, "main_al_m": 1, "main_al_f": 2, "per_main_al_p": 4.91803279, "per_main_al_m": 33.33333333, "per_main_al_f": 66.66666667, "main_hh_p": 0, "main_hh_m": 0, "main_hh_f": 0, "per_main_hh_p": 0.0, "per_main_hh_m": 0.0, "per_main_hh_f": 0.0, "main_ot_p": 8, "main_ot_m": 5, "main_ot_f": 3, "per_main_ot_p": 13.1147541, "per_main_ot_m": 62.5, "per_main_ot_f": 37.5, "margwork_p": 0, "margwork_m": 0, "margwork_f": 0, "per_margwork_p": 0.0, "per_margwork_m": 0.0, "per_margwork_f": 0.0, "marg_cl_p": 0, "marg_cl_m": 0, "marg_cl_f": 0, "per_marg_cl_p": 0.0, "per_marg_cl_m": 0.0, "per_marg_cl_f": 0.0, "marg_al_p": 0, "marg_al_m": 0, "marg_al_f": 0, "per_marg_al_p": 0.0, "per_marg_al_m": 0.0, "per_marg_al_f": 0.0, "marg_hh_p": 0, "marg_hh_m": 0, "marg_hh_f": 0, "per_marg_hh_p": 0.0, "per_marg_hh_m": 0.0, "per_marg_hh_f": 0.0, "marg_ot_p": 0, "marg_ot_m": 0, "marg_ot_f": 0, "per_marg_ot_p": 0.0, "per_marg_ot_m": 0.0, "per_marg_ot_f": 0.0, "margwork_3_6_p": 0, "margwork_3_6_m": 0, "margwork_3_6_f": 0, "per_margwork_3_6_p": 0.0, "per_margwork_3_6_m": 0.0, "per_margwork_3_6_f": 0.0, "marg_cl_3_6_p": 0, "marg_cl_3_6_m": 0, "marg_cl_3_6_f": 0, "per_marg_cl_3_6_p": 0.0, "per_marg_cl_3_6_m": 0.0, "per_marg_cl_3_6_f": 0.0, "marg_al_3_6_p": 0, "marg_al_3_6_m": 0, "marg_al_3_6_f": 0, "per_marg_al_3_6_p": 0.0, "per_marg_al_3_6_m": 0.0, "per_marg_al_3_6_f": 0.0, "marg_hh_3_6_p": 0, "marg_hh_3_6_m": 0, "marg_hh_3_6_f": 0, "per_marg_hh_3_6_p": 0.0, "per_marg_hh_3_6_m": 0.0, "per_marg_hh_3_6_f": 0.0, "marg_ot_3_6_p": 0, "marg_ot_3_6_m": 0, "marg_ot_3_6_f": 0, "per_marg_ot_3_6_p": 0.0, "per_marg_ot_3_6_m": 0.0, "per_marg_ot_3_6_f": 0.0, "margwork_0_3_p": 0, "margwork_0_3_m": 0, "margwork_0_3_f": 0, "per_margwork_0_3_p": 0.0, "per_margwork_0_3_m": 0.0, "per_margwork_0_3_f": 0.0, "marg_cl_0_3_p": 0, "marg_cl_0_3_m": 0, "marg_cl_0_3_f": 0, "per_marg_cl_0_3_p": 0.0, "per_marg_cl_0_3_m": 0.0, "per_marg_cl_0_3_f": 0.0, "marg_al_0_3_p": 0, "marg_al_0_3_m": 0, "marg_al_0_3_f": 0, "per_marg_al_0_3_p": 0.0, "per_marg_al_0_3_m": 0.0, "per_marg_al_0_3_f": 0.0, "marg_hh_0_3_p": 0, "marg_hh_0_3_m": 0, "marg_hh_0_3_f": 0, "per_marg_hh_0_3_p": 0.0, "per_marg_hh_0_3_m": 0.0, "per_marg_hh_0_3_f": 0.0, "marg_ot_0_3_p": 0, "marg_ot_0_3_m": 0, "marg_ot_0_3_f": 0, "per_marg_ot_0_3_p": 0.0, "per_marg_ot_0_3_m": 0.0, "per_marg_ot_0_3_f": 0.0, "non_work_p": 147, "non_work_m": 57, "non_work_f": 90, "per_non_work_p": 70.67307692, "per_non_work_m": 38.7755102, "per_non_work_f": 61.2244898, "per_hc_tot_tot": 100, "per_hc_tot_god": 100.0, "per_hc_tot_liv": 0.0, "per_hc_tot_dil": 0.0, "per_hc_res_tot": 100.0, "per_hc_res_god": 100.0, "per_hc_res_liv": 0.0, "per_hc_res_dil": 0.0, "per_hc_oth_tot": 0.0, "per_hc_oth_god": 0.0, "per_hc_oth_liv": 0.0, "per_hc_oth_dil": 0.0, "per_mt_grsbam": 31.6, "per_mt_plastic": 0.0, "per_mt_h_tiles": 0.0, "per_mt_m_tiles": 0.0, "per_mt_b_brick": 15.8, "per_mt_stone": 44.7, "per_mt_asbstos": 0.0, "per_mt_concrte": 7.9, "per_mt_oth": 0.0, "per_mw_grsbam": 2.6, "per_mw_plastic": 0.0, "per_mw_mud": 36.8, "per_mw_wood": 0.0, "per_mw_no_mrtr": 15.8, "per_mw_st_mrtr": 5.3, "per_mw_asbstos": 0.0, "per_mw_b_brick": 36.8, "per_mw_concrte": 0.0, "per_mw_oth": 2.6, "per_mf_mud": 65.8, "per_mf_wood": 0.0, "per_mf_b_brick": 10.5, "per_mf_stone": 0.0, "per_mf_cement": 23.7, "per_mf_fl_tile": 0.0, "per_mf_oth": 0.0, "per_dw_n_exrm": 0.0, "per_dw_1_room": 10.5, "per_dw_2_room": 21.1, "per_dw_3_room": 10.5, "per_dw_4_room": 21.1, "per_dw_5_room": 21.1, "per_dw_6_room": 15.8, "per_hhsize_1": 2.6, "per_hhsize_2": 2.6, "per_hhsize_3": 2.6, "per_hhsize_4": 7.9, "per_hhsize_5": 15.8, "per_hhsize_6_8": 31.6, "per_hhsize_9p": 36.8, "per_ow_owned": 100.0, "per_ow_rented": 0.0, "per_ow_oth": 0.0, "per_mc_none": 2.6, "per_mcouple_1": 39.5, "per_mcouple_2": 23.7, "per_mcouple_3": 21.1, "per_mcouple_4": 13.2, "per_mcouple_5p": 0.0, "per_dw_t_ts": 10.5, "per_dw_t_unts": 0.0, "per_dw_c_well": 2.6, "per_dw_unc_wel": 13.2, "per_dw_hpump": 73.7, "per_dw_tw_bore": 0.0, "per_dw_spring": 0.0, "per_dw_rivcan": 0.0, "per_dw_tank": 0.0, "per_dw_oth": 0.0, "per_loc_dw_wp": 13.2, "per_loc_dw_np": 63.2, "per_loc_dw_aw": 23.7, "per_light_elec": 26.3, "per_light_kero": 57.9, "per_light_solr": 0.0, "per_light_oil": 0.0, "per_light_oth": 15.8, "per_light_no": 0.0, "per_hh_latrine": 7.9, "per_fl_sewer": 0.0, "per_fl_septict": 5.3, "per_fl_othsys": 0.0, "per_pl_wslab": 2.6, "per_pl_without": 0.0, "per_ns_open": 0.0, "per_sl_ns_hum": 0.0, "per_sl_ns_anml": 0.0, "per_hh_no_lat": 92.1, "per_as_pub": 0.0, "per_as_open": 92.1, "per_hh_bathrm": 50.0, "per_hh_en_wrf": 21.1, "per_hh_no_btrm": 28.9, "per_wwoc_drain": 0.0, "per_wwoc_open": 100.0, "per_wwoc_nodrn": 0.0, "per_cook_fire": 89.5, "per_cook_resdu": 2.6, "per_cook_cwdng": 0.0, "per_cook_coal": 0.0, "per_cook_kero": 0.0, "per_cook_lpng": 7.9, "per_cook_elec": 0.0, "per_cook_biogs": 0.0, "per_cook_oth": 0.0, "per_cook_no": 0.0, "per_kf_inside": 94.7, "per_kf_in_has": 94.7, "per_kf_in_does": 0.0, "per_kf_outside": 5.3, "per_kf_out_has": 5.3, "per_kf_out_dos": 0.0, "per_kf_no_cook": 0.0, "per_hh_banking": 100.0, "per_hh_radio": 34.2, "per_hh_tv": 47.4, "per_hh_cmp_int": 0.0, "per_hh_cmp_wnt": 0.0, "per_hh_ph_ll": 0.0, "per_hh_ph_mob": 84.2, "per_hh_ph_bth": 0.0, "per_hh_bcycl": 76.3, "per_hh_2wheel": 36.8, "per_hh_4wheel": 0.0, "per_hh_tvcomp": 0.0, "per_hh_no_ast": 10.5, "per_hs_perma": 47.4, "per_hs_sperma": 28.9, "per_hs_temp": 21.1, "per_hs_servc": 18.4, "per_hs_nservc": 2.6, "per_hs_unclss": 2.6, "avghhsz_cy": 5.62162162, "st_areashape": 801822.49582111, "st_lengthshape": 3743.2206197701157}, "geometry": {"type": "Polygon", "coordinates": [[[82.29991676941435, 25.952340045746077], [82.29841176163171, 25.953661790232026], [82.2967075488416, 25.955184717738348], [82.29647733129552, 25.954453081262525], [82.29609274275947, 25.953860505006308], [82.29563095210956, 25.953407169576145], [82.29532325127695, 25.952988891633705], [82.29509257109854, 25.95257062916731], [82.29459185734571, 25.952326237639927], [82.29394876690853, 25.952441885628133], [82.29348062247462, 25.952088657187733], [82.29232578517629, 25.951181764154573], [82.29132513740824, 25.95017051514561], [82.2909177334606, 25.949217026875925], [82.29168907098101, 25.94880004745084], [82.29284627534008, 25.94817452021302], [82.29392684801557, 25.947200651268542], [82.29475949016424, 25.947353521928342], [82.29619834960256, 25.947419823816574], [82.29712328825677, 25.947455718307705], [82.29770155716135, 25.94731713870991], [82.29820310904235, 25.946969397386365], [82.29874328219238, 25.946552113550847], [82.299707401766, 25.946100447104794], [82.30028571289142, 25.945926983911193], [82.30065759116454, 25.946280756695533], [82.30119667106486, 25.94662962284878], [82.30185064010011, 25.947501099940258], [82.30258148695737, 25.948477182877376], [82.3027344952031, 25.94927840367868], [82.302618203798, 25.949835519579253], [82.30200056802272, 25.95049659392102], [82.30130600771301, 25.951087841421707], [82.29991676941435, 25.952340045746077]]]}}]}