{"type": "FeatureCollection", "features": [{"type": "Feature", "properties": {"premiumdata.sde.IN_Village_PCA.area": 0.02315042, "objectid": 618845, "id": "182992093232055", "name": "Gereso Pt Iii", "subdistrict": "Haflong", "district": "Dima Hasao", "state": "Assam", "country": "India", "censusname": "Gereso pt. III", "villagename_locallang": null, "lgd_villagename": "Gereso Pt. Iii", "lgd_villagecode": 298747, "lgd_subdistrictcode": 2093, "lgd_districtcode": 299, "lgd_statecode": 18, "censuscode2001": "02384300", "censuscode2011": "298747", "censuscode2021": null, "level": "Village", "tru": "Rural", "no_hh": 17, "tot_p": 82, "tot_m": 37, "tot_f": 45, "per_tot_m": 45.12195122, "per_tot_f": 54.87804878, "p_06": 24, "m_06": 9, "f_06": 15, "per_p_06": 29.26829268, "per_m_06": 37.5, "per_f_06": 62.5, "p_sc": 0, "m_sc": 0, "f_sc": 0, "per_p_sc": 0.0, "per_m_sc": 0.0, "per_f_sc": 0.0, "p_st": 82, "m_st": 37, "f_st": 45, "per_p_st": 100.0, "per_m_st": 45.12195122, "per_f_st": 54.87804878, "p_lit": 24, "m_lit": 15, "f_lit": 9, "per_p_lit": 29.26829268, "per_m_lit": 62.5, "per_f_lit": 37.5, "p_ill": 58, "m_ill": 22, "f_ill": 36, "per_p_ill": 70.73170732, "per_m_ill": 37.93103448, "per_f_ill": 62.06896552, "tot_work_p": 44, "tot_work_m": 22, "tot_work_f": 22, "per_tot_work_p": 53.65853659, "per_tot_work_m": 50.0, "per_tot_work_f": 50.0, "mainwork_p": 44, "mainwork_m": 22, "mainwork_f": 22, "per_mainwork_p": 53.65853659, "per_mainwork_m": 50.0, "per_mainwork_f": 50.0, "main_cl_p": 44, "main_cl_m": 22, "main_cl_f": 22, "per_main_cl_p": 100.0, "per_main_cl_m": 50.0, "per_main_cl_f": 50.0, "main_al_p": 0, "main_al_m": 0, "main_al_f": 0, "per_main_al_p": 0.0, "per_main_al_m": 0.0, "per_main_al_f": 0.0, "main_hh_p": 0, "main_hh_m": 0, "main_hh_f": 0, "per_main_hh_p": 0.0, "per_main_hh_m": 0.0, "per_main_hh_f": 0.0, "main_ot_p": 0, "main_ot_m": 0, "main_ot_f": 0, "per_main_ot_p": 0.0, "per_main_ot_m": 0.0, "per_main_ot_f": 0.0, "margwork_p": 0, "margwork_m": 0, "margwork_f": 0, "per_margwork_p": 0.0, "per_margwork_m": 0.0, "per_margwork_f": 0.0, "marg_cl_p": 0, "marg_cl_m": 0, "marg_cl_f": 0, "per_marg_cl_p": 0.0, "per_marg_cl_m": 0.0, "per_marg_cl_f": 0.0, "marg_al_p": 0, "marg_al_m": 0, "marg_al_f": 0, "per_marg_al_p": 0.0, "per_marg_al_m": 0.0, "per_marg_al_f": 0.0, "marg_hh_p": 0, "marg_hh_m": 0, "marg_hh_f": 0, "per_marg_hh_p": 0.0, "per_marg_hh_m": 0.0, "per_marg_hh_f": 0.0, "marg_ot_p": 0, "marg_ot_m": 0, "marg_ot_f": 0, "per_marg_ot_p": 0.0, "per_marg_ot_m": 0.0, "per_marg_ot_f": 0.0, "margwork_3_6_p": 0, "margwork_3_6_m": 0, "margwork_3_6_f": 0, "per_margwork_3_6_p": 0.0, "per_margwork_3_6_m": 0.0, "per_margwork_3_6_f": 0.0, "marg_cl_3_6_p": 0, "marg_cl_3_6_m": 0, "marg_cl_3_6_f": 0, "per_marg_cl_3_6_p": 0.0, "per_marg_cl_3_6_m": 0.0, "per_marg_cl_3_6_f": 0.0, "marg_al_3_6_p": 0, "marg_al_3_6_m": 0, "marg_al_3_6_f": 0, "per_marg_al_3_6_p": 0.0, "per_marg_al_3_6_m": 0.0, "per_marg_al_3_6_f": 0.0, "marg_hh_3_6_p": 0, "marg_hh_3_6_m": 0, "marg_hh_3_6_f": 0, "per_marg_hh_3_6_p": 0.0, "per_marg_hh_3_6_m": 0.0, "per_marg_hh_3_6_f": 0.0, "marg_ot_3_6_p": 0, "marg_ot_3_6_m": 0, "marg_ot_3_6_f": 0, "per_marg_ot_3_6_p": 0.0, "per_marg_ot_3_6_m": 0.0, "per_marg_ot_3_6_f": 0.0, "margwork_0_3_p": 0, "margwork_0_3_m": 0, "margwork_0_3_f": 0, "per_margwork_0_3_p": 0.0, "per_margwork_0_3_m": 0.0, "per_margwork_0_3_f": 0.0, "marg_cl_0_3_p": 0, "marg_cl_0_3_m": 0, "marg_cl_0_3_f": 0, "per_marg_cl_0_3_p": 0.0, "per_marg_cl_0_3_m": 0.0, "per_marg_cl_0_3_f": 0.0, "marg_al_0_3_p": 0, "marg_al_0_3_m": 0, "marg_al_0_3_f": 0, "per_marg_al_0_3_p": 0.0, "per_marg_al_0_3_m": 0.0, "per_marg_al_0_3_f": 0.0, "marg_hh_0_3_p": 0, "marg_hh_0_3_m": 0, "marg_hh_0_3_f": 0, "per_marg_hh_0_3_p": 0.0, "per_marg_hh_0_3_m": 0.0, "per_marg_hh_0_3_f": 0.0, "marg_ot_0_3_p": 0, "marg_ot_0_3_m": 0, "marg_ot_0_3_f": 0, "per_marg_ot_0_3_p": 0.0, "per_marg_ot_0_3_m": 0.0, "per_marg_ot_0_3_f": 0.0, "non_work_p": 38, "non_work_m": 15, "non_work_f": 23, "per_non_work_p": 46.34146341, "per_non_work_m": 39.47368421, "per_non_work_f": 60.52631579, "per_hc_tot_tot": 100, "per_hc_tot_god": 0.0, "per_hc_tot_liv": 41.2, "per_hc_tot_dil": 58.8, "per_hc_res_tot": 100.0, "per_hc_res_god": 0.0, "per_hc_res_liv": 41.2, "per_hc_res_dil": 58.8, "per_hc_oth_tot": 0.0, "per_hc_oth_god": 0.0, "per_hc_oth_liv": 0.0, "per_hc_oth_dil": 0.0, "per_mt_grsbam": 94.1, "per_mt_plastic": 0.0, "per_mt_h_tiles": 0.0, "per_mt_m_tiles": 0.0, "per_mt_b_brick": 0.0, "per_mt_stone": 0.0, "per_mt_asbstos": 5.9, "per_mt_concrte": 0.0, "per_mt_oth": 0.0, "per_mw_grsbam": 100.0, "per_mw_plastic": 0.0, "per_mw_mud": 0.0, "per_mw_wood": 0.0, "per_mw_no_mrtr": 0.0, "per_mw_st_mrtr": 0.0, "per_mw_asbstos": 0.0, "per_mw_b_brick": 0.0, "per_mw_concrte": 0.0, "per_mw_oth": 0.0, "per_mf_mud": 100.0, "per_mf_wood": 0.0, "per_mf_b_brick": 0.0, "per_mf_stone": 0.0, "per_mf_cement": 0.0, "per_mf_fl_tile": 0.0, "per_mf_oth": 0.0, "per_dw_n_exrm": 11.8, "per_dw_1_room": 82.4, "per_dw_2_room": 5.9, "per_dw_3_room": 0.0, "per_dw_4_room": 0.0, "per_dw_5_room": 0.0, "per_dw_6_room": 0.0, "per_hhsize_1": 5.9, "per_hhsize_2": 5.9, "per_hhsize_3": 23.5, "per_hhsize_4": 11.8, "per_hhsize_5": 17.6, "per_hhsize_6_8": 35.3, "per_hhsize_9p": 0.0, "per_ow_owned": 100.0, "per_ow_rented": 0.0, "per_ow_oth": 0.0, "per_mc_none": 5.9, "per_mcouple_1": 82.4, "per_mcouple_2": 11.8, "per_mcouple_3": 0.0, "per_mcouple_4": 0.0, "per_mcouple_5p": 0.0, "per_dw_t_ts": 0.0, "per_dw_t_unts": 0.0, "per_dw_c_well": 0.0, "per_dw_unc_wel": 0.0, "per_dw_hpump": 0.0, "per_dw_tw_bore": 0.0, "per_dw_spring": 0.0, "per_dw_rivcan": 100.0, "per_dw_tank": 0.0, "per_dw_oth": 0.0, "per_loc_dw_wp": 0.0, "per_loc_dw_np": 0.0, "per_loc_dw_aw": 100.0, "per_light_elec": 0.0, "per_light_kero": 100.0, "per_light_solr": 0.0, "per_light_oil": 0.0, "per_light_oth": 0.0, "per_light_no": 0.0, "per_hh_latrine": 0.0, "per_fl_sewer": 0.0, "per_fl_septict": 0.0, "per_fl_othsys": 0.0, "per_pl_wslab": 0.0, "per_pl_without": 0.0, "per_ns_open": 0.0, "per_sl_ns_hum": 0.0, "per_sl_ns_anml": 0.0, "per_hh_no_lat": 100.0, "per_as_pub": 0.0, "per_as_open": 100.0, "per_hh_bathrm": 0.0, "per_hh_en_wrf": 0.0, "per_hh_no_btrm": 100.0, "per_wwoc_drain": 0.0, "per_wwoc_open": 0.0, "per_wwoc_nodrn": 100.0, "per_cook_fire": 100.0, "per_cook_resdu": 0.0, "per_cook_cwdng": 0.0, "per_cook_coal": 0.0, "per_cook_kero": 0.0, "per_cook_lpng": 0.0, "per_cook_elec": 0.0, "per_cook_biogs": 0.0, "per_cook_oth": 0.0, "per_cook_no": 0.0, "per_kf_inside": 88.2, "per_kf_in_has": 88.2, "per_kf_in_does": 0.0, "per_kf_outside": 11.8, "per_kf_out_has": 11.8, "per_kf_out_dos": 0.0, "per_kf_no_cook": 0.0, "per_hh_banking": 0.0, "per_hh_radio": 29.4, "per_hh_tv": 0.0, "per_hh_cmp_int": 0.0, "per_hh_cmp_wnt": 0.0, "per_hh_ph_ll": 0.0, "per_hh_ph_mob": 5.9, "per_hh_ph_bth": 0.0, "per_hh_bcycl": 0.0, "per_hh_2wheel": 0.0, "per_hh_4wheel": 0.0, "per_hh_tvcomp": 0.0, "per_hh_no_ast": 64.7, "per_hs_perma": 0.0, "per_hs_sperma": 5.9, "per_hs_temp": 94.1, "per_hs_servc": 0.0, "per_hs_nservc": 94.1, "per_hs_unclss": 0.0, "avghhsz_cy": 4.82352941, "st_areashape": 31363.87350204, "st_lengthshape": 628.0581775956349}, "geometry": {"type": "Polygon", "coordinates": [[[93.1780934801649, 25.23396997363163], [93.17800403670867, 25.23396593585665], [93.1779154825846, 25.233953861535422], [93.17782869724331, 25.233933872554477], [93.17774454306752, 25.23390616555761], [93.17766385728699, 25.23387101763397], [93.17758744119904, 25.233828776567325], [93.17751605388007, 25.23377986246156], [93.17745040589742, 25.233724762865457], [93.177391149428, 25.233664023834496], [93.17733887197005, 25.23359824911871], [93.1772940945464, 25.233528093662297], [93.1772572618231, 25.233454253040353], [93.17722874031283, 25.233377461833808], [93.17720881208656, 25.23329848387877], [93.1771976765703, 25.23321810332814], [93.17719544425682, 25.23313711896362], [93.17720213670569, 25.23305633606974], [93.17721768744158, 25.23297655749538], [93.17724194285258, 25.2328985755278], [93.17727466039354, 25.23282316620412], [93.17731551667096, 25.232751077934832], [93.17736410384973, 25.232683027440483], [93.17741994043284, 25.23261969162545], [93.17748247036313, 25.232561699451384], [93.17755107380307, 25.232509627061322], [93.17762506713473, 25.23246399290368], [93.17770371553617, 25.232425249605786], [93.17778623837143, 25.23239378234833], [93.17787181458033, 25.23236990480202], [93.17795959345831, 25.232353852626456], [93.17804870274125, 25.23234578672027], [93.17813825758856, 25.23234578672027], [93.17822736687147, 25.232353852626456], [93.17831514574945, 25.23236990480202], [93.17840072195837, 25.23239378234833], [93.17848324479364, 25.232425249605786], [93.17856189319508, 25.23246399290368], [93.1786358865267, 25.232509627061322], [93.17870448996663, 25.232561699451384], [93.17876701989692, 25.23261969162545], [93.17882285648004, 25.232683027440483], [93.17887144365882, 25.232751077934832], [93.17891229993624, 25.23282316620412], [93.17894501747723, 25.2328985755278], [93.1789692728882, 25.23297655749538], [93.17898482362408, 25.23305633606974], [93.17899151607295, 25.23313711896362], [93.17898928375948, 25.23321810332814], [93.17897814824322, 25.23329848387877], [93.17895822001694, 25.233377461833808], [93.17892969850669, 25.233454253040353], [93.17889286578341, 25.233528093662297], [93.17884808835976, 25.23359824911871], [93.1787958109018, 25.233664023834496], [93.1787365544324, 25.233724762865457], [93.17867090644975, 25.23377986246156], [93.17859951913074, 25.233828776567325], [93.17852310304279, 25.23387101763397], [93.17844241726229, 25.23390616555761], [93.17835826308647, 25.233933872554477], [93.17827147774517, 25.233953861535422], [93.1781829236211, 25.23396593585665], [93.1780934801649, 25.23396997363163]]]}}]}