{"type": "FeatureCollection", "features": [{"type": "Feature", "properties": {"premiumdata.sde.IN_Village_PCA.area": 5.27613481, "objectid": 44776, "id": "295365473100202", "name": "Devarhubli", "subdistrict": "Dharwad", "district": "Dharwad", "state": "Karnataka", "country": "India", "censusname": "Devarhubli", "villagename_locallang": null, "lgd_villagename": "Devarhubli", "lgd_villagecode": 602266, "lgd_subdistrictcode": 5473, "lgd_districtcode": 536, "lgd_statecode": 29, "censuscode2001": "00655000", "censuscode2011": "602266", "censuscode2021": null, "level": "Village", "tru": "Rural", "no_hh": 416, "tot_p": 2324, "tot_m": 1187, "tot_f": 1137, "per_tot_m": 51.0757315, "per_tot_f": 48.9242685, "p_06": 334, "m_06": 157, "f_06": 177, "per_p_06": 14.37177281, "per_m_06": 47.00598802, "per_f_06": 52.99401198, "p_sc": 141, "m_sc": 72, "f_sc": 69, "per_p_sc": 6.06712565, "per_m_sc": 51.06382979, "per_f_sc": 48.93617021, "p_st": 165, "m_st": 80, "f_st": 85, "per_p_st": 7.09982788, "per_m_st": 48.48484848, "per_f_st": 51.51515152, "p_lit": 1544, "m_lit": 882, "f_lit": 662, "per_p_lit": 66.43717728, "per_m_lit": 57.12435233, "per_f_lit": 42.87564767, "p_ill": 780, "m_ill": 305, "f_ill": 475, "per_p_ill": 33.56282272, "per_m_ill": 39.1025641, "per_f_ill": 60.8974359, "tot_work_p": 1254, "tot_work_m": 774, "tot_work_f": 480, "per_tot_work_p": 53.95869191, "per_tot_work_m": 61.72248804, "per_tot_work_f": 38.27751196000001, "mainwork_p": 1001, "mainwork_m": 675, "mainwork_f": 326, "per_mainwork_p": 43.07228916, "per_mainwork_m": 67.43256743, "per_mainwork_f": 32.56743257, "main_cl_p": 461, "main_cl_m": 331, "main_cl_f": 130, "per_main_cl_p": 46.05394605, "per_main_cl_m": 71.80043384, "per_main_cl_f": 28.19956616, "main_al_p": 274, "main_al_m": 125, "main_al_f": 149, "per_main_al_p": 27.37262737, "per_main_al_m": 45.62043796, "per_main_al_f": 54.37956204, "main_hh_p": 66, "main_hh_m": 37, "main_hh_f": 29, "per_main_hh_p": 6.59340659, "per_main_hh_m": 56.06060606, "per_main_hh_f": 43.93939394, "main_ot_p": 200, "main_ot_m": 182, "main_ot_f": 18, "per_main_ot_p": 19.98001998, "per_main_ot_m": 91.0, "per_main_ot_f": 9.0, "margwork_p": 253, "margwork_m": 99, "margwork_f": 154, "per_margwork_p": 10.88640275, "per_margwork_m": 39.13043478, "per_margwork_f": 60.86956522000001, "marg_cl_p": 55, "marg_cl_m": 27, "marg_cl_f": 28, "per_marg_cl_p": 21.73913043, "per_marg_cl_m": 49.09090909, "per_marg_cl_f": 50.90909091, "marg_al_p": 100, "marg_al_m": 25, "marg_al_f": 75, "per_marg_al_p": 39.5256917, "per_marg_al_m": 25.0, "per_marg_al_f": 75.0, "marg_hh_p": 36, "marg_hh_m": 5, "marg_hh_f": 31, "per_marg_hh_p": 14.22924901, "per_marg_hh_m": 13.88888889, "per_marg_hh_f": 86.11111111, "marg_ot_p": 62, "marg_ot_m": 42, "marg_ot_f": 20, "per_marg_ot_p": 24.50592885, "per_marg_ot_m": 67.74193548, "per_marg_ot_f": 32.25806452, "margwork_3_6_p": 217, "margwork_3_6_m": 80, "margwork_3_6_f": 137, "per_margwork_3_6_p": 85.77075099000001, "per_margwork_3_6_m": 36.86635945, "per_margwork_3_6_f": 63.13364055, "marg_cl_3_6_p": 41, "marg_cl_3_6_m": 18, "marg_cl_3_6_f": 23, "per_marg_cl_3_6_p": 16.2055336, "per_marg_cl_3_6_m": 43.90243902, "per_marg_cl_3_6_f": 56.09756098, "marg_al_3_6_p": 79, "marg_al_3_6_m": 16, "marg_al_3_6_f": 63, "per_marg_al_3_6_p": 31.22529644, "per_marg_al_3_6_m": 20.25316456, "per_marg_al_3_6_f": 79.74683544, "marg_hh_3_6_p": 36, "marg_hh_3_6_m": 5, "marg_hh_3_6_f": 31, "per_marg_hh_3_6_p": 14.22924901, "per_marg_hh_3_6_m": 13.88888889, "per_marg_hh_3_6_f": 86.11111111, "marg_ot_3_6_p": 61, "marg_ot_3_6_m": 41, "marg_ot_3_6_f": 20, "per_marg_ot_3_6_p": 24.11067194, "per_marg_ot_3_6_m": 67.21311475, "per_marg_ot_3_6_f": 32.78688525, "margwork_0_3_p": 36, "margwork_0_3_m": 19, "margwork_0_3_f": 17, "per_margwork_0_3_p": 14.22924901, "per_margwork_0_3_m": 52.77777778, "per_margwork_0_3_f": 47.22222222, "marg_cl_0_3_p": 14, "marg_cl_0_3_m": 9, "marg_cl_0_3_f": 5, "per_marg_cl_0_3_p": 5.53359684, "per_marg_cl_0_3_m": 64.28571429, "per_marg_cl_0_3_f": 35.71428571, "marg_al_0_3_p": 21, "marg_al_0_3_m": 9, "marg_al_0_3_f": 12, "per_marg_al_0_3_p": 8.30039526, "per_marg_al_0_3_m": 42.85714286, "per_marg_al_0_3_f": 57.14285714, "marg_hh_0_3_p": 0, "marg_hh_0_3_m": 0, "marg_hh_0_3_f": 0, "per_marg_hh_0_3_p": 0.0, "per_marg_hh_0_3_m": 0.0, "per_marg_hh_0_3_f": 0.0, "marg_ot_0_3_p": 1, "marg_ot_0_3_m": 1, "marg_ot_0_3_f": 0, "per_marg_ot_0_3_p": 0.39525692, "per_marg_ot_0_3_m": 100.0, "per_marg_ot_0_3_f": 0.0, "non_work_p": 1070, "non_work_m": 413, "non_work_f": 657, "per_non_work_p": 46.04130809, "per_non_work_m": 38.59813084, "per_non_work_f": 61.40186916, "per_hc_tot_tot": 100, "per_hc_tot_god": 79.4, "per_hc_tot_liv": 18.7, "per_hc_tot_dil": 2.0, "per_hc_res_tot": 98.8, "per_hc_res_god": 78.1, "per_hc_res_liv": 18.7, "per_hc_res_dil": 2.0, "per_hc_oth_tot": 1.2, "per_hc_oth_god": 1.2, "per_hc_oth_liv": 0.0, "per_hc_oth_dil": 0.0, "per_mt_grsbam": 0.7, "per_mt_plastic": 0.0, "per_mt_h_tiles": 23.6, "per_mt_m_tiles": 73.2, "per_mt_b_brick": 0.0, "per_mt_stone": 0.7, "per_mt_asbstos": 1.2, "per_mt_concrte": 0.2, "per_mt_oth": 0.2, "per_mw_grsbam": 3.4, "per_mw_plastic": 0.0, "per_mw_mud": 81.6, "per_mw_wood": 2.2, "per_mw_no_mrtr": 1.2, "per_mw_st_mrtr": 1.5, "per_mw_asbstos": 0.2, "per_mw_b_brick": 9.6, "per_mw_concrte": 0.2, "per_mw_oth": 0.0, "per_mf_mud": 79.6, "per_mf_wood": 0.0, "per_mf_b_brick": 0.0, "per_mf_stone": 17.2, "per_mf_cement": 1.7, "per_mf_fl_tile": 1.5, "per_mf_oth": 0.0, "per_dw_n_exrm": 5.7, "per_dw_1_room": 43.0, "per_dw_2_room": 32.9, "per_dw_3_room": 9.6, "per_dw_4_room": 6.4, "per_dw_5_room": 1.5, "per_dw_6_room": 1.0, "per_hhsize_1": 3.9, "per_hhsize_2": 7.6, "per_hhsize_3": 10.8, "per_hhsize_4": 19.2, "per_hhsize_5": 20.6, "per_hhsize_6_8": 25.8, "per_hhsize_9p": 12.0, "per_ow_owned": 93.4, "per_ow_rented": 3.9, "per_ow_oth": 2.7, "per_mc_none": 11.8, "per_mcouple_1": 64.4, "per_mcouple_2": 14.0, "per_mcouple_3": 7.6, "per_mcouple_4": 1.7, "per_mcouple_5p": 0.5, "per_dw_t_ts": 40.5, "per_dw_t_unts": 30.0, "per_dw_c_well": 0.2, "per_dw_unc_wel": 0.0, "per_dw_hpump": 0.0, "per_dw_tw_bore": 29.2, "per_dw_spring": 0.0, "per_dw_rivcan": 0.0, "per_dw_tank": 0.0, "per_dw_oth": 0.0, "per_loc_dw_wp": 10.8, "per_loc_dw_np": 64.6, "per_loc_dw_aw": 24.6, "per_light_elec": 93.4, "per_light_kero": 6.6, "per_light_solr": 0.0, "per_light_oil": 0.0, "per_light_oth": 0.0, "per_light_no": 0.0, "per_hh_latrine": 27.8, "per_fl_sewer": 1.7, "per_fl_septict": 16.2, "per_fl_othsys": 1.5, "per_pl_wslab": 7.9, "per_pl_without": 0.2, "per_ns_open": 0.2, "per_sl_ns_hum": 0.0, "per_sl_ns_anml": 0.0, "per_hh_no_lat": 72.2, "per_as_pub": 0.0, "per_as_open": 72.2, "per_hh_bathrm": 59.2, "per_hh_en_wrf": 31.7, "per_hh_no_btrm": 9.1, "per_wwoc_drain": 3.2, "per_wwoc_open": 23.8, "per_wwoc_nodrn": 73.0, "per_cook_fire": 95.8, "per_cook_resdu": 0.5, "per_cook_cwdng": 0.0, "per_cook_coal": 0.0, "per_cook_kero": 1.0, "per_cook_lpng": 2.2, "per_cook_elec": 0.0, "per_cook_biogs": 0.5, "per_cook_oth": 0.0, "per_cook_no": 0.0, "per_kf_inside": 96.1, "per_kf_in_has": 95.3, "per_kf_in_does": 0.7, "per_kf_outside": 3.9, "per_kf_out_has": 0.2, "per_kf_out_dos": 3.7, "per_kf_no_cook": 0.0, "per_hh_banking": 83.3, "per_hh_radio": 14.0, "per_hh_tv": 49.9, "per_hh_cmp_int": 0.0, "per_hh_cmp_wnt": 2.2, "per_hh_ph_ll": 2.0, "per_hh_ph_mob": 63.9, "per_hh_ph_bth": 4.9, "per_hh_bcycl": 40.0, "per_hh_2wheel": 12.0, "per_hh_4wheel": 4.4, "per_hh_tvcomp": 0.2, "per_hh_no_ast": 13.3, "per_hs_perma": 12.8, "per_hs_sperma": 86.2, "per_hs_temp": 0.7, "per_hs_servc": 0.2, "per_hs_nservc": 0.5, "per_hs_unclss": 0.2, "avghhsz_cy": 5.58653846, "st_areashape": 5708679.364860685, "st_lengthshape": 12386.845532108226}, "geometry": {"type": "Polygon", "coordinates": [[[74.91130800163423, 15.400318999999374], [74.91140000169572, 15.399997999694603], [74.90949200249013, 15.397118999463826], [74.90970600185204, 15.396779999780922], [74.91046900210831, 15.394199999931276], [74.91162100162866, 15.390588999754879], [74.91187300242206, 15.389428999128633], [74.91362000196915, 15.38863599995986], [74.91454300205898, 15.387595999736925], [74.91505400152182, 15.385790999750588], [74.91502400228292, 15.384377999469146], [74.91468800182393, 15.380784999711343], [74.91471900178608, 15.380512999027058], [74.91551200217954, 15.373375999329006], [74.91553500174575, 15.373198999523732], [74.91892200160815, 15.375462999211639], [74.9203950024172, 15.374673999659038], [74.92134900246914, 15.375047000284258], [74.92166100174038, 15.377355999213805], [74.92383600180796, 15.377455999480974], [74.92517900202233, 15.376796999668526], [74.92709400179892, 15.377927999955483], [74.92817700172232, 15.378041999579445], [74.92945100144141, 15.380979999273235], [74.93000000143742, 15.381230999790814], [74.93145800127951, 15.379669999665218], [74.93351000132346, 15.380799999550872], [74.93407400138808, 15.38182099948504], [74.93619500102899, 15.382068000038071], [74.93649300185315, 15.38311099957085], [74.93619500102899, 15.383901999971126], [74.93329600196155, 15.38423300029044], [74.93167900211077, 15.399958999202926], [74.92948200230187, 15.400641999538925], [74.92803200195736, 15.400660999139635], [74.92688800193461, 15.400675999278977], [74.92682600201033, 15.39753200012204], [74.92589600134953, 15.397445999163423], [74.92473600143325, 15.396182999540631], [74.92389700190732, 15.395996998915578], [74.92317200128592, 15.396006999521488], [74.92261500179234, 15.399256999495332], [74.92209600193354, 15.399262999591688], [74.92094400151487, 15.398393998843952], [74.92015100201974, 15.400565999386746], [74.91987600166013, 15.400517000345044], [74.91911300140389, 15.400382999248151], [74.918671001538, 15.39871799994778], [74.91680100196726, 15.39874200039441], [74.91651200226224, 15.399629999383261], [74.91433700129632, 15.399658000069977], [74.9134060017089, 15.40006299934304], [74.91165200159078, 15.400084999898986], [74.91130800163423, 15.400318999999374]]]}}]}