{"type": "FeatureCollection", "features": [{"type": "Feature", "properties": {"premiumdata.sde.IN_Village_PCA.area": 2.16982068, "objectid": 47173, "id": "29524544698619", "name": "Raddera Timmapur", "subdistrict": "Badami", "district": "Bagalkote", "state": "Karnataka", "country": "India", "censusname": "Raddera Timmapur", "villagename_locallang": null, "lgd_villagename": "Raddera Timmapur", "lgd_villagecode": 598697, "lgd_subdistrictcode": 5446, "lgd_districtcode": 524, "lgd_statecode": 29, "censuscode2001": "00156600", "censuscode2011": "598697", "censuscode2021": null, "level": "Village", "tru": "Rural", "no_hh": 380, "tot_p": 1771, "tot_m": 885, "tot_f": 886, "per_tot_m": 49.97176736, "per_tot_f": 50.02823264, "p_06": 249, "m_06": 110, "f_06": 139, "per_p_06": 14.05985319, "per_m_06": 44.17670683, "per_f_06": 55.82329317, "p_sc": 150, "m_sc": 91, "f_sc": 59, "per_p_sc": 8.46979108, "per_m_sc": 60.66666667000001, "per_f_sc": 39.33333333, "p_st": 140, "m_st": 67, "f_st": 73, "per_p_st": 7.90513834, "per_m_st": 47.85714286, "per_f_st": 52.14285714, "p_lit": 1100, "m_lit": 645, "f_lit": 455, "per_p_lit": 62.11180124000001, "per_m_lit": 58.63636364, "per_f_lit": 41.36363636, "p_ill": 671, "m_ill": 240, "f_ill": 431, "per_p_ill": 37.88819876, "per_m_ill": 35.76751118, "per_f_ill": 64.23248882, "tot_work_p": 653, "tot_work_m": 500, "tot_work_f": 153, "per_tot_work_p": 36.87182383, "per_tot_work_m": 76.56967841, "per_tot_work_f": 23.43032159, "mainwork_p": 391, "mainwork_m": 365, "mainwork_f": 26, "per_mainwork_p": 22.07792208, "per_mainwork_m": 93.35038363000001, "per_mainwork_f": 6.64961637, "main_cl_p": 301, "main_cl_m": 291, "main_cl_f": 10, "per_main_cl_p": 76.98209719, "per_main_cl_m": 96.67774086, "per_main_cl_f": 3.32225914, "main_al_p": 21, "main_al_m": 16, "main_al_f": 5, "per_main_al_p": 5.37084399, "per_main_al_m": 76.19047619, "per_main_al_f": 23.80952381, "main_hh_p": 5, "main_hh_m": 5, "main_hh_f": 0, "per_main_hh_p": 1.27877238, "per_main_hh_m": 100.0, "per_main_hh_f": 0.0, "main_ot_p": 64, "main_ot_m": 53, "main_ot_f": 11, "per_main_ot_p": 16.36828645, "per_main_ot_m": 82.8125, "per_main_ot_f": 17.1875, "margwork_p": 262, "margwork_m": 135, "margwork_f": 127, "per_margwork_p": 14.79390175, "per_margwork_m": 51.52671756, "per_margwork_f": 48.47328244, "marg_cl_p": 6, "marg_cl_m": 4, "marg_cl_f": 2, "per_marg_cl_p": 2.29007634, "per_marg_cl_m": 66.66666667, "per_marg_cl_f": 33.33333333, "marg_al_p": 239, "marg_al_m": 118, "marg_al_f": 121, "per_marg_al_p": 91.22137405, "per_marg_al_m": 49.37238494, "per_marg_al_f": 50.62761506, "marg_hh_p": 10, "marg_hh_m": 7, "marg_hh_f": 3, "per_marg_hh_p": 3.81679389, "per_marg_hh_m": 70.0, "per_marg_hh_f": 30.0, "marg_ot_p": 7, "marg_ot_m": 6, "marg_ot_f": 1, "per_marg_ot_p": 2.67175573, "per_marg_ot_m": 85.71428571, "per_marg_ot_f": 14.28571429, "margwork_3_6_p": 261, "margwork_3_6_m": 134, "margwork_3_6_f": 127, "per_margwork_3_6_p": 99.61832061000001, "per_margwork_3_6_m": 51.34099617, "per_margwork_3_6_f": 48.65900383, "marg_cl_3_6_p": 5, "marg_cl_3_6_m": 3, "marg_cl_3_6_f": 2, "per_marg_cl_3_6_p": 1.90839695, "per_marg_cl_3_6_m": 60.0, "per_marg_cl_3_6_f": 40.0, "marg_al_3_6_p": 239, "marg_al_3_6_m": 118, "marg_al_3_6_f": 121, "per_marg_al_3_6_p": 91.22137405, "per_marg_al_3_6_m": 49.37238494, "per_marg_al_3_6_f": 50.62761506, "marg_hh_3_6_p": 10, "marg_hh_3_6_m": 7, "marg_hh_3_6_f": 3, "per_marg_hh_3_6_p": 3.81679389, "per_marg_hh_3_6_m": 70.0, "per_marg_hh_3_6_f": 30.0, "marg_ot_3_6_p": 7, "marg_ot_3_6_m": 6, "marg_ot_3_6_f": 1, "per_marg_ot_3_6_p": 2.67175573, "per_marg_ot_3_6_m": 85.71428571, "per_marg_ot_3_6_f": 14.28571429, "margwork_0_3_p": 1, "margwork_0_3_m": 1, "margwork_0_3_f": 0, "per_margwork_0_3_p": 0.38167939, "per_margwork_0_3_m": 100.0, "per_margwork_0_3_f": 0.0, "marg_cl_0_3_p": 1, "marg_cl_0_3_m": 1, "marg_cl_0_3_f": 0, "per_marg_cl_0_3_p": 0.38167939, "per_marg_cl_0_3_m": 100.0, "per_marg_cl_0_3_f": 0.0, "marg_al_0_3_p": 0, "marg_al_0_3_m": 0, "marg_al_0_3_f": 0, "per_marg_al_0_3_p": 0.0, "per_marg_al_0_3_m": 0.0, "per_marg_al_0_3_f": 0.0, "marg_hh_0_3_p": 0, "marg_hh_0_3_m": 0, "marg_hh_0_3_f": 0, "per_marg_hh_0_3_p": 0.0, "per_marg_hh_0_3_m": 0.0, "per_marg_hh_0_3_f": 0.0, "marg_ot_0_3_p": 0, "marg_ot_0_3_m": 0, "marg_ot_0_3_f": 0, "per_marg_ot_0_3_p": 0.0, "per_marg_ot_0_3_m": 0.0, "per_marg_ot_0_3_f": 0.0, "non_work_p": 1118, "non_work_m": 385, "non_work_f": 733, "per_non_work_p": 63.12817617, "per_non_work_m": 34.43649374, "per_non_work_f": 65.56350626000001, "per_hc_tot_tot": 100, "per_hc_tot_god": 12.8, "per_hc_tot_liv": 81.9, "per_hc_tot_dil": 5.2, "per_hc_res_tot": 99.5, "per_hc_res_god": 12.6, "per_hc_res_liv": 81.7, "per_hc_res_dil": 5.2, "per_hc_oth_tot": 0.5, "per_hc_oth_god": 0.3, "per_hc_oth_liv": 0.3, "per_hc_oth_dil": 0.0, "per_mt_grsbam": 77.5, "per_mt_plastic": 0.0, "per_mt_h_tiles": 0.5, "per_mt_m_tiles": 1.0, "per_mt_b_brick": 0.0, "per_mt_stone": 1.8, "per_mt_asbstos": 14.7, "per_mt_concrte": 4.5, "per_mt_oth": 0.0, "per_mw_grsbam": 2.9, "per_mw_plastic": 0.0, "per_mw_mud": 25.9, "per_mw_wood": 0.0, "per_mw_no_mrtr": 54.5, "per_mw_st_mrtr": 16.8, "per_mw_asbstos": 0.0, "per_mw_b_brick": 0.0, "per_mw_concrte": 0.0, "per_mw_oth": 0.0, "per_mf_mud": 64.9, "per_mf_wood": 0.3, "per_mf_b_brick": 0.0, "per_mf_stone": 29.3, "per_mf_cement": 3.9, "per_mf_fl_tile": 1.6, "per_mf_oth": 0.0, "per_dw_n_exrm": 47.1, "per_dw_1_room": 39.5, "per_dw_2_room": 11.3, "per_dw_3_room": 0.8, "per_dw_4_room": 1.3, "per_dw_5_room": 0.0, "per_dw_6_room": 0.0, "per_hhsize_1": 3.7, "per_hhsize_2": 9.2, "per_hhsize_3": 12.8, "per_hhsize_4": 22.8, "per_hhsize_5": 23.6, "per_hhsize_6_8": 23.0, "per_hhsize_9p": 5.0, "per_ow_owned": 85.9, "per_ow_rented": 11.8, "per_ow_oth": 2.4, "per_mc_none": 11.8, "per_mcouple_1": 69.4, "per_mcouple_2": 15.2, "per_mcouple_3": 2.9, "per_mcouple_4": 0.5, "per_mcouple_5p": 0.3, "per_dw_t_ts": 0.0, "per_dw_t_unts": 0.0, "per_dw_c_well": 0.0, "per_dw_unc_wel": 0.3, "per_dw_hpump": 0.5, "per_dw_tw_bore": 99.0, "per_dw_spring": 0.0, "per_dw_rivcan": 0.0, "per_dw_tank": 0.0, "per_dw_oth": 0.3, "per_loc_dw_wp": 47.9, "per_loc_dw_np": 33.0, "per_loc_dw_aw": 19.1, "per_light_elec": 84.0, "per_light_kero": 15.7, "per_light_solr": 0.0, "per_light_oil": 0.0, "per_light_oth": 0.0, "per_light_no": 0.3, "per_hh_latrine": 3.4, "per_fl_sewer": 0.0, "per_fl_septict": 2.1, "per_fl_othsys": 0.8, "per_pl_wslab": 0.0, "per_pl_without": 0.0, "per_ns_open": 0.3, "per_sl_ns_hum": 0.0, "per_sl_ns_anml": 0.3, "per_hh_no_lat": 96.6, "per_as_pub": 0.0, "per_as_open": 96.6, "per_hh_bathrm": 84.0, "per_hh_en_wrf": 13.1, "per_hh_no_btrm": 2.9, "per_wwoc_drain": 0.3, "per_wwoc_open": 38.5, "per_wwoc_nodrn": 61.3, "per_cook_fire": 91.4, "per_cook_resdu": 2.4, "per_cook_cwdng": 0.0, "per_cook_coal": 0.0, "per_cook_kero": 0.5, "per_cook_lpng": 5.5, "per_cook_elec": 0.0, "per_cook_biogs": 0.0, "per_cook_oth": 0.0, "per_cook_no": 0.3, "per_kf_inside": 99.0, "per_kf_in_has": 96.9, "per_kf_in_does": 2.1, "per_kf_outside": 0.8, "per_kf_out_has": 0.0, "per_kf_out_dos": 0.8, "per_kf_no_cook": 0.3, "per_hh_banking": 58.1, "per_hh_radio": 5.8, "per_hh_tv": 35.1, "per_hh_cmp_int": 0.3, "per_hh_cmp_wnt": 1.0, "per_hh_ph_ll": 6.5, "per_hh_ph_mob": 53.4, "per_hh_ph_bth": 9.2, "per_hh_bcycl": 17.5, "per_hh_2wheel": 14.7, "per_hh_4wheel": 1.8, "per_hh_tvcomp": 0.0, "per_hh_no_ast": 21.5, "per_hs_perma": 21.2, "per_hs_sperma": 51.3, "per_hs_temp": 27.5, "per_hs_servc": 25.7, "per_hs_nservc": 1.8, "per_hs_unclss": 0.0, "avghhsz_cy": 4.66052632, "st_areashape": 2361531.880665815, "st_lengthshape": 7191.192175512038}, "geometry": {"type": "Polygon", "coordinates": [[[75.45425400030248, 16.00109699954201], [75.45428500116296, 16.00271399913875], [75.45209500102673, 16.001244000203116], [75.4499590013172, 16.000288000042037], [75.44940200092529, 16.000095000067013], [75.44893600076998, 16.000087999545425], [75.44836400030944, 16.000352999383182], [75.44751700128592, 16.000707999397168], [75.44686100115982, 16.000696000019975], [75.44620500103369, 16.00050200048993], [75.4458390013358, 16.000125999413417], [75.44529700101249, 15.999381999956638], [75.44502300137611, 15.99891799970999], [75.4441910006246, 15.998627999872236], [75.44270300154356, 15.99814200046304], [75.44186400111933, 15.9978520003627], [75.44129900122981, 15.997842999837708], [75.44073500116521, 15.997925000192346], [75.44035300067546, 15.998285999099942], [75.43978100111325, 15.998645000029192], [75.4384610004651, 15.998989999193588], [75.43729956504097, 15.999239149726765], [75.43696510878597, 15.996875315394266], [75.4369312548762, 15.996586258158533], [75.43657953928962, 15.992302878307697], [75.43646794787009, 15.991535330874322], [75.4442830015844, 15.990536000212987], [75.44889100056412, 15.989877998950238], [75.45217100119474, 15.989749999484573], [75.45573400168256, 15.989533999606744], [75.4562300010768, 15.989543000505833], [75.45620000093956, 15.98972599941373], [75.45637500174006, 15.990372999452344], [75.45737500092446, 15.991676999226184], [75.45874800127605, 15.993171999958877], [75.45891600060723, 15.99381799922545], [75.45881700087301, 15.994184000273581], [75.45880900137543, 15.994460999057006], [75.45832800115149, 15.99482099992629], [75.45607000034491, 15.995241999520626], [75.45550500045537, 15.995599999899536], [75.45483400115894, 15.996233000338881], [75.45453600123312, 15.99696399986203], [75.45431500040186, 15.998339000437104], [75.45425400030248, 16.00109699954201]]]}}]}