{"type": "FeatureCollection", "features": [{"type": "Feature", "properties": {"premiumdata.sde.IN_Village_PCA.area": 9.49820701, "objectid": 174859, "id": "223793286258746", "name": "Odekera", "subdistrict": "Jaijaipur", "district": "Janjgir-Champa", "state": "Chhattisgarh", "country": "India", "censusname": "Odekera", "villagename_locallang": "\u0913\u0921\u0947\u0915\u0947\u0930\u093e", "lgd_villagename": "Odekera", "lgd_villagecode": 437397, "lgd_subdistrictcode": 3286, "lgd_districtcode": 379, "lgd_statecode": 22, "censuscode2001": "00626800", "censuscode2011": "437397", "censuscode2021": null, "level": "Village", "tru": "Rural", "no_hh": 1020, "tot_p": 4711, "tot_m": 2345, "tot_f": 2366, "per_tot_m": 49.77711738, "per_tot_f": 50.22288262, "p_06": 627, "m_06": 333, "f_06": 294, "per_p_06": 13.30927616, "per_m_06": 53.11004785, "per_f_06": 46.88995215, "p_sc": 759, "m_sc": 381, "f_sc": 378, "per_p_sc": 16.11122904, "per_m_sc": 50.19762846, "per_f_sc": 49.80237154, "p_st": 539, "m_st": 254, "f_st": 285, "per_p_st": 11.44130758, "per_m_st": 47.12430427, "per_f_st": 52.87569573, "p_lit": 2841, "m_lit": 1612, "f_lit": 1229, "per_p_lit": 60.30566759, "per_m_lit": 56.7405843, "per_f_lit": 43.2594157, "p_ill": 1870, "m_ill": 733, "f_ill": 1137, "per_p_ill": 39.69433241, "per_m_ill": 39.19786096, "per_f_ill": 60.80213904, "tot_work_p": 3176, "tot_work_m": 1604, "tot_work_f": 1572, "per_tot_work_p": 67.41668436, "per_tot_work_m": 50.50377834, "per_tot_work_f": 49.49622166, "mainwork_p": 814, "mainwork_m": 540, "mainwork_f": 274, "per_mainwork_p": 17.2787094, "per_mainwork_m": 66.33906634, "per_mainwork_f": 33.66093366, "main_cl_p": 355, "main_cl_m": 319, "main_cl_f": 36, "per_main_cl_p": 43.61179361, "per_main_cl_m": 89.85915493, "per_main_cl_f": 10.14084507, "main_al_p": 211, "main_al_m": 53, "main_al_f": 158, "per_main_al_p": 25.92137592, "per_main_al_m": 25.11848341, "per_main_al_f": 74.88151659, "main_hh_p": 57, "main_hh_m": 31, "main_hh_f": 26, "per_main_hh_p": 7.002457, "per_main_hh_m": 54.38596491, "per_main_hh_f": 45.61403509, "main_ot_p": 191, "main_ot_m": 137, "main_ot_f": 54, "per_main_ot_p": 23.46437346, "per_main_ot_m": 71.72774869, "per_main_ot_f": 28.27225131, "margwork_p": 2362, "margwork_m": 1064, "margwork_f": 1298, "per_margwork_p": 50.13797495, "per_margwork_m": 45.0465707, "per_margwork_f": 54.9534293, "marg_cl_p": 298, "marg_cl_m": 270, "marg_cl_f": 28, "per_marg_cl_p": 12.61642676, "per_marg_cl_m": 90.60402685, "per_marg_cl_f": 9.39597315, "marg_al_p": 1986, "marg_al_m": 731, "marg_al_f": 1255, "per_marg_al_p": 84.08128704, "per_marg_al_m": 36.80765358, "per_marg_al_f": 63.19234642, "marg_hh_p": 4, "marg_hh_m": 1, "marg_hh_f": 3, "per_marg_hh_p": 0.16934801, "per_marg_hh_m": 25.0, "per_marg_hh_f": 75.0, "marg_ot_p": 74, "marg_ot_m": 62, "marg_ot_f": 12, "per_marg_ot_p": 3.13293819, "per_marg_ot_m": 83.78378378, "per_marg_ot_f": 16.21621622, "margwork_3_6_p": 1689, "margwork_3_6_m": 740, "margwork_3_6_f": 949, "per_margwork_3_6_p": 71.50719729, "per_margwork_3_6_m": 43.81290705, "per_margwork_3_6_f": 56.18709295, "marg_cl_3_6_p": 286, "marg_cl_3_6_m": 264, "marg_cl_3_6_f": 22, "per_marg_cl_3_6_p": 12.10838273, "per_marg_cl_3_6_m": 92.30769231, "per_marg_cl_3_6_f": 7.69230769, "marg_al_3_6_p": 1342, "marg_al_3_6_m": 424, "marg_al_3_6_f": 918, "per_marg_al_3_6_p": 56.81625741, "per_marg_al_3_6_m": 31.59463487, "per_marg_al_3_6_f": 68.40536513, "marg_hh_3_6_p": 3, "marg_hh_3_6_m": 0, "marg_hh_3_6_f": 3, "per_marg_hh_3_6_p": 0.12701101, "per_marg_hh_3_6_m": 0.0, "per_marg_hh_3_6_f": 100.0, "marg_ot_3_6_p": 58, "marg_ot_3_6_m": 52, "marg_ot_3_6_f": 6, "per_marg_ot_3_6_p": 2.45554615, "per_marg_ot_3_6_m": 89.65517241, "per_marg_ot_3_6_f": 10.34482759, "margwork_0_3_p": 673, "margwork_0_3_m": 324, "margwork_0_3_f": 349, "per_margwork_0_3_p": 28.49280271, "per_margwork_0_3_m": 48.14264487000001, "per_margwork_0_3_f": 51.85735513, "marg_cl_0_3_p": 12, "marg_cl_0_3_m": 6, "marg_cl_0_3_f": 6, "per_marg_cl_0_3_p": 0.50804403, "per_marg_cl_0_3_m": 50.0, "per_marg_cl_0_3_f": 50.0, "marg_al_0_3_p": 644, "marg_al_0_3_m": 307, "marg_al_0_3_f": 337, "per_marg_al_0_3_p": 27.26502964, "per_marg_al_0_3_m": 47.67080745, "per_marg_al_0_3_f": 52.32919255, "marg_hh_0_3_p": 1, "marg_hh_0_3_m": 1, "marg_hh_0_3_f": 0, "per_marg_hh_0_3_p": 0.042337, "per_marg_hh_0_3_m": 100.0, "per_marg_hh_0_3_f": 0.0, "marg_ot_0_3_p": 16, "marg_ot_0_3_m": 10, "marg_ot_0_3_f": 6, "per_marg_ot_0_3_p": 0.67739204, "per_marg_ot_0_3_m": 62.5, "per_marg_ot_0_3_f": 37.5, "non_work_p": 1535, "non_work_m": 741, "non_work_f": 794, "per_non_work_p": 32.58331564, "per_non_work_m": 48.27361564, "per_non_work_f": 51.72638436, "per_hc_tot_tot": 100, "per_hc_tot_god": 33.6, "per_hc_tot_liv": 58.4, "per_hc_tot_dil": 8.0, "per_hc_res_tot": 96.8, "per_hc_res_god": 31.8, "per_hc_res_liv": 57.0, "per_hc_res_dil": 8.0, "per_hc_oth_tot": 3.2, "per_hc_oth_god": 1.8, "per_hc_oth_liv": 1.4, "per_hc_oth_dil": 0.0, "per_mt_grsbam": 8.7, "per_mt_plastic": 0.2, "per_mt_h_tiles": 63.2, "per_mt_m_tiles": 2.4, "per_mt_b_brick": 0.0, "per_mt_stone": 1.9, "per_mt_asbstos": 8.2, "per_mt_concrte": 15.4, "per_mt_oth": 0.0, "per_mw_grsbam": 3.4, "per_mw_plastic": 0.6, "per_mw_mud": 62.4, "per_mw_wood": 0.3, "per_mw_no_mrtr": 0.9, "per_mw_st_mrtr": 0.8, "per_mw_asbstos": 0.1, "per_mw_b_brick": 30.8, "per_mw_concrte": 0.7, "per_mw_oth": 0.0, "per_mf_mud": 77.9, "per_mf_wood": 0.0, "per_mf_b_brick": 0.3, "per_mf_stone": 1.1, "per_mf_cement": 20.3, "per_mf_fl_tile": 0.4, "per_mf_oth": 0.0, "per_dw_n_exrm": 1.0, "per_dw_1_room": 43.4, "per_dw_2_room": 37.9, "per_dw_3_room": 10.9, "per_dw_4_room": 4.7, "per_dw_5_room": 0.6, "per_dw_6_room": 1.4, "per_hhsize_1": 4.2, "per_hhsize_2": 11.2, "per_hhsize_3": 9.1, "per_hhsize_4": 18.4, "per_hhsize_5": 18.0, "per_hhsize_6_8": 32.4, "per_hhsize_9p": 6.9, "per_ow_owned": 98.4, "per_ow_rented": 0.9, "per_ow_oth": 0.7, "per_mc_none": 8.3, "per_mcouple_1": 72.5, "per_mcouple_2": 14.7, "per_mcouple_3": 3.6, "per_mcouple_4": 0.7, "per_mcouple_5p": 0.3, "per_dw_t_ts": 0.6, "per_dw_t_unts": 0.8, "per_dw_c_well": 0.2, "per_dw_unc_wel": 2.0, "per_dw_hpump": 95.3, "per_dw_tw_bore": 0.9, "per_dw_spring": 0.0, "per_dw_rivcan": 0.1, "per_dw_tank": 0.1, "per_dw_oth": 0.1, "per_loc_dw_wp": 11.6, "per_loc_dw_np": 55.3, "per_loc_dw_aw": 33.0, "per_light_elec": 82.8, "per_light_kero": 14.5, "per_light_solr": 0.1, "per_light_oil": 0.1, "per_light_oth": 1.1, "per_light_no": 1.4, "per_hh_latrine": 6.5, "per_fl_sewer": 0.6, "per_fl_septict": 4.4, "per_fl_othsys": 0.3, "per_pl_wslab": 0.1, "per_pl_without": 0.2, "per_ns_open": 0.0, "per_sl_ns_hum": 0.9, "per_sl_ns_anml": 0.0, "per_hh_no_lat": 93.5, "per_as_pub": 2.6, "per_as_open": 90.9, "per_hh_bathrm": 4.4, "per_hh_en_wrf": 0.9, "per_hh_no_btrm": 94.7, "per_wwoc_drain": 3.0, "per_wwoc_open": 8.9, "per_wwoc_nodrn": 88.1, "per_cook_fire": 98.9, "per_cook_resdu": 0.9, "per_cook_cwdng": 0.1, "per_cook_coal": 0.0, "per_cook_kero": 0.0, "per_cook_lpng": 0.0, "per_cook_elec": 0.0, "per_cook_biogs": 0.1, "per_cook_oth": 0.0, "per_cook_no": 0.0, "per_kf_inside": 76.5, "per_kf_in_has": 26.3, "per_kf_in_does": 50.2, "per_kf_outside": 23.5, "per_kf_out_has": 19.9, "per_kf_out_dos": 3.6, "per_kf_no_cook": 0.0, "per_hh_banking": 31.2, "per_hh_radio": 5.2, "per_hh_tv": 29.0, "per_hh_cmp_int": 1.6, "per_hh_cmp_wnt": 4.1, "per_hh_ph_ll": 2.5, "per_hh_ph_mob": 31.5, "per_hh_ph_bth": 1.1, "per_hh_bcycl": 66.5, "per_hh_2wheel": 11.4, "per_hh_4wheel": 0.7, "per_hh_tvcomp": 1.4, "per_hh_no_ast": 22.3, "per_hs_perma": 31.2, "per_hs_sperma": 62.0, "per_hs_temp": 6.8, "per_hs_servc": 3.1, "per_hs_nservc": 3.7, "per_hs_unclss": 0.0, "avghhsz_cy": 4.61862745, "st_areashape": 11074515.694190795, "st_lengthshape": 14125.113710180005}, "geometry": {"type": "Polygon", "coordinates": [[[82.8616588089654, 21.835815800487225], [82.85666753478655, 21.835683424466975], [82.85552667257909, 21.835021540859795], [82.8380497888264, 21.83728444396293], [82.83798590872823, 21.835683424466975], [82.83541896741399, 21.823504282233138], [82.8325668100987, 21.82059172497529], [82.83185377144362, 21.817943893676784], [82.83713026162349, 21.817149534817766], [82.84126588869759, 21.810926905123004], [82.8432623980098, 21.80351235566035], [82.84340816134277, 21.80148230906142], [82.85410059347227, 21.79808360236213], [82.85623971123417, 21.798878066996636], [82.85780839789231, 21.79980493655704], [82.85695275078756, 21.806954872887403], [82.86137359386271, 21.812118493556703], [82.86361243809584, 21.823455641234837], [82.8645109662807, 21.82800538978662], [82.86294227962253, 21.829858746586602], [82.86151620141406, 21.832771115180588], [82.8616588089654, 21.835815800487225]]]}}]}