{"type": "FeatureCollection", "features": [{"type": "Feature", "properties": {"premiumdata.sde.IN_Village_PCA.area": 0.4462788, "objectid": 196628, "id": "21346289758795", "name": "Nizampur", "subdistrict": "Baleshwar Sadar", "district": "Baleshwar", "state": "Odisha", "country": "India", "censusname": "Nizampur", "villagename_locallang": null, "lgd_villagename": "Nizampur", "lgd_villagecode": 392650, "lgd_subdistrictcode": 2897, "lgd_districtcode": 346, "lgd_statecode": 21, "censuscode2001": "01292200", "censuscode2011": "392650", "censuscode2021": null, "level": "Village", "tru": "Rural", "no_hh": 70, "tot_p": 311, "tot_m": 164, "tot_f": 147, "per_tot_m": 52.73311897, "per_tot_f": 47.26688103, "p_06": 38, "m_06": 20, "f_06": 18, "per_p_06": 12.21864952, "per_m_06": 52.63157895000001, "per_f_06": 47.36842105, "p_sc": 119, "m_sc": 61, "f_sc": 58, "per_p_sc": 38.26366559, "per_m_sc": 51.2605042, "per_f_sc": 48.7394958, "p_st": 29, "m_st": 17, "f_st": 12, "per_p_st": 9.32475884, "per_m_st": 58.62068966, "per_f_st": 41.37931034, "p_lit": 229, "m_lit": 128, "f_lit": 101, "per_p_lit": 73.63344051, "per_m_lit": 55.89519651, "per_f_lit": 44.10480349, "p_ill": 82, "m_ill": 36, "f_ill": 46, "per_p_ill": 26.36655949, "per_m_ill": 43.90243902, "per_f_ill": 56.09756098, "tot_work_p": 109, "tot_work_m": 85, "tot_work_f": 24, "per_tot_work_p": 35.04823151, "per_tot_work_m": 77.98165138, "per_tot_work_f": 22.01834862, "mainwork_p": 97, "mainwork_m": 83, "mainwork_f": 14, "per_mainwork_p": 31.18971061, "per_mainwork_m": 85.56701030999999, "per_mainwork_f": 14.43298969, "main_cl_p": 16, "main_cl_m": 14, "main_cl_f": 2, "per_main_cl_p": 16.49484536, "per_main_cl_m": 87.5, "per_main_cl_f": 12.5, "main_al_p": 19, "main_al_m": 17, "main_al_f": 2, "per_main_al_p": 19.58762887, "per_main_al_m": 89.47368421, "per_main_al_f": 10.52631579, "main_hh_p": 1, "main_hh_m": 1, "main_hh_f": 0, "per_main_hh_p": 1.03092784, "per_main_hh_m": 100.0, "per_main_hh_f": 0.0, "main_ot_p": 61, "main_ot_m": 51, "main_ot_f": 10, "per_main_ot_p": 62.88659794, "per_main_ot_m": 83.60655738, "per_main_ot_f": 16.39344262, "margwork_p": 12, "margwork_m": 2, "margwork_f": 10, "per_margwork_p": 3.8585209, "per_margwork_m": 16.66666667, "per_margwork_f": 83.33333332999999, "marg_cl_p": 3, "marg_cl_m": 0, "marg_cl_f": 3, "per_marg_cl_p": 25.0, "per_marg_cl_m": 0.0, "per_marg_cl_f": 100.0, "marg_al_p": 8, "marg_al_m": 2, "marg_al_f": 6, "per_marg_al_p": 66.66666667, "per_marg_al_m": 25.0, "per_marg_al_f": 75.0, "marg_hh_p": 1, "marg_hh_m": 0, "marg_hh_f": 1, "per_marg_hh_p": 8.33333333, "per_marg_hh_m": 0.0, "per_marg_hh_f": 100.0, "marg_ot_p": 0, "marg_ot_m": 0, "marg_ot_f": 0, "per_marg_ot_p": 0.0, "per_marg_ot_m": 0.0, "per_marg_ot_f": 0.0, "margwork_3_6_p": 7, "margwork_3_6_m": 2, "margwork_3_6_f": 5, "per_margwork_3_6_p": 58.33333333, "per_margwork_3_6_m": 28.57142857, "per_margwork_3_6_f": 71.42857143, "marg_cl_3_6_p": 1, "marg_cl_3_6_m": 0, "marg_cl_3_6_f": 1, "per_marg_cl_3_6_p": 8.33333333, "per_marg_cl_3_6_m": 0.0, "per_marg_cl_3_6_f": 100.0, "marg_al_3_6_p": 5, "marg_al_3_6_m": 2, "marg_al_3_6_f": 3, "per_marg_al_3_6_p": 41.66666667000001, "per_marg_al_3_6_m": 40.0, "per_marg_al_3_6_f": 60.0, "marg_hh_3_6_p": 1, "marg_hh_3_6_m": 0, "marg_hh_3_6_f": 1, "per_marg_hh_3_6_p": 8.33333333, "per_marg_hh_3_6_m": 0.0, "per_marg_hh_3_6_f": 100.0, "marg_ot_3_6_p": 0, "marg_ot_3_6_m": 0, "marg_ot_3_6_f": 0, "per_marg_ot_3_6_p": 0.0, "per_marg_ot_3_6_m": 0.0, "per_marg_ot_3_6_f": 0.0, "margwork_0_3_p": 5, "margwork_0_3_m": 0, "margwork_0_3_f": 5, "per_margwork_0_3_p": 41.66666667000001, "per_margwork_0_3_m": 0.0, "per_margwork_0_3_f": 100.0, "marg_cl_0_3_p": 2, "marg_cl_0_3_m": 0, "marg_cl_0_3_f": 2, "per_marg_cl_0_3_p": 16.66666667, "per_marg_cl_0_3_m": 0.0, "per_marg_cl_0_3_f": 100.0, "marg_al_0_3_p": 3, "marg_al_0_3_m": 0, "marg_al_0_3_f": 3, "per_marg_al_0_3_p": 25.0, "per_marg_al_0_3_m": 0.0, "per_marg_al_0_3_f": 100.0, "marg_hh_0_3_p": 0, "marg_hh_0_3_m": 0, "marg_hh_0_3_f": 0, "per_marg_hh_0_3_p": 0.0, "per_marg_hh_0_3_m": 0.0, "per_marg_hh_0_3_f": 0.0, "marg_ot_0_3_p": 0, "marg_ot_0_3_m": 0, "marg_ot_0_3_f": 0, "per_marg_ot_0_3_p": 0.0, "per_marg_ot_0_3_m": 0.0, "per_marg_ot_0_3_f": 0.0, "non_work_p": 202, "non_work_m": 79, "non_work_f": 123, "per_non_work_p": 64.95176849, "per_non_work_m": 39.10891089, "per_non_work_f": 60.89108911, "per_hc_tot_tot": 100, "per_hc_tot_god": 10.3, "per_hc_tot_liv": 88.2, "per_hc_tot_dil": 1.5, "per_hc_res_tot": 100.0, "per_hc_res_god": 10.3, "per_hc_res_liv": 88.2, "per_hc_res_dil": 1.5, "per_hc_oth_tot": 0.0, "per_hc_oth_god": 0.0, "per_hc_oth_liv": 0.0, "per_hc_oth_dil": 0.0, "per_mt_grsbam": 26.5, "per_mt_plastic": 1.5, "per_mt_h_tiles": 4.4, "per_mt_m_tiles": 0.0, "per_mt_b_brick": 0.0, "per_mt_stone": 7.4, "per_mt_asbstos": 4.4, "per_mt_concrte": 55.9, "per_mt_oth": 0.0, "per_mw_grsbam": 4.4, "per_mw_plastic": 0.0, "per_mw_mud": 23.5, "per_mw_wood": 0.0, "per_mw_no_mrtr": 0.0, "per_mw_st_mrtr": 0.0, "per_mw_asbstos": 0.0, "per_mw_b_brick": 70.6, "per_mw_concrte": 1.5, "per_mw_oth": 0.0, "per_mf_mud": 35.3, "per_mf_wood": 0.0, "per_mf_b_brick": 0.0, "per_mf_stone": 0.0, "per_mf_cement": 63.2, "per_mf_fl_tile": 1.5, "per_mf_oth": 0.0, "per_dw_n_exrm": 4.4, "per_dw_1_room": 36.8, "per_dw_2_room": 35.3, "per_dw_3_room": 10.3, "per_dw_4_room": 5.9, "per_dw_5_room": 2.9, "per_dw_6_room": 4.4, "per_hhsize_1": 2.9, "per_hhsize_2": 13.2, "per_hhsize_3": 13.2, "per_hhsize_4": 30.9, "per_hhsize_5": 20.6, "per_hhsize_6_8": 14.7, "per_hhsize_9p": 4.4, "per_ow_owned": 97.1, "per_ow_rented": 0.0, "per_ow_oth": 2.9, "per_mc_none": 14.7, "per_mcouple_1": 72.1, "per_mcouple_2": 10.3, "per_mcouple_3": 2.9, "per_mcouple_4": 0.0, "per_mcouple_5p": 0.0, "per_dw_t_ts": 0.0, "per_dw_t_unts": 0.0, "per_dw_c_well": 0.0, "per_dw_unc_wel": 0.0, "per_dw_hpump": 94.1, "per_dw_tw_bore": 5.9, "per_dw_spring": 0.0, "per_dw_rivcan": 0.0, "per_dw_tank": 0.0, "per_dw_oth": 0.0, "per_loc_dw_wp": 52.9, "per_loc_dw_np": 13.2, "per_loc_dw_aw": 33.8, "per_light_elec": 83.8, "per_light_kero": 16.2, "per_light_solr": 0.0, "per_light_oil": 0.0, "per_light_oth": 0.0, "per_light_no": 0.0, "per_hh_latrine": 41.2, "per_fl_sewer": 7.4, "per_fl_septict": 20.6, "per_fl_othsys": 0.0, "per_pl_wslab": 2.9, "per_pl_without": 10.3, "per_ns_open": 0.0, "per_sl_ns_hum": 0.0, "per_sl_ns_anml": 0.0, "per_hh_no_lat": 58.8, "per_as_pub": 0.0, "per_as_open": 58.8, "per_hh_bathrm": 23.5, "per_hh_en_wrf": 8.8, "per_hh_no_btrm": 67.6, "per_wwoc_drain": 1.5, "per_wwoc_open": 63.2, "per_wwoc_nodrn": 35.3, "per_cook_fire": 73.5, "per_cook_resdu": 2.9, "per_cook_cwdng": 5.9, "per_cook_coal": 0.0, "per_cook_kero": 2.9, "per_cook_lpng": 14.7, "per_cook_elec": 0.0, "per_cook_biogs": 0.0, "per_cook_oth": 0.0, "per_cook_no": 0.0, "per_kf_inside": 55.9, "per_kf_in_has": 23.5, "per_kf_in_does": 32.4, "per_kf_outside": 44.1, "per_kf_out_has": 11.8, "per_kf_out_dos": 32.4, "per_kf_no_cook": 0.0, "per_hh_banking": 100.0, "per_hh_radio": 1.5, "per_hh_tv": 47.1, "per_hh_cmp_int": 1.5, "per_hh_cmp_wnt": 1.5, "per_hh_ph_ll": 11.8, "per_hh_ph_mob": 47.1, "per_hh_ph_bth": 5.9, "per_hh_bcycl": 67.6, "per_hh_2wheel": 20.6, "per_hh_4wheel": 5.9, "per_hh_tvcomp": 2.9, "per_hh_no_ast": 14.7, "per_hs_perma": 67.6, "per_hs_sperma": 8.8, "per_hs_temp": 23.5, "per_hs_servc": 19.1, "per_hs_nservc": 4.4, "per_hs_unclss": 0.0, "avghhsz_cy": 4.44285714, "st_areashape": 518618.119981605, "st_lengthshape": 3145.215807041216}, "geometry": {"type": "Polygon", "coordinates": [[[86.92612108395221, 21.577906213885353], [86.92674671024194, 21.577808966267195], [86.92730356420844, 21.57769461122472], [86.92779175185298, 21.577582031235707], [86.92822655172186, 21.57746766933121], [86.92883686083769, 21.577126215378094], [86.9293326599076, 21.576840151246245], [86.93025573635423, 21.576210826044864], [86.93068297240839, 21.57592478266069], [86.93123983805303, 21.57564060075807], [86.9321628884485, 21.575299196798454], [86.9326510464486, 21.575070323939944], [86.93308591638606, 21.574841509196336], [86.93363514635078, 21.57461451772347], [86.93410051229553, 21.574543970796704], [86.93437510122675, 21.574502021385243], [86.93492433119143, 21.574561208011534], [86.93559564310158, 21.57484916710215], [86.93615251862765, 21.57525351598476], [86.93651865037792, 21.575713182953752], [86.93676274869175, 21.575999265182755], [86.9366331370676, 21.576115619768917], [86.93632796409425, 21.57640167614226], [86.93614487935452, 21.57663050930623], [86.93577112719571, 21.577090178589557], [86.93558800113344, 21.57737623136804], [86.93556506534762, 21.577490618405594], [86.93528284522806, 21.577488787291475], [86.93478701202214, 21.57754590768292], [86.93442080032185, 21.577774789996663], [86.93404709397713, 21.5780017121958], [86.93361988127917, 21.578404135135997], [86.93312399956424, 21.578802716832794], [86.93275781930498, 21.579262400943232], [86.9323840455866, 21.579720128877405], [86.93201783927618, 21.580063442047713], [86.93121685375816, 21.580749994943165], [86.93065996475735, 21.58103602128228], [86.93029383300708, 21.581264888893042], [86.9297980060894, 21.581434676765486], [86.92924872581904, 21.581549062269154], [86.92882158139302, 21.58154522889898], [86.92826464927306, 21.581488032397907], [86.92783745184644, 21.58142891459326], [86.9273492642019, 21.58125531338437], [86.92692210001294, 21.581024537837582], [86.92667039566358, 21.580908233137848], [86.92648723816032, 21.580677377680423], [86.92661690907327, 21.580505746149495], [86.92667796396987, 21.58027691994196], [86.9266170042947, 21.579990780167346], [86.92649494660378, 21.57947203823942], [86.92643383960488, 21.579128777965476], [86.9263728386072, 21.578898014902617], [86.92625847768164, 21.578495564932194], [86.92625840042652, 21.57820948011409], [86.92612108395221, 21.577906213885353]]]}}]}