{"type": "FeatureCollection", "features": [{"type": "Feature", "properties": {"premiumdata.sde.IN_Village_PCA.area": 0.99598729, "objectid": 499350, "id": "102121408303778", "name": "Mataurha", "subdistrict": "Masaurhi", "district": "Patna", "state": "Bihar", "country": "India", "censusname": "Bhataurha", "villagename_locallang": null, "lgd_villagename": "Mataurha", "lgd_villagecode": 245912, "lgd_subdistrictcode": 1408, "lgd_districtcode": 212, "lgd_statecode": 10, "censuscode2001": "03006700", "censuscode2011": "245912", "censuscode2021": null, "level": "Village", "tru": "Rural", "no_hh": 310, "tot_p": 2098, "tot_m": 1114, "tot_f": 984, "per_tot_m": 53.09818875000001, "per_tot_f": 46.90181125, "p_06": 418, "m_06": 232, "f_06": 186, "per_p_06": 19.92373689, "per_m_06": 55.50239234, "per_f_06": 44.49760766, "p_sc": 861, "m_sc": 452, "f_sc": 409, "per_p_sc": 41.03908484, "per_m_sc": 52.4970964, "per_f_sc": 47.5029036, "p_st": 0, "m_st": 0, "f_st": 0, "per_p_st": 0.0, "per_m_st": 0.0, "per_f_st": 0.0, "p_lit": 939, "m_lit": 614, "f_lit": 325, "per_p_lit": 44.75691134, "per_m_lit": 65.3887114, "per_f_lit": 34.6112886, "p_ill": 1159, "m_ill": 500, "f_ill": 659, "per_p_ill": 55.24308866000001, "per_m_ill": 43.14063848, "per_f_ill": 56.85936152, "tot_work_p": 911, "tot_work_m": 516, "tot_work_f": 395, "per_tot_work_p": 43.42230696, "per_tot_work_m": 56.64105379, "per_tot_work_f": 43.35894621, "mainwork_p": 145, "mainwork_m": 135, "mainwork_f": 10, "per_mainwork_p": 6.91134414, "per_mainwork_m": 93.10344828, "per_mainwork_f": 6.89655172, "main_cl_p": 79, "main_cl_m": 76, "main_cl_f": 3, "per_main_cl_p": 54.48275862, "per_main_cl_m": 96.20253165, "per_main_cl_f": 3.79746835, "main_al_p": 18, "main_al_m": 16, "main_al_f": 2, "per_main_al_p": 12.4137931, "per_main_al_m": 88.88888889, "per_main_al_f": 11.11111111, "main_hh_p": 1, "main_hh_m": 1, "main_hh_f": 0, "per_main_hh_p": 0.68965517, "per_main_hh_m": 100.0, "per_main_hh_f": 0.0, "main_ot_p": 47, "main_ot_m": 42, "main_ot_f": 5, "per_main_ot_p": 32.4137931, "per_main_ot_m": 89.36170213, "per_main_ot_f": 10.63829787, "margwork_p": 766, "margwork_m": 381, "margwork_f": 385, "per_margwork_p": 36.51096282, "per_margwork_m": 49.73890339, "per_margwork_f": 50.26109661, "marg_cl_p": 9, "marg_cl_m": 2, "marg_cl_f": 7, "per_marg_cl_p": 1.17493473, "per_marg_cl_m": 22.22222222, "per_marg_cl_f": 77.77777778, "marg_al_p": 719, "marg_al_m": 355, "marg_al_f": 364, "per_marg_al_p": 93.86422977, "per_marg_al_m": 49.37413074, "per_marg_al_f": 50.62586926, "marg_hh_p": 5, "marg_hh_m": 3, "marg_hh_f": 2, "per_marg_hh_p": 0.65274151, "per_marg_hh_m": 60.0, "per_marg_hh_f": 40.0, "marg_ot_p": 33, "marg_ot_m": 21, "marg_ot_f": 12, "per_marg_ot_p": 4.30809399, "per_marg_ot_m": 63.63636364, "per_marg_ot_f": 36.36363636, "margwork_3_6_p": 761, "margwork_3_6_m": 378, "margwork_3_6_f": 383, "per_margwork_3_6_p": 99.34725849, "per_margwork_3_6_m": 49.67148489, "per_margwork_3_6_f": 50.32851511, "marg_cl_3_6_p": 9, "marg_cl_3_6_m": 2, "marg_cl_3_6_f": 7, "per_marg_cl_3_6_p": 1.17493473, "per_marg_cl_3_6_m": 22.22222222, "per_marg_cl_3_6_f": 77.77777778, "marg_al_3_6_p": 716, "marg_al_3_6_m": 354, "marg_al_3_6_f": 362, "per_marg_al_3_6_p": 93.47258486, "per_marg_al_3_6_m": 49.44134078, "per_marg_al_3_6_f": 50.55865922, "marg_hh_3_6_p": 5, "marg_hh_3_6_m": 3, "marg_hh_3_6_f": 2, "per_marg_hh_3_6_p": 0.65274151, "per_marg_hh_3_6_m": 60.0, "per_marg_hh_3_6_f": 40.0, "marg_ot_3_6_p": 31, "marg_ot_3_6_m": 19, "marg_ot_3_6_f": 12, "per_marg_ot_3_6_p": 4.04699739, "per_marg_ot_3_6_m": 61.29032258, "per_marg_ot_3_6_f": 38.70967742, "margwork_0_3_p": 5, "margwork_0_3_m": 3, "margwork_0_3_f": 2, "per_margwork_0_3_p": 0.65274151, "per_margwork_0_3_m": 60.0, "per_margwork_0_3_f": 40.0, "marg_cl_0_3_p": 0, "marg_cl_0_3_m": 0, "marg_cl_0_3_f": 0, "per_marg_cl_0_3_p": 0.0, "per_marg_cl_0_3_m": 0.0, "per_marg_cl_0_3_f": 0.0, "marg_al_0_3_p": 3, "marg_al_0_3_m": 1, "marg_al_0_3_f": 2, "per_marg_al_0_3_p": 0.39164491, "per_marg_al_0_3_m": 33.33333333, "per_marg_al_0_3_f": 66.66666667, "marg_hh_0_3_p": 0, "marg_hh_0_3_m": 0, "marg_hh_0_3_f": 0, "per_marg_hh_0_3_p": 0.0, "per_marg_hh_0_3_m": 0.0, "per_marg_hh_0_3_f": 0.0, "marg_ot_0_3_p": 2, "marg_ot_0_3_m": 2, "marg_ot_0_3_f": 0, "per_marg_ot_0_3_p": 0.26109661, "per_marg_ot_0_3_m": 100.0, "per_marg_ot_0_3_f": 0.0, "non_work_p": 1187, "non_work_m": 598, "non_work_f": 589, "per_non_work_p": 56.57769304, "per_non_work_m": 50.37910699, "per_non_work_f": 49.62089301, "per_hc_tot_tot": 100, "per_hc_tot_god": 64.3, "per_hc_tot_liv": 33.8, "per_hc_tot_dil": 2.0, "per_hc_res_tot": 96.1, "per_hc_res_god": 63.6, "per_hc_res_liv": 30.8, "per_hc_res_dil": 1.6, "per_hc_oth_tot": 3.9, "per_hc_oth_god": 0.7, "per_hc_oth_liv": 3.0, "per_hc_oth_dil": 0.3, "per_mt_grsbam": 36.7, "per_mt_plastic": 0.0, "per_mt_h_tiles": 12.5, "per_mt_m_tiles": 10.5, "per_mt_b_brick": 13.8, "per_mt_stone": 0.0, "per_mt_asbstos": 0.3, "per_mt_concrte": 24.9, "per_mt_oth": 1.3, "per_mw_grsbam": 1.3, "per_mw_plastic": 0.3, "per_mw_mud": 47.2, "per_mw_wood": 0.0, "per_mw_no_mrtr": 0.0, "per_mw_st_mrtr": 0.3, "per_mw_asbstos": 0.0, "per_mw_b_brick": 49.8, "per_mw_concrte": 0.3, "per_mw_oth": 0.7, "per_mf_mud": 88.5, "per_mf_wood": 0.3, "per_mf_b_brick": 4.6, "per_mf_stone": 0.0, "per_mf_cement": 6.6, "per_mf_fl_tile": 0.0, "per_mf_oth": 0.0, "per_dw_n_exrm": 0.7, "per_dw_1_room": 26.6, "per_dw_2_room": 23.9, "per_dw_3_room": 15.4, "per_dw_4_room": 11.5, "per_dw_5_room": 10.2, "per_dw_6_room": 11.8, "per_hhsize_1": 0.7, "per_hhsize_2": 7.2, "per_hhsize_3": 5.6, "per_hhsize_4": 11.1, "per_hhsize_5": 16.7, "per_hhsize_6_8": 36.1, "per_hhsize_9p": 22.6, "per_ow_owned": 100.0, "per_ow_rented": 0.0, "per_ow_oth": 0.0, "per_mc_none": 2.0, "per_mcouple_1": 61.6, "per_mcouple_2": 23.0, "per_mcouple_3": 9.2, "per_mcouple_4": 4.3, "per_mcouple_5p": 0.0, "per_dw_t_ts": 0.0, "per_dw_t_unts": 0.0, "per_dw_c_well": 0.0, "per_dw_unc_wel": 0.0, "per_dw_hpump": 100.0, "per_dw_tw_bore": 0.0, "per_dw_spring": 0.0, "per_dw_rivcan": 0.0, "per_dw_tank": 0.0, "per_dw_oth": 0.0, "per_loc_dw_wp": 79.0, "per_loc_dw_np": 18.0, "per_loc_dw_aw": 3.0, "per_light_elec": 3.0, "per_light_kero": 96.1, "per_light_solr": 0.0, "per_light_oil": 0.0, "per_light_oth": 1.0, "per_light_no": 0.0, "per_hh_latrine": 31.5, "per_fl_sewer": 0.0, "per_fl_septict": 28.2, "per_fl_othsys": 1.0, "per_pl_wslab": 0.3, "per_pl_without": 2.0, "per_ns_open": 0.0, "per_sl_ns_hum": 0.0, "per_sl_ns_anml": 0.0, "per_hh_no_lat": 68.5, "per_as_pub": 0.7, "per_as_open": 67.9, "per_hh_bathrm": 17.0, "per_hh_en_wrf": 33.8, "per_hh_no_btrm": 49.2, "per_wwoc_drain": 6.9, "per_wwoc_open": 79.7, "per_wwoc_nodrn": 13.4, "per_cook_fire": 9.5, "per_cook_resdu": 5.2, "per_cook_cwdng": 78.7, "per_cook_coal": 1.0, "per_cook_kero": 0.0, "per_cook_lpng": 5.2, "per_cook_elec": 0.0, "per_cook_biogs": 0.0, "per_cook_oth": 0.0, "per_cook_no": 0.3, "per_kf_inside": 82.6, "per_kf_in_has": 18.0, "per_kf_in_does": 64.6, "per_kf_outside": 17.0, "per_kf_out_has": 2.6, "per_kf_out_dos": 14.4, "per_kf_no_cook": 0.3, "per_hh_banking": 28.2, "per_hh_radio": 18.4, "per_hh_tv": 22.6, "per_hh_cmp_int": 0.0, "per_hh_cmp_wnt": 1.0, "per_hh_ph_ll": 1.0, "per_hh_ph_mob": 47.9, "per_hh_ph_bth": 0.3, "per_hh_bcycl": 14.4, "per_hh_2wheel": 3.3, "per_hh_4wheel": 0.0, "per_hh_tvcomp": 0.0, "per_hh_no_ast": 45.9, "per_hs_perma": 48.9, "per_hs_sperma": 13.4, "per_hs_temp": 35.7, "per_hs_servc": 34.4, "per_hs_nservc": 1.3, "per_hs_unclss": 2.0, "avghhsz_cy": 6.76774194, "st_areashape": 1223723.41201136, "st_lengthshape": 4385.919259284955}, "geometry": {"type": "Polygon", "coordinates": [[[85.01236032757552, 25.302639335013975], [85.01146709855254, 25.303153219509827], [85.00947058924034, 25.30392677253179], [85.00793042409246, 25.30433933207044], [85.00690364792607, 25.304545611719146], [85.00581982873913, 25.30480345977111], [85.00452057917404, 25.30446167008109], [85.00505494022417, 25.304113505881187], [85.00529956764572, 25.30349554239739], [85.00523756502649, 25.30221811393969], [85.00443645374433, 25.300587327573616], [85.00443969666252, 25.298962417970312], [85.00470619446797, 25.297297413346847], [85.0050939971761, 25.29457634933025], [85.00539821254539, 25.293899814739998], [85.00769239300003, 25.293668913195955], [85.0112926250631, 25.29334525768009], [85.01207595868583, 25.29387913795325], [85.01359739575666, 25.293895354993424], [85.01363473782472, 25.295262697812777], [85.01363473782472, 25.29722248258594], [85.01403403986683, 25.29980109990204], [85.013349522722, 25.302070236821653], [85.01236032757552, 25.302639335013975]]]}}]}