{"type": "FeatureCollection", "features": [{"type": "Feature", "properties": {"premiumdata.sde.IN_Village_PCA.area": 14.16126945, "objectid": 445641, "id": "557279587503", "name": "Mautar", "subdistrict": "Mori", "district": "Uttar Kashi", "state": "Uttarakhand", "country": "India", "censusname": "Mautar", "villagename_locallang": null, "lgd_villagename": "Mautar", "lgd_villagecode": 40249, "lgd_subdistrictcode": 279, "lgd_districtcode": 57, "lgd_statecode": 5, "censuscode2001": "00007000", "censuscode2011": "040249", "censuscode2021": null, "level": "Village", "tru": "Rural", "no_hh": 75, "tot_p": 466, "tot_m": 253, "tot_f": 213, "per_tot_m": 54.29184549, "per_tot_f": 45.70815451, "p_06": 49, "m_06": 34, "f_06": 15, "per_p_06": 10.51502146, "per_m_06": 69.3877551, "per_f_06": 30.6122449, "p_sc": 256, "m_sc": 138, "f_sc": 118, "per_p_sc": 54.93562232, "per_m_sc": 53.90625, "per_f_sc": 46.09375, "p_st": 0, "m_st": 0, "f_st": 0, "per_p_st": 0.0, "per_m_st": 0.0, "per_f_st": 0.0, "p_lit": 299, "m_lit": 182, "f_lit": 117, "per_p_lit": 64.16309013, "per_m_lit": 60.86956522000001, "per_f_lit": 39.13043478, "p_ill": 167, "m_ill": 71, "f_ill": 96, "per_p_ill": 35.83690987, "per_m_ill": 42.51497006, "per_f_ill": 57.48502994, "tot_work_p": 229, "tot_work_m": 117, "tot_work_f": 112, "per_tot_work_p": 49.1416309, "per_tot_work_m": 51.09170306, "per_tot_work_f": 48.90829694, "mainwork_p": 229, "mainwork_m": 117, "mainwork_f": 112, "per_mainwork_p": 49.1416309, "per_mainwork_m": 51.09170306, "per_mainwork_f": 48.90829694, "main_cl_p": 225, "main_cl_m": 115, "main_cl_f": 110, "per_main_cl_p": 98.25327511, "per_main_cl_m": 51.11111111, "per_main_cl_f": 48.88888889, "main_al_p": 0, "main_al_m": 0, "main_al_f": 0, "per_main_al_p": 0.0, "per_main_al_m": 0.0, "per_main_al_f": 0.0, "main_hh_p": 0, "main_hh_m": 0, "main_hh_f": 0, "per_main_hh_p": 0.0, "per_main_hh_m": 0.0, "per_main_hh_f": 0.0, "main_ot_p": 4, "main_ot_m": 2, "main_ot_f": 2, "per_main_ot_p": 1.74672489, "per_main_ot_m": 50.0, "per_main_ot_f": 50.0, "margwork_p": 0, "margwork_m": 0, "margwork_f": 0, "per_margwork_p": 0.0, "per_margwork_m": 0.0, "per_margwork_f": 0.0, "marg_cl_p": 0, "marg_cl_m": 0, "marg_cl_f": 0, "per_marg_cl_p": 0.0, "per_marg_cl_m": 0.0, "per_marg_cl_f": 0.0, "marg_al_p": 0, "marg_al_m": 0, "marg_al_f": 0, "per_marg_al_p": 0.0, "per_marg_al_m": 0.0, "per_marg_al_f": 0.0, "marg_hh_p": 0, "marg_hh_m": 0, "marg_hh_f": 0, "per_marg_hh_p": 0.0, "per_marg_hh_m": 0.0, "per_marg_hh_f": 0.0, "marg_ot_p": 0, "marg_ot_m": 0, "marg_ot_f": 0, "per_marg_ot_p": 0.0, "per_marg_ot_m": 0.0, "per_marg_ot_f": 0.0, "margwork_3_6_p": 0, "margwork_3_6_m": 0, "margwork_3_6_f": 0, "per_margwork_3_6_p": 0.0, "per_margwork_3_6_m": 0.0, "per_margwork_3_6_f": 0.0, "marg_cl_3_6_p": 0, "marg_cl_3_6_m": 0, "marg_cl_3_6_f": 0, "per_marg_cl_3_6_p": 0.0, "per_marg_cl_3_6_m": 0.0, "per_marg_cl_3_6_f": 0.0, "marg_al_3_6_p": 0, "marg_al_3_6_m": 0, "marg_al_3_6_f": 0, "per_marg_al_3_6_p": 0.0, "per_marg_al_3_6_m": 0.0, "per_marg_al_3_6_f": 0.0, "marg_hh_3_6_p": 0, "marg_hh_3_6_m": 0, "marg_hh_3_6_f": 0, "per_marg_hh_3_6_p": 0.0, "per_marg_hh_3_6_m": 0.0, "per_marg_hh_3_6_f": 0.0, "marg_ot_3_6_p": 0, "marg_ot_3_6_m": 0, "marg_ot_3_6_f": 0, "per_marg_ot_3_6_p": 0.0, "per_marg_ot_3_6_m": 0.0, "per_marg_ot_3_6_f": 0.0, "margwork_0_3_p": 0, "margwork_0_3_m": 0, "margwork_0_3_f": 0, "per_margwork_0_3_p": 0.0, "per_margwork_0_3_m": 0.0, "per_margwork_0_3_f": 0.0, "marg_cl_0_3_p": 0, "marg_cl_0_3_m": 0, "marg_cl_0_3_f": 0, "per_marg_cl_0_3_p": 0.0, "per_marg_cl_0_3_m": 0.0, "per_marg_cl_0_3_f": 0.0, "marg_al_0_3_p": 0, "marg_al_0_3_m": 0, "marg_al_0_3_f": 0, "per_marg_al_0_3_p": 0.0, "per_marg_al_0_3_m": 0.0, "per_marg_al_0_3_f": 0.0, "marg_hh_0_3_p": 0, "marg_hh_0_3_m": 0, "marg_hh_0_3_f": 0, "per_marg_hh_0_3_p": 0.0, "per_marg_hh_0_3_m": 0.0, "per_marg_hh_0_3_f": 0.0, "marg_ot_0_3_p": 0, "marg_ot_0_3_m": 0, "marg_ot_0_3_f": 0, "per_marg_ot_0_3_p": 0.0, "per_marg_ot_0_3_m": 0.0, "per_marg_ot_0_3_f": 0.0, "non_work_p": 237, "non_work_m": 136, "non_work_f": 101, "per_non_work_p": 50.8583691, "per_non_work_m": 57.38396624, "per_non_work_f": 42.61603376, "per_hc_tot_tot": 100, "per_hc_tot_god": 45.9, "per_hc_tot_liv": 54.1, "per_hc_tot_dil": 0.0, "per_hc_res_tot": 100.0, "per_hc_res_god": 45.9, "per_hc_res_liv": 54.1, "per_hc_res_dil": 0.0, "per_hc_oth_tot": 0.0, "per_hc_oth_god": 0.0, "per_hc_oth_liv": 0.0, "per_hc_oth_dil": 0.0, "per_mt_grsbam": 33.8, "per_mt_plastic": 0.0, "per_mt_h_tiles": 0.0, "per_mt_m_tiles": 0.0, "per_mt_b_brick": 0.0, "per_mt_stone": 2.7, "per_mt_asbstos": 29.7, "per_mt_concrte": 33.8, "per_mt_oth": 0.0, "per_mw_grsbam": 1.4, "per_mw_plastic": 0.0, "per_mw_mud": 14.9, "per_mw_wood": 35.1, "per_mw_no_mrtr": 0.0, "per_mw_st_mrtr": 48.6, "per_mw_asbstos": 0.0, "per_mw_b_brick": 0.0, "per_mw_concrte": 0.0, "per_mw_oth": 0.0, "per_mf_mud": 6.8, "per_mf_wood": 40.5, "per_mf_b_brick": 0.0, "per_mf_stone": 2.7, "per_mf_cement": 50.0, "per_mf_fl_tile": 0.0, "per_mf_oth": 0.0, "per_dw_n_exrm": 0.0, "per_dw_1_room": 40.5, "per_dw_2_room": 33.8, "per_dw_3_room": 17.6, "per_dw_4_room": 8.1, "per_dw_5_room": 0.0, "per_dw_6_room": 0.0, "per_hhsize_1": 0.0, "per_hhsize_2": 0.0, "per_hhsize_3": 10.8, "per_hhsize_4": 14.9, "per_hhsize_5": 25.7, "per_hhsize_6_8": 31.1, "per_hhsize_9p": 17.6, "per_ow_owned": 98.6, "per_ow_rented": 1.4, "per_ow_oth": 0.0, "per_mc_none": 4.1, "per_mcouple_1": 68.9, "per_mcouple_2": 17.6, "per_mcouple_3": 9.5, "per_mcouple_4": 0.0, "per_mcouple_5p": 0.0, "per_dw_t_ts": 100.0, "per_dw_t_unts": 0.0, "per_dw_c_well": 0.0, "per_dw_unc_wel": 0.0, "per_dw_hpump": 0.0, "per_dw_tw_bore": 0.0, "per_dw_spring": 0.0, "per_dw_rivcan": 0.0, "per_dw_tank": 0.0, "per_dw_oth": 0.0, "per_loc_dw_wp": 28.4, "per_loc_dw_np": 71.6, "per_loc_dw_aw": 0.0, "per_light_elec": 100.0, "per_light_kero": 0.0, "per_light_solr": 0.0, "per_light_oil": 0.0, "per_light_oth": 0.0, "per_light_no": 0.0, "per_hh_latrine": 27.0, "per_fl_sewer": 0.0, "per_fl_septict": 0.0, "per_fl_othsys": 0.0, "per_pl_wslab": 27.0, "per_pl_without": 0.0, "per_ns_open": 0.0, "per_sl_ns_hum": 0.0, "per_sl_ns_anml": 0.0, "per_hh_no_lat": 73.0, "per_as_pub": 0.0, "per_as_open": 73.0, "per_hh_bathrm": 32.4, "per_hh_en_wrf": 0.0, "per_hh_no_btrm": 67.6, "per_wwoc_drain": 27.0, "per_wwoc_open": 0.0, "per_wwoc_nodrn": 73.0, "per_cook_fire": 55.4, "per_cook_resdu": 0.0, "per_cook_cwdng": 0.0, "per_cook_coal": 0.0, "per_cook_kero": 0.0, "per_cook_lpng": 44.6, "per_cook_elec": 0.0, "per_cook_biogs": 0.0, "per_cook_oth": 0.0, "per_cook_no": 0.0, "per_kf_inside": 70.3, "per_kf_in_has": 70.3, "per_kf_in_does": 0.0, "per_kf_outside": 29.7, "per_kf_out_has": 29.7, "per_kf_out_dos": 0.0, "per_kf_no_cook": 0.0, "per_hh_banking": 98.6, "per_hh_radio": 37.8, "per_hh_tv": 37.8, "per_hh_cmp_int": 0.0, "per_hh_cmp_wnt": 0.0, "per_hh_ph_ll": 0.0, "per_hh_ph_mob": 94.6, "per_hh_ph_bth": 0.0, "per_hh_bcycl": 0.0, "per_hh_2wheel": 2.7, "per_hh_4wheel": 0.0, "per_hh_tvcomp": null, "per_hh_no_ast": 4.1, "per_hs_perma": 48.6, "per_hs_sperma": 17.6, "per_hs_temp": 33.8, "per_hs_servc": 33.8, "per_hs_nservc": 0.0, "per_hs_unclss": 0.0, "avghhsz_cy": 6.21333333, "st_areashape": 19349408.502466235, "st_lengthshape": 19023.101877873745}, "geometry": {"type": "Polygon", "coordinates": [[[78.05406614764199, 31.05834597700178], [78.05395266976036, 31.058878629128085], [78.05384604692267, 31.05920551825341], [78.05348518918147, 31.060081240151728], [78.05128323606206, 31.059024604359887], [78.04902432795707, 31.058379581047678], [78.0466148262778, 31.05812157034437], [78.04340202412202, 31.05844629583245], [78.04348286710771, 31.058373357820575], [78.04378363743787, 31.057968887203536], [78.04388892897232, 31.05768317424823], [78.04394636455663, 31.05739627995648], [78.04396418264031, 31.056861270104047], [78.04387535632671, 31.05665312897363], [78.04374278385541, 31.05632034016315], [78.04342706106729, 31.055735918774687], [78.04254408900823, 31.054931526906486], [78.04141640957758, 31.054285844029316], [78.04019580841394, 31.053555476767617], [78.03854463844637, 31.052814473696316], [78.03740464221484, 31.052539153858586], [78.03545409340752, 31.05216141691273], [78.03402706388313, 31.0518789757342], [78.0324551343068, 31.051634142011093], [78.03202730356793, 31.051541173278427], [78.03150378159, 31.051445833345824], [78.03121811104144, 31.05139757229773], [78.03050322095856, 31.051297492304588], [78.0297869744196, 31.051238566170017], [78.02964888988569, 31.051225216049264], [78.029215093435, 31.05118327709497], [78.02912871413223, 31.05133831683995], [78.02894210170835, 31.047614217068947], [78.02856181520417, 31.045333539645025], [78.02761109579964, 31.043052806804305], [78.02685052099467, 31.040934935952073], [78.0249289527367, 31.037748648281383], [78.02468331381216, 31.037492616740046], [78.0241981741514, 31.037151978428994], [78.02355380990318, 31.037004547996393], [78.02287457664885, 31.036757677846307], [78.02182469940664, 31.03617299778113], [78.02024017365336, 31.035016404292776], [78.01876975999235, 31.033303974062147], [78.017891266035, 31.03216486362256], [78.01768540001963, 31.031469671341465], [78.01764096395581, 31.03051558173894], [78.01758334331852, 31.029955503512802], [78.01757157179505, 31.029166523203383], [78.01768638726813, 31.02801921592452], [78.018099487433, 31.026517827219205], [78.01852065985902, 31.025345243161528], [78.01901485004628, 31.02427306726114], [78.01976844673813, 31.0234373620314], [78.02130937904725, 31.02189821334044], [78.02281541180761, 31.020259589998016], [78.02465342416771, 31.01839914190894], [78.02787668361174, 31.015652838383247], [78.03000293390546, 31.01373374211196], [78.03206595717627, 31.011418662669193], [78.0336847015553, 31.009533097805175], [78.03390717292868, 31.009787047162348], [78.03591667277821, 31.011357740873727], [78.03776658691757, 31.01241750570791], [78.0404759309673, 31.014208273760662], [78.04290945719049, 31.015434497068323], [78.0441203340912, 31.016224899894954], [78.04508729413776, 31.01726270712274], [78.04549539338144, 31.018673959217455], [78.04522590508442, 31.018892889746713], [78.04506139570813, 31.01911435027688], [78.04494907305991, 31.019337099791546], [78.04494157122899, 31.01956249706425], [78.04498941460271, 31.019698954148254], [78.04581841228622, 31.019990086114156], [78.04721156723959, 31.020656005887552], [78.04824724211714, 31.021042413023462], [78.0488667445916, 31.021328302162722], [78.04963142918899, 31.021978682055053], [78.05033454505345, 31.023230381065414], [78.05071759657207, 31.02432237976373], [78.05133853006275, 31.0261420123511], [78.05224395281739, 31.02729195874362], [78.05290835129313, 31.027804510145852], [78.05413262387134, 31.028827041330057], [78.05464436893588, 31.02920049318561], [78.0548508817382, 31.0292957499394], [78.05459630098333, 31.03205891101859], [78.05519867707689, 31.033994503003242], [78.05610224031888, 31.035413911043893], [78.0586623355724, 31.036962333378504], [78.06016827490795, 31.03760750108576], [78.06197540139196, 31.038123632258035], [78.06373841430734, 31.039142853045256], [78.06483668469221, 31.04083327712622], [78.06589084240676, 31.042123555708358], [78.06664381117623, 31.04315576706031], [78.06858919736563, 31.044904755205422], [78.06796727572812, 31.04488948624401], [78.06734262770372, 31.0449565298888], [78.06627240541695, 31.04546569831598], [78.06470741891944, 31.04645700833416], [78.06396660705072, 31.047139018330363], [78.0625833973459, 31.048423092231136], [78.06119877818442, 31.049748291102222], [78.06109491137802, 31.049992878786746], [78.06088988798241, 31.05039972673895], [78.06082703106534, 31.05085125875878], [78.0607231453943, 31.05109584668693], [78.0606179095554, 31.051381574805394], [78.06050036769543, 31.052037712206346], [78.0599003209334, 31.052805549649886], [78.05868102502187, 31.053475757365476], [78.05765582180554, 31.05406836623472], [78.05677276171158, 31.054705654640536], [78.0557803631728, 31.05575213101063], [78.05453913758856, 31.057080797739697], [78.05433545268272, 31.057446473360763], [78.05412766427267, 31.057935613914065], [78.05406614764199, 31.05834597700178]]]}}]}