{"type": "FeatureCollection", "features": [{"type": "Feature", "properties": {"premiumdata.sde.IN_Village_PCA.area": 0.25927173, "objectid": 602295, "id": "102141134327709", "name": "Biru", "subdistrict": "Purnia East", "district": "Purnia", "state": "Bihar", "country": "India", "censusname": "Biru", "villagename_locallang": "\u092c\u0940\u0930\u0942", "lgd_villagename": "Biru", "lgd_villagecode": 223540, "lgd_subdistrictcode": 1134, "lgd_districtcode": 214, "lgd_statecode": 10, "censuscode2001": "00757900", "censuscode2011": "223540", "censuscode2021": null, "level": "Village", "tru": "Rural", "no_hh": 55, "tot_p": 259, "tot_m": 135, "tot_f": 124, "per_tot_m": 52.12355212, "per_tot_f": 47.87644788, "p_06": 52, "m_06": 31, "f_06": 21, "per_p_06": 20.07722008, "per_m_06": 59.61538462, "per_f_06": 40.38461538, "p_sc": 0, "m_sc": 0, "f_sc": 0, "per_p_sc": 0.0, "per_m_sc": 0.0, "per_f_sc": 0.0, "p_st": 132, "m_st": 64, "f_st": 68, "per_p_st": 50.96525097, "per_m_st": 48.48484848, "per_f_st": 51.51515152, "p_lit": 81, "m_lit": 55, "f_lit": 26, "per_p_lit": 31.27413127, "per_m_lit": 67.90123457, "per_f_lit": 32.09876543, "p_ill": 178, "m_ill": 80, "f_ill": 98, "per_p_ill": 68.72586873, "per_m_ill": 44.94382022000001, "per_f_ill": 55.05617978, "tot_work_p": 77, "tot_work_m": 62, "tot_work_f": 15, "per_tot_work_p": 29.72972973, "per_tot_work_m": 80.51948052, "per_tot_work_f": 19.48051948, "mainwork_p": 48, "mainwork_m": 47, "mainwork_f": 1, "per_mainwork_p": 18.53281853, "per_mainwork_m": 97.91666667, "per_mainwork_f": 2.08333333, "main_cl_p": 21, "main_cl_m": 21, "main_cl_f": 0, "per_main_cl_p": 43.75, "per_main_cl_m": 100.0, "per_main_cl_f": 0.0, "main_al_p": 23, "main_al_m": 22, "main_al_f": 1, "per_main_al_p": 47.91666667000001, "per_main_al_m": 95.65217391, "per_main_al_f": 4.34782609, "main_hh_p": 2, "main_hh_m": 2, "main_hh_f": 0, "per_main_hh_p": 4.16666667, "per_main_hh_m": 100.0, "per_main_hh_f": 0.0, "main_ot_p": 2, "main_ot_m": 2, "main_ot_f": 0, "per_main_ot_p": 4.16666667, "per_main_ot_m": 100.0, "per_main_ot_f": 0.0, "margwork_p": 29, "margwork_m": 15, "margwork_f": 14, "per_margwork_p": 11.1969112, "per_margwork_m": 51.72413793, "per_margwork_f": 48.27586207, "marg_cl_p": 0, "marg_cl_m": 0, "marg_cl_f": 0, "per_marg_cl_p": 0.0, "per_marg_cl_m": 0.0, "per_marg_cl_f": 0.0, "marg_al_p": 20, "marg_al_m": 11, "marg_al_f": 9, "per_marg_al_p": 68.96551724000001, "per_marg_al_m": 55.0, "per_marg_al_f": 45.0, "marg_hh_p": 0, "marg_hh_m": 0, "marg_hh_f": 0, "per_marg_hh_p": 0.0, "per_marg_hh_m": 0.0, "per_marg_hh_f": 0.0, "marg_ot_p": 9, "marg_ot_m": 4, "marg_ot_f": 5, "per_marg_ot_p": 31.03448276, "per_marg_ot_m": 44.44444444000001, "per_marg_ot_f": 55.55555556, "margwork_3_6_p": 28, "margwork_3_6_m": 15, "margwork_3_6_f": 13, "per_margwork_3_6_p": 96.55172414, "per_margwork_3_6_m": 53.57142857, "per_margwork_3_6_f": 46.42857143, "marg_cl_3_6_p": 0, "marg_cl_3_6_m": 0, "marg_cl_3_6_f": 0, "per_marg_cl_3_6_p": 0.0, "per_marg_cl_3_6_m": 0.0, "per_marg_cl_3_6_f": 0.0, "marg_al_3_6_p": 19, "marg_al_3_6_m": 11, "marg_al_3_6_f": 8, "per_marg_al_3_6_p": 65.51724138, "per_marg_al_3_6_m": 57.89473684, "per_marg_al_3_6_f": 42.10526316000001, "marg_hh_3_6_p": 0, "marg_hh_3_6_m": 0, "marg_hh_3_6_f": 0, "per_marg_hh_3_6_p": 0.0, "per_marg_hh_3_6_m": 0.0, "per_marg_hh_3_6_f": 0.0, "marg_ot_3_6_p": 9, "marg_ot_3_6_m": 4, "marg_ot_3_6_f": 5, "per_marg_ot_3_6_p": 31.03448276, "per_marg_ot_3_6_m": 44.44444444000001, "per_marg_ot_3_6_f": 55.55555556, "margwork_0_3_p": 1, "margwork_0_3_m": 0, "margwork_0_3_f": 1, "per_margwork_0_3_p": 3.44827586, "per_margwork_0_3_m": 0.0, "per_margwork_0_3_f": 100.0, "marg_cl_0_3_p": 0, "marg_cl_0_3_m": 0, "marg_cl_0_3_f": 0, "per_marg_cl_0_3_p": 0.0, "per_marg_cl_0_3_m": 0.0, "per_marg_cl_0_3_f": 0.0, "marg_al_0_3_p": 1, "marg_al_0_3_m": 0, "marg_al_0_3_f": 1, "per_marg_al_0_3_p": 3.44827586, "per_marg_al_0_3_m": 0.0, "per_marg_al_0_3_f": 100.0, "marg_hh_0_3_p": 0, "marg_hh_0_3_m": 0, "marg_hh_0_3_f": 0, "per_marg_hh_0_3_p": 0.0, "per_marg_hh_0_3_m": 0.0, "per_marg_hh_0_3_f": 0.0, "marg_ot_0_3_p": 0, "marg_ot_0_3_m": 0, "marg_ot_0_3_f": 0, "per_marg_ot_0_3_p": 0.0, "per_marg_ot_0_3_m": 0.0, "per_marg_ot_0_3_f": 0.0, "non_work_p": 182, "non_work_m": 73, "non_work_f": 109, "per_non_work_p": 70.27027027, "per_non_work_m": 40.10989011, "per_non_work_f": 59.89010989, "per_hc_tot_tot": 100, "per_hc_tot_god": 82.1, "per_hc_tot_liv": 17.9, "per_hc_tot_dil": 0.0, "per_hc_res_tot": 100.0, "per_hc_res_god": 82.1, "per_hc_res_liv": 17.9, "per_hc_res_dil": 0.0, "per_hc_oth_tot": 0.0, "per_hc_oth_god": 0.0, "per_hc_oth_liv": 0.0, "per_hc_oth_dil": 0.0, "per_mt_grsbam": 92.9, "per_mt_plastic": 0.0, "per_mt_h_tiles": 3.6, "per_mt_m_tiles": 0.0, "per_mt_b_brick": 0.0, "per_mt_stone": 1.8, "per_mt_asbstos": 1.8, "per_mt_concrte": 0.0, "per_mt_oth": 0.0, "per_mw_grsbam": 64.3, "per_mw_plastic": 0.0, "per_mw_mud": 32.1, "per_mw_wood": 0.0, "per_mw_no_mrtr": 0.0, "per_mw_st_mrtr": 1.8, "per_mw_asbstos": 0.0, "per_mw_b_brick": 1.8, "per_mw_concrte": 0.0, "per_mw_oth": 0.0, "per_mf_mud": 100.0, "per_mf_wood": 0.0, "per_mf_b_brick": 0.0, "per_mf_stone": 0.0, "per_mf_cement": 0.0, "per_mf_fl_tile": 0.0, "per_mf_oth": 0.0, "per_dw_n_exrm": 0.0, "per_dw_1_room": 75.0, "per_dw_2_room": 21.4, "per_dw_3_room": 1.8, "per_dw_4_room": 1.8, "per_dw_5_room": 0.0, "per_dw_6_room": 0.0, "per_hhsize_1": 1.8, "per_hhsize_2": 7.1, "per_hhsize_3": 14.3, "per_hhsize_4": 21.4, "per_hhsize_5": 23.2, "per_hhsize_6_8": 32.1, "per_hhsize_9p": 0.0, "per_ow_owned": 100.0, "per_ow_rented": 0.0, "per_ow_oth": 0.0, "per_mc_none": 5.4, "per_mcouple_1": 89.3, "per_mcouple_2": 5.4, "per_mcouple_3": 0.0, "per_mcouple_4": 0.0, "per_mcouple_5p": 0.0, "per_dw_t_ts": 0.0, "per_dw_t_unts": 0.0, "per_dw_c_well": 0.0, "per_dw_unc_wel": 0.0, "per_dw_hpump": 87.5, "per_dw_tw_bore": 12.5, "per_dw_spring": 0.0, "per_dw_rivcan": 0.0, "per_dw_tank": 0.0, "per_dw_oth": 0.0, "per_loc_dw_wp": 37.5, "per_loc_dw_np": 51.8, "per_loc_dw_aw": 10.7, "per_light_elec": 50.0, "per_light_kero": 50.0, "per_light_solr": 0.0, "per_light_oil": 0.0, "per_light_oth": 0.0, "per_light_no": 0.0, "per_hh_latrine": 0.0, "per_fl_sewer": 0.0, "per_fl_septict": 0.0, "per_fl_othsys": 0.0, "per_pl_wslab": 0.0, "per_pl_without": 0.0, "per_ns_open": 0.0, "per_sl_ns_hum": 0.0, "per_sl_ns_anml": 0.0, "per_hh_no_lat": 100.0, "per_as_pub": 5.4, "per_as_open": 94.6, "per_hh_bathrm": 0.0, "per_hh_en_wrf": 83.9, "per_hh_no_btrm": 16.1, "per_wwoc_drain": 0.0, "per_wwoc_open": 0.0, "per_wwoc_nodrn": 100.0, "per_cook_fire": 5.4, "per_cook_resdu": 83.9, "per_cook_cwdng": 10.7, "per_cook_coal": 0.0, "per_cook_kero": 0.0, "per_cook_lpng": 0.0, "per_cook_elec": 0.0, "per_cook_biogs": 0.0, "per_cook_oth": 0.0, "per_cook_no": 0.0, "per_kf_inside": 82.1, "per_kf_in_has": 69.6, "per_kf_in_does": 12.5, "per_kf_outside": 17.9, "per_kf_out_has": 12.5, "per_kf_out_dos": 5.4, "per_kf_no_cook": 0.0, "per_hh_banking": 17.9, "per_hh_radio": 7.1, "per_hh_tv": 14.3, "per_hh_cmp_int": 0.0, "per_hh_cmp_wnt": 5.4, "per_hh_ph_ll": 0.0, "per_hh_ph_mob": 32.1, "per_hh_ph_bth": 0.0, "per_hh_bcycl": 53.6, "per_hh_2wheel": 1.8, "per_hh_4wheel": 0.0, "per_hh_tvcomp": 0.0, "per_hh_no_ast": 39.3, "per_hs_perma": 1.8, "per_hs_sperma": 7.1, "per_hs_temp": 91.1, "per_hs_servc": 30.4, "per_hs_nservc": 60.7, "per_hs_unclss": 0.0, "avghhsz_cy": 4.70909091, "st_areashape": 320725.481967365, "st_lengthshape": 2688.8758095161675}, "geometry": {"type": "Polygon", "coordinates": [[[87.64405726772809, 25.708762065730088], [87.64297727716092, 25.710105644281143], [87.64321495701205, 25.7117117551535], [87.64333379693764, 25.712996628080806], [87.64321495701205, 25.714174416817283], [87.64143235902687, 25.713424916243053], [87.63935640720251, 25.71313795813248], [87.6399931851782, 25.712338182042902], [87.63958405556686, 25.71181708106309], [87.63704807558716, 25.71157893881633], [87.63747728434171, 25.709122501866776], [87.64076615583575, 25.708883671101567], [87.64405726772809, 25.708762065730088]]]}}]}