{"type": "FeatureCollection", "features": [{"type": "Feature", "properties": {"premiumdata.sde.IN_Village_PCA.area": 13.94661373, "objectid": 90099, "id": "285065080657722", "name": "Mutluru", "subdistrict": "Vatticherukuru", "district": "Guntur", "state": "Andhra Pradesh", "country": "India", "censusname": "Mutluru", "villagename_locallang": null, "lgd_villagename": "Mutluru", "lgd_villagecode": 590322, "lgd_subdistrictcode": 5080, "lgd_districtcode": 506, "lgd_statecode": 28, "censuscode2001": "02132000", "censuscode2011": "590322", "censuscode2021": null, "level": "Village", "tru": "Rural", "no_hh": 2266, "tot_p": 7806, "tot_m": 3918, "tot_f": 3888, "per_tot_m": 50.19215988000001, "per_tot_f": 49.80784012, "p_06": 625, "m_06": 332, "f_06": 293, "per_p_06": 8.00666154, "per_m_06": 53.12, "per_f_06": 46.88, "p_sc": 1091, "m_sc": 555, "f_sc": 536, "per_p_sc": 13.97642839, "per_m_sc": 50.87076077, "per_f_sc": 49.12923923, "p_st": 82, "m_st": 44, "f_st": 38, "per_p_st": 1.05047399, "per_m_st": 53.65853659, "per_f_st": 46.34146341, "p_lit": 4906, "m_lit": 2728, "f_lit": 2178, "per_p_lit": 62.84909044, "per_m_lit": 55.60538117, "per_f_lit": 44.39461883, "p_ill": 2900, "m_ill": 1190, "f_ill": 1710, "per_p_ill": 37.15090956, "per_m_ill": 41.03448276, "per_f_ill": 58.96551724, "tot_work_p": 4441, "tot_work_m": 2411, "tot_work_f": 2030, "per_tot_work_p": 56.89213426, "per_tot_work_m": 54.28957442, "per_tot_work_f": 45.71042558, "mainwork_p": 4321, "mainwork_m": 2368, "mainwork_f": 1953, "per_mainwork_p": 55.35485524, "per_mainwork_m": 54.80212914000001, "per_mainwork_f": 45.19787086, "main_cl_p": 1046, "main_cl_m": 667, "main_cl_f": 379, "per_main_cl_p": 24.20735941, "per_main_cl_m": 63.7667304, "per_main_cl_f": 36.2332696, "main_al_p": 2776, "main_al_m": 1357, "main_al_f": 1419, "per_main_al_p": 64.24438787, "per_main_al_m": 48.8832853, "per_main_al_f": 51.1167147, "main_hh_p": 152, "main_hh_m": 85, "main_hh_f": 67, "per_main_hh_p": 3.51770424, "per_main_hh_m": 55.92105263, "per_main_hh_f": 44.07894737, "main_ot_p": 347, "main_ot_m": 259, "main_ot_f": 88, "per_main_ot_p": 8.03054848, "per_main_ot_m": 74.63976945, "per_main_ot_f": 25.36023055, "margwork_p": 120, "margwork_m": 43, "margwork_f": 77, "per_margwork_p": 1.53727902, "per_margwork_m": 35.83333333, "per_margwork_f": 64.16666667, "marg_cl_p": 0, "marg_cl_m": 0, "marg_cl_f": 0, "per_marg_cl_p": 0.0, "per_marg_cl_m": 0.0, "per_marg_cl_f": 0.0, "marg_al_p": 98, "marg_al_m": 33, "marg_al_f": 65, "per_marg_al_p": 81.66666667, "per_marg_al_m": 33.67346939, "per_marg_al_f": 66.32653061, "marg_hh_p": 2, "marg_hh_m": 1, "marg_hh_f": 1, "per_marg_hh_p": 1.66666667, "per_marg_hh_m": 50.0, "per_marg_hh_f": 50.0, "marg_ot_p": 20, "marg_ot_m": 9, "marg_ot_f": 11, "per_marg_ot_p": 16.66666667, "per_marg_ot_m": 45.0, "per_marg_ot_f": 55.0, "margwork_3_6_p": 112, "margwork_3_6_m": 41, "margwork_3_6_f": 71, "per_margwork_3_6_p": 93.33333332999999, "per_margwork_3_6_m": 36.60714286, "per_margwork_3_6_f": 63.39285714, "marg_cl_3_6_p": 0, "marg_cl_3_6_m": 0, "marg_cl_3_6_f": 0, "per_marg_cl_3_6_p": 0.0, "per_marg_cl_3_6_m": 0.0, "per_marg_cl_3_6_f": 0.0, "marg_al_3_6_p": 93, "marg_al_3_6_m": 33, "marg_al_3_6_f": 60, "per_marg_al_3_6_p": 77.5, "per_marg_al_3_6_m": 35.48387097000001, "per_marg_al_3_6_f": 64.51612902999999, "marg_hh_3_6_p": 0, "marg_hh_3_6_m": 0, "marg_hh_3_6_f": 0, "per_marg_hh_3_6_p": 0.0, "per_marg_hh_3_6_m": 0.0, "per_marg_hh_3_6_f": 0.0, "marg_ot_3_6_p": 19, "marg_ot_3_6_m": 8, "marg_ot_3_6_f": 11, "per_marg_ot_3_6_p": 15.83333333, "per_marg_ot_3_6_m": 42.10526316000001, "per_marg_ot_3_6_f": 57.89473684, "margwork_0_3_p": 8, "margwork_0_3_m": 2, "margwork_0_3_f": 6, "per_margwork_0_3_p": 6.66666667, "per_margwork_0_3_m": 25.0, "per_margwork_0_3_f": 75.0, "marg_cl_0_3_p": 0, "marg_cl_0_3_m": 0, "marg_cl_0_3_f": 0, "per_marg_cl_0_3_p": 0.0, "per_marg_cl_0_3_m": 0.0, "per_marg_cl_0_3_f": 0.0, "marg_al_0_3_p": 5, "marg_al_0_3_m": 0, "marg_al_0_3_f": 5, "per_marg_al_0_3_p": 4.16666667, "per_marg_al_0_3_m": 0.0, "per_marg_al_0_3_f": 100.0, "marg_hh_0_3_p": 2, "marg_hh_0_3_m": 1, "marg_hh_0_3_f": 1, "per_marg_hh_0_3_p": 0.0, "per_marg_hh_0_3_m": 50.0, "per_marg_hh_0_3_f": 50.0, "marg_ot_0_3_p": 1, "marg_ot_0_3_m": 1, "marg_ot_0_3_f": 0, "per_marg_ot_0_3_p": 0.83333333, "per_marg_ot_0_3_m": 100.0, "per_marg_ot_0_3_f": 0.0, "non_work_p": 3365, "non_work_m": 1507, "non_work_f": 1858, "per_non_work_p": 43.10786574, "per_non_work_m": 44.78454681, "per_non_work_f": 55.21545319000001, "per_hc_tot_tot": 100, "per_hc_tot_god": 61.2, "per_hc_tot_liv": 34.5, "per_hc_tot_dil": 4.3, "per_hc_res_tot": 98.4, "per_hc_res_god": 60.0, "per_hc_res_liv": 34.1, "per_hc_res_dil": 4.2, "per_hc_oth_tot": 1.6, "per_hc_oth_god": 1.2, "per_hc_oth_liv": 0.4, "per_hc_oth_dil": 0.0, "per_mt_grsbam": 22.9, "per_mt_plastic": 0.2, "per_mt_h_tiles": 18.1, "per_mt_m_tiles": 21.4, "per_mt_b_brick": 0.7, "per_mt_stone": 0.7, "per_mt_asbstos": 15.6, "per_mt_concrte": 20.4, "per_mt_oth": 0.0, "per_mw_grsbam": 15.0, "per_mw_plastic": 0.7, "per_mw_mud": 10.1, "per_mw_wood": 0.6, "per_mw_no_mrtr": 5.6, "per_mw_st_mrtr": 55.1, "per_mw_asbstos": 0.1, "per_mw_b_brick": 8.0, "per_mw_concrte": 4.7, "per_mw_oth": 0.0, "per_mf_mud": 27.9, "per_mf_wood": 0.1, "per_mf_b_brick": 0.0, "per_mf_stone": 70.7, "per_mf_cement": 0.4, "per_mf_fl_tile": 0.8, "per_mf_oth": 0.0, "per_dw_n_exrm": 7.0, "per_dw_1_room": 48.8, "per_dw_2_room": 28.4, "per_dw_3_room": 8.9, "per_dw_4_room": 4.9, "per_dw_5_room": 0.3, "per_dw_6_room": 1.8, "per_hhsize_1": 9.3, "per_hhsize_2": 20.9, "per_hhsize_3": 17.0, "per_hhsize_4": 30.4, "per_hhsize_5": 13.4, "per_hhsize_6_8": 8.6, "per_hhsize_9p": 0.3, "per_ow_owned": 87.2, "per_ow_rented": 12.0, "per_ow_oth": 0.8, "per_mc_none": 16.4, "per_mcouple_1": 75.6, "per_mcouple_2": 7.5, "per_mcouple_3": 0.4, "per_mcouple_4": 0.0, "per_mcouple_5p": 0.0, "per_dw_t_ts": 73.6, "per_dw_t_unts": 0.7, "per_dw_c_well": 0.0, "per_dw_unc_wel": 15.6, "per_dw_hpump": 4.3, "per_dw_tw_bore": 5.6, "per_dw_spring": 0.0, "per_dw_rivcan": 0.0, "per_dw_tank": 0.1, "per_dw_oth": 0.0, "per_loc_dw_wp": 52.1, "per_loc_dw_np": 18.0, "per_loc_dw_aw": 29.8, "per_light_elec": 96.8, "per_light_kero": 2.7, "per_light_solr": 0.1, "per_light_oil": 0.2, "per_light_oth": 0.1, "per_light_no": 0.2, "per_hh_latrine": 71.7, "per_fl_sewer": 11.1, "per_fl_septict": 60.2, "per_fl_othsys": 0.1, "per_pl_wslab": 0.1, "per_pl_without": 0.0, "per_ns_open": 0.1, "per_sl_ns_hum": 0.0, "per_sl_ns_anml": 0.0, "per_hh_no_lat": 28.3, "per_as_pub": 0.2, "per_as_open": 28.2, "per_hh_bathrm": 63.2, "per_hh_en_wrf": 5.6, "per_hh_no_btrm": 31.2, "per_wwoc_drain": 8.4, "per_wwoc_open": 33.9, "per_wwoc_nodrn": 57.7, "per_cook_fire": 45.6, "per_cook_resdu": 0.4, "per_cook_cwdng": 0.1, "per_cook_coal": 0.1, "per_cook_kero": 0.6, "per_cook_lpng": 52.8, "per_cook_elec": 0.0, "per_cook_biogs": 0.1, "per_cook_oth": 0.0, "per_cook_no": 0.2, "per_kf_inside": 69.9, "per_kf_in_has": 52.5, "per_kf_in_does": 17.4, "per_kf_outside": 29.9, "per_kf_out_has": 11.1, "per_kf_out_dos": 18.8, "per_kf_no_cook": 0.2, "per_hh_banking": 52.2, "per_hh_radio": 4.3, "per_hh_tv": 68.6, "per_hh_cmp_int": 0.8, "per_hh_cmp_wnt": 8.3, "per_hh_ph_ll": 14.2, "per_hh_ph_mob": 35.7, "per_hh_ph_bth": 2.3, "per_hh_bcycl": 40.4, "per_hh_2wheel": 11.2, "per_hh_4wheel": 0.4, "per_hh_tvcomp": 0.8, "per_hh_no_ast": 17.8, "per_hs_perma": 67.8, "per_hs_sperma": 14.8, "per_hs_temp": 17.3, "per_hs_servc": 2.7, "per_hs_nservc": 14.7, "per_hs_unclss": 0.0, "avghhsz_cy": 3.44483672, "st_areashape": 15203591.64300649, "st_lengthshape": 16189.853499576688}, "geometry": {"type": "Polygon", "coordinates": [[[80.47044999994988, 16.1868199998158], [80.47032000025351, 16.18657999969613], [80.46938000044528, 16.18563999994047], [80.46806000069544, 16.18439000011384], [80.46735000014262, 16.183869999842493], [80.46730999995967, 16.183380000125155], [80.4672499996852, 16.183040000486926], [80.46716000017183, 16.18128000025673], [80.46730999995967, 16.180250000016443], [80.46720999950224, 16.179179999622228], [80.46670999991002, 16.178060000102832], [80.46616000008913, 16.176470000005953], [80.46577000010178, 16.17510000019442], [80.46551999985654, 16.17334999937352], [80.46478000006482, 16.171410000006848], [80.46377999998212, 16.169069999868743], [80.46321000006975, 16.168330000141687], [80.46369000046874, 16.167800000161535], [80.46410999969503, 16.16695999996748], [80.4646099992872, 16.16602000001622], [80.46481000020205, 16.165450000594507], [80.46479000011057, 16.16431000027109], [80.46466000041424, 16.163660000080206], [80.46432999980306, 16.163130000519647], [80.46363999934174, 16.162369999305017], [80.46359000001132, 16.161900000622506], [80.46367000037726, 16.16149000010664], [80.46388000043953, 16.161339999705472], [80.46443999940789, 16.161259999444987], [80.46519000014366, 16.161109999732133], [80.465580000131, 16.160880000354076], [80.46607999972318, 16.160499999670016], [80.46622999951101, 16.16002999999344], [80.46657999931537, 16.158800000655845], [80.46689999988084, 16.157550000126683], [80.4670999998974, 16.157049999600932], [80.46724000053777, 16.156579999489942], [80.46735000014262, 16.15556999971313], [80.46722999959373, 16.154100000364572], [80.46754000011344, 16.153140000510504], [80.46755000015916, 16.150860000629347], [80.4672499996852, 16.149230000066964], [80.46632999996845, 16.145610000016294], [80.46698000024679, 16.145610000016294], [80.4679300001008, 16.14524999929928], [80.46891999923942, 16.14462999950166], [80.47094000039463, 16.143470000704475], [80.47198000066032, 16.142929999585277], [80.47865000062804, 16.137299999672987], [80.47986999992047, 16.136850000063497], [80.48028999914672, 16.136699999966446], [80.4812099997618, 16.136889999955148], [80.48157000051023, 16.136969999714175], [80.48198999973647, 16.137079999761543], [80.48307999933253, 16.13771999976654], [80.48378999988536, 16.138280000231386], [80.48417000072527, 16.1385099999943], [80.4862300002668, 16.138469999567008], [80.48775000003319, 16.138839999975378], [80.48985999980347, 16.139949999640745], [80.49129000005647, 16.140319999872137], [80.49321999990168, 16.140159999577072], [80.49450000036687, 16.140180000052478], [80.49524999930601, 16.14043000064715], [80.49567000032887, 16.14085000014169], [80.4958600002997, 16.141039999599762], [80.49688000047388, 16.14265000008685], [80.49753999989966, 16.144319999737423], [80.49922999954536, 16.146840000257637], [80.50076000025578, 16.148890000353372], [80.50102999969421, 16.149849999258848], [80.50107999992292, 16.151079999893753], [80.50084999976914, 16.15271999948683], [80.50064999975264, 16.15367999965348], [80.50045999978181, 16.15456999946605], [80.49943999960763, 16.159440000304937], [80.49910999989476, 16.160720000291285], [80.49751999980818, 16.163830000256866], [80.4971999992427, 16.16511000029301], [80.49727999960864, 16.166100000076], [80.49632999975466, 16.166440000400108], [80.49433000048755, 16.16753999992834], [80.49321999990168, 16.1684199998018], [80.49168000004381, 16.16962999959238], [80.4902499997908, 16.17018999945457], [80.48870999993295, 16.171249999840278], [80.4870599995719, 16.17212000009952], [80.4854199992566, 16.17302000002536], [80.48430999956902, 16.173680000758736], [80.48281999993986, 16.175050000065653], [80.48151000023576, 16.17623000024685], [80.47986999992047, 16.17752000026821], [80.47888999992925, 16.178340000362468], [80.47677000011325, 16.18017000051003], [80.47545999951082, 16.18201999978462], [80.47477999999357, 16.183189999942755], [80.47434999982325, 16.18426000017442], [80.47423000017264, 16.184870000210417], [80.47399000087148, 16.184730000015254], [80.4734800003352, 16.18458000000405], [80.47282000001113, 16.184870000210417], [80.4713899997581, 16.18579000000891], [80.47081000069828, 16.186459999958227], [80.47044999994988, 16.1868199998158]]]}}]}