{"type": "FeatureCollection", "features": [{"type": "Feature", "properties": {"premiumdata.sde.IN_Village_PCA.area": 11.22120387, "objectid": 99349, "id": "274884238644294", "name": "Mandva", "subdistrict": "Washi", "district": "Osmanabad", "state": "Maharashtra", "country": "India", "censusname": "Mandva", "villagename_locallang": "\u092e\u093e\u0902\u0921\u0935\u093e", "lgd_villagename": "Mandva", "lgd_villagecode": 561274, "lgd_subdistrictcode": 4238, "lgd_districtcode": 488, "lgd_statecode": 27, "censuscode2001": "03609900", "censuscode2011": "561274", "censuscode2021": null, "level": "Village", "tru": "Rural", "no_hh": 597, "tot_p": 2848, "tot_m": 1493, "tot_f": 1355, "per_tot_m": 52.42275281, "per_tot_f": 47.57724719, "p_06": 348, "m_06": 183, "f_06": 165, "per_p_06": 12.21910112, "per_m_06": 52.5862069, "per_f_06": 47.4137931, "p_sc": 470, "m_sc": 242, "f_sc": 228, "per_p_sc": 16.50280899, "per_m_sc": 51.4893617, "per_f_sc": 48.5106383, "p_st": 134, "m_st": 65, "f_st": 69, "per_p_st": 4.70505618, "per_m_st": 48.50746269, "per_f_st": 51.49253731, "p_lit": 1953, "m_lit": 1133, "f_lit": 820, "per_p_lit": 68.5744382, "per_m_lit": 58.01331285, "per_f_lit": 41.98668715, "p_ill": 895, "m_ill": 360, "f_ill": 535, "per_p_ill": 31.4255618, "per_m_ill": 40.22346369, "per_f_ill": 59.77653631, "tot_work_p": 1251, "tot_work_m": 843, "tot_work_f": 408, "per_tot_work_p": 43.9255618, "per_tot_work_m": 67.38609113, "per_tot_work_f": 32.61390887, "mainwork_p": 962, "mainwork_m": 674, "mainwork_f": 288, "per_mainwork_p": 33.77808989, "per_mainwork_m": 70.06237006, "per_mainwork_f": 29.93762994, "main_cl_p": 426, "main_cl_m": 310, "main_cl_f": 116, "per_main_cl_p": 44.28274428, "per_main_cl_m": 72.76995305000001, "per_main_cl_f": 27.23004695, "main_al_p": 429, "main_al_m": 271, "main_al_f": 158, "per_main_al_p": 44.59459459, "per_main_al_m": 63.17016317, "per_main_al_f": 36.82983683, "main_hh_p": 21, "main_hh_m": 18, "main_hh_f": 3, "per_main_hh_p": 2.18295218, "per_main_hh_m": 85.71428571, "per_main_hh_f": 14.28571429, "main_ot_p": 86, "main_ot_m": 75, "main_ot_f": 11, "per_main_ot_p": 8.93970894, "per_main_ot_m": 87.20930233, "per_main_ot_f": 12.79069767, "margwork_p": 289, "margwork_m": 169, "margwork_f": 120, "per_margwork_p": 10.14747191, "per_margwork_m": 58.47750865, "per_margwork_f": 41.52249135, "marg_cl_p": 60, "marg_cl_m": 53, "marg_cl_f": 7, "per_marg_cl_p": 20.76124567, "per_marg_cl_m": 88.33333332999999, "per_marg_cl_f": 11.66666667, "marg_al_p": 195, "marg_al_m": 99, "marg_al_f": 96, "per_marg_al_p": 67.47404844, "per_marg_al_m": 50.76923077, "per_marg_al_f": 49.23076923, "marg_hh_p": 16, "marg_hh_m": 3, "marg_hh_f": 13, "per_marg_hh_p": 5.53633218, "per_marg_hh_m": 18.75, "per_marg_hh_f": 81.25, "marg_ot_p": 18, "marg_ot_m": 14, "marg_ot_f": 4, "per_marg_ot_p": 6.2283737, "per_marg_ot_m": 77.77777778, "per_marg_ot_f": 22.22222222, "margwork_3_6_p": 157, "margwork_3_6_m": 73, "margwork_3_6_f": 84, "per_margwork_3_6_p": 54.32525952, "per_margwork_3_6_m": 46.49681529, "per_margwork_3_6_f": 53.50318471000001, "marg_cl_3_6_p": 39, "marg_cl_3_6_m": 34, "marg_cl_3_6_f": 5, "per_marg_cl_3_6_p": 13.49480969, "per_marg_cl_3_6_m": 87.17948718, "per_marg_cl_3_6_f": 12.82051282, "marg_al_3_6_p": 99, "marg_al_3_6_m": 27, "marg_al_3_6_f": 72, "per_marg_al_3_6_p": 34.25605536, "per_marg_al_3_6_m": 27.27272727, "per_marg_al_3_6_f": 72.72727273, "marg_hh_3_6_p": 8, "marg_hh_3_6_m": 1, "marg_hh_3_6_f": 7, "per_marg_hh_3_6_p": 2.76816609, "per_marg_hh_3_6_m": 12.5, "per_marg_hh_3_6_f": 87.5, "marg_ot_3_6_p": 11, "marg_ot_3_6_m": 11, "marg_ot_3_6_f": 0, "per_marg_ot_3_6_p": 3.80622837, "per_marg_ot_3_6_m": 100.0, "per_marg_ot_3_6_f": 0.0, "margwork_0_3_p": 132, "margwork_0_3_m": 96, "margwork_0_3_f": 36, "per_margwork_0_3_p": 45.67474048, "per_margwork_0_3_m": 72.72727273, "per_margwork_0_3_f": 27.27272727, "marg_cl_0_3_p": 21, "marg_cl_0_3_m": 19, "marg_cl_0_3_f": 2, "per_marg_cl_0_3_p": 7.26643599, "per_marg_cl_0_3_m": 90.47619048, "per_marg_cl_0_3_f": 9.52380952, "marg_al_0_3_p": 96, "marg_al_0_3_m": 72, "marg_al_0_3_f": 24, "per_marg_al_0_3_p": 33.21799308, "per_marg_al_0_3_m": 75.0, "per_marg_al_0_3_f": 25.0, "marg_hh_0_3_p": 8, "marg_hh_0_3_m": 2, "marg_hh_0_3_f": 6, "per_marg_hh_0_3_p": 2.76816609, "per_marg_hh_0_3_m": 25.0, "per_marg_hh_0_3_f": 75.0, "marg_ot_0_3_p": 7, "marg_ot_0_3_m": 3, "marg_ot_0_3_f": 4, "per_marg_ot_0_3_p": 2.42214533, "per_marg_ot_0_3_m": 42.85714286, "per_marg_ot_0_3_f": 57.14285714, "non_work_p": 1597, "non_work_m": 650, "non_work_f": 947, "per_non_work_p": 56.0744382, "per_non_work_m": 40.70131497000001, "per_non_work_f": 59.29868503, "per_hc_tot_tot": 100, "per_hc_tot_god": 59.9, "per_hc_tot_liv": 36.0, "per_hc_tot_dil": 4.0, "per_hc_res_tot": 98.8, "per_hc_res_god": 59.4, "per_hc_res_liv": 35.4, "per_hc_res_dil": 4.0, "per_hc_oth_tot": 1.2, "per_hc_oth_god": 0.5, "per_hc_oth_liv": 0.7, "per_hc_oth_dil": 0.0, "per_mt_grsbam": 4.5, "per_mt_plastic": 0.3, "per_mt_h_tiles": 2.7, "per_mt_m_tiles": 0.0, "per_mt_b_brick": 0.2, "per_mt_stone": 1.5, "per_mt_asbstos": 63.8, "per_mt_concrte": 2.4, "per_mt_oth": 24.6, "per_mw_grsbam": 1.9, "per_mw_plastic": 0.3, "per_mw_mud": 35.5, "per_mw_wood": 0.7, "per_mw_no_mrtr": 8.2, "per_mw_st_mrtr": 29.8, "per_mw_asbstos": 2.2, "per_mw_b_brick": 19.0, "per_mw_concrte": 2.2, "per_mw_oth": 0.2, "per_mf_mud": 73.9, "per_mf_wood": 0.2, "per_mf_b_brick": 0.3, "per_mf_stone": 15.3, "per_mf_cement": 2.7, "per_mf_fl_tile": 0.5, "per_mf_oth": 7.1, "per_dw_n_exrm": 0.0, "per_dw_1_room": 45.3, "per_dw_2_room": 41.6, "per_dw_3_room": 9.6, "per_dw_4_room": 3.0, "per_dw_5_room": 0.3, "per_dw_6_room": 0.2, "per_hhsize_1": 5.1, "per_hhsize_2": 12.0, "per_hhsize_3": 13.5, "per_hhsize_4": 17.5, "per_hhsize_5": 17.8, "per_hhsize_6_8": 29.0, "per_hhsize_9p": 5.2, "per_ow_owned": 94.9, "per_ow_rented": 1.9, "per_ow_oth": 3.2, "per_mc_none": 10.3, "per_mcouple_1": 62.1, "per_mcouple_2": 22.6, "per_mcouple_3": 4.2, "per_mcouple_4": 0.8, "per_mcouple_5p": 0.0, "per_dw_t_ts": 29.6, "per_dw_t_unts": 49.2, "per_dw_c_well": 0.3, "per_dw_unc_wel": 3.2, "per_dw_hpump": 13.1, "per_dw_tw_bore": 4.5, "per_dw_spring": 0.0, "per_dw_rivcan": 0.0, "per_dw_tank": 0.0, "per_dw_oth": 0.0, "per_loc_dw_wp": 69.9, "per_loc_dw_np": 19.2, "per_loc_dw_aw": 10.9, "per_light_elec": 70.2, "per_light_kero": 25.8, "per_light_solr": 0.0, "per_light_oil": 0.2, "per_light_oth": 0.5, "per_light_no": 3.4, "per_hh_latrine": 7.7, "per_fl_sewer": 0.0, "per_fl_septict": 1.7, "per_fl_othsys": 0.0, "per_pl_wslab": 5.9, "per_pl_without": 0.0, "per_ns_open": 0.2, "per_sl_ns_hum": 0.0, "per_sl_ns_anml": 0.0, "per_hh_no_lat": 92.3, "per_as_pub": 1.9, "per_as_open": 90.4, "per_hh_bathrm": 34.7, "per_hh_en_wrf": 32.2, "per_hh_no_btrm": 33.2, "per_wwoc_drain": 5.9, "per_wwoc_open": 54.0, "per_wwoc_nodrn": 40.1, "per_cook_fire": 93.1, "per_cook_resdu": 1.2, "per_cook_cwdng": 0.0, "per_cook_coal": 0.2, "per_cook_kero": 1.7, "per_cook_lpng": 3.5, "per_cook_elec": 0.2, "per_cook_biogs": 0.0, "per_cook_oth": 0.0, "per_cook_no": 0.2, "per_kf_inside": 69.7, "per_kf_in_has": 46.6, "per_kf_in_does": 23.1, "per_kf_outside": 30.1, "per_kf_out_has": 4.4, "per_kf_out_dos": 25.8, "per_kf_no_cook": 0.2, "per_hh_banking": 62.1, "per_hh_radio": 4.5, "per_hh_tv": 38.2, "per_hh_cmp_int": 0.2, "per_hh_cmp_wnt": 2.5, "per_hh_ph_ll": 2.5, "per_hh_ph_mob": 53.0, "per_hh_ph_bth": 3.0, "per_hh_bcycl": 19.4, "per_hh_2wheel": 9.1, "per_hh_4wheel": 2.0, "per_hh_tvcomp": 0.3, "per_hh_no_ast": 31.6, "per_hs_perma": 46.3, "per_hs_sperma": 27.9, "per_hs_temp": 1.2, "per_hs_servc": 0.5, "per_hs_nservc": 0.7, "per_hs_unclss": 24.6, "avghhsz_cy": 4.77051926, "st_areashape": 12545266.04516864, "st_lengthshape": 14032.964873113313}, "geometry": {"type": "Polygon", "coordinates": [[[75.91324340939785, 18.482852462954426], [75.91447497270292, 18.486924486938285], [75.91729472598928, 18.493197552456767], [75.9202441447987, 18.49761154819159], [75.92160970530311, 18.499823928264775], [75.92224354488951, 18.503302286408463], [75.92301869935154, 18.508010508634573], [75.9234212604815, 18.51190776853706], [75.92404610703356, 18.51579473579003], [75.9246729685068, 18.519113321272506], [75.91597545028155, 18.521178775358045], [75.90664912932374, 18.523532340287318], [75.90062732222397, 18.525211486739927], [75.89739576234676, 18.51855959683622], [75.89569424719744, 18.513918710241793], [75.89482979121301, 18.509862524126934], [75.8941521398919, 18.506411931969822], [75.89341733326083, 18.500934521645775], [75.8938336341231, 18.499699923899367], [75.89666109136134, 18.492419852514686], [75.89780556838949, 18.488063427496773], [75.89876975443842, 18.483296726777457], [75.90710543575882, 18.483324318040477], [75.91129048185167, 18.48273092556496], [75.91324340939785, 18.482852462954426]]]}}]}