{"type": "FeatureCollection", "features": [{"type": "Feature", "properties": {"premiumdata.sde.IN_Village_PCA.area": 6.49074743, "objectid": 273515, "id": "234283659559650", "name": "Jowa Ryt", "subdistrict": "Lakhnadon", "district": "Seoni", "state": "Madhya Pradesh", "country": "India", "censusname": "Jowa Ryt.", "villagename_locallang": null, "lgd_villagename": "Jowa Ryt.", "lgd_villagecode": 495721, "lgd_subdistrictcode": 3659, "lgd_districtcode": 428, "lgd_statecode": 23, "censuscode2001": "05257800", "censuscode2011": "495721", "censuscode2021": null, "level": "Village", "tru": "Rural", "no_hh": 348, "tot_p": 1311, "tot_m": 664, "tot_f": 647, "per_tot_m": 50.64836003, "per_tot_f": 49.35163997, "p_06": 182, "m_06": 95, "f_06": 87, "per_p_06": 13.88253242, "per_m_06": 52.1978022, "per_f_06": 47.8021978, "p_sc": 0, "m_sc": 0, "f_sc": 0, "per_p_sc": 0.0, "per_m_sc": 0.0, "per_f_sc": 0.0, "p_st": 1234, "m_st": 625, "f_st": 609, "per_p_st": 94.1266209, "per_m_st": 50.64829822, "per_f_st": 49.35170178, "p_lit": 845, "m_lit": 482, "f_lit": 363, "per_p_lit": 64.4546148, "per_m_lit": 57.04142012000001, "per_f_lit": 42.95857988, "p_ill": 466, "m_ill": 182, "f_ill": 284, "per_p_ill": 35.5453852, "per_m_ill": 39.05579399000001, "per_f_ill": 60.94420601, "tot_work_p": 663, "tot_work_m": 337, "tot_work_f": 326, "per_tot_work_p": 50.57208238, "per_tot_work_m": 50.82956259, "per_tot_work_f": 49.17043741, "mainwork_p": 275, "mainwork_m": 224, "mainwork_f": 51, "per_mainwork_p": 20.97635393, "per_mainwork_m": 81.45454545, "per_mainwork_f": 18.54545455, "main_cl_p": 101, "main_cl_m": 99, "main_cl_f": 2, "per_main_cl_p": 36.72727273, "per_main_cl_m": 98.01980198, "per_main_cl_f": 1.98019802, "main_al_p": 141, "main_al_m": 104, "main_al_f": 37, "per_main_al_p": 51.27272727, "per_main_al_m": 73.75886525, "per_main_al_f": 26.24113475, "main_hh_p": 14, "main_hh_m": 9, "main_hh_f": 5, "per_main_hh_p": 5.09090909, "per_main_hh_m": 64.28571429, "per_main_hh_f": 35.71428571, "main_ot_p": 19, "main_ot_m": 12, "main_ot_f": 7, "per_main_ot_p": 6.90909091, "per_main_ot_m": 63.15789474, "per_main_ot_f": 36.84210526, "margwork_p": 388, "margwork_m": 113, "margwork_f": 275, "per_margwork_p": 29.59572845, "per_margwork_m": 29.12371134, "per_margwork_f": 70.87628866, "marg_cl_p": 4, "marg_cl_m": 1, "marg_cl_f": 3, "per_marg_cl_p": 1.03092784, "per_marg_cl_m": 25.0, "per_marg_cl_f": 75.0, "marg_al_p": 374, "marg_al_m": 104, "marg_al_f": 270, "per_marg_al_p": 96.39175258, "per_marg_al_m": 27.80748663, "per_marg_al_f": 72.19251337, "marg_hh_p": 4, "marg_hh_m": 4, "marg_hh_f": 0, "per_marg_hh_p": 1.03092784, "per_marg_hh_m": 100.0, "per_marg_hh_f": 0.0, "marg_ot_p": 6, "marg_ot_m": 4, "marg_ot_f": 2, "per_marg_ot_p": 1.54639175, "per_marg_ot_m": 66.66666667, "per_marg_ot_f": 33.33333333, "margwork_3_6_p": 349, "margwork_3_6_m": 94, "margwork_3_6_f": 255, "per_margwork_3_6_p": 89.94845361, "per_margwork_3_6_m": 26.93409742, "per_margwork_3_6_f": 73.06590258, "marg_cl_3_6_p": 4, "marg_cl_3_6_m": 1, "marg_cl_3_6_f": 3, "per_marg_cl_3_6_p": 1.03092784, "per_marg_cl_3_6_m": 25.0, "per_marg_cl_3_6_f": 75.0, "marg_al_3_6_p": 336, "marg_al_3_6_m": 86, "marg_al_3_6_f": 250, "per_marg_al_3_6_p": 86.59793814, "per_marg_al_3_6_m": 25.5952381, "per_marg_al_3_6_f": 74.4047619, "marg_hh_3_6_p": 3, "marg_hh_3_6_m": 3, "marg_hh_3_6_f": 0, "per_marg_hh_3_6_p": 0.77319588, "per_marg_hh_3_6_m": 100.0, "per_marg_hh_3_6_f": 0.0, "marg_ot_3_6_p": 6, "marg_ot_3_6_m": 4, "marg_ot_3_6_f": 2, "per_marg_ot_3_6_p": 1.54639175, "per_marg_ot_3_6_m": 66.66666667, "per_marg_ot_3_6_f": 33.33333333, "margwork_0_3_p": 39, "margwork_0_3_m": 19, "margwork_0_3_f": 20, "per_margwork_0_3_p": 10.05154639, "per_margwork_0_3_m": 48.71794872, "per_margwork_0_3_f": 51.28205128, "marg_cl_0_3_p": 0, "marg_cl_0_3_m": 0, "marg_cl_0_3_f": 0, "per_marg_cl_0_3_p": 0.0, "per_marg_cl_0_3_m": 0.0, "per_marg_cl_0_3_f": 0.0, "marg_al_0_3_p": 38, "marg_al_0_3_m": 18, "marg_al_0_3_f": 20, "per_marg_al_0_3_p": 9.79381443, "per_marg_al_0_3_m": 47.36842105, "per_marg_al_0_3_f": 52.63157895000001, "marg_hh_0_3_p": 1, "marg_hh_0_3_m": 1, "marg_hh_0_3_f": 0, "per_marg_hh_0_3_p": 0.25773196, "per_marg_hh_0_3_m": 100.0, "per_marg_hh_0_3_f": 0.0, "marg_ot_0_3_p": 0, "marg_ot_0_3_m": 0, "marg_ot_0_3_f": 0, "per_marg_ot_0_3_p": 0.0, "per_marg_ot_0_3_m": 0.0, "per_marg_ot_0_3_f": 0.0, "non_work_p": 648, "non_work_m": 327, "non_work_f": 321, "per_non_work_p": 49.42791762, "per_non_work_m": 50.46296296, "per_non_work_f": 49.53703704, "per_hc_tot_tot": 100, "per_hc_tot_god": 4.3, "per_hc_tot_liv": 75.7, "per_hc_tot_dil": 19.9, "per_hc_res_tot": 98.3, "per_hc_res_god": 4.3, "per_hc_res_liv": 74.6, "per_hc_res_dil": 19.4, "per_hc_oth_tot": 1.7, "per_hc_oth_god": 0.0, "per_hc_oth_liv": 1.2, "per_hc_oth_dil": 0.6, "per_mt_grsbam": 49.4, "per_mt_plastic": 0.0, "per_mt_h_tiles": 47.1, "per_mt_m_tiles": 2.3, "per_mt_b_brick": 0.0, "per_mt_stone": 0.3, "per_mt_asbstos": 0.9, "per_mt_concrte": 0.0, "per_mt_oth": 0.0, "per_mw_grsbam": 2.6, "per_mw_plastic": 0.9, "per_mw_mud": 32.4, "per_mw_wood": 13.0, "per_mw_no_mrtr": 0.0, "per_mw_st_mrtr": 0.0, "per_mw_asbstos": 0.0, "per_mw_b_brick": 50.9, "per_mw_concrte": 0.3, "per_mw_oth": 0.0, "per_mf_mud": 96.8, "per_mf_wood": 1.4, "per_mf_b_brick": 0.0, "per_mf_stone": 0.0, "per_mf_cement": 1.7, "per_mf_fl_tile": 0.0, "per_mf_oth": 0.0, "per_dw_n_exrm": 2.3, "per_dw_1_room": 72.0, "per_dw_2_room": 23.4, "per_dw_3_room": 1.7, "per_dw_4_room": 0.3, "per_dw_5_room": 0.3, "per_dw_6_room": 0.0, "per_hhsize_1": 4.9, "per_hhsize_2": 22.5, "per_hhsize_3": 14.5, "per_hhsize_4": 26.6, "per_hhsize_5": 19.1, "per_hhsize_6_8": 11.8, "per_hhsize_9p": 0.6, "per_ow_owned": 93.6, "per_ow_rented": 1.7, "per_ow_oth": 4.6, "per_mc_none": 6.6, "per_mcouple_1": 69.4, "per_mcouple_2": 23.1, "per_mcouple_3": 0.9, "per_mcouple_4": 0.0, "per_mcouple_5p": 0.0, "per_dw_t_ts": 15.0, "per_dw_t_unts": 0.9, "per_dw_c_well": 0.0, "per_dw_unc_wel": 13.0, "per_dw_hpump": 70.8, "per_dw_tw_bore": 0.0, "per_dw_spring": 0.0, "per_dw_rivcan": 0.0, "per_dw_tank": 0.3, "per_dw_oth": 0.0, "per_loc_dw_wp": 12.4, "per_loc_dw_np": 37.0, "per_loc_dw_aw": 50.6, "per_light_elec": 81.8, "per_light_kero": 16.8, "per_light_solr": 0.3, "per_light_oil": 0.0, "per_light_oth": 1.2, "per_light_no": 0.0, "per_hh_latrine": 1.4, "per_fl_sewer": 1.4, "per_fl_septict": 0.0, "per_fl_othsys": 0.0, "per_pl_wslab": 0.0, "per_pl_without": 0.0, "per_ns_open": 0.0, "per_sl_ns_hum": 0.0, "per_sl_ns_anml": 0.0, "per_hh_no_lat": 98.6, "per_as_pub": 19.4, "per_as_open": 79.2, "per_hh_bathrm": 1.2, "per_hh_en_wrf": 44.2, "per_hh_no_btrm": 54.6, "per_wwoc_drain": 0.0, "per_wwoc_open": 0.0, "per_wwoc_nodrn": 100.0, "per_cook_fire": 99.4, "per_cook_resdu": 0.0, "per_cook_cwdng": 0.0, "per_cook_coal": 0.0, "per_cook_kero": 0.0, "per_cook_lpng": 0.0, "per_cook_elec": 0.6, "per_cook_biogs": 0.0, "per_cook_oth": 0.0, "per_cook_no": 0.0, "per_kf_inside": 96.5, "per_kf_in_has": 8.4, "per_kf_in_does": 88.2, "per_kf_outside": 3.5, "per_kf_out_has": 3.2, "per_kf_out_dos": 0.3, "per_kf_no_cook": 0.0, "per_hh_banking": 87.6, "per_hh_radio": 1.4, "per_hh_tv": 5.8, "per_hh_cmp_int": 0.0, "per_hh_cmp_wnt": 1.2, "per_hh_ph_ll": 1.4, "per_hh_ph_mob": 8.1, "per_hh_ph_bth": 6.4, "per_hh_bcycl": 20.2, "per_hh_2wheel": 0.3, "per_hh_4wheel": 0.0, "per_hh_tvcomp": 0.0, "per_hh_no_ast": 65.3, "per_hs_perma": 40.5, "per_hs_sperma": 20.8, "per_hs_temp": 38.7, "per_hs_servc": 35.3, "per_hs_nservc": 3.5, "per_hs_unclss": 0.0, "avghhsz_cy": 3.76724138, "st_areashape": 7657737.846063245, "st_lengthshape": 12640.601524073707}, "geometry": {"type": "Polygon", "coordinates": [[[79.50298000046881, 22.66175000025264], [79.50027000064892, 22.658180000432218], [79.4960300001186, 22.65171000053742], [79.49428999934584, 22.646640000828814], [79.49383999998237, 22.64184000026611], [79.49421999992398, 22.6415300005275], [79.49543999921637, 22.64054000007422], [79.49588999947817, 22.638609999924917], [79.49556999981102, 22.63661000050914], [79.501580000353, 22.63774999975609], [79.50387000004832, 22.63761000012532], [79.50835999992562, 22.643550000130983], [79.51601000078288, 22.654989999956058], [79.52036000001976, 22.66040999930413], [79.52929999959133, 22.668850000330266], [79.52255000015596, 22.67201000069925], [79.5148499999683, 22.672430000025628], [79.50996000005796, 22.67004000039222], [79.50733999975144, 22.666969999654164], [79.50437999968626, 22.662840000467284], [79.50298000046881, 22.66175000025264]]]}}]}