{"type": "FeatureCollection", "features": [{"type": "Feature", "properties": {"premiumdata.sde.IN_Village_PCA.area": 5.32753274, "objectid": 281677, "id": "227343287261179", "name": "Pandripani", "subdistrict": "Pendra Road Gorella", "district": "Gaurella Pendra Marwahi", "state": "Chhattisgarh", "country": "India", "censusname": "Pandripani", "villagename_locallang": "\u092a\u0902\u0921\u0930\u0940\u092a\u093e\u0928\u0940", "lgd_villagename": "Pandripani", "lgd_villagecode": 437445, "lgd_subdistrictcode": 3287, "lgd_districtcode": 734, "lgd_statecode": 22, "censuscode2001": "00640200", "censuscode2011": "437445", "censuscode2021": null, "level": "Village", "tru": "Rural", "no_hh": 310, "tot_p": 1086, "tot_m": 540, "tot_f": 546, "per_tot_m": 49.72375691, "per_tot_f": 50.27624309, "p_06": 207, "m_06": 102, "f_06": 105, "per_p_06": 19.06077348, "per_m_06": 49.27536232, "per_f_06": 50.72463768, "p_sc": 91, "m_sc": 47, "f_sc": 44, "per_p_sc": 8.37937385, "per_m_sc": 51.64835165, "per_f_sc": 48.35164835, "p_st": 889, "m_st": 437, "f_st": 452, "per_p_st": 81.86003683, "per_m_st": 49.15635546, "per_f_st": 50.84364454, "p_lit": 333, "m_lit": 231, "f_lit": 102, "per_p_lit": 30.66298343, "per_m_lit": 69.36936937, "per_f_lit": 30.63063063, "p_ill": 753, "m_ill": 309, "f_ill": 444, "per_p_ill": 69.33701657, "per_m_ill": 41.03585657, "per_f_ill": 58.96414343, "tot_work_p": 673, "tot_work_m": 332, "tot_work_f": 341, "per_tot_work_p": 61.97053407, "per_tot_work_m": 49.33135215, "per_tot_work_f": 50.66864785, "mainwork_p": 244, "mainwork_m": 189, "mainwork_f": 55, "per_mainwork_p": 22.46777164, "per_mainwork_m": 77.45901639, "per_mainwork_f": 22.54098361, "main_cl_p": 124, "main_cl_m": 115, "main_cl_f": 9, "per_main_cl_p": 50.81967213, "per_main_cl_m": 92.74193548, "per_main_cl_f": 7.25806452, "main_al_p": 90, "main_al_m": 59, "main_al_f": 31, "per_main_al_p": 36.8852459, "per_main_al_m": 65.55555556, "per_main_al_f": 34.44444444000001, "main_hh_p": 6, "main_hh_m": 4, "main_hh_f": 2, "per_main_hh_p": 2.45901639, "per_main_hh_m": 66.66666667, "per_main_hh_f": 33.33333333, "main_ot_p": 24, "main_ot_m": 11, "main_ot_f": 13, "per_main_ot_p": 9.83606557, "per_main_ot_m": 45.83333333, "per_main_ot_f": 54.16666667000001, "margwork_p": 429, "margwork_m": 143, "margwork_f": 286, "per_margwork_p": 39.50276243, "per_margwork_m": 33.33333333, "per_margwork_f": 66.66666667, "marg_cl_p": 76, "marg_cl_m": 24, "marg_cl_f": 52, "per_marg_cl_p": 17.71561772, "per_marg_cl_m": 31.57894737, "per_marg_cl_f": 68.42105263, "marg_al_p": 295, "marg_al_m": 87, "marg_al_f": 208, "per_marg_al_p": 68.76456876, "per_marg_al_m": 29.49152542, "per_marg_al_f": 70.50847458, "marg_hh_p": 21, "marg_hh_m": 12, "marg_hh_f": 9, "per_marg_hh_p": 4.8951049, "per_marg_hh_m": 57.14285714, "per_marg_hh_f": 42.85714286, "marg_ot_p": 37, "marg_ot_m": 20, "marg_ot_f": 17, "per_marg_ot_p": 8.62470862, "per_marg_ot_m": 54.05405405, "per_marg_ot_f": 45.94594595, "margwork_3_6_p": 309, "margwork_3_6_m": 91, "margwork_3_6_f": 218, "per_margwork_3_6_p": 72.02797203, "per_margwork_3_6_m": 29.44983819, "per_margwork_3_6_f": 70.55016181, "marg_cl_3_6_p": 54, "marg_cl_3_6_m": 16, "marg_cl_3_6_f": 38, "per_marg_cl_3_6_p": 12.58741259, "per_marg_cl_3_6_m": 29.62962963, "per_marg_cl_3_6_f": 70.37037037, "marg_al_3_6_p": 209, "marg_al_3_6_m": 50, "marg_al_3_6_f": 159, "per_marg_al_3_6_p": 48.71794872, "per_marg_al_3_6_m": 23.92344498, "per_marg_al_3_6_f": 76.07655502, "marg_hh_3_6_p": 13, "marg_hh_3_6_m": 8, "marg_hh_3_6_f": 5, "per_marg_hh_3_6_p": 3.03030303, "per_marg_hh_3_6_m": 61.53846154, "per_marg_hh_3_6_f": 38.46153846, "marg_ot_3_6_p": 33, "marg_ot_3_6_m": 17, "marg_ot_3_6_f": 16, "per_marg_ot_3_6_p": 7.69230769, "per_marg_ot_3_6_m": 51.51515152, "per_marg_ot_3_6_f": 48.48484848, "margwork_0_3_p": 120, "margwork_0_3_m": 52, "margwork_0_3_f": 68, "per_margwork_0_3_p": 27.97202797, "per_margwork_0_3_m": 43.33333333, "per_margwork_0_3_f": 56.66666667000001, "marg_cl_0_3_p": 22, "marg_cl_0_3_m": 8, "marg_cl_0_3_f": 14, "per_marg_cl_0_3_p": 5.12820513, "per_marg_cl_0_3_m": 36.36363636, "per_marg_cl_0_3_f": 63.63636364, "marg_al_0_3_p": 86, "marg_al_0_3_m": 37, "marg_al_0_3_f": 49, "per_marg_al_0_3_p": 20.04662005, "per_marg_al_0_3_m": 43.02325581, "per_marg_al_0_3_f": 56.97674419, "marg_hh_0_3_p": 8, "marg_hh_0_3_m": 4, "marg_hh_0_3_f": 4, "per_marg_hh_0_3_p": 1.86480186, "per_marg_hh_0_3_m": 50.0, "per_marg_hh_0_3_f": 50.0, "marg_ot_0_3_p": 4, "marg_ot_0_3_m": 3, "marg_ot_0_3_f": 1, "per_marg_ot_0_3_p": 0.93240093, "per_marg_ot_0_3_m": 75.0, "per_marg_ot_0_3_f": 25.0, "non_work_p": 413, "non_work_m": 208, "non_work_f": 205, "per_non_work_p": 38.02946593, "per_non_work_m": 50.36319613000001, "per_non_work_f": 49.63680387, "per_hc_tot_tot": 100, "per_hc_tot_god": 1.9, "per_hc_tot_liv": 98.1, "per_hc_tot_dil": 0.0, "per_hc_res_tot": 99.4, "per_hc_res_god": 1.9, "per_hc_res_liv": 97.5, "per_hc_res_dil": 0.0, "per_hc_oth_tot": 0.6, "per_hc_oth_god": 0.0, "per_hc_oth_liv": 0.6, "per_hc_oth_dil": 0.0, "per_mt_grsbam": 0.0, "per_mt_plastic": 0.3, "per_mt_h_tiles": 99.4, "per_mt_m_tiles": 0.0, "per_mt_b_brick": 0.0, "per_mt_stone": 0.0, "per_mt_asbstos": 0.0, "per_mt_concrte": 0.3, "per_mt_oth": 0.0, "per_mw_grsbam": 0.0, "per_mw_plastic": 0.0, "per_mw_mud": 99.0, "per_mw_wood": 0.0, "per_mw_no_mrtr": 0.0, "per_mw_st_mrtr": 0.0, "per_mw_asbstos": 0.0, "per_mw_b_brick": 1.0, "per_mw_concrte": 0.0, "per_mw_oth": 0.0, "per_mf_mud": 99.4, "per_mf_wood": 0.0, "per_mf_b_brick": 0.0, "per_mf_stone": 0.0, "per_mf_cement": 0.6, "per_mf_fl_tile": 0.0, "per_mf_oth": 0.0, "per_dw_n_exrm": 1.9, "per_dw_1_room": 65.3, "per_dw_2_room": 26.4, "per_dw_3_room": 5.1, "per_dw_4_room": 1.3, "per_dw_5_room": 0.0, "per_dw_6_room": 0.0, "per_hhsize_1": 14.0, "per_hhsize_2": 19.7, "per_hhsize_3": 22.6, "per_hhsize_4": 19.7, "per_hhsize_5": 13.1, "per_hhsize_6_8": 9.2, "per_hhsize_9p": 1.6, "per_ow_owned": 99.7, "per_ow_rented": 0.0, "per_ow_oth": 0.3, "per_mc_none": 21.7, "per_mcouple_1": 74.2, "per_mcouple_2": 3.8, "per_mcouple_3": 0.3, "per_mcouple_4": 0.0, "per_mcouple_5p": 0.0, "per_dw_t_ts": 0.0, "per_dw_t_unts": 0.0, "per_dw_c_well": 0.3, "per_dw_unc_wel": 54.5, "per_dw_hpump": 43.3, "per_dw_tw_bore": 0.0, "per_dw_spring": 1.3, "per_dw_rivcan": 0.0, "per_dw_tank": 0.0, "per_dw_oth": 0.6, "per_loc_dw_wp": 2.5, "per_loc_dw_np": 65.0, "per_loc_dw_aw": 32.5, "per_light_elec": 79.6, "per_light_kero": 20.4, "per_light_solr": 0.0, "per_light_oil": 0.0, "per_light_oth": 0.0, "per_light_no": 0.0, "per_hh_latrine": 65.6, "per_fl_sewer": 0.0, "per_fl_septict": 0.0, "per_fl_othsys": 65.6, "per_pl_wslab": 0.0, "per_pl_without": 0.0, "per_ns_open": 0.0, "per_sl_ns_hum": 0.0, "per_sl_ns_anml": 0.0, "per_hh_no_lat": 34.4, "per_as_pub": 0.0, "per_as_open": 34.4, "per_hh_bathrm": 0.0, "per_hh_en_wrf": 0.0, "per_hh_no_btrm": 100.0, "per_wwoc_drain": 0.0, "per_wwoc_open": 0.0, "per_wwoc_nodrn": 100.0, "per_cook_fire": 100.0, "per_cook_resdu": 0.0, "per_cook_cwdng": 0.0, "per_cook_coal": 0.0, "per_cook_kero": 0.0, "per_cook_lpng": 0.0, "per_cook_elec": 0.0, "per_cook_biogs": 0.0, "per_cook_oth": 0.0, "per_cook_no": 0.0, "per_kf_inside": 95.2, "per_kf_in_has": 63.1, "per_kf_in_does": 32.2, "per_kf_outside": 4.8, "per_kf_out_has": 0.3, "per_kf_out_dos": 4.5, "per_kf_no_cook": 0.0, "per_hh_banking": 61.1, "per_hh_radio": 12.1, "per_hh_tv": 5.4, "per_hh_cmp_int": 0.0, "per_hh_cmp_wnt": 0.0, "per_hh_ph_ll": 1.0, "per_hh_ph_mob": 7.6, "per_hh_ph_bth": 0.0, "per_hh_bcycl": 55.7, "per_hh_2wheel": 1.6, "per_hh_4wheel": 0.0, "per_hh_tvcomp": 0.0, "per_hh_no_ast": 36.3, "per_hs_perma": 0.6, "per_hs_sperma": 99.4, "per_hs_temp": 0.0, "per_hs_servc": 0.0, "per_hs_nservc": 0.0, "per_hs_unclss": 0.0, "avghhsz_cy": 3.50322581, "st_areashape": 6299413.97564282, "st_lengthshape": 12366.690451981587}, "geometry": {"type": "Polygon", "coordinates": [[[81.80998456876061, 22.81926801262235], [81.80976002856714, 22.819331562117576], [81.80678548387921, 22.817131631905667], [81.80831229916369, 22.812922546818626], [81.81246639290507, 22.807379374274962], [81.81894574611502, 22.80257506304667], [81.82363767020017, 22.798533918356686], [81.8270178347816, 22.801098799968237], [81.83141442963226, 22.803681576614927], [81.83315044907164, 22.80441711333009], [81.83522346160838, 22.804988802088815], [81.83752346134945, 22.80522981102014], [81.83949958968452, 22.805140078115453], [81.84092497529191, 22.805050264826647], [81.84225331230589, 22.804389327363214], [81.8432253532237, 22.80348775272216], [81.84397078602623, 22.80231571672922], [81.84430246109712, 22.801898043233617], [81.84430582169459, 22.80190289762742], [81.84488842137719, 22.8034350762796], [81.84475898582284, 22.80647048258894], [81.84453188004092, 22.80839306579489], [81.84470876101528, 22.808357031376055], [81.84465021331667, 22.80876124631866], [81.8450389664424, 22.8098438398837], [81.8460426999234, 22.812489066937992], [81.84714359788053, 22.81543476731985], [81.84679985933367, 22.815536186046685], [81.8464308035672, 22.815645082625135], [81.84439058313156, 22.81642593875068], [81.84270591498709, 22.816515697342723], [81.83991952872363, 22.817116297809164], [81.83671204639099, 22.817596423374514], [81.83470326609199, 22.817836331925598], [81.83314853925333, 22.816753868123538], [81.83255893360987, 22.816429934794087], [81.8325524172308, 22.816432594406848], [81.83172396302803, 22.816769284235004], [81.8291773964027, 22.81557570291294], [81.82776542084586, 22.815177664605073], [81.82627762029253, 22.815223996272593], [81.82496630455653, 22.815410641837016], [81.8236175946502, 22.815409326925227], [81.82228133898698, 22.814941085859356], [81.82142416205127, 22.814472984777886], [81.82008748328155, 22.814963677080577], [81.81907902017056, 22.814401978205474], [81.81549729519898, 22.816763048402397], [81.81326589081301, 22.817789223640094], [81.81066793516356, 22.819074616628786], [81.80998456876061, 22.81926801262235]]]}}]}