{"type": "FeatureCollection", "features": [{"type": "Feature", "properties": {"premiumdata.sde.IN_Village_PCA.area": 0.93252138, "objectid": 632419, "id": "182962028229623", "name": "Chatiantoli", "subdistrict": "Laharighat", "district": "Marigaon", "state": "Assam", "country": "India", "censusname": "Chatiantoli", "villagename_locallang": null, "lgd_villagename": "Chatiantoli", "lgd_villagecode": 283767, "lgd_subdistrictcode": 2028, "lgd_districtcode": 296, "lgd_statecode": 18, "censuscode2001": "00902700", "censuscode2011": "283767", "censuscode2021": null, "level": "Village", "tru": "Rural", "no_hh": 700, "tot_p": 3936, "tot_m": 2015, "tot_f": 1921, "per_tot_m": 51.19410569, "per_tot_f": 48.80589431, "p_06": 825, "m_06": 427, "f_06": 398, "per_p_06": 20.96036585, "per_m_06": 51.75757576, "per_f_06": 48.24242424000001, "p_sc": 229, "m_sc": 120, "f_sc": 109, "per_p_sc": 5.81808943, "per_m_sc": 52.40174672, "per_f_sc": 47.59825328, "p_st": 22, "m_st": 11, "f_st": 11, "per_p_st": 0.55894309, "per_m_st": 50.0, "per_f_st": 50.0, "p_lit": 1787, "m_lit": 965, "f_lit": 822, "per_p_lit": 45.40142276, "per_m_lit": 54.00111919, "per_f_lit": 45.99888081, "p_ill": 2149, "m_ill": 1050, "f_ill": 1099, "per_p_ill": 54.59857724, "per_m_ill": 48.85993485, "per_f_ill": 51.14006515, "tot_work_p": 1117, "tot_work_m": 1069, "tot_work_f": 48, "per_tot_work_p": 28.37906504, "per_tot_work_m": 95.70277529, "per_tot_work_f": 4.29722471, "mainwork_p": 907, "mainwork_m": 875, "mainwork_f": 32, "per_mainwork_p": 23.04369919, "per_mainwork_m": 96.47188534, "per_mainwork_f": 3.52811466, "main_cl_p": 694, "main_cl_m": 685, "main_cl_f": 9, "per_main_cl_p": 76.51598677, "per_main_cl_m": 98.70317003000001, "per_main_cl_f": 1.29682997, "main_al_p": 121, "main_al_m": 114, "main_al_f": 7, "per_main_al_p": 13.34068357, "per_main_al_m": 94.21487603, "per_main_al_f": 5.78512397, "main_hh_p": 3, "main_hh_m": 2, "main_hh_f": 1, "per_main_hh_p": 0.33076075, "per_main_hh_m": 66.66666667, "per_main_hh_f": 33.33333333, "main_ot_p": 89, "main_ot_m": 74, "main_ot_f": 15, "per_main_ot_p": 9.81256891, "per_main_ot_m": 83.14606742, "per_main_ot_f": 16.85393258, "margwork_p": 210, "margwork_m": 194, "margwork_f": 16, "per_margwork_p": 5.33536585, "per_margwork_m": 92.38095238, "per_margwork_f": 7.61904762, "marg_cl_p": 13, "marg_cl_m": 11, "marg_cl_f": 2, "per_marg_cl_p": 6.19047619, "per_marg_cl_m": 84.61538462, "per_marg_cl_f": 15.38461538, "marg_al_p": 174, "marg_al_m": 164, "marg_al_f": 10, "per_marg_al_p": 82.85714286, "per_marg_al_m": 94.25287356, "per_marg_al_f": 5.74712644, "marg_hh_p": 2, "marg_hh_m": 1, "marg_hh_f": 1, "per_marg_hh_p": 0.95238095, "per_marg_hh_m": 50.0, "per_marg_hh_f": 50.0, "marg_ot_p": 21, "marg_ot_m": 18, "marg_ot_f": 3, "per_marg_ot_p": 10.0, "per_marg_ot_m": 85.71428571, "per_marg_ot_f": 14.28571429, "margwork_3_6_p": 207, "margwork_3_6_m": 191, "margwork_3_6_f": 16, "per_margwork_3_6_p": 98.57142857, "per_margwork_3_6_m": 92.2705314, "per_margwork_3_6_f": 7.7294686, "marg_cl_3_6_p": 12, "marg_cl_3_6_m": 10, "marg_cl_3_6_f": 2, "per_marg_cl_3_6_p": 5.71428571, "per_marg_cl_3_6_m": 83.33333332999999, "per_marg_cl_3_6_f": 16.66666667, "marg_al_3_6_p": 174, "marg_al_3_6_m": 164, "marg_al_3_6_f": 10, "per_marg_al_3_6_p": 82.85714286, "per_marg_al_3_6_m": 94.25287356, "per_marg_al_3_6_f": 5.74712644, "marg_hh_3_6_p": 2, "marg_hh_3_6_m": 1, "marg_hh_3_6_f": 1, "per_marg_hh_3_6_p": 0.95238095, "per_marg_hh_3_6_m": 50.0, "per_marg_hh_3_6_f": 50.0, "marg_ot_3_6_p": 19, "marg_ot_3_6_m": 16, "marg_ot_3_6_f": 3, "per_marg_ot_3_6_p": 9.04761905, "per_marg_ot_3_6_m": 84.21052632, "per_marg_ot_3_6_f": 15.78947368, "margwork_0_3_p": 3, "margwork_0_3_m": 3, "margwork_0_3_f": 0, "per_margwork_0_3_p": 1.42857143, "per_margwork_0_3_m": 100.0, "per_margwork_0_3_f": 0.0, "marg_cl_0_3_p": 1, "marg_cl_0_3_m": 1, "marg_cl_0_3_f": 0, "per_marg_cl_0_3_p": 0.47619048, "per_marg_cl_0_3_m": 100.0, "per_marg_cl_0_3_f": 0.0, "marg_al_0_3_p": 0, "marg_al_0_3_m": 0, "marg_al_0_3_f": 0, "per_marg_al_0_3_p": 0.0, "per_marg_al_0_3_m": 0.0, "per_marg_al_0_3_f": 0.0, "marg_hh_0_3_p": 0, "marg_hh_0_3_m": 0, "marg_hh_0_3_f": 0, "per_marg_hh_0_3_p": 0.0, "per_marg_hh_0_3_m": 0.0, "per_marg_hh_0_3_f": 0.0, "marg_ot_0_3_p": 2, "marg_ot_0_3_m": 2, "marg_ot_0_3_f": 0, "per_marg_ot_0_3_p": 0.95238095, "per_marg_ot_0_3_m": 100.0, "per_marg_ot_0_3_f": 0.0, "non_work_p": 2819, "non_work_m": 946, "non_work_f": 1873, "per_non_work_p": 71.62093496, "per_non_work_m": 33.55799929000001, "per_non_work_f": 66.44200070999999, "per_hc_tot_tot": 100, "per_hc_tot_god": 24.4, "per_hc_tot_liv": 56.9, "per_hc_tot_dil": 18.8, "per_hc_res_tot": 100.0, "per_hc_res_god": 24.4, "per_hc_res_liv": 56.9, "per_hc_res_dil": 18.8, "per_hc_oth_tot": 0.0, "per_hc_oth_god": 0.0, "per_hc_oth_liv": 0.0, "per_hc_oth_dil": 0.0, "per_mt_grsbam": 7.6, "per_mt_plastic": 23.4, "per_mt_h_tiles": 0.3, "per_mt_m_tiles": 0.0, "per_mt_b_brick": 0.0, "per_mt_stone": 0.0, "per_mt_asbstos": 68.8, "per_mt_concrte": 0.0, "per_mt_oth": 0.0, "per_mw_grsbam": 91.5, "per_mw_plastic": 0.4, "per_mw_mud": 0.7, "per_mw_wood": 0.0, "per_mw_no_mrtr": 0.0, "per_mw_st_mrtr": 0.9, "per_mw_asbstos": 0.0, "per_mw_b_brick": 6.4, "per_mw_concrte": 0.0, "per_mw_oth": 0.0, "per_mf_mud": 97.7, "per_mf_wood": 0.0, "per_mf_b_brick": 1.9, "per_mf_stone": 0.0, "per_mf_cement": 0.3, "per_mf_fl_tile": 0.1, "per_mf_oth": 0.0, "per_dw_n_exrm": 31.7, "per_dw_1_room": 34.1, "per_dw_2_room": 22.3, "per_dw_3_room": 8.0, "per_dw_4_room": 2.7, "per_dw_5_room": 0.4, "per_dw_6_room": 0.7, "per_hhsize_1": 1.0, "per_hhsize_2": 9.7, "per_hhsize_3": 12.5, "per_hhsize_4": 15.8, "per_hhsize_5": 14.8, "per_hhsize_6_8": 36.0, "per_hhsize_9p": 10.3, "per_ow_owned": 97.4, "per_ow_rented": 0.0, "per_ow_oth": 2.6, "per_mc_none": 7.2, "per_mcouple_1": 74.2, "per_mcouple_2": 14.9, "per_mcouple_3": 2.7, "per_mcouple_4": 0.7, "per_mcouple_5p": 0.3, "per_dw_t_ts": 0.1, "per_dw_t_unts": 0.1, "per_dw_c_well": 0.3, "per_dw_unc_wel": 0.0, "per_dw_hpump": 98.7, "per_dw_tw_bore": 0.1, "per_dw_spring": 0.0, "per_dw_rivcan": 0.1, "per_dw_tank": 0.0, "per_dw_oth": 0.4, "per_loc_dw_wp": 84.4, "per_loc_dw_np": 10.6, "per_loc_dw_aw": 5.0, "per_light_elec": 0.6, "per_light_kero": 99.4, "per_light_solr": 0.0, "per_light_oil": 0.0, "per_light_oth": 0.0, "per_light_no": 0.0, "per_hh_latrine": 87.1, "per_fl_sewer": 0.9, "per_fl_septict": 0.1, "per_fl_othsys": 15.6, "per_pl_wslab": 2.0, "per_pl_without": 68.3, "per_ns_open": 0.0, "per_sl_ns_hum": 0.0, "per_sl_ns_anml": 0.1, "per_hh_no_lat": 12.9, "per_as_pub": 0.0, "per_as_open": 12.9, "per_hh_bathrm": 16.3, "per_hh_en_wrf": 17.3, "per_hh_no_btrm": 66.3, "per_wwoc_drain": 0.1, "per_wwoc_open": 14.6, "per_wwoc_nodrn": 85.2, "per_cook_fire": 97.6, "per_cook_resdu": 1.0, "per_cook_cwdng": 0.0, "per_cook_coal": 0.0, "per_cook_kero": 0.1, "per_cook_lpng": 0.7, "per_cook_elec": 0.0, "per_cook_biogs": 0.0, "per_cook_oth": 0.0, "per_cook_no": 0.6, "per_kf_inside": 53.4, "per_kf_in_has": 38.0, "per_kf_in_does": 15.5, "per_kf_outside": 46.0, "per_kf_out_has": 37.8, "per_kf_out_dos": 8.2, "per_kf_no_cook": 0.6, "per_hh_banking": 18.8, "per_hh_radio": 18.6, "per_hh_tv": 1.0, "per_hh_cmp_int": 0.4, "per_hh_cmp_wnt": 23.4, "per_hh_ph_ll": 7.6, "per_hh_ph_mob": 28.8, "per_hh_ph_bth": 0.6, "per_hh_bcycl": 51.0, "per_hh_2wheel": 3.0, "per_hh_4wheel": 0.4, "per_hh_tvcomp": 0.0, "per_hh_no_ast": 32.1, "per_hs_perma": 7.3, "per_hs_sperma": 61.7, "per_hs_temp": 30.9, "per_hs_servc": 0.0, "per_hs_nservc": 30.9, "per_hs_unclss": 0.0, "avghhsz_cy": 5.62285714, "st_areashape": 1166945.91925432, "st_lengthshape": 4390.776945768618}, "geometry": {"type": "Polygon", "coordinates": [[[92.34282156652783, 26.39522488498562], [92.33954509537797, 26.399677743573083], [92.33769119361712, 26.399294535279854], [92.3353381645282, 26.39916679836296], [92.33348426186905, 26.39916679836296], [92.3314477918997, 26.399152618237686], [92.33113123278011, 26.39827264000994], [92.32984576067653, 26.396643776396637], [92.334895004039, 26.38808759052447], [92.3394500230782, 26.392737219097643], [92.34123262106341, 26.394121099208252], [92.34282156652783, 26.39522488498562]]]}}]}