{"type": "FeatureCollection", "features": [{"type": "Feature", "properties": {"premiumdata.sde.IN_Village_PCA.area": 9.7197631, "objectid": 403894, "id": "666368352773", "name": "Peoda", "subdistrict": "Kaithal", "district": "Kaithal", "state": "Haryana", "country": "India", "censusname": "Peoda (41)", "villagename_locallang": null, "lgd_villagename": "Peoda", "lgd_villagecode": 58866, "lgd_subdistrictcode": 368, "lgd_districtcode": 66, "lgd_statecode": 6, "censuscode2001": "00194000", "censuscode2011": "058866", "censuscode2021": null, "level": "Village", "tru": "Rural", "no_hh": 983, "tot_p": 5018, "tot_m": 2685, "tot_f": 2333, "per_tot_m": 53.50737346, "per_tot_f": 46.49262654, "p_06": 632, "m_06": 348, "f_06": 284, "per_p_06": 12.59465923, "per_m_06": 55.06329114, "per_f_06": 44.93670886, "p_sc": 713, "m_sc": 389, "f_sc": 324, "per_p_sc": 14.20884815, "per_m_sc": 54.55820477, "per_f_sc": 45.44179523, "p_st": 0, "m_st": 0, "f_st": 0, "per_p_st": 0.0, "per_m_st": 0.0, "per_f_st": 0.0, "p_lit": 2892, "m_lit": 1805, "f_lit": 1087, "per_p_lit": 57.63252292, "per_m_lit": 62.41355463, "per_f_lit": 37.58644537, "p_ill": 2126, "m_ill": 880, "f_ill": 1246, "per_p_ill": 42.36747708, "per_m_ill": 41.39228598, "per_f_ill": 58.60771402, "tot_work_p": 1910, "tot_work_m": 1481, "tot_work_f": 429, "per_tot_work_p": 38.0629733, "per_tot_work_m": 77.53926702, "per_tot_work_f": 22.46073298, "mainwork_p": 1340, "mainwork_m": 1247, "mainwork_f": 93, "per_mainwork_p": 26.70386608, "per_mainwork_m": 93.05970149000001, "per_mainwork_f": 6.94029851, "main_cl_p": 801, "main_cl_m": 761, "main_cl_f": 40, "per_main_cl_p": 59.7761194, "per_main_cl_m": 95.0062422, "per_main_cl_f": 4.9937578, "main_al_p": 170, "main_al_m": 159, "main_al_f": 11, "per_main_al_p": 12.68656716, "per_main_al_m": 93.52941176, "per_main_al_f": 6.47058824, "main_hh_p": 14, "main_hh_m": 14, "main_hh_f": 0, "per_main_hh_p": 1.04477612, "per_main_hh_m": 100.0, "per_main_hh_f": 0.0, "main_ot_p": 355, "main_ot_m": 313, "main_ot_f": 42, "per_main_ot_p": 26.49253731, "per_main_ot_m": 88.16901408, "per_main_ot_f": 11.83098592, "margwork_p": 570, "margwork_m": 234, "margwork_f": 336, "per_margwork_p": 11.35910721, "per_margwork_m": 41.05263158, "per_margwork_f": 58.94736842, "marg_cl_p": 406, "marg_cl_m": 109, "marg_cl_f": 297, "per_marg_cl_p": 71.22807017999999, "per_marg_cl_m": 26.84729064, "per_marg_cl_f": 73.15270936, "marg_al_p": 98, "marg_al_m": 77, "marg_al_f": 21, "per_marg_al_p": 17.19298246, "per_marg_al_m": 78.57142857, "per_marg_al_f": 21.42857143, "marg_hh_p": 17, "marg_hh_m": 4, "marg_hh_f": 13, "per_marg_hh_p": 2.98245614, "per_marg_hh_m": 23.52941176, "per_marg_hh_f": 76.47058824, "marg_ot_p": 49, "marg_ot_m": 44, "marg_ot_f": 5, "per_marg_ot_p": 8.59649123, "per_marg_ot_m": 89.79591837000001, "per_marg_ot_f": 10.20408163, "margwork_3_6_p": 308, "margwork_3_6_m": 108, "margwork_3_6_f": 200, "per_margwork_3_6_p": 54.03508772, "per_margwork_3_6_m": 35.06493506, "per_margwork_3_6_f": 64.93506494, "marg_cl_3_6_p": 188, "marg_cl_3_6_m": 11, "marg_cl_3_6_f": 177, "per_marg_cl_3_6_p": 32.98245614, "per_marg_cl_3_6_m": 5.85106383, "per_marg_cl_3_6_f": 94.14893617, "marg_al_3_6_p": 76, "marg_al_3_6_m": 62, "marg_al_3_6_f": 14, "per_marg_al_3_6_p": 13.33333333, "per_marg_al_3_6_m": 81.57894737000001, "per_marg_al_3_6_f": 18.42105263, "marg_hh_3_6_p": 9, "marg_hh_3_6_m": 2, "marg_hh_3_6_f": 7, "per_marg_hh_3_6_p": 1.57894737, "per_marg_hh_3_6_m": 22.22222222, "per_marg_hh_3_6_f": 77.77777778, "marg_ot_3_6_p": 35, "marg_ot_3_6_m": 33, "marg_ot_3_6_f": 2, "per_marg_ot_3_6_p": 6.14035088, "per_marg_ot_3_6_m": 94.28571429, "per_marg_ot_3_6_f": 5.71428571, "margwork_0_3_p": 262, "margwork_0_3_m": 126, "margwork_0_3_f": 136, "per_margwork_0_3_p": 45.96491228, "per_margwork_0_3_m": 48.09160305, "per_margwork_0_3_f": 51.90839695, "marg_cl_0_3_p": 218, "marg_cl_0_3_m": 98, "marg_cl_0_3_f": 120, "per_marg_cl_0_3_p": 38.24561404000001, "per_marg_cl_0_3_m": 44.95412844, "per_marg_cl_0_3_f": 55.04587156, "marg_al_0_3_p": 22, "marg_al_0_3_m": 15, "marg_al_0_3_f": 7, "per_marg_al_0_3_p": 3.85964912, "per_marg_al_0_3_m": 68.18181818, "per_marg_al_0_3_f": 31.81818182, "marg_hh_0_3_p": 8, "marg_hh_0_3_m": 2, "marg_hh_0_3_f": 6, "per_marg_hh_0_3_p": 1.40350877, "per_marg_hh_0_3_m": 25.0, "per_marg_hh_0_3_f": 75.0, "marg_ot_0_3_p": 14, "marg_ot_0_3_m": 11, "marg_ot_0_3_f": 3, "per_marg_ot_0_3_p": 2.45614035, "per_marg_ot_0_3_m": 78.57142857, "per_marg_ot_0_3_f": 21.42857143, "non_work_p": 3108, "non_work_m": 1204, "non_work_f": 1904, "per_non_work_p": 61.9370267, "per_non_work_m": 38.73873874, "per_non_work_f": 61.26126126, "per_hc_tot_tot": 100, "per_hc_tot_god": 24.5, "per_hc_tot_liv": 69.8, "per_hc_tot_dil": 5.7, "per_hc_res_tot": 44.8, "per_hc_res_god": 8.4, "per_hc_res_liv": 33.9, "per_hc_res_dil": 2.5, "per_hc_oth_tot": 55.2, "per_hc_oth_god": 16.1, "per_hc_oth_liv": 35.9, "per_hc_oth_dil": 3.2, "per_mt_grsbam": 71.3, "per_mt_plastic": 0.0, "per_mt_h_tiles": 0.1, "per_mt_m_tiles": 1.3, "per_mt_b_brick": 17.0, "per_mt_stone": 0.0, "per_mt_asbstos": 0.3, "per_mt_concrte": 9.9, "per_mt_oth": 0.1, "per_mw_grsbam": 0.0, "per_mw_plastic": 0.1, "per_mw_mud": 3.5, "per_mw_wood": 0.0, "per_mw_no_mrtr": 3.8, "per_mw_st_mrtr": 0.3, "per_mw_asbstos": 0.0, "per_mw_b_brick": 91.8, "per_mw_concrte": 0.3, "per_mw_oth": 0.2, "per_mf_mud": 28.4, "per_mf_wood": 0.0, "per_mf_b_brick": 42.2, "per_mf_stone": 4.8, "per_mf_cement": 23.3, "per_mf_fl_tile": 1.1, "per_mf_oth": 0.1, "per_dw_n_exrm": 1.5, "per_dw_1_room": 21.6, "per_dw_2_room": 41.5, "per_dw_3_room": 22.3, "per_dw_4_room": 8.1, "per_dw_5_room": 3.4, "per_dw_6_room": 1.4, "per_hhsize_1": 1.5, "per_hhsize_2": 5.5, "per_hhsize_3": 9.0, "per_hhsize_4": 24.8, "per_hhsize_5": 24.8, "per_hhsize_6_8": 28.1, "per_hhsize_9p": 6.3, "per_ow_owned": 99.0, "per_ow_rented": 0.7, "per_ow_oth": 0.3, "per_mc_none": 12.9, "per_mcouple_1": 62.3, "per_mcouple_2": 19.8, "per_mcouple_3": 4.5, "per_mcouple_4": 0.5, "per_mcouple_5p": 0.0, "per_dw_t_ts": 18.4, "per_dw_t_unts": 16.7, "per_dw_c_well": 0.0, "per_dw_unc_wel": 0.0, "per_dw_hpump": 42.8, "per_dw_tw_bore": 11.4, "per_dw_spring": 0.0, "per_dw_rivcan": 0.4, "per_dw_tank": 0.0, "per_dw_oth": 10.2, "per_loc_dw_wp": 56.3, "per_loc_dw_np": 34.9, "per_loc_dw_aw": 8.8, "per_light_elec": 93.0, "per_light_kero": 6.1, "per_light_solr": 0.0, "per_light_oil": 0.2, "per_light_oth": 0.6, "per_light_no": 0.1, "per_hh_latrine": 55.1, "per_fl_sewer": 0.7, "per_fl_septict": 5.6, "per_fl_othsys": 3.4, "per_pl_wslab": 45.1, "per_pl_without": 0.0, "per_ns_open": 0.3, "per_sl_ns_hum": 0.0, "per_sl_ns_anml": 0.0, "per_hh_no_lat": 44.9, "per_as_pub": 0.5, "per_as_open": 44.4, "per_hh_bathrm": 51.6, "per_hh_en_wrf": 11.9, "per_hh_no_btrm": 36.5, "per_wwoc_drain": 2.3, "per_wwoc_open": 92.3, "per_wwoc_nodrn": 5.5, "per_cook_fire": 14.3, "per_cook_resdu": 1.5, "per_cook_cwdng": 48.2, "per_cook_coal": 0.3, "per_cook_kero": 0.0, "per_cook_lpng": 35.0, "per_cook_elec": 0.0, "per_cook_biogs": 0.2, "per_cook_oth": 0.0, "per_cook_no": 0.4, "per_kf_inside": 86.7, "per_kf_in_has": 41.4, "per_kf_in_does": 45.3, "per_kf_outside": 12.9, "per_kf_out_has": 7.9, "per_kf_out_dos": 4.9, "per_kf_no_cook": 0.4, "per_hh_banking": 63.0, "per_hh_radio": 17.6, "per_hh_tv": 63.6, "per_hh_cmp_int": 0.5, "per_hh_cmp_wnt": 1.3, "per_hh_ph_ll": 2.1, "per_hh_ph_mob": 67.1, "per_hh_ph_bth": 2.0, "per_hh_bcycl": 54.6, "per_hh_2wheel": 21.4, "per_hh_4wheel": 2.6, "per_hh_tvcomp": null, "per_hh_no_ast": 10.1, "per_hs_perma": 26.2, "per_hs_sperma": 72.4, "per_hs_temp": 1.1, "per_hs_servc": 1.0, "per_hs_nservc": 0.1, "per_hs_unclss": 0.3, "avghhsz_cy": 5.10478128, "st_areashape": 12938594.367481746, "st_lengthshape": 14054.989410920507}, "geometry": {"type": "Polygon", "coordinates": [[[76.43226383150251, 29.76275614499973], [76.42509243506231, 29.766908242163673], [76.4225959495141, 29.763957248599866], [76.41947634217917, 29.762342753795764], [76.41408257065072, 29.7612661297749], [76.41039526578548, 29.760902499718075], [76.41062139509866, 29.752968045743156], [76.41062245780566, 29.742759800637508], [76.41055163013709, 29.742706537075403], [76.4116664160485, 29.741623207222883], [76.41345651676293, 29.73874531525548], [76.41612206345098, 29.733463437319944], [76.41792414499635, 29.7314853768761], [76.42025650924047, 29.730056579454445], [76.42235156463768, 29.729650431349942], [76.42715399857076, 29.729970249698138], [76.42716328445586, 29.730052978644917], [76.42993043060255, 29.732517209548885], [76.43999405191465, 29.741035740650606], [76.44519330045483, 29.74751050580031], [76.4491599310678, 29.75200804490365], [76.4467506503741, 29.75319845087806], [76.43977316067787, 29.75776023980001], [76.43749138505899, 29.759776921363002], [76.43238889226141, 29.762683441074504], [76.43226383150251, 29.76275614499973]]]}}]}