{"type": "FeatureCollection", "features": [{"type": "Feature", "properties": {"premiumdata.sde.IN_Village_PCA.area": 3.60904742, "objectid": 328961, "id": "91381008357630", "name": "Margaya", "subdistrict": "Etah", "district": "Etah", "state": "Uttar Pradesh", "country": "India", "censusname": "Margaya", "villagename_locallang": null, "lgd_villagename": "Margaya", "lgd_villagecode": 214756, "lgd_subdistrictcode": 1008, "lgd_districtcode": 138, "lgd_statecode": 9, "censuscode2001": "01846600", "censuscode2011": "214756", "censuscode2021": null, "level": "Village", "tru": "Rural", "no_hh": 245, "tot_p": 1463, "tot_m": 832, "tot_f": 631, "per_tot_m": 56.86944634, "per_tot_f": 43.13055366, "p_06": 240, "m_06": 144, "f_06": 96, "per_p_06": 16.40464798, "per_m_06": 60.0, "per_f_06": 40.0, "p_sc": 431, "m_sc": 249, "f_sc": 182, "per_p_sc": 29.46001367, "per_m_sc": 57.77262181, "per_f_sc": 42.22737819, "p_st": 0, "m_st": 0, "f_st": 0, "per_p_st": 0.0, "per_m_st": 0.0, "per_f_st": 0.0, "p_lit": 911, "m_lit": 586, "f_lit": 325, "per_p_lit": 62.26930964, "per_m_lit": 64.32491767, "per_f_lit": 35.67508233, "p_ill": 552, "m_ill": 246, "f_ill": 306, "per_p_ill": 37.73069036, "per_m_ill": 44.56521739, "per_f_ill": 55.43478261, "tot_work_p": 398, "tot_work_m": 381, "tot_work_f": 17, "per_tot_work_p": 27.20437457, "per_tot_work_m": 95.72864322, "per_tot_work_f": 4.27135678, "mainwork_p": 270, "mainwork_m": 258, "mainwork_f": 12, "per_mainwork_p": 18.45522898, "per_mainwork_m": 95.55555556, "per_mainwork_f": 4.44444444, "main_cl_p": 142, "main_cl_m": 139, "main_cl_f": 3, "per_main_cl_p": 52.59259259, "per_main_cl_m": 97.88732394, "per_main_cl_f": 2.11267606, "main_al_p": 78, "main_al_m": 77, "main_al_f": 1, "per_main_al_p": 28.88888889, "per_main_al_m": 98.71794872, "per_main_al_f": 1.28205128, "main_hh_p": 2, "main_hh_m": 2, "main_hh_f": 0, "per_main_hh_p": 0.74074074, "per_main_hh_m": 100.0, "per_main_hh_f": 0.0, "main_ot_p": 48, "main_ot_m": 40, "main_ot_f": 8, "per_main_ot_p": 17.77777778, "per_main_ot_m": 83.33333332999999, "per_main_ot_f": 16.66666667, "margwork_p": 128, "margwork_m": 123, "margwork_f": 5, "per_margwork_p": 8.74914559, "per_margwork_m": 96.09375, "per_margwork_f": 3.90625, "marg_cl_p": 3, "marg_cl_m": 2, "marg_cl_f": 1, "per_marg_cl_p": 2.34375, "per_marg_cl_m": 66.66666667, "per_marg_cl_f": 33.33333333, "marg_al_p": 109, "marg_al_m": 108, "marg_al_f": 1, "per_marg_al_p": 85.15625, "per_marg_al_m": 99.08256881, "per_marg_al_f": 0.91743119, "marg_hh_p": 1, "marg_hh_m": 1, "marg_hh_f": 0, "per_marg_hh_p": 0.78125, "per_marg_hh_m": 100.0, "per_marg_hh_f": 0.0, "marg_ot_p": 15, "marg_ot_m": 12, "marg_ot_f": 3, "per_marg_ot_p": 11.71875, "per_marg_ot_m": 80.0, "per_marg_ot_f": 20.0, "margwork_3_6_p": 42, "margwork_3_6_m": 40, "margwork_3_6_f": 2, "per_margwork_3_6_p": 32.8125, "per_margwork_3_6_m": 95.23809524, "per_margwork_3_6_f": 4.76190476, "marg_cl_3_6_p": 3, "marg_cl_3_6_m": 2, "marg_cl_3_6_f": 1, "per_marg_cl_3_6_p": 2.34375, "per_marg_cl_3_6_m": 66.66666667, "per_marg_cl_3_6_f": 33.33333333, "marg_al_3_6_p": 26, "marg_al_3_6_m": 26, "marg_al_3_6_f": 0, "per_marg_al_3_6_p": 20.3125, "per_marg_al_3_6_m": 100.0, "per_marg_al_3_6_f": 0.0, "marg_hh_3_6_p": 1, "marg_hh_3_6_m": 1, "marg_hh_3_6_f": 0, "per_marg_hh_3_6_p": 0.78125, "per_marg_hh_3_6_m": 100.0, "per_marg_hh_3_6_f": 0.0, "marg_ot_3_6_p": 12, "marg_ot_3_6_m": 11, "marg_ot_3_6_f": 1, "per_marg_ot_3_6_p": 9.375, "per_marg_ot_3_6_m": 91.66666667, "per_marg_ot_3_6_f": 8.33333333, "margwork_0_3_p": 86, "margwork_0_3_m": 83, "margwork_0_3_f": 3, "per_margwork_0_3_p": 67.1875, "per_margwork_0_3_m": 96.51162791, "per_margwork_0_3_f": 3.48837209, "marg_cl_0_3_p": 0, "marg_cl_0_3_m": 0, "marg_cl_0_3_f": 0, "per_marg_cl_0_3_p": 0.0, "per_marg_cl_0_3_m": 0.0, "per_marg_cl_0_3_f": 0.0, "marg_al_0_3_p": 83, "marg_al_0_3_m": 82, "marg_al_0_3_f": 1, "per_marg_al_0_3_p": 64.84375, "per_marg_al_0_3_m": 98.79518072, "per_marg_al_0_3_f": 1.20481928, "marg_hh_0_3_p": 0, "marg_hh_0_3_m": 0, "marg_hh_0_3_f": 0, "per_marg_hh_0_3_p": 0.0, "per_marg_hh_0_3_m": 0.0, "per_marg_hh_0_3_f": 0.0, "marg_ot_0_3_p": 3, "marg_ot_0_3_m": 1, "marg_ot_0_3_f": 2, "per_marg_ot_0_3_p": 2.34375, "per_marg_ot_0_3_m": 33.33333333, "per_marg_ot_0_3_f": 66.66666667, "non_work_p": 1065, "non_work_m": 451, "non_work_f": 614, "per_non_work_p": 72.79562542999999, "per_non_work_m": 42.34741784, "per_non_work_f": 57.65258216, "per_hc_tot_tot": 100, "per_hc_tot_god": 53.6, "per_hc_tot_liv": 32.5, "per_hc_tot_dil": 14.0, "per_hc_res_tot": 100.0, "per_hc_res_god": 53.6, "per_hc_res_liv": 32.5, "per_hc_res_dil": 14.0, "per_hc_oth_tot": 0.0, "per_hc_oth_god": 0.0, "per_hc_oth_liv": 0.0, "per_hc_oth_dil": 0.0, "per_mt_grsbam": 40.4, "per_mt_plastic": 0.0, "per_mt_h_tiles": 0.0, "per_mt_m_tiles": 0.4, "per_mt_b_brick": 2.6, "per_mt_stone": 53.6, "per_mt_asbstos": 1.5, "per_mt_concrte": 1.5, "per_mt_oth": 0.0, "per_mw_grsbam": 15.8, "per_mw_plastic": 0.0, "per_mw_mud": 14.7, "per_mw_wood": 0.0, "per_mw_no_mrtr": 0.0, "per_mw_st_mrtr": 0.0, "per_mw_asbstos": 0.0, "per_mw_b_brick": 69.4, "per_mw_concrte": 0.0, "per_mw_oth": 0.0, "per_mf_mud": 92.8, "per_mf_wood": 0.0, "per_mf_b_brick": 1.1, "per_mf_stone": 0.0, "per_mf_cement": 6.0, "per_mf_fl_tile": 0.0, "per_mf_oth": 0.0, "per_dw_n_exrm": 0.0, "per_dw_1_room": 59.6, "per_dw_2_room": 22.6, "per_dw_3_room": 10.9, "per_dw_4_room": 4.9, "per_dw_5_room": 0.0, "per_dw_6_room": 1.9, "per_hhsize_1": 2.6, "per_hhsize_2": 10.9, "per_hhsize_3": 11.7, "per_hhsize_4": 11.7, "per_hhsize_5": 13.6, "per_hhsize_6_8": 39.2, "per_hhsize_9p": 10.2, "per_ow_owned": 97.4, "per_ow_rented": 1.9, "per_ow_oth": 0.8, "per_mc_none": 8.3, "per_mcouple_1": 77.7, "per_mcouple_2": 8.7, "per_mcouple_3": 4.2, "per_mcouple_4": 1.1, "per_mcouple_5p": 0.0, "per_dw_t_ts": 0.0, "per_dw_t_unts": 0.4, "per_dw_c_well": 0.0, "per_dw_unc_wel": 0.0, "per_dw_hpump": 99.6, "per_dw_tw_bore": 0.0, "per_dw_spring": 0.0, "per_dw_rivcan": 0.0, "per_dw_tank": 0.0, "per_dw_oth": 0.0, "per_loc_dw_wp": 25.3, "per_loc_dw_np": 40.0, "per_loc_dw_aw": 34.7, "per_light_elec": 7.9, "per_light_kero": 91.3, "per_light_solr": 0.8, "per_light_oil": 0.0, "per_light_oth": 0.0, "per_light_no": 0.0, "per_hh_latrine": 27.9, "per_fl_sewer": 0.8, "per_fl_septict": 1.5, "per_fl_othsys": 0.4, "per_pl_wslab": 5.7, "per_pl_without": 19.6, "per_ns_open": 0.0, "per_sl_ns_hum": 0.0, "per_sl_ns_anml": 0.0, "per_hh_no_lat": 72.1, "per_as_pub": 0.0, "per_as_open": 72.1, "per_hh_bathrm": 10.2, "per_hh_en_wrf": 16.6, "per_hh_no_btrm": 73.2, "per_wwoc_drain": 0.8, "per_wwoc_open": 64.9, "per_wwoc_nodrn": 34.3, "per_cook_fire": 98.9, "per_cook_resdu": 0.0, "per_cook_cwdng": 0.8, "per_cook_coal": 0.0, "per_cook_kero": 0.0, "per_cook_lpng": 0.4, "per_cook_elec": 0.0, "per_cook_biogs": 0.0, "per_cook_oth": 0.0, "per_cook_no": 0.0, "per_kf_inside": 98.5, "per_kf_in_has": 56.2, "per_kf_in_does": 42.3, "per_kf_outside": 1.5, "per_kf_out_has": 1.5, "per_kf_out_dos": 0.0, "per_kf_no_cook": 0.0, "per_hh_banking": 57.4, "per_hh_radio": 20.4, "per_hh_tv": 15.8, "per_hh_cmp_int": 0.8, "per_hh_cmp_wnt": 3.4, "per_hh_ph_ll": 1.1, "per_hh_ph_mob": 59.2, "per_hh_ph_bth": 1.1, "per_hh_bcycl": 60.4, "per_hh_2wheel": 10.6, "per_hh_4wheel": 0.4, "per_hh_tvcomp": 0.8, "per_hh_no_ast": 18.1, "per_hs_perma": 57.7, "per_hs_sperma": 13.6, "per_hs_temp": 28.7, "per_hs_servc": 13.6, "per_hs_nservc": 15.1, "per_hs_unclss": 0.0, "avghhsz_cy": 5.97142857, "st_areashape": 4610557.53805651, "st_lengthshape": 9579.828717692708}, "geometry": {"type": "Polygon", "coordinates": [[[78.47750659876243, 27.578605715124915], [78.47699746060884, 27.578282396746527], [78.47650368005336, 27.57807628857622], [78.47525992930484, 27.57788065788387], [78.47423312349406, 27.577745666212333], [78.47301501246037, 27.57774533019407], [78.47116286241432, 27.578064286708205], [78.46953073223919, 27.578332608924836], [78.46820765845447, 27.578719340104968], [78.46643854777496, 27.57954977723225], [78.46649698587913, 27.57847113441258], [78.46611953805127, 27.57748863264149], [78.46597802554625, 27.576984551149348], [78.46592851579764, 27.576538311705658], [78.46576637617707, 27.575672022167016], [78.4656256757491, 27.57514015920481], [78.46539216408087, 27.57457830595935], [78.46484408755299, 27.573955066273324], [78.46481775433874, 27.573925111833635], [78.46473383641984, 27.573589295552722], [78.4646835397471, 27.573170818316548], [78.46472858576702, 27.572698845636243], [78.46492961525286, 27.572230525905354], [78.46519632955228, 27.571652443581485], [78.4652330472912, 27.571609505698337], [78.46661905345152, 27.56998818499058], [78.46785042811035, 27.568458553246188], [78.46807585134776, 27.568227247753953], [78.46832959577112, 27.568094032744227], [78.4686424493402, 27.568073406413582], [78.46894892666737, 27.5682752873937], [78.46928819879061, 27.56842221002772], [78.46966199586517, 27.568458706139484], [78.47006767504747, 27.568468080408813], [78.47063275398871, 27.56836983926868], [78.47094813362035, 27.568265827901588], [78.47120755449801, 27.567937942401], [78.47112928518561, 27.567407533470167], [78.47098372127867, 27.567042433731043], [78.4708381735414, 27.566677394094928], [78.47087743351257, 27.566400063911672], [78.47182383741047, 27.565002967188853], [78.47214729379482, 27.56462091557586], [78.47228016720176, 27.564345745469407], [78.47222823290024, 27.56398288205338], [78.47177387131775, 27.56349934978357], [78.4700672779921, 27.56146228376504], [78.47012870479125, 27.560172970731227], [78.47020884170108, 27.559562712319405], [78.47044919314189, 27.55881705727419], [78.4708816331365, 27.55790889591826], [78.47130517262329, 27.557306553881357], [78.47188546722884, 27.556680031289932], [78.47269244720478, 27.555780514026054], [78.47339145687006, 27.55494998064842], [78.4738917232619, 27.555349097239592], [78.47482313787097, 27.55553754224366], [78.47528666765925, 27.555603898553983], [78.47527360705335, 27.556053423889768], [78.47560316030352, 27.55653405897906], [78.47911610217216, 27.560315556781923], [78.48282293551338, 27.563878835471087], [78.4864575425091, 27.56778814279615], [78.48822106566755, 27.56944246014789], [78.488846241003, 27.569957207008105], [78.48877756659616, 27.570556374838752], [78.48838912877912, 27.572105474571128], [78.48827376174044, 27.572854067624675], [78.48807240796278, 27.57333632523581], [78.48762095871842, 27.573826690842], [78.4871698885631, 27.574303261947055], [78.48589958091982, 27.575025215077005], [78.48386478810514, 27.576258147860987], [78.48221186372788, 27.577249552436957], [78.48118373110542, 27.57825368563543], [78.48062194718459, 27.578240741028914], [78.48018254165325, 27.57831411209267], [78.4788686648204, 27.578381200717132], [78.47789854989057, 27.578442256139063], [78.47750659876243, 27.578605715124915]]]}}]}