{"type": "FeatureCollection", "features": [{"type": "Feature", "properties": {"premiumdata.sde.IN_Village_PCA.area": 1.68460354, "objectid": 419033, "id": "549303572259", "name": "Malhangrant", "subdistrict": "Vikas Nagar", "district": "Dehradun", "state": "Uttarakhand", "country": "India", "censusname": "Malhangrant", "villagename_locallang": null, "lgd_villagename": "Malhangrant", "lgd_villagecode": 45103, "lgd_subdistrictcode": 303, "lgd_districtcode": 49, "lgd_statecode": 5, "censuscode2001": "00499700", "censuscode2011": "045103", "censuscode2021": null, "level": "Village", "tru": "Rural", "no_hh": 112, "tot_p": 540, "tot_m": 259, "tot_f": 281, "per_tot_m": 47.96296296, "per_tot_f": 52.03703704, "p_06": 71, "m_06": 31, "f_06": 40, "per_p_06": 13.14814815, "per_m_06": 43.66197183000001, "per_f_06": 56.33802817, "p_sc": 19, "m_sc": 8, "f_sc": 11, "per_p_sc": 3.51851852, "per_m_sc": 42.10526316000001, "per_f_sc": 57.89473684, "p_st": 0, "m_st": 0, "f_st": 0, "per_p_st": 0.0, "per_m_st": 0.0, "per_f_st": 0.0, "p_lit": 405, "m_lit": 219, "f_lit": 186, "per_p_lit": 75.0, "per_m_lit": 54.07407407, "per_f_lit": 45.92592593, "p_ill": 135, "m_ill": 40, "f_ill": 95, "per_p_ill": 25.0, "per_m_ill": 29.62962963, "per_f_ill": 70.37037037, "tot_work_p": 121, "tot_work_m": 110, "tot_work_f": 11, "per_tot_work_p": 22.40740741, "per_tot_work_m": 90.90909091, "per_tot_work_f": 9.09090909, "mainwork_p": 115, "mainwork_m": 105, "mainwork_f": 10, "per_mainwork_p": 21.2962963, "per_mainwork_m": 91.30434783, "per_mainwork_f": 8.69565217, "main_cl_p": 30, "main_cl_m": 28, "main_cl_f": 2, "per_main_cl_p": 26.08695652, "per_main_cl_m": 93.33333332999999, "per_main_cl_f": 6.66666667, "main_al_p": 9, "main_al_m": 8, "main_al_f": 1, "per_main_al_p": 7.82608696, "per_main_al_m": 88.88888889, "per_main_al_f": 11.11111111, "main_hh_p": 2, "main_hh_m": 2, "main_hh_f": 0, "per_main_hh_p": 1.73913043, "per_main_hh_m": 100.0, "per_main_hh_f": 0.0, "main_ot_p": 74, "main_ot_m": 67, "main_ot_f": 7, "per_main_ot_p": 64.34782609000001, "per_main_ot_m": 90.54054054, "per_main_ot_f": 9.45945946, "margwork_p": 6, "margwork_m": 5, "margwork_f": 1, "per_margwork_p": 1.11111111, "per_margwork_m": 83.33333332999999, "per_margwork_f": 16.66666667, "marg_cl_p": 1, "marg_cl_m": 1, "marg_cl_f": 0, "per_marg_cl_p": 16.66666667, "per_marg_cl_m": 100.0, "per_marg_cl_f": 0.0, "marg_al_p": 1, "marg_al_m": 1, "marg_al_f": 0, "per_marg_al_p": 16.66666667, "per_marg_al_m": 100.0, "per_marg_al_f": 0.0, "marg_hh_p": 0, "marg_hh_m": 0, "marg_hh_f": 0, "per_marg_hh_p": 0.0, "per_marg_hh_m": 0.0, "per_marg_hh_f": 0.0, "marg_ot_p": 4, "marg_ot_m": 3, "marg_ot_f": 1, "per_marg_ot_p": 66.66666667, "per_marg_ot_m": 75.0, "per_marg_ot_f": 25.0, "margwork_3_6_p": 6, "margwork_3_6_m": 5, "margwork_3_6_f": 1, "per_margwork_3_6_p": 100.0, "per_margwork_3_6_m": 83.33333332999999, "per_margwork_3_6_f": 16.66666667, "marg_cl_3_6_p": 1, "marg_cl_3_6_m": 1, "marg_cl_3_6_f": 0, "per_marg_cl_3_6_p": 16.66666667, "per_marg_cl_3_6_m": 100.0, "per_marg_cl_3_6_f": 0.0, "marg_al_3_6_p": 1, "marg_al_3_6_m": 1, "marg_al_3_6_f": 0, "per_marg_al_3_6_p": 16.66666667, "per_marg_al_3_6_m": 100.0, "per_marg_al_3_6_f": 0.0, "marg_hh_3_6_p": 0, "marg_hh_3_6_m": 0, "marg_hh_3_6_f": 0, "per_marg_hh_3_6_p": 0.0, "per_marg_hh_3_6_m": 0.0, "per_marg_hh_3_6_f": 0.0, "marg_ot_3_6_p": 4, "marg_ot_3_6_m": 3, "marg_ot_3_6_f": 1, "per_marg_ot_3_6_p": 66.66666667, "per_marg_ot_3_6_m": 75.0, "per_marg_ot_3_6_f": 25.0, "margwork_0_3_p": 0, "margwork_0_3_m": 0, "margwork_0_3_f": 0, "per_margwork_0_3_p": 0.0, "per_margwork_0_3_m": 0.0, "per_margwork_0_3_f": 0.0, "marg_cl_0_3_p": 0, "marg_cl_0_3_m": 0, "marg_cl_0_3_f": 0, "per_marg_cl_0_3_p": 0.0, "per_marg_cl_0_3_m": 0.0, "per_marg_cl_0_3_f": 0.0, "marg_al_0_3_p": 0, "marg_al_0_3_m": 0, "marg_al_0_3_f": 0, "per_marg_al_0_3_p": 0.0, "per_marg_al_0_3_m": 0.0, "per_marg_al_0_3_f": 0.0, "marg_hh_0_3_p": 0, "marg_hh_0_3_m": 0, "marg_hh_0_3_f": 0, "per_marg_hh_0_3_p": 0.0, "per_marg_hh_0_3_m": 0.0, "per_marg_hh_0_3_f": 0.0, "marg_ot_0_3_p": 0, "marg_ot_0_3_m": 0, "marg_ot_0_3_f": 0, "per_marg_ot_0_3_p": 0.0, "per_marg_ot_0_3_m": 0.0, "per_marg_ot_0_3_f": 0.0, "non_work_p": 419, "non_work_m": 149, "non_work_f": 270, "per_non_work_p": 77.59259259, "per_non_work_m": 35.56085919, "per_non_work_f": 64.43914081, "per_hc_tot_tot": 100, "per_hc_tot_god": 94.5, "per_hc_tot_liv": 5.5, "per_hc_tot_dil": 0.0, "per_hc_res_tot": 94.5, "per_hc_res_god": 92.7, "per_hc_res_liv": 1.8, "per_hc_res_dil": 0.0, "per_hc_oth_tot": 5.5, "per_hc_oth_god": 1.8, "per_hc_oth_liv": 3.6, "per_hc_oth_dil": 0.0, "per_mt_grsbam": 0.0, "per_mt_plastic": 0.0, "per_mt_h_tiles": 0.0, "per_mt_m_tiles": 0.0, "per_mt_b_brick": 0.0, "per_mt_stone": 0.0, "per_mt_asbstos": 1.8, "per_mt_concrte": 98.2, "per_mt_oth": 0.0, "per_mw_grsbam": 0.0, "per_mw_plastic": 0.0, "per_mw_mud": 0.9, "per_mw_wood": 0.0, "per_mw_no_mrtr": 0.0, "per_mw_st_mrtr": 0.0, "per_mw_asbstos": 0.0, "per_mw_b_brick": 99.1, "per_mw_concrte": 0.0, "per_mw_oth": 0.0, "per_mf_mud": 1.8, "per_mf_wood": 0.0, "per_mf_b_brick": 0.9, "per_mf_stone": 8.2, "per_mf_cement": 87.3, "per_mf_fl_tile": 1.8, "per_mf_oth": 0.0, "per_dw_n_exrm": 0.9, "per_dw_1_room": 7.3, "per_dw_2_room": 20.0, "per_dw_3_room": 22.7, "per_dw_4_room": 27.3, "per_dw_5_room": 8.2, "per_dw_6_room": 13.6, "per_hhsize_1": 1.8, "per_hhsize_2": 7.3, "per_hhsize_3": 7.3, "per_hhsize_4": 28.2, "per_hhsize_5": 27.3, "per_hhsize_6_8": 23.6, "per_hhsize_9p": 4.5, "per_ow_owned": 94.5, "per_ow_rented": 5.5, "per_ow_oth": 0.0, "per_mc_none": 11.8, "per_mcouple_1": 66.4, "per_mcouple_2": 18.2, "per_mcouple_3": 2.7, "per_mcouple_4": 0.9, "per_mcouple_5p": 0.0, "per_dw_t_ts": 97.3, "per_dw_t_unts": 0.0, "per_dw_c_well": 0.0, "per_dw_unc_wel": 0.0, "per_dw_hpump": 2.7, "per_dw_tw_bore": 0.0, "per_dw_spring": 0.0, "per_dw_rivcan": 0.0, "per_dw_tank": 0.0, "per_dw_oth": 0.0, "per_loc_dw_wp": 84.5, "per_loc_dw_np": 9.1, "per_loc_dw_aw": 6.4, "per_light_elec": 100.0, "per_light_kero": 0.0, "per_light_solr": 0.0, "per_light_oil": 0.0, "per_light_oth": 0.0, "per_light_no": 0.0, "per_hh_latrine": 90.9, "per_fl_sewer": 0.0, "per_fl_septict": 90.9, "per_fl_othsys": 0.0, "per_pl_wslab": 0.0, "per_pl_without": 0.0, "per_ns_open": 0.0, "per_sl_ns_hum": 0.0, "per_sl_ns_anml": 0.0, "per_hh_no_lat": 9.1, "per_as_pub": 0.0, "per_as_open": 9.1, "per_hh_bathrm": 92.7, "per_hh_en_wrf": 4.5, "per_hh_no_btrm": 2.7, "per_wwoc_drain": 0.0, "per_wwoc_open": 8.2, "per_wwoc_nodrn": 91.8, "per_cook_fire": 8.2, "per_cook_resdu": 0.0, "per_cook_cwdng": 0.0, "per_cook_coal": 0.0, "per_cook_kero": 3.6, "per_cook_lpng": 88.2, "per_cook_elec": 0.0, "per_cook_biogs": 0.0, "per_cook_oth": 0.0, "per_cook_no": 0.0, "per_kf_inside": 99.1, "per_kf_in_has": 96.4, "per_kf_in_does": 2.7, "per_kf_outside": 0.9, "per_kf_out_has": 0.9, "per_kf_out_dos": 0.0, "per_kf_no_cook": 0.0, "per_hh_banking": 90.0, "per_hh_radio": 8.2, "per_hh_tv": 90.0, "per_hh_cmp_int": 2.7, "per_hh_cmp_wnt": 7.3, "per_hh_ph_ll": 14.5, "per_hh_ph_mob": 68.2, "per_hh_ph_bth": 10.9, "per_hh_bcycl": 50.9, "per_hh_2wheel": 48.2, "per_hh_4wheel": 6.4, "per_hh_tvcomp": null, "per_hh_no_ast": 2.7, "per_hs_perma": 99.1, "per_hs_sperma": 0.9, "per_hs_temp": 0.0, "per_hs_servc": 0.0, "per_hs_nservc": 0.0, "per_hs_unclss": 0.0, "avghhsz_cy": 4.82142857, "st_areashape": 2267377.86961621, "st_lengthshape": 6267.006508180694}, "geometry": {"type": "Polygon", "coordinates": [[[77.89575434371248, 30.30160302672152], [77.89808306888138, 30.300466107089807], [77.90082466424643, 30.29898150794358], [77.9030726182949, 30.297980481854303], [77.90473498396582, 30.297361416223588], [77.90620777636569, 30.296704399892825], [77.90840062595801, 30.296198171345402], [77.91036239921482, 30.295752176018787], [77.91422084122654, 30.29509003123199], [77.91599191382663, 30.294639090790277], [77.91643470690488, 30.29458296984112], [77.91629530364413, 30.295774723726165], [77.91608842163423, 30.296970304025585], [77.91587016874942, 30.297685240322068], [77.91579033726674, 30.298403718289123], [77.91570151274978, 30.299386162737978], [77.91568682978645, 30.299818095369915], [77.91577881098335, 30.30037284296932], [77.91603037160223, 30.30112382184357], [77.91619887488828, 30.30187265977576], [77.91645478964139, 30.3031294587913], [77.91626431625842, 30.303089580182306], [77.91590427508584, 30.303138598186244], [77.91535863568731, 30.303377007038165], [77.91205313278408, 30.304748395008968], [77.91027593187714, 30.305634710805382], [77.90853297025723, 30.30617243391249], [77.9061640607507, 30.306674685911425], [77.90472654159878, 30.306793120644507], [77.90338779221231, 30.30664229124039], [77.90209777732835, 30.306376221776738], [77.90074987500745, 30.30583685328382], [77.89993642626318, 30.305388862855533], [77.89877817087519, 30.304543741331823], [77.89734888478283, 30.30310924415902], [77.89575434371248, 30.30160302672152]]]}}]}