{"type": "FeatureCollection", "features": [{"type": "Feature", "properties": {"premiumdata.sde.IN_Village_PCA.area": 2.6738852, "objectid": 261995, "id": "234063680565576", "name": "Barkhedi Hathni", "subdistrict": "Maksoodangarh", "district": "Guna", "state": "Madhya Pradesh", "country": "India", "censusname": "Barkhedi Hathni", "villagename_locallang": null, "lgd_villagename": "Barkhedi Hathni", "lgd_villagecode": 499482, "lgd_subdistrictcode": 3680, "lgd_districtcode": 406, "lgd_statecode": 23, "censuscode2001": "00654100", "censuscode2011": "499482", "censuscode2021": null, "level": "Village", "tru": "Rural", "no_hh": 123, "tot_p": 521, "tot_m": 295, "tot_f": 226, "per_tot_m": 56.621881, "per_tot_f": 43.378119, "p_06": 82, "m_06": 45, "f_06": 37, "per_p_06": 15.73896353, "per_m_06": 54.87804878, "per_f_06": 45.12195122, "p_sc": 15, "m_sc": 11, "f_sc": 4, "per_p_sc": 2.87907869, "per_m_sc": 73.33333332999999, "per_f_sc": 26.66666667, "p_st": 69, "m_st": 42, "f_st": 27, "per_p_st": 13.243762, "per_m_st": 60.86956522000001, "per_f_st": 39.13043478, "p_lit": 244, "m_lit": 162, "f_lit": 82, "per_p_lit": 46.83301344, "per_m_lit": 66.39344262, "per_f_lit": 33.60655738, "p_ill": 277, "m_ill": 133, "f_ill": 144, "per_p_ill": 53.16698656, "per_m_ill": 48.01444043, "per_f_ill": 51.98555957, "tot_work_p": 262, "tot_work_m": 144, "tot_work_f": 118, "per_tot_work_p": 50.28790787, "per_tot_work_m": 54.96183206, "per_tot_work_f": 45.03816794, "mainwork_p": 125, "mainwork_m": 116, "mainwork_f": 9, "per_mainwork_p": 23.99232246, "per_mainwork_m": 92.8, "per_mainwork_f": 7.2, "main_cl_p": 57, "main_cl_m": 55, "main_cl_f": 2, "per_main_cl_p": 45.6, "per_main_cl_m": 96.49122807, "per_main_cl_f": 3.50877193, "main_al_p": 62, "main_al_m": 56, "main_al_f": 6, "per_main_al_p": 49.6, "per_main_al_m": 90.32258065, "per_main_al_f": 9.67741935, "main_hh_p": 0, "main_hh_m": 0, "main_hh_f": 0, "per_main_hh_p": 0.0, "per_main_hh_m": 0.0, "per_main_hh_f": 0.0, "main_ot_p": 6, "main_ot_m": 5, "main_ot_f": 1, "per_main_ot_p": 4.8, "per_main_ot_m": 83.33333332999999, "per_main_ot_f": 16.66666667, "margwork_p": 137, "margwork_m": 28, "margwork_f": 109, "per_margwork_p": 26.29558541, "per_margwork_m": 20.4379562, "per_margwork_f": 79.5620438, "marg_cl_p": 8, "marg_cl_m": 2, "marg_cl_f": 6, "per_marg_cl_p": 5.83941606, "per_marg_cl_m": 25.0, "per_marg_cl_f": 75.0, "marg_al_p": 129, "marg_al_m": 26, "marg_al_f": 103, "per_marg_al_p": 94.16058394, "per_marg_al_m": 20.15503876, "per_marg_al_f": 79.84496123999999, "marg_hh_p": 0, "marg_hh_m": 0, "marg_hh_f": 0, "per_marg_hh_p": 0.0, "per_marg_hh_m": 0.0, "per_marg_hh_f": 0.0, "marg_ot_p": 0, "marg_ot_m": 0, "marg_ot_f": 0, "per_marg_ot_p": 0.0, "per_marg_ot_m": 0.0, "per_marg_ot_f": 0.0, "margwork_3_6_p": 137, "margwork_3_6_m": 28, "margwork_3_6_f": 109, "per_margwork_3_6_p": 100.0, "per_margwork_3_6_m": 20.4379562, "per_margwork_3_6_f": 79.5620438, "marg_cl_3_6_p": 8, "marg_cl_3_6_m": 2, "marg_cl_3_6_f": 6, "per_marg_cl_3_6_p": 5.83941606, "per_marg_cl_3_6_m": 25.0, "per_marg_cl_3_6_f": 75.0, "marg_al_3_6_p": 129, "marg_al_3_6_m": 26, "marg_al_3_6_f": 103, "per_marg_al_3_6_p": 94.16058394, "per_marg_al_3_6_m": 20.15503876, "per_marg_al_3_6_f": 79.84496123999999, "marg_hh_3_6_p": 0, "marg_hh_3_6_m": 0, "marg_hh_3_6_f": 0, "per_marg_hh_3_6_p": 0.0, "per_marg_hh_3_6_m": 0.0, "per_marg_hh_3_6_f": 0.0, "marg_ot_3_6_p": 0, "marg_ot_3_6_m": 0, "marg_ot_3_6_f": 0, "per_marg_ot_3_6_p": 0.0, "per_marg_ot_3_6_m": 0.0, "per_marg_ot_3_6_f": 0.0, "margwork_0_3_p": 0, "margwork_0_3_m": 0, "margwork_0_3_f": 0, "per_margwork_0_3_p": 0.0, "per_margwork_0_3_m": 0.0, "per_margwork_0_3_f": 0.0, "marg_cl_0_3_p": 0, "marg_cl_0_3_m": 0, "marg_cl_0_3_f": 0, "per_marg_cl_0_3_p": 0.0, "per_marg_cl_0_3_m": 0.0, "per_marg_cl_0_3_f": 0.0, "marg_al_0_3_p": 0, "marg_al_0_3_m": 0, "marg_al_0_3_f": 0, "per_marg_al_0_3_p": 0.0, "per_marg_al_0_3_m": 0.0, "per_marg_al_0_3_f": 0.0, "marg_hh_0_3_p": 0, "marg_hh_0_3_m": 0, "marg_hh_0_3_f": 0, "per_marg_hh_0_3_p": 0.0, "per_marg_hh_0_3_m": 0.0, "per_marg_hh_0_3_f": 0.0, "marg_ot_0_3_p": 0, "marg_ot_0_3_m": 0, "marg_ot_0_3_f": 0, "per_marg_ot_0_3_p": 0.0, "per_marg_ot_0_3_m": 0.0, "per_marg_ot_0_3_f": 0.0, "non_work_p": 259, "non_work_m": 151, "non_work_f": 108, "per_non_work_p": 49.71209213, "per_non_work_m": 58.3011583, "per_non_work_f": 41.6988417, "per_hc_tot_tot": 100, "per_hc_tot_god": 99.2, "per_hc_tot_liv": 0.8, "per_hc_tot_dil": 0.0, "per_hc_res_tot": 100.0, "per_hc_res_god": 99.2, "per_hc_res_liv": 0.8, "per_hc_res_dil": 0.0, "per_hc_oth_tot": 0.0, "per_hc_oth_god": 0.0, "per_hc_oth_liv": 0.0, "per_hc_oth_dil": 0.0, "per_mt_grsbam": 3.2, "per_mt_plastic": 0.0, "per_mt_h_tiles": 87.9, "per_mt_m_tiles": 0.0, "per_mt_b_brick": 0.8, "per_mt_stone": 0.0, "per_mt_asbstos": 8.1, "per_mt_concrte": 0.0, "per_mt_oth": 0.0, "per_mw_grsbam": 3.2, "per_mw_plastic": 0.0, "per_mw_mud": 88.7, "per_mw_wood": 0.0, "per_mw_no_mrtr": 0.0, "per_mw_st_mrtr": 0.8, "per_mw_asbstos": 0.0, "per_mw_b_brick": 7.3, "per_mw_concrte": 0.0, "per_mw_oth": 0.0, "per_mf_mud": 92.7, "per_mf_wood": 0.0, "per_mf_b_brick": 0.0, "per_mf_stone": 0.0, "per_mf_cement": 4.8, "per_mf_fl_tile": 2.4, "per_mf_oth": 0.0, "per_dw_n_exrm": 0.0, "per_dw_1_room": 8.9, "per_dw_2_room": 39.5, "per_dw_3_room": 28.2, "per_dw_4_room": 21.8, "per_dw_5_room": 1.6, "per_dw_6_room": 0.0, "per_hhsize_1": 6.5, "per_hhsize_2": 14.5, "per_hhsize_3": 16.1, "per_hhsize_4": 16.1, "per_hhsize_5": 20.2, "per_hhsize_6_8": 25.0, "per_hhsize_9p": 1.6, "per_ow_owned": 100.0, "per_ow_rented": 0.0, "per_ow_oth": 0.0, "per_mc_none": 9.7, "per_mcouple_1": 89.5, "per_mcouple_2": 0.8, "per_mcouple_3": 0.0, "per_mcouple_4": 0.0, "per_mcouple_5p": 0.0, "per_dw_t_ts": 0.0, "per_dw_t_unts": 0.0, "per_dw_c_well": 0.0, "per_dw_unc_wel": 16.1, "per_dw_hpump": 83.9, "per_dw_tw_bore": 0.0, "per_dw_spring": 0.0, "per_dw_rivcan": 0.0, "per_dw_tank": 0.0, "per_dw_oth": 0.0, "per_loc_dw_wp": 0.0, "per_loc_dw_np": 28.2, "per_loc_dw_aw": 71.8, "per_light_elec": 98.4, "per_light_kero": 0.8, "per_light_solr": 0.0, "per_light_oil": 0.0, "per_light_oth": 0.0, "per_light_no": 0.8, "per_hh_latrine": 0.0, "per_fl_sewer": 0.0, "per_fl_septict": 0.0, "per_fl_othsys": 0.0, "per_pl_wslab": 0.0, "per_pl_without": 0.0, "per_ns_open": 0.0, "per_sl_ns_hum": 0.0, "per_sl_ns_anml": 0.0, "per_hh_no_lat": 100.0, "per_as_pub": 0.0, "per_as_open": 100.0, "per_hh_bathrm": 0.0, "per_hh_en_wrf": 0.0, "per_hh_no_btrm": 100.0, "per_wwoc_drain": 0.0, "per_wwoc_open": 0.0, "per_wwoc_nodrn": 100.0, "per_cook_fire": 100.0, "per_cook_resdu": 0.0, "per_cook_cwdng": 0.0, "per_cook_coal": 0.0, "per_cook_kero": 0.0, "per_cook_lpng": 0.0, "per_cook_elec": 0.0, "per_cook_biogs": 0.0, "per_cook_oth": 0.0, "per_cook_no": 0.0, "per_kf_inside": 100.0, "per_kf_in_has": 0.0, "per_kf_in_does": 100.0, "per_kf_outside": 0.0, "per_kf_out_has": 0.0, "per_kf_out_dos": 0.0, "per_kf_no_cook": 0.0, "per_hh_banking": 0.0, "per_hh_radio": 0.0, "per_hh_tv": 19.4, "per_hh_cmp_int": 0.0, "per_hh_cmp_wnt": 2.4, "per_hh_ph_ll": 0.0, "per_hh_ph_mob": 53.2, "per_hh_ph_bth": 4.0, "per_hh_bcycl": 0.0, "per_hh_2wheel": 20.2, "per_hh_4wheel": 0.0, "per_hh_tvcomp": 0.0, "per_hh_no_ast": 41.1, "per_hs_perma": 8.1, "per_hs_sperma": 88.7, "per_hs_temp": 3.2, "per_hs_servc": 0.0, "per_hs_nservc": 3.2, "per_hs_unclss": 0.0, "avghhsz_cy": 4.23577236, "st_areashape": 3218728.667999865, "st_lengthshape": 9028.282698764255}, "geometry": {"type": "Polygon", "coordinates": [[[77.3012796759933, 24.0018151561219], [77.30129918201138, 24.004276860537967], [77.30279328873799, 24.00388483691487], [77.29972346064622, 24.006889171708043], [77.29815477488637, 24.00845242273805], [77.29339558944434, 24.014702067883455], [77.29145220649801, 24.013142064303985], [77.28745918697525, 24.011448602625098], [77.28104183458794, 24.009885387186298], [77.2764857519434, 24.010879116379076], [77.27084085817393, 24.011421897705137], [77.27262345615912, 24.006808185888033], [77.27277200606609, 24.003415644993055], [77.28460703055829, 24.00259013117313], [77.29401914691397, 24.002850683446983], [77.3012796759933, 24.0018151561219]]]}}]}