{"type": "FeatureCollection", "features": [{"type": "Feature", "properties": {"premiumdata.sde.IN_Village_PCA.area": 0.02275325, "objectid": 622984, "id": "176561970160432", "name": "Merongdik", "subdistrict": "Resubelpara", "district": "North Garo Hills", "state": "Meghalaya", "country": "India", "censusname": "Merongdik", "villagename_locallang": null, "lgd_villagename": "Merongdik", "lgd_villagecode": 274474, "lgd_subdistrictcode": 1970, "lgd_districtcode": 656, "lgd_statecode": 17, "censuscode2001": "00158300", "censuscode2011": "274474", "censuscode2021": null, "level": "Village", "tru": "Rural", "no_hh": 37, "tot_p": 209, "tot_m": 117, "tot_f": 92, "per_tot_m": 55.98086124, "per_tot_f": 44.01913876, "p_06": 52, "m_06": 28, "f_06": 24, "per_p_06": 24.88038278, "per_m_06": 53.84615385, "per_f_06": 46.15384615, "p_sc": 0, "m_sc": 0, "f_sc": 0, "per_p_sc": 0.0, "per_m_sc": 0.0, "per_f_sc": 0.0, "p_st": 207, "m_st": 116, "f_st": 91, "per_p_st": 99.0430622, "per_m_st": 56.03864734, "per_f_st": 43.96135266, "p_lit": 93, "m_lit": 58, "f_lit": 35, "per_p_lit": 44.49760766, "per_m_lit": 62.3655914, "per_f_lit": 37.6344086, "p_ill": 116, "m_ill": 59, "f_ill": 57, "per_p_ill": 55.50239234, "per_m_ill": 50.86206897, "per_f_ill": 49.13793103, "tot_work_p": 79, "tot_work_m": 39, "tot_work_f": 40, "per_tot_work_p": 37.79904306, "per_tot_work_m": 49.36708861, "per_tot_work_f": 50.63291139, "mainwork_p": 45, "mainwork_m": 38, "mainwork_f": 7, "per_mainwork_p": 21.53110048, "per_mainwork_m": 84.44444444, "per_mainwork_f": 15.55555556, "main_cl_p": 38, "main_cl_m": 36, "main_cl_f": 2, "per_main_cl_p": 84.44444444, "per_main_cl_m": 94.73684211, "per_main_cl_f": 5.26315789, "main_al_p": 7, "main_al_m": 2, "main_al_f": 5, "per_main_al_p": 15.55555556, "per_main_al_m": 28.57142857, "per_main_al_f": 71.42857143, "main_hh_p": 0, "main_hh_m": 0, "main_hh_f": 0, "per_main_hh_p": 0.0, "per_main_hh_m": 0.0, "per_main_hh_f": 0.0, "main_ot_p": 0, "main_ot_m": 0, "main_ot_f": 0, "per_main_ot_p": 0.0, "per_main_ot_m": 0.0, "per_main_ot_f": 0.0, "margwork_p": 34, "margwork_m": 1, "margwork_f": 33, "per_margwork_p": 16.26794258, "per_margwork_m": 2.94117647, "per_margwork_f": 97.05882353000001, "marg_cl_p": 1, "marg_cl_m": 1, "marg_cl_f": 0, "per_marg_cl_p": 2.94117647, "per_marg_cl_m": 100.0, "per_marg_cl_f": 0.0, "marg_al_p": 32, "marg_al_m": 0, "marg_al_f": 32, "per_marg_al_p": 94.11764706, "per_marg_al_m": 0.0, "per_marg_al_f": 100.0, "marg_hh_p": 0, "marg_hh_m": 0, "marg_hh_f": 0, "per_marg_hh_p": 0.0, "per_marg_hh_m": 0.0, "per_marg_hh_f": 0.0, "marg_ot_p": 1, "marg_ot_m": 0, "marg_ot_f": 1, "per_marg_ot_p": 2.94117647, "per_marg_ot_m": 0.0, "per_marg_ot_f": 100.0, "margwork_3_6_p": 34, "margwork_3_6_m": 1, "margwork_3_6_f": 33, "per_margwork_3_6_p": 100.0, "per_margwork_3_6_m": 2.94117647, "per_margwork_3_6_f": 97.05882353000001, "marg_cl_3_6_p": 1, "marg_cl_3_6_m": 1, "marg_cl_3_6_f": 0, "per_marg_cl_3_6_p": 2.94117647, "per_marg_cl_3_6_m": 100.0, "per_marg_cl_3_6_f": 0.0, "marg_al_3_6_p": 32, "marg_al_3_6_m": 0, "marg_al_3_6_f": 32, "per_marg_al_3_6_p": 94.11764706, "per_marg_al_3_6_m": 0.0, "per_marg_al_3_6_f": 100.0, "marg_hh_3_6_p": 0, "marg_hh_3_6_m": 0, "marg_hh_3_6_f": 0, "per_marg_hh_3_6_p": 0.0, "per_marg_hh_3_6_m": 0.0, "per_marg_hh_3_6_f": 0.0, "marg_ot_3_6_p": 1, "marg_ot_3_6_m": 0, "marg_ot_3_6_f": 1, "per_marg_ot_3_6_p": 2.94117647, "per_marg_ot_3_6_m": 0.0, "per_marg_ot_3_6_f": 100.0, "margwork_0_3_p": 0, "margwork_0_3_m": 0, "margwork_0_3_f": 0, "per_margwork_0_3_p": 0.0, "per_margwork_0_3_m": 0.0, "per_margwork_0_3_f": 0.0, "marg_cl_0_3_p": 0, "marg_cl_0_3_m": 0, "marg_cl_0_3_f": 0, "per_marg_cl_0_3_p": 0.0, "per_marg_cl_0_3_m": 0.0, "per_marg_cl_0_3_f": 0.0, "marg_al_0_3_p": 0, "marg_al_0_3_m": 0, "marg_al_0_3_f": 0, "per_marg_al_0_3_p": 0.0, "per_marg_al_0_3_m": 0.0, "per_marg_al_0_3_f": 0.0, "marg_hh_0_3_p": 0, "marg_hh_0_3_m": 0, "marg_hh_0_3_f": 0, "per_marg_hh_0_3_p": 0.0, "per_marg_hh_0_3_m": 0.0, "per_marg_hh_0_3_f": 0.0, "marg_ot_0_3_p": 0, "marg_ot_0_3_m": 0, "marg_ot_0_3_f": 0, "per_marg_ot_0_3_p": 0.0, "per_marg_ot_0_3_m": 0.0, "per_marg_ot_0_3_f": 0.0, "non_work_p": 130, "non_work_m": 78, "non_work_f": 52, "per_non_work_p": 62.20095694, "per_non_work_m": 60.0, "per_non_work_f": 40.0, "per_hc_tot_tot": 100, "per_hc_tot_god": 36.1, "per_hc_tot_liv": 63.9, "per_hc_tot_dil": 0.0, "per_hc_res_tot": 100.0, "per_hc_res_god": 36.1, "per_hc_res_liv": 63.9, "per_hc_res_dil": 0.0, "per_hc_oth_tot": 0.0, "per_hc_oth_god": 0.0, "per_hc_oth_liv": 0.0, "per_hc_oth_dil": 0.0, "per_mt_grsbam": 41.7, "per_mt_plastic": 0.0, "per_mt_h_tiles": 0.0, "per_mt_m_tiles": 0.0, "per_mt_b_brick": 0.0, "per_mt_stone": 0.0, "per_mt_asbstos": 58.3, "per_mt_concrte": 0.0, "per_mt_oth": 0.0, "per_mw_grsbam": 100.0, "per_mw_plastic": 0.0, "per_mw_mud": 0.0, "per_mw_wood": 0.0, "per_mw_no_mrtr": 0.0, "per_mw_st_mrtr": 0.0, "per_mw_asbstos": 0.0, "per_mw_b_brick": 0.0, "per_mw_concrte": 0.0, "per_mw_oth": 0.0, "per_mf_mud": 100.0, "per_mf_wood": 0.0, "per_mf_b_brick": 0.0, "per_mf_stone": 0.0, "per_mf_cement": 0.0, "per_mf_fl_tile": 0.0, "per_mf_oth": 0.0, "per_dw_n_exrm": 0.0, "per_dw_1_room": 2.8, "per_dw_2_room": 47.2, "per_dw_3_room": 50.0, "per_dw_4_room": 0.0, "per_dw_5_room": 0.0, "per_dw_6_room": 0.0, "per_hhsize_1": 0.0, "per_hhsize_2": 5.6, "per_hhsize_3": 11.1, "per_hhsize_4": 13.9, "per_hhsize_5": 30.6, "per_hhsize_6_8": 33.3, "per_hhsize_9p": 5.6, "per_ow_owned": 100.0, "per_ow_rented": 0.0, "per_ow_oth": 0.0, "per_mc_none": 0.0, "per_mcouple_1": 91.7, "per_mcouple_2": 8.3, "per_mcouple_3": 0.0, "per_mcouple_4": 0.0, "per_mcouple_5p": 0.0, "per_dw_t_ts": 0.0, "per_dw_t_unts": 0.0, "per_dw_c_well": 0.0, "per_dw_unc_wel": 0.0, "per_dw_hpump": 0.0, "per_dw_tw_bore": 0.0, "per_dw_spring": 100.0, "per_dw_rivcan": 0.0, "per_dw_tank": 0.0, "per_dw_oth": 0.0, "per_loc_dw_wp": 0.0, "per_loc_dw_np": 100.0, "per_loc_dw_aw": 0.0, "per_light_elec": 0.0, "per_light_kero": 100.0, "per_light_solr": 0.0, "per_light_oil": 0.0, "per_light_oth": 0.0, "per_light_no": 0.0, "per_hh_latrine": 100.0, "per_fl_sewer": 0.0, "per_fl_septict": 0.0, "per_fl_othsys": 0.0, "per_pl_wslab": 72.2, "per_pl_without": 27.8, "per_ns_open": 0.0, "per_sl_ns_hum": 0.0, "per_sl_ns_anml": 0.0, "per_hh_no_lat": 0.0, "per_as_pub": 0.0, "per_as_open": 0.0, "per_hh_bathrm": 0.0, "per_hh_en_wrf": 0.0, "per_hh_no_btrm": 100.0, "per_wwoc_drain": 0.0, "per_wwoc_open": 0.0, "per_wwoc_nodrn": 100.0, "per_cook_fire": 100.0, "per_cook_resdu": 0.0, "per_cook_cwdng": 0.0, "per_cook_coal": 0.0, "per_cook_kero": 0.0, "per_cook_lpng": 0.0, "per_cook_elec": 0.0, "per_cook_biogs": 0.0, "per_cook_oth": 0.0, "per_cook_no": 0.0, "per_kf_inside": 100.0, "per_kf_in_has": 100.0, "per_kf_in_does": 0.0, "per_kf_outside": 0.0, "per_kf_out_has": 0.0, "per_kf_out_dos": 0.0, "per_kf_no_cook": 0.0, "per_hh_banking": 47.2, "per_hh_radio": 52.8, "per_hh_tv": 0.0, "per_hh_cmp_int": 0.0, "per_hh_cmp_wnt": 0.0, "per_hh_ph_ll": 0.0, "per_hh_ph_mob": 2.8, "per_hh_ph_bth": 0.0, "per_hh_bcycl": 94.4, "per_hh_2wheel": 2.8, "per_hh_4wheel": 0.0, "per_hh_tvcomp": 0.0, "per_hh_no_ast": 5.6, "per_hs_perma": 0.0, "per_hs_sperma": 58.3, "per_hs_temp": 41.7, "per_hs_servc": 0.0, "per_hs_nservc": 41.7, "per_hs_unclss": 0.0, "avghhsz_cy": 5.64864865, "st_areashape": 31363.87350204, "st_lengthshape": 628.0581775956349}, "geometry": {"type": "Polygon", "coordinates": [[[90.50951784724484, 25.929406661197874], [90.5094284037886, 25.92940264681721], [90.50933984966453, 25.929390642452894], [90.50925306432325, 25.92937076928523], [90.50916891014742, 25.92934322281858], [90.50908822436692, 25.929308278536542], [90.50901180827897, 25.929266282207717], [90.50894042095996, 25.92921765150179], [90.50887477297735, 25.9291628711426], [90.50881551650794, 25.929102484021648], [90.50876323904996, 25.92903709039078], [90.5087184616263, 25.928967341399378], [90.50868162890305, 25.92889392859233], [90.50865310739276, 25.928817582294457], [90.5086331791665, 25.928739061916282], [90.50862204365023, 25.928659147067403], [90.50861981133676, 25.928578631901576], [90.50862650378564, 25.928498317037796], [90.50864205452152, 25.928419000673475], [90.50866630993251, 25.928341470505696], [90.50869902747347, 25.928266498075605], [90.50873988375089, 25.928194827457876], [90.50878847092966, 25.928127171220773], [90.50884430751279, 25.928064202347137], [90.50890683744306, 25.928006546154894], [90.508975440883, 25.927954775449347], [90.50904943421466, 25.92790940567548], [90.50912808261607, 25.92787088683848], [90.50921060545133, 25.92783960188764], [90.50929618166026, 25.927815862676553], [90.50938396053823, 25.927799903499622], [90.50947306982118, 25.92779188432347], [90.50956262466849, 25.92779188432347], [90.5096517339514, 25.927799903499622], [90.50973951282938, 25.927815862676553], [90.5098250890383, 25.92783960188764], [90.50990761187356, 25.92787088683848], [90.50998626027499, 25.92790940567548], [90.51006025360662, 25.927954775449347], [90.51012885704657, 25.928006546154894], [90.51019138697686, 25.928064202347137], [90.51024722355999, 25.928127171220773], [90.51029581073875, 25.928194827457876], [90.51033666701618, 25.928266498075605], [90.51036938455717, 25.928341470505696], [90.51039363996813, 25.928419000673475], [90.51040919070401, 25.928498317037796], [90.51041588315289, 25.928578631901576], [90.51041365083941, 25.928659147067403], [90.51040251532315, 25.928739061916282], [90.51038258709687, 25.928817582294457], [90.51035406558661, 25.92889392859233], [90.51031723286334, 25.928967341399378], [90.51027245543969, 25.92903709039078], [90.51022017798174, 25.929102484021648], [90.51016092151234, 25.9291628711426], [90.51009527352969, 25.92921765150179], [90.51002388621067, 25.929266282207717], [90.50994747012273, 25.929308278536542], [90.50986678434222, 25.92934322281858], [90.5097826301664, 25.92937076928523], [90.50969584482512, 25.929390642452894], [90.50960729070104, 25.92940264681721], [90.50951784724484, 25.929406661197874]]]}}]}