{"type": "FeatureCollection", "features": [{"type": "Feature", "properties": {"premiumdata.sde.IN_Village_PCA.area": 4.10270104, "objectid": 374465, "id": "9180794455981", "name": "Nigohi", "subdistrict": "Tilhar", "district": "Shahjahanpur", "state": "Uttar Pradesh", "country": "India", "censusname": "Nigohi", "villagename_locallang": null, "lgd_villagename": "Nigohi", "lgd_villagecode": 133945, "lgd_subdistrictcode": 794, "lgd_districtcode": 180, "lgd_statecode": 9, "censuscode2001": "02675900", "censuscode2011": "133945", "censuscode2021": null, "level": "Village", "tru": "Rural", "no_hh": 3194, "tot_p": 18523, "tot_m": 9767, "tot_f": 8756, "per_tot_m": 52.72903957, "per_tot_f": 47.27096043, "p_06": 2918, "m_06": 1485, "f_06": 1433, "per_p_06": 15.75338768, "per_m_06": 50.89102125, "per_f_06": 49.10897875, "p_sc": 1622, "m_sc": 842, "f_sc": 780, "per_p_sc": 8.75668088, "per_m_sc": 51.91122072, "per_f_sc": 48.08877928, "p_st": 0, "m_st": 0, "f_st": 0, "per_p_st": 0.0, "per_m_st": 0.0, "per_f_st": 0.0, "p_lit": 9683, "m_lit": 5847, "f_lit": 3836, "per_p_lit": 52.27554932, "per_m_lit": 60.38417846, "per_f_lit": 39.61582154, "p_ill": 8840, "m_ill": 3920, "f_ill": 4920, "per_p_ill": 47.72445068, "per_m_ill": 44.3438914, "per_f_ill": 55.6561086, "tot_work_p": 5215, "tot_work_m": 4676, "tot_work_f": 539, "per_tot_work_p": 28.15418669, "per_tot_work_m": 89.66442953, "per_tot_work_f": 10.33557047, "mainwork_p": 3604, "mainwork_m": 3350, "mainwork_f": 254, "per_mainwork_p": 19.45689143, "per_mainwork_m": 92.95227525, "per_mainwork_f": 7.04772475, "main_cl_p": 986, "main_cl_m": 951, "main_cl_f": 35, "per_main_cl_p": 27.35849057, "per_main_cl_m": 96.45030426, "per_main_cl_f": 3.54969574, "main_al_p": 432, "main_al_m": 413, "main_al_f": 19, "per_main_al_p": 11.98668147, "per_main_al_m": 95.60185185, "per_main_al_f": 4.39814815, "main_hh_p": 231, "main_hh_m": 193, "main_hh_f": 38, "per_main_hh_p": 6.40954495, "per_main_hh_m": 83.54978355, "per_main_hh_f": 16.45021645, "main_ot_p": 1955, "main_ot_m": 1793, "main_ot_f": 162, "per_main_ot_p": 54.24528302, "per_main_ot_m": 91.71355499, "per_main_ot_f": 8.28644501, "margwork_p": 1611, "margwork_m": 1326, "margwork_f": 285, "per_margwork_p": 8.69729525, "per_margwork_m": 82.30912477, "per_margwork_f": 17.69087523, "marg_cl_p": 94, "marg_cl_m": 77, "marg_cl_f": 17, "per_marg_cl_p": 5.83488516, "per_marg_cl_m": 81.91489362, "per_marg_cl_f": 18.08510638, "marg_al_p": 873, "marg_al_m": 819, "marg_al_f": 54, "per_marg_al_p": 54.18994413, "per_marg_al_m": 93.81443299, "per_marg_al_f": 6.18556701, "marg_hh_p": 76, "marg_hh_m": 41, "marg_hh_f": 35, "per_marg_hh_p": 4.71756673, "per_marg_hh_m": 53.94736842, "per_marg_hh_f": 46.05263158, "marg_ot_p": 568, "marg_ot_m": 389, "marg_ot_f": 179, "per_marg_ot_p": 35.25760397, "per_marg_ot_m": 68.48591549, "per_marg_ot_f": 31.51408451, "margwork_3_6_p": 1520, "margwork_3_6_m": 1259, "margwork_3_6_f": 261, "per_margwork_3_6_p": 94.35133457, "per_margwork_3_6_m": 82.82894737000001, "per_margwork_3_6_f": 17.17105263, "marg_cl_3_6_p": 94, "marg_cl_3_6_m": 77, "marg_cl_3_6_f": 17, "per_marg_cl_3_6_p": 5.83488516, "per_marg_cl_3_6_m": 81.91489362, "per_marg_cl_3_6_f": 18.08510638, "marg_al_3_6_p": 808, "marg_al_3_6_m": 767, "marg_al_3_6_f": 41, "per_marg_al_3_6_p": 50.15518312, "per_marg_al_3_6_m": 94.92574257000001, "per_marg_al_3_6_f": 5.07425743, "marg_hh_3_6_p": 65, "marg_hh_3_6_m": 36, "marg_hh_3_6_f": 29, "per_marg_hh_3_6_p": 4.03476102, "per_marg_hh_3_6_m": 55.38461538, "per_marg_hh_3_6_f": 44.61538462, "marg_ot_3_6_p": 553, "marg_ot_3_6_m": 379, "marg_ot_3_6_f": 174, "per_marg_ot_3_6_p": 34.32650528000001, "per_marg_ot_3_6_m": 68.53526221, "per_marg_ot_3_6_f": 31.46473779, "margwork_0_3_p": 91, "margwork_0_3_m": 67, "margwork_0_3_f": 24, "per_margwork_0_3_p": 5.64866543, "per_margwork_0_3_m": 73.62637363, "per_margwork_0_3_f": 26.37362637, "marg_cl_0_3_p": 0, "marg_cl_0_3_m": 0, "marg_cl_0_3_f": 0, "per_marg_cl_0_3_p": 0.0, "per_marg_cl_0_3_m": 0.0, "per_marg_cl_0_3_f": 0.0, "marg_al_0_3_p": 65, "marg_al_0_3_m": 52, "marg_al_0_3_f": 13, "per_marg_al_0_3_p": 4.03476102, "per_marg_al_0_3_m": 80.0, "per_marg_al_0_3_f": 20.0, "marg_hh_0_3_p": 11, "marg_hh_0_3_m": 5, "marg_hh_0_3_f": 6, "per_marg_hh_0_3_p": 0.68280571, "per_marg_hh_0_3_m": 45.45454545, "per_marg_hh_0_3_f": 54.54545455, "marg_ot_0_3_p": 15, "marg_ot_0_3_m": 10, "marg_ot_0_3_f": 5, "per_marg_ot_0_3_p": 0.9310987, "per_marg_ot_0_3_m": 66.66666667, "per_marg_ot_0_3_f": 33.33333333, "non_work_p": 13308, "non_work_m": 5091, "non_work_f": 8217, "per_non_work_p": 71.84581331, "per_non_work_m": 38.25518485, "per_non_work_f": 61.74481515, "per_hc_tot_tot": 100, "per_hc_tot_god": 33.9, "per_hc_tot_liv": 58.5, "per_hc_tot_dil": 7.6, "per_hc_res_tot": 94.7, "per_hc_res_god": 31.3, "per_hc_res_liv": 56.2, "per_hc_res_dil": 7.1, "per_hc_oth_tot": 5.3, "per_hc_oth_god": 2.6, "per_hc_oth_liv": 2.3, "per_hc_oth_dil": 0.4, "per_mt_grsbam": 22.9, "per_mt_plastic": 0.6, "per_mt_h_tiles": 0.6, "per_mt_m_tiles": 0.1, "per_mt_b_brick": 53.0, "per_mt_stone": 4.2, "per_mt_asbstos": 3.5, "per_mt_concrte": 15.0, "per_mt_oth": 0.1, "per_mw_grsbam": 2.7, "per_mw_plastic": 0.3, "per_mw_mud": 7.6, "per_mw_wood": 0.0, "per_mw_no_mrtr": 0.6, "per_mw_st_mrtr": 0.3, "per_mw_asbstos": 0.0, "per_mw_b_brick": 83.2, "per_mw_concrte": 1.4, "per_mw_oth": 3.8, "per_mf_mud": 62.0, "per_mf_wood": 0.0, "per_mf_b_brick": 8.8, "per_mf_stone": 0.4, "per_mf_cement": 27.7, "per_mf_fl_tile": 1.1, "per_mf_oth": 0.0, "per_dw_n_exrm": 5.2, "per_dw_1_room": 43.1, "per_dw_2_room": 32.2, "per_dw_3_room": 10.9, "per_dw_4_room": 5.2, "per_dw_5_room": 1.8, "per_dw_6_room": 1.7, "per_hhsize_1": 2.2, "per_hhsize_2": 6.4, "per_hhsize_3": 9.2, "per_hhsize_4": 12.9, "per_hhsize_5": 17.2, "per_hhsize_6_8": 38.1, "per_hhsize_9p": 14.0, "per_ow_owned": 92.9, "per_ow_rented": 4.7, "per_ow_oth": 2.4, "per_mc_none": 6.3, "per_mcouple_1": 74.3, "per_mcouple_2": 14.4, "per_mcouple_3": 3.9, "per_mcouple_4": 0.8, "per_mcouple_5p": 0.3, "per_dw_t_ts": 19.9, "per_dw_t_unts": 3.0, "per_dw_c_well": 0.1, "per_dw_unc_wel": 0.1, "per_dw_hpump": 73.7, "per_dw_tw_bore": 2.2, "per_dw_spring": 0.0, "per_dw_rivcan": 0.1, "per_dw_tank": 0.0, "per_dw_oth": 0.8, "per_loc_dw_wp": 82.7, "per_loc_dw_np": 13.0, "per_loc_dw_aw": 4.3, "per_light_elec": 51.2, "per_light_kero": 48.3, "per_light_solr": 0.1, "per_light_oil": 0.0, "per_light_oth": 0.4, "per_light_no": 0.0, "per_hh_latrine": 77.7, "per_fl_sewer": 4.7, "per_fl_septict": 54.0, "per_fl_othsys": 3.3, "per_pl_wslab": 11.6, "per_pl_without": 1.1, "per_ns_open": 0.2, "per_sl_ns_hum": 2.8, "per_sl_ns_anml": 0.0, "per_hh_no_lat": 22.3, "per_as_pub": 1.1, "per_as_open": 21.1, "per_hh_bathrm": 38.1, "per_hh_en_wrf": 18.1, "per_hh_no_btrm": 43.8, "per_wwoc_drain": 10.5, "per_wwoc_open": 83.3, "per_wwoc_nodrn": 6.2, "per_cook_fire": 47.5, "per_cook_resdu": 1.9, "per_cook_cwdng": 11.3, "per_cook_coal": 0.0, "per_cook_kero": 0.1, "per_cook_lpng": 38.9, "per_cook_elec": 0.1, "per_cook_biogs": 0.1, "per_cook_oth": 0.0, "per_cook_no": 0.1, "per_kf_inside": 91.4, "per_kf_in_has": 33.8, "per_kf_in_does": 57.6, "per_kf_outside": 8.4, "per_kf_out_has": 5.4, "per_kf_out_dos": 3.0, "per_kf_no_cook": 0.1, "per_hh_banking": 62.2, "per_hh_radio": 24.1, "per_hh_tv": 42.6, "per_hh_cmp_int": 1.1, "per_hh_cmp_wnt": 6.7, "per_hh_ph_ll": 1.8, "per_hh_ph_mob": 65.8, "per_hh_ph_bth": 2.0, "per_hh_bcycl": 54.0, "per_hh_2wheel": 17.5, "per_hh_4wheel": 2.4, "per_hh_tvcomp": 1.3, "per_hh_no_ast": 14.3, "per_hs_perma": 71.5, "per_hs_sperma": 15.1, "per_hs_temp": 9.4, "per_hs_servc": 6.7, "per_hs_nservc": 2.8, "per_hs_unclss": 4.0, "avghhsz_cy": 5.79931121, "st_areashape": 5293759.226824825, "st_lengthshape": 10901.732143894278}, "geometry": {"type": "Polygon", "coordinates": [[[79.85817866440655, 28.125001995007345], [79.85616063684999, 28.125036975713932], [79.85446022752679, 28.12518575014605], [79.85317836485403, 28.125319022593242], [79.8518222833725, 28.125472968375803], [79.85144494873232, 28.125633106867134], [79.85133654004385, 28.124439354196877], [79.85114858374033, 28.12397865970424], [79.85068798515479, 28.123622853688996], [79.85000563025487, 28.12328549972167], [79.84949165197852, 28.123146916624133], [79.84882634171281, 28.123202272401947], [79.84800885773629, 28.123495147097557], [79.84729225456614, 28.1236587300918], [79.84642933290422, 28.123754680633922], [79.84512246832045, 28.123909321090842], [79.8444792197798, 28.124095807403997], [79.84356795797581, 28.124147403467283], [79.8427126558241, 28.124182344840246], [79.84259578949722, 28.124013279478465], [79.84190839055698, 28.12393744601225], [79.84068076726275, 28.12380982139756], [79.8393839781832, 28.12344129992427], [79.83875082670635, 28.123104648910115], [79.83792050670273, 28.122786805878135], [79.83740613855754, 28.122669970483095], [79.8369880320816, 28.122663620514427], [79.83654237247926, 28.122809485102124], [79.83621843729284, 28.123022582900177], [79.83586694628512, 28.12338789480237], [79.83576073218089, 28.12360333414478], [79.83506265406854, 28.122977985897766], [79.83462795211601, 28.12255713033505], [79.83416994696674, 28.122070504845727], [79.83400706084613, 28.121588364556793], [79.83396841172936, 28.121042697701554], [79.83407607032458, 28.120564670249454], [79.834181182196, 28.120217419020914], [79.83440632785397, 28.12002461228101], [79.83450829292691, 28.11984084988015], [79.83434372246518, 28.119445887328357], [79.83402820718794, 28.11922305394105], [79.8336860146417, 28.119108840301035], [79.83329250583486, 28.119102855365735], [79.83277520289367, 28.119138596215542], [79.83220953555588, 28.11912999039741], [79.83174900164906, 28.118774131052394], [79.83139149372556, 28.118180012214268], [79.83077571207302, 28.11694965535892], [79.83056238734585, 28.116532154525068], [79.8315469310158, 28.11521573331653], [79.83184753515765, 28.114936870328886], [79.8324674203144, 28.11468465470375], [79.83288592384571, 28.114669231409763], [79.83362202225413, 28.11476763430097], [79.8345044247813, 28.114933674911512], [79.83519261783225, 28.1149659412542], [79.8357357724907, 28.114865185359783], [79.83618518166104, 28.114523160044318], [79.83678173487492, 28.114205174308843], [79.83752836064016, 28.113758648592583], [79.83797777879364, 28.113416618163374], [79.83851273812176, 28.11246539610652], [79.83897540642567, 28.11143675367383], [79.83928019492014, 28.11093991507061], [79.83948029554799, 28.110768523093924], [79.83992253077245, 28.11079702465836], [79.84019179269404, 28.11086652625919], [79.84046440353497, 28.110761650262738], [79.84089088410602, 28.11033204039028], [79.84166586159995, 28.109689705064216], [79.84279141202337, 28.108725611286914], [79.84492481021185, 28.107798581486986], [79.84734124868173, 28.106221698824275], [79.8495329681934, 28.104815811225727], [79.85165110849677, 28.103307655074236], [79.85196595722407, 28.103248241426872], [79.85213684014732, 28.1033162399747], [79.85262530806621, 28.103498048892373], [79.85301540686822, 28.103678370165493], [79.85388771861983, 28.104367442135697], [79.85555021724139, 28.10618042838726], [79.85623126329597, 28.106583171041613], [79.8563355370392, 28.107490996308353], [79.85532420830245, 28.108815695859185], [79.85469815531296, 28.110612268684743], [79.85442413860856, 28.111190714865483], [79.85375919934705, 28.111588489737663], [79.85322569259478, 28.111988245568025], [79.85334145489216, 28.112805598486748], [79.85372117815268, 28.1135686921271], [79.8556713164299, 28.11470501414568], [79.85749562948193, 28.115548135364353], [79.85808034379869, 28.115906498024753], [79.85832439180689, 28.116704190149896], [79.85876076732075, 28.11813052949666], [79.86002820035512, 28.120596423087456], [79.86137588258875, 28.122306156681045], [79.86168997044304, 28.123068228833148], [79.86184919143724, 28.123165804822722], [79.8606419976292, 28.123554366518533], [79.86002294341407, 28.123763064250145], [79.85905706583745, 28.124097364967554], [79.85843509838585, 28.124458646213878], [79.8581816306436, 28.12484726739535], [79.85817866440655, 28.125001995007345]]]}}]}