{"type": "FeatureCollection", "features": [{"type": "Feature", "properties": {"premiumdata.sde.IN_Village_PCA.area": 1.8402854, "objectid": 594573, "id": "102171302299085", "name": "Sapri", "subdistrict": "Hasanpur", "district": "Samastipur", "state": "Bihar", "country": "India", "censusname": "Sapri", "villagename_locallang": null, "lgd_villagename": "Sapri", "lgd_villagecode": 237277, "lgd_subdistrictcode": 1302, "lgd_districtcode": 217, "lgd_statecode": 10, "censuscode2001": "02133400", "censuscode2011": "237277", "censuscode2021": null, "level": "Village", "tru": "Rural", "no_hh": 274, "tot_p": 1401, "tot_m": 698, "tot_f": 703, "per_tot_m": 49.82155603, "per_tot_f": 50.17844397, "p_06": 355, "m_06": 171, "f_06": 184, "per_p_06": 25.33904354, "per_m_06": 48.16901408, "per_f_06": 51.83098592, "p_sc": 481, "m_sc": 253, "f_sc": 228, "per_p_sc": 34.33261956, "per_m_sc": 52.5987526, "per_f_sc": 47.4012474, "p_st": 1, "m_st": 0, "f_st": 1, "per_p_st": 0.07137759, "per_m_st": 0.0, "per_f_st": 100.0, "p_lit": 592, "m_lit": 345, "f_lit": 247, "per_p_lit": 42.25553176, "per_m_lit": 58.27702703, "per_f_lit": 41.72297297, "p_ill": 809, "m_ill": 353, "f_ill": 456, "per_p_ill": 57.74446824, "per_m_ill": 43.63411619, "per_f_ill": 56.36588381, "tot_work_p": 474, "tot_work_m": 288, "tot_work_f": 186, "per_tot_work_p": 33.83297645, "per_tot_work_m": 60.75949367, "per_tot_work_f": 39.24050633, "mainwork_p": 103, "mainwork_m": 92, "mainwork_f": 11, "per_mainwork_p": 7.35189151, "per_mainwork_m": 89.32038835, "per_mainwork_f": 10.67961165, "main_cl_p": 21, "main_cl_m": 20, "main_cl_f": 1, "per_main_cl_p": 20.38834951, "per_main_cl_m": 95.23809524, "per_main_cl_f": 4.76190476, "main_al_p": 16, "main_al_m": 12, "main_al_f": 4, "per_main_al_p": 15.53398058, "per_main_al_m": 75.0, "per_main_al_f": 25.0, "main_hh_p": 1, "main_hh_m": 1, "main_hh_f": 0, "per_main_hh_p": 0.97087379, "per_main_hh_m": 100.0, "per_main_hh_f": 0.0, "main_ot_p": 65, "main_ot_m": 59, "main_ot_f": 6, "per_main_ot_p": 63.10679612, "per_main_ot_m": 90.76923077, "per_main_ot_f": 9.23076923, "margwork_p": 371, "margwork_m": 196, "margwork_f": 175, "per_margwork_p": 26.48108494, "per_margwork_m": 52.83018868, "per_margwork_f": 47.16981132, "marg_cl_p": 5, "marg_cl_m": 5, "marg_cl_f": 0, "per_marg_cl_p": 1.34770889, "per_marg_cl_m": 100.0, "per_marg_cl_f": 0.0, "marg_al_p": 311, "marg_al_m": 158, "marg_al_f": 153, "per_marg_al_p": 83.82749326, "per_marg_al_m": 50.80385852000001, "per_marg_al_f": 49.19614148, "marg_hh_p": 7, "marg_hh_m": 1, "marg_hh_f": 6, "per_marg_hh_p": 1.88679245, "per_marg_hh_m": 14.28571429, "per_marg_hh_f": 85.71428571, "marg_ot_p": 48, "marg_ot_m": 32, "marg_ot_f": 16, "per_marg_ot_p": 12.93800539, "per_marg_ot_m": 66.66666667, "per_marg_ot_f": 33.33333333, "margwork_3_6_p": 355, "margwork_3_6_m": 191, "margwork_3_6_f": 164, "per_margwork_3_6_p": 95.68733153999999, "per_margwork_3_6_m": 53.8028169, "per_margwork_3_6_f": 46.1971831, "marg_cl_3_6_p": 4, "marg_cl_3_6_m": 4, "marg_cl_3_6_f": 0, "per_marg_cl_3_6_p": 1.07816712, "per_marg_cl_3_6_m": 100.0, "per_marg_cl_3_6_f": 0.0, "marg_al_3_6_p": 306, "marg_al_3_6_m": 155, "marg_al_3_6_f": 151, "per_marg_al_3_6_p": 82.47978437, "per_marg_al_3_6_m": 50.65359477, "per_marg_al_3_6_f": 49.34640523, "marg_hh_3_6_p": 4, "marg_hh_3_6_m": 1, "marg_hh_3_6_f": 3, "per_marg_hh_3_6_p": 1.07816712, "per_marg_hh_3_6_m": 25.0, "per_marg_hh_3_6_f": 75.0, "marg_ot_3_6_p": 41, "marg_ot_3_6_m": 31, "marg_ot_3_6_f": 10, "per_marg_ot_3_6_p": 11.05121294, "per_marg_ot_3_6_m": 75.6097561, "per_marg_ot_3_6_f": 24.3902439, "margwork_0_3_p": 16, "margwork_0_3_m": 5, "margwork_0_3_f": 11, "per_margwork_0_3_p": 4.31266846, "per_margwork_0_3_m": 31.25, "per_margwork_0_3_f": 68.75, "marg_cl_0_3_p": 1, "marg_cl_0_3_m": 1, "marg_cl_0_3_f": 0, "per_marg_cl_0_3_p": 0.26954178, "per_marg_cl_0_3_m": 100.0, "per_marg_cl_0_3_f": 0.0, "marg_al_0_3_p": 5, "marg_al_0_3_m": 3, "marg_al_0_3_f": 2, "per_marg_al_0_3_p": 1.34770889, "per_marg_al_0_3_m": 60.0, "per_marg_al_0_3_f": 40.0, "marg_hh_0_3_p": 3, "marg_hh_0_3_m": 0, "marg_hh_0_3_f": 3, "per_marg_hh_0_3_p": 0.80862534, "per_marg_hh_0_3_m": 0.0, "per_marg_hh_0_3_f": 100.0, "marg_ot_0_3_p": 7, "marg_ot_0_3_m": 1, "marg_ot_0_3_f": 6, "per_marg_ot_0_3_p": 1.88679245, "per_marg_ot_0_3_m": 14.28571429, "per_marg_ot_0_3_f": 85.71428571, "non_work_p": 927, "non_work_m": 410, "non_work_f": 517, "per_non_work_p": 66.16702355, "per_non_work_m": 44.22869471, "per_non_work_f": 55.77130529, "per_hc_tot_tot": 100, "per_hc_tot_god": 49.0, "per_hc_tot_liv": 51.0, "per_hc_tot_dil": 0.0, "per_hc_res_tot": 99.7, "per_hc_res_god": 48.7, "per_hc_res_liv": 51.0, "per_hc_res_dil": 0.0, "per_hc_oth_tot": 0.3, "per_hc_oth_god": 0.3, "per_hc_oth_liv": 0.0, "per_hc_oth_dil": 0.0, "per_mt_grsbam": 51.0, "per_mt_plastic": 0.0, "per_mt_h_tiles": 17.1, "per_mt_m_tiles": 0.0, "per_mt_b_brick": 0.0, "per_mt_stone": 0.0, "per_mt_asbstos": 1.0, "per_mt_concrte": 30.9, "per_mt_oth": 0.0, "per_mw_grsbam": 40.5, "per_mw_plastic": 0.0, "per_mw_mud": 1.6, "per_mw_wood": 0.7, "per_mw_no_mrtr": 0.0, "per_mw_st_mrtr": 0.0, "per_mw_asbstos": 0.0, "per_mw_b_brick": 56.6, "per_mw_concrte": 0.7, "per_mw_oth": 0.0, "per_mf_mud": 82.2, "per_mf_wood": 0.0, "per_mf_b_brick": 0.0, "per_mf_stone": 0.0, "per_mf_cement": 17.8, "per_mf_fl_tile": 0.0, "per_mf_oth": 0.0, "per_dw_n_exrm": 0.3, "per_dw_1_room": 76.6, "per_dw_2_room": 17.1, "per_dw_3_room": 4.6, "per_dw_4_room": 1.3, "per_dw_5_room": 0.0, "per_dw_6_room": 0.0, "per_hhsize_1": 1.3, "per_hhsize_2": 12.2, "per_hhsize_3": 11.5, "per_hhsize_4": 13.2, "per_hhsize_5": 16.1, "per_hhsize_6_8": 37.5, "per_hhsize_9p": 8.2, "per_ow_owned": 99.0, "per_ow_rented": 0.7, "per_ow_oth": 0.3, "per_mc_none": 1.3, "per_mcouple_1": 89.8, "per_mcouple_2": 6.6, "per_mcouple_3": 2.0, "per_mcouple_4": 0.3, "per_mcouple_5p": 0.0, "per_dw_t_ts": 0.0, "per_dw_t_unts": 0.0, "per_dw_c_well": 0.0, "per_dw_unc_wel": 0.0, "per_dw_hpump": 100.0, "per_dw_tw_bore": 0.0, "per_dw_spring": 0.0, "per_dw_rivcan": 0.0, "per_dw_tank": 0.0, "per_dw_oth": 0.0, "per_loc_dw_wp": 51.3, "per_loc_dw_np": 31.2, "per_loc_dw_aw": 17.4, "per_light_elec": 0.0, "per_light_kero": 100.0, "per_light_solr": 0.0, "per_light_oil": 0.0, "per_light_oth": 0.0, "per_light_no": 0.0, "per_hh_latrine": 25.7, "per_fl_sewer": 0.0, "per_fl_septict": 25.7, "per_fl_othsys": 0.0, "per_pl_wslab": 0.0, "per_pl_without": 0.0, "per_ns_open": 0.0, "per_sl_ns_hum": 0.0, "per_sl_ns_anml": 0.0, "per_hh_no_lat": 74.3, "per_as_pub": 1.3, "per_as_open": 73.0, "per_hh_bathrm": 9.2, "per_hh_en_wrf": 36.2, "per_hh_no_btrm": 54.6, "per_wwoc_drain": 1.3, "per_wwoc_open": 20.4, "per_wwoc_nodrn": 78.3, "per_cook_fire": 30.6, "per_cook_resdu": 68.8, "per_cook_cwdng": 0.0, "per_cook_coal": 0.7, "per_cook_kero": 0.0, "per_cook_lpng": 0.0, "per_cook_elec": 0.0, "per_cook_biogs": 0.0, "per_cook_oth": 0.0, "per_cook_no": 0.0, "per_kf_inside": 87.2, "per_kf_in_has": 20.1, "per_kf_in_does": 67.1, "per_kf_outside": 12.8, "per_kf_out_has": 11.8, "per_kf_out_dos": 1.0, "per_kf_no_cook": 0.0, "per_hh_banking": 22.7, "per_hh_radio": 19.1, "per_hh_tv": 0.0, "per_hh_cmp_int": 0.0, "per_hh_cmp_wnt": 0.0, "per_hh_ph_ll": 1.0, "per_hh_ph_mob": 46.1, "per_hh_ph_bth": 0.3, "per_hh_bcycl": 40.1, "per_hh_2wheel": 5.3, "per_hh_4wheel": 1.3, "per_hh_tvcomp": 0.0, "per_hh_no_ast": 38.5, "per_hs_perma": 48.0, "per_hs_sperma": 10.2, "per_hs_temp": 41.8, "per_hs_servc": 1.3, "per_hs_nservc": 40.5, "per_hs_unclss": 0.0, "avghhsz_cy": 5.11313869, "st_areashape": 2277656.004665875, "st_lengthshape": 6711.08024034211}, "geometry": {"type": "Polygon", "coordinates": [[[86.17284601233224, 25.746286252180695], [86.17267037103294, 25.746998171848244], [86.17196780493742, 25.74739368111105], [86.16920145200316, 25.748580200190023], [86.16726939591426, 25.749213006113173], [86.16599599537145, 25.749450307566395], [86.16472259482866, 25.749331657303586], [86.16269414142492, 25.748271435297212], [86.16349310483527, 25.74727502798499], [86.16353701538466, 25.74652355867114], [86.16318573278609, 25.746207149372488], [86.16217579374306, 25.746246700783182], [86.16116585559838, 25.74644445683005], [86.16015542966846, 25.746247686311523], [86.15932162060828, 25.745732533035323], [86.15826777191418, 25.744901951096818], [86.15673090897327, 25.743398977696277], [86.15444757028581, 25.74090716390649], [86.15234714475982, 25.73894663746081], [86.15236625282425, 25.738931084090517], [86.15314107401129, 25.736297485026437], [86.15429109094984, 25.736607010125685], [86.15682884330558, 25.736121907792473], [86.15931877025389, 25.735912299106648], [86.16194450001531, 25.735855321214736], [86.1646493695566, 25.735721015382182], [86.16572630764843, 25.735795465752897], [86.16599737518372, 25.737350772243058], [86.16652568967369, 25.738669757063278], [86.16678945480403, 25.739918181365603], [86.16705663982067, 25.740968074382437], [86.17034450340495, 25.740816442640757], [86.17087365602306, 25.742216615335067], [86.17284601233224, 25.746286252180695]]]}}]}