{"type": "FeatureCollection", "features": [{"type": "Feature", "properties": {"premiumdata.sde.IN_Village_PCA.area": 0.99814682, "objectid": 363955, "id": "9125922412728", "name": "Harrajpur", "subdistrict": "Kaiserganj", "district": "Bahraich", "state": "Uttar Pradesh", "country": "India", "censusname": "Harrajpur", "villagename_locallang": null, "lgd_villagename": "Harrajpur", "lgd_villagecode": 172488, "lgd_subdistrictcode": 922, "lgd_districtcode": 125, "lgd_statecode": 9, "censuscode2001": "06536300", "censuscode2011": "172488", "censuscode2021": null, "level": "Village", "tru": "Rural", "no_hh": 138, "tot_p": 836, "tot_m": 469, "tot_f": 367, "per_tot_m": 56.10047847, "per_tot_f": 43.89952153, "p_06": 153, "m_06": 91, "f_06": 62, "per_p_06": 18.30143541, "per_m_06": 59.47712418, "per_f_06": 40.52287582, "p_sc": 209, "m_sc": 126, "f_sc": 83, "per_p_sc": 25.0, "per_m_sc": 60.28708134, "per_f_sc": 39.71291866, "p_st": 0, "m_st": 0, "f_st": 0, "per_p_st": 0.0, "per_m_st": 0.0, "per_f_st": 0.0, "p_lit": 298, "m_lit": 197, "f_lit": 101, "per_p_lit": 35.64593301, "per_m_lit": 66.10738255, "per_f_lit": 33.89261745, "p_ill": 538, "m_ill": 272, "f_ill": 266, "per_p_ill": 64.35406699, "per_m_ill": 50.55762082, "per_f_ill": 49.44237918, "tot_work_p": 335, "tot_work_m": 255, "tot_work_f": 80, "per_tot_work_p": 40.07177033, "per_tot_work_m": 76.11940299, "per_tot_work_f": 23.88059701, "mainwork_p": 97, "mainwork_m": 95, "mainwork_f": 2, "per_mainwork_p": 11.60287081, "per_mainwork_m": 97.93814433, "per_mainwork_f": 2.06185567, "main_cl_p": 90, "main_cl_m": 89, "main_cl_f": 1, "per_main_cl_p": 92.78350515000001, "per_main_cl_m": 98.88888889, "per_main_cl_f": 1.11111111, "main_al_p": 0, "main_al_m": 0, "main_al_f": 0, "per_main_al_p": 0.0, "per_main_al_m": 0.0, "per_main_al_f": 0.0, "main_hh_p": 0, "main_hh_m": 0, "main_hh_f": 0, "per_main_hh_p": 0.0, "per_main_hh_m": 0.0, "per_main_hh_f": 0.0, "main_ot_p": 7, "main_ot_m": 6, "main_ot_f": 1, "per_main_ot_p": 7.21649485, "per_main_ot_m": 85.71428571, "per_main_ot_f": 14.28571429, "margwork_p": 238, "margwork_m": 160, "margwork_f": 78, "per_margwork_p": 28.46889952, "per_margwork_m": 67.22689076, "per_margwork_f": 32.77310924, "marg_cl_p": 60, "marg_cl_m": 53, "marg_cl_f": 7, "per_marg_cl_p": 25.21008403, "per_marg_cl_m": 88.33333332999999, "per_marg_cl_f": 11.66666667, "marg_al_p": 160, "marg_al_m": 101, "marg_al_f": 59, "per_marg_al_p": 67.22689076, "per_marg_al_m": 63.125, "per_marg_al_f": 36.875, "marg_hh_p": 0, "marg_hh_m": 0, "marg_hh_f": 0, "per_marg_hh_p": 0.0, "per_marg_hh_m": 0.0, "per_marg_hh_f": 0.0, "marg_ot_p": 18, "marg_ot_m": 6, "marg_ot_f": 12, "per_marg_ot_p": 7.56302521, "per_marg_ot_m": 33.33333333, "per_marg_ot_f": 66.66666667, "margwork_3_6_p": 184, "margwork_3_6_m": 150, "margwork_3_6_f": 34, "per_margwork_3_6_p": 77.31092437000001, "per_margwork_3_6_m": 81.52173913, "per_margwork_3_6_f": 18.47826087, "marg_cl_3_6_p": 53, "marg_cl_3_6_m": 50, "marg_cl_3_6_f": 3, "per_marg_cl_3_6_p": 22.26890756, "per_marg_cl_3_6_m": 94.33962264, "per_marg_cl_3_6_f": 5.66037736, "marg_al_3_6_p": 114, "marg_al_3_6_m": 94, "marg_al_3_6_f": 20, "per_marg_al_3_6_p": 47.89915966, "per_marg_al_3_6_m": 82.45614035000001, "per_marg_al_3_6_f": 17.54385965, "marg_hh_3_6_p": 0, "marg_hh_3_6_m": 0, "marg_hh_3_6_f": 0, "per_marg_hh_3_6_p": 0.0, "per_marg_hh_3_6_m": 0.0, "per_marg_hh_3_6_f": 0.0, "marg_ot_3_6_p": 17, "marg_ot_3_6_m": 6, "marg_ot_3_6_f": 11, "per_marg_ot_3_6_p": 7.14285714, "per_marg_ot_3_6_m": 35.29411765, "per_marg_ot_3_6_f": 64.70588235, "margwork_0_3_p": 54, "margwork_0_3_m": 10, "margwork_0_3_f": 44, "per_margwork_0_3_p": 22.68907563, "per_margwork_0_3_m": 18.51851852, "per_margwork_0_3_f": 81.48148148, "marg_cl_0_3_p": 7, "marg_cl_0_3_m": 3, "marg_cl_0_3_f": 4, "per_marg_cl_0_3_p": 2.94117647, "per_marg_cl_0_3_m": 42.85714286, "per_marg_cl_0_3_f": 57.14285714, "marg_al_0_3_p": 46, "marg_al_0_3_m": 7, "marg_al_0_3_f": 39, "per_marg_al_0_3_p": 19.32773109, "per_marg_al_0_3_m": 15.2173913, "per_marg_al_0_3_f": 84.7826087, "marg_hh_0_3_p": 0, "marg_hh_0_3_m": 0, "marg_hh_0_3_f": 0, "per_marg_hh_0_3_p": 0.0, "per_marg_hh_0_3_m": 0.0, "per_marg_hh_0_3_f": 0.0, "marg_ot_0_3_p": 1, "marg_ot_0_3_m": 0, "marg_ot_0_3_f": 1, "per_marg_ot_0_3_p": 0.42016807, "per_marg_ot_0_3_m": 0.0, "per_marg_ot_0_3_f": 100.0, "non_work_p": 501, "non_work_m": 214, "non_work_f": 287, "per_non_work_p": 59.92822967, "per_non_work_m": 42.71457086, "per_non_work_f": 57.28542914000001, "per_hc_tot_tot": 100, "per_hc_tot_god": 0.7, "per_hc_tot_liv": 97.1, "per_hc_tot_dil": 2.2, "per_hc_res_tot": 100.0, "per_hc_res_god": 0.7, "per_hc_res_liv": 97.1, "per_hc_res_dil": 2.2, "per_hc_oth_tot": 0.0, "per_hc_oth_god": 0.0, "per_hc_oth_liv": 0.0, "per_hc_oth_dil": 0.0, "per_mt_grsbam": 41.0, "per_mt_plastic": 1.4, "per_mt_h_tiles": 0.7, "per_mt_m_tiles": 0.0, "per_mt_b_brick": 56.1, "per_mt_stone": 0.0, "per_mt_asbstos": 0.0, "per_mt_concrte": 0.0, "per_mt_oth": 0.7, "per_mw_grsbam": 16.5, "per_mw_plastic": 0.7, "per_mw_mud": 15.8, "per_mw_wood": 0.7, "per_mw_no_mrtr": 0.0, "per_mw_st_mrtr": 2.2, "per_mw_asbstos": 0.0, "per_mw_b_brick": 53.2, "per_mw_concrte": 0.0, "per_mw_oth": 10.8, "per_mf_mud": 97.1, "per_mf_wood": 0.0, "per_mf_b_brick": 2.2, "per_mf_stone": 0.0, "per_mf_cement": 0.7, "per_mf_fl_tile": 0.0, "per_mf_oth": 0.0, "per_dw_n_exrm": 4.3, "per_dw_1_room": 79.9, "per_dw_2_room": 12.2, "per_dw_3_room": 2.9, "per_dw_4_room": 0.7, "per_dw_5_room": 0.0, "per_dw_6_room": 0.0, "per_hhsize_1": 10.1, "per_hhsize_2": 7.2, "per_hhsize_3": 7.2, "per_hhsize_4": 12.9, "per_hhsize_5": 13.7, "per_hhsize_6_8": 25.9, "per_hhsize_9p": 23.0, "per_ow_owned": 100.0, "per_ow_rented": 0.0, "per_ow_oth": 0.0, "per_mc_none": 15.1, "per_mcouple_1": 56.1, "per_mcouple_2": 21.6, "per_mcouple_3": 6.5, "per_mcouple_4": 0.7, "per_mcouple_5p": 0.0, "per_dw_t_ts": 97.8, "per_dw_t_unts": 0.0, "per_dw_c_well": 0.0, "per_dw_unc_wel": 0.0, "per_dw_hpump": 0.0, "per_dw_tw_bore": 0.0, "per_dw_spring": 0.0, "per_dw_rivcan": 0.0, "per_dw_tank": 2.2, "per_dw_oth": 0.0, "per_loc_dw_wp": 0.0, "per_loc_dw_np": 99.3, "per_loc_dw_aw": 0.7, "per_light_elec": 0.7, "per_light_kero": 98.6, "per_light_solr": 0.7, "per_light_oil": 0.0, "per_light_oth": 0.0, "per_light_no": 0.0, "per_hh_latrine": 3.6, "per_fl_sewer": 0.7, "per_fl_septict": 2.9, "per_fl_othsys": 0.0, "per_pl_wslab": 0.0, "per_pl_without": 0.0, "per_ns_open": 0.0, "per_sl_ns_hum": 0.0, "per_sl_ns_anml": 0.0, "per_hh_no_lat": 96.4, "per_as_pub": 0.0, "per_as_open": 96.4, "per_hh_bathrm": 0.7, "per_hh_en_wrf": 95.7, "per_hh_no_btrm": 3.6, "per_wwoc_drain": 1.4, "per_wwoc_open": 0.7, "per_wwoc_nodrn": 97.8, "per_cook_fire": 98.6, "per_cook_resdu": 0.0, "per_cook_cwdng": 0.0, "per_cook_coal": 0.0, "per_cook_kero": 0.0, "per_cook_lpng": 0.0, "per_cook_elec": 0.0, "per_cook_biogs": 0.0, "per_cook_oth": 0.7, "per_cook_no": 0.7, "per_kf_inside": 96.4, "per_kf_in_has": 96.4, "per_kf_in_does": 0.0, "per_kf_outside": 2.9, "per_kf_out_has": 0.0, "per_kf_out_dos": 2.9, "per_kf_no_cook": 0.7, "per_hh_banking": 92.8, "per_hh_radio": 0.0, "per_hh_tv": 2.2, "per_hh_cmp_int": 0.0, "per_hh_cmp_wnt": 0.7, "per_hh_ph_ll": 0.7, "per_hh_ph_mob": 4.3, "per_hh_ph_bth": 0.7, "per_hh_bcycl": 2.2, "per_hh_2wheel": 0.0, "per_hh_4wheel": 0.0, "per_hh_tvcomp": 0.0, "per_hh_no_ast": 89.9, "per_hs_perma": 48.2, "per_hs_sperma": 8.6, "per_hs_temp": 31.7, "per_hs_servc": 15.8, "per_hs_nservc": 15.8, "per_hs_unclss": 11.5, "avghhsz_cy": 6.05797101, "st_areashape": 1267959.376764745, "st_lengthshape": 5680.403168670335}, "geometry": {"type": "Polygon", "coordinates": [[[81.63324323299098, 27.256546849838948], [81.63392145114902, 27.25688167165491], [81.633923377137, 27.256882588411287], [81.63265139323737, 27.257234399502554], [81.63029780719297, 27.257775052752084], [81.62915245610405, 27.257962657135195], [81.6287253745601, 27.258043862724406], [81.62847268475889, 27.257876383817834], [81.62754847374008, 27.257319361275446], [81.62656173279098, 27.256872484126497], [81.62538875850704, 27.256535146784987], [81.62368905885292, 27.256360885730135], [81.62263805332668, 27.256300346767567], [81.6216169131904, 27.256405674431267], [81.61991478808498, 27.25661801843538], [81.61867315646222, 27.257357472790005], [81.61808967283739, 27.257736943776298], [81.61800182928073, 27.257602451457032], [81.61772457953964, 27.25743532405255], [81.61716955633965, 27.257183918157516], [81.61633500527103, 27.257124454513527], [81.61593352930593, 27.257039546095722], [81.6146997929762, 27.256536105868477], [81.61377335593211, 27.25633805375525], [81.6133951418413, 27.256357237853106], [81.61374865495675, 27.256052975898214], [81.6139356078421, 27.255832966084952], [81.61446358007393, 27.255476597066735], [81.61480495155999, 27.255284984411162], [81.61586209796948, 27.254378895374035], [81.61614513735258, 27.253634603312907], [81.61614671838747, 27.25338601984007], [81.61581009988758, 27.252831913646602], [81.61556818627653, 27.25197445476416], [81.61544712661389, 27.251559537938792], [81.61551021439797, 27.251366507395215], [81.61582029396942, 27.25122998848946], [81.61634596022593, 27.251232659836077], [81.61683999590296, 27.251345650949965], [81.61776622902947, 27.251571315786702], [81.619280148998, 27.251772324837358], [81.61992914855313, 27.251830851385247], [81.62094973173392, 27.251808384241407], [81.62200209910611, 27.251647990759864], [81.62311682752535, 27.25140502105197], [81.62407661182942, 27.251216520748894], [81.62522347837621, 27.250780362808776], [81.62590531494823, 27.250535212587256], [81.62673722227498, 27.250148952747747], [81.62816163590523, 27.25130954347945], [81.62963737298264, 27.252670318951576], [81.6308978943792, 27.253836666767043], [81.63234122024114, 27.25544584061526], [81.63266035932223, 27.255798203276], [81.63296646744183, 27.25629689533737], [81.63324323299098, 27.256546849838948]]]}}]}