{"type": "FeatureCollection", "features": [{"type": "Feature", "properties": {"premiumdata.sde.IN_Village_PCA.area": 1.62538554, "objectid": 363954, "id": "9125922412668", "name": "Narendrapur", "subdistrict": "Kaiserganj", "district": "Bahraich", "state": "Uttar Pradesh", "country": "India", "censusname": "Narendrapur", "villagename_locallang": null, "lgd_villagename": "Narendrapur", "lgd_villagecode": 172401, "lgd_subdistrictcode": 922, "lgd_districtcode": 125, "lgd_statecode": 9, "censuscode2001": "06527600", "censuscode2011": "172401", "censuscode2021": null, "level": "Village", "tru": "Rural", "no_hh": 9, "tot_p": 75, "tot_m": 41, "tot_f": 34, "per_tot_m": 54.66666667000001, "per_tot_f": 45.33333333, "p_06": 16, "m_06": 11, "f_06": 5, "per_p_06": 21.33333333, "per_m_06": 68.75, "per_f_06": 31.25, "p_sc": 69, "m_sc": 38, "f_sc": 31, "per_p_sc": 92.0, "per_m_sc": 55.07246377, "per_f_sc": 44.92753623, "p_st": 0, "m_st": 0, "f_st": 0, "per_p_st": 0.0, "per_m_st": 0.0, "per_f_st": 0.0, "p_lit": 32, "m_lit": 19, "f_lit": 13, "per_p_lit": 42.66666667000001, "per_m_lit": 59.375, "per_f_lit": 40.625, "p_ill": 43, "m_ill": 22, "f_ill": 21, "per_p_ill": 57.33333333, "per_m_ill": 51.1627907, "per_f_ill": 48.8372093, "tot_work_p": 23, "tot_work_m": 23, "tot_work_f": 0, "per_tot_work_p": 30.66666667, "per_tot_work_m": 100.0, "per_tot_work_f": 0.0, "mainwork_p": 19, "mainwork_m": 19, "mainwork_f": 0, "per_mainwork_p": 25.33333333, "per_mainwork_m": 100.0, "per_mainwork_f": 0.0, "main_cl_p": 4, "main_cl_m": 4, "main_cl_f": 0, "per_main_cl_p": 21.05263158, "per_main_cl_m": 100.0, "per_main_cl_f": 0.0, "main_al_p": 13, "main_al_m": 13, "main_al_f": 0, "per_main_al_p": 68.42105263, "per_main_al_m": 100.0, "per_main_al_f": 0.0, "main_hh_p": 0, "main_hh_m": 0, "main_hh_f": 0, "per_main_hh_p": 0.0, "per_main_hh_m": 0.0, "per_main_hh_f": 0.0, "main_ot_p": 2, "main_ot_m": 2, "main_ot_f": 0, "per_main_ot_p": 10.52631579, "per_main_ot_m": 100.0, "per_main_ot_f": 0.0, "margwork_p": 4, "margwork_m": 4, "margwork_f": 0, "per_margwork_p": 5.33333333, "per_margwork_m": 100.0, "per_margwork_f": 0.0, "marg_cl_p": 0, "marg_cl_m": 0, "marg_cl_f": 0, "per_marg_cl_p": 0.0, "per_marg_cl_m": 0.0, "per_marg_cl_f": 0.0, "marg_al_p": 4, "marg_al_m": 4, "marg_al_f": 0, "per_marg_al_p": 100.0, "per_marg_al_m": 100.0, "per_marg_al_f": 0.0, "marg_hh_p": 0, "marg_hh_m": 0, "marg_hh_f": 0, "per_marg_hh_p": 0.0, "per_marg_hh_m": 0.0, "per_marg_hh_f": 0.0, "marg_ot_p": 0, "marg_ot_m": 0, "marg_ot_f": 0, "per_marg_ot_p": 0.0, "per_marg_ot_m": 0.0, "per_marg_ot_f": 0.0, "margwork_3_6_p": 4, "margwork_3_6_m": 4, "margwork_3_6_f": 0, "per_margwork_3_6_p": 100.0, "per_margwork_3_6_m": 100.0, "per_margwork_3_6_f": 0.0, "marg_cl_3_6_p": 0, "marg_cl_3_6_m": 0, "marg_cl_3_6_f": 0, "per_marg_cl_3_6_p": 0.0, "per_marg_cl_3_6_m": 0.0, "per_marg_cl_3_6_f": 0.0, "marg_al_3_6_p": 4, "marg_al_3_6_m": 4, "marg_al_3_6_f": 0, "per_marg_al_3_6_p": 100.0, "per_marg_al_3_6_m": 100.0, "per_marg_al_3_6_f": 0.0, "marg_hh_3_6_p": 0, "marg_hh_3_6_m": 0, "marg_hh_3_6_f": 0, "per_marg_hh_3_6_p": 0.0, "per_marg_hh_3_6_m": 0.0, "per_marg_hh_3_6_f": 0.0, "marg_ot_3_6_p": 0, "marg_ot_3_6_m": 0, "marg_ot_3_6_f": 0, "per_marg_ot_3_6_p": 0.0, "per_marg_ot_3_6_m": 0.0, "per_marg_ot_3_6_f": 0.0, "margwork_0_3_p": 0, "margwork_0_3_m": 0, "margwork_0_3_f": 0, "per_margwork_0_3_p": 0.0, "per_margwork_0_3_m": 0.0, "per_margwork_0_3_f": 0.0, "marg_cl_0_3_p": 0, "marg_cl_0_3_m": 0, "marg_cl_0_3_f": 0, "per_marg_cl_0_3_p": 0.0, "per_marg_cl_0_3_m": 0.0, "per_marg_cl_0_3_f": 0.0, "marg_al_0_3_p": 0, "marg_al_0_3_m": 0, "marg_al_0_3_f": 0, "per_marg_al_0_3_p": 0.0, "per_marg_al_0_3_m": 0.0, "per_marg_al_0_3_f": 0.0, "marg_hh_0_3_p": 0, "marg_hh_0_3_m": 0, "marg_hh_0_3_f": 0, "per_marg_hh_0_3_p": 0.0, "per_marg_hh_0_3_m": 0.0, "per_marg_hh_0_3_f": 0.0, "marg_ot_0_3_p": 0, "marg_ot_0_3_m": 0, "marg_ot_0_3_f": 0, "per_marg_ot_0_3_p": 0.0, "per_marg_ot_0_3_m": 0.0, "per_marg_ot_0_3_f": 0.0, "non_work_p": 52, "non_work_m": 18, "non_work_f": 34, "per_non_work_p": 69.33333332999999, "per_non_work_m": 34.61538462, "per_non_work_f": 65.38461538, "per_hc_tot_tot": 100, "per_hc_tot_god": 66.7, "per_hc_tot_liv": 33.3, "per_hc_tot_dil": 0.0, "per_hc_res_tot": 100.0, "per_hc_res_god": 66.7, "per_hc_res_liv": 33.3, "per_hc_res_dil": 0.0, "per_hc_oth_tot": 0.0, "per_hc_oth_god": 0.0, "per_hc_oth_liv": 0.0, "per_hc_oth_dil": 0.0, "per_mt_grsbam": 11.1, "per_mt_plastic": 0.0, "per_mt_h_tiles": 0.0, "per_mt_m_tiles": 0.0, "per_mt_b_brick": 55.6, "per_mt_stone": 0.0, "per_mt_asbstos": 11.1, "per_mt_concrte": 0.0, "per_mt_oth": 22.2, "per_mw_grsbam": 0.0, "per_mw_plastic": 11.1, "per_mw_mud": 0.0, "per_mw_wood": 0.0, "per_mw_no_mrtr": 0.0, "per_mw_st_mrtr": 0.0, "per_mw_asbstos": 0.0, "per_mw_b_brick": 88.9, "per_mw_concrte": 0.0, "per_mw_oth": 0.0, "per_mf_mud": 100.0, "per_mf_wood": 0.0, "per_mf_b_brick": 0.0, "per_mf_stone": 0.0, "per_mf_cement": 0.0, "per_mf_fl_tile": 0.0, "per_mf_oth": 0.0, "per_dw_n_exrm": 0.0, "per_dw_1_room": 11.1, "per_dw_2_room": 55.6, "per_dw_3_room": 22.2, "per_dw_4_room": 11.1, "per_dw_5_room": 0.0, "per_dw_6_room": 0.0, "per_hhsize_1": 0.0, "per_hhsize_2": 11.1, "per_hhsize_3": 0.0, "per_hhsize_4": 11.1, "per_hhsize_5": 11.1, "per_hhsize_6_8": 44.4, "per_hhsize_9p": 22.2, "per_ow_owned": 100.0, "per_ow_rented": 0.0, "per_ow_oth": 0.0, "per_mc_none": 22.2, "per_mcouple_1": 44.4, "per_mcouple_2": 22.2, "per_mcouple_3": 0.0, "per_mcouple_4": 11.1, "per_mcouple_5p": 0.0, "per_dw_t_ts": 0.0, "per_dw_t_unts": 11.1, "per_dw_c_well": 0.0, "per_dw_unc_wel": 0.0, "per_dw_hpump": 77.8, "per_dw_tw_bore": 0.0, "per_dw_spring": 11.1, "per_dw_rivcan": 0.0, "per_dw_tank": 0.0, "per_dw_oth": 0.0, "per_loc_dw_wp": 0.0, "per_loc_dw_np": 100.0, "per_loc_dw_aw": 0.0, "per_light_elec": 0.0, "per_light_kero": 100.0, "per_light_solr": 0.0, "per_light_oil": 0.0, "per_light_oth": 0.0, "per_light_no": 0.0, "per_hh_latrine": 11.1, "per_fl_sewer": 0.0, "per_fl_septict": 11.1, "per_fl_othsys": 0.0, "per_pl_wslab": 0.0, "per_pl_without": 0.0, "per_ns_open": 0.0, "per_sl_ns_hum": 0.0, "per_sl_ns_anml": 0.0, "per_hh_no_lat": 88.9, "per_as_pub": 0.0, "per_as_open": 88.9, "per_hh_bathrm": 11.1, "per_hh_en_wrf": 22.2, "per_hh_no_btrm": 66.7, "per_wwoc_drain": 11.1, "per_wwoc_open": 44.4, "per_wwoc_nodrn": 44.4, "per_cook_fire": 88.9, "per_cook_resdu": 0.0, "per_cook_cwdng": 0.0, "per_cook_coal": 0.0, "per_cook_kero": 0.0, "per_cook_lpng": 0.0, "per_cook_elec": 11.1, "per_cook_biogs": 0.0, "per_cook_oth": 0.0, "per_cook_no": 0.0, "per_kf_inside": 88.9, "per_kf_in_has": 11.1, "per_kf_in_does": 77.8, "per_kf_outside": 11.1, "per_kf_out_has": 11.1, "per_kf_out_dos": 0.0, "per_kf_no_cook": 0.0, "per_hh_banking": 100.0, "per_hh_radio": 55.6, "per_hh_tv": 0.0, "per_hh_cmp_int": 0.0, "per_hh_cmp_wnt": 0.0, "per_hh_ph_ll": 0.0, "per_hh_ph_mob": 77.8, "per_hh_ph_bth": 0.0, "per_hh_bcycl": 66.7, "per_hh_2wheel": 11.1, "per_hh_4wheel": 0.0, "per_hh_tvcomp": 0.0, "per_hh_no_ast": 0.0, "per_hs_perma": 66.7, "per_hs_sperma": 0.0, "per_hs_temp": 11.1, "per_hs_servc": 0.0, "per_hs_nservc": 11.1, "per_hs_unclss": 22.2, "avghhsz_cy": 8.33333333, "st_areashape": 2066779.616934465, "st_lengthshape": 6087.732405428855}, "geometry": {"type": "Polygon", "coordinates": [[[81.55345793091395, 27.316855926004525], [81.55343102008301, 27.317358869422705], [81.5519127244207, 27.31780006720968], [81.5510151987557, 27.317891274322204], [81.55062067485261, 27.31787310090637], [81.55037086325355, 27.31767955583833], [81.55008594728983, 27.31737368357906], [81.54982324217153, 27.31644332023183], [81.54969889467495, 27.3162664650004], [81.5495382202066, 27.316153467270603], [81.54921535221875, 27.316151704174377], [81.54896357151262, 27.316246426859646], [81.54811700907031, 27.3167543206984], [81.54790133435037, 27.316817212353005], [81.54770401939822, 27.316816132473], [81.54739952644952, 27.316750395456], [81.54677814200457, 27.31652307994619], [81.54572413251203, 27.31589267637795], [81.54511746516637, 27.315424875137055], [81.54479713312256, 27.315054743197415], [81.54467354829568, 27.31476578213485], [81.54453940287432, 27.314051084789803], [81.54469588670183, 27.31355950256299], [81.54482921106305, 27.31329924832314], [81.54484471328993, 27.313168825254618], [81.54484543194214, 27.31306442938119], [81.54475918738667, 27.3128551552474], [81.54460643965238, 27.31249404760856], [81.54423533213377, 27.311248932758936], [81.54396740960028, 27.31005574830515], [81.54394667558522, 27.309726885558547], [81.54390446554666, 27.309171891744416], [81.5439425945389, 27.308648161303957], [81.54405072205469, 27.307980977389295], [81.54423240362595, 27.30670944701773], [81.54422330009888, 27.30636010179658], [81.54426185129928, 27.305774724582303], [81.54434464542577, 27.305446427857696], [81.54449794831889, 27.304902782527606], [81.5447907982032, 27.30414415101624], [81.5451417106959, 27.30330364420747], [81.54547957605739, 27.302689095991102], [81.54571313443802, 27.30218697531899], [81.54578399354762, 27.301920242993592], [81.54610130186217, 27.299950500209867], [81.54641390839454, 27.300078187218958], [81.5468241168825, 27.300416776563043], [81.54777203983154, 27.30080637322999], [81.5486368138196, 27.301124043002574], [81.54921587234331, 27.301542928877428], [81.55011409869421, 27.302093470724458], [81.55086881199196, 27.302357419963787], [81.55142696582071, 27.302457055623474], [81.55180869951079, 27.30357141091103], [81.55217525616418, 27.30440442912347], [81.5528594391357, 27.30545285751375], [81.55359680416866, 27.306501570539957], [81.55425780880923, 27.30705127122442], [81.55494442801184, 27.3077435474458], [81.55552486904277, 27.308411516618357], [81.55631689476415, 27.309246826827046], [81.55647449519759, 27.309532589549306], [81.5567368454814, 27.31005637328487], [81.55702643807449, 27.31048531927006], [81.55715760737729, 27.310747195629183], [81.557235065511, 27.311485217801444], [81.55633883970822, 27.312007004871084], [81.55465905031404, 27.31321403802772], [81.55397466791652, 27.31370783348618], [81.55369345121517, 27.31409326021574], [81.55358485388045, 27.31447132502704], [81.55356661718189, 27.314534805417214], [81.55349697528946, 27.31566763701851], [81.55345793091395, 27.316855926004525]]]}}]}