{"type": "FeatureCollection", "features": [{"type": "Feature", "properties": {"premiumdata.sde.IN_Village_PCA.area": 0.0219406, "objectid": 638715, "id": "122311584169123", "name": "Pagyawah Model Village", "subdistrict": "Seppa HQ", "district": "East Kameng", "state": "Arunachal Pradesh", "country": "India", "censusname": "Pagyawah Model Village", "villagename_locallang": null, "lgd_villagename": "Pagyawah Model Village", "lgd_villagecode": 262019, "lgd_subdistrictcode": 1584, "lgd_districtcode": 231, "lgd_statecode": 12, "censuscode2001": "00050100", "censuscode2011": "262019", "censuscode2021": null, "level": "Village", "tru": "Rural", "no_hh": 66, "tot_p": 287, "tot_m": 139, "tot_f": 148, "per_tot_m": 48.43205575, "per_tot_f": 51.56794425, "p_06": 32, "m_06": 19, "f_06": 13, "per_p_06": 11.14982578, "per_m_06": 59.375, "per_f_06": 40.625, "p_sc": 0, "m_sc": 0, "f_sc": 0, "per_p_sc": 0.0, "per_m_sc": 0.0, "per_f_sc": 0.0, "p_st": 189, "m_st": 94, "f_st": 95, "per_p_st": 65.85365854, "per_m_st": 49.73544974, "per_f_st": 50.26455026, "p_lit": 200, "m_lit": 103, "f_lit": 97, "per_p_lit": 69.68641115000001, "per_m_lit": 51.5, "per_f_lit": 48.5, "p_ill": 87, "m_ill": 36, "f_ill": 51, "per_p_ill": 30.31358885, "per_m_ill": 41.37931034, "per_f_ill": 58.62068966, "tot_work_p": 76, "tot_work_m": 61, "tot_work_f": 15, "per_tot_work_p": 26.48083624, "per_tot_work_m": 80.26315788999999, "per_tot_work_f": 19.73684211, "mainwork_p": 74, "mainwork_m": 59, "mainwork_f": 15, "per_mainwork_p": 25.78397213, "per_mainwork_m": 79.72972972999999, "per_mainwork_f": 20.27027027, "main_cl_p": 11, "main_cl_m": 7, "main_cl_f": 4, "per_main_cl_p": 14.86486486, "per_main_cl_m": 63.63636364, "per_main_cl_f": 36.36363636, "main_al_p": 1, "main_al_m": 0, "main_al_f": 1, "per_main_al_p": 1.35135135, "per_main_al_m": 0.0, "per_main_al_f": 100.0, "main_hh_p": 0, "main_hh_m": 0, "main_hh_f": 0, "per_main_hh_p": 0.0, "per_main_hh_m": 0.0, "per_main_hh_f": 0.0, "main_ot_p": 62, "main_ot_m": 52, "main_ot_f": 10, "per_main_ot_p": 83.78378378, "per_main_ot_m": 83.87096774000001, "per_main_ot_f": 16.12903226, "margwork_p": 2, "margwork_m": 2, "margwork_f": 0, "per_margwork_p": 0.69686411, "per_margwork_m": 100.0, "per_margwork_f": 0.0, "marg_cl_p": 0, "marg_cl_m": 0, "marg_cl_f": 0, "per_marg_cl_p": 0.0, "per_marg_cl_m": 0.0, "per_marg_cl_f": 0.0, "marg_al_p": 0, "marg_al_m": 0, "marg_al_f": 0, "per_marg_al_p": 0.0, "per_marg_al_m": 0.0, "per_marg_al_f": 0.0, "marg_hh_p": 0, "marg_hh_m": 0, "marg_hh_f": 0, "per_marg_hh_p": 0.0, "per_marg_hh_m": 0.0, "per_marg_hh_f": 0.0, "marg_ot_p": 2, "marg_ot_m": 2, "marg_ot_f": 0, "per_marg_ot_p": 100.0, "per_marg_ot_m": 100.0, "per_marg_ot_f": 0.0, "margwork_3_6_p": 1, "margwork_3_6_m": 1, "margwork_3_6_f": 0, "per_margwork_3_6_p": 50.0, "per_margwork_3_6_m": 100.0, "per_margwork_3_6_f": 0.0, "marg_cl_3_6_p": 0, "marg_cl_3_6_m": 0, "marg_cl_3_6_f": 0, "per_marg_cl_3_6_p": 0.0, "per_marg_cl_3_6_m": 0.0, "per_marg_cl_3_6_f": 0.0, "marg_al_3_6_p": 0, "marg_al_3_6_m": 0, "marg_al_3_6_f": 0, "per_marg_al_3_6_p": 0.0, "per_marg_al_3_6_m": 0.0, "per_marg_al_3_6_f": 0.0, "marg_hh_3_6_p": 0, "marg_hh_3_6_m": 0, "marg_hh_3_6_f": 0, "per_marg_hh_3_6_p": 0.0, "per_marg_hh_3_6_m": 0.0, "per_marg_hh_3_6_f": 0.0, "marg_ot_3_6_p": 1, "marg_ot_3_6_m": 1, "marg_ot_3_6_f": 0, "per_marg_ot_3_6_p": 50.0, "per_marg_ot_3_6_m": 100.0, "per_marg_ot_3_6_f": 0.0, "margwork_0_3_p": 1, "margwork_0_3_m": 1, "margwork_0_3_f": 0, "per_margwork_0_3_p": 50.0, "per_margwork_0_3_m": 100.0, "per_margwork_0_3_f": 0.0, "marg_cl_0_3_p": 0, "marg_cl_0_3_m": 0, "marg_cl_0_3_f": 0, "per_marg_cl_0_3_p": 0.0, "per_marg_cl_0_3_m": 0.0, "per_marg_cl_0_3_f": 0.0, "marg_al_0_3_p": 0, "marg_al_0_3_m": 0, "marg_al_0_3_f": 0, "per_marg_al_0_3_p": 0.0, "per_marg_al_0_3_m": 0.0, "per_marg_al_0_3_f": 0.0, "marg_hh_0_3_p": 0, "marg_hh_0_3_m": 0, "marg_hh_0_3_f": 0, "per_marg_hh_0_3_p": 0.0, "per_marg_hh_0_3_m": 0.0, "per_marg_hh_0_3_f": 0.0, "marg_ot_0_3_p": 1, "marg_ot_0_3_m": 1, "marg_ot_0_3_f": 0, "per_marg_ot_0_3_p": 50.0, "per_marg_ot_0_3_m": 100.0, "per_marg_ot_0_3_f": 0.0, "non_work_p": 211, "non_work_m": 78, "non_work_f": 133, "per_non_work_p": 73.51916376, "per_non_work_m": 36.96682464, "per_non_work_f": 63.03317536, "per_hc_tot_tot": 100, "per_hc_tot_god": 100.0, "per_hc_tot_liv": 0.0, "per_hc_tot_dil": 0.0, "per_hc_res_tot": 98.6, "per_hc_res_god": 98.6, "per_hc_res_liv": 0.0, "per_hc_res_dil": 0.0, "per_hc_oth_tot": 1.4, "per_hc_oth_god": 1.4, "per_hc_oth_liv": 0.0, "per_hc_oth_dil": 0.0, "per_mt_grsbam": 0.0, "per_mt_plastic": 0.0, "per_mt_h_tiles": 0.0, "per_mt_m_tiles": 0.0, "per_mt_b_brick": 0.0, "per_mt_stone": 0.0, "per_mt_asbstos": 100.0, "per_mt_concrte": 0.0, "per_mt_oth": 0.0, "per_mw_grsbam": 68.1, "per_mw_plastic": 1.4, "per_mw_mud": 0.0, "per_mw_wood": 1.4, "per_mw_no_mrtr": 29.0, "per_mw_st_mrtr": 0.0, "per_mw_asbstos": 0.0, "per_mw_b_brick": 0.0, "per_mw_concrte": 0.0, "per_mw_oth": 0.0, "per_mf_mud": 34.8, "per_mf_wood": 4.3, "per_mf_b_brick": 0.0, "per_mf_stone": 0.0, "per_mf_cement": 60.9, "per_mf_fl_tile": 0.0, "per_mf_oth": 0.0, "per_dw_n_exrm": 0.0, "per_dw_1_room": 66.7, "per_dw_2_room": 23.2, "per_dw_3_room": 8.7, "per_dw_4_room": 1.4, "per_dw_5_room": 0.0, "per_dw_6_room": 0.0, "per_hhsize_1": 13.0, "per_hhsize_2": 14.5, "per_hhsize_3": 11.6, "per_hhsize_4": 17.4, "per_hhsize_5": 18.8, "per_hhsize_6_8": 21.7, "per_hhsize_9p": 2.9, "per_ow_owned": 100.0, "per_ow_rented": 0.0, "per_ow_oth": 0.0, "per_mc_none": 17.4, "per_mcouple_1": 78.3, "per_mcouple_2": 4.3, "per_mcouple_3": 0.0, "per_mcouple_4": 0.0, "per_mcouple_5p": 0.0, "per_dw_t_ts": 5.8, "per_dw_t_unts": 89.9, "per_dw_c_well": 0.0, "per_dw_unc_wel": 0.0, "per_dw_hpump": 0.0, "per_dw_tw_bore": 0.0, "per_dw_spring": 4.3, "per_dw_rivcan": 0.0, "per_dw_tank": 0.0, "per_dw_oth": 0.0, "per_loc_dw_wp": 11.6, "per_loc_dw_np": 85.5, "per_loc_dw_aw": 2.9, "per_light_elec": 97.1, "per_light_kero": 2.9, "per_light_solr": 0.0, "per_light_oil": 0.0, "per_light_oth": 0.0, "per_light_no": 0.0, "per_hh_latrine": 49.3, "per_fl_sewer": 0.0, "per_fl_septict": 13.0, "per_fl_othsys": 36.2, "per_pl_wslab": 0.0, "per_pl_without": 0.0, "per_ns_open": 0.0, "per_sl_ns_hum": 0.0, "per_sl_ns_anml": 0.0, "per_hh_no_lat": 50.7, "per_as_pub": 0.0, "per_as_open": 50.7, "per_hh_bathrm": 11.6, "per_hh_en_wrf": 0.0, "per_hh_no_btrm": 88.4, "per_wwoc_drain": 0.0, "per_wwoc_open": 24.6, "per_wwoc_nodrn": 75.4, "per_cook_fire": 68.1, "per_cook_resdu": 0.0, "per_cook_cwdng": 0.0, "per_cook_coal": 0.0, "per_cook_kero": 0.0, "per_cook_lpng": 31.9, "per_cook_elec": 0.0, "per_cook_biogs": 0.0, "per_cook_oth": 0.0, "per_cook_no": 0.0, "per_kf_inside": 100.0, "per_kf_in_has": 100.0, "per_kf_in_does": 0.0, "per_kf_outside": 0.0, "per_kf_out_has": 0.0, "per_kf_out_dos": 0.0, "per_kf_no_cook": 0.0, "per_hh_banking": 43.5, "per_hh_radio": 26.1, "per_hh_tv": 40.6, "per_hh_cmp_int": 0.0, "per_hh_cmp_wnt": 15.9, "per_hh_ph_ll": 0.0, "per_hh_ph_mob": 46.4, "per_hh_ph_bth": 10.1, "per_hh_bcycl": 0.0, "per_hh_2wheel": 15.9, "per_hh_4wheel": 1.4, "per_hh_tvcomp": 0.0, "per_hh_no_ast": 17.4, "per_hs_perma": 29.0, "per_hs_sperma": 71.0, "per_hs_temp": 0.0, "per_hs_servc": 0.0, "per_hs_nservc": 0.0, "per_hs_unclss": 0.0, "avghhsz_cy": 4.34848485, "st_areashape": 31363.87350204, "st_lengthshape": 628.0581775956349}, "geometry": {"type": "Polygon", "coordinates": [[[93.06617066133764, 27.324749273888788], [93.0660812178814, 27.324745308227236], [93.06599266375733, 27.324733449549566], [93.06590587841603, 27.324713817565375], [93.06582172424021, 27.324686605406036], [93.06574103845973, 27.324652085211717], [93.06566462237177, 27.32461059855435], [93.06559323505276, 27.32456255803443], [93.06552758707011, 27.32450844249268], [93.06546833060074, 27.324448788231685], [93.06541605314274, 27.32438418821824], [93.06537127571909, 27.32431528569899], [93.06533444299585, 27.32424276382584], [93.06530592148556, 27.324167344060186], [93.06528599325928, 27.32408977659613], [93.06527485774303, 27.32401083158192], [93.06527262542954, 27.32393129353338], [93.06527931787842, 27.32385195335332], [93.0652948686143, 27.323773599552585], [93.06531912402531, 27.323697010268972], [93.06535184156625, 27.323622947680693], [93.06539269784368, 27.323552146832803], [93.06544128502246, 27.323485311646454], [93.06549712160557, 27.323423106937756], [93.06555965153586, 27.323366150436453], [93.0656282549758, 27.323315007996914], [93.06570224830746, 27.3232701888093], [93.06578089670887, 27.323232137418117], [93.06586341954413, 27.323201232125765], [93.06594899575305, 27.32317778100156], [93.06603677463103, 27.323162015496873], [93.06612588391398, 27.32315409363718], [93.06621543876125, 27.32315409363718], [93.0663045480442, 27.323162015496873], [93.06639232692217, 27.32317778100156], [93.0664779031311, 27.323201232125765], [93.06656042596637, 27.323232137418117], [93.06663907436779, 27.3232701888093], [93.06671306769944, 27.323315007996914], [93.06678167113937, 27.323366150436453], [93.06684420106967, 27.323423106937756], [93.06690003765279, 27.323485311646454], [93.06694862483155, 27.323552146832803], [93.06698948110898, 27.323622947680693], [93.06702219864994, 27.323697010268972], [93.06704645406093, 27.323773599552585], [93.06706200479682, 27.32385195335332], [93.0670686972457, 27.32393129353338], [93.0670664649322, 27.32401083158192], [93.06705532941595, 27.32408977659613], [93.06703540118967, 27.324167344060186], [93.0670068796794, 27.32424276382584], [93.06697004695614, 27.32431528569899], [93.06692526953248, 27.32438418821824], [93.06687299207452, 27.324448788231685], [93.06681373560512, 27.32450844249268], [93.06674808762247, 27.32456255803443], [93.06667670030347, 27.32461059855435], [93.06660028421551, 27.324652085211717], [93.06651959843501, 27.324686605406036], [93.06643544425918, 27.324713817565375], [93.0663486589179, 27.324733449549566], [93.06626010479384, 27.324745308227236], [93.06617066133764, 27.324749273888788]]]}}]}