{"type": "FeatureCollection", "features": [{"type": "Feature", "properties": {"premiumdata.sde.IN_Village_PCA.area": 0.94553903, "objectid": 187825, "id": "21344300054741", "name": "Kolhasahi", "subdistrict": "Palalahada", "district": "Anugul", "state": "Odisha", "country": "India", "censusname": "Kolhasahi", "villagename_locallang": null, "lgd_villagename": "Kolhasahi", "lgd_villagecode": 403426, "lgd_subdistrictcode": 3000, "lgd_districtcode": 344, "lgd_statecode": 21, "censuscode2001": "02365700", "censuscode2011": "403426", "censuscode2021": null, "level": "Village", "tru": "Rural", "no_hh": 10, "tot_p": 42, "tot_m": 22, "tot_f": 20, "per_tot_m": 52.38095238, "per_tot_f": 47.61904762, "p_06": 5, "m_06": 3, "f_06": 2, "per_p_06": 11.9047619, "per_m_06": 60.0, "per_f_06": 40.0, "p_sc": 0, "m_sc": 0, "f_sc": 0, "per_p_sc": 0.0, "per_m_sc": 0.0, "per_f_sc": 0.0, "p_st": 37, "m_st": 20, "f_st": 17, "per_p_st": 88.0952381, "per_m_st": 54.05405405, "per_f_st": 45.94594595, "p_lit": 22, "m_lit": 13, "f_lit": 9, "per_p_lit": 52.38095238, "per_m_lit": 59.09090909, "per_f_lit": 40.90909091, "p_ill": 20, "m_ill": 9, "f_ill": 11, "per_p_ill": 47.61904762, "per_m_ill": 45.0, "per_f_ill": 55.0, "tot_work_p": 26, "tot_work_m": 13, "tot_work_f": 13, "per_tot_work_p": 61.9047619, "per_tot_work_m": 50.0, "per_tot_work_f": 50.0, "mainwork_p": 18, "mainwork_m": 11, "mainwork_f": 7, "per_mainwork_p": 42.85714286, "per_mainwork_m": 61.11111111, "per_mainwork_f": 38.88888889, "main_cl_p": 4, "main_cl_m": 3, "main_cl_f": 1, "per_main_cl_p": 22.22222222, "per_main_cl_m": 75.0, "per_main_cl_f": 25.0, "main_al_p": 8, "main_al_m": 4, "main_al_f": 4, "per_main_al_p": 44.44444444000001, "per_main_al_m": 50.0, "per_main_al_f": 50.0, "main_hh_p": 2, "main_hh_m": 2, "main_hh_f": 0, "per_main_hh_p": 11.11111111, "per_main_hh_m": 100.0, "per_main_hh_f": 0.0, "main_ot_p": 4, "main_ot_m": 2, "main_ot_f": 2, "per_main_ot_p": 22.22222222, "per_main_ot_m": 50.0, "per_main_ot_f": 50.0, "margwork_p": 8, "margwork_m": 2, "margwork_f": 6, "per_margwork_p": 19.04761905, "per_margwork_m": 25.0, "per_margwork_f": 75.0, "marg_cl_p": 0, "marg_cl_m": 0, "marg_cl_f": 0, "per_marg_cl_p": 0.0, "per_marg_cl_m": 0.0, "per_marg_cl_f": 0.0, "marg_al_p": 7, "marg_al_m": 2, "marg_al_f": 5, "per_marg_al_p": 87.5, "per_marg_al_m": 28.57142857, "per_marg_al_f": 71.42857143, "marg_hh_p": 1, "marg_hh_m": 0, "marg_hh_f": 1, "per_marg_hh_p": 12.5, "per_marg_hh_m": 0.0, "per_marg_hh_f": 100.0, "marg_ot_p": 0, "marg_ot_m": 0, "marg_ot_f": 0, "per_marg_ot_p": 0.0, "per_marg_ot_m": 0.0, "per_marg_ot_f": 0.0, "margwork_3_6_p": 8, "margwork_3_6_m": 2, "margwork_3_6_f": 6, "per_margwork_3_6_p": 100.0, "per_margwork_3_6_m": 25.0, "per_margwork_3_6_f": 75.0, "marg_cl_3_6_p": 0, "marg_cl_3_6_m": 0, "marg_cl_3_6_f": 0, "per_marg_cl_3_6_p": 0.0, "per_marg_cl_3_6_m": 0.0, "per_marg_cl_3_6_f": 0.0, "marg_al_3_6_p": 7, "marg_al_3_6_m": 2, "marg_al_3_6_f": 5, "per_marg_al_3_6_p": 87.5, "per_marg_al_3_6_m": 28.57142857, "per_marg_al_3_6_f": 71.42857143, "marg_hh_3_6_p": 1, "marg_hh_3_6_m": 0, "marg_hh_3_6_f": 1, "per_marg_hh_3_6_p": 12.5, "per_marg_hh_3_6_m": 0.0, "per_marg_hh_3_6_f": 100.0, "marg_ot_3_6_p": 0, "marg_ot_3_6_m": 0, "marg_ot_3_6_f": 0, "per_marg_ot_3_6_p": 0.0, "per_marg_ot_3_6_m": 0.0, "per_marg_ot_3_6_f": 0.0, "margwork_0_3_p": 0, "margwork_0_3_m": 0, "margwork_0_3_f": 0, "per_margwork_0_3_p": 0.0, "per_margwork_0_3_m": 0.0, "per_margwork_0_3_f": 0.0, "marg_cl_0_3_p": 0, "marg_cl_0_3_m": 0, "marg_cl_0_3_f": 0, "per_marg_cl_0_3_p": 0.0, "per_marg_cl_0_3_m": 0.0, "per_marg_cl_0_3_f": 0.0, "marg_al_0_3_p": 0, "marg_al_0_3_m": 0, "marg_al_0_3_f": 0, "per_marg_al_0_3_p": 0.0, "per_marg_al_0_3_m": 0.0, "per_marg_al_0_3_f": 0.0, "marg_hh_0_3_p": 0, "marg_hh_0_3_m": 0, "marg_hh_0_3_f": 0, "per_marg_hh_0_3_p": 0.0, "per_marg_hh_0_3_m": 0.0, "per_marg_hh_0_3_f": 0.0, "marg_ot_0_3_p": 0, "marg_ot_0_3_m": 0, "marg_ot_0_3_f": 0, "per_marg_ot_0_3_p": 0.0, "per_marg_ot_0_3_m": 0.0, "per_marg_ot_0_3_f": 0.0, "non_work_p": 16, "non_work_m": 9, "non_work_f": 7, "per_non_work_p": 38.0952381, "per_non_work_m": 56.25, "per_non_work_f": 43.75, "per_hc_tot_tot": 100, "per_hc_tot_god": 9.1, "per_hc_tot_liv": 72.7, "per_hc_tot_dil": 18.2, "per_hc_res_tot": 100.0, "per_hc_res_god": 9.1, "per_hc_res_liv": 72.7, "per_hc_res_dil": 18.2, "per_hc_oth_tot": 0.0, "per_hc_oth_god": 0.0, "per_hc_oth_liv": 0.0, "per_hc_oth_dil": 0.0, "per_mt_grsbam": 27.3, "per_mt_plastic": 0.0, "per_mt_h_tiles": 54.5, "per_mt_m_tiles": 18.2, "per_mt_b_brick": 0.0, "per_mt_stone": 0.0, "per_mt_asbstos": 0.0, "per_mt_concrte": 0.0, "per_mt_oth": 0.0, "per_mw_grsbam": 9.1, "per_mw_plastic": 0.0, "per_mw_mud": 72.7, "per_mw_wood": 0.0, "per_mw_no_mrtr": 0.0, "per_mw_st_mrtr": 0.0, "per_mw_asbstos": 0.0, "per_mw_b_brick": 18.2, "per_mw_concrte": 0.0, "per_mw_oth": 0.0, "per_mf_mud": 90.9, "per_mf_wood": 0.0, "per_mf_b_brick": 0.0, "per_mf_stone": 0.0, "per_mf_cement": 9.1, "per_mf_fl_tile": 0.0, "per_mf_oth": 0.0, "per_dw_n_exrm": 9.1, "per_dw_1_room": 36.4, "per_dw_2_room": 54.5, "per_dw_3_room": 0.0, "per_dw_4_room": 0.0, "per_dw_5_room": 0.0, "per_dw_6_room": 0.0, "per_hhsize_1": 9.1, "per_hhsize_2": 27.3, "per_hhsize_3": 9.1, "per_hhsize_4": 18.2, "per_hhsize_5": 18.2, "per_hhsize_6_8": 18.2, "per_hhsize_9p": 0.0, "per_ow_owned": 100.0, "per_ow_rented": 0.0, "per_ow_oth": 0.0, "per_mc_none": 18.2, "per_mcouple_1": 45.5, "per_mcouple_2": 36.4, "per_mcouple_3": 0.0, "per_mcouple_4": 0.0, "per_mcouple_5p": 0.0, "per_dw_t_ts": 0.0, "per_dw_t_unts": 0.0, "per_dw_c_well": 0.0, "per_dw_unc_wel": 18.2, "per_dw_hpump": 0.0, "per_dw_tw_bore": 45.5, "per_dw_spring": 0.0, "per_dw_rivcan": 0.0, "per_dw_tank": 0.0, "per_dw_oth": 36.4, "per_loc_dw_wp": 18.2, "per_loc_dw_np": 27.3, "per_loc_dw_aw": 54.5, "per_light_elec": 72.7, "per_light_kero": 27.3, "per_light_solr": 0.0, "per_light_oil": 0.0, "per_light_oth": 0.0, "per_light_no": 0.0, "per_hh_latrine": 0.0, "per_fl_sewer": 0.0, "per_fl_septict": 0.0, "per_fl_othsys": 0.0, "per_pl_wslab": 0.0, "per_pl_without": 0.0, "per_ns_open": 0.0, "per_sl_ns_hum": 0.0, "per_sl_ns_anml": 0.0, "per_hh_no_lat": 100.0, "per_as_pub": 0.0, "per_as_open": 100.0, "per_hh_bathrm": 0.0, "per_hh_en_wrf": 0.0, "per_hh_no_btrm": 100.0, "per_wwoc_drain": 0.0, "per_wwoc_open": 0.0, "per_wwoc_nodrn": 100.0, "per_cook_fire": 100.0, "per_cook_resdu": 0.0, "per_cook_cwdng": 0.0, "per_cook_coal": 0.0, "per_cook_kero": 0.0, "per_cook_lpng": 0.0, "per_cook_elec": 0.0, "per_cook_biogs": 0.0, "per_cook_oth": 0.0, "per_cook_no": 0.0, "per_kf_inside": 100.0, "per_kf_in_has": 27.3, "per_kf_in_does": 72.7, "per_kf_outside": 0.0, "per_kf_out_has": 0.0, "per_kf_out_dos": 0.0, "per_kf_no_cook": 0.0, "per_hh_banking": 18.2, "per_hh_radio": 9.1, "per_hh_tv": 9.1, "per_hh_cmp_int": 0.0, "per_hh_cmp_wnt": 0.0, "per_hh_ph_ll": 0.0, "per_hh_ph_mob": 36.4, "per_hh_ph_bth": 0.0, "per_hh_bcycl": 81.8, "per_hh_2wheel": 18.2, "per_hh_4wheel": 0.0, "per_hh_tvcomp": 0.0, "per_hh_no_ast": 18.2, "per_hs_perma": 18.2, "per_hs_sperma": 54.5, "per_hs_temp": 27.3, "per_hs_servc": 18.2, "per_hs_nservc": 9.1, "per_hs_unclss": 0.0, "avghhsz_cy": 4.2, "st_areashape": 1097397.8360056, "st_lengthshape": 4418.856734694672}, "geometry": {"type": "Polygon", "coordinates": [[[85.29247007635175, 21.476636624294507], [85.30055574035889, 21.48077515213776], [85.30027052435786, 21.485817754666314], [85.29728212585164, 21.48977142038999], [85.29406817025905, 21.489120530907734], [85.29382411775927, 21.489158675867706], [85.29349603055965, 21.489042309259265], [85.29300786357638, 21.488658994906636], [85.29248143644685, 21.488351891324996], [85.29195515933594, 21.488161177070083], [85.2914211315608, 21.487968525001328], [85.29101682141096, 21.48781597227353], [85.29065065013486, 21.48762330804554], [85.290368394981, 21.487354392849003], [85.29356795686782, 21.479846232797367], [85.29247007635175, 21.476636624294507]]]}}]}