{"type": "FeatureCollection", "features": [{"type": "Feature", "properties": {"premiumdata.sde.IN_Village_PCA.area": 6.32423831, "objectid": 83979, "id": "29529545590453", "name": "Nirmanhalli", "subdistrict": "Bhalki", "district": "Bidar", "state": "Karnataka", "country": "India", "censusname": "Nirmanhalli", "villagename_locallang": null, "lgd_villagename": "Nirmanhalli", "lgd_villagecode": 599965, "lgd_subdistrictcode": 5455, "lgd_districtcode": 529, "lgd_statecode": 29, "censuscode2001": "00425600", "censuscode2011": "599965", "censuscode2021": null, "level": "Village", "tru": "Rural", "no_hh": 288, "tot_p": 1523, "tot_m": 734, "tot_f": 789, "per_tot_m": 48.19435325, "per_tot_f": 51.80564675, "p_06": 184, "m_06": 94, "f_06": 90, "per_p_06": 12.08141825, "per_m_06": 51.08695652, "per_f_06": 48.91304348, "p_sc": 623, "m_sc": 297, "f_sc": 326, "per_p_sc": 40.90610637, "per_m_sc": 47.67255217, "per_f_sc": 52.32744783, "p_st": 331, "m_st": 160, "f_st": 171, "per_p_st": 21.73342088, "per_m_st": 48.33836858, "per_f_st": 51.66163142, "p_lit": 922, "m_lit": 532, "f_lit": 390, "per_p_lit": 60.53841103000001, "per_m_lit": 57.70065076, "per_f_lit": 42.29934924000001, "p_ill": 601, "m_ill": 202, "f_ill": 399, "per_p_ill": 39.46158897, "per_m_ill": 33.61064892, "per_f_ill": 66.38935108000001, "tot_work_p": 779, "tot_work_m": 411, "tot_work_f": 368, "per_tot_work_p": 51.14904793, "per_tot_work_m": 52.75994865, "per_tot_work_f": 47.24005135, "mainwork_p": 274, "mainwork_m": 165, "mainwork_f": 109, "per_mainwork_p": 17.99080762, "per_mainwork_m": 60.2189781, "per_mainwork_f": 39.7810219, "main_cl_p": 178, "main_cl_m": 109, "main_cl_f": 69, "per_main_cl_p": 64.96350365, "per_main_cl_m": 61.23595506, "per_main_cl_f": 38.76404494000001, "main_al_p": 30, "main_al_m": 13, "main_al_f": 17, "per_main_al_p": 10.94890511, "per_main_al_m": 43.33333333, "per_main_al_f": 56.66666667000001, "main_hh_p": 38, "main_hh_m": 23, "main_hh_f": 15, "per_main_hh_p": 13.86861314, "per_main_hh_m": 60.52631579, "per_main_hh_f": 39.47368421, "main_ot_p": 28, "main_ot_m": 20, "main_ot_f": 8, "per_main_ot_p": 10.2189781, "per_main_ot_m": 71.42857143, "per_main_ot_f": 28.57142857, "margwork_p": 505, "margwork_m": 246, "margwork_f": 259, "per_margwork_p": 33.15824032, "per_margwork_m": 48.71287129, "per_margwork_f": 51.28712871, "marg_cl_p": 31, "marg_cl_m": 15, "marg_cl_f": 16, "per_marg_cl_p": 6.13861386, "per_marg_cl_m": 48.38709677, "per_marg_cl_f": 51.61290323, "marg_al_p": 410, "marg_al_m": 196, "marg_al_f": 214, "per_marg_al_p": 81.18811881, "per_marg_al_m": 47.80487805, "per_marg_al_f": 52.19512195, "marg_hh_p": 33, "marg_hh_m": 15, "marg_hh_f": 18, "per_marg_hh_p": 6.53465347, "per_marg_hh_m": 45.45454545, "per_marg_hh_f": 54.54545455, "marg_ot_p": 31, "marg_ot_m": 20, "marg_ot_f": 11, "per_marg_ot_p": 6.13861386, "per_marg_ot_m": 64.51612902999999, "per_marg_ot_f": 35.48387097000001, "margwork_3_6_p": 498, "margwork_3_6_m": 242, "margwork_3_6_f": 256, "per_margwork_3_6_p": 98.61386139, "per_margwork_3_6_m": 48.59437751, "per_margwork_3_6_f": 51.40562249, "marg_cl_3_6_p": 31, "marg_cl_3_6_m": 15, "marg_cl_3_6_f": 16, "per_marg_cl_3_6_p": 6.13861386, "per_marg_cl_3_6_m": 48.38709677, "per_marg_cl_3_6_f": 51.61290323, "marg_al_3_6_p": 410, "marg_al_3_6_m": 196, "marg_al_3_6_f": 214, "per_marg_al_3_6_p": 81.18811881, "per_marg_al_3_6_m": 47.80487805, "per_marg_al_3_6_f": 52.19512195, "marg_hh_3_6_p": 27, "marg_hh_3_6_m": 12, "marg_hh_3_6_f": 15, "per_marg_hh_3_6_p": 5.34653465, "per_marg_hh_3_6_m": 44.44444444000001, "per_marg_hh_3_6_f": 55.55555556, "marg_ot_3_6_p": 30, "marg_ot_3_6_m": 19, "marg_ot_3_6_f": 11, "per_marg_ot_3_6_p": 5.94059406, "per_marg_ot_3_6_m": 63.33333333, "per_marg_ot_3_6_f": 36.66666667000001, "margwork_0_3_p": 7, "margwork_0_3_m": 4, "margwork_0_3_f": 3, "per_margwork_0_3_p": 1.38613861, "per_margwork_0_3_m": 57.14285714, "per_margwork_0_3_f": 42.85714286, "marg_cl_0_3_p": 0, "marg_cl_0_3_m": 0, "marg_cl_0_3_f": 0, "per_marg_cl_0_3_p": 0.0, "per_marg_cl_0_3_m": 0.0, "per_marg_cl_0_3_f": 0.0, "marg_al_0_3_p": 0, "marg_al_0_3_m": 0, "marg_al_0_3_f": 0, "per_marg_al_0_3_p": 0.0, "per_marg_al_0_3_m": 0.0, "per_marg_al_0_3_f": 0.0, "marg_hh_0_3_p": 6, "marg_hh_0_3_m": 3, "marg_hh_0_3_f": 3, "per_marg_hh_0_3_p": 1.18811881, "per_marg_hh_0_3_m": 50.0, "per_marg_hh_0_3_f": 50.0, "marg_ot_0_3_p": 1, "marg_ot_0_3_m": 1, "marg_ot_0_3_f": 0, "per_marg_ot_0_3_p": 0.1980198, "per_marg_ot_0_3_m": 100.0, "per_marg_ot_0_3_f": 0.0, "non_work_p": 744, "non_work_m": 323, "non_work_f": 421, "per_non_work_p": 48.85095207000001, "per_non_work_m": 43.41397849, "per_non_work_f": 56.58602151, "per_hc_tot_tot": 100, "per_hc_tot_god": 12.4, "per_hc_tot_liv": 82.6, "per_hc_tot_dil": 5.0, "per_hc_res_tot": 98.6, "per_hc_res_god": 12.1, "per_hc_res_liv": 81.6, "per_hc_res_dil": 5.0, "per_hc_oth_tot": 1.4, "per_hc_oth_god": 0.4, "per_hc_oth_liv": 1.1, "per_hc_oth_dil": 0.0, "per_mt_grsbam": 2.8, "per_mt_plastic": 0.0, "per_mt_h_tiles": 2.5, "per_mt_m_tiles": 3.2, "per_mt_b_brick": 0.0, "per_mt_stone": 10.3, "per_mt_asbstos": 70.9, "per_mt_concrte": 9.6, "per_mt_oth": 0.7, "per_mw_grsbam": 0.7, "per_mw_plastic": 0.0, "per_mw_mud": 13.5, "per_mw_wood": 0.4, "per_mw_no_mrtr": 44.3, "per_mw_st_mrtr": 37.9, "per_mw_asbstos": 0.7, "per_mw_b_brick": 0.7, "per_mw_concrte": 0.0, "per_mw_oth": 1.8, "per_mf_mud": 75.9, "per_mf_wood": 0.0, "per_mf_b_brick": 0.0, "per_mf_stone": 17.0, "per_mf_cement": 5.0, "per_mf_fl_tile": 1.8, "per_mf_oth": 0.4, "per_dw_n_exrm": 0.0, "per_dw_1_room": 24.5, "per_dw_2_room": 31.9, "per_dw_3_room": 19.9, "per_dw_4_room": 12.1, "per_dw_5_room": 8.9, "per_dw_6_room": 2.8, "per_hhsize_1": 2.5, "per_hhsize_2": 5.0, "per_hhsize_3": 5.0, "per_hhsize_4": 14.2, "per_hhsize_5": 18.8, "per_hhsize_6_8": 47.2, "per_hhsize_9p": 7.4, "per_ow_owned": 97.5, "per_ow_rented": 0.7, "per_ow_oth": 1.8, "per_mc_none": 8.9, "per_mcouple_1": 63.1, "per_mcouple_2": 22.3, "per_mcouple_3": 4.6, "per_mcouple_4": 1.1, "per_mcouple_5p": 0.0, "per_dw_t_ts": 52.1, "per_dw_t_unts": 40.1, "per_dw_c_well": 3.5, "per_dw_unc_wel": 2.5, "per_dw_hpump": 0.0, "per_dw_tw_bore": 1.8, "per_dw_spring": 0.0, "per_dw_rivcan": 0.0, "per_dw_tank": 0.0, "per_dw_oth": 0.0, "per_loc_dw_wp": 14.9, "per_loc_dw_np": 63.5, "per_loc_dw_aw": 21.6, "per_light_elec": 82.6, "per_light_kero": 15.6, "per_light_solr": 0.4, "per_light_oil": 0.0, "per_light_oth": 0.0, "per_light_no": 1.4, "per_hh_latrine": 1.8, "per_fl_sewer": 0.0, "per_fl_septict": 0.4, "per_fl_othsys": 1.1, "per_pl_wslab": 0.0, "per_pl_without": 0.0, "per_ns_open": 0.4, "per_sl_ns_hum": 0.0, "per_sl_ns_anml": 0.0, "per_hh_no_lat": 98.2, "per_as_pub": 0.0, "per_as_open": 98.2, "per_hh_bathrm": 51.1, "per_hh_en_wrf": 9.6, "per_hh_no_btrm": 39.4, "per_wwoc_drain": 0.0, "per_wwoc_open": 0.0, "per_wwoc_nodrn": 100.0, "per_cook_fire": 97.9, "per_cook_resdu": 1.8, "per_cook_cwdng": 0.0, "per_cook_coal": 0.4, "per_cook_kero": 0.0, "per_cook_lpng": 0.0, "per_cook_elec": 0.0, "per_cook_biogs": 0.0, "per_cook_oth": 0.0, "per_cook_no": 0.0, "per_kf_inside": 85.1, "per_kf_in_has": 50.4, "per_kf_in_does": 34.8, "per_kf_outside": 14.9, "per_kf_out_has": 1.1, "per_kf_out_dos": 13.8, "per_kf_no_cook": 0.0, "per_hh_banking": 78.7, "per_hh_radio": 5.7, "per_hh_tv": 35.5, "per_hh_cmp_int": 0.4, "per_hh_cmp_wnt": 17.7, "per_hh_ph_ll": 14.2, "per_hh_ph_mob": 46.5, "per_hh_ph_bth": 8.9, "per_hh_bcycl": 33.3, "per_hh_2wheel": 12.8, "per_hh_4wheel": 1.4, "per_hh_tvcomp": 0.4, "per_hh_no_ast": 17.4, "per_hs_perma": 80.5, "per_hs_sperma": 16.7, "per_hs_temp": 0.4, "per_hs_servc": 0.4, "per_hs_nservc": 0.0, "per_hs_unclss": 2.5, "avghhsz_cy": 5.28819444, "st_areashape": 7021939.92214003, "st_lengthshape": 11668.399070783456}, "geometry": {"type": "Polygon", "coordinates": [[[77.35379932604143, 17.90389915464067], [77.34993201496289, 17.90389915464067], [77.34517841973687, 17.904803830855553], [77.33685962943879, 17.907291668145348], [77.32616404152765, 17.902994472956152], [77.31832061093182, 17.898244820972366], [77.31047717943767, 17.893947407467184], [77.32022204884258, 17.88874513554765], [77.33709730928992, 17.888292756647402], [77.34373538043751, 17.89067657756646], [77.34969433511176, 17.89281649120322], [77.35657065923566, 17.899745018244314], [77.3554792142503, 17.900031532398266], [77.35379932604143, 17.90163009627497], [77.35379932604143, 17.90389915464067]]]}}]}