{"type": "FeatureCollection", "features": [{"type": "Feature", "properties": {"premiumdata.sde.IN_Village_PCA.area": 1.33096742, "objectid": 650982, "id": "183022061237992", "name": "Khetojan", "subdistrict": "Tinsukia", "district": "Tinsukia", "state": "Assam", "country": "India", "censusname": "No-2 Khetojan", "villagename_locallang": null, "lgd_villagename": "Khetojan", "lgd_villagecode": 290629, "lgd_subdistrictcode": 2061, "lgd_districtcode": 302, "lgd_statecode": 18, "censuscode2001": "01583500", "censuscode2011": "290629", "censuscode2021": null, "level": "Village", "tru": "Rural", "no_hh": 11, "tot_p": 67, "tot_m": 36, "tot_f": 31, "per_tot_m": 53.73134328, "per_tot_f": 46.26865672, "p_06": 12, "m_06": 8, "f_06": 4, "per_p_06": 17.91044776, "per_m_06": 66.66666667, "per_f_06": 33.33333333, "p_sc": 0, "m_sc": 0, "f_sc": 0, "per_p_sc": 0.0, "per_m_sc": 0.0, "per_f_sc": 0.0, "p_st": 0, "m_st": 0, "f_st": 0, "per_p_st": 0.0, "per_m_st": 0.0, "per_f_st": 0.0, "p_lit": 40, "m_lit": 23, "f_lit": 17, "per_p_lit": 59.70149254, "per_m_lit": 57.5, "per_f_lit": 42.5, "p_ill": 27, "m_ill": 13, "f_ill": 14, "per_p_ill": 40.29850746, "per_m_ill": 48.14814815, "per_f_ill": 51.85185185, "tot_work_p": 24, "tot_work_m": 15, "tot_work_f": 9, "per_tot_work_p": 35.82089552, "per_tot_work_m": 62.5, "per_tot_work_f": 37.5, "mainwork_p": 24, "mainwork_m": 15, "mainwork_f": 9, "per_mainwork_p": 35.82089552, "per_mainwork_m": 62.5, "per_mainwork_f": 37.5, "main_cl_p": 4, "main_cl_m": 4, "main_cl_f": 0, "per_main_cl_p": 16.66666667, "per_main_cl_m": 100.0, "per_main_cl_f": 0.0, "main_al_p": 0, "main_al_m": 0, "main_al_f": 0, "per_main_al_p": 0.0, "per_main_al_m": 0.0, "per_main_al_f": 0.0, "main_hh_p": 0, "main_hh_m": 0, "main_hh_f": 0, "per_main_hh_p": 0.0, "per_main_hh_m": 0.0, "per_main_hh_f": 0.0, "main_ot_p": 20, "main_ot_m": 11, "main_ot_f": 9, "per_main_ot_p": 83.33333332999999, "per_main_ot_m": 55.0, "per_main_ot_f": 45.0, "margwork_p": 0, "margwork_m": 0, "margwork_f": 0, "per_margwork_p": 0.0, "per_margwork_m": 0.0, "per_margwork_f": 0.0, "marg_cl_p": 0, "marg_cl_m": 0, "marg_cl_f": 0, "per_marg_cl_p": 0.0, "per_marg_cl_m": 0.0, "per_marg_cl_f": 0.0, "marg_al_p": 0, "marg_al_m": 0, "marg_al_f": 0, "per_marg_al_p": 0.0, "per_marg_al_m": 0.0, "per_marg_al_f": 0.0, "marg_hh_p": 0, "marg_hh_m": 0, "marg_hh_f": 0, "per_marg_hh_p": 0.0, "per_marg_hh_m": 0.0, "per_marg_hh_f": 0.0, "marg_ot_p": 0, "marg_ot_m": 0, "marg_ot_f": 0, "per_marg_ot_p": 0.0, "per_marg_ot_m": 0.0, "per_marg_ot_f": 0.0, "margwork_3_6_p": 0, "margwork_3_6_m": 0, "margwork_3_6_f": 0, "per_margwork_3_6_p": 0.0, "per_margwork_3_6_m": 0.0, "per_margwork_3_6_f": 0.0, "marg_cl_3_6_p": 0, "marg_cl_3_6_m": 0, "marg_cl_3_6_f": 0, "per_marg_cl_3_6_p": 0.0, "per_marg_cl_3_6_m": 0.0, "per_marg_cl_3_6_f": 0.0, "marg_al_3_6_p": 0, "marg_al_3_6_m": 0, "marg_al_3_6_f": 0, "per_marg_al_3_6_p": 0.0, "per_marg_al_3_6_m": 0.0, "per_marg_al_3_6_f": 0.0, "marg_hh_3_6_p": 0, "marg_hh_3_6_m": 0, "marg_hh_3_6_f": 0, "per_marg_hh_3_6_p": 0.0, "per_marg_hh_3_6_m": 0.0, "per_marg_hh_3_6_f": 0.0, "marg_ot_3_6_p": 0, "marg_ot_3_6_m": 0, "marg_ot_3_6_f": 0, "per_marg_ot_3_6_p": 0.0, "per_marg_ot_3_6_m": 0.0, "per_marg_ot_3_6_f": 0.0, "margwork_0_3_p": 0, "margwork_0_3_m": 0, "margwork_0_3_f": 0, "per_margwork_0_3_p": 0.0, "per_margwork_0_3_m": 0.0, "per_margwork_0_3_f": 0.0, "marg_cl_0_3_p": 0, "marg_cl_0_3_m": 0, "marg_cl_0_3_f": 0, "per_marg_cl_0_3_p": 0.0, "per_marg_cl_0_3_m": 0.0, "per_marg_cl_0_3_f": 0.0, "marg_al_0_3_p": 0, "marg_al_0_3_m": 0, "marg_al_0_3_f": 0, "per_marg_al_0_3_p": 0.0, "per_marg_al_0_3_m": 0.0, "per_marg_al_0_3_f": 0.0, "marg_hh_0_3_p": 0, "marg_hh_0_3_m": 0, "marg_hh_0_3_f": 0, "per_marg_hh_0_3_p": 0.0, "per_marg_hh_0_3_m": 0.0, "per_marg_hh_0_3_f": 0.0, "marg_ot_0_3_p": 0, "marg_ot_0_3_m": 0, "marg_ot_0_3_f": 0, "per_marg_ot_0_3_p": 0.0, "per_marg_ot_0_3_m": 0.0, "per_marg_ot_0_3_f": 0.0, "non_work_p": 43, "non_work_m": 21, "non_work_f": 22, "per_non_work_p": 64.17910448, "per_non_work_m": 48.8372093, "per_non_work_f": 51.1627907, "per_hc_tot_tot": 100, "per_hc_tot_god": 0.0, "per_hc_tot_liv": 100.0, "per_hc_tot_dil": 0.0, "per_hc_res_tot": 100.0, "per_hc_res_god": 0.0, "per_hc_res_liv": 100.0, "per_hc_res_dil": 0.0, "per_hc_oth_tot": 0.0, "per_hc_oth_god": 0.0, "per_hc_oth_liv": 0.0, "per_hc_oth_dil": 0.0, "per_mt_grsbam": 27.3, "per_mt_plastic": 0.0, "per_mt_h_tiles": 0.0, "per_mt_m_tiles": 0.0, "per_mt_b_brick": 0.0, "per_mt_stone": 0.0, "per_mt_asbstos": 72.7, "per_mt_concrte": 0.0, "per_mt_oth": 0.0, "per_mw_grsbam": 90.9, "per_mw_plastic": 0.0, "per_mw_mud": 0.0, "per_mw_wood": 0.0, "per_mw_no_mrtr": 0.0, "per_mw_st_mrtr": 0.0, "per_mw_asbstos": 0.0, "per_mw_b_brick": 9.1, "per_mw_concrte": 0.0, "per_mw_oth": 0.0, "per_mf_mud": 90.9, "per_mf_wood": 0.0, "per_mf_b_brick": 0.0, "per_mf_stone": 0.0, "per_mf_cement": 9.1, "per_mf_fl_tile": 0.0, "per_mf_oth": 0.0, "per_dw_n_exrm": 0.0, "per_dw_1_room": 0.0, "per_dw_2_room": 36.4, "per_dw_3_room": 36.4, "per_dw_4_room": 18.2, "per_dw_5_room": 9.1, "per_dw_6_room": 0.0, "per_hhsize_1": 0.0, "per_hhsize_2": 9.1, "per_hhsize_3": 9.1, "per_hhsize_4": 0.0, "per_hhsize_5": 18.2, "per_hhsize_6_8": 54.5, "per_hhsize_9p": 9.1, "per_ow_owned": 90.9, "per_ow_rented": 0.0, "per_ow_oth": 9.1, "per_mc_none": 0.0, "per_mcouple_1": 90.9, "per_mcouple_2": 9.1, "per_mcouple_3": 0.0, "per_mcouple_4": 0.0, "per_mcouple_5p": 0.0, "per_dw_t_ts": 0.0, "per_dw_t_unts": 0.0, "per_dw_c_well": 0.0, "per_dw_unc_wel": 0.0, "per_dw_hpump": 18.2, "per_dw_tw_bore": 72.7, "per_dw_spring": 0.0, "per_dw_rivcan": 0.0, "per_dw_tank": 9.1, "per_dw_oth": 0.0, "per_loc_dw_wp": 54.5, "per_loc_dw_np": 36.4, "per_loc_dw_aw": 9.1, "per_light_elec": 0.0, "per_light_kero": 100.0, "per_light_solr": 0.0, "per_light_oil": 0.0, "per_light_oth": 0.0, "per_light_no": 0.0, "per_hh_latrine": 81.8, "per_fl_sewer": 0.0, "per_fl_septict": 0.0, "per_fl_othsys": 0.0, "per_pl_wslab": 27.3, "per_pl_without": 54.5, "per_ns_open": 0.0, "per_sl_ns_hum": 0.0, "per_sl_ns_anml": 0.0, "per_hh_no_lat": 18.2, "per_as_pub": 9.1, "per_as_open": 9.1, "per_hh_bathrm": 0.0, "per_hh_en_wrf": 18.2, "per_hh_no_btrm": 81.8, "per_wwoc_drain": 0.0, "per_wwoc_open": 63.6, "per_wwoc_nodrn": 36.4, "per_cook_fire": 90.9, "per_cook_resdu": 0.0, "per_cook_cwdng": 0.0, "per_cook_coal": 0.0, "per_cook_kero": 0.0, "per_cook_lpng": 9.1, "per_cook_elec": 0.0, "per_cook_biogs": 0.0, "per_cook_oth": 0.0, "per_cook_no": 0.0, "per_kf_inside": 63.6, "per_kf_in_has": 63.6, "per_kf_in_does": 0.0, "per_kf_outside": 36.4, "per_kf_out_has": 36.4, "per_kf_out_dos": 0.0, "per_kf_no_cook": 0.0, "per_hh_banking": 54.5, "per_hh_radio": 0.0, "per_hh_tv": 18.2, "per_hh_cmp_int": 0.0, "per_hh_cmp_wnt": 0.0, "per_hh_ph_ll": 0.0, "per_hh_ph_mob": 36.4, "per_hh_ph_bth": 0.0, "per_hh_bcycl": 90.9, "per_hh_2wheel": 0.0, "per_hh_4wheel": 0.0, "per_hh_tvcomp": 0.0, "per_hh_no_ast": 9.1, "per_hs_perma": 9.1, "per_hs_sperma": 63.6, "per_hs_temp": 27.3, "per_hs_servc": 0.0, "per_hs_nservc": 27.3, "per_hs_unclss": 0.0, "avghhsz_cy": 6.09090909, "st_areashape": 1696365.985594675, "st_lengthshape": 5769.573074131252}, "geometry": {"type": "Polygon", "coordinates": [[[95.38606221006545, 27.437483533369996], [95.3889614786275, 27.436878086765525], [95.39393107645853, 27.435541529701865], [95.40010542557839, 27.435942498600223], [95.40206314653496, 27.43794732124052], [95.40146077044139, 27.438615586829023], [95.39950305038316, 27.44182320787228], [95.39784651747334, 27.444362508933168], [95.39287691964232, 27.44342698342712], [95.38850969700648, 27.444228862462424], [95.38369069364796, 27.4469017507526], [95.38606221006545, 27.437483533369996]]]}}]}