{"type": "FeatureCollection", "features": [{"type": "Feature", "properties": {"premiumdata.sde.IN_Village_PCA.area": 3.60890808, "objectid": 470443, "id": "193212392141716", "name": "Ushuldunri", "subdistrict": "Bagmundi", "district": "Purulia", "state": "West Bengal", "country": "India", "censusname": "Ushuldunri", "villagename_locallang": null, "lgd_villagename": "Ushuldunri", "lgd_villagecode": 331623, "lgd_subdistrictcode": 2392, "lgd_districtcode": 321, "lgd_statecode": 19, "censuscode2001": "02532300", "censuscode2011": "331623", "censuscode2021": null, "level": "Village", "tru": "Rural", "no_hh": 93, "tot_p": 467, "tot_m": 213, "tot_f": 254, "per_tot_m": 45.61027837, "per_tot_f": 54.38972163, "p_06": 88, "m_06": 35, "f_06": 53, "per_p_06": 18.84368308, "per_m_06": 39.77272727, "per_f_06": 60.22727273, "p_sc": 0, "m_sc": 0, "f_sc": 0, "per_p_sc": 0.0, "per_m_sc": 0.0, "per_f_sc": 0.0, "p_st": 467, "m_st": 213, "f_st": 254, "per_p_st": 100.0, "per_m_st": 45.61027837, "per_f_st": 54.38972163, "p_lit": 53, "m_lit": 33, "f_lit": 20, "per_p_lit": 11.3490364, "per_m_lit": 62.26415094, "per_f_lit": 37.73584906, "p_ill": 414, "m_ill": 180, "f_ill": 234, "per_p_ill": 88.6509636, "per_m_ill": 43.47826087, "per_f_ill": 56.52173913, "tot_work_p": 220, "tot_work_m": 102, "tot_work_f": 118, "per_tot_work_p": 47.10920771, "per_tot_work_m": 46.36363636, "per_tot_work_f": 53.63636364, "mainwork_p": 107, "mainwork_m": 99, "mainwork_f": 8, "per_mainwork_p": 22.91220557, "per_mainwork_m": 92.52336449, "per_mainwork_f": 7.47663551, "main_cl_p": 0, "main_cl_m": 0, "main_cl_f": 0, "per_main_cl_p": 0.0, "per_main_cl_m": 0.0, "per_main_cl_f": 0.0, "main_al_p": 0, "main_al_m": 0, "main_al_f": 0, "per_main_al_p": 0.0, "per_main_al_m": 0.0, "per_main_al_f": 0.0, "main_hh_p": 0, "main_hh_m": 0, "main_hh_f": 0, "per_main_hh_p": 0.0, "per_main_hh_m": 0.0, "per_main_hh_f": 0.0, "main_ot_p": 107, "main_ot_m": 99, "main_ot_f": 8, "per_main_ot_p": 100.0, "per_main_ot_m": 92.52336449, "per_main_ot_f": 7.47663551, "margwork_p": 113, "margwork_m": 3, "margwork_f": 110, "per_margwork_p": 24.19700214, "per_margwork_m": 2.65486726, "per_margwork_f": 97.34513274, "marg_cl_p": 0, "marg_cl_m": 0, "marg_cl_f": 0, "per_marg_cl_p": 0.0, "per_marg_cl_m": 0.0, "per_marg_cl_f": 0.0, "marg_al_p": 0, "marg_al_m": 0, "marg_al_f": 0, "per_marg_al_p": 0.0, "per_marg_al_m": 0.0, "per_marg_al_f": 0.0, "marg_hh_p": 3, "marg_hh_m": 1, "marg_hh_f": 2, "per_marg_hh_p": 2.65486726, "per_marg_hh_m": 33.33333333, "per_marg_hh_f": 66.66666667, "marg_ot_p": 110, "marg_ot_m": 2, "marg_ot_f": 108, "per_marg_ot_p": 97.34513274, "per_marg_ot_m": 1.81818182, "per_marg_ot_f": 98.18181818, "margwork_3_6_p": 113, "margwork_3_6_m": 3, "margwork_3_6_f": 110, "per_margwork_3_6_p": 100.0, "per_margwork_3_6_m": 2.65486726, "per_margwork_3_6_f": 97.34513274, "marg_cl_3_6_p": 0, "marg_cl_3_6_m": 0, "marg_cl_3_6_f": 0, "per_marg_cl_3_6_p": 0.0, "per_marg_cl_3_6_m": 0.0, "per_marg_cl_3_6_f": 0.0, "marg_al_3_6_p": 0, "marg_al_3_6_m": 0, "marg_al_3_6_f": 0, "per_marg_al_3_6_p": 0.0, "per_marg_al_3_6_m": 0.0, "per_marg_al_3_6_f": 0.0, "marg_hh_3_6_p": 3, "marg_hh_3_6_m": 1, "marg_hh_3_6_f": 2, "per_marg_hh_3_6_p": 2.65486726, "per_marg_hh_3_6_m": 33.33333333, "per_marg_hh_3_6_f": 66.66666667, "marg_ot_3_6_p": 110, "marg_ot_3_6_m": 2, "marg_ot_3_6_f": 108, "per_marg_ot_3_6_p": 97.34513274, "per_marg_ot_3_6_m": 1.81818182, "per_marg_ot_3_6_f": 98.18181818, "margwork_0_3_p": 0, "margwork_0_3_m": 0, "margwork_0_3_f": 0, "per_margwork_0_3_p": 0.0, "per_margwork_0_3_m": 0.0, "per_margwork_0_3_f": 0.0, "marg_cl_0_3_p": 0, "marg_cl_0_3_m": 0, "marg_cl_0_3_f": 0, "per_marg_cl_0_3_p": 0.0, "per_marg_cl_0_3_m": 0.0, "per_marg_cl_0_3_f": 0.0, "marg_al_0_3_p": 0, "marg_al_0_3_m": 0, "marg_al_0_3_f": 0, "per_marg_al_0_3_p": 0.0, "per_marg_al_0_3_m": 0.0, "per_marg_al_0_3_f": 0.0, "marg_hh_0_3_p": 0, "marg_hh_0_3_m": 0, "marg_hh_0_3_f": 0, "per_marg_hh_0_3_p": 0.0, "per_marg_hh_0_3_m": 0.0, "per_marg_hh_0_3_f": 0.0, "marg_ot_0_3_p": 0, "marg_ot_0_3_m": 0, "marg_ot_0_3_f": 0, "per_marg_ot_0_3_p": 0.0, "per_marg_ot_0_3_m": 0.0, "per_marg_ot_0_3_f": 0.0, "non_work_p": 247, "non_work_m": 111, "non_work_f": 136, "per_non_work_p": 52.89079229, "per_non_work_m": 44.93927126, "per_non_work_f": 55.06072874, "per_hc_tot_tot": 100, "per_hc_tot_god": 0.0, "per_hc_tot_liv": 97.8, "per_hc_tot_dil": 2.2, "per_hc_res_tot": 100.0, "per_hc_res_god": 0.0, "per_hc_res_liv": 97.8, "per_hc_res_dil": 2.2, "per_hc_oth_tot": 0.0, "per_hc_oth_god": 0.0, "per_hc_oth_liv": 0.0, "per_hc_oth_dil": 0.0, "per_mt_grsbam": 98.9, "per_mt_plastic": 0.0, "per_mt_h_tiles": 0.0, "per_mt_m_tiles": 0.0, "per_mt_b_brick": 0.0, "per_mt_stone": 0.0, "per_mt_asbstos": 1.1, "per_mt_concrte": 0.0, "per_mt_oth": 0.0, "per_mw_grsbam": 0.0, "per_mw_plastic": 0.0, "per_mw_mud": 100.0, "per_mw_wood": 0.0, "per_mw_no_mrtr": 0.0, "per_mw_st_mrtr": 0.0, "per_mw_asbstos": 0.0, "per_mw_b_brick": 0.0, "per_mw_concrte": 0.0, "per_mw_oth": 0.0, "per_mf_mud": 100.0, "per_mf_wood": 0.0, "per_mf_b_brick": 0.0, "per_mf_stone": 0.0, "per_mf_cement": 0.0, "per_mf_fl_tile": 0.0, "per_mf_oth": 0.0, "per_dw_n_exrm": 0.0, "per_dw_1_room": 86.0, "per_dw_2_room": 14.0, "per_dw_3_room": 0.0, "per_dw_4_room": 0.0, "per_dw_5_room": 0.0, "per_dw_6_room": 0.0, "per_hhsize_1": 5.4, "per_hhsize_2": 9.7, "per_hhsize_3": 5.4, "per_hhsize_4": 10.8, "per_hhsize_5": 15.1, "per_hhsize_6_8": 46.2, "per_hhsize_9p": 7.5, "per_ow_owned": 100.0, "per_ow_rented": 0.0, "per_ow_oth": 0.0, "per_mc_none": 12.9, "per_mcouple_1": 83.9, "per_mcouple_2": 3.2, "per_mcouple_3": 0.0, "per_mcouple_4": 0.0, "per_mcouple_5p": 0.0, "per_dw_t_ts": 0.0, "per_dw_t_unts": 0.0, "per_dw_c_well": 0.0, "per_dw_unc_wel": 68.8, "per_dw_hpump": 0.0, "per_dw_tw_bore": 31.2, "per_dw_spring": 0.0, "per_dw_rivcan": 0.0, "per_dw_tank": 0.0, "per_dw_oth": 0.0, "per_loc_dw_wp": 0.0, "per_loc_dw_np": 24.7, "per_loc_dw_aw": 75.3, "per_light_elec": 0.0, "per_light_kero": 100.0, "per_light_solr": 0.0, "per_light_oil": 0.0, "per_light_oth": 0.0, "per_light_no": 0.0, "per_hh_latrine": 2.2, "per_fl_sewer": 0.0, "per_fl_septict": 0.0, "per_fl_othsys": 1.1, "per_pl_wslab": 0.0, "per_pl_without": 0.0, "per_ns_open": 0.0, "per_sl_ns_hum": 0.0, "per_sl_ns_anml": 1.1, "per_hh_no_lat": 97.8, "per_as_pub": 0.0, "per_as_open": 97.8, "per_hh_bathrm": 0.0, "per_hh_en_wrf": 0.0, "per_hh_no_btrm": 100.0, "per_wwoc_drain": 0.0, "per_wwoc_open": 0.0, "per_wwoc_nodrn": 100.0, "per_cook_fire": 98.9, "per_cook_resdu": 1.1, "per_cook_cwdng": 0.0, "per_cook_coal": 0.0, "per_cook_kero": 0.0, "per_cook_lpng": 0.0, "per_cook_elec": 0.0, "per_cook_biogs": 0.0, "per_cook_oth": 0.0, "per_cook_no": 0.0, "per_kf_inside": 100.0, "per_kf_in_has": 0.0, "per_kf_in_does": 100.0, "per_kf_outside": 0.0, "per_kf_out_has": 0.0, "per_kf_out_dos": 0.0, "per_kf_no_cook": 0.0, "per_hh_banking": 0.0, "per_hh_radio": 2.2, "per_hh_tv": 0.0, "per_hh_cmp_int": 0.0, "per_hh_cmp_wnt": 21.5, "per_hh_ph_ll": 0.0, "per_hh_ph_mob": 0.0, "per_hh_ph_bth": 0.0, "per_hh_bcycl": 53.8, "per_hh_2wheel": 0.0, "per_hh_4wheel": 0.0, "per_hh_tvcomp": 0.0, "per_hh_no_ast": 30.1, "per_hs_perma": 0.0, "per_hs_sperma": 1.1, "per_hs_temp": 98.9, "per_hs_servc": 98.9, "per_hs_nservc": 0.0, "per_hs_unclss": 0.0, "avghhsz_cy": 5.02150538, "st_areashape": 4292062.018328915, "st_lengthshape": 8768.274031244602}, "geometry": {"type": "Polygon", "coordinates": [[[86.16509000038997, 23.211789999789445], [86.16502000006977, 23.21180999995971], [86.1646700002654, 23.21185000029128], [86.1643799998372, 23.2118599999595], [86.16388000024497, 23.211819999630944], [86.16331999948002, 23.2117399997635], [86.16302999995011, 23.211569999370077], [86.16247000008346, 23.211259999552826], [86.16216000046205, 23.210949999841898], [86.16199000058276, 23.210540000131566], [86.1618199998051, 23.209940000402085], [86.16177999962215, 23.20932999977272], [86.16177000047473, 23.20879999968554], [86.16190000017106, 23.207989999805907], [86.1620099997759, 23.207669999958046], [86.1622199998382, 23.207200000004864], [86.16230000020414, 23.206769999425358], [86.16229000015838, 23.206370000178584], [86.16216999960949, 23.206259999267647], [86.16173999943916, 23.206200000383873], [86.1612199997555, 23.206200000383873], [86.16054000023824, 23.20625000000598], [86.16021000052534, 23.206120000454217], [86.15978999950248, 23.20582999979173], [86.15955000020128, 23.205449999679352], [86.15953000010978, 23.20503000025354], [86.15957999944021, 23.204520000060956], [86.1600599998392, 23.20297999985952], [86.16039000045042, 23.20261999979498], [86.1605800004212, 23.202289999916125], [86.16106999996767, 23.20208999951798], [86.16171000020026, 23.201399999934324], [86.16319999982942, 23.200360000221856], [86.1643799998372, 23.199479999544188], [86.16545000024007, 23.199299999461303], [86.16663000024785, 23.198839999616297], [86.16737000003957, 23.198360000136798], [86.16779000016413, 23.19813999990262], [86.16828999975633, 23.19800999906862], [86.16910999991394, 23.19785999998171], [86.16972000000935, 23.197770000118528], [86.17015000017965, 23.197699999173842], [86.17098999953045, 23.197580000300096], [86.17254999947983, 23.197269999408277], [86.17431999949144, 23.196950000317415], [86.1760600002642, 23.196569999731313], [86.1782599995478, 23.19627999981771], [86.17896000005487, 23.19617999970168], [86.179019999431, 23.196469999832175], [86.17930999985926, 23.197980000255523], [86.17946000054539, 23.198819999982035], [86.17981000034976, 23.19942999986655], [86.18046999977551, 23.20007000027258], [86.18078000029523, 23.20046999938321], [86.18121999961295, 23.2014600001472], [86.18176000028646, 23.202529999833782], [86.18184999979982, 23.20276999932046], [86.18202999972486, 23.203000000522728], [86.18234000024458, 23.203149999621775], [86.18268000000322, 23.203139999301747], [86.18289000006551, 23.203060000017413], [86.18342999984066, 23.20272000004777], [86.18427000008978, 23.202800000361282], [86.1845300003808, 23.203139999301747], [86.18500999988152, 23.20417999967703], [86.18551999951946, 23.205949999515866], [86.18564999921578, 23.208129999962793], [86.18546000014332, 23.20857999929673], [86.18533000044695, 23.20885999987881], [86.18511000033892, 23.20912000012982], [86.18494000045963, 23.20963999993978], [86.1847499995905, 23.210559999663325], [86.1846299999399, 23.213209999484917], [86.18449000019781, 23.213889999669192], [86.18431000027277, 23.213849999948437], [86.184039999936, 23.213849999948437], [86.18357999962849, 23.213849999948437], [86.18306999999054, 23.213849999948437], [86.18221000054825, 23.21374000024176], [86.17864000038772, 23.213720000360414], [86.17790000059604, 23.213659999872828], [86.17732999978533, 23.21353000009993], [86.1769900000267, 23.213369999888233], [86.17661999923251, 23.213149999593874], [86.17624000018922, 23.212889999754623], [86.1756100000024, 23.212460000148457], [86.17455999969098, 23.21191999960429], [86.17377999971632, 23.211549999989494], [86.17282999986229, 23.211329999174936], [86.17250000014941, 23.21127999980243], [86.17152000015818, 23.21127999980243], [86.17045999980103, 23.211259999552826], [86.16977000023806, 23.21113999964352], [86.16913000000547, 23.21106999992186], [86.16825999961908, 23.21090000032718], [86.16738000008527, 23.210800000416004], [86.16675999994419, 23.21091000006649], [86.16592999974078, 23.211309999758438], [86.16526000026929, 23.2117399997635], [86.16509000038997, 23.211789999789445]]]}}]}