{"type": "FeatureCollection", "features": [{"type": "Feature", "properties": {"premiumdata.sde.IN_Village_PCA.area": 1.38071594, "objectid": 505916, "id": "203272614201823", "name": "Jenadahi", "subdistrict": "Baharagora", "district": "East Singhbum", "state": "Jharkhand", "country": "India", "censusname": "Jenadahi", "villagename_locallang": null, "lgd_villagename": "Jenadahi", "lgd_villagecode": 364921, "lgd_subdistrictcode": 2614, "lgd_districtcode": 327, "lgd_statecode": 20, "censuscode2001": "03251200", "censuscode2011": "364921", "censuscode2021": null, "level": "Village", "tru": "Rural", "no_hh": 87, "tot_p": 386, "tot_m": 199, "tot_f": 187, "per_tot_m": 51.55440415, "per_tot_f": 48.44559585, "p_06": 67, "m_06": 39, "f_06": 28, "per_p_06": 17.35751295, "per_m_06": 58.20895522, "per_f_06": 41.79104478, "p_sc": 116, "m_sc": 53, "f_sc": 63, "per_p_sc": 30.05181347, "per_m_sc": 45.68965517, "per_f_sc": 54.31034483, "p_st": 82, "m_st": 45, "f_st": 37, "per_p_st": 21.24352332, "per_m_st": 54.87804878, "per_f_st": 45.12195122, "p_lit": 166, "m_lit": 94, "f_lit": 72, "per_p_lit": 43.00518135, "per_m_lit": 56.62650602, "per_f_lit": 43.37349398, "p_ill": 220, "m_ill": 105, "f_ill": 115, "per_p_ill": 56.99481865, "per_m_ill": 47.72727273, "per_f_ill": 52.27272727, "tot_work_p": 220, "tot_work_m": 111, "tot_work_f": 109, "per_tot_work_p": 56.99481865, "per_tot_work_m": 50.45454545, "per_tot_work_f": 49.54545455, "mainwork_p": 54, "mainwork_m": 52, "mainwork_f": 2, "per_mainwork_p": 13.98963731, "per_mainwork_m": 96.2962963, "per_mainwork_f": 3.7037037, "main_cl_p": 11, "main_cl_m": 11, "main_cl_f": 0, "per_main_cl_p": 20.37037037, "per_main_cl_m": 100.0, "per_main_cl_f": 0.0, "main_al_p": 40, "main_al_m": 38, "main_al_f": 2, "per_main_al_p": 74.07407407, "per_main_al_m": 95.0, "per_main_al_f": 5.0, "main_hh_p": 0, "main_hh_m": 0, "main_hh_f": 0, "per_main_hh_p": 0.0, "per_main_hh_m": 0.0, "per_main_hh_f": 0.0, "main_ot_p": 3, "main_ot_m": 3, "main_ot_f": 0, "per_main_ot_p": 5.55555556, "per_main_ot_m": 100.0, "per_main_ot_f": 0.0, "margwork_p": 166, "margwork_m": 59, "margwork_f": 107, "per_margwork_p": 43.00518135, "per_margwork_m": 35.54216867, "per_margwork_f": 64.45783133, "marg_cl_p": 2, "marg_cl_m": 0, "marg_cl_f": 2, "per_marg_cl_p": 1.20481928, "per_marg_cl_m": 0.0, "per_marg_cl_f": 100.0, "marg_al_p": 164, "marg_al_m": 59, "marg_al_f": 105, "per_marg_al_p": 98.79518072, "per_marg_al_m": 35.97560976, "per_marg_al_f": 64.02439024, "marg_hh_p": 0, "marg_hh_m": 0, "marg_hh_f": 0, "per_marg_hh_p": 0.0, "per_marg_hh_m": 0.0, "per_marg_hh_f": 0.0, "marg_ot_p": 0, "marg_ot_m": 0, "marg_ot_f": 0, "per_marg_ot_p": 0.0, "per_marg_ot_m": 0.0, "per_marg_ot_f": 0.0, "margwork_3_6_p": 154, "margwork_3_6_m": 56, "margwork_3_6_f": 98, "per_margwork_3_6_p": 92.77108434, "per_margwork_3_6_m": 36.36363636, "per_margwork_3_6_f": 63.63636364, "marg_cl_3_6_p": 2, "marg_cl_3_6_m": 0, "marg_cl_3_6_f": 2, "per_marg_cl_3_6_p": 1.20481928, "per_marg_cl_3_6_m": 0.0, "per_marg_cl_3_6_f": 100.0, "marg_al_3_6_p": 152, "marg_al_3_6_m": 56, "marg_al_3_6_f": 96, "per_marg_al_3_6_p": 91.56626506, "per_marg_al_3_6_m": 36.84210526, "per_marg_al_3_6_f": 63.15789474, "marg_hh_3_6_p": 0, "marg_hh_3_6_m": 0, "marg_hh_3_6_f": 0, "per_marg_hh_3_6_p": 0.0, "per_marg_hh_3_6_m": 0.0, "per_marg_hh_3_6_f": 0.0, "marg_ot_3_6_p": 0, "marg_ot_3_6_m": 0, "marg_ot_3_6_f": 0, "per_marg_ot_3_6_p": 0.0, "per_marg_ot_3_6_m": 0.0, "per_marg_ot_3_6_f": 0.0, "margwork_0_3_p": 12, "margwork_0_3_m": 3, "margwork_0_3_f": 9, "per_margwork_0_3_p": 7.22891566, "per_margwork_0_3_m": 25.0, "per_margwork_0_3_f": 75.0, "marg_cl_0_3_p": 0, "marg_cl_0_3_m": 0, "marg_cl_0_3_f": 0, "per_marg_cl_0_3_p": 0.0, "per_marg_cl_0_3_m": 0.0, "per_marg_cl_0_3_f": 0.0, "marg_al_0_3_p": 12, "marg_al_0_3_m": 3, "marg_al_0_3_f": 9, "per_marg_al_0_3_p": 7.22891566, "per_marg_al_0_3_m": 25.0, "per_marg_al_0_3_f": 75.0, "marg_hh_0_3_p": 0, "marg_hh_0_3_m": 0, "marg_hh_0_3_f": 0, "per_marg_hh_0_3_p": 0.0, "per_marg_hh_0_3_m": 0.0, "per_marg_hh_0_3_f": 0.0, "marg_ot_0_3_p": 0, "marg_ot_0_3_m": 0, "marg_ot_0_3_f": 0, "per_marg_ot_0_3_p": 0.0, "per_marg_ot_0_3_m": 0.0, "per_marg_ot_0_3_f": 0.0, "non_work_p": 166, "non_work_m": 88, "non_work_f": 78, "per_non_work_p": 43.00518135, "per_non_work_m": 53.01204819, "per_non_work_f": 46.98795181000001, "per_hc_tot_tot": 100, "per_hc_tot_god": 6.9, "per_hc_tot_liv": 93.1, "per_hc_tot_dil": 0.0, "per_hc_res_tot": 79.3, "per_hc_res_god": 2.3, "per_hc_res_liv": 77.0, "per_hc_res_dil": 0.0, "per_hc_oth_tot": 20.7, "per_hc_oth_god": 4.6, "per_hc_oth_liv": 16.1, "per_hc_oth_dil": 0.0, "per_mt_grsbam": 55.2, "per_mt_plastic": 0.0, "per_mt_h_tiles": 6.9, "per_mt_m_tiles": 0.0, "per_mt_b_brick": 0.0, "per_mt_stone": 0.0, "per_mt_asbstos": 4.6, "per_mt_concrte": 33.3, "per_mt_oth": 0.0, "per_mw_grsbam": 0.0, "per_mw_plastic": 0.0, "per_mw_mud": 56.3, "per_mw_wood": 0.0, "per_mw_no_mrtr": 0.0, "per_mw_st_mrtr": 0.0, "per_mw_asbstos": 0.0, "per_mw_b_brick": 43.7, "per_mw_concrte": 0.0, "per_mw_oth": 0.0, "per_mf_mud": 64.4, "per_mf_wood": 0.0, "per_mf_b_brick": 0.0, "per_mf_stone": 0.0, "per_mf_cement": 35.6, "per_mf_fl_tile": 0.0, "per_mf_oth": 0.0, "per_dw_n_exrm": 1.1, "per_dw_1_room": 69.0, "per_dw_2_room": 26.4, "per_dw_3_room": 2.3, "per_dw_4_room": 1.1, "per_dw_5_room": 0.0, "per_dw_6_room": 0.0, "per_hhsize_1": 6.9, "per_hhsize_2": 16.1, "per_hhsize_3": 10.3, "per_hhsize_4": 21.8, "per_hhsize_5": 20.7, "per_hhsize_6_8": 21.8, "per_hhsize_9p": 2.3, "per_ow_owned": 100.0, "per_ow_rented": 0.0, "per_ow_oth": 0.0, "per_mc_none": 10.3, "per_mcouple_1": 73.6, "per_mcouple_2": 12.6, "per_mcouple_3": 2.3, "per_mcouple_4": 1.1, "per_mcouple_5p": 0.0, "per_dw_t_ts": 9.2, "per_dw_t_unts": 0.0, "per_dw_c_well": 0.0, "per_dw_unc_wel": 0.0, "per_dw_hpump": 90.8, "per_dw_tw_bore": 0.0, "per_dw_spring": 0.0, "per_dw_rivcan": 0.0, "per_dw_tank": 0.0, "per_dw_oth": 0.0, "per_loc_dw_wp": 10.3, "per_loc_dw_np": 88.5, "per_loc_dw_aw": 1.1, "per_light_elec": 60.9, "per_light_kero": 39.1, "per_light_solr": 0.0, "per_light_oil": 0.0, "per_light_oth": 0.0, "per_light_no": 0.0, "per_hh_latrine": 4.6, "per_fl_sewer": 4.6, "per_fl_septict": 0.0, "per_fl_othsys": 0.0, "per_pl_wslab": 0.0, "per_pl_without": 0.0, "per_ns_open": 0.0, "per_sl_ns_hum": 0.0, "per_sl_ns_anml": 0.0, "per_hh_no_lat": 95.4, "per_as_pub": 0.0, "per_as_open": 95.4, "per_hh_bathrm": 4.6, "per_hh_en_wrf": 0.0, "per_hh_no_btrm": 95.4, "per_wwoc_drain": 4.6, "per_wwoc_open": 0.0, "per_wwoc_nodrn": 95.4, "per_cook_fire": 100.0, "per_cook_resdu": 0.0, "per_cook_cwdng": 0.0, "per_cook_coal": 0.0, "per_cook_kero": 0.0, "per_cook_lpng": 0.0, "per_cook_elec": 0.0, "per_cook_biogs": 0.0, "per_cook_oth": 0.0, "per_cook_no": 0.0, "per_kf_inside": 100.0, "per_kf_in_has": 17.2, "per_kf_in_does": 82.8, "per_kf_outside": 0.0, "per_kf_out_has": 0.0, "per_kf_out_dos": 0.0, "per_kf_no_cook": 0.0, "per_hh_banking": 100.0, "per_hh_radio": 1.1, "per_hh_tv": 5.7, "per_hh_cmp_int": 0.0, "per_hh_cmp_wnt": 0.0, "per_hh_ph_ll": 0.0, "per_hh_ph_mob": 8.0, "per_hh_ph_bth": 0.0, "per_hh_bcycl": 73.6, "per_hh_2wheel": 0.0, "per_hh_4wheel": 0.0, "per_hh_tvcomp": 0.0, "per_hh_no_ast": 26.4, "per_hs_perma": 40.2, "per_hs_sperma": 8.0, "per_hs_temp": 51.7, "per_hs_servc": 51.7, "per_hs_nservc": 0.0, "per_hs_unclss": 0.0, "avghhsz_cy": 4.43678161, "st_areashape": 1620046.14976788, "st_lengthshape": 5769.678326132325}, "geometry": {"type": "Polygon", "coordinates": [[[86.67906620969775, 22.277153278587893], [86.67796046892296, 22.277192167694484], [86.67535991714236, 22.276977798248915], [86.67377822557383, 22.27668228337419], [86.67262091790843, 22.275748970848216], [86.67190403176899, 22.275173913270436], [86.67153793415473, 22.275217195397193], [86.67134895467011, 22.273054347019855], [86.67098062474236, 22.27030583671259], [86.67042854532157, 22.267922569351846], [86.66936196121168, 22.267075288845167], [86.66920962580413, 22.266954274362615], [86.66645415685782, 22.26581959638915], [86.66939697664314, 22.265523530877534], [86.67747730286086, 22.26565170105993], [86.67741619855693, 22.266180928261956], [86.67833637524181, 22.266669501520166], [86.6802104971814, 22.268177696466395], [86.68229942606835, 22.26888133825217], [86.68176934549058, 22.27017789275235], [86.68277599130973, 22.274887578559003], [86.68410718676297, 22.275905250316885], [86.68248195205601, 22.27646682667729], [86.68017194867593, 22.277114383651586], [86.67906620969775, 22.277153278587893]]]}}]}