{"type": "FeatureCollection", "features": [{"type": "Feature", "properties": {"premiumdata.sde.IN_Village_PCA.area": 0.98035824, "objectid": 351697, "id": "9174880360244", "name": "Pure Jodha", "subdistrict": "Lalganj", "district": "Pratapgarh", "state": "Uttar Pradesh", "country": "India", "censusname": "Pure Jodha", "villagename_locallang": null, "lgd_villagename": "Pure Jodha", "lgd_villagecode": 157917, "lgd_subdistrictcode": 880, "lgd_districtcode": 174, "lgd_statecode": 9, "censuscode2001": "05094800", "censuscode2011": "157917", "censuscode2021": null, "level": "Village", "tru": "Rural", "no_hh": 100, "tot_p": 588, "tot_m": 303, "tot_f": 285, "per_tot_m": 51.53061224, "per_tot_f": 48.46938776, "p_06": 111, "m_06": 51, "f_06": 60, "per_p_06": 18.87755102, "per_m_06": 45.94594595, "per_f_06": 54.05405405, "p_sc": 84, "m_sc": 40, "f_sc": 44, "per_p_sc": 14.28571429, "per_m_sc": 47.61904762, "per_f_sc": 52.38095238, "p_st": 0, "m_st": 0, "f_st": 0, "per_p_st": 0.0, "per_m_st": 0.0, "per_f_st": 0.0, "p_lit": 280, "m_lit": 182, "f_lit": 98, "per_p_lit": 47.61904762, "per_m_lit": 65.0, "per_f_lit": 35.0, "p_ill": 308, "m_ill": 121, "f_ill": 187, "per_p_ill": 52.38095238, "per_m_ill": 39.28571429, "per_f_ill": 60.71428571, "tot_work_p": 335, "tot_work_m": 183, "tot_work_f": 152, "per_tot_work_p": 56.97278912, "per_tot_work_m": 54.62686567, "per_tot_work_f": 45.37313433, "mainwork_p": 154, "mainwork_m": 143, "mainwork_f": 11, "per_mainwork_p": 26.19047619, "per_mainwork_m": 92.85714286, "per_mainwork_f": 7.14285714, "main_cl_p": 32, "main_cl_m": 32, "main_cl_f": 0, "per_main_cl_p": 20.77922078, "per_main_cl_m": 100.0, "per_main_cl_f": 0.0, "main_al_p": 116, "main_al_m": 106, "main_al_f": 10, "per_main_al_p": 75.32467532, "per_main_al_m": 91.37931034, "per_main_al_f": 8.62068966, "main_hh_p": 0, "main_hh_m": 0, "main_hh_f": 0, "per_main_hh_p": 0.0, "per_main_hh_m": 0.0, "per_main_hh_f": 0.0, "main_ot_p": 6, "main_ot_m": 5, "main_ot_f": 1, "per_main_ot_p": 3.8961039, "per_main_ot_m": 83.33333332999999, "per_main_ot_f": 16.66666667, "margwork_p": 181, "margwork_m": 40, "margwork_f": 141, "per_margwork_p": 30.78231293, "per_margwork_m": 22.09944751, "per_margwork_f": 77.90055249, "marg_cl_p": 3, "marg_cl_m": 1, "marg_cl_f": 2, "per_marg_cl_p": 1.65745856, "per_marg_cl_m": 33.33333333, "per_marg_cl_f": 66.66666667, "marg_al_p": 176, "marg_al_m": 39, "marg_al_f": 137, "per_marg_al_p": 97.23756906, "per_marg_al_m": 22.15909091, "per_marg_al_f": 77.84090909000001, "marg_hh_p": 1, "marg_hh_m": 0, "marg_hh_f": 1, "per_marg_hh_p": 0.55248619, "per_marg_hh_m": 0.0, "per_marg_hh_f": 100.0, "marg_ot_p": 1, "marg_ot_m": 0, "marg_ot_f": 1, "per_marg_ot_p": 0.55248619, "per_marg_ot_m": 0.0, "per_marg_ot_f": 100.0, "margwork_3_6_p": 158, "margwork_3_6_m": 39, "margwork_3_6_f": 119, "per_margwork_3_6_p": 87.29281768, "per_margwork_3_6_m": 24.6835443, "per_margwork_3_6_f": 75.3164557, "marg_cl_3_6_p": 1, "marg_cl_3_6_m": 1, "marg_cl_3_6_f": 0, "per_marg_cl_3_6_p": 0.55248619, "per_marg_cl_3_6_m": 100.0, "per_marg_cl_3_6_f": 0.0, "marg_al_3_6_p": 155, "marg_al_3_6_m": 38, "marg_al_3_6_f": 117, "per_marg_al_3_6_p": 85.63535912, "per_marg_al_3_6_m": 24.51612903, "per_marg_al_3_6_f": 75.48387097, "marg_hh_3_6_p": 1, "marg_hh_3_6_m": 0, "marg_hh_3_6_f": 1, "per_marg_hh_3_6_p": 0.55248619, "per_marg_hh_3_6_m": 0.0, "per_marg_hh_3_6_f": 100.0, "marg_ot_3_6_p": 1, "marg_ot_3_6_m": 0, "marg_ot_3_6_f": 1, "per_marg_ot_3_6_p": 0.55248619, "per_marg_ot_3_6_m": 0.0, "per_marg_ot_3_6_f": 100.0, "margwork_0_3_p": 23, "margwork_0_3_m": 1, "margwork_0_3_f": 22, "per_margwork_0_3_p": 12.70718232, "per_margwork_0_3_m": 4.34782609, "per_margwork_0_3_f": 95.65217391, "marg_cl_0_3_p": 2, "marg_cl_0_3_m": 0, "marg_cl_0_3_f": 2, "per_marg_cl_0_3_p": 1.10497238, "per_marg_cl_0_3_m": 0.0, "per_marg_cl_0_3_f": 100.0, "marg_al_0_3_p": 21, "marg_al_0_3_m": 1, "marg_al_0_3_f": 20, "per_marg_al_0_3_p": 11.60220994, "per_marg_al_0_3_m": 4.76190476, "per_marg_al_0_3_f": 95.23809524, "marg_hh_0_3_p": 0, "marg_hh_0_3_m": 0, "marg_hh_0_3_f": 0, "per_marg_hh_0_3_p": 0.0, "per_marg_hh_0_3_m": 0.0, "per_marg_hh_0_3_f": 0.0, "marg_ot_0_3_p": 0, "marg_ot_0_3_m": 0, "marg_ot_0_3_f": 0, "per_marg_ot_0_3_p": 0.0, "per_marg_ot_0_3_m": 0.0, "per_marg_ot_0_3_f": 0.0, "non_work_p": 253, "non_work_m": 120, "non_work_f": 133, "per_non_work_p": 43.02721088, "per_non_work_m": 47.43083004, "per_non_work_f": 52.56916996, "per_hc_tot_tot": 100, "per_hc_tot_god": 24.0, "per_hc_tot_liv": 71.0, "per_hc_tot_dil": 5.0, "per_hc_res_tot": 99.0, "per_hc_res_god": 23.0, "per_hc_res_liv": 71.0, "per_hc_res_dil": 5.0, "per_hc_oth_tot": 1.0, "per_hc_oth_god": 1.0, "per_hc_oth_liv": 0.0, "per_hc_oth_dil": 0.0, "per_mt_grsbam": 59.0, "per_mt_plastic": 0.0, "per_mt_h_tiles": 0.0, "per_mt_m_tiles": 0.0, "per_mt_b_brick": 41.0, "per_mt_stone": 0.0, "per_mt_asbstos": 0.0, "per_mt_concrte": 0.0, "per_mt_oth": 0.0, "per_mw_grsbam": 0.0, "per_mw_plastic": 0.0, "per_mw_mud": 58.0, "per_mw_wood": 0.0, "per_mw_no_mrtr": 0.0, "per_mw_st_mrtr": 0.0, "per_mw_asbstos": 0.0, "per_mw_b_brick": 29.0, "per_mw_concrte": 0.0, "per_mw_oth": 13.0, "per_mf_mud": 84.0, "per_mf_wood": 0.0, "per_mf_b_brick": 16.0, "per_mf_stone": 0.0, "per_mf_cement": 0.0, "per_mf_fl_tile": 0.0, "per_mf_oth": 0.0, "per_dw_n_exrm": 1.0, "per_dw_1_room": 8.0, "per_dw_2_room": 50.0, "per_dw_3_room": 20.0, "per_dw_4_room": 19.0, "per_dw_5_room": 0.0, "per_dw_6_room": 2.0, "per_hhsize_1": 1.0, "per_hhsize_2": 9.0, "per_hhsize_3": 13.0, "per_hhsize_4": 11.0, "per_hhsize_5": 13.0, "per_hhsize_6_8": 40.0, "per_hhsize_9p": 13.0, "per_ow_owned": 100.0, "per_ow_rented": 0.0, "per_ow_oth": 0.0, "per_mc_none": 6.0, "per_mcouple_1": 73.0, "per_mcouple_2": 17.0, "per_mcouple_3": 3.0, "per_mcouple_4": 1.0, "per_mcouple_5p": 0.0, "per_dw_t_ts": 0.0, "per_dw_t_unts": 0.0, "per_dw_c_well": 0.0, "per_dw_unc_wel": 8.0, "per_dw_hpump": 92.0, "per_dw_tw_bore": 0.0, "per_dw_spring": 0.0, "per_dw_rivcan": 0.0, "per_dw_tank": 0.0, "per_dw_oth": 0.0, "per_loc_dw_wp": 9.0, "per_loc_dw_np": 83.0, "per_loc_dw_aw": 8.0, "per_light_elec": 13.0, "per_light_kero": 86.0, "per_light_solr": 1.0, "per_light_oil": 0.0, "per_light_oth": 0.0, "per_light_no": 0.0, "per_hh_latrine": 7.0, "per_fl_sewer": 0.0, "per_fl_septict": 6.0, "per_fl_othsys": 0.0, "per_pl_wslab": 0.0, "per_pl_without": 0.0, "per_ns_open": 0.0, "per_sl_ns_hum": 0.0, "per_sl_ns_anml": 1.0, "per_hh_no_lat": 93.0, "per_as_pub": 0.0, "per_as_open": 93.0, "per_hh_bathrm": 7.0, "per_hh_en_wrf": 19.0, "per_hh_no_btrm": 74.0, "per_wwoc_drain": 2.0, "per_wwoc_open": 43.0, "per_wwoc_nodrn": 55.0, "per_cook_fire": 98.0, "per_cook_resdu": 1.0, "per_cook_cwdng": 0.0, "per_cook_coal": 0.0, "per_cook_kero": 0.0, "per_cook_lpng": 1.0, "per_cook_elec": 0.0, "per_cook_biogs": 0.0, "per_cook_oth": 0.0, "per_cook_no": 0.0, "per_kf_inside": 100.0, "per_kf_in_has": 9.0, "per_kf_in_does": 91.0, "per_kf_outside": 0.0, "per_kf_out_has": 0.0, "per_kf_out_dos": 0.0, "per_kf_no_cook": 0.0, "per_hh_banking": 99.0, "per_hh_radio": 21.0, "per_hh_tv": 11.0, "per_hh_cmp_int": 0.0, "per_hh_cmp_wnt": 2.0, "per_hh_ph_ll": 0.0, "per_hh_ph_mob": 94.0, "per_hh_ph_bth": 0.0, "per_hh_bcycl": 96.0, "per_hh_2wheel": 20.0, "per_hh_4wheel": 1.0, "per_hh_tvcomp": 0.0, "per_hh_no_ast": 1.0, "per_hs_perma": 29.0, "per_hs_sperma": 0.0, "per_hs_temp": 58.0, "per_hs_servc": 58.0, "per_hs_nservc": 0.0, "per_hs_unclss": 13.0, "avghhsz_cy": 5.88, "st_areashape": 1216761.678328055, "st_lengthshape": 4813.115730032843}, "geometry": {"type": "Polygon", "coordinates": [[[81.62691605528849, 25.903041715356434], [81.62797763937547, 25.903528322610477], [81.62877348922504, 25.903933353464808], [81.62947672366711, 25.904979574247683], [81.6298221815894, 25.90650512124912], [81.63028615784037, 25.909312777450086], [81.62837835716249, 25.910548599698377], [81.62778214890166, 25.91102118204412], [81.62719728456628, 25.911469081088228], [81.62600022734789, 25.912263727556216], [81.62562477467824, 25.912524640969625], [81.6252885164028, 25.91316123068961], [81.62503535229109, 25.913798241976952], [81.62457570951305, 25.91424649972482], [81.62386770681344, 25.914543291454], [81.62299459017137, 25.91468903846079], [81.62212254611774, 25.914647026419576], [81.62071110056692, 25.91452717373069], [81.61875968758027, 25.91440454224988], [81.61743151405966, 25.914247529102703], [81.61672727080952, 25.913943512381913], [81.6163128932403, 25.91379119871063], [81.61636047789922, 25.913169500531932], [81.61636389329392, 25.91262605228694], [81.61606669556366, 25.911131695274058], [81.61645251568997, 25.91107558541281], [81.61690429461603, 25.910729507485385], [81.61768096723088, 25.909804365324074], [81.61884461700218, 25.90861991371493], [81.6194558010771, 25.908407683495607], [81.62090459857741, 25.9079045688757], [81.62206332647925, 25.907504041099287], [81.62293081248114, 25.907450389980262], [81.62373572723023, 25.907135096542007], [81.62512216098858, 25.906271118533553], [81.62564108988046, 25.905460766852322], [81.62599976202057, 25.90459154846485], [81.62660256301724, 25.902889622754174], [81.62691605528849, 25.903041715356434]]]}}]}