{"type": "FeatureCollection", "features": [{"type": "Feature", "properties": {"premiumdata.sde.IN_Village_PCA.area": 4.34949666, "objectid": 642872, "id": "182882084246575", "name": "Telia Sonari Gaon", "subdistrict": "Dergaon", "district": "Golaghat", "state": "Assam", "country": "India", "censusname": "Telia Sonari Gaon", "villagename_locallang": null, "lgd_villagename": "Telia Sonari Gaon", "lgd_villagecode": 294388, "lgd_subdistrictcode": 2084, "lgd_districtcode": 288, "lgd_statecode": 18, "censuscode2001": "01955200", "censuscode2011": "294388", "censuscode2021": null, "level": "Village", "tru": "Rural", "no_hh": 361, "tot_p": 1630, "tot_m": 804, "tot_f": 826, "per_tot_m": 49.32515337, "per_tot_f": 50.67484663, "p_06": 149, "m_06": 84, "f_06": 65, "per_p_06": 9.14110429, "per_m_06": 56.37583893, "per_f_06": 43.62416107, "p_sc": 3, "m_sc": 1, "f_sc": 2, "per_p_sc": 0.18404908, "per_m_sc": 33.33333333, "per_f_sc": 66.66666667, "p_st": 0, "m_st": 0, "f_st": 0, "per_p_st": 0.0, "per_m_st": 0.0, "per_f_st": 0.0, "p_lit": 1408, "m_lit": 701, "f_lit": 707, "per_p_lit": 86.3803681, "per_m_lit": 49.78693182, "per_f_lit": 50.21306818, "p_ill": 222, "m_ill": 103, "f_ill": 119, "per_p_ill": 13.6196319, "per_m_ill": 46.3963964, "per_f_ill": 53.6036036, "tot_work_p": 614, "tot_work_m": 498, "tot_work_f": 116, "per_tot_work_p": 37.66871166, "per_tot_work_m": 81.10749186, "per_tot_work_f": 18.89250814, "mainwork_p": 444, "mainwork_m": 382, "mainwork_f": 62, "per_mainwork_p": 27.2392638, "per_mainwork_m": 86.03603604, "per_mainwork_f": 13.96396396, "main_cl_p": 142, "main_cl_m": 126, "main_cl_f": 16, "per_main_cl_p": 31.98198198, "per_main_cl_m": 88.73239437, "per_main_cl_f": 11.26760563, "main_al_p": 0, "main_al_m": 0, "main_al_f": 0, "per_main_al_p": 0.0, "per_main_al_m": 0.0, "per_main_al_f": 0.0, "main_hh_p": 6, "main_hh_m": 6, "main_hh_f": 0, "per_main_hh_p": 1.35135135, "per_main_hh_m": 100.0, "per_main_hh_f": 0.0, "main_ot_p": 296, "main_ot_m": 250, "main_ot_f": 46, "per_main_ot_p": 66.66666667, "per_main_ot_m": 84.45945946, "per_main_ot_f": 15.54054054, "margwork_p": 170, "margwork_m": 116, "margwork_f": 54, "per_margwork_p": 10.42944785, "per_margwork_m": 68.23529412, "per_margwork_f": 31.76470588, "marg_cl_p": 42, "marg_cl_m": 36, "marg_cl_f": 6, "per_marg_cl_p": 24.70588235, "per_marg_cl_m": 85.71428571, "per_marg_cl_f": 14.28571429, "marg_al_p": 3, "marg_al_m": 0, "marg_al_f": 3, "per_marg_al_p": 1.76470588, "per_marg_al_m": 0.0, "per_marg_al_f": 100.0, "marg_hh_p": 11, "marg_hh_m": 1, "marg_hh_f": 10, "per_marg_hh_p": 6.47058824, "per_marg_hh_m": 9.09090909, "per_marg_hh_f": 90.90909091, "marg_ot_p": 114, "marg_ot_m": 79, "marg_ot_f": 35, "per_marg_ot_p": 67.05882353000001, "per_marg_ot_m": 69.29824561, "per_marg_ot_f": 30.70175439, "margwork_3_6_p": 164, "margwork_3_6_m": 110, "margwork_3_6_f": 54, "per_margwork_3_6_p": 96.47058824, "per_margwork_3_6_m": 67.07317073, "per_margwork_3_6_f": 32.92682927, "marg_cl_3_6_p": 41, "marg_cl_3_6_m": 35, "marg_cl_3_6_f": 6, "per_marg_cl_3_6_p": 24.11764706, "per_marg_cl_3_6_m": 85.36585366, "per_marg_cl_3_6_f": 14.63414634, "marg_al_3_6_p": 3, "marg_al_3_6_m": 0, "marg_al_3_6_f": 3, "per_marg_al_3_6_p": 1.76470588, "per_marg_al_3_6_m": 0.0, "per_marg_al_3_6_f": 100.0, "marg_hh_3_6_p": 11, "marg_hh_3_6_m": 1, "marg_hh_3_6_f": 10, "per_marg_hh_3_6_p": 6.47058824, "per_marg_hh_3_6_m": 9.09090909, "per_marg_hh_3_6_f": 90.90909091, "marg_ot_3_6_p": 109, "marg_ot_3_6_m": 74, "marg_ot_3_6_f": 35, "per_marg_ot_3_6_p": 64.11764706, "per_marg_ot_3_6_m": 67.88990826, "per_marg_ot_3_6_f": 32.11009174, "margwork_0_3_p": 6, "margwork_0_3_m": 6, "margwork_0_3_f": 0, "per_margwork_0_3_p": 3.52941176, "per_margwork_0_3_m": 100.0, "per_margwork_0_3_f": 0.0, "marg_cl_0_3_p": 1, "marg_cl_0_3_m": 1, "marg_cl_0_3_f": 0, "per_marg_cl_0_3_p": 0.58823529, "per_marg_cl_0_3_m": 100.0, "per_marg_cl_0_3_f": 0.0, "marg_al_0_3_p": 0, "marg_al_0_3_m": 0, "marg_al_0_3_f": 0, "per_marg_al_0_3_p": 0.0, "per_marg_al_0_3_m": 0.0, "per_marg_al_0_3_f": 0.0, "marg_hh_0_3_p": 0, "marg_hh_0_3_m": 0, "marg_hh_0_3_f": 0, "per_marg_hh_0_3_p": 0.0, "per_marg_hh_0_3_m": 0.0, "per_marg_hh_0_3_f": 0.0, "marg_ot_0_3_p": 5, "marg_ot_0_3_m": 5, "marg_ot_0_3_f": 0, "per_marg_ot_0_3_p": 2.94117647, "per_marg_ot_0_3_m": 100.0, "per_marg_ot_0_3_f": 0.0, "non_work_p": 1016, "non_work_m": 306, "non_work_f": 710, "per_non_work_p": 62.33128834, "per_non_work_m": 30.11811024, "per_non_work_f": 69.88188976, "per_hc_tot_tot": 100, "per_hc_tot_god": 42.1, "per_hc_tot_liv": 55.1, "per_hc_tot_dil": 2.8, "per_hc_res_tot": 99.7, "per_hc_res_god": 42.1, "per_hc_res_liv": 54.8, "per_hc_res_dil": 2.8, "per_hc_oth_tot": 0.3, "per_hc_oth_god": 0.0, "per_hc_oth_liv": 0.3, "per_hc_oth_dil": 0.0, "per_mt_grsbam": 0.3, "per_mt_plastic": 0.0, "per_mt_h_tiles": 0.0, "per_mt_m_tiles": 0.0, "per_mt_b_brick": 0.0, "per_mt_stone": 0.0, "per_mt_asbstos": 99.4, "per_mt_concrte": 0.3, "per_mt_oth": 0.0, "per_mw_grsbam": 65.1, "per_mw_plastic": 0.0, "per_mw_mud": 0.3, "per_mw_wood": 0.3, "per_mw_no_mrtr": 0.0, "per_mw_st_mrtr": 0.0, "per_mw_asbstos": 0.0, "per_mw_b_brick": 32.7, "per_mw_concrte": 1.7, "per_mw_oth": 0.0, "per_mf_mud": 68.4, "per_mf_wood": 0.0, "per_mf_b_brick": 8.6, "per_mf_stone": 0.0, "per_mf_cement": 22.7, "per_mf_fl_tile": 0.3, "per_mf_oth": 0.0, "per_dw_n_exrm": 0.0, "per_dw_1_room": 2.5, "per_dw_2_room": 22.7, "per_dw_3_room": 29.6, "per_dw_4_room": 21.6, "per_dw_5_room": 12.5, "per_dw_6_room": 11.1, "per_hhsize_1": 1.7, "per_hhsize_2": 9.4, "per_hhsize_3": 18.8, "per_hhsize_4": 27.1, "per_hhsize_5": 18.6, "per_hhsize_6_8": 21.1, "per_hhsize_9p": 3.3, "per_ow_owned": 97.0, "per_ow_rented": 1.7, "per_ow_oth": 1.4, "per_mc_none": 13.9, "per_mcouple_1": 72.9, "per_mcouple_2": 11.4, "per_mcouple_3": 1.9, "per_mcouple_4": 0.0, "per_mcouple_5p": 0.0, "per_dw_t_ts": 54.0, "per_dw_t_unts": 0.3, "per_dw_c_well": 0.3, "per_dw_unc_wel": 0.6, "per_dw_hpump": 31.3, "per_dw_tw_bore": 3.0, "per_dw_spring": 0.0, "per_dw_rivcan": 0.0, "per_dw_tank": 10.5, "per_dw_oth": 0.0, "per_loc_dw_wp": 24.9, "per_loc_dw_np": 38.0, "per_loc_dw_aw": 37.1, "per_light_elec": 59.8, "per_light_kero": 39.9, "per_light_solr": 0.0, "per_light_oil": 0.0, "per_light_oth": 0.3, "per_light_no": 0.0, "per_hh_latrine": 93.1, "per_fl_sewer": 33.8, "per_fl_septict": 1.1, "per_fl_othsys": 9.1, "per_pl_wslab": 8.6, "per_pl_without": 40.2, "per_ns_open": 0.3, "per_sl_ns_hum": 0.0, "per_sl_ns_anml": 0.0, "per_hh_no_lat": 6.9, "per_as_pub": 1.9, "per_as_open": 5.0, "per_hh_bathrm": 42.7, "per_hh_en_wrf": 51.2, "per_hh_no_btrm": 6.1, "per_wwoc_drain": 2.2, "per_wwoc_open": 46.0, "per_wwoc_nodrn": 51.8, "per_cook_fire": 58.7, "per_cook_resdu": 0.0, "per_cook_cwdng": 0.0, "per_cook_coal": 0.0, "per_cook_kero": 0.3, "per_cook_lpng": 40.4, "per_cook_elec": 0.0, "per_cook_biogs": 0.0, "per_cook_oth": 0.0, "per_cook_no": 0.6, "per_kf_inside": 98.6, "per_kf_in_has": 97.5, "per_kf_in_does": 1.1, "per_kf_outside": 0.8, "per_kf_out_has": 0.0, "per_kf_out_dos": 0.8, "per_kf_no_cook": 0.6, "per_hh_banking": 77.8, "per_hh_radio": 31.3, "per_hh_tv": 42.1, "per_hh_cmp_int": 0.3, "per_hh_cmp_wnt": 3.0, "per_hh_ph_ll": 3.0, "per_hh_ph_mob": 62.3, "per_hh_ph_bth": 3.6, "per_hh_bcycl": 87.5, "per_hh_2wheel": 24.4, "per_hh_4wheel": 6.6, "per_hh_tvcomp": 2.5, "per_hh_no_ast": 6.4, "per_hs_perma": 34.3, "per_hs_sperma": 65.4, "per_hs_temp": 0.3, "per_hs_servc": 0.0, "per_hs_nservc": 0.3, "per_hs_unclss": 0.0, "avghhsz_cy": 4.51523546, "st_areashape": 5466082.928669585, "st_lengthshape": 11109.783928397963}, "geometry": {"type": "Polygon", "coordinates": [[[93.97215942737763, 26.645679003378394], [93.9699840006103, 26.645314756381644], [93.96426143311145, 26.64760294615309], [93.96245430662742, 26.649756495677078], [93.96124955533863, 26.652852151449082], [93.95959302332719, 26.65460183237721], [93.95691246309576, 26.656164263271194], [93.95144582921466, 26.648304529881766], [93.94669223488694, 26.642356264028567], [93.95168350906579, 26.640444255403217], [93.95477334533388, 26.637469956499952], [93.96000229936386, 26.631521126361534], [93.96101467373961, 26.629498236994372], [93.96423737622816, 26.632379050468202], [93.97065472861547, 26.631741661880604], [93.97421992458585, 26.626642427589893], [93.97513042461847, 26.63160415766987], [93.9739420253628, 26.636384487944845], [93.97364492554891, 26.64010238520416], [93.97215942737763, 26.645679003378394]]]}}]}