{"type": "FeatureCollection", "features": [{"type": "Feature", "properties": {"premiumdata.sde.IN_Village_PCA.area": 0.01969922, "objectid": 429639, "id": "225165590780", "name": "Kaniara", "subdistrict": "Solan", "district": "Solan", "state": "Himachal Pradesh", "country": "India", "censusname": "Kaniara  (277)", "villagename_locallang": null, "lgd_villagename": "Kaniara", "lgd_villagecode": 21787, "lgd_subdistrictcode": 165, "lgd_districtcode": 25, "lgd_statecode": 2, "censuscode2001": "01485500", "censuscode2011": "021787", "censuscode2021": null, "level": "Village", "tru": "Rural", "no_hh": 51, "tot_p": 259, "tot_m": 126, "tot_f": 133, "per_tot_m": 48.64864865, "per_tot_f": 51.35135135, "p_06": 31, "m_06": 13, "f_06": 18, "per_p_06": 11.96911197, "per_m_06": 41.93548387, "per_f_06": 58.06451613, "p_sc": 195, "m_sc": 94, "f_sc": 101, "per_p_sc": 75.28957529, "per_m_sc": 48.20512821000001, "per_f_sc": 51.79487179, "p_st": 0, "m_st": 0, "f_st": 0, "per_p_st": 0.0, "per_m_st": 0.0, "per_f_st": 0.0, "p_lit": 210, "m_lit": 110, "f_lit": 100, "per_p_lit": 81.08108108, "per_m_lit": 52.38095238, "per_f_lit": 47.61904762, "p_ill": 49, "m_ill": 16, "f_ill": 33, "per_p_ill": 18.91891892, "per_m_ill": 32.65306122, "per_f_ill": 67.34693878, "tot_work_p": 222, "tot_work_m": 112, "tot_work_f": 110, "per_tot_work_p": 85.71428571, "per_tot_work_m": 50.45045045000001, "per_tot_work_f": 49.54954955, "mainwork_p": 83, "mainwork_m": 80, "mainwork_f": 3, "per_mainwork_p": 32.04633205, "per_mainwork_m": 96.38554217, "per_mainwork_f": 3.61445783, "main_cl_p": 60, "main_cl_m": 60, "main_cl_f": 0, "per_main_cl_p": 72.28915663000001, "per_main_cl_m": 100.0, "per_main_cl_f": 0.0, "main_al_p": 0, "main_al_m": 0, "main_al_f": 0, "per_main_al_p": 0.0, "per_main_al_m": 0.0, "per_main_al_f": 0.0, "main_hh_p": 1, "main_hh_m": 1, "main_hh_f": 0, "per_main_hh_p": 1.20481928, "per_main_hh_m": 100.0, "per_main_hh_f": 0.0, "main_ot_p": 22, "main_ot_m": 19, "main_ot_f": 3, "per_main_ot_p": 26.5060241, "per_main_ot_m": 86.36363636, "per_main_ot_f": 13.63636364, "margwork_p": 139, "margwork_m": 32, "margwork_f": 107, "per_margwork_p": 53.66795367, "per_margwork_m": 23.02158273, "per_margwork_f": 76.97841727, "marg_cl_p": 139, "marg_cl_m": 32, "marg_cl_f": 107, "per_marg_cl_p": 100.0, "per_marg_cl_m": 23.02158273, "per_marg_cl_f": 76.97841727, "marg_al_p": 0, "marg_al_m": 0, "marg_al_f": 0, "per_marg_al_p": 0.0, "per_marg_al_m": 0.0, "per_marg_al_f": 0.0, "marg_hh_p": 0, "marg_hh_m": 0, "marg_hh_f": 0, "per_marg_hh_p": 0.0, "per_marg_hh_m": 0.0, "per_marg_hh_f": 0.0, "marg_ot_p": 0, "marg_ot_m": 0, "marg_ot_f": 0, "per_marg_ot_p": 0.0, "per_marg_ot_m": 0.0, "per_marg_ot_f": 0.0, "margwork_3_6_p": 72, "margwork_3_6_m": 1, "margwork_3_6_f": 71, "per_margwork_3_6_p": 51.79856115, "per_margwork_3_6_m": 1.38888889, "per_margwork_3_6_f": 98.61111111, "marg_cl_3_6_p": 72, "marg_cl_3_6_m": 1, "marg_cl_3_6_f": 71, "per_marg_cl_3_6_p": 51.79856115, "per_marg_cl_3_6_m": 1.38888889, "per_marg_cl_3_6_f": 98.61111111, "marg_al_3_6_p": 0, "marg_al_3_6_m": 0, "marg_al_3_6_f": 0, "per_marg_al_3_6_p": 0.0, "per_marg_al_3_6_m": 0.0, "per_marg_al_3_6_f": 0.0, "marg_hh_3_6_p": 0, "marg_hh_3_6_m": 0, "marg_hh_3_6_f": 0, "per_marg_hh_3_6_p": 0.0, "per_marg_hh_3_6_m": 0.0, "per_marg_hh_3_6_f": 0.0, "marg_ot_3_6_p": 0, "marg_ot_3_6_m": 0, "marg_ot_3_6_f": 0, "per_marg_ot_3_6_p": 0.0, "per_marg_ot_3_6_m": 0.0, "per_marg_ot_3_6_f": 0.0, "margwork_0_3_p": 67, "margwork_0_3_m": 31, "margwork_0_3_f": 36, "per_margwork_0_3_p": 48.20143885, "per_margwork_0_3_m": 46.26865672, "per_margwork_0_3_f": 53.73134328, "marg_cl_0_3_p": 67, "marg_cl_0_3_m": 31, "marg_cl_0_3_f": 36, "per_marg_cl_0_3_p": 48.20143885, "per_marg_cl_0_3_m": 46.26865672, "per_marg_cl_0_3_f": 53.73134328, "marg_al_0_3_p": 0, "marg_al_0_3_m": 0, "marg_al_0_3_f": 0, "per_marg_al_0_3_p": 0.0, "per_marg_al_0_3_m": 0.0, "per_marg_al_0_3_f": 0.0, "marg_hh_0_3_p": 0, "marg_hh_0_3_m": 0, "marg_hh_0_3_f": 0, "per_marg_hh_0_3_p": 0.0, "per_marg_hh_0_3_m": 0.0, "per_marg_hh_0_3_f": 0.0, "marg_ot_0_3_p": 0, "marg_ot_0_3_m": 0, "marg_ot_0_3_f": 0, "per_marg_ot_0_3_p": 0.0, "per_marg_ot_0_3_m": 0.0, "per_marg_ot_0_3_f": 0.0, "non_work_p": 37, "non_work_m": 14, "non_work_f": 23, "per_non_work_p": 14.28571429, "per_non_work_m": 37.83783784, "per_non_work_f": 62.16216216, "per_hc_tot_tot": 100, "per_hc_tot_god": 98.0, "per_hc_tot_liv": 2.0, "per_hc_tot_dil": 0.0, "per_hc_res_tot": 100.0, "per_hc_res_god": 98.0, "per_hc_res_liv": 2.0, "per_hc_res_dil": 0.0, "per_hc_oth_tot": 0.0, "per_hc_oth_god": 0.0, "per_hc_oth_liv": 0.0, "per_hc_oth_dil": 0.0, "per_mt_grsbam": 0.0, "per_mt_plastic": 0.0, "per_mt_h_tiles": 0.0, "per_mt_m_tiles": 0.0, "per_mt_b_brick": 0.0, "per_mt_stone": 0.0, "per_mt_asbstos": 62.0, "per_mt_concrte": 38.0, "per_mt_oth": 0.0, "per_mw_grsbam": 0.0, "per_mw_plastic": 0.0, "per_mw_mud": 62.0, "per_mw_wood": 0.0, "per_mw_no_mrtr": 0.0, "per_mw_st_mrtr": 0.0, "per_mw_asbstos": 0.0, "per_mw_b_brick": 38.0, "per_mw_concrte": 0.0, "per_mw_oth": 0.0, "per_mf_mud": 62.0, "per_mf_wood": 0.0, "per_mf_b_brick": 0.0, "per_mf_stone": 0.0, "per_mf_cement": 38.0, "per_mf_fl_tile": 0.0, "per_mf_oth": 0.0, "per_dw_n_exrm": 0.0, "per_dw_1_room": 0.0, "per_dw_2_room": 14.0, "per_dw_3_room": 20.0, "per_dw_4_room": 28.0, "per_dw_5_room": 8.0, "per_dw_6_room": 30.0, "per_hhsize_1": 2.0, "per_hhsize_2": 6.0, "per_hhsize_3": 10.0, "per_hhsize_4": 20.0, "per_hhsize_5": 26.0, "per_hhsize_6_8": 32.0, "per_hhsize_9p": 4.0, "per_ow_owned": 100.0, "per_ow_rented": 0.0, "per_ow_oth": 0.0, "per_mc_none": 4.0, "per_mcouple_1": 72.0, "per_mcouple_2": 20.0, "per_mcouple_3": 4.0, "per_mcouple_4": 0.0, "per_mcouple_5p": 0.0, "per_dw_t_ts": 82.0, "per_dw_t_unts": 0.0, "per_dw_c_well": 0.0, "per_dw_unc_wel": 0.0, "per_dw_hpump": 0.0, "per_dw_tw_bore": 0.0, "per_dw_spring": 0.0, "per_dw_rivcan": 0.0, "per_dw_tank": 0.0, "per_dw_oth": 18.0, "per_loc_dw_wp": 82.0, "per_loc_dw_np": 10.0, "per_loc_dw_aw": 8.0, "per_light_elec": 100.0, "per_light_kero": 0.0, "per_light_solr": 0.0, "per_light_oil": 0.0, "per_light_oth": 0.0, "per_light_no": 0.0, "per_hh_latrine": 50.0, "per_fl_sewer": 2.0, "per_fl_septict": 48.0, "per_fl_othsys": 0.0, "per_pl_wslab": 0.0, "per_pl_without": 0.0, "per_ns_open": 0.0, "per_sl_ns_hum": 0.0, "per_sl_ns_anml": 0.0, "per_hh_no_lat": 50.0, "per_as_pub": 0.0, "per_as_open": 50.0, "per_hh_bathrm": 86.0, "per_hh_en_wrf": 0.0, "per_hh_no_btrm": 14.0, "per_wwoc_drain": 4.0, "per_wwoc_open": 10.0, "per_wwoc_nodrn": 86.0, "per_cook_fire": 100.0, "per_cook_resdu": 0.0, "per_cook_cwdng": 0.0, "per_cook_coal": 0.0, "per_cook_kero": 0.0, "per_cook_lpng": 0.0, "per_cook_elec": 0.0, "per_cook_biogs": 0.0, "per_cook_oth": 0.0, "per_cook_no": 0.0, "per_kf_inside": 100.0, "per_kf_in_has": 98.0, "per_kf_in_does": 2.0, "per_kf_outside": 0.0, "per_kf_out_has": 0.0, "per_kf_out_dos": 0.0, "per_kf_no_cook": 0.0, "per_hh_banking": 100.0, "per_hh_radio": 100.0, "per_hh_tv": 94.0, "per_hh_cmp_int": 0.0, "per_hh_cmp_wnt": 0.0, "per_hh_ph_ll": 0.0, "per_hh_ph_mob": 100.0, "per_hh_ph_bth": 0.0, "per_hh_bcycl": 0.0, "per_hh_2wheel": 0.0, "per_hh_4wheel": 0.0, "per_hh_tvcomp": null, "per_hh_no_ast": 0.0, "per_hs_perma": 38.0, "per_hs_sperma": 62.0, "per_hs_temp": 0.0, "per_hs_servc": 0.0, "per_hs_nservc": 0.0, "per_hs_unclss": 0.0, "avghhsz_cy": 5.07843137, "st_areashape": 31363.87350204, "st_lengthshape": 628.0581775956349}, "geometry": {"type": "Polygon", "coordinates": [[[76.97076627319373, 31.03396073332179], [76.97067682973751, 31.03395690852282], [76.97058827561341, 31.033945471072148], [76.97050149027217, 31.033926536426836], [76.97041733609635, 31.03390029085781], [76.97033665031584, 31.033866996837894], [76.97026023422788, 31.03382698380541], [76.97018884690888, 31.03378064970426], [76.97012319892623, 31.03372845636559], [76.97006394245683, 31.03367092104133], [76.97001166499886, 31.0336086156348], [76.96996688757523, 31.0335421605436], [76.96993005485193, 31.033472214652942], [76.96990153334166, 31.033399473797214], [76.9698816051154, 31.03332466152296], [76.96987046959912, 31.033248520622372], [76.96986823728567, 31.033171807745216], [76.9698749297345, 31.033095285701584], [76.9698904804704, 31.033019714994705], [76.96991473588139, 31.032945846123784], [76.96994745342235, 31.032874414195245], [76.9699883096998, 31.032806128146525], [76.97003689687858, 31.032741666896698], [76.97009273346166, 31.032681671649136], [76.97015526339199, 31.032626738193173], [76.9702238668319, 31.032577412285637], [76.97029786016354, 31.03253418503167], [76.97037650856498, 31.032497485186994], [76.97045903140024, 31.03246767761781], [76.97054460760914, 31.032445059451987], [76.97063238648715, 31.032429853920515], [76.97072149577006, 31.032422213436377], [76.97081105061737, 31.032422213436377], [76.9709001599003, 31.032429853920515], [76.9709879387783, 31.032445059451987], [76.9710735149872, 31.03246767761781], [76.97115603782245, 31.032497485186994], [76.9712346862239, 31.03253418503167], [76.97130867955552, 31.032577412285637], [76.97137728299546, 31.032626738193173], [76.97143981292574, 31.032681671649136], [76.97149564950887, 31.032741666896698], [76.97154423668765, 31.032806128146525], [76.9715850929651, 31.032874414195245], [76.97161781050606, 31.032945846123784], [76.97164206591705, 31.033019714994705], [76.97165761665293, 31.033095285701584], [76.97166430910177, 31.033171807745216], [76.97166207678829, 31.033248520622372], [76.97165094127203, 31.03332466152296], [76.9716310130458, 31.033399473797214], [76.97160249153552, 31.033472214652942], [76.97156565881222, 31.0335421605436], [76.97152088138857, 31.0336086156348], [76.97146860393062, 31.03367092104133], [76.97140934746122, 31.03372845636559], [76.97134369947857, 31.03378064970426], [76.97127231215956, 31.03382698380541], [76.9711958960716, 31.033866996837894], [76.9711152102911, 31.03390029085781], [76.97103105611528, 31.033926536426836], [76.97094427077398, 31.033945471072148], [76.97085571664992, 31.03395690852282], [76.97076627319373, 31.03396073332179]]]}}]}