{"type": "FeatureCollection", "features": [{"type": "Feature", "properties": {"premiumdata.sde.IN_Village_PCA.area": 0.8277823, "objectid": 594758, "id": "101911316320264", "name": "Ahmadpur", "subdistrict": "Bakhri", "district": "Begusarai", "state": "Bihar", "country": "India", "censusname": "Ahmadpur", "villagename_locallang": null, "lgd_villagename": "Ahmadpur", "lgd_villagecode": 238209, "lgd_subdistrictcode": 1316, "lgd_districtcode": 191, "lgd_statecode": 10, "censuscode2001": "02233200", "censuscode2011": "238209", "censuscode2021": null, "level": "Village", "tru": "Rural", "no_hh": 130, "tot_p": 630, "tot_m": 349, "tot_f": 281, "per_tot_m": 55.3968254, "per_tot_f": 44.6031746, "p_06": 125, "m_06": 72, "f_06": 53, "per_p_06": 19.84126984, "per_m_06": 57.6, "per_f_06": 42.4, "p_sc": 103, "m_sc": 58, "f_sc": 45, "per_p_sc": 16.34920635, "per_m_sc": 56.31067961, "per_f_sc": 43.68932039000001, "p_st": 0, "m_st": 0, "f_st": 0, "per_p_st": 0.0, "per_m_st": 0.0, "per_f_st": 0.0, "p_lit": 193, "m_lit": 129, "f_lit": 64, "per_p_lit": 30.63492063, "per_m_lit": 66.83937823999999, "per_f_lit": 33.16062176000001, "p_ill": 437, "m_ill": 220, "f_ill": 217, "per_p_ill": 69.36507936999999, "per_m_ill": 50.34324943, "per_f_ill": 49.65675057, "tot_work_p": 142, "tot_work_m": 137, "tot_work_f": 5, "per_tot_work_p": 22.53968254, "per_tot_work_m": 96.47887324000001, "per_tot_work_f": 3.52112676, "mainwork_p": 140, "mainwork_m": 137, "mainwork_f": 3, "per_mainwork_p": 22.22222222, "per_mainwork_m": 97.85714286, "per_mainwork_f": 2.14285714, "main_cl_p": 1, "main_cl_m": 1, "main_cl_f": 0, "per_main_cl_p": 0.71428571, "per_main_cl_m": 100.0, "per_main_cl_f": 0.0, "main_al_p": 138, "main_al_m": 135, "main_al_f": 3, "per_main_al_p": 98.57142857, "per_main_al_m": 97.82608696, "per_main_al_f": 2.17391304, "main_hh_p": 0, "main_hh_m": 0, "main_hh_f": 0, "per_main_hh_p": 0.0, "per_main_hh_m": 0.0, "per_main_hh_f": 0.0, "main_ot_p": 1, "main_ot_m": 1, "main_ot_f": 0, "per_main_ot_p": 0.71428571, "per_main_ot_m": 100.0, "per_main_ot_f": 0.0, "margwork_p": 2, "margwork_m": 0, "margwork_f": 2, "per_margwork_p": 0.31746032, "per_margwork_m": 0.0, "per_margwork_f": 100.0, "marg_cl_p": 0, "marg_cl_m": 0, "marg_cl_f": 0, "per_marg_cl_p": 0.0, "per_marg_cl_m": 0.0, "per_marg_cl_f": 0.0, "marg_al_p": 2, "marg_al_m": 0, "marg_al_f": 2, "per_marg_al_p": 100.0, "per_marg_al_m": 0.0, "per_marg_al_f": 100.0, "marg_hh_p": 0, "marg_hh_m": 0, "marg_hh_f": 0, "per_marg_hh_p": 0.0, "per_marg_hh_m": 0.0, "per_marg_hh_f": 0.0, "marg_ot_p": 0, "marg_ot_m": 0, "marg_ot_f": 0, "per_marg_ot_p": 0.0, "per_marg_ot_m": 0.0, "per_marg_ot_f": 0.0, "margwork_3_6_p": 2, "margwork_3_6_m": 0, "margwork_3_6_f": 2, "per_margwork_3_6_p": 100.0, "per_margwork_3_6_m": 0.0, "per_margwork_3_6_f": 100.0, "marg_cl_3_6_p": 0, "marg_cl_3_6_m": 0, "marg_cl_3_6_f": 0, "per_marg_cl_3_6_p": 0.0, "per_marg_cl_3_6_m": 0.0, "per_marg_cl_3_6_f": 0.0, "marg_al_3_6_p": 2, "marg_al_3_6_m": 0, "marg_al_3_6_f": 2, "per_marg_al_3_6_p": 100.0, "per_marg_al_3_6_m": 0.0, "per_marg_al_3_6_f": 100.0, "marg_hh_3_6_p": 0, "marg_hh_3_6_m": 0, "marg_hh_3_6_f": 0, "per_marg_hh_3_6_p": 0.0, "per_marg_hh_3_6_m": 0.0, "per_marg_hh_3_6_f": 0.0, "marg_ot_3_6_p": 0, "marg_ot_3_6_m": 0, "marg_ot_3_6_f": 0, "per_marg_ot_3_6_p": 0.0, "per_marg_ot_3_6_m": 0.0, "per_marg_ot_3_6_f": 0.0, "margwork_0_3_p": 0, "margwork_0_3_m": 0, "margwork_0_3_f": 0, "per_margwork_0_3_p": 0.0, "per_margwork_0_3_m": 0.0, "per_margwork_0_3_f": 0.0, "marg_cl_0_3_p": 0, "marg_cl_0_3_m": 0, "marg_cl_0_3_f": 0, "per_marg_cl_0_3_p": 0.0, "per_marg_cl_0_3_m": 0.0, "per_marg_cl_0_3_f": 0.0, "marg_al_0_3_p": 0, "marg_al_0_3_m": 0, "marg_al_0_3_f": 0, "per_marg_al_0_3_p": 0.0, "per_marg_al_0_3_m": 0.0, "per_marg_al_0_3_f": 0.0, "marg_hh_0_3_p": 0, "marg_hh_0_3_m": 0, "marg_hh_0_3_f": 0, "per_marg_hh_0_3_p": 0.0, "per_marg_hh_0_3_m": 0.0, "per_marg_hh_0_3_f": 0.0, "marg_ot_0_3_p": 0, "marg_ot_0_3_m": 0, "marg_ot_0_3_f": 0, "per_marg_ot_0_3_p": 0.0, "per_marg_ot_0_3_m": 0.0, "per_marg_ot_0_3_f": 0.0, "non_work_p": 488, "non_work_m": 212, "non_work_f": 276, "per_non_work_p": 77.46031746, "per_non_work_m": 43.44262295, "per_non_work_f": 56.55737705, "per_hc_tot_tot": 100, "per_hc_tot_god": 0.0, "per_hc_tot_liv": 100.0, "per_hc_tot_dil": 0.0, "per_hc_res_tot": 100.0, "per_hc_res_god": 0.0, "per_hc_res_liv": 100.0, "per_hc_res_dil": 0.0, "per_hc_oth_tot": 0.0, "per_hc_oth_god": 0.0, "per_hc_oth_liv": 0.0, "per_hc_oth_dil": 0.0, "per_mt_grsbam": 81.2, "per_mt_plastic": 0.0, "per_mt_h_tiles": 0.0, "per_mt_m_tiles": 0.0, "per_mt_b_brick": 0.0, "per_mt_stone": 0.0, "per_mt_asbstos": 0.0, "per_mt_concrte": 18.8, "per_mt_oth": 0.0, "per_mw_grsbam": 54.9, "per_mw_plastic": 0.0, "per_mw_mud": 13.5, "per_mw_wood": 0.0, "per_mw_no_mrtr": 0.0, "per_mw_st_mrtr": 0.0, "per_mw_asbstos": 0.0, "per_mw_b_brick": 31.6, "per_mw_concrte": 0.0, "per_mw_oth": 0.0, "per_mf_mud": 99.2, "per_mf_wood": 0.0, "per_mf_b_brick": 0.0, "per_mf_stone": 0.8, "per_mf_cement": 0.0, "per_mf_fl_tile": 0.0, "per_mf_oth": 0.0, "per_dw_n_exrm": 0.0, "per_dw_1_room": 91.7, "per_dw_2_room": 7.5, "per_dw_3_room": 0.0, "per_dw_4_room": 0.8, "per_dw_5_room": 0.0, "per_dw_6_room": 0.0, "per_hhsize_1": 0.0, "per_hhsize_2": 21.8, "per_hhsize_3": 12.0, "per_hhsize_4": 9.8, "per_hhsize_5": 18.0, "per_hhsize_6_8": 37.6, "per_hhsize_9p": 0.8, "per_ow_owned": 100.0, "per_ow_rented": 0.0, "per_ow_oth": 0.0, "per_mc_none": 1.5, "per_mcouple_1": 94.7, "per_mcouple_2": 3.8, "per_mcouple_3": 0.0, "per_mcouple_4": 0.0, "per_mcouple_5p": 0.0, "per_dw_t_ts": 0.0, "per_dw_t_unts": 0.0, "per_dw_c_well": 0.0, "per_dw_unc_wel": 3.8, "per_dw_hpump": 96.2, "per_dw_tw_bore": 0.0, "per_dw_spring": 0.0, "per_dw_rivcan": 0.0, "per_dw_tank": 0.0, "per_dw_oth": 0.0, "per_loc_dw_wp": 13.5, "per_loc_dw_np": 83.5, "per_loc_dw_aw": 3.0, "per_light_elec": 0.0, "per_light_kero": 100.0, "per_light_solr": 0.0, "per_light_oil": 0.0, "per_light_oth": 0.0, "per_light_no": 0.0, "per_hh_latrine": 4.5, "per_fl_sewer": 0.0, "per_fl_septict": 0.0, "per_fl_othsys": 0.0, "per_pl_wslab": 4.5, "per_pl_without": 0.0, "per_ns_open": 0.0, "per_sl_ns_hum": 0.0, "per_sl_ns_anml": 0.0, "per_hh_no_lat": 95.5, "per_as_pub": 0.0, "per_as_open": 95.5, "per_hh_bathrm": 0.0, "per_hh_en_wrf": 1.5, "per_hh_no_btrm": 98.5, "per_wwoc_drain": 0.8, "per_wwoc_open": 1.5, "per_wwoc_nodrn": 97.7, "per_cook_fire": 3.8, "per_cook_resdu": 96.2, "per_cook_cwdng": 0.0, "per_cook_coal": 0.0, "per_cook_kero": 0.0, "per_cook_lpng": 0.0, "per_cook_elec": 0.0, "per_cook_biogs": 0.0, "per_cook_oth": 0.0, "per_cook_no": 0.0, "per_kf_inside": 87.2, "per_kf_in_has": 0.0, "per_kf_in_does": 87.2, "per_kf_outside": 12.8, "per_kf_out_has": 0.0, "per_kf_out_dos": 12.8, "per_kf_no_cook": 0.0, "per_hh_banking": 4.5, "per_hh_radio": 2.3, "per_hh_tv": 0.0, "per_hh_cmp_int": 0.0, "per_hh_cmp_wnt": 0.8, "per_hh_ph_ll": 6.0, "per_hh_ph_mob": 30.8, "per_hh_ph_bth": 0.8, "per_hh_bcycl": 16.5, "per_hh_2wheel": 0.8, "per_hh_4wheel": 1.5, "per_hh_tvcomp": 0.0, "per_hh_no_ast": 57.1, "per_hs_perma": 15.8, "per_hs_sperma": 18.8, "per_hs_temp": 65.4, "per_hs_servc": 10.5, "per_hs_nservc": 54.9, "per_hs_unclss": 0.0, "avghhsz_cy": 4.84615385, "st_areashape": 1022098.43008937, "st_lengthshape": 5034.864679821528}, "geometry": {"type": "Polygon", "coordinates": [[[86.24150411744516, 25.60395471895494], [86.24112872496265, 25.604914073279534], [86.24113255627731, 25.605378913934008], [86.24087705385098, 25.60577772229854], [86.23996946525817, 25.606180992107923], [86.2389882570329, 25.606720226822038], [86.23862950134944, 25.60728677421379], [86.23863577159011, 25.60804490110423], [86.23878614956868, 25.608774946146976], [86.2383521770482, 25.609274321966343], [86.23784365603721, 25.609774202799425], [86.23744666086876, 25.609934859387824], [86.23711003967391, 25.608944240227938], [86.23698499238975, 25.60705870634237], [86.23697220666828, 25.60550174834819], [86.23690953121093, 25.604545443901856], [86.23726527394489, 25.60361784032621], [86.23791087158004, 25.602219031196412], [86.2377947903807, 25.601425519390123], [86.23690713360742, 25.60000538873101], [86.23588780088149, 25.598324421362975], [86.2352956610906, 25.597132465070633], [86.23528457408337, 25.595774122040954], [86.235571652292, 25.594977866384134], [86.23631005398082, 25.59398008211126], [86.23729503872352, 25.593309992083096], [86.23882111559281, 25.592469297809714], [86.23973569577345, 25.592927946848718], [86.24076561694167, 25.593485124299715], [86.24153725539766, 25.59410720674149], [86.24215828410979, 25.594567783368497], [86.24238162505236, 25.595098878893506], [86.24260640419766, 25.595792313340066], [86.24252641820478, 25.59695268063867], [86.24260600444738, 25.598148082638563], [86.24206644574502, 25.599113032171324], [86.2416374669592, 25.600208113036373], [86.24149094005824, 25.60236175310528], [86.24150411744516, 25.60395471895494]]]}}]}