{"type": "FeatureCollection", "features": [{"type": "Feature", "properties": {"premiumdata.sde.IN_Village_PCA.area": 46.30671965, "objectid": 236558, "id": "81076047470789", "name": "Netra", "subdistrict": "Baori", "district": "Jodhpur", "state": "Rajasthan", "country": "India", "censusname": "Netra", "villagename_locallang": null, "lgd_villagename": "Netra", "lgd_villagecode": 84800, "lgd_subdistrictcode": 6047, "lgd_districtcode": 107, "lgd_statecode": 8, "censuscode2001": "01950700", "censuscode2011": "084800", "censuscode2021": null, "level": "Village", "tru": "Rural", "no_hh": 641, "tot_p": 3787, "tot_m": 1924, "tot_f": 1863, "per_tot_m": 50.80538685, "per_tot_f": 49.19461315, "p_06": 726, "m_06": 389, "f_06": 337, "per_p_06": 19.17084764, "per_m_06": 53.58126722, "per_f_06": 46.41873278, "p_sc": 695, "m_sc": 354, "f_sc": 341, "per_p_sc": 18.35225772, "per_m_sc": 50.9352518, "per_f_sc": 49.0647482, "p_st": 134, "m_st": 66, "f_st": 68, "per_p_st": 3.53842091, "per_m_st": 49.25373134, "per_f_st": 50.74626866, "p_lit": 1418, "m_lit": 976, "f_lit": 442, "per_p_lit": 37.44388698, "per_m_lit": 68.82933709000001, "per_f_lit": 31.17066291, "p_ill": 2369, "m_ill": 948, "f_ill": 1421, "per_p_ill": 62.55611302, "per_m_ill": 40.01688476, "per_f_ill": 59.98311524, "tot_work_p": 1606, "tot_work_m": 882, "tot_work_f": 724, "per_tot_work_p": 42.40823871, "per_tot_work_m": 54.91905355, "per_tot_work_f": 45.08094645, "mainwork_p": 878, "mainwork_m": 669, "mainwork_f": 209, "per_mainwork_p": 23.18457882, "per_mainwork_m": 76.19589977000001, "per_mainwork_f": 23.80410023, "main_cl_p": 460, "main_cl_m": 329, "main_cl_f": 131, "per_main_cl_p": 52.39179954, "per_main_cl_m": 71.52173913, "per_main_cl_f": 28.47826087, "main_al_p": 29, "main_al_m": 18, "main_al_f": 11, "per_main_al_p": 3.30296128, "per_main_al_m": 62.06896552, "per_main_al_f": 37.93103448, "main_hh_p": 6, "main_hh_m": 4, "main_hh_f": 2, "per_main_hh_p": 0.6833713, "per_main_hh_m": 66.66666667, "per_main_hh_f": 33.33333333, "main_ot_p": 383, "main_ot_m": 318, "main_ot_f": 65, "per_main_ot_p": 43.62186788, "per_main_ot_m": 83.02872063, "per_main_ot_f": 16.97127937, "margwork_p": 728, "margwork_m": 213, "margwork_f": 515, "per_margwork_p": 19.22365989, "per_margwork_m": 29.25824176, "per_margwork_f": 70.74175824, "marg_cl_p": 493, "marg_cl_m": 48, "marg_cl_f": 445, "per_marg_cl_p": 67.71978022, "per_marg_cl_m": 9.73630832, "per_marg_cl_f": 90.26369168, "marg_al_p": 36, "marg_al_m": 11, "marg_al_f": 25, "per_marg_al_p": 4.94505495, "per_marg_al_m": 30.55555556, "per_marg_al_f": 69.44444444, "marg_hh_p": 0, "marg_hh_m": 0, "marg_hh_f": 0, "per_marg_hh_p": 0.0, "per_marg_hh_m": 0.0, "per_marg_hh_f": 0.0, "marg_ot_p": 199, "marg_ot_m": 154, "marg_ot_f": 45, "per_marg_ot_p": 27.33516484, "per_marg_ot_m": 77.38693467, "per_marg_ot_f": 22.61306533, "margwork_3_6_p": 670, "margwork_3_6_m": 187, "margwork_3_6_f": 483, "per_margwork_3_6_p": 92.03296703, "per_margwork_3_6_m": 27.91044776, "per_margwork_3_6_f": 72.08955224, "marg_cl_3_6_p": 475, "marg_cl_3_6_m": 47, "marg_cl_3_6_f": 428, "per_marg_cl_3_6_p": 65.24725275, "per_marg_cl_3_6_m": 9.89473684, "per_marg_cl_3_6_f": 90.10526316, "marg_al_3_6_p": 23, "marg_al_3_6_m": 11, "marg_al_3_6_f": 12, "per_marg_al_3_6_p": 3.15934066, "per_marg_al_3_6_m": 47.82608696, "per_marg_al_3_6_f": 52.17391304, "marg_hh_3_6_p": 0, "marg_hh_3_6_m": 0, "marg_hh_3_6_f": 0, "per_marg_hh_3_6_p": 0.0, "per_marg_hh_3_6_m": 0.0, "per_marg_hh_3_6_f": 0.0, "marg_ot_3_6_p": 172, "marg_ot_3_6_m": 129, "marg_ot_3_6_f": 43, "per_marg_ot_3_6_p": 23.62637363, "per_marg_ot_3_6_m": 75.0, "per_marg_ot_3_6_f": 25.0, "margwork_0_3_p": 58, "margwork_0_3_m": 26, "margwork_0_3_f": 32, "per_margwork_0_3_p": 7.96703297, "per_margwork_0_3_m": 44.82758621, "per_margwork_0_3_f": 55.17241379, "marg_cl_0_3_p": 18, "marg_cl_0_3_m": 1, "marg_cl_0_3_f": 17, "per_marg_cl_0_3_p": 2.47252747, "per_marg_cl_0_3_m": 5.55555556, "per_marg_cl_0_3_f": 94.44444444, "marg_al_0_3_p": 13, "marg_al_0_3_m": 0, "marg_al_0_3_f": 13, "per_marg_al_0_3_p": 1.78571429, "per_marg_al_0_3_m": 0.0, "per_marg_al_0_3_f": 100.0, "marg_hh_0_3_p": 0, "marg_hh_0_3_m": 0, "marg_hh_0_3_f": 0, "per_marg_hh_0_3_p": 0.0, "per_marg_hh_0_3_m": 0.0, "per_marg_hh_0_3_f": 0.0, "marg_ot_0_3_p": 27, "marg_ot_0_3_m": 25, "marg_ot_0_3_f": 2, "per_marg_ot_0_3_p": 3.70879121, "per_marg_ot_0_3_m": 92.59259259, "per_marg_ot_0_3_f": 7.40740741, "non_work_p": 2181, "non_work_m": 1042, "non_work_f": 1139, "per_non_work_p": 57.59176129, "per_non_work_m": 47.77624943, "per_non_work_f": 52.22375057, "per_hc_tot_tot": 100, "per_hc_tot_god": 37.5, "per_hc_tot_liv": 52.7, "per_hc_tot_dil": 9.9, "per_hc_res_tot": 99.1, "per_hc_res_god": 37.2, "per_hc_res_liv": 52.1, "per_hc_res_dil": 9.9, "per_hc_oth_tot": 0.9, "per_hc_oth_god": 0.3, "per_hc_oth_liv": 0.6, "per_hc_oth_dil": 0.0, "per_mt_grsbam": 23.1, "per_mt_plastic": 0.0, "per_mt_h_tiles": 0.0, "per_mt_m_tiles": 0.4, "per_mt_b_brick": 0.1, "per_mt_stone": 62.5, "per_mt_asbstos": 1.9, "per_mt_concrte": 11.6, "per_mt_oth": 0.1, "per_mw_grsbam": 4.5, "per_mw_plastic": 0.0, "per_mw_mud": 11.9, "per_mw_wood": 0.0, "per_mw_no_mrtr": 8.2, "per_mw_st_mrtr": 75.1, "per_mw_asbstos": 0.0, "per_mw_b_brick": 0.0, "per_mw_concrte": 0.0, "per_mw_oth": 0.3, "per_mf_mud": 47.9, "per_mf_wood": 0.1, "per_mf_b_brick": 0.0, "per_mf_stone": 1.6, "per_mf_cement": 47.3, "per_mf_fl_tile": 3.0, "per_mf_oth": 0.0, "per_dw_n_exrm": 4.3, "per_dw_1_room": 27.6, "per_dw_2_room": 43.3, "per_dw_3_room": 13.3, "per_dw_4_room": 8.4, "per_dw_5_room": 2.2, "per_dw_6_room": 0.9, "per_hhsize_1": 2.2, "per_hhsize_2": 8.2, "per_hhsize_3": 7.6, "per_hhsize_4": 14.0, "per_hhsize_5": 17.9, "per_hhsize_6_8": 35.4, "per_hhsize_9p": 14.6, "per_ow_owned": 99.4, "per_ow_rented": 0.4, "per_ow_oth": 0.1, "per_mc_none": 8.5, "per_mcouple_1": 68.1, "per_mcouple_2": 17.5, "per_mcouple_3": 4.8, "per_mcouple_4": 0.9, "per_mcouple_5p": 0.3, "per_dw_t_ts": 7.8, "per_dw_t_unts": 17.6, "per_dw_c_well": 0.4, "per_dw_unc_wel": 0.7, "per_dw_hpump": 3.0, "per_dw_tw_bore": 15.4, "per_dw_spring": 0.0, "per_dw_rivcan": 0.0, "per_dw_tank": 3.3, "per_dw_oth": 51.8, "per_loc_dw_wp": 0.1, "per_loc_dw_np": 31.3, "per_loc_dw_aw": 68.5, "per_light_elec": 33.3, "per_light_kero": 61.5, "per_light_solr": 0.0, "per_light_oil": 0.0, "per_light_oth": 0.0, "per_light_no": 5.2, "per_hh_latrine": 1.3, "per_fl_sewer": 0.3, "per_fl_septict": 0.7, "per_fl_othsys": 0.0, "per_pl_wslab": 0.3, "per_pl_without": 0.0, "per_ns_open": 0.0, "per_sl_ns_hum": 0.0, "per_sl_ns_anml": 0.0, "per_hh_no_lat": 98.7, "per_as_pub": 0.0, "per_as_open": 98.7, "per_hh_bathrm": 23.4, "per_hh_en_wrf": 42.1, "per_hh_no_btrm": 34.5, "per_wwoc_drain": 1.2, "per_wwoc_open": 8.4, "per_wwoc_nodrn": 90.4, "per_cook_fire": 96.0, "per_cook_resdu": 0.3, "per_cook_cwdng": 3.3, "per_cook_coal": 0.0, "per_cook_kero": 0.0, "per_cook_lpng": 0.3, "per_cook_elec": 0.0, "per_cook_biogs": 0.0, "per_cook_oth": 0.0, "per_cook_no": 0.1, "per_kf_inside": 89.7, "per_kf_in_has": 51.8, "per_kf_in_does": 37.9, "per_kf_outside": 10.1, "per_kf_out_has": 3.7, "per_kf_out_dos": 6.4, "per_kf_no_cook": 0.1, "per_hh_banking": 43.4, "per_hh_radio": 22.1, "per_hh_tv": 7.9, "per_hh_cmp_int": 0.1, "per_hh_cmp_wnt": 3.1, "per_hh_ph_ll": 1.0, "per_hh_ph_mob": 55.5, "per_hh_ph_bth": 0.1, "per_hh_bcycl": 18.1, "per_hh_2wheel": 14.9, "per_hh_4wheel": 4.8, "per_hh_tvcomp": 0.0, "per_hh_no_ast": 36.3, "per_hs_perma": 75.8, "per_hs_sperma": 8.4, "per_hs_temp": 15.5, "per_hs_servc": 11.0, "per_hs_nservc": 4.5, "per_hs_unclss": 0.3, "avghhsz_cy": 5.90795632, "st_areashape": 58123365.5489329, "st_lengthshape": 29738.879025465478}, "geometry": {"type": "Polygon", "coordinates": [[[73.19668112147303, 26.53767424108661], [73.20543494250703, 26.54123256996279], [73.20601470081837, 26.541816418657007], [73.20839980245788, 26.544218765765702], [73.20959858444158, 26.546424037287256], [73.20962661726834, 26.552441136760567], [73.20878503688263, 26.561078082934465], [73.20895824015423, 26.569990683467182], [73.2092043138634, 26.576980800928215], [73.20139781570386, 26.57985614874457], [73.19661000724189, 26.584274236104182], [73.18582445844497, 26.591142013232393], [73.17836891050733, 26.59811945032553], [73.1748222881038, 26.60354290769248], [73.17051437673463, 26.60870130107075], [73.16331380750556, 26.6089418064547], [73.15067533341647, 26.60879002175021], [73.14970453217376, 26.60773462969868], [73.14795630462966, 26.605279601909015], [73.14720986212076, 26.60259188191143], [73.14648946356854, 26.599239447962965], [73.14543402036482, 26.597206737966822], [73.1436650435343, 26.595282913916098], [73.14073681777906, 26.59398499894943], [73.13750432455227, 26.593209205722353], [73.13441331867764, 26.592437962668757], [73.1323450501439, 26.59090250668253], [73.12947342004819, 26.588140735957566], [73.12837349137331, 26.586110446887766], [73.12815950099453, 26.585673954343754], [73.1273664395156, 26.582704013135697], [73.12708236706992, 26.57893587877305], [73.12820576512998, 26.57332072704863], [73.12901807211553, 26.568795415198355], [73.12929934541077, 26.565344473751075], [73.13034923882266, 26.561530275638084], [73.13143361406674, 26.559106941714383], [73.13270988472688, 26.556141995126804], [73.13460759193427, 26.552804272488675], [73.13641496096339, 26.550571028931746], [73.13903549666581, 26.547423759276583], [73.14181344774875, 26.54414962598561], [73.15081028821992, 26.54452664562063], [73.15776970560927, 26.54452664562063], [73.1651053077952, 26.543685317550363], [73.17206472518455, 26.543517050713564], [73.1803407889128, 26.54183437359083], [73.18918112938674, 26.539646855785946], [73.19668112147303, 26.53767424108661]]]}}]}