{"type": "FeatureCollection", "features": [{"type": "Feature", "properties": {"premiumdata.sde.IN_Village_PCA.area": 18.39995574, "objectid": 78898, "id": "285115296660647", "name": "Bijinavemula", "subdistrict": "Koilkuntla", "district": "Kurnool", "state": "Andhra Pradesh", "country": "India", "censusname": "Bijinavemula", "villagename_locallang": null, "lgd_villagename": "Bijinavemula", "lgd_villagecode": 594503, "lgd_subdistrictcode": 5296, "lgd_districtcode": 511, "lgd_statecode": 28, "censuscode2001": "02551600", "censuscode2011": "594503", "censuscode2021": null, "level": "Village", "tru": "Rural", "no_hh": 492, "tot_p": 1844, "tot_m": 920, "tot_f": 924, "per_tot_m": 49.89154013, "per_tot_f": 50.10845987, "p_06": 195, "m_06": 88, "f_06": 107, "per_p_06": 10.57483731, "per_m_06": 45.12820513, "per_f_06": 54.87179487, "p_sc": 245, "m_sc": 128, "f_sc": 117, "per_p_sc": 13.28633406, "per_m_sc": 52.24489796, "per_f_sc": 47.75510204, "p_st": 0, "m_st": 0, "f_st": 0, "per_p_st": 13.28633406, "per_m_st": 0.0, "per_f_st": 0.0, "p_lit": 995, "m_lit": 636, "f_lit": 359, "per_p_lit": 53.95878525, "per_m_lit": 63.91959799, "per_f_lit": 36.08040201, "p_ill": 849, "m_ill": 284, "f_ill": 565, "per_p_ill": 46.04121475, "per_m_ill": 33.45111896, "per_f_ill": 66.54888104, "tot_work_p": 989, "tot_work_m": 516, "tot_work_f": 473, "per_tot_work_p": 53.63340564, "per_tot_work_m": 52.17391304, "per_tot_work_f": 47.82608696, "mainwork_p": 902, "mainwork_m": 499, "mainwork_f": 403, "per_mainwork_p": 48.9154013, "per_mainwork_m": 55.32150776, "per_mainwork_f": 44.67849224, "main_cl_p": 159, "main_cl_m": 137, "main_cl_f": 22, "per_main_cl_p": 17.62749446, "per_main_cl_m": 86.16352201, "per_main_cl_f": 13.83647799, "main_al_p": 598, "main_al_m": 264, "main_al_f": 334, "per_main_al_p": 66.29711752, "per_main_al_m": 44.14715719, "per_main_al_f": 55.85284281, "main_hh_p": 75, "main_hh_m": 43, "main_hh_f": 32, "per_main_hh_p": 8.31485588, "per_main_hh_m": 57.33333333, "per_main_hh_f": 42.66666667000001, "main_ot_p": 70, "main_ot_m": 55, "main_ot_f": 15, "per_main_ot_p": 7.76053215, "per_main_ot_m": 78.57142857, "per_main_ot_f": 21.42857143, "margwork_p": 87, "margwork_m": 17, "margwork_f": 70, "per_margwork_p": 4.71800434, "per_margwork_m": 19.54022989, "per_margwork_f": 80.45977011, "marg_cl_p": 13, "marg_cl_m": 5, "marg_cl_f": 8, "per_marg_cl_p": 14.94252874, "per_marg_cl_m": 38.46153846, "per_marg_cl_f": 61.53846154, "marg_al_p": 66, "marg_al_m": 7, "marg_al_f": 59, "per_marg_al_p": 75.86206897, "per_marg_al_m": 10.60606061, "per_marg_al_f": 89.39393939, "marg_hh_p": 3, "marg_hh_m": 0, "marg_hh_f": 3, "per_marg_hh_p": 3.44827586, "per_marg_hh_m": 0.0, "per_marg_hh_f": 100.0, "marg_ot_p": 5, "marg_ot_m": 5, "marg_ot_f": 0, "per_marg_ot_p": 5.74712644, "per_marg_ot_m": 100.0, "per_marg_ot_f": 0.0, "margwork_3_6_p": 83, "margwork_3_6_m": 16, "margwork_3_6_f": 67, "per_margwork_3_6_p": 95.40229885, "per_margwork_3_6_m": 19.27710843, "per_margwork_3_6_f": 80.72289157, "marg_cl_3_6_p": 12, "marg_cl_3_6_m": 4, "marg_cl_3_6_f": 8, "per_marg_cl_3_6_p": 13.79310345, "per_marg_cl_3_6_m": 33.33333333, "per_marg_cl_3_6_f": 66.66666667, "marg_al_3_6_p": 64, "marg_al_3_6_m": 7, "marg_al_3_6_f": 57, "per_marg_al_3_6_p": 73.56321838999999, "per_marg_al_3_6_m": 10.9375, "per_marg_al_3_6_f": 89.0625, "marg_hh_3_6_p": 2, "marg_hh_3_6_m": 0, "marg_hh_3_6_f": 2, "per_marg_hh_3_6_p": 2.29885057, "per_marg_hh_3_6_m": 0.0, "per_marg_hh_3_6_f": 100.0, "marg_ot_3_6_p": 5, "marg_ot_3_6_m": 5, "marg_ot_3_6_f": 0, "per_marg_ot_3_6_p": 5.74712644, "per_marg_ot_3_6_m": 100.0, "per_marg_ot_3_6_f": 0.0, "margwork_0_3_p": 4, "margwork_0_3_m": 1, "margwork_0_3_f": 3, "per_margwork_0_3_p": 4.59770115, "per_margwork_0_3_m": 25.0, "per_margwork_0_3_f": 75.0, "marg_cl_0_3_p": 1, "marg_cl_0_3_m": 1, "marg_cl_0_3_f": 0, "per_marg_cl_0_3_p": 1.14942529, "per_marg_cl_0_3_m": 100.0, "per_marg_cl_0_3_f": 0.0, "marg_al_0_3_p": 2, "marg_al_0_3_m": 0, "marg_al_0_3_f": 2, "per_marg_al_0_3_p": 2.29885057, "per_marg_al_0_3_m": 0.0, "per_marg_al_0_3_f": 100.0, "marg_hh_0_3_p": 1, "marg_hh_0_3_m": 0, "marg_hh_0_3_f": 1, "per_marg_hh_0_3_p": 0.0, "per_marg_hh_0_3_m": 0.0, "per_marg_hh_0_3_f": 100.0, "marg_ot_0_3_p": 0, "marg_ot_0_3_m": 0, "marg_ot_0_3_f": 0, "per_marg_ot_0_3_p": 0.0, "per_marg_ot_0_3_m": 0.0, "per_marg_ot_0_3_f": 0.0, "non_work_p": 855, "non_work_m": 404, "non_work_f": 451, "per_non_work_p": 46.36659436, "per_non_work_m": 47.25146199, "per_non_work_f": 52.74853801, "per_hc_tot_tot": 100, "per_hc_tot_god": 50.2, "per_hc_tot_liv": 49.4, "per_hc_tot_dil": 0.4, "per_hc_res_tot": 98.6, "per_hc_res_god": 49.0, "per_hc_res_liv": 49.2, "per_hc_res_dil": 0.4, "per_hc_oth_tot": 1.4, "per_hc_oth_god": 1.2, "per_hc_oth_liv": 0.2, "per_hc_oth_dil": 0.0, "per_mt_grsbam": 87.1, "per_mt_plastic": 0.0, "per_mt_h_tiles": 0.0, "per_mt_m_tiles": 0.0, "per_mt_b_brick": 0.2, "per_mt_stone": 0.0, "per_mt_asbstos": 0.6, "per_mt_concrte": 12.0, "per_mt_oth": 0.0, "per_mw_grsbam": 0.0, "per_mw_plastic": 0.0, "per_mw_mud": 0.2, "per_mw_wood": 0.2, "per_mw_no_mrtr": 78.3, "per_mw_st_mrtr": 21.3, "per_mw_asbstos": 0.0, "per_mw_b_brick": 0.0, "per_mw_concrte": 0.0, "per_mw_oth": 0.0, "per_mf_mud": 0.0, "per_mf_wood": 0.0, "per_mf_b_brick": 0.0, "per_mf_stone": 98.4, "per_mf_cement": 0.0, "per_mf_fl_tile": 1.6, "per_mf_oth": 0.0, "per_dw_n_exrm": 2.2, "per_dw_1_room": 45.8, "per_dw_2_room": 43.6, "per_dw_3_room": 7.4, "per_dw_4_room": 0.8, "per_dw_5_room": 0.0, "per_dw_6_room": 0.2, "per_hhsize_1": 5.4, "per_hhsize_2": 16.7, "per_hhsize_3": 20.3, "per_hhsize_4": 28.9, "per_hhsize_5": 17.3, "per_hhsize_6_8": 11.2, "per_hhsize_9p": 0.2, "per_ow_owned": 90.4, "per_ow_rented": 9.0, "per_ow_oth": 0.6, "per_mc_none": 18.3, "per_mcouple_1": 73.3, "per_mcouple_2": 8.2, "per_mcouple_3": 0.2, "per_mcouple_4": 0.0, "per_mcouple_5p": 0.0, "per_dw_t_ts": 0.2, "per_dw_t_unts": 99.8, "per_dw_c_well": 0.0, "per_dw_unc_wel": 0.0, "per_dw_hpump": 0.0, "per_dw_tw_bore": 0.0, "per_dw_spring": 0.0, "per_dw_rivcan": 0.0, "per_dw_tank": 0.0, "per_dw_oth": 0.0, "per_loc_dw_wp": 14.3, "per_loc_dw_np": 83.9, "per_loc_dw_aw": 1.8, "per_light_elec": 97.4, "per_light_kero": 2.2, "per_light_solr": 0.0, "per_light_oil": 0.0, "per_light_oth": 0.0, "per_light_no": 0.4, "per_hh_latrine": 35.7, "per_fl_sewer": 0.0, "per_fl_septict": 33.9, "per_fl_othsys": 0.0, "per_pl_wslab": 1.8, "per_pl_without": 0.0, "per_ns_open": 0.0, "per_sl_ns_hum": 0.0, "per_sl_ns_anml": 0.0, "per_hh_no_lat": 64.3, "per_as_pub": 25.1, "per_as_open": 39.2, "per_hh_bathrm": 56.6, "per_hh_en_wrf": 37.8, "per_hh_no_btrm": 5.6, "per_wwoc_drain": 34.5, "per_wwoc_open": 41.2, "per_wwoc_nodrn": 24.3, "per_cook_fire": 81.7, "per_cook_resdu": 0.6, "per_cook_cwdng": 0.0, "per_cook_coal": 0.0, "per_cook_kero": 0.0, "per_cook_lpng": 17.5, "per_cook_elec": 0.0, "per_cook_biogs": 0.0, "per_cook_oth": 0.2, "per_cook_no": 0.0, "per_kf_inside": 85.1, "per_kf_in_has": 20.3, "per_kf_in_does": 64.9, "per_kf_outside": 14.9, "per_kf_out_has": 1.2, "per_kf_out_dos": 13.7, "per_kf_no_cook": 0.0, "per_hh_banking": 71.9, "per_hh_radio": 1.2, "per_hh_tv": 60.6, "per_hh_cmp_int": 0.0, "per_hh_cmp_wnt": 1.2, "per_hh_ph_ll": 1.8, "per_hh_ph_mob": 48.4, "per_hh_ph_bth": 0.0, "per_hh_bcycl": 44.4, "per_hh_2wheel": 9.0, "per_hh_4wheel": 0.4, "per_hh_tvcomp": 0.0, "per_hh_no_ast": 19.9, "per_hs_perma": 12.9, "per_hs_sperma": 86.7, "per_hs_temp": 0.4, "per_hs_servc": 0.4, "per_hs_nservc": 0.0, "per_hs_unclss": 0.0, "avghhsz_cy": 3.74796748, "st_areashape": 19887483.790465735, "st_lengthshape": 18012.347379719326}, "geometry": {"type": "Polygon", "coordinates": [[[78.28505999981253, 15.295589999913584], [78.28206999961016, 15.294730000213674], [78.2781800006808, 15.294170000566766], [78.27408999993831, 15.292449999843958], [78.27156000004346, 15.29241000010248], [78.27054999991505, 15.29043999948811], [78.27178000015152, 15.285749999947894], [78.27199000021379, 15.284959999617262], [78.27121000023912, 15.281329999631076], [78.27063999942841, 15.276750000135545], [78.26927000034814, 15.273660000656859], [78.27204000044249, 15.270770000263486], [78.27303000047948, 15.269730000107979], [78.27414999931445, 15.269089999850546], [78.27401999961812, 15.2681099996823], [78.27522000061566, 15.267980000571933], [78.27650999932997, 15.267790000794063], [78.27743999999079, 15.267329999479362], [78.27905000016888, 15.265979999578295], [78.28054000069633, 15.264309999801952], [78.28167999962282, 15.263050000758184], [78.2829399999965, 15.261990000314796], [78.28460999955074, 15.260890000034642], [78.28622999977455, 15.259840000143553], [78.28786000004408, 15.259380000477218], [78.2886400000188, 15.259349999842248], [78.29006000022608, 15.258760000350179], [78.2915000005248, 15.257490000638112], [78.29243000028733, 15.25646000005028], [78.29384000044884, 15.255270000100484], [78.29476000016562, 15.254009999688849], [78.29620000046438, 15.252630000101215], [78.29647999994855, 15.25205000049597], [78.29696999949499, 15.252130000626332], [78.29873999950665, 15.252140000315517], [78.30012999957668, 15.253649999916616], [78.30164999934307, 15.254889999905528], [78.30222000015378, 15.254959999400121], [78.30338000007005, 15.254840000376065], [78.3046299994997, 15.254749999979717], [78.30537000018971, 15.254860000362607], [78.30577000022281, 15.255409999679767], [78.30642999964859, 15.256300000456555], [78.30784999985586, 15.25726999996911], [78.30874000033371, 15.257599999586255], [78.30981999988401, 15.257689999628225], [78.30997000057016, 15.257689999628225], [78.30993999953462, 15.25781999990962], [78.30997999971761, 15.259150000699547], [78.31032000037453, 15.26086999975559], [78.31096999975456, 15.262779999607918], [78.31127000022853, 15.263819999531652], [78.31214999976233, 15.265740000189133], [78.3127400006645, 15.267329999479362], [78.31348000045622, 15.26872999993136], [78.31399000009417, 15.270349999904495], [78.31475000087565, 15.272780000247934], [78.31540000025566, 15.27397000061114], [78.3160699997272, 15.276119999905491], [78.31697000025078, 15.277590000387637], [78.3170700007082, 15.27826999969601], [78.31744000060405, 15.280710000220756], [78.31787999992181, 15.28224000053341], [78.31803999975537, 15.283789999910807], [78.318379999514, 15.286419999869732], [78.31876000035392, 15.287980000120141], [78.318900000096, 15.289710000768716], [78.3189200001875, 15.290060000590717], [78.31870000007943, 15.290040000492855], [78.31657000021771, 15.2904300007573], [78.31449000058468, 15.2909199995276], [78.312929999737, 15.291380000230758], [78.31108999940516, 15.291529999525903], [78.30948000012539, 15.29151999998062], [78.30846999999694, 15.291919999617061], [78.30790000008457, 15.292390000228872], [78.30622999963204, 15.29241000010248], [78.30499999939555, 15.292420000471834], [78.30392999989097, 15.292429999974168], [78.30328000051094, 15.292759999747705], [78.30186000030368, 15.293230000208492], [78.30060999997572, 15.293749999416097], [78.30008000024628, 15.293869999583194], [78.29954999961855, 15.294959999975456], [78.2995100003339, 15.29581999959775], [78.29913000039228, 15.297210000338959], [78.29840999979375, 15.29824000014389], [78.29749000007699, 15.299070000011465], [78.29579999953299, 15.29942000066093], [78.29464999966244, 15.299369999613695], [78.29388000063183, 15.299019999747154], [78.29306000047416, 15.298509999835362], [78.29226999955543, 15.298050000056081], [78.29117999995937, 15.297600000255198], [78.29055999981826, 15.297450000106723], [78.28945999927814, 15.29743000071423], [78.28808000015215, 15.297709999833662], [78.28783999995261, 15.297910000337135], [78.28592000015315, 15.295830000670819], [78.28505999981253, 15.295589999913584]]]}}]}