{"type": "FeatureCollection", "features": [{"type": "Feature", "properties": {"premiumdata.sde.IN_Village_PCA.area": 11.16686056, "objectid": 212753, "id": "246683901277748", "name": "Kevdi", "subdistrict": "Chhota Udaipur", "district": "Chhotaudepur", "state": "Gujarat", "country": "India", "censusname": "Kevdi", "villagename_locallang": null, "lgd_villagename": "Kevdi", "lgd_villagecode": 520237, "lgd_subdistrictcode": 3901, "lgd_districtcode": 668, "lgd_statecode": 24, "censuscode2001": "01384800", "censuscode2011": "520237", "censuscode2021": null, "level": "Village", "tru": "Rural", "no_hh": 258, "tot_p": 1436, "tot_m": 703, "tot_f": 733, "per_tot_m": 48.95543175, "per_tot_f": 51.04456825, "p_06": 319, "m_06": 156, "f_06": 163, "per_p_06": 22.21448468, "per_m_06": 48.90282132, "per_f_06": 51.09717868, "p_sc": 0, "m_sc": 0, "f_sc": 0, "per_p_sc": 0.0, "per_m_sc": 0.0, "per_f_sc": 0.0, "p_st": 1420, "m_st": 694, "f_st": 726, "per_p_st": 98.88579387, "per_m_st": 48.87323944, "per_f_st": 51.12676056, "p_lit": 421, "m_lit": 260, "f_lit": 161, "per_p_lit": 29.31754875, "per_m_lit": 61.75771971, "per_f_lit": 38.24228029, "p_ill": 1015, "m_ill": 443, "f_ill": 572, "per_p_ill": 70.68245125, "per_m_ill": 43.6453202, "per_f_ill": 56.3546798, "tot_work_p": 827, "tot_work_m": 403, "tot_work_f": 424, "per_tot_work_p": 57.59052925, "per_tot_work_m": 48.73035067, "per_tot_work_f": 51.26964933, "mainwork_p": 786, "mainwork_m": 393, "mainwork_f": 393, "per_mainwork_p": 54.73537604000001, "per_mainwork_m": 50.0, "per_mainwork_f": 50.0, "main_cl_p": 299, "main_cl_m": 234, "main_cl_f": 65, "per_main_cl_p": 38.04071247, "per_main_cl_m": 78.26086957, "per_main_cl_f": 21.73913043, "main_al_p": 479, "main_al_m": 154, "main_al_f": 325, "per_main_al_p": 60.94147583, "per_main_al_m": 32.15031315, "per_main_al_f": 67.84968685, "main_hh_p": 1, "main_hh_m": 1, "main_hh_f": 0, "per_main_hh_p": 0.12722646, "per_main_hh_m": 100.0, "per_main_hh_f": 0.0, "main_ot_p": 7, "main_ot_m": 4, "main_ot_f": 3, "per_main_ot_p": 0.89058524, "per_main_ot_m": 57.14285714, "per_main_ot_f": 42.85714286, "margwork_p": 41, "margwork_m": 10, "margwork_f": 31, "per_margwork_p": 2.8551532, "per_margwork_m": 24.3902439, "per_margwork_f": 75.6097561, "marg_cl_p": 0, "marg_cl_m": 0, "marg_cl_f": 0, "per_marg_cl_p": 0.0, "per_marg_cl_m": 0.0, "per_marg_cl_f": 0.0, "marg_al_p": 41, "marg_al_m": 10, "marg_al_f": 31, "per_marg_al_p": 100.0, "per_marg_al_m": 24.3902439, "per_marg_al_f": 75.6097561, "marg_hh_p": 0, "marg_hh_m": 0, "marg_hh_f": 0, "per_marg_hh_p": 0.0, "per_marg_hh_m": 0.0, "per_marg_hh_f": 0.0, "marg_ot_p": 0, "marg_ot_m": 0, "marg_ot_f": 0, "per_marg_ot_p": 0.0, "per_marg_ot_m": 0.0, "per_marg_ot_f": 0.0, "margwork_3_6_p": 41, "margwork_3_6_m": 10, "margwork_3_6_f": 31, "per_margwork_3_6_p": 100.0, "per_margwork_3_6_m": 24.3902439, "per_margwork_3_6_f": 75.6097561, "marg_cl_3_6_p": 0, "marg_cl_3_6_m": 0, "marg_cl_3_6_f": 0, "per_marg_cl_3_6_p": 0.0, "per_marg_cl_3_6_m": 0.0, "per_marg_cl_3_6_f": 0.0, "marg_al_3_6_p": 41, "marg_al_3_6_m": 10, "marg_al_3_6_f": 31, "per_marg_al_3_6_p": 100.0, "per_marg_al_3_6_m": 24.3902439, "per_marg_al_3_6_f": 75.6097561, "marg_hh_3_6_p": 0, "marg_hh_3_6_m": 0, "marg_hh_3_6_f": 0, "per_marg_hh_3_6_p": 0.0, "per_marg_hh_3_6_m": 0.0, "per_marg_hh_3_6_f": 0.0, "marg_ot_3_6_p": 0, "marg_ot_3_6_m": 0, "marg_ot_3_6_f": 0, "per_marg_ot_3_6_p": 0.0, "per_marg_ot_3_6_m": 0.0, "per_marg_ot_3_6_f": 0.0, "margwork_0_3_p": 0, "margwork_0_3_m": 0, "margwork_0_3_f": 0, "per_margwork_0_3_p": 0.0, "per_margwork_0_3_m": 0.0, "per_margwork_0_3_f": 0.0, "marg_cl_0_3_p": 0, "marg_cl_0_3_m": 0, "marg_cl_0_3_f": 0, "per_marg_cl_0_3_p": 0.0, "per_marg_cl_0_3_m": 0.0, "per_marg_cl_0_3_f": 0.0, "marg_al_0_3_p": 0, "marg_al_0_3_m": 0, "marg_al_0_3_f": 0, "per_marg_al_0_3_p": 0.0, "per_marg_al_0_3_m": 0.0, "per_marg_al_0_3_f": 0.0, "marg_hh_0_3_p": 0, "marg_hh_0_3_m": 0, "marg_hh_0_3_f": 0, "per_marg_hh_0_3_p": 0.0, "per_marg_hh_0_3_m": 0.0, "per_marg_hh_0_3_f": 0.0, "marg_ot_0_3_p": 0, "marg_ot_0_3_m": 0, "marg_ot_0_3_f": 0, "per_marg_ot_0_3_p": 0.0, "per_marg_ot_0_3_m": 0.0, "per_marg_ot_0_3_f": 0.0, "non_work_p": 609, "non_work_m": 300, "non_work_f": 309, "per_non_work_p": 42.40947075, "per_non_work_m": 49.26108374, "per_non_work_f": 50.73891626, "per_hc_tot_tot": 100, "per_hc_tot_god": 8.5, "per_hc_tot_liv": 82.6, "per_hc_tot_dil": 8.9, "per_hc_res_tot": 54.8, "per_hc_res_god": 7.7, "per_hc_res_liv": 41.7, "per_hc_res_dil": 5.4, "per_hc_oth_tot": 45.2, "per_hc_oth_god": 0.8, "per_hc_oth_liv": 40.9, "per_hc_oth_dil": 3.5, "per_mt_grsbam": 0.0, "per_mt_plastic": 0.0, "per_mt_h_tiles": 81.1, "per_mt_m_tiles": 7.3, "per_mt_b_brick": 0.0, "per_mt_stone": 0.4, "per_mt_asbstos": 1.9, "per_mt_concrte": 9.3, "per_mt_oth": 0.0, "per_mw_grsbam": 8.9, "per_mw_plastic": 0.0, "per_mw_mud": 17.8, "per_mw_wood": 8.5, "per_mw_no_mrtr": 0.0, "per_mw_st_mrtr": 0.0, "per_mw_asbstos": 0.0, "per_mw_b_brick": 64.5, "per_mw_concrte": 0.4, "per_mw_oth": 0.0, "per_mf_mud": 90.7, "per_mf_wood": 0.0, "per_mf_b_brick": 0.0, "per_mf_stone": 0.0, "per_mf_cement": 9.3, "per_mf_fl_tile": 0.0, "per_mf_oth": 0.0, "per_dw_n_exrm": 22.4, "per_dw_1_room": 57.5, "per_dw_2_room": 19.3, "per_dw_3_room": 0.8, "per_dw_4_room": 0.0, "per_dw_5_room": 0.0, "per_dw_6_room": 0.0, "per_hhsize_1": 1.9, "per_hhsize_2": 10.4, "per_hhsize_3": 9.3, "per_hhsize_4": 16.2, "per_hhsize_5": 14.7, "per_hhsize_6_8": 39.4, "per_hhsize_9p": 8.1, "per_ow_owned": 99.6, "per_ow_rented": 0.4, "per_ow_oth": 0.0, "per_mc_none": 5.4, "per_mcouple_1": 68.0, "per_mcouple_2": 23.9, "per_mcouple_3": 2.3, "per_mcouple_4": 0.4, "per_mcouple_5p": 0.0, "per_dw_t_ts": 0.0, "per_dw_t_unts": 0.0, "per_dw_c_well": 4.2, "per_dw_unc_wel": 52.1, "per_dw_hpump": 40.5, "per_dw_tw_bore": 0.0, "per_dw_spring": 2.7, "per_dw_rivcan": 0.0, "per_dw_tank": 0.4, "per_dw_oth": 0.0, "per_loc_dw_wp": 1.2, "per_loc_dw_np": 68.3, "per_loc_dw_aw": 30.5, "per_light_elec": 87.3, "per_light_kero": 12.4, "per_light_solr": 0.4, "per_light_oil": 0.0, "per_light_oth": 0.0, "per_light_no": 0.0, "per_hh_latrine": 7.7, "per_fl_sewer": 0.4, "per_fl_septict": 6.9, "per_fl_othsys": 0.0, "per_pl_wslab": 0.0, "per_pl_without": 0.0, "per_ns_open": 0.4, "per_sl_ns_hum": 0.0, "per_sl_ns_anml": 0.0, "per_hh_no_lat": 92.3, "per_as_pub": 0.0, "per_as_open": 92.3, "per_hh_bathrm": 0.4, "per_hh_en_wrf": 0.8, "per_hh_no_btrm": 98.8, "per_wwoc_drain": 0.0, "per_wwoc_open": 0.0, "per_wwoc_nodrn": 100.0, "per_cook_fire": 99.6, "per_cook_resdu": 0.0, "per_cook_cwdng": 0.0, "per_cook_coal": 0.0, "per_cook_kero": 0.0, "per_cook_lpng": 0.0, "per_cook_elec": 0.0, "per_cook_biogs": 0.0, "per_cook_oth": 0.4, "per_cook_no": 0.0, "per_kf_inside": 100.0, "per_kf_in_has": 100.0, "per_kf_in_does": 0.0, "per_kf_outside": 0.0, "per_kf_out_has": 0.0, "per_kf_out_dos": 0.0, "per_kf_no_cook": 0.0, "per_hh_banking": 15.1, "per_hh_radio": 6.9, "per_hh_tv": 0.8, "per_hh_cmp_int": 0.0, "per_hh_cmp_wnt": 2.7, "per_hh_ph_ll": 0.8, "per_hh_ph_mob": 26.6, "per_hh_ph_bth": 0.0, "per_hh_bcycl": 30.5, "per_hh_2wheel": 3.1, "per_hh_4wheel": 0.0, "per_hh_tvcomp": 0.0, "per_hh_no_ast": 53.7, "per_hs_perma": 64.9, "per_hs_sperma": 35.1, "per_hs_temp": 0.0, "per_hs_servc": 0.0, "per_hs_nservc": 0.0, "per_hs_unclss": 0.0, "avghhsz_cy": 5.56589147, "st_areashape": 13149352.148563745, "st_lengthshape": 15936.05730342525}, "geometry": {"type": "Polygon", "coordinates": [[[73.94646567407221, 22.536187017154166], [73.94538311252668, 22.53642708666975], [73.94193130550471, 22.537275215997116], [73.93857820985778, 22.538025847944247], [73.93735759971095, 22.538248888708214], [73.93661936061721, 22.53844513796425], [73.93624718410342, 22.538448680801334], [73.93475787617706, 22.537085134819854], [73.93351239437496, 22.536026221065914], [73.93009526591625, 22.533346004243135], [73.92780847410481, 22.531465166639364], [73.92619679677209, 22.53013958016644], [73.92551202091248, 22.52617413477862], [73.92523133242047, 22.52454866899135], [73.92519304712137, 22.524340802027787], [73.92448667935558, 22.520505562016744], [73.92371168479367, 22.519999907669057], [73.92161961180324, 22.518487655223737], [73.92112772579468, 22.518186861902866], [73.92073181938436, 22.517848447681175], [73.92012354764756, 22.517452571869875], [73.91916252366845, 22.516827106572446], [73.91746953263284, 22.515906760224315], [73.91569303780169, 22.514975027250777], [73.919198562281, 22.512557647049253], [73.92200877635733, 22.510064765747735], [73.92465739698882, 22.50866439239551], [73.92733110576957, 22.50730695920815], [73.93003114776452, 22.505993645908145], [73.93275392701764, 22.50472324955881], [73.93550049815107, 22.503497547360062], [73.93826984247524, 22.50231582012935], [73.93935191354062, 22.503941163131906], [73.93999175477144, 22.504954040627624], [73.9406134590166, 22.505976231303514], [73.94121469245312, 22.507009076889698], [73.94179679087578, 22.508051724023314], [73.9423594704169, 22.509103332643186], [73.94290175999774, 22.510163788021718], [73.94342463249369, 22.511233128958633], [73.94392722642043, 22.512310642396475], [73.94440912585796, 22.513396537266985], [73.94487054909692, 22.51448961673117], [73.94531147278109, 22.51559033122196], [73.94573183492672, 22.516698301321902], [73.946130447961, 22.517812799926446], [73.94719722700529, 22.51756927003318], [73.94828772606468, 22.517357482406936], [73.94938497865834, 22.51718053495644], [73.95048771456852, 22.51703958460251], [73.95159617634032, 22.516934641413265], [73.95270762860369, 22.51686521835825], [73.95381984982492, 22.516831829988085], [73.9549327519692, 22.5168346995543], [73.95604512500573, 22.51687362789451], [73.95715577417525, 22.51694811541853], [73.95817097375254, 22.51705714220446], [73.9590268966401, 22.517231385391515], [73.96012977089084, 22.517590545204154], [73.96091516704541, 22.517951316438005], [73.96165461616984, 22.51838688300347], [73.96234067302706, 22.51889128607348], [73.96296720841185, 22.519459981639194], [73.9635243624157, 22.52008653452503], [73.9640093870921, 22.52076358933392], [73.9644139712281, 22.52148455168399], [73.96460159425666, 22.52237791725727], [73.9647226736822, 22.523281617134636], [73.96477443820216, 22.524190562011697], [73.9647581733056, 22.525101478285176], [73.96467249379045, 22.526009177308], [73.96451979726012, 22.52690914932399], [73.96429994178087, 22.52779746304215], [73.96401281146998, 22.528669509353737], [73.96366096742432, 22.52952085765962], [73.96324646678592, 22.53034743840432], [73.9627718212443, 22.53114580276944], [73.96223702271463, 22.531910890638482], [73.96169454897918, 22.533347379113838], [73.96073757011375, 22.536267884748096], [73.96096239417484, 22.536629379671464], [73.96062146286326, 22.53673433694012], [73.96052549943474, 22.536763878922823], [73.95980895285847, 22.536813659285897], [73.95888921814472, 22.53653741401234], [73.95780548699271, 22.53594591505041], [73.95716605180041, 22.53572229888871], [73.95627552580812, 22.535672974478643], [73.95516509942078, 22.535766927893775], [73.95405588306414, 22.535727300444453], [73.95324247654071, 22.535404576098262], [73.95253361864494, 22.534966220548505], [73.95215495270153, 22.53489582167002], [73.95137560041218, 22.535016779011894], [73.9486756527403, 22.535696928519215], [73.94646567407221, 22.536187017154166]]]}}]}