{"type": "FeatureCollection", "features": [{"type": "Feature", "properties": {"premiumdata.sde.IN_Village_PCA.area": 1.51330339, "objectid": 481510, "id": "9135993445429", "name": "Daudpur", "subdistrict": "Chandauli", "district": "Chandauli", "state": "Uttar Pradesh", "country": "India", "censusname": "Daudpur", "villagename_locallang": null, "lgd_villagename": "Daudpur", "lgd_villagecode": 207480, "lgd_subdistrictcode": 993, "lgd_districtcode": 135, "lgd_statecode": 9, "censuscode2001": "10054100", "censuscode2011": "207480", "censuscode2021": null, "level": "Village", "tru": "Rural", "no_hh": 156, "tot_p": 1181, "tot_m": 595, "tot_f": 586, "per_tot_m": 50.38103302, "per_tot_f": 49.61896698, "p_06": 209, "m_06": 117, "f_06": 92, "per_p_06": 17.69686706, "per_m_06": 55.98086124, "per_f_06": 44.01913876, "p_sc": 195, "m_sc": 104, "f_sc": 91, "per_p_sc": 16.51143099, "per_m_sc": 53.33333333, "per_f_sc": 46.66666667000001, "p_st": 0, "m_st": 0, "f_st": 0, "per_p_st": 0.0, "per_m_st": 0.0, "per_f_st": 0.0, "p_lit": 710, "m_lit": 412, "f_lit": 298, "per_p_lit": 60.11854361, "per_m_lit": 58.02816901, "per_f_lit": 41.97183099, "p_ill": 471, "m_ill": 183, "f_ill": 288, "per_p_ill": 39.88145639, "per_m_ill": 38.85350318, "per_f_ill": 61.14649682, "tot_work_p": 622, "tot_work_m": 318, "tot_work_f": 304, "per_tot_work_p": 52.66723116, "per_tot_work_m": 51.12540193, "per_tot_work_f": 48.87459807, "mainwork_p": 334, "mainwork_m": 232, "mainwork_f": 102, "per_mainwork_p": 28.2811177, "per_mainwork_m": 69.46107784, "per_mainwork_f": 30.53892216, "main_cl_p": 303, "main_cl_m": 204, "main_cl_f": 99, "per_main_cl_p": 90.71856287, "per_main_cl_m": 67.32673267, "per_main_cl_f": 32.67326733, "main_al_p": 8, "main_al_m": 5, "main_al_f": 3, "per_main_al_p": 2.39520958, "per_main_al_m": 62.5, "per_main_al_f": 37.5, "main_hh_p": 1, "main_hh_m": 1, "main_hh_f": 0, "per_main_hh_p": 0.2994012, "per_main_hh_m": 100.0, "per_main_hh_f": 0.0, "main_ot_p": 22, "main_ot_m": 22, "main_ot_f": 0, "per_main_ot_p": 6.58682635, "per_main_ot_m": 100.0, "per_main_ot_f": 0.0, "margwork_p": 288, "margwork_m": 86, "margwork_f": 202, "per_margwork_p": 24.38611346, "per_margwork_m": 29.86111111, "per_margwork_f": 70.13888889, "marg_cl_p": 181, "marg_cl_m": 33, "marg_cl_f": 148, "per_marg_cl_p": 62.84722222, "per_marg_cl_m": 18.2320442, "per_marg_cl_f": 81.7679558, "marg_al_p": 106, "marg_al_m": 52, "marg_al_f": 54, "per_marg_al_p": 36.80555556, "per_marg_al_m": 49.05660377, "per_marg_al_f": 50.94339623, "marg_hh_p": 0, "marg_hh_m": 0, "marg_hh_f": 0, "per_marg_hh_p": 0.0, "per_marg_hh_m": 0.0, "per_marg_hh_f": 0.0, "marg_ot_p": 1, "marg_ot_m": 1, "marg_ot_f": 0, "per_marg_ot_p": 0.34722222, "per_marg_ot_m": 100.0, "per_marg_ot_f": 0.0, "margwork_3_6_p": 252, "margwork_3_6_m": 75, "margwork_3_6_f": 177, "per_margwork_3_6_p": 87.5, "per_margwork_3_6_m": 29.76190476, "per_margwork_3_6_f": 70.23809524, "marg_cl_3_6_p": 161, "marg_cl_3_6_m": 28, "marg_cl_3_6_f": 133, "per_marg_cl_3_6_p": 55.90277778, "per_marg_cl_3_6_m": 17.39130435, "per_marg_cl_3_6_f": 82.60869565, "marg_al_3_6_p": 90, "marg_al_3_6_m": 46, "marg_al_3_6_f": 44, "per_marg_al_3_6_p": 31.25, "per_marg_al_3_6_m": 51.11111111, "per_marg_al_3_6_f": 48.88888889, "marg_hh_3_6_p": 0, "marg_hh_3_6_m": 0, "marg_hh_3_6_f": 0, "per_marg_hh_3_6_p": 0.0, "per_marg_hh_3_6_m": 0.0, "per_marg_hh_3_6_f": 0.0, "marg_ot_3_6_p": 1, "marg_ot_3_6_m": 1, "marg_ot_3_6_f": 0, "per_marg_ot_3_6_p": 0.34722222, "per_marg_ot_3_6_m": 100.0, "per_marg_ot_3_6_f": 0.0, "margwork_0_3_p": 36, "margwork_0_3_m": 11, "margwork_0_3_f": 25, "per_margwork_0_3_p": 12.5, "per_margwork_0_3_m": 30.55555556, "per_margwork_0_3_f": 69.44444444, "marg_cl_0_3_p": 20, "marg_cl_0_3_m": 5, "marg_cl_0_3_f": 15, "per_marg_cl_0_3_p": 6.94444444, "per_marg_cl_0_3_m": 25.0, "per_marg_cl_0_3_f": 75.0, "marg_al_0_3_p": 16, "marg_al_0_3_m": 6, "marg_al_0_3_f": 10, "per_marg_al_0_3_p": 5.55555556, "per_marg_al_0_3_m": 37.5, "per_marg_al_0_3_f": 62.5, "marg_hh_0_3_p": 0, "marg_hh_0_3_m": 0, "marg_hh_0_3_f": 0, "per_marg_hh_0_3_p": 0.0, "per_marg_hh_0_3_m": 0.0, "per_marg_hh_0_3_f": 0.0, "marg_ot_0_3_p": 0, "marg_ot_0_3_m": 0, "marg_ot_0_3_f": 0, "per_marg_ot_0_3_p": 0.0, "per_marg_ot_0_3_m": 0.0, "per_marg_ot_0_3_f": 0.0, "non_work_p": 559, "non_work_m": 277, "non_work_f": 282, "per_non_work_p": 47.33276884, "per_non_work_m": 49.55277281, "per_non_work_f": 50.44722719, "per_hc_tot_tot": 100, "per_hc_tot_god": 54.4, "per_hc_tot_liv": 36.7, "per_hc_tot_dil": 8.9, "per_hc_res_tot": 99.4, "per_hc_res_god": 53.8, "per_hc_res_liv": 36.7, "per_hc_res_dil": 8.9, "per_hc_oth_tot": 0.6, "per_hc_oth_god": 0.6, "per_hc_oth_liv": 0.0, "per_hc_oth_dil": 0.0, "per_mt_grsbam": 17.1, "per_mt_plastic": 0.0, "per_mt_h_tiles": 24.7, "per_mt_m_tiles": 1.3, "per_mt_b_brick": 1.3, "per_mt_stone": 51.9, "per_mt_asbstos": 0.6, "per_mt_concrte": 3.2, "per_mt_oth": 0.0, "per_mw_grsbam": 1.3, "per_mw_plastic": 0.0, "per_mw_mud": 39.9, "per_mw_wood": 0.0, "per_mw_no_mrtr": 0.0, "per_mw_st_mrtr": 1.3, "per_mw_asbstos": 0.0, "per_mw_b_brick": 57.6, "per_mw_concrte": 0.0, "per_mw_oth": 0.0, "per_mf_mud": 89.2, "per_mf_wood": 0.0, "per_mf_b_brick": 1.3, "per_mf_stone": 0.0, "per_mf_cement": 8.9, "per_mf_fl_tile": 0.6, "per_mf_oth": 0.0, "per_dw_n_exrm": 3.2, "per_dw_1_room": 24.7, "per_dw_2_room": 27.8, "per_dw_3_room": 13.9, "per_dw_4_room": 5.1, "per_dw_5_room": 5.1, "per_dw_6_room": 20.3, "per_hhsize_1": 1.3, "per_hhsize_2": 4.4, "per_hhsize_3": 3.8, "per_hhsize_4": 8.9, "per_hhsize_5": 14.6, "per_hhsize_6_8": 45.6, "per_hhsize_9p": 21.5, "per_ow_owned": 100.0, "per_ow_rented": 0.0, "per_ow_oth": 0.0, "per_mc_none": 4.4, "per_mcouple_1": 50.0, "per_mcouple_2": 25.3, "per_mcouple_3": 15.2, "per_mcouple_4": 3.8, "per_mcouple_5p": 1.3, "per_dw_t_ts": 0.0, "per_dw_t_unts": 0.0, "per_dw_c_well": 0.0, "per_dw_unc_wel": 9.5, "per_dw_hpump": 90.5, "per_dw_tw_bore": 0.0, "per_dw_spring": 0.0, "per_dw_rivcan": 0.0, "per_dw_tank": 0.0, "per_dw_oth": 0.0, "per_loc_dw_wp": 37.3, "per_loc_dw_np": 51.3, "per_loc_dw_aw": 11.4, "per_light_elec": 29.1, "per_light_kero": 70.9, "per_light_solr": 0.0, "per_light_oil": 0.0, "per_light_oth": 0.0, "per_light_no": 0.0, "per_hh_latrine": 12.0, "per_fl_sewer": 1.9, "per_fl_septict": 7.0, "per_fl_othsys": 2.5, "per_pl_wslab": 0.0, "per_pl_without": 0.0, "per_ns_open": 0.0, "per_sl_ns_hum": 0.0, "per_sl_ns_anml": 0.6, "per_hh_no_lat": 88.0, "per_as_pub": 0.6, "per_as_open": 87.3, "per_hh_bathrm": 12.0, "per_hh_en_wrf": 10.8, "per_hh_no_btrm": 77.2, "per_wwoc_drain": 3.2, "per_wwoc_open": 70.3, "per_wwoc_nodrn": 26.6, "per_cook_fire": 10.1, "per_cook_resdu": 0.0, "per_cook_cwdng": 89.2, "per_cook_coal": 0.0, "per_cook_kero": 0.0, "per_cook_lpng": 0.6, "per_cook_elec": 0.0, "per_cook_biogs": 0.0, "per_cook_oth": 0.0, "per_cook_no": 0.0, "per_kf_inside": 94.9, "per_kf_in_has": 44.9, "per_kf_in_does": 50.0, "per_kf_outside": 5.1, "per_kf_out_has": 5.1, "per_kf_out_dos": 0.0, "per_kf_no_cook": 0.0, "per_hh_banking": 85.4, "per_hh_radio": 39.9, "per_hh_tv": 38.6, "per_hh_cmp_int": 0.6, "per_hh_cmp_wnt": 0.0, "per_hh_ph_ll": 2.5, "per_hh_ph_mob": 51.9, "per_hh_ph_bth": 0.6, "per_hh_bcycl": 94.3, "per_hh_2wheel": 21.5, "per_hh_4wheel": 0.0, "per_hh_tvcomp": 0.6, "per_hh_no_ast": 1.9, "per_hs_perma": 57.0, "per_hs_sperma": 27.8, "per_hs_temp": 15.2, "per_hs_servc": 13.9, "per_hs_nservc": 1.3, "per_hs_unclss": 0.0, "avghhsz_cy": 7.57051282, "st_areashape": 1857316.19415288, "st_lengthshape": 5787.201812423257}, "geometry": {"type": "Polygon", "coordinates": [[[83.30938599532628, 25.227715756128955], [83.31004520692957, 25.228080292202176], [83.31113670940712, 25.228902385760616], [83.31194511411108, 25.229372560227066], [83.31199893217972, 25.229403855990228], [83.31397450715258, 25.23012980540569], [83.31478538402018, 25.230493615076615], [83.31575030938265, 25.231270312060662], [83.3179587438468, 25.232914305029205], [83.31877056214884, 25.23343893478268], [83.31900169867144, 25.233623759740468], [83.31691280302215, 25.234029204337762], [83.31557538404061, 25.234403277543752], [83.31380933032801, 25.234963195568035], [83.31221925478295, 25.23536141426658], [83.31085654193797, 25.235735555693005], [83.30929237650065, 25.236248514405464], [83.30815775938105, 25.236736444471894], [83.30656764790335, 25.23713461023239], [83.30525452655364, 25.237347628208074], [83.3045485199106, 25.23764967084365], [83.30416277254781, 25.238116822867216], [83.30224469693967, 25.23699409696723], [83.30082562828537, 25.236357333154228], [83.29939496417734, 25.235768742319557], [83.2992447218444, 25.23510365267456], [83.29883113569096, 25.233474027574687], [83.2985454408879, 25.232119580333233], [83.29849125450995, 25.231476395749603], [83.29847656525843, 25.230566170313228], [83.29913776034184, 25.23024492742053], [83.30100233049501, 25.22922508517329], [83.30160615646943, 25.228739674174907], [83.30316527427318, 25.227353579674322], [83.30404464229133, 25.22643025038198], [83.3041450928047, 25.226346750426558], [83.30432527418945, 25.226682578348225], [83.30455405353274, 25.226911284779597], [83.3051878517966, 25.227252990578013], [83.30597196425866, 25.227364200843063], [83.30667922764479, 25.227291926493795], [83.30713481452933, 25.227404666918613], [83.30794380313826, 25.2274467980732], [83.30852510565354, 25.22744404892336], [83.30938599532628, 25.227715756128955]]]}}]}