{"type": "FeatureCollection", "features": [{"type": "Feature", "properties": {"premiumdata.sde.IN_Village_PCA.area": 1.74061271, "objectid": 65533, "id": "274694138626539", "name": "Sultanabad", "subdistrict": "Khuldabad", "district": "Aurangabad", "state": "Maharashtra", "country": "India", "censusname": "Sultanabad", "villagename_locallang": null, "lgd_villagename": "Sultanabad", "lgd_villagecode": 548981, "lgd_subdistrictcode": 4138, "lgd_districtcode": 469, "lgd_statecode": 27, "censuscode2001": "02389500", "censuscode2011": "548981", "censuscode2021": null, "level": "Village", "tru": "Rural", "no_hh": 54, "tot_p": 237, "tot_m": 123, "tot_f": 114, "per_tot_m": 51.89873418, "per_tot_f": 48.10126582, "p_06": 40, "m_06": 18, "f_06": 22, "per_p_06": 16.87763713, "per_m_06": 45.0, "per_f_06": 55.0, "p_sc": 17, "m_sc": 8, "f_sc": 9, "per_p_sc": 7.17299578, "per_m_sc": 47.05882353, "per_f_sc": 52.94117647, "p_st": 0, "m_st": 0, "f_st": 0, "per_p_st": 0.0, "per_m_st": 0.0, "per_f_st": 0.0, "p_lit": 146, "m_lit": 86, "f_lit": 60, "per_p_lit": 61.60337553, "per_m_lit": 58.90410959, "per_f_lit": 41.09589041, "p_ill": 91, "m_ill": 37, "f_ill": 54, "per_p_ill": 38.39662447, "per_m_ill": 40.65934066000001, "per_f_ill": 59.34065934, "tot_work_p": 122, "tot_work_m": 62, "tot_work_f": 60, "per_tot_work_p": 51.47679325, "per_tot_work_m": 50.81967213, "per_tot_work_f": 49.18032787, "mainwork_p": 118, "mainwork_m": 62, "mainwork_f": 56, "per_mainwork_p": 49.78902954, "per_mainwork_m": 52.54237288, "per_mainwork_f": 47.45762712, "main_cl_p": 79, "main_cl_m": 42, "main_cl_f": 37, "per_main_cl_p": 66.94915254, "per_main_cl_m": 53.16455696, "per_main_cl_f": 46.83544304, "main_al_p": 23, "main_al_m": 11, "main_al_f": 12, "per_main_al_p": 19.49152542, "per_main_al_m": 47.82608696, "per_main_al_f": 52.17391304, "main_hh_p": 0, "main_hh_m": 0, "main_hh_f": 0, "per_main_hh_p": 0.0, "per_main_hh_m": 0.0, "per_main_hh_f": 0.0, "main_ot_p": 16, "main_ot_m": 9, "main_ot_f": 7, "per_main_ot_p": 13.55932203, "per_main_ot_m": 56.25, "per_main_ot_f": 43.75, "margwork_p": 4, "margwork_m": 0, "margwork_f": 4, "per_margwork_p": 1.68776371, "per_margwork_m": 0.0, "per_margwork_f": 100.0, "marg_cl_p": 1, "marg_cl_m": 0, "marg_cl_f": 1, "per_marg_cl_p": 25.0, "per_marg_cl_m": 0.0, "per_marg_cl_f": 100.0, "marg_al_p": 1, "marg_al_m": 0, "marg_al_f": 1, "per_marg_al_p": 25.0, "per_marg_al_m": 0.0, "per_marg_al_f": 100.0, "marg_hh_p": 0, "marg_hh_m": 0, "marg_hh_f": 0, "per_marg_hh_p": 0.0, "per_marg_hh_m": 0.0, "per_marg_hh_f": 0.0, "marg_ot_p": 2, "marg_ot_m": 0, "marg_ot_f": 2, "per_marg_ot_p": 50.0, "per_marg_ot_m": 0.0, "per_marg_ot_f": 100.0, "margwork_3_6_p": 3, "margwork_3_6_m": 0, "margwork_3_6_f": 3, "per_margwork_3_6_p": 75.0, "per_margwork_3_6_m": 0.0, "per_margwork_3_6_f": 100.0, "marg_cl_3_6_p": 1, "marg_cl_3_6_m": 0, "marg_cl_3_6_f": 1, "per_marg_cl_3_6_p": 25.0, "per_marg_cl_3_6_m": 0.0, "per_marg_cl_3_6_f": 100.0, "marg_al_3_6_p": 1, "marg_al_3_6_m": 0, "marg_al_3_6_f": 1, "per_marg_al_3_6_p": 25.0, "per_marg_al_3_6_m": 0.0, "per_marg_al_3_6_f": 100.0, "marg_hh_3_6_p": 0, "marg_hh_3_6_m": 0, "marg_hh_3_6_f": 0, "per_marg_hh_3_6_p": 0.0, "per_marg_hh_3_6_m": 0.0, "per_marg_hh_3_6_f": 0.0, "marg_ot_3_6_p": 1, "marg_ot_3_6_m": 0, "marg_ot_3_6_f": 1, "per_marg_ot_3_6_p": 25.0, "per_marg_ot_3_6_m": 0.0, "per_marg_ot_3_6_f": 100.0, "margwork_0_3_p": 1, "margwork_0_3_m": 0, "margwork_0_3_f": 1, "per_margwork_0_3_p": 25.0, "per_margwork_0_3_m": 0.0, "per_margwork_0_3_f": 100.0, "marg_cl_0_3_p": 0, "marg_cl_0_3_m": 0, "marg_cl_0_3_f": 0, "per_marg_cl_0_3_p": 0.0, "per_marg_cl_0_3_m": 0.0, "per_marg_cl_0_3_f": 0.0, "marg_al_0_3_p": 0, "marg_al_0_3_m": 0, "marg_al_0_3_f": 0, "per_marg_al_0_3_p": 0.0, "per_marg_al_0_3_m": 0.0, "per_marg_al_0_3_f": 0.0, "marg_hh_0_3_p": 0, "marg_hh_0_3_m": 0, "marg_hh_0_3_f": 0, "per_marg_hh_0_3_p": 0.0, "per_marg_hh_0_3_m": 0.0, "per_marg_hh_0_3_f": 0.0, "marg_ot_0_3_p": 1, "marg_ot_0_3_m": 0, "marg_ot_0_3_f": 1, "per_marg_ot_0_3_p": 25.0, "per_marg_ot_0_3_m": 0.0, "per_marg_ot_0_3_f": 100.0, "non_work_p": 115, "non_work_m": 61, "non_work_f": 54, "per_non_work_p": 48.52320675, "per_non_work_m": 53.04347826, "per_non_work_f": 46.95652174, "per_hc_tot_tot": 100, "per_hc_tot_god": 83.3, "per_hc_tot_liv": 16.7, "per_hc_tot_dil": 0.0, "per_hc_res_tot": 100.0, "per_hc_res_god": 83.3, "per_hc_res_liv": 16.7, "per_hc_res_dil": 0.0, "per_hc_oth_tot": 0.0, "per_hc_oth_god": 0.0, "per_hc_oth_liv": 0.0, "per_hc_oth_dil": 0.0, "per_mt_grsbam": 1.9, "per_mt_plastic": 0.0, "per_mt_h_tiles": 7.4, "per_mt_m_tiles": 0.0, "per_mt_b_brick": 0.0, "per_mt_stone": 0.0, "per_mt_asbstos": 79.6, "per_mt_concrte": 11.1, "per_mt_oth": 0.0, "per_mw_grsbam": 5.6, "per_mw_plastic": 0.0, "per_mw_mud": 22.2, "per_mw_wood": 0.0, "per_mw_no_mrtr": 0.0, "per_mw_st_mrtr": 0.0, "per_mw_asbstos": 1.9, "per_mw_b_brick": 48.1, "per_mw_concrte": 22.2, "per_mw_oth": 0.0, "per_mf_mud": 51.9, "per_mf_wood": 0.0, "per_mf_b_brick": 0.0, "per_mf_stone": 0.0, "per_mf_cement": 33.3, "per_mf_fl_tile": 14.8, "per_mf_oth": 0.0, "per_dw_n_exrm": 0.0, "per_dw_1_room": 55.6, "per_dw_2_room": 42.6, "per_dw_3_room": 1.9, "per_dw_4_room": 0.0, "per_dw_5_room": 0.0, "per_dw_6_room": 0.0, "per_hhsize_1": 1.9, "per_hhsize_2": 13.0, "per_hhsize_3": 14.8, "per_hhsize_4": 14.8, "per_hhsize_5": 33.3, "per_hhsize_6_8": 22.2, "per_hhsize_9p": 0.0, "per_ow_owned": 98.1, "per_ow_rented": 1.9, "per_ow_oth": 0.0, "per_mc_none": 7.4, "per_mcouple_1": 85.2, "per_mcouple_2": 7.4, "per_mcouple_3": 0.0, "per_mcouple_4": 0.0, "per_mcouple_5p": 0.0, "per_dw_t_ts": 1.9, "per_dw_t_unts": 40.7, "per_dw_c_well": 0.0, "per_dw_unc_wel": 57.4, "per_dw_hpump": 0.0, "per_dw_tw_bore": 0.0, "per_dw_spring": 0.0, "per_dw_rivcan": 0.0, "per_dw_tank": 0.0, "per_dw_oth": 0.0, "per_loc_dw_wp": 44.4, "per_loc_dw_np": 3.7, "per_loc_dw_aw": 51.9, "per_light_elec": 98.1, "per_light_kero": 0.0, "per_light_solr": 0.0, "per_light_oil": 0.0, "per_light_oth": 0.0, "per_light_no": 1.9, "per_hh_latrine": 9.3, "per_fl_sewer": 0.0, "per_fl_septict": 0.0, "per_fl_othsys": 1.9, "per_pl_wslab": 7.4, "per_pl_without": 0.0, "per_ns_open": 0.0, "per_sl_ns_hum": 0.0, "per_sl_ns_anml": 0.0, "per_hh_no_lat": 90.7, "per_as_pub": 0.0, "per_as_open": 90.7, "per_hh_bathrm": 25.9, "per_hh_en_wrf": 72.2, "per_hh_no_btrm": 1.9, "per_wwoc_drain": 0.0, "per_wwoc_open": 68.5, "per_wwoc_nodrn": 31.5, "per_cook_fire": 70.4, "per_cook_resdu": 0.0, "per_cook_cwdng": 1.9, "per_cook_coal": 0.0, "per_cook_kero": 13.0, "per_cook_lpng": 13.0, "per_cook_elec": 0.0, "per_cook_biogs": 0.0, "per_cook_oth": 0.0, "per_cook_no": 1.9, "per_kf_inside": 14.8, "per_kf_in_has": 13.0, "per_kf_in_does": 1.9, "per_kf_outside": 83.3, "per_kf_out_has": 1.9, "per_kf_out_dos": 81.5, "per_kf_no_cook": 1.9, "per_hh_banking": 77.8, "per_hh_radio": 1.9, "per_hh_tv": 31.5, "per_hh_cmp_int": 0.0, "per_hh_cmp_wnt": 13.0, "per_hh_ph_ll": 0.0, "per_hh_ph_mob": 57.4, "per_hh_ph_bth": 3.7, "per_hh_bcycl": 5.6, "per_hh_2wheel": 25.9, "per_hh_4wheel": 3.7, "per_hh_tvcomp": 0.0, "per_hh_no_ast": 27.8, "per_hs_perma": 70.4, "per_hs_sperma": 29.6, "per_hs_temp": 0.0, "per_hs_servc": 0.0, "per_hs_nservc": 0.0, "per_hs_unclss": 0.0, "avghhsz_cy": 4.38888889, "st_areashape": 1984751.870318655, "st_lengthshape": 6386.676495052143}, "geometry": {"type": "Polygon", "coordinates": [[[75.28977344375737, 20.131885741495836], [75.28908179488748, 20.140179006719713], [75.28329604438316, 20.13968656043442], [75.27752300234513, 20.138987700020337], [75.27452100334554, 20.138635288928803], [75.27364073431714, 20.137741945359924], [75.27300412702138, 20.136646416588622], [75.27167226861148, 20.135518993293367], [75.26965708601944, 20.13414737888091], [75.26807020847677, 20.133435786690978], [75.26697056816108, 20.132319230581476], [75.26868756307937, 20.130687096081605], [75.27216421570546, 20.130843837851987], [75.27841134363466, 20.13134483911904], [75.28977344375737, 20.131885741495836]]]}}]}