{"type": "FeatureCollection", "features": [{"type": "Feature", "properties": {"premiumdata.sde.IN_Village_PCA.area": 7.95670495, "objectid": 130503, "id": "21366318938512", "name": "Benora", "subdistrict": "Umarkote", "district": "Nabarangpur", "state": "Odisha", "country": "India", "censusname": "Benora", "villagename_locallang": null, "lgd_villagename": "Benora", "lgd_villagecode": 427387, "lgd_subdistrictcode": 3189, "lgd_districtcode": 366, "lgd_statecode": 21, "censuscode2001": "04756700", "censuscode2011": "427387", "censuscode2021": null, "level": "Village", "tru": "Rural", "no_hh": 259, "tot_p": 1251, "tot_m": 608, "tot_f": 643, "per_tot_m": 48.6011191, "per_tot_f": 51.3988809, "p_06": 270, "m_06": 129, "f_06": 141, "per_p_06": 21.58273381, "per_m_06": 47.77777778, "per_f_06": 52.22222222, "p_sc": 187, "m_sc": 94, "f_sc": 93, "per_p_sc": 14.94804157, "per_m_sc": 50.26737968, "per_f_sc": 49.73262032, "p_st": 868, "m_st": 418, "f_st": 450, "per_p_st": 69.38449241, "per_m_st": 48.15668203, "per_f_st": 51.84331797, "p_lit": 426, "m_lit": 284, "f_lit": 142, "per_p_lit": 34.05275779, "per_m_lit": 66.66666667, "per_f_lit": 33.33333333, "p_ill": 825, "m_ill": 324, "f_ill": 501, "per_p_ill": 65.94724221, "per_m_ill": 39.27272727, "per_f_ill": 60.72727273, "tot_work_p": 407, "tot_work_m": 321, "tot_work_f": 86, "per_tot_work_p": 32.53397282, "per_tot_work_m": 78.86977887, "per_tot_work_f": 21.13022113, "mainwork_p": 102, "mainwork_m": 75, "mainwork_f": 27, "per_mainwork_p": 8.15347722, "per_mainwork_m": 73.52941176, "per_mainwork_f": 26.47058824, "main_cl_p": 36, "main_cl_m": 33, "main_cl_f": 3, "per_main_cl_p": 35.29411765, "per_main_cl_m": 91.66666667, "per_main_cl_f": 8.33333333, "main_al_p": 49, "main_al_m": 33, "main_al_f": 16, "per_main_al_p": 48.03921569, "per_main_al_m": 67.34693878, "per_main_al_f": 32.65306122, "main_hh_p": 5, "main_hh_m": 3, "main_hh_f": 2, "per_main_hh_p": 4.90196078, "per_main_hh_m": 60.0, "per_main_hh_f": 40.0, "main_ot_p": 12, "main_ot_m": 6, "main_ot_f": 6, "per_main_ot_p": 11.76470588, "per_main_ot_m": 50.0, "per_main_ot_f": 50.0, "margwork_p": 305, "margwork_m": 246, "margwork_f": 59, "per_margwork_p": 24.3804956, "per_margwork_m": 80.6557377, "per_margwork_f": 19.3442623, "marg_cl_p": 130, "marg_cl_m": 126, "marg_cl_f": 4, "per_marg_cl_p": 42.62295082, "per_marg_cl_m": 96.92307692, "per_marg_cl_f": 3.07692308, "marg_al_p": 175, "marg_al_m": 120, "marg_al_f": 55, "per_marg_al_p": 57.37704918, "per_marg_al_m": 68.57142857, "per_marg_al_f": 31.42857143, "marg_hh_p": 0, "marg_hh_m": 0, "marg_hh_f": 0, "per_marg_hh_p": 0.0, "per_marg_hh_m": 0.0, "per_marg_hh_f": 0.0, "marg_ot_p": 0, "marg_ot_m": 0, "marg_ot_f": 0, "per_marg_ot_p": 0.0, "per_marg_ot_m": 0.0, "per_marg_ot_f": 0.0, "margwork_3_6_p": 222, "margwork_3_6_m": 170, "margwork_3_6_f": 52, "per_margwork_3_6_p": 72.78688525, "per_margwork_3_6_m": 76.57657658, "per_margwork_3_6_f": 23.42342342, "marg_cl_3_6_p": 108, "marg_cl_3_6_m": 104, "marg_cl_3_6_f": 4, "per_marg_cl_3_6_p": 35.40983607, "per_marg_cl_3_6_m": 96.2962963, "per_marg_cl_3_6_f": 3.7037037, "marg_al_3_6_p": 114, "marg_al_3_6_m": 66, "marg_al_3_6_f": 48, "per_marg_al_3_6_p": 37.37704918, "per_marg_al_3_6_m": 57.89473684, "per_marg_al_3_6_f": 42.10526316000001, "marg_hh_3_6_p": 0, "marg_hh_3_6_m": 0, "marg_hh_3_6_f": 0, "per_marg_hh_3_6_p": 0.0, "per_marg_hh_3_6_m": 0.0, "per_marg_hh_3_6_f": 0.0, "marg_ot_3_6_p": 0, "marg_ot_3_6_m": 0, "marg_ot_3_6_f": 0, "per_marg_ot_3_6_p": 0.0, "per_marg_ot_3_6_m": 0.0, "per_marg_ot_3_6_f": 0.0, "margwork_0_3_p": 83, "margwork_0_3_m": 76, "margwork_0_3_f": 7, "per_margwork_0_3_p": 27.21311475, "per_margwork_0_3_m": 91.56626506, "per_margwork_0_3_f": 8.43373494, "marg_cl_0_3_p": 22, "marg_cl_0_3_m": 22, "marg_cl_0_3_f": 0, "per_marg_cl_0_3_p": 7.21311475, "per_marg_cl_0_3_m": 100.0, "per_marg_cl_0_3_f": 0.0, "marg_al_0_3_p": 61, "marg_al_0_3_m": 54, "marg_al_0_3_f": 7, "per_marg_al_0_3_p": 20.0, "per_marg_al_0_3_m": 88.52459016, "per_marg_al_0_3_f": 11.47540984, "marg_hh_0_3_p": 0, "marg_hh_0_3_m": 0, "marg_hh_0_3_f": 0, "per_marg_hh_0_3_p": 0.0, "per_marg_hh_0_3_m": 0.0, "per_marg_hh_0_3_f": 0.0, "marg_ot_0_3_p": 0, "marg_ot_0_3_m": 0, "marg_ot_0_3_f": 0, "per_marg_ot_0_3_p": 0.0, "per_marg_ot_0_3_m": 0.0, "per_marg_ot_0_3_f": 0.0, "non_work_p": 844, "non_work_m": 287, "non_work_f": 557, "per_non_work_p": 67.46602718, "per_non_work_m": 34.00473934, "per_non_work_f": 65.99526066, "per_hc_tot_tot": 100, "per_hc_tot_god": 1.9, "per_hc_tot_liv": 89.5, "per_hc_tot_dil": 8.5, "per_hc_res_tot": 99.6, "per_hc_res_god": 1.9, "per_hc_res_liv": 89.1, "per_hc_res_dil": 8.5, "per_hc_oth_tot": 0.4, "per_hc_oth_god": 0.0, "per_hc_oth_liv": 0.4, "per_hc_oth_dil": 0.0, "per_mt_grsbam": 14.0, "per_mt_plastic": 1.2, "per_mt_h_tiles": 65.5, "per_mt_m_tiles": 6.6, "per_mt_b_brick": 0.0, "per_mt_stone": 5.0, "per_mt_asbstos": 7.4, "per_mt_concrte": 0.4, "per_mt_oth": 0.0, "per_mw_grsbam": 0.4, "per_mw_plastic": 0.8, "per_mw_mud": 79.5, "per_mw_wood": 1.2, "per_mw_no_mrtr": 0.0, "per_mw_st_mrtr": 0.4, "per_mw_asbstos": 10.9, "per_mw_b_brick": 7.0, "per_mw_concrte": 0.0, "per_mw_oth": 0.0, "per_mf_mud": 99.2, "per_mf_wood": 0.0, "per_mf_b_brick": 0.0, "per_mf_stone": 0.0, "per_mf_cement": 0.8, "per_mf_fl_tile": 0.0, "per_mf_oth": 0.0, "per_dw_n_exrm": 0.0, "per_dw_1_room": 13.6, "per_dw_2_room": 53.5, "per_dw_3_room": 23.6, "per_dw_4_room": 5.0, "per_dw_5_room": 3.1, "per_dw_6_room": 1.2, "per_hhsize_1": 2.7, "per_hhsize_2": 10.5, "per_hhsize_3": 13.6, "per_hhsize_4": 20.5, "per_hhsize_5": 19.4, "per_hhsize_6_8": 25.2, "per_hhsize_9p": 8.1, "per_ow_owned": 57.8, "per_ow_rented": 0.8, "per_ow_oth": 41.5, "per_mc_none": 10.9, "per_mcouple_1": 76.4, "per_mcouple_2": 11.6, "per_mcouple_3": 1.2, "per_mcouple_4": 0.0, "per_mcouple_5p": 0.0, "per_dw_t_ts": 0.0, "per_dw_t_unts": 0.0, "per_dw_c_well": 0.0, "per_dw_unc_wel": 6.6, "per_dw_hpump": 91.5, "per_dw_tw_bore": 0.0, "per_dw_spring": 0.0, "per_dw_rivcan": 1.9, "per_dw_tank": 0.0, "per_dw_oth": 0.0, "per_loc_dw_wp": 1.2, "per_loc_dw_np": 65.9, "per_loc_dw_aw": 32.9, "per_light_elec": 0.0, "per_light_kero": 99.6, "per_light_solr": 0.4, "per_light_oil": 0.0, "per_light_oth": 0.0, "per_light_no": 0.0, "per_hh_latrine": 1.6, "per_fl_sewer": 0.4, "per_fl_septict": 0.4, "per_fl_othsys": 0.8, "per_pl_wslab": 0.0, "per_pl_without": 0.0, "per_ns_open": 0.0, "per_sl_ns_hum": 0.0, "per_sl_ns_anml": 0.0, "per_hh_no_lat": 98.4, "per_as_pub": 0.0, "per_as_open": 98.4, "per_hh_bathrm": 0.8, "per_hh_en_wrf": 0.0, "per_hh_no_btrm": 99.2, "per_wwoc_drain": 0.0, "per_wwoc_open": 1.9, "per_wwoc_nodrn": 98.1, "per_cook_fire": 99.6, "per_cook_resdu": 0.4, "per_cook_cwdng": 0.0, "per_cook_coal": 0.0, "per_cook_kero": 0.0, "per_cook_lpng": 0.0, "per_cook_elec": 0.0, "per_cook_biogs": 0.0, "per_cook_oth": 0.0, "per_cook_no": 0.0, "per_kf_inside": 89.9, "per_kf_in_has": 12.8, "per_kf_in_does": 77.1, "per_kf_outside": 10.1, "per_kf_out_has": 4.3, "per_kf_out_dos": 5.8, "per_kf_no_cook": 0.0, "per_hh_banking": 4.3, "per_hh_radio": 20.9, "per_hh_tv": 0.8, "per_hh_cmp_int": 0.0, "per_hh_cmp_wnt": 0.0, "per_hh_ph_ll": 0.0, "per_hh_ph_mob": 12.0, "per_hh_ph_bth": 0.0, "per_hh_bcycl": 61.6, "per_hh_2wheel": 8.1, "per_hh_4wheel": 0.0, "per_hh_tvcomp": 0.0, "per_hh_no_ast": 31.0, "per_hs_perma": 16.7, "per_hs_sperma": 69.8, "per_hs_temp": 13.6, "per_hs_servc": 13.2, "per_hs_nservc": 0.4, "per_hs_unclss": 0.0, "avghhsz_cy": 4.83011583, "st_areashape": 9010524.88135856, "st_lengthshape": 14914.406640579722}, "geometry": {"type": "Polygon", "coordinates": [[[82.05556545226256, 19.592637973834673], [82.05551294932746, 19.592680426942586], [82.05484793640413, 19.59321813487342], [82.05395409113683, 19.593836556606526], [82.05359656884029, 19.5940057592196], [82.05287423801191, 19.594721394945307], [82.05256667641817, 19.594987750014184], [82.05199224870977, 19.595387232706255], [82.05169901973639, 19.595520358121245], [82.05117468568146, 19.595653453806097], [82.05058608884605, 19.595736720854628], [82.05001177702032, 19.59582227029502], [82.0494612543799, 19.595822046875366], [82.04904672319879, 19.59571347080943], [82.04821510872281, 19.595652163217704], [82.0477671161957, 19.59571290295075], [82.04666855116338, 19.59573500712338], [82.04568440275219, 19.595626173727325], [82.04443331725935, 19.595614345164964], [82.04392815594753, 19.59563892812736], [82.04326323644896, 19.59575830878901], [82.04239576571844, 19.5958686180191], [82.04142346878076, 19.59610980775121], [82.0408228488936, 19.596231419715572], [82.04013070235709, 19.596149745631102], [82.04004811574144, 19.59614000066067], [82.04005125625169, 19.59612988501687], [82.04005570560727, 19.596092154243742], [82.04008952178785, 19.595804683612673], [82.0401040538342, 19.5954298306507], [82.04012446625238, 19.59528125953327], [82.04012795530893, 19.595255864924535], [82.04020904083977, 19.59510013149127], [82.04031487944822, 19.594965776067724], [82.04032960553067, 19.594947082342955], [82.0403297950752, 19.594663925759285], [82.04030021445122, 19.594054301065672], [82.0402706221491, 19.593373754184622], [82.04028583691507, 19.592891682675855], [82.04042068661566, 19.592296247192795], [82.04044601731, 19.591970557340687], [82.04043473357173, 19.59184817286347], [82.04046917677634, 19.591678841036195], [82.04051094753875, 19.591218733834708], [82.04051105892985, 19.591052393057097], [82.04051109037088, 19.59100614211839], [82.040511216135, 19.59081586739406], [82.04051123140638, 19.590793454487915], [82.04076558309089, 19.590368184173474], [82.04138671960081, 19.589446814199988], [82.04170088740513, 19.589149249471408], [82.04213453922709, 19.58906437184959], [82.04259803667603, 19.589092913213836], [82.04303165256536, 19.589164032171187], [82.04314534424601, 19.589164077026233], [82.04325750699407, 19.589103223107582], [82.04336956733418, 19.588976829113264], [82.04346437373266, 19.588793314115716], [82.04347453996672, 19.588773636246056], [82.04349843694989, 19.58863136664102], [82.04346749537828, 19.588516126840023], [82.04327718279376, 19.587937933495457], [82.04307000523806, 19.58755611807688], [82.04299305555084, 19.587211248373947], [82.04280851464203, 19.58690955109932], [82.0426741248789, 19.586470047008167], [82.04265945269537, 19.58603046046897], [82.04272773184348, 19.585681459898918], [82.04273433446083, 19.585647710399638], [82.04289897768608, 19.58537837683611], [82.04324307016915, 19.5850099309603], [82.04344976353288, 19.584739506237938], [82.04357194608963, 19.584573813838137], [82.04376693350686, 19.58424135620484], [82.04378168743709, 19.5842162002174], [82.04378199196597, 19.583691617892775], [82.04378223451108, 19.583169332554498], [82.04378224529088, 19.583145807322254], [82.04378224888414, 19.583138641249434], [82.0438109626339, 19.583060938384968], [82.04383967638361, 19.58298323463661], [82.04386838923504, 19.582905531697158], [82.04389710298481, 19.582827827873842], [82.04392206357328, 19.582759317123994], [82.04394702416177, 19.582690805498633], [82.04397198475024, 19.582622294690506], [82.04399694533873, 19.582553783006848], [82.04402190592722, 19.582485272140442], [82.0440468665157, 19.582416760398505], [82.04410369124562, 19.582360066315477], [82.04416051687389, 19.58230337136612], [82.04421734250211, 19.582246677243145], [82.04427416813037, 19.58218998310026], [82.04433099375859, 19.582133288937378], [82.044398478796, 19.58208763127335], [82.04446596383343, 19.582041972750037], [82.0445334488708, 19.58199631421376], [82.04459865757727, 19.58195219603884], [82.04460093390823, 19.581950656510916], [82.04461901070668, 19.58188470308741], [82.04463708840346, 19.581818748790536], [82.04464345925545, 19.581795505199], [82.04465516610023, 19.581752795312973], [82.04468854749621, 19.581704624695973], [82.04472192889214, 19.58165645406452], [82.04475531028811, 19.581608283418667], [82.04482319687244, 19.581578961228974], [82.04489108255846, 19.581549639880283], [82.04496035614159, 19.581522965945823], [82.04502962972472, 19.581496292853288], [82.04509890420618, 19.58146961891], [82.04516817778934, 19.58144294496228], [82.04523745137247, 19.58141627101016], [82.04528950335327, 19.581366952624837], [82.04534155533409, 19.58131763507079], [82.04539360731492, 19.581268316655265], [82.04544565929575, 19.581218999071012], [82.04549771127658, 19.581169680625326], [82.04554994920865, 19.581115691082303], [82.04560218714073, 19.58106170152118], [82.04565442417453, 19.581007711941965], [82.04569638897303, 19.580964339989908], [82.04570666210661, 19.58095372234466], [82.04571488258978, 19.58088710919455], [82.04572310307294, 19.580820496016855], [82.04573265665597, 19.58074056609187], [82.04574221023904, 19.580660636127188], [82.04575176382208, 19.580580705276468], [82.0457613174051, 19.580500775232466], [82.04577087098816, 19.580420845148794], [82.045779589138, 19.580352293595826], [82.0457883063895, 19.580283742013716], [82.04576439862656, 19.580218150153428], [82.04574049176189, 19.58015255911277], [82.04571658399891, 19.58008696719906], [82.04569267623596, 19.58002137525863], [82.04567477371064, 19.57994479910159], [82.04565687028706, 19.579868222908107], [82.04563896776172, 19.579791647524615], [82.04562106433812, 19.579715071258327], [82.04560316181282, 19.579638494955653], [82.04559422447406, 19.579567602851146], [82.04558528713531, 19.579496710715446], [82.04557634979655, 19.57942581939491], [82.04556741245779, 19.579354927196782], [82.0455620944313, 19.57931274310789], [82.04555847511901, 19.579284034967486], [82.0456093368321, 19.579233026567273], [82.04566019854516, 19.57918201815093], [82.04571106025823, 19.579131008872057], [82.04576192197132, 19.5790800004234], [82.04581278368437, 19.579028991958623], [82.04589003610387, 19.57901012033758], [82.04596728852336, 19.578991249560666], [82.04604454184114, 19.578972377935195], [82.04612179426064, 19.578953506307485], [82.04619904668013, 19.578934634677587], [82.0462762990996, 19.578915763045487], [82.04635852279591, 19.578932331690282], [82.04644074649217, 19.578948900333344], [82.04652297018843, 19.57896546897473], [82.04660519388473, 19.578982037614434], [82.04668741758098, 19.578998605406024], [82.04676964127725, 19.57901517404227], [82.04685434701865, 19.5790388420688], [82.04693905276005, 19.579062510091823], [82.04702375939976, 19.579086178957702], [82.04710846514118, 19.579109846973804], [82.04719317088257, 19.579133514986392], [82.04727787662398, 19.579157182995495], [82.04736358578354, 19.579159841456768], [82.04744929404478, 19.579162499071597], [82.04751405628856, 19.57911802972147], [82.04757881853234, 19.57907356035912], [82.04764357987783, 19.579029091830837], [82.0477083421216, 19.578984623290292], [82.04777310436538, 19.57894015389111], [82.04782554172345, 19.578908562929424], [82.04787797997984, 19.578876971115186], [82.04793041733792, 19.578845380141146], [82.0479974604042, 19.578799107076147], [82.04806450347051, 19.57875283315148], [82.04813154563846, 19.578706560059892], [82.04819858870474, 19.578660286108665], [82.04826563177105, 19.5786140129905], [82.04833267483733, 19.578567739012655], [82.04839971700531, 19.57852146586791], [82.04846676007158, 19.57847519186348], [82.04850341941999, 19.57844564142779], [82.04854007787011, 19.578416090986686], [82.04854910773534, 19.578406355945884], [82.04857655665718, 19.578330751510013], [82.04860400647732, 19.578255147038643], [82.04863145539913, 19.57817954253182], [82.04865890432093, 19.5781039379895], [82.04868635324279, 19.578028333411712], [82.04869857122894, 19.57799468048888], [82.0487138021646, 19.57795272879843], [82.04870817601596, 19.57788294809652], [82.04870254986734, 19.577813167364408], [82.04869692371874, 19.57774338744844], [82.04869129757012, 19.577673606655846], [82.0486856714215, 19.577603825833048], [82.04867525096418, 19.577528690762968], [82.04866483140519, 19.577453556504217], [82.0486544109479, 19.577378421364063], [82.04864399138893, 19.577303287035253], [82.04863357093163, 19.577228151825008], [82.04862014471138, 19.577151570108242], [82.04860671938945, 19.57707498920147], [82.04859329316923, 19.57699840741192], [82.04857986694898, 19.576921826432354], [82.04856644072876, 19.57684524457002], [82.04857095566139, 19.57677436901043], [82.0485754696957, 19.57670349341967], [82.04857998372998, 19.576632618644098], [82.04858449866259, 19.576561742990975], [82.04858779008978, 19.57651007354615], [82.04858901359523, 19.57649086730668], [82.04862081754955, 19.576425292522625], [82.04865262060555, 19.576359717711878], [82.04868442455985, 19.57629414202807], [82.04871622851418, 19.57622856716394], [82.04874717547574, 19.576189865996717], [82.04876232466468, 19.576170920407183], [82.04877812243727, 19.57615116397379], [82.04877548049201, 19.576077897056162], [82.04877283764846, 19.576004630105214], [82.04877260947634, 19.575926595399686], [82.04877238040595, 19.575848559809987], [82.0487721522339, 19.57577052502886], [82.0487719240618, 19.575692490209978], [82.0487716958897, 19.575614454506876], [82.04877146771764, 19.575536419612384], [82.04877123954554, 19.575458384680093], [82.04877101137349, 19.57538034886362], [82.04877078320138, 19.575302313855737], [82.04879110399143, 19.575224404076508], [82.04880144180373, 19.575184770787153], [82.04881142567979, 19.575146493413207], [82.0488487776293, 19.57507725996025], [82.04888613047713, 19.575008026477516], [82.04892348242663, 19.574938792965042], [82.04897890847967, 19.574877831257535], [82.04903433543102, 19.57481686868054], [82.04908976148403, 19.57475590692694], [82.04914518753708, 19.57469494430381], [82.0492042930895, 19.574645732199755], [82.04926339774363, 19.57459652092708], [82.04932250329605, 19.574547308792962], [82.04938160795018, 19.574498096643815], [82.0494407135026, 19.574448884479672], [82.04949849673493, 19.574398048906833], [82.04955627906897, 19.57434721331799], [82.0496140623013, 19.574296377713114], [82.0496459336293, 19.57422600802596], [82.04967780405892, 19.574155638308046], [82.0497096753869, 19.574085268559447], [82.04974154581656, 19.57401489878011], [82.04975774244112, 19.57397913832596], [82.04977341714451, 19.573944528970035], [82.04976810630453, 19.573866539818876], [82.04976279636288, 19.573788550630038], [82.04975748642126, 19.573710561403402], [82.0497521755813, 19.573632571292645], [82.04974686474132, 19.5735545819905], [82.0497415547997, 19.573476592650636], [82.04973624395971, 19.573398603273063], [82.04973627989233, 19.5733245826499], [82.04973631492665, 19.573250561992772], [82.04973635085923, 19.573176541301645], [82.04973638679185, 19.573102520576505], [82.04973642272448, 19.573028499817365], [82.0497364586571, 19.57295447902421], [82.04973649458971, 19.572880458197087], [82.04971784376777, 19.572834312072885], [82.04968532385618, 19.572786865853345], [82.04965280484288, 19.572739419619836], [82.0496202849313, 19.572691973372343], [82.04957345126394, 19.572652809216702], [82.0495266175966, 19.572613645051582], [82.04947978392926, 19.57257448087691], [82.04941623800438, 19.572547337392322], [82.04935269118117, 19.57252019390316], [82.0492891452563, 19.572493050409438], [82.04921053548244, 19.572476311820612], [82.04913192570852, 19.57245957323004], [82.04905331593466, 19.572442834637727], [82.04897470616075, 19.57242609604367], [82.04889609638688, 19.57240935744791], [82.0488269952803, 19.572373930122936], [82.04875789417369, 19.57233850194378], [82.0486887930671, 19.57230307460322], [82.04863481958986, 19.57226391627799], [82.048580847011, 19.57222475878958], [82.04852687353375, 19.572185601291718], [82.04847369416724, 19.572132896975678], [82.04842051390244, 19.572080192642414], [82.04836733453594, 19.572027488291887], [82.04833638038785, 19.571977754829906], [82.04830542534151, 19.571928021352544], [82.0482923359895, 19.571845610412637], [82.04827924753579, 19.571763200277], [82.04828237726623, 19.57169244351914], [82.04828550699669, 19.571621686730204], [82.04828664965373, 19.57159584910178], [82.04886028864135, 19.571492258164938], [82.04898954363432, 19.571455076867256], [82.0496442187454, 19.57126675796568], [82.05027343470299, 19.570957580663727], [82.05071661226022, 19.570790700106823], [82.051805531183, 19.570671407585433], [82.05358315339984, 19.57029271600693], [82.05495329980378, 19.569907141275294], [82.0560466456243, 19.57035918033516], [82.0573378076569, 19.570949126648063], [82.05800954986003, 19.57130620600729], [82.0593840000925, 19.57196618099332], [82.06017249184157, 19.572332382399402], [82.0616088880994, 19.573154915637325], [82.06237124156867, 19.57356620734361], [82.06259282271158, 19.573604750863584], [82.06355545377679, 19.573365673905545], [82.06442041102116, 19.57323497290101], [82.06538783819164, 19.572930407214265], [82.06620271076567, 19.57285165495933], [82.06739175591001, 19.572651024141493], [82.06882853035857, 19.5725566284225], [82.07072265777957, 19.57254827098133], [82.07224037672343, 19.572654827900585], [82.07393202118442, 19.57282022023565], [82.07525666342764, 19.572969677103234], [82.0761452930764, 19.57328377662228], [82.07735317858719, 19.573765207697186], [82.07781293365467, 19.573930120675687], [82.07877068507125, 19.574219445886012], [82.07907092809033, 19.57429857412035], [82.07936404028268, 19.57440049161485], [82.07763113440409, 19.576849608537817], [82.07677548729933, 19.581014841715927], [82.08305023213534, 19.58343331494537], [82.08502300795773, 19.588802687148558], [82.08488809986666, 19.588783076985937], [82.08464504898845, 19.588805591730733], [82.08437578167698, 19.58876940293518], [82.08290797402861, 19.5888300217021], [82.08130428092214, 19.588829597694126], [82.08051080801484, 19.588757189637988], [82.07934793798123, 19.588829127138325], [82.07864739040019, 19.588828996804537], [82.07814224256308, 19.588840098873785], [82.0772605964174, 19.58895053471527], [82.07613579788384, 19.58908346826051], [82.07571399304385, 19.58915559519111], [82.07507538519997, 19.589130605850436], [82.07487044265272, 19.589166631224725], [82.07409121702581, 19.589299689000715], [82.0728068660197, 19.58920220465539], [82.07172029978464, 19.589213118815568], [82.07092918495496, 19.589298736043418], [82.07085287935978, 19.58930999634227], [82.07021200326977, 19.589226219869172], [82.0690419521038, 19.58929817662531], [82.06740728059475, 19.5894195779243], [82.06608951764997, 19.5894552537038], [82.06435722801564, 19.58940728258339], [82.0629774723331, 19.58953998132095], [82.06189090340308, 19.58955091407727], [82.06026095164256, 19.58953905121572], [82.05937935490418, 19.589597381245454], [82.05900988770931, 19.589902180316024], [82.05838288969213, 19.590554597694968], [82.05810166939749, 19.59074875476706], [82.05750074677805, 19.591584093401764], [82.0559872427295, 19.592443991687222], [82.05565596112072, 19.592596349246737], [82.05556545226256, 19.592637973834673]]]}}]}