{"type": "FeatureCollection", "features": [{"type": "Feature", "properties": {"premiumdata.sde.IN_Village_PCA.area": 6.42030172, "objectid": 343958, "id": "9139839392591", "name": "Lahroi", "subdistrict": "Bharthana", "district": "Etawah", "state": "Uttar Pradesh", "country": "India", "censusname": "Lahroi", "villagename_locallang": null, "lgd_villagename": "Lahroi", "lgd_villagecode": 147811, "lgd_subdistrictcode": 839, "lgd_districtcode": 139, "lgd_statecode": 9, "censuscode2001": "04069900", "censuscode2011": "147811", "censuscode2021": null, "level": "Village", "tru": "Rural", "no_hh": 519, "tot_p": 3015, "tot_m": 1621, "tot_f": 1394, "per_tot_m": 53.76451078, "per_tot_f": 46.23548922, "p_06": 409, "m_06": 216, "f_06": 193, "per_p_06": 13.5655058, "per_m_06": 52.81173594, "per_f_06": 47.18826406, "p_sc": 277, "m_sc": 145, "f_sc": 132, "per_p_sc": 9.18739635, "per_m_sc": 52.3465704, "per_f_sc": 47.6534296, "p_st": 0, "m_st": 0, "f_st": 0, "per_p_st": 0.0, "per_m_st": 0.0, "per_f_st": 0.0, "p_lit": 2013, "m_lit": 1250, "f_lit": 763, "per_p_lit": 66.76616915, "per_m_lit": 62.09637357, "per_f_lit": 37.90362643, "p_ill": 1002, "m_ill": 371, "f_ill": 631, "per_p_ill": 33.23383085, "per_m_ill": 37.0259481, "per_f_ill": 62.9740519, "tot_work_p": 1116, "tot_work_m": 890, "tot_work_f": 226, "per_tot_work_p": 37.01492537, "per_tot_work_m": 79.74910394, "per_tot_work_f": 20.25089606, "mainwork_p": 877, "mainwork_m": 795, "mainwork_f": 82, "per_mainwork_p": 29.08789386, "per_mainwork_m": 90.64994299, "per_mainwork_f": 9.35005701, "main_cl_p": 654, "main_cl_m": 598, "main_cl_f": 56, "per_main_cl_p": 74.57240593, "per_main_cl_m": 91.43730887, "per_main_cl_f": 8.56269113, "main_al_p": 159, "main_al_m": 143, "main_al_f": 16, "per_main_al_p": 18.1299886, "per_main_al_m": 89.93710692, "per_main_al_f": 10.06289308, "main_hh_p": 3, "main_hh_m": 1, "main_hh_f": 2, "per_main_hh_p": 0.34207526, "per_main_hh_m": 33.33333333, "per_main_hh_f": 66.66666667, "main_ot_p": 61, "main_ot_m": 53, "main_ot_f": 8, "per_main_ot_p": 6.95553022, "per_main_ot_m": 86.8852459, "per_main_ot_f": 13.1147541, "margwork_p": 239, "margwork_m": 95, "margwork_f": 144, "per_margwork_p": 7.92703151, "per_margwork_m": 39.74895397, "per_margwork_f": 60.25104603, "marg_cl_p": 10, "marg_cl_m": 7, "marg_cl_f": 3, "per_marg_cl_p": 4.18410042, "per_marg_cl_m": 70.0, "per_marg_cl_f": 30.0, "marg_al_p": 9, "marg_al_m": 6, "marg_al_f": 3, "per_marg_al_p": 3.76569038, "per_marg_al_m": 66.66666667, "per_marg_al_f": 33.33333333, "marg_hh_p": 0, "marg_hh_m": 0, "marg_hh_f": 0, "per_marg_hh_p": 0.0, "per_marg_hh_m": 0.0, "per_marg_hh_f": 0.0, "marg_ot_p": 220, "marg_ot_m": 82, "marg_ot_f": 138, "per_marg_ot_p": 92.05020921, "per_marg_ot_m": 37.27272727, "per_marg_ot_f": 62.72727273, "margwork_3_6_p": 238, "margwork_3_6_m": 94, "margwork_3_6_f": 144, "per_margwork_3_6_p": 99.58158996, "per_margwork_3_6_m": 39.49579832, "per_margwork_3_6_f": 60.50420168, "marg_cl_3_6_p": 10, "marg_cl_3_6_m": 7, "marg_cl_3_6_f": 3, "per_marg_cl_3_6_p": 4.18410042, "per_marg_cl_3_6_m": 70.0, "per_marg_cl_3_6_f": 30.0, "marg_al_3_6_p": 8, "marg_al_3_6_m": 5, "marg_al_3_6_f": 3, "per_marg_al_3_6_p": 3.34728033, "per_marg_al_3_6_m": 62.5, "per_marg_al_3_6_f": 37.5, "marg_hh_3_6_p": 0, "marg_hh_3_6_m": 0, "marg_hh_3_6_f": 0, "per_marg_hh_3_6_p": 0.0, "per_marg_hh_3_6_m": 0.0, "per_marg_hh_3_6_f": 0.0, "marg_ot_3_6_p": 220, "marg_ot_3_6_m": 82, "marg_ot_3_6_f": 138, "per_marg_ot_3_6_p": 92.05020921, "per_marg_ot_3_6_m": 37.27272727, "per_marg_ot_3_6_f": 62.72727273, "margwork_0_3_p": 1, "margwork_0_3_m": 1, "margwork_0_3_f": 0, "per_margwork_0_3_p": 0.41841004, "per_margwork_0_3_m": 100.0, "per_margwork_0_3_f": 0.0, "marg_cl_0_3_p": 0, "marg_cl_0_3_m": 0, "marg_cl_0_3_f": 0, "per_marg_cl_0_3_p": 0.0, "per_marg_cl_0_3_m": 0.0, "per_marg_cl_0_3_f": 0.0, "marg_al_0_3_p": 1, "marg_al_0_3_m": 1, "marg_al_0_3_f": 0, "per_marg_al_0_3_p": 0.41841004, "per_marg_al_0_3_m": 100.0, "per_marg_al_0_3_f": 0.0, "marg_hh_0_3_p": 0, "marg_hh_0_3_m": 0, "marg_hh_0_3_f": 0, "per_marg_hh_0_3_p": 0.0, "per_marg_hh_0_3_m": 0.0, "per_marg_hh_0_3_f": 0.0, "marg_ot_0_3_p": 0, "marg_ot_0_3_m": 0, "marg_ot_0_3_f": 0, "per_marg_ot_0_3_p": 0.0, "per_marg_ot_0_3_m": 0.0, "per_marg_ot_0_3_f": 0.0, "non_work_p": 1899, "non_work_m": 731, "non_work_f": 1168, "per_non_work_p": 62.98507463, "per_non_work_m": 38.49394418, "per_non_work_f": 61.50605582, "per_hc_tot_tot": 100, "per_hc_tot_god": 77.9, "per_hc_tot_liv": 19.5, "per_hc_tot_dil": 2.5, "per_hc_res_tot": 98.8, "per_hc_res_god": 77.2, "per_hc_res_liv": 19.1, "per_hc_res_dil": 2.5, "per_hc_oth_tot": 1.2, "per_hc_oth_god": 0.8, "per_hc_oth_liv": 0.4, "per_hc_oth_dil": 0.0, "per_mt_grsbam": 12.0, "per_mt_plastic": 0.0, "per_mt_h_tiles": 1.5, "per_mt_m_tiles": 1.2, "per_mt_b_brick": 10.8, "per_mt_stone": 3.3, "per_mt_asbstos": 1.4, "per_mt_concrte": 69.8, "per_mt_oth": 0.0, "per_mw_grsbam": 0.4, "per_mw_plastic": 0.2, "per_mw_mud": 6.8, "per_mw_wood": 0.0, "per_mw_no_mrtr": 0.0, "per_mw_st_mrtr": 0.6, "per_mw_asbstos": 0.0, "per_mw_b_brick": 83.6, "per_mw_concrte": 1.4, "per_mw_oth": 7.2, "per_mf_mud": 94.4, "per_mf_wood": 0.0, "per_mf_b_brick": 0.2, "per_mf_stone": 0.0, "per_mf_cement": 5.0, "per_mf_fl_tile": 0.4, "per_mf_oth": 0.0, "per_dw_n_exrm": 3.1, "per_dw_1_room": 41.0, "per_dw_2_room": 31.7, "per_dw_3_room": 11.8, "per_dw_4_room": 7.5, "per_dw_5_room": 2.1, "per_dw_6_room": 2.7, "per_hhsize_1": 2.5, "per_hhsize_2": 6.4, "per_hhsize_3": 6.8, "per_hhsize_4": 15.7, "per_hhsize_5": 15.5, "per_hhsize_6_8": 42.4, "per_hhsize_9p": 10.8, "per_ow_owned": 99.4, "per_ow_rented": 0.0, "per_ow_oth": 0.6, "per_mc_none": 10.8, "per_mcouple_1": 63.4, "per_mcouple_2": 20.3, "per_mcouple_3": 4.1, "per_mcouple_4": 1.0, "per_mcouple_5p": 0.4, "per_dw_t_ts": 4.3, "per_dw_t_unts": 14.5, "per_dw_c_well": 1.2, "per_dw_unc_wel": 14.7, "per_dw_hpump": 64.8, "per_dw_tw_bore": 0.2, "per_dw_spring": 0.0, "per_dw_rivcan": 0.2, "per_dw_tank": 0.2, "per_dw_oth": 0.0, "per_loc_dw_wp": 33.3, "per_loc_dw_np": 59.6, "per_loc_dw_aw": 7.2, "per_light_elec": 59.6, "per_light_kero": 40.2, "per_light_solr": 0.2, "per_light_oil": 0.0, "per_light_oth": 0.0, "per_light_no": 0.0, "per_hh_latrine": 6.2, "per_fl_sewer": 0.2, "per_fl_septict": 3.9, "per_fl_othsys": 0.6, "per_pl_wslab": 1.2, "per_pl_without": 0.2, "per_ns_open": 0.2, "per_sl_ns_hum": 0.0, "per_sl_ns_anml": 0.0, "per_hh_no_lat": 93.8, "per_as_pub": 0.0, "per_as_open": 93.8, "per_hh_bathrm": 10.8, "per_hh_en_wrf": 17.2, "per_hh_no_btrm": 72.0, "per_wwoc_drain": 0.6, "per_wwoc_open": 30.4, "per_wwoc_nodrn": 69.1, "per_cook_fire": 93.4, "per_cook_resdu": 1.9, "per_cook_cwdng": 0.4, "per_cook_coal": 0.0, "per_cook_kero": 0.0, "per_cook_lpng": 4.3, "per_cook_elec": 0.0, "per_cook_biogs": 0.0, "per_cook_oth": 0.0, "per_cook_no": 0.0, "per_kf_inside": 95.0, "per_kf_in_has": 11.2, "per_kf_in_does": 83.8, "per_kf_outside": 5.0, "per_kf_out_has": 3.3, "per_kf_out_dos": 1.7, "per_kf_no_cook": 0.0, "per_hh_banking": 53.8, "per_hh_radio": 15.9, "per_hh_tv": 13.0, "per_hh_cmp_int": 0.8, "per_hh_cmp_wnt": 1.5, "per_hh_ph_ll": 2.1, "per_hh_ph_mob": 72.5, "per_hh_ph_bth": 0.6, "per_hh_bcycl": 80.9, "per_hh_2wheel": 15.9, "per_hh_4wheel": 1.9, "per_hh_tvcomp": 0.6, "per_hh_no_ast": 7.4, "per_hs_perma": 80.9, "per_hs_sperma": 5.8, "per_hs_temp": 6.2, "per_hs_servc": 5.8, "per_hs_nservc": 0.4, "per_hs_unclss": 7.2, "avghhsz_cy": 5.80924855, "st_areashape": 8087391.65782983, "st_lengthshape": 11973.91118365693}, "geometry": {"type": "Polygon", "coordinates": [[[79.26559127984417, 26.7595846064266], [79.26666948725553, 26.75991358533557], [79.26860917273612, 26.760781281758938], [79.26958150650471, 26.7611082663953], [79.27131605540197, 26.761687017293724], [79.27315925463455, 26.762148996913552], [79.27415862679487, 26.762452702605064], [79.27452814070216, 26.762507097843915], [79.27503668147605, 26.762849165552968], [79.27566105820922, 26.76333592319501], [79.27607418532357, 26.763794989374613], [79.2765833504266, 26.764683473961217], [79.27697003293561, 26.765142044630846], [79.27733242589764, 26.765505139421983], [79.27764297798295, 26.76581975705852], [79.2779816464383, 26.7660636150244], [79.27837272350567, 26.766332218468143], [79.27863416199943, 26.766479616394292], [79.2781571709566, 26.767064660934015], [79.2780987481238, 26.76730112930558], [79.2779223486464, 26.76805805449334], [79.2777415761702, 26.76900495620057], [79.2776827320275, 26.770405478944426], [79.27764927786802, 26.77185399589214], [79.27776630768828, 26.772521353523597], [79.27788833124322, 26.77354513244696], [79.27803088669228, 26.775400770475077], [79.27820812609447, 26.776900705649446], [79.27848087168273, 26.778853774302203], [79.27873572462714, 26.77991837872957], [79.27817870626892, 26.780525662191295], [79.27750363760427, 26.781083252347443], [79.27717441673076, 26.781575995412418], [79.27679166704606, 26.782091496484952], [79.27606034767496, 26.78279056220271], [79.27511718939016, 26.783485679673483], [79.2735524472344, 26.78471558863297], [79.27217903365776, 26.785687745178958], [79.27158610065449, 26.786128049063866], [79.27127226522683, 26.78652604522505], [79.2709700333377, 26.786995521147333], [79.27085148087302, 26.787539685193664], [79.2704852862407, 26.788483091716248], [79.27017753240752, 26.78919002319663], [79.26937943048154, 26.79048168891674], [79.2686877771201, 26.791751580071995], [79.2683562826106, 26.79233928893562], [79.26779531795333, 26.793112750999573], [79.26713673247582, 26.794098193884192], [79.26678093584293, 26.79459041135417], [79.26631703684707, 26.79517562777313], [79.26604399571309, 26.79552686169963], [79.2655085620745, 26.79590025533742], [79.26513949193497, 26.795251978221042], [79.26505837765806, 26.794751589454826], [79.26489341283595, 26.79386956183887], [79.26485366418123, 26.79329869618145], [79.26475601012335, 26.79294053919919], [79.26458222115014, 26.792438417004977], [79.26438142522626, 26.79195955995021], [79.26412599556345, 26.791550944260983], [79.26350263482486, 26.79101668030127], [79.26151345576537, 26.789981756239392], [79.25903006495905, 26.788557484407683], [79.25825614927378, 26.788234172950983], [79.25701446375209, 26.78752200865603], [79.25618210547105, 26.786865010945988], [79.25503698165589, 26.7859883550507], [79.25449422045955, 26.7854080519666], [79.25324875482714, 26.78429193705312], [79.25247488944754, 26.78339846383249], [79.25195698104183, 26.78288986621936], [79.2516751319265, 26.78248072948763], [79.25150140314044, 26.781978600307873], [79.25230399933778, 26.78163731277447], [79.25297474980088, 26.78126979464812], [79.2536785995889, 26.78061783234542], [79.25410940285309, 26.780317076728547], [79.25450984755223, 26.780182051011206], [79.25478014163808, 26.77994955031816], [79.25511166399535, 26.779361854282936], [79.25539961087485, 26.778369502727532], [79.25584586426359, 26.777403855758322], [79.25599204171986, 26.7768126979998], [79.25600529366695, 26.77624279073831], [79.25582936490676, 26.775265498311246], [79.25584151282433, 26.77474307865134], [79.25596729043887, 26.77389021294175], [79.25625413239057, 26.77294534096175], [79.25658762924482, 26.771520840931974], [79.25714802886179, 26.770200969273965], [79.2578975858298, 26.768718361199994], [79.25863776618287, 26.767639416142504], [79.2589797233705, 26.766600524514782], [79.25945458899936, 26.7655403613949], [79.25980039456967, 26.764905413756548], [79.26020850998304, 26.764437906217598], [79.26064751756068, 26.763780943361756], [79.26098062993604, 26.763121983527988], [79.261152688754, 26.76255504747763], [79.26127125828665, 26.76201085191503], [79.26133799143417, 26.76141818870704], [79.26129220340582, 26.761108490982817], [79.26106442748069, 26.760652854161023], [79.26145048925382, 26.76056505209261], [79.26198267817757, 26.76045621080103], [79.26288550569939, 26.7603543124137], [79.26386992360517, 26.76015889575757], [79.26435249228761, 26.759906599788454], [79.26486151186354, 26.75965478051366], [79.2650242084396, 26.75949152885982], [79.26559127984417, 26.7595846064266]]]}}]}