{"type": "FeatureCollection", "features": [{"type": "Feature", "properties": {"premiumdata.sde.IN_Village_PCA.area": 4.68905933, "objectid": 131426, "id": "21358316943443", "name": "Chhili Pamal", "subdistrict": "Kokasara", "district": "Kalahandi", "state": "Odisha", "country": "India", "censusname": "Chhili Pamal", "villagename_locallang": null, "lgd_villagename": "Chhili Pamal", "lgd_villagecode": 424019, "lgd_subdistrictcode": 3169, "lgd_districtcode": 358, "lgd_statecode": 21, "censuscode2001": "04250300", "censuscode2011": "424019", "censuscode2021": null, "level": "Village", "tru": "Rural", "no_hh": 422, "tot_p": 1548, "tot_m": 770, "tot_f": 778, "per_tot_m": 49.74160207, "per_tot_f": 50.25839793, "p_06": 219, "m_06": 108, "f_06": 111, "per_p_06": 14.14728682, "per_m_06": 49.31506849, "per_f_06": 50.68493151, "p_sc": 191, "m_sc": 81, "f_sc": 110, "per_p_sc": 12.33850129, "per_m_sc": 42.40837696, "per_f_sc": 57.59162304, "p_st": 185, "m_st": 87, "f_st": 98, "per_p_st": 11.95090439, "per_m_st": 47.02702703, "per_f_st": 52.97297297, "p_lit": 796, "m_lit": 498, "f_lit": 298, "per_p_lit": 51.42118863, "per_m_lit": 62.56281407, "per_f_lit": 37.43718593, "p_ill": 752, "m_ill": 272, "f_ill": 480, "per_p_ill": 48.57881137, "per_m_ill": 36.17021277, "per_f_ill": 63.82978723, "tot_work_p": 740, "tot_work_m": 414, "tot_work_f": 326, "per_tot_work_p": 47.80361757, "per_tot_work_m": 55.94594595, "per_tot_work_f": 44.05405405, "mainwork_p": 377, "mainwork_m": 340, "mainwork_f": 37, "per_mainwork_p": 24.35400517, "per_mainwork_m": 90.18567639, "per_mainwork_f": 9.81432361, "main_cl_p": 136, "main_cl_m": 133, "main_cl_f": 3, "per_main_cl_p": 36.07427056, "per_main_cl_m": 97.79411765, "per_main_cl_f": 2.20588235, "main_al_p": 172, "main_al_m": 145, "main_al_f": 27, "per_main_al_p": 45.62334218, "per_main_al_m": 84.30232558, "per_main_al_f": 15.69767442, "main_hh_p": 0, "main_hh_m": 0, "main_hh_f": 0, "per_main_hh_p": 0.0, "per_main_hh_m": 0.0, "per_main_hh_f": 0.0, "main_ot_p": 69, "main_ot_m": 62, "main_ot_f": 7, "per_main_ot_p": 18.30238727, "per_main_ot_m": 89.85507246, "per_main_ot_f": 10.14492754, "margwork_p": 363, "margwork_m": 74, "margwork_f": 289, "per_margwork_p": 23.4496124, "per_margwork_m": 20.38567493, "per_margwork_f": 79.61432507, "marg_cl_p": 33, "marg_cl_m": 11, "marg_cl_f": 22, "per_marg_cl_p": 9.09090909, "per_marg_cl_m": 33.33333333, "per_marg_cl_f": 66.66666667, "marg_al_p": 302, "marg_al_m": 46, "marg_al_f": 256, "per_marg_al_p": 83.19559229, "per_marg_al_m": 15.23178808, "per_marg_al_f": 84.76821192, "marg_hh_p": 1, "marg_hh_m": 1, "marg_hh_f": 0, "per_marg_hh_p": 0.27548209, "per_marg_hh_m": 100.0, "per_marg_hh_f": 0.0, "marg_ot_p": 27, "marg_ot_m": 16, "marg_ot_f": 11, "per_marg_ot_p": 7.43801653, "per_marg_ot_m": 59.25925926, "per_marg_ot_f": 40.74074074, "margwork_3_6_p": 353, "margwork_3_6_m": 73, "margwork_3_6_f": 280, "per_margwork_3_6_p": 97.24517906, "per_margwork_3_6_m": 20.67988669, "per_margwork_3_6_f": 79.32011331, "marg_cl_3_6_p": 33, "marg_cl_3_6_m": 11, "marg_cl_3_6_f": 22, "per_marg_cl_3_6_p": 9.09090909, "per_marg_cl_3_6_m": 33.33333333, "per_marg_cl_3_6_f": 66.66666667, "marg_al_3_6_p": 293, "marg_al_3_6_m": 46, "marg_al_3_6_f": 247, "per_marg_al_3_6_p": 80.71625344, "per_marg_al_3_6_m": 15.6996587, "per_marg_al_3_6_f": 84.3003413, "marg_hh_3_6_p": 1, "marg_hh_3_6_m": 1, "marg_hh_3_6_f": 0, "per_marg_hh_3_6_p": 0.27548209, "per_marg_hh_3_6_m": 100.0, "per_marg_hh_3_6_f": 0.0, "marg_ot_3_6_p": 26, "marg_ot_3_6_m": 15, "marg_ot_3_6_f": 11, "per_marg_ot_3_6_p": 7.16253444, "per_marg_ot_3_6_m": 57.69230769, "per_marg_ot_3_6_f": 42.30769231, "margwork_0_3_p": 10, "margwork_0_3_m": 1, "margwork_0_3_f": 9, "per_margwork_0_3_p": 2.75482094, "per_margwork_0_3_m": 10.0, "per_margwork_0_3_f": 90.0, "marg_cl_0_3_p": 0, "marg_cl_0_3_m": 0, "marg_cl_0_3_f": 0, "per_marg_cl_0_3_p": 0.0, "per_marg_cl_0_3_m": 0.0, "per_marg_cl_0_3_f": 0.0, "marg_al_0_3_p": 9, "marg_al_0_3_m": 0, "marg_al_0_3_f": 9, "per_marg_al_0_3_p": 2.47933884, "per_marg_al_0_3_m": 0.0, "per_marg_al_0_3_f": 100.0, "marg_hh_0_3_p": 0, "marg_hh_0_3_m": 0, "marg_hh_0_3_f": 0, "per_marg_hh_0_3_p": 0.0, "per_marg_hh_0_3_m": 0.0, "per_marg_hh_0_3_f": 0.0, "marg_ot_0_3_p": 1, "marg_ot_0_3_m": 1, "marg_ot_0_3_f": 0, "per_marg_ot_0_3_p": 0.27548209, "per_marg_ot_0_3_m": 100.0, "per_marg_ot_0_3_f": 0.0, "non_work_p": 808, "non_work_m": 356, "non_work_f": 452, "per_non_work_p": 52.19638243, "per_non_work_m": 44.05940594, "per_non_work_f": 55.94059406, "per_hc_tot_tot": 100, "per_hc_tot_god": 9.5, "per_hc_tot_liv": 71.6, "per_hc_tot_dil": 18.9, "per_hc_res_tot": 100.0, "per_hc_res_god": 9.5, "per_hc_res_liv": 71.6, "per_hc_res_dil": 18.9, "per_hc_oth_tot": 0.0, "per_hc_oth_god": 0.0, "per_hc_oth_liv": 0.0, "per_hc_oth_dil": 0.0, "per_mt_grsbam": 0.2, "per_mt_plastic": 0.5, "per_mt_h_tiles": 96.5, "per_mt_m_tiles": 0.0, "per_mt_b_brick": 0.0, "per_mt_stone": 0.0, "per_mt_asbstos": 0.0, "per_mt_concrte": 2.8, "per_mt_oth": 0.0, "per_mw_grsbam": 0.0, "per_mw_plastic": 0.0, "per_mw_mud": 56.5, "per_mw_wood": 0.5, "per_mw_no_mrtr": 0.0, "per_mw_st_mrtr": 0.2, "per_mw_asbstos": 0.0, "per_mw_b_brick": 42.8, "per_mw_concrte": 0.0, "per_mw_oth": 0.0, "per_mf_mud": 85.6, "per_mf_wood": 0.2, "per_mf_b_brick": 0.2, "per_mf_stone": 0.2, "per_mf_cement": 13.7, "per_mf_fl_tile": 0.0, "per_mf_oth": 0.0, "per_dw_n_exrm": 0.2, "per_dw_1_room": 54.1, "per_dw_2_room": 37.8, "per_dw_3_room": 5.0, "per_dw_4_room": 2.1, "per_dw_5_room": 0.0, "per_dw_6_room": 0.7, "per_hhsize_1": 8.5, "per_hhsize_2": 17.7, "per_hhsize_3": 22.2, "per_hhsize_4": 22.9, "per_hhsize_5": 16.3, "per_hhsize_6_8": 12.3, "per_hhsize_9p": 0.0, "per_ow_owned": 71.6, "per_ow_rented": 0.2, "per_ow_oth": 28.1, "per_mc_none": 12.8, "per_mcouple_1": 85.3, "per_mcouple_2": 1.9, "per_mcouple_3": 0.0, "per_mcouple_4": 0.0, "per_mcouple_5p": 0.0, "per_dw_t_ts": 0.0, "per_dw_t_unts": 0.0, "per_dw_c_well": 1.4, "per_dw_unc_wel": 7.6, "per_dw_hpump": 90.5, "per_dw_tw_bore": 0.5, "per_dw_spring": 0.0, "per_dw_rivcan": 0.0, "per_dw_tank": 0.0, "per_dw_oth": 0.0, "per_loc_dw_wp": 6.4, "per_loc_dw_np": 63.8, "per_loc_dw_aw": 29.8, "per_light_elec": 9.7, "per_light_kero": 89.8, "per_light_solr": 0.2, "per_light_oil": 0.2, "per_light_oth": 0.0, "per_light_no": 0.0, "per_hh_latrine": 6.6, "per_fl_sewer": 0.0, "per_fl_septict": 2.8, "per_fl_othsys": 3.1, "per_pl_wslab": 0.7, "per_pl_without": 0.0, "per_ns_open": 0.0, "per_sl_ns_hum": 0.0, "per_sl_ns_anml": 0.0, "per_hh_no_lat": 93.4, "per_as_pub": 0.0, "per_as_open": 93.4, "per_hh_bathrm": 4.7, "per_hh_en_wrf": 2.8, "per_hh_no_btrm": 92.4, "per_wwoc_drain": 0.2, "per_wwoc_open": 3.8, "per_wwoc_nodrn": 96.0, "per_cook_fire": 70.7, "per_cook_resdu": 0.0, "per_cook_cwdng": 28.1, "per_cook_coal": 0.0, "per_cook_kero": 0.0, "per_cook_lpng": 0.9, "per_cook_elec": 0.0, "per_cook_biogs": 0.2, "per_cook_oth": 0.0, "per_cook_no": 0.0, "per_kf_inside": 95.7, "per_kf_in_has": 7.8, "per_kf_in_does": 87.9, "per_kf_outside": 4.3, "per_kf_out_has": 2.4, "per_kf_out_dos": 1.9, "per_kf_no_cook": 0.0, "per_hh_banking": 13.7, "per_hh_radio": 2.4, "per_hh_tv": 6.6, "per_hh_cmp_int": 0.0, "per_hh_cmp_wnt": 2.1, "per_hh_ph_ll": 0.0, "per_hh_ph_mob": 16.8, "per_hh_ph_bth": 0.0, "per_hh_bcycl": 48.9, "per_hh_2wheel": 6.6, "per_hh_4wheel": 0.2, "per_hh_tvcomp": 0.0, "per_hh_no_ast": 40.7, "per_hs_perma": 43.0, "per_hs_sperma": 56.3, "per_hs_temp": 0.7, "per_hs_servc": 0.7, "per_hs_nservc": 0.0, "per_hs_unclss": 0.0, "avghhsz_cy": 3.66824645, "st_areashape": 5318665.727313975, "st_lengthshape": 10909.224992320333}, "geometry": {"type": "Polygon", "coordinates": [[[82.73081481213964, 19.729745945957777], [82.72991457266417, 19.73028386587677], [82.72989931477908, 19.72976127124993], [82.7298993381353, 19.729473185275857], [82.72995278340312, 19.729068884346244], [82.72999853729547, 19.728317365893282], [82.73010528140574, 19.727625013320484], [82.72997561588271, 19.7269936936245], [82.72977725169827, 19.726419599802636], [82.72928122355796, 19.725677653783027], [82.72860236310449, 19.724996675846576], [82.72792327986883, 19.72454653589413], [82.7268780037975, 19.723409772293344], [82.72630584613177, 19.722208186388162], [82.72616857996309, 19.721403239583598], [82.72622197672189, 19.720825360100402], [82.72639739973059, 19.72036378563365], [82.72644323536964, 19.719900265725705], [82.72637455018301, 19.719440592111035], [82.72619145915506, 19.719213664217943], [82.72588629067329, 19.718929426328287], [82.72581762165633, 19.71864140623649], [82.72580999136629, 19.718353462579053], [82.72580234939818, 19.717951022682517], [82.72543613859621, 19.71755230091773], [82.72458165121647, 19.717163254047552], [82.72414679205879, 19.716823771383886], [82.72401707533174, 19.716306862873346], [82.72376523174354, 19.715791823277957], [82.72320837957366, 19.715051807609033], [82.72288792895223, 19.714365175130084], [82.72226995990198, 19.713682329127664], [82.72153753290813, 19.713291310047243], [82.72069061203806, 19.713247435140193], [82.7198972136909, 19.713201656623383], [82.71946995338219, 19.712976613327115], [82.71909614912113, 19.712579854644243], [82.71869180573363, 19.712236584629085], [82.71896641263115, 19.71188945506428], [82.71931739339583, 19.71136679521871], [82.71948517443639, 19.710729768927962], [82.71953093012537, 19.709633035751313], [82.71963781437282, 19.70905510695994], [82.71981320234723, 19.70853446159319], [82.72022527034781, 19.70818160287211], [82.7209423577099, 19.707536924709032], [82.72177399464374, 19.706657571065357], [82.72266660023591, 19.705837471254732], [82.7233837136491, 19.705076446898023], [82.72391776478047, 19.704492814219414], [82.72420767986875, 19.703737493751586], [82.72445179704722, 19.70325298731069], [82.72468070215463, 19.703268277085197], [82.72534445204673, 19.703258786413915], [82.72589374399517, 19.703193866384446], [82.72679416672695, 19.70306232127259], [82.72776292520074, 19.702875393099347], [82.72896839514173, 19.70262549383954], [82.72981527199435, 19.702324180031926], [82.73029589672251, 19.70202857092903], [82.73077652594226, 19.70179011558291], [82.73144031985177, 19.701721511810895], [82.73216505906342, 19.701767291076234], [82.73313397025078, 19.701811157292138], [82.73404184360952, 19.701797786334946], [82.73519390870686, 19.701778727856087], [82.73646038413716, 19.701528838723625], [82.73803199840482, 19.701387728727795], [82.73875682385474, 19.70137631982909], [82.73864234704652, 19.701551731768404], [82.7385355409525, 19.702072421850218], [82.73866521276378, 19.702646558273425], [82.73897805285809, 19.7033331979302], [82.738993287387, 19.70396641328021], [82.73888647680138, 19.704775183374824], [82.73901624742736, 19.70534922806516], [82.73926801286214, 19.705749832355085], [82.73964181981816, 19.70626287121891], [82.74013008741275, 19.706485999141982], [82.74055729382249, 19.70653758363965], [82.74086247488073, 19.706878945299696], [82.74105326267404, 19.70722039080116], [82.74130506044816, 19.707735398804175], [82.74155678276382, 19.708076731691445], [82.74204507281631, 19.708357194247974], [82.7426553630675, 19.708521183378366], [82.7428995242634, 19.708862561947424], [82.7429682372978, 19.709207818961982], [82.7429148522171, 19.709669363900296], [82.74273930793586, 19.70996113977177], [82.74258665901625, 19.710035629356003], [82.74225867063127, 19.710199635370497], [82.74171699909138, 19.710438058730592], [82.74099987310174, 19.710680265311705], [82.74039711702085, 19.710977793341318], [82.7399241342608, 19.711504220255982], [82.73951209859958, 19.71243302158884], [82.73946636357181, 19.71318269083535], [82.73959604077298, 19.713699585767582], [82.74003084603174, 19.71409636535072], [82.74064127103024, 19.71431770307294], [82.74149583656337, 19.71447775207714], [82.74192299536244, 19.714643741682448], [82.74198408888658, 19.714929871318763], [82.7418085598767, 19.71533605239287], [82.74121353559545, 19.71557637673807], [82.74066424005372, 19.71564328410398], [82.73975632806744, 19.715772845957986], [82.7389170806065, 19.71590067919164], [82.73837538840532, 19.71619624997192], [82.73790241732341, 19.71672460300774], [82.73772696467032, 19.717418860685285], [82.7377421740464, 19.717937681826452], [82.73799398709191, 19.71850985860875], [82.73854326915888, 19.718904721878637], [82.73897053485749, 19.718782544983235], [82.7393289608592, 19.718719708988797], [82.7395731912254, 19.71877117537905], [82.73976393769618, 19.71911465038449], [82.73977163625817, 19.71969251406594], [82.73966477896018, 19.720211284700724], [82.73942830105489, 19.720735842819384], [82.73930624066904, 19.721336589161403], [82.73919937079462, 19.721372923953094], [82.7388407507568, 19.721781004836544], [82.73861199027812, 19.722303581590992], [82.73831442423857, 19.72282613887883], [82.73814658480751, 19.72357962637579], [82.7379176644287, 19.72433111299251], [82.73758204575373, 19.725605138357125], [82.73754390957498, 19.726702035935592], [82.73743708731128, 19.727625047989754], [82.73720823340783, 19.728262127872807], [82.7370327609918, 19.728611150664907], [82.73666653671506, 19.728616876128], [82.73618588863071, 19.72868360638115], [82.73552212795886, 19.728807549744765], [82.7351635474469, 19.729044058854324], [82.73456081112894, 19.729456067323113], [82.73408016663785, 19.729580041373964], [82.7334088951519, 19.72947511489282], [82.73268400502326, 19.729429339332462], [82.73189818576218, 19.729497983642514], [82.73081481213964, 19.729745945957777]]]}}]}