{"type": "FeatureCollection", "features": [{"type": "Feature", "properties": {"premiumdata.sde.IN_Village_PCA.area": 0.40999734, "objectid": 511298, "id": "193052376139913", "name": "Kajalkura", "subdistrict": "Raipur", "district": "Bankura", "state": "West Bengal", "country": "India", "censusname": "Kajalkura", "villagename_locallang": null, "lgd_villagename": "Kajalkura", "lgd_villagecode": 329479, "lgd_subdistrictcode": 2376, "lgd_districtcode": 305, "lgd_statecode": 19, "censuscode2001": "02318700", "censuscode2011": "329479", "censuscode2021": null, "level": "Village", "tru": "Rural", "no_hh": 5, "tot_p": 19, "tot_m": 13, "tot_f": 6, "per_tot_m": 68.42105263, "per_tot_f": 31.57894737, "p_06": 0, "m_06": 0, "f_06": 0, "per_p_06": 0.0, "per_m_06": 0.0, "per_f_06": 0.0, "p_sc": 18, "m_sc": 12, "f_sc": 6, "per_p_sc": 94.73684211, "per_m_sc": 66.66666667, "per_f_sc": 33.33333333, "p_st": 0, "m_st": 0, "f_st": 0, "per_p_st": 0.0, "per_m_st": 0.0, "per_f_st": 0.0, "p_lit": 17, "m_lit": 12, "f_lit": 5, "per_p_lit": 89.47368421, "per_m_lit": 70.58823529, "per_f_lit": 29.41176471, "p_ill": 2, "m_ill": 1, "f_ill": 1, "per_p_ill": 10.52631579, "per_m_ill": 50.0, "per_f_ill": 50.0, "tot_work_p": 8, "tot_work_m": 7, "tot_work_f": 1, "per_tot_work_p": 42.10526316000001, "per_tot_work_m": 87.5, "per_tot_work_f": 12.5, "mainwork_p": 8, "mainwork_m": 7, "mainwork_f": 1, "per_mainwork_p": 42.10526316000001, "per_mainwork_m": 87.5, "per_mainwork_f": 12.5, "main_cl_p": 0, "main_cl_m": 0, "main_cl_f": 0, "per_main_cl_p": 0.0, "per_main_cl_m": 0.0, "per_main_cl_f": 0.0, "main_al_p": 3, "main_al_m": 3, "main_al_f": 0, "per_main_al_p": 37.5, "per_main_al_m": 100.0, "per_main_al_f": 0.0, "main_hh_p": 3, "main_hh_m": 3, "main_hh_f": 0, "per_main_hh_p": 37.5, "per_main_hh_m": 100.0, "per_main_hh_f": 0.0, "main_ot_p": 2, "main_ot_m": 1, "main_ot_f": 1, "per_main_ot_p": 25.0, "per_main_ot_m": 50.0, "per_main_ot_f": 50.0, "margwork_p": 0, "margwork_m": 0, "margwork_f": 0, "per_margwork_p": 0.0, "per_margwork_m": 0.0, "per_margwork_f": 0.0, "marg_cl_p": 0, "marg_cl_m": 0, "marg_cl_f": 0, "per_marg_cl_p": 0.0, "per_marg_cl_m": 0.0, "per_marg_cl_f": 0.0, "marg_al_p": 0, "marg_al_m": 0, "marg_al_f": 0, "per_marg_al_p": 0.0, "per_marg_al_m": 0.0, "per_marg_al_f": 0.0, "marg_hh_p": 0, "marg_hh_m": 0, "marg_hh_f": 0, "per_marg_hh_p": 0.0, "per_marg_hh_m": 0.0, "per_marg_hh_f": 0.0, "marg_ot_p": 0, "marg_ot_m": 0, "marg_ot_f": 0, "per_marg_ot_p": 0.0, "per_marg_ot_m": 0.0, "per_marg_ot_f": 0.0, "margwork_3_6_p": 0, "margwork_3_6_m": 0, "margwork_3_6_f": 0, "per_margwork_3_6_p": 0.0, "per_margwork_3_6_m": 0.0, "per_margwork_3_6_f": 0.0, "marg_cl_3_6_p": 0, "marg_cl_3_6_m": 0, "marg_cl_3_6_f": 0, "per_marg_cl_3_6_p": 0.0, "per_marg_cl_3_6_m": 0.0, "per_marg_cl_3_6_f": 0.0, "marg_al_3_6_p": 0, "marg_al_3_6_m": 0, "marg_al_3_6_f": 0, "per_marg_al_3_6_p": 0.0, "per_marg_al_3_6_m": 0.0, "per_marg_al_3_6_f": 0.0, "marg_hh_3_6_p": 0, "marg_hh_3_6_m": 0, "marg_hh_3_6_f": 0, "per_marg_hh_3_6_p": 0.0, "per_marg_hh_3_6_m": 0.0, "per_marg_hh_3_6_f": 0.0, "marg_ot_3_6_p": 0, "marg_ot_3_6_m": 0, "marg_ot_3_6_f": 0, "per_marg_ot_3_6_p": 0.0, "per_marg_ot_3_6_m": 0.0, "per_marg_ot_3_6_f": 0.0, "margwork_0_3_p": 0, "margwork_0_3_m": 0, "margwork_0_3_f": 0, "per_margwork_0_3_p": 0.0, "per_margwork_0_3_m": 0.0, "per_margwork_0_3_f": 0.0, "marg_cl_0_3_p": 0, "marg_cl_0_3_m": 0, "marg_cl_0_3_f": 0, "per_marg_cl_0_3_p": 0.0, "per_marg_cl_0_3_m": 0.0, "per_marg_cl_0_3_f": 0.0, "marg_al_0_3_p": 0, "marg_al_0_3_m": 0, "marg_al_0_3_f": 0, "per_marg_al_0_3_p": 0.0, "per_marg_al_0_3_m": 0.0, "per_marg_al_0_3_f": 0.0, "marg_hh_0_3_p": 0, "marg_hh_0_3_m": 0, "marg_hh_0_3_f": 0, "per_marg_hh_0_3_p": 0.0, "per_marg_hh_0_3_m": 0.0, "per_marg_hh_0_3_f": 0.0, "marg_ot_0_3_p": 0, "marg_ot_0_3_m": 0, "marg_ot_0_3_f": 0, "per_marg_ot_0_3_p": 0.0, "per_marg_ot_0_3_m": 0.0, "per_marg_ot_0_3_f": 0.0, "non_work_p": 11, "non_work_m": 6, "non_work_f": 5, "per_non_work_p": 57.89473684, "per_non_work_m": 54.54545455, "per_non_work_f": 45.45454545, "per_hc_tot_tot": 100, "per_hc_tot_god": 40.0, "per_hc_tot_liv": 60.0, "per_hc_tot_dil": 0.0, "per_hc_res_tot": 100.0, "per_hc_res_god": 40.0, "per_hc_res_liv": 60.0, "per_hc_res_dil": 0.0, "per_hc_oth_tot": 0.0, "per_hc_oth_god": 0.0, "per_hc_oth_liv": 0.0, "per_hc_oth_dil": 0.0, "per_mt_grsbam": 60.0, "per_mt_plastic": 0.0, "per_mt_h_tiles": 0.0, "per_mt_m_tiles": 0.0, "per_mt_b_brick": 0.0, "per_mt_stone": 0.0, "per_mt_asbstos": 20.0, "per_mt_concrte": 20.0, "per_mt_oth": 0.0, "per_mw_grsbam": 60.0, "per_mw_plastic": 0.0, "per_mw_mud": 0.0, "per_mw_wood": 0.0, "per_mw_no_mrtr": 0.0, "per_mw_st_mrtr": 0.0, "per_mw_asbstos": 0.0, "per_mw_b_brick": 40.0, "per_mw_concrte": 0.0, "per_mw_oth": 0.0, "per_mf_mud": 80.0, "per_mf_wood": 0.0, "per_mf_b_brick": 0.0, "per_mf_stone": 0.0, "per_mf_cement": 20.0, "per_mf_fl_tile": 0.0, "per_mf_oth": 0.0, "per_dw_n_exrm": 0.0, "per_dw_1_room": 100.0, "per_dw_2_room": 0.0, "per_dw_3_room": 0.0, "per_dw_4_room": 0.0, "per_dw_5_room": 0.0, "per_dw_6_room": 0.0, "per_hhsize_1": 0.0, "per_hhsize_2": 20.0, "per_hhsize_3": 20.0, "per_hhsize_4": 0.0, "per_hhsize_5": 60.0, "per_hhsize_6_8": 0.0, "per_hhsize_9p": 0.0, "per_ow_owned": 100.0, "per_ow_rented": 0.0, "per_ow_oth": 0.0, "per_mc_none": 20.0, "per_mcouple_1": 80.0, "per_mcouple_2": 0.0, "per_mcouple_3": 0.0, "per_mcouple_4": 0.0, "per_mcouple_5p": 0.0, "per_dw_t_ts": 100.0, "per_dw_t_unts": 0.0, "per_dw_c_well": 0.0, "per_dw_unc_wel": 0.0, "per_dw_hpump": 0.0, "per_dw_tw_bore": 0.0, "per_dw_spring": 0.0, "per_dw_rivcan": 0.0, "per_dw_tank": 0.0, "per_dw_oth": 0.0, "per_loc_dw_wp": 0.0, "per_loc_dw_np": 0.0, "per_loc_dw_aw": 100.0, "per_light_elec": 20.0, "per_light_kero": 80.0, "per_light_solr": 0.0, "per_light_oil": 0.0, "per_light_oth": 0.0, "per_light_no": 0.0, "per_hh_latrine": 0.0, "per_fl_sewer": 0.0, "per_fl_septict": 0.0, "per_fl_othsys": 0.0, "per_pl_wslab": 0.0, "per_pl_without": 0.0, "per_ns_open": 0.0, "per_sl_ns_hum": 0.0, "per_sl_ns_anml": 0.0, "per_hh_no_lat": 100.0, "per_as_pub": 100.0, "per_as_open": 0.0, "per_hh_bathrm": 0.0, "per_hh_en_wrf": 0.0, "per_hh_no_btrm": 100.0, "per_wwoc_drain": 0.0, "per_wwoc_open": 20.0, "per_wwoc_nodrn": 80.0, "per_cook_fire": 100.0, "per_cook_resdu": 0.0, "per_cook_cwdng": 0.0, "per_cook_coal": 0.0, "per_cook_kero": 0.0, "per_cook_lpng": 0.0, "per_cook_elec": 0.0, "per_cook_biogs": 0.0, "per_cook_oth": 0.0, "per_cook_no": 0.0, "per_kf_inside": 100.0, "per_kf_in_has": 100.0, "per_kf_in_does": 0.0, "per_kf_outside": 0.0, "per_kf_out_has": 0.0, "per_kf_out_dos": 0.0, "per_kf_no_cook": 0.0, "per_hh_banking": 100.0, "per_hh_radio": 0.0, "per_hh_tv": 0.0, "per_hh_cmp_int": 0.0, "per_hh_cmp_wnt": 0.0, "per_hh_ph_ll": 0.0, "per_hh_ph_mob": 0.0, "per_hh_ph_bth": 0.0, "per_hh_bcycl": 100.0, "per_hh_2wheel": 0.0, "per_hh_4wheel": 0.0, "per_hh_tvcomp": 0.0, "per_hh_no_ast": 0.0, "per_hs_perma": 40.0, "per_hs_sperma": 0.0, "per_hs_temp": 60.0, "per_hs_servc": 0.0, "per_hs_nservc": 60.0, "per_hs_unclss": 0.0, "avghhsz_cy": 3.8, "st_areashape": 484648.28647776, "st_lengthshape": 3221.5385424226233}, "geometry": {"type": "Polygon", "coordinates": [[[86.94386999913246, 22.79319000022591], [86.94385999998505, 22.79262999961317], [86.94404999995584, 22.79233999953065], [86.94460999892415, 22.791859999466666], [86.9446600000512, 22.79173000022829], [86.9447099993816, 22.79138999959562], [86.9446899992901, 22.790970000225627], [86.9444700000804, 22.790499999771484], [86.94425999911981, 22.789979999372648], [86.94414999951492, 22.78933999998207], [86.9440199998186, 22.788929999674043], [86.94410999933197, 22.788909999688073], [86.94418000055049, 22.78882000012909], [86.94444999998889, 22.78851999978976], [86.94470000023415, 22.787449999416662], [86.94488000015923, 22.786919999257737], [86.94516999968914, 22.786649999775673], [86.94600999993828, 22.786199999727206], [86.94689000037037, 22.78596999966281], [86.94691999960928, 22.78596999966281], [86.94751999965892, 22.785860000215106], [86.94817999908469, 22.786049999657187], [86.94905999951679, 22.78637999975911], [86.94954999996155, 22.786830000041924], [86.94973999903404, 22.787320000115233], [86.94981000025255, 22.787500000325416], [86.94979999930848, 22.787629999455273], [86.94979999930848, 22.787679999469844], [86.94968000055621, 22.78776999978116], [86.94950999977858, 22.78777999944401], [86.9492999997163, 22.787850000376135], [86.94919999925887, 22.78800000012291], [86.94929000056887, 22.788579999910414], [86.94940000017371, 22.78884999971262], [86.9497499999781, 22.789299999299285], [86.95038000016493, 22.790229999923387], [86.9512000003226, 22.79101999984379], [86.95172000000626, 22.79153999958948], [86.95187999983985, 22.791779999567773], [86.95186999979408, 22.792099999709873], [86.95184999970262, 22.79227000007514], [86.9517099990622, 22.792299999727877], [86.95148999985251, 22.7923099998867], [86.95059000022724, 22.792029999302994], [86.94999999932502, 22.791819999523085], [86.94968999970362, 22.791779999567773], [86.94880999927153, 22.791650000253114], [86.94808999957132, 22.79170999982478], [86.94748999952168, 22.79222999942368], [86.94702999921415, 22.79270999901335], [86.94702999921415, 22.79271999997029], [86.94646999934751, 22.793019999351323], [86.94533000042102, 22.793379999393647], [86.94470000023415, 22.793469999255688], [86.94436999962299, 22.793509999543392], [86.94408000009308, 22.793499999472555], [86.94386999913246, 22.793370000141444], [86.94386999913246, 22.793229999767583], [86.94386999913246, 22.79319000022591]]]}}]}