{"type": "FeatureCollection", "features": [{"type": "Feature", "properties": {"premiumdata.sde.IN_Village_PCA.area": 3.20850887, "objectid": 24039, "id": "29548553785994", "name": "Adlapura", "subdistrict": "Tumakuru", "district": "Tumakuru", "state": "Karnataka", "country": "India", "censusname": "Adlapura", "villagename_locallang": null, "lgd_villagename": "Adlapura", "lgd_villagecode": 611452, "lgd_subdistrictcode": 5537, "lgd_districtcode": 548, "lgd_statecode": 29, "censuscode2001": "01569100", "censuscode2011": "611452", "censuscode2021": null, "level": "Village", "tru": "Rural", "no_hh": 117, "tot_p": 496, "tot_m": 256, "tot_f": 240, "per_tot_m": 51.61290323, "per_tot_f": 48.38709677, "p_06": 50, "m_06": 28, "f_06": 22, "per_p_06": 10.08064516, "per_m_06": 56.0, "per_f_06": 44.0, "p_sc": 135, "m_sc": 69, "f_sc": 66, "per_p_sc": 27.21774194, "per_m_sc": 51.11111111, "per_f_sc": 48.88888889, "p_st": 228, "m_st": 117, "f_st": 111, "per_p_st": 45.96774194, "per_m_st": 51.31578947, "per_f_st": 48.68421053, "p_lit": 319, "m_lit": 185, "f_lit": 134, "per_p_lit": 64.31451613, "per_m_lit": 57.99373041, "per_f_lit": 42.00626959, "p_ill": 177, "m_ill": 71, "f_ill": 106, "per_p_ill": 35.68548387, "per_m_ill": 40.11299435, "per_f_ill": 59.88700565, "tot_work_p": 314, "tot_work_m": 171, "tot_work_f": 143, "per_tot_work_p": 63.30645161, "per_tot_work_m": 54.45859873, "per_tot_work_f": 45.54140127, "mainwork_p": 288, "mainwork_m": 162, "mainwork_f": 126, "per_mainwork_p": 58.06451613, "per_mainwork_m": 56.25, "per_mainwork_f": 43.75, "main_cl_p": 199, "main_cl_m": 108, "main_cl_f": 91, "per_main_cl_p": 69.09722222, "per_main_cl_m": 54.27135678, "per_main_cl_f": 45.72864322, "main_al_p": 66, "main_al_m": 38, "main_al_f": 28, "per_main_al_p": 22.91666667, "per_main_al_m": 57.57575758, "per_main_al_f": 42.42424242, "main_hh_p": 0, "main_hh_m": 0, "main_hh_f": 0, "per_main_hh_p": 0.0, "per_main_hh_m": 0.0, "per_main_hh_f": 0.0, "main_ot_p": 23, "main_ot_m": 16, "main_ot_f": 7, "per_main_ot_p": 7.98611111, "per_main_ot_m": 69.56521739, "per_main_ot_f": 30.43478261, "margwork_p": 26, "margwork_m": 9, "margwork_f": 17, "per_margwork_p": 5.24193548, "per_margwork_m": 34.61538462, "per_margwork_f": 65.38461538, "marg_cl_p": 16, "marg_cl_m": 7, "marg_cl_f": 9, "per_marg_cl_p": 61.53846154, "per_marg_cl_m": 43.75, "per_marg_cl_f": 56.25, "marg_al_p": 7, "marg_al_m": 1, "marg_al_f": 6, "per_marg_al_p": 26.92307692, "per_marg_al_m": 14.28571429, "per_marg_al_f": 85.71428571, "marg_hh_p": 0, "marg_hh_m": 0, "marg_hh_f": 0, "per_marg_hh_p": 0.0, "per_marg_hh_m": 0.0, "per_marg_hh_f": 0.0, "marg_ot_p": 3, "marg_ot_m": 1, "marg_ot_f": 2, "per_marg_ot_p": 11.53846154, "per_marg_ot_m": 33.33333333, "per_marg_ot_f": 66.66666667, "margwork_3_6_p": 26, "margwork_3_6_m": 9, "margwork_3_6_f": 17, "per_margwork_3_6_p": 100.0, "per_margwork_3_6_m": 34.61538462, "per_margwork_3_6_f": 65.38461538, "marg_cl_3_6_p": 16, "marg_cl_3_6_m": 7, "marg_cl_3_6_f": 9, "per_marg_cl_3_6_p": 61.53846154, "per_marg_cl_3_6_m": 43.75, "per_marg_cl_3_6_f": 56.25, "marg_al_3_6_p": 7, "marg_al_3_6_m": 1, "marg_al_3_6_f": 6, "per_marg_al_3_6_p": 26.92307692, "per_marg_al_3_6_m": 14.28571429, "per_marg_al_3_6_f": 85.71428571, "marg_hh_3_6_p": 0, "marg_hh_3_6_m": 0, "marg_hh_3_6_f": 0, "per_marg_hh_3_6_p": 0.0, "per_marg_hh_3_6_m": 0.0, "per_marg_hh_3_6_f": 0.0, "marg_ot_3_6_p": 3, "marg_ot_3_6_m": 1, "marg_ot_3_6_f": 2, "per_marg_ot_3_6_p": 11.53846154, "per_marg_ot_3_6_m": 33.33333333, "per_marg_ot_3_6_f": 66.66666667, "margwork_0_3_p": 0, "margwork_0_3_m": 0, "margwork_0_3_f": 0, "per_margwork_0_3_p": 0.0, "per_margwork_0_3_m": 0.0, "per_margwork_0_3_f": 0.0, "marg_cl_0_3_p": 0, "marg_cl_0_3_m": 0, "marg_cl_0_3_f": 0, "per_marg_cl_0_3_p": 0.0, "per_marg_cl_0_3_m": 0.0, "per_marg_cl_0_3_f": 0.0, "marg_al_0_3_p": 0, "marg_al_0_3_m": 0, "marg_al_0_3_f": 0, "per_marg_al_0_3_p": 0.0, "per_marg_al_0_3_m": 0.0, "per_marg_al_0_3_f": 0.0, "marg_hh_0_3_p": 0, "marg_hh_0_3_m": 0, "marg_hh_0_3_f": 0, "per_marg_hh_0_3_p": 0.0, "per_marg_hh_0_3_m": 0.0, "per_marg_hh_0_3_f": 0.0, "marg_ot_0_3_p": 0, "marg_ot_0_3_m": 0, "marg_ot_0_3_f": 0, "per_marg_ot_0_3_p": 0.0, "per_marg_ot_0_3_m": 0.0, "per_marg_ot_0_3_f": 0.0, "non_work_p": 182, "non_work_m": 85, "non_work_f": 97, "per_non_work_p": 36.69354839, "per_non_work_m": 46.7032967, "per_non_work_f": 53.2967033, "per_hc_tot_tot": 100, "per_hc_tot_god": 76.1, "per_hc_tot_liv": 11.1, "per_hc_tot_dil": 12.8, "per_hc_res_tot": 100.0, "per_hc_res_god": 76.1, "per_hc_res_liv": 11.1, "per_hc_res_dil": 12.8, "per_hc_oth_tot": 0.0, "per_hc_oth_god": 0.0, "per_hc_oth_liv": 0.0, "per_hc_oth_dil": 0.0, "per_mt_grsbam": 1.7, "per_mt_plastic": 0.0, "per_mt_h_tiles": 0.9, "per_mt_m_tiles": 68.4, "per_mt_b_brick": 0.0, "per_mt_stone": 2.6, "per_mt_asbstos": 24.8, "per_mt_concrte": 1.7, "per_mt_oth": 0.0, "per_mw_grsbam": 0.0, "per_mw_plastic": 0.0, "per_mw_mud": 65.0, "per_mw_wood": 0.0, "per_mw_no_mrtr": 0.0, "per_mw_st_mrtr": 0.0, "per_mw_asbstos": 0.0, "per_mw_b_brick": 32.5, "per_mw_concrte": 2.6, "per_mw_oth": 0.0, "per_mf_mud": 27.4, "per_mf_wood": 0.0, "per_mf_b_brick": 0.0, "per_mf_stone": 6.0, "per_mf_cement": 63.2, "per_mf_fl_tile": 2.6, "per_mf_oth": 0.9, "per_dw_n_exrm": 0.9, "per_dw_1_room": 38.5, "per_dw_2_room": 34.2, "per_dw_3_room": 17.9, "per_dw_4_room": 6.0, "per_dw_5_room": 0.9, "per_dw_6_room": 1.7, "per_hhsize_1": 6.0, "per_hhsize_2": 8.5, "per_hhsize_3": 17.9, "per_hhsize_4": 34.2, "per_hhsize_5": 12.0, "per_hhsize_6_8": 18.8, "per_hhsize_9p": 2.6, "per_ow_owned": 97.4, "per_ow_rented": 2.6, "per_ow_oth": 0.0, "per_mc_none": 14.5, "per_mcouple_1": 61.5, "per_mcouple_2": 16.2, "per_mcouple_3": 6.0, "per_mcouple_4": 1.7, "per_mcouple_5p": 0.0, "per_dw_t_ts": 0.0, "per_dw_t_unts": 5.1, "per_dw_c_well": 72.6, "per_dw_unc_wel": 0.0, "per_dw_hpump": 11.1, "per_dw_tw_bore": 11.1, "per_dw_spring": 0.0, "per_dw_rivcan": 0.0, "per_dw_tank": 0.0, "per_dw_oth": 0.0, "per_loc_dw_wp": 1.7, "per_loc_dw_np": 56.4, "per_loc_dw_aw": 41.9, "per_light_elec": 89.7, "per_light_kero": 10.3, "per_light_solr": 0.0, "per_light_oil": 0.0, "per_light_oth": 0.0, "per_light_no": 0.0, "per_hh_latrine": 10.3, "per_fl_sewer": 0.0, "per_fl_septict": 0.9, "per_fl_othsys": 0.0, "per_pl_wslab": 9.4, "per_pl_without": 0.0, "per_ns_open": 0.0, "per_sl_ns_hum": 0.0, "per_sl_ns_anml": 0.0, "per_hh_no_lat": 89.7, "per_as_pub": 0.0, "per_as_open": 89.7, "per_hh_bathrm": 71.8, "per_hh_en_wrf": 4.3, "per_hh_no_btrm": 23.9, "per_wwoc_drain": 0.9, "per_wwoc_open": 51.3, "per_wwoc_nodrn": 47.9, "per_cook_fire": 97.4, "per_cook_resdu": 0.9, "per_cook_cwdng": 0.0, "per_cook_coal": 0.0, "per_cook_kero": 0.0, "per_cook_lpng": 0.9, "per_cook_elec": 0.9, "per_cook_biogs": 0.0, "per_cook_oth": 0.0, "per_cook_no": 0.0, "per_kf_inside": 100.0, "per_kf_in_has": 100.0, "per_kf_in_does": 0.0, "per_kf_outside": 0.0, "per_kf_out_has": 0.0, "per_kf_out_dos": 0.0, "per_kf_no_cook": 0.0, "per_hh_banking": 5.1, "per_hh_radio": 25.6, "per_hh_tv": 49.6, "per_hh_cmp_int": 1.7, "per_hh_cmp_wnt": 7.7, "per_hh_ph_ll": 0.0, "per_hh_ph_mob": 32.5, "per_hh_ph_bth": 4.3, "per_hh_bcycl": 35.9, "per_hh_2wheel": 14.5, "per_hh_4wheel": 1.7, "per_hh_tvcomp": 0.9, "per_hh_no_ast": 21.4, "per_hs_perma": 34.2, "per_hs_sperma": 65.0, "per_hs_temp": 0.9, "per_hs_servc": 0.9, "per_hs_nservc": 0.0, "per_hs_unclss": 0.0, "avghhsz_cy": 4.23931624, "st_areashape": 3408034.68543403, "st_lengthshape": 7809.549153080484}, "geometry": {"type": "Polygon", "coordinates": [[[77.03221878120691, 13.303157068331394], [77.02870925113976, 13.303921239498242], [77.02583848342672, 13.303676175461678], [77.02276625773146, 13.301127498111416], [77.0207013192525, 13.29862780659255], [77.01888820280215, 13.295000758354334], [77.01843492368957, 13.294902729861201], [77.01867103687884, 13.291568567766863], [77.01888494820588, 13.288862190643648], [77.02259275172759, 13.28504545528008], [77.03007966344505, 13.283588139658795], [77.03043618322172, 13.280534689284265], [77.03197784226795, 13.283924528509319], [77.03236138875828, 13.284767871818799], [77.03592658472866, 13.29476066497179], [77.03621180072966, 13.295870949422014], [77.03656831960805, 13.299687515297066], [77.03200486898159, 13.299271165560267], [77.03221878120691, 13.303157068331394]]]}}]}