{"type": "FeatureCollection", "features": [{"type": "Feature", "properties": {"premiumdata.sde.IN_Village_PCA.area": 3.09390966, "objectid": 315027, "id": "898518475866", "name": "Barapura", "subdistrict": "Dhaulpur", "district": "Dholpur", "state": "Rajasthan", "country": "India", "censusname": "Barapura", "villagename_locallang": null, "lgd_villagename": "Barapura", "lgd_villagecode": 76052, "lgd_subdistrictcode": 518, "lgd_districtcode": 98, "lgd_statecode": 8, "censuscode2001": "01167700", "censuscode2011": "076052", "censuscode2021": null, "level": "Village", "tru": "Rural", "no_hh": 169, "tot_p": 1177, "tot_m": 704, "tot_f": 473, "per_tot_m": 59.81308411000001, "per_tot_f": 40.18691589, "p_06": 269, "m_06": 162, "f_06": 107, "per_p_06": 22.85471538, "per_m_06": 60.22304833, "per_f_06": 39.77695167, "p_sc": 0, "m_sc": 0, "f_sc": 0, "per_p_sc": 0.0, "per_m_sc": 0.0, "per_f_sc": 0.0, "p_st": 0, "m_st": 0, "f_st": 0, "per_p_st": 0.0, "per_m_st": 0.0, "per_f_st": 0.0, "p_lit": 573, "m_lit": 429, "f_lit": 144, "per_p_lit": 48.68309261, "per_m_lit": 74.86910995000001, "per_f_lit": 25.13089005, "p_ill": 604, "m_ill": 275, "f_ill": 329, "per_p_ill": 51.31690739, "per_m_ill": 45.52980132, "per_f_ill": 54.47019868, "tot_work_p": 335, "tot_work_m": 330, "tot_work_f": 5, "per_tot_work_p": 28.46219201, "per_tot_work_m": 98.50746269, "per_tot_work_f": 1.49253731, "mainwork_p": 292, "mainwork_m": 289, "mainwork_f": 3, "per_mainwork_p": 24.80883602, "per_mainwork_m": 98.97260274, "per_mainwork_f": 1.02739726, "main_cl_p": 281, "main_cl_m": 278, "main_cl_f": 3, "per_main_cl_p": 96.23287671, "per_main_cl_m": 98.93238434, "per_main_cl_f": 1.06761566, "main_al_p": 0, "main_al_m": 0, "main_al_f": 0, "per_main_al_p": 0.0, "per_main_al_m": 0.0, "per_main_al_f": 0.0, "main_hh_p": 6, "main_hh_m": 6, "main_hh_f": 0, "per_main_hh_p": 2.05479452, "per_main_hh_m": 100.0, "per_main_hh_f": 0.0, "main_ot_p": 5, "main_ot_m": 5, "main_ot_f": 0, "per_main_ot_p": 1.71232877, "per_main_ot_m": 100.0, "per_main_ot_f": 0.0, "margwork_p": 43, "margwork_m": 41, "margwork_f": 2, "per_margwork_p": 3.65335599, "per_margwork_m": 95.34883721, "per_margwork_f": 4.65116279, "marg_cl_p": 14, "marg_cl_m": 12, "marg_cl_f": 2, "per_marg_cl_p": 32.55813953000001, "per_marg_cl_m": 85.71428571, "per_marg_cl_f": 14.28571429, "marg_al_p": 11, "marg_al_m": 11, "marg_al_f": 0, "per_marg_al_p": 25.58139535, "per_marg_al_m": 100.0, "per_marg_al_f": 0.0, "marg_hh_p": 0, "marg_hh_m": 0, "marg_hh_f": 0, "per_marg_hh_p": 0.0, "per_marg_hh_m": 0.0, "per_marg_hh_f": 0.0, "marg_ot_p": 18, "marg_ot_m": 18, "marg_ot_f": 0, "per_marg_ot_p": 41.86046512, "per_marg_ot_m": 100.0, "per_marg_ot_f": 0.0, "margwork_3_6_p": 38, "margwork_3_6_m": 36, "margwork_3_6_f": 2, "per_margwork_3_6_p": 88.37209302, "per_margwork_3_6_m": 94.73684211, "per_margwork_3_6_f": 5.26315789, "marg_cl_3_6_p": 14, "marg_cl_3_6_m": 12, "marg_cl_3_6_f": 2, "per_marg_cl_3_6_p": 32.55813953000001, "per_marg_cl_3_6_m": 85.71428571, "per_marg_cl_3_6_f": 14.28571429, "marg_al_3_6_p": 10, "marg_al_3_6_m": 10, "marg_al_3_6_f": 0, "per_marg_al_3_6_p": 23.25581395, "per_marg_al_3_6_m": 100.0, "per_marg_al_3_6_f": 0.0, "marg_hh_3_6_p": 0, "marg_hh_3_6_m": 0, "marg_hh_3_6_f": 0, "per_marg_hh_3_6_p": 0.0, "per_marg_hh_3_6_m": 0.0, "per_marg_hh_3_6_f": 0.0, "marg_ot_3_6_p": 14, "marg_ot_3_6_m": 14, "marg_ot_3_6_f": 0, "per_marg_ot_3_6_p": 32.55813953000001, "per_marg_ot_3_6_m": 100.0, "per_marg_ot_3_6_f": 0.0, "margwork_0_3_p": 5, "margwork_0_3_m": 5, "margwork_0_3_f": 0, "per_margwork_0_3_p": 11.62790698, "per_margwork_0_3_m": 100.0, "per_margwork_0_3_f": 0.0, "marg_cl_0_3_p": 0, "marg_cl_0_3_m": 0, "marg_cl_0_3_f": 0, "per_marg_cl_0_3_p": 0.0, "per_marg_cl_0_3_m": 0.0, "per_marg_cl_0_3_f": 0.0, "marg_al_0_3_p": 1, "marg_al_0_3_m": 1, "marg_al_0_3_f": 0, "per_marg_al_0_3_p": 2.3255814, "per_marg_al_0_3_m": 100.0, "per_marg_al_0_3_f": 0.0, "marg_hh_0_3_p": 0, "marg_hh_0_3_m": 0, "marg_hh_0_3_f": 0, "per_marg_hh_0_3_p": 0.0, "per_marg_hh_0_3_m": 0.0, "per_marg_hh_0_3_f": 0.0, "marg_ot_0_3_p": 4, "marg_ot_0_3_m": 4, "marg_ot_0_3_f": 0, "per_marg_ot_0_3_p": 9.30232558, "per_marg_ot_0_3_m": 100.0, "per_marg_ot_0_3_f": 0.0, "non_work_p": 842, "non_work_m": 374, "non_work_f": 468, "per_non_work_p": 71.53780799, "per_non_work_m": 44.41805226, "per_non_work_f": 55.58194774, "per_hc_tot_tot": 100, "per_hc_tot_god": 7.8, "per_hc_tot_liv": 92.2, "per_hc_tot_dil": 0.0, "per_hc_res_tot": 100.0, "per_hc_res_god": 7.8, "per_hc_res_liv": 92.2, "per_hc_res_dil": 0.0, "per_hc_oth_tot": 0.0, "per_hc_oth_god": 0.0, "per_hc_oth_liv": 0.0, "per_hc_oth_dil": 0.0, "per_mt_grsbam": 0.6, "per_mt_plastic": 0.0, "per_mt_h_tiles": 0.0, "per_mt_m_tiles": 0.0, "per_mt_b_brick": 1.2, "per_mt_stone": 97.0, "per_mt_asbstos": 0.0, "per_mt_concrte": 0.0, "per_mt_oth": 1.2, "per_mw_grsbam": 0.6, "per_mw_plastic": 0.0, "per_mw_mud": 2.4, "per_mw_wood": 0.0, "per_mw_no_mrtr": 0.0, "per_mw_st_mrtr": 97.0, "per_mw_asbstos": 0.0, "per_mw_b_brick": 0.0, "per_mw_concrte": 0.0, "per_mw_oth": 0.0, "per_mf_mud": 97.6, "per_mf_wood": 0.0, "per_mf_b_brick": 0.0, "per_mf_stone": 0.0, "per_mf_cement": 2.4, "per_mf_fl_tile": 0.0, "per_mf_oth": 0.0, "per_dw_n_exrm": 0.0, "per_dw_1_room": 38.6, "per_dw_2_room": 45.8, "per_dw_3_room": 12.0, "per_dw_4_room": 3.0, "per_dw_5_room": 0.0, "per_dw_6_room": 0.6, "per_hhsize_1": 1.2, "per_hhsize_2": 2.4, "per_hhsize_3": 2.4, "per_hhsize_4": 10.8, "per_hhsize_5": 12.0, "per_hhsize_6_8": 51.2, "per_hhsize_9p": 19.9, "per_ow_owned": 95.8, "per_ow_rented": 4.2, "per_ow_oth": 0.0, "per_mc_none": 5.4, "per_mcouple_1": 63.3, "per_mcouple_2": 26.5, "per_mcouple_3": 3.6, "per_mcouple_4": 1.2, "per_mcouple_5p": 0.0, "per_dw_t_ts": 0.0, "per_dw_t_unts": 0.6, "per_dw_c_well": 0.6, "per_dw_unc_wel": 4.8, "per_dw_hpump": 94.0, "per_dw_tw_bore": 0.0, "per_dw_spring": 0.0, "per_dw_rivcan": 0.0, "per_dw_tank": 0.0, "per_dw_oth": 0.0, "per_loc_dw_wp": 0.0, "per_loc_dw_np": 98.8, "per_loc_dw_aw": 1.2, "per_light_elec": 94.0, "per_light_kero": 6.0, "per_light_solr": 0.0, "per_light_oil": 0.0, "per_light_oth": 0.0, "per_light_no": 0.0, "per_hh_latrine": 0.0, "per_fl_sewer": 0.0, "per_fl_septict": 0.0, "per_fl_othsys": 0.0, "per_pl_wslab": 0.0, "per_pl_without": 0.0, "per_ns_open": 0.0, "per_sl_ns_hum": 0.0, "per_sl_ns_anml": 0.0, "per_hh_no_lat": 100.0, "per_as_pub": 0.0, "per_as_open": 100.0, "per_hh_bathrm": 0.0, "per_hh_en_wrf": 37.3, "per_hh_no_btrm": 62.7, "per_wwoc_drain": 0.0, "per_wwoc_open": 0.6, "per_wwoc_nodrn": 99.4, "per_cook_fire": 0.6, "per_cook_resdu": 99.4, "per_cook_cwdng": 0.0, "per_cook_coal": 0.0, "per_cook_kero": 0.0, "per_cook_lpng": 0.0, "per_cook_elec": 0.0, "per_cook_biogs": 0.0, "per_cook_oth": 0.0, "per_cook_no": 0.0, "per_kf_inside": 100.0, "per_kf_in_has": 0.0, "per_kf_in_does": 100.0, "per_kf_outside": 0.0, "per_kf_out_has": 0.0, "per_kf_out_dos": 0.0, "per_kf_no_cook": 0.0, "per_hh_banking": 18.1, "per_hh_radio": 0.6, "per_hh_tv": 12.7, "per_hh_cmp_int": 0.0, "per_hh_cmp_wnt": 36.1, "per_hh_ph_ll": 1.2, "per_hh_ph_mob": 72.9, "per_hh_ph_bth": 0.0, "per_hh_bcycl": 4.2, "per_hh_2wheel": 22.3, "per_hh_4wheel": 0.0, "per_hh_tvcomp": 0.0, "per_hh_no_ast": 19.9, "per_hs_perma": 95.2, "per_hs_sperma": 3.6, "per_hs_temp": 0.0, "per_hs_servc": 0.0, "per_hs_nservc": 0.0, "per_hs_unclss": 1.2, "avghhsz_cy": 6.96449704, "st_areashape": 3886519.277375665, "st_lengthshape": 8385.243787771433}, "geometry": {"type": "Polygon", "coordinates": [[[77.85366672485425, 26.61330169517114], [77.85198735407496, 26.616511499600325], [77.85079895571764, 26.617972370369124], [77.84767940946813, 26.61876920154057], [77.84473812220867, 26.619645708611433], [77.84411421349775, 26.61983163366012], [77.84233161551256, 26.621956469080693], [77.84129176616386, 26.623284470860312], [77.84025191771347, 26.623948465562698], [77.83638962192917, 26.624214062684796], [77.83445847403705, 26.62554203823453], [77.8314874776945, 26.626206020624696], [77.82750075087031, 26.627003391061606], [77.82761783818276, 26.623225960852213], [77.82962703619837, 26.6155446284131], [77.83319319606106, 26.609524514981036], [77.83806687268438, 26.607772448136966], [77.83822439765933, 26.607872398757127], [77.840546680111, 26.609050443127824], [77.84218920109903, 26.60973473051783], [77.84430752376038, 26.61061146426419], [77.84602791880204, 26.611323474384363], [77.84720117875021, 26.61187729275342], [77.84870888507193, 26.61228698957813], [77.85161292997633, 26.612815960482155], [77.85366672485425, 26.61330169517114]]]}}]}