{"type": "FeatureCollection", "features": [{"type": "Feature", "properties": {"premiumdata.sde.IN_Village_PCA.area": 0.84224388, "objectid": 528754, "id": "193042422126960", "name": "Sonagachhi", "subdistrict": "Baruipur", "district": "24 Paraganas South", "state": "West Bengal", "country": "India", "censusname": "Sonagachhi", "villagename_locallang": null, "lgd_villagename": "Sonagachhi", "lgd_villagecode": 333926, "lgd_subdistrictcode": 2422, "lgd_districtcode": 304, "lgd_statecode": 19, "censuscode2001": "03930800", "censuscode2011": "333926", "censuscode2021": null, "level": "Village", "tru": "Rural", "no_hh": 144, "tot_p": 604, "tot_m": 315, "tot_f": 289, "per_tot_m": 52.15231788, "per_tot_f": 47.84768212, "p_06": 51, "m_06": 31, "f_06": 20, "per_p_06": 8.44370861, "per_m_06": 60.78431373, "per_f_06": 39.21568627, "p_sc": 265, "m_sc": 143, "f_sc": 122, "per_p_sc": 43.87417219, "per_m_sc": 53.96226415, "per_f_sc": 46.03773585, "p_st": 0, "m_st": 0, "f_st": 0, "per_p_st": 0.0, "per_m_st": 0.0, "per_f_st": 0.0, "p_lit": 500, "m_lit": 275, "f_lit": 225, "per_p_lit": 82.78145695, "per_m_lit": 55.0, "per_f_lit": 45.0, "p_ill": 104, "m_ill": 40, "f_ill": 64, "per_p_ill": 17.21854305, "per_m_ill": 38.46153846, "per_f_ill": 61.53846154, "tot_work_p": 208, "tot_work_m": 180, "tot_work_f": 28, "per_tot_work_p": 34.43708609, "per_tot_work_m": 86.53846154, "per_tot_work_f": 13.46153846, "mainwork_p": 28, "mainwork_m": 25, "mainwork_f": 3, "per_mainwork_p": 4.63576159, "per_mainwork_m": 89.28571429, "per_mainwork_f": 10.71428571, "main_cl_p": 3, "main_cl_m": 2, "main_cl_f": 1, "per_main_cl_p": 10.71428571, "per_main_cl_m": 66.66666667, "per_main_cl_f": 33.33333333, "main_al_p": 6, "main_al_m": 6, "main_al_f": 0, "per_main_al_p": 21.42857143, "per_main_al_m": 100.0, "per_main_al_f": 0.0, "main_hh_p": 4, "main_hh_m": 4, "main_hh_f": 0, "per_main_hh_p": 14.28571429, "per_main_hh_m": 100.0, "per_main_hh_f": 0.0, "main_ot_p": 15, "main_ot_m": 13, "main_ot_f": 2, "per_main_ot_p": 53.57142857, "per_main_ot_m": 86.66666667, "per_main_ot_f": 13.33333333, "margwork_p": 180, "margwork_m": 155, "margwork_f": 25, "per_margwork_p": 29.8013245, "per_margwork_m": 86.11111111, "per_margwork_f": 13.88888889, "marg_cl_p": 8, "marg_cl_m": 6, "marg_cl_f": 2, "per_marg_cl_p": 4.44444444, "per_marg_cl_m": 75.0, "per_marg_cl_f": 25.0, "marg_al_p": 56, "marg_al_m": 55, "marg_al_f": 1, "per_marg_al_p": 31.11111111, "per_marg_al_m": 98.21428571, "per_marg_al_f": 1.78571429, "marg_hh_p": 15, "marg_hh_m": 15, "marg_hh_f": 0, "per_marg_hh_p": 8.33333333, "per_marg_hh_m": 100.0, "per_marg_hh_f": 0.0, "marg_ot_p": 101, "marg_ot_m": 79, "marg_ot_f": 22, "per_marg_ot_p": 56.11111111, "per_marg_ot_m": 78.21782178, "per_marg_ot_f": 21.78217822, "margwork_3_6_p": 180, "margwork_3_6_m": 155, "margwork_3_6_f": 25, "per_margwork_3_6_p": 100.0, "per_margwork_3_6_m": 86.11111111, "per_margwork_3_6_f": 13.88888889, "marg_cl_3_6_p": 8, "marg_cl_3_6_m": 6, "marg_cl_3_6_f": 2, "per_marg_cl_3_6_p": 4.44444444, "per_marg_cl_3_6_m": 75.0, "per_marg_cl_3_6_f": 25.0, "marg_al_3_6_p": 56, "marg_al_3_6_m": 55, "marg_al_3_6_f": 1, "per_marg_al_3_6_p": 31.11111111, "per_marg_al_3_6_m": 98.21428571, "per_marg_al_3_6_f": 1.78571429, "marg_hh_3_6_p": 15, "marg_hh_3_6_m": 15, "marg_hh_3_6_f": 0, "per_marg_hh_3_6_p": 8.33333333, "per_marg_hh_3_6_m": 100.0, "per_marg_hh_3_6_f": 0.0, "marg_ot_3_6_p": 101, "marg_ot_3_6_m": 79, "marg_ot_3_6_f": 22, "per_marg_ot_3_6_p": 56.11111111, "per_marg_ot_3_6_m": 78.21782178, "per_marg_ot_3_6_f": 21.78217822, "margwork_0_3_p": 0, "margwork_0_3_m": 0, "margwork_0_3_f": 0, "per_margwork_0_3_p": 0.0, "per_margwork_0_3_m": 0.0, "per_margwork_0_3_f": 0.0, "marg_cl_0_3_p": 0, "marg_cl_0_3_m": 0, "marg_cl_0_3_f": 0, "per_marg_cl_0_3_p": 0.0, "per_marg_cl_0_3_m": 0.0, "per_marg_cl_0_3_f": 0.0, "marg_al_0_3_p": 0, "marg_al_0_3_m": 0, "marg_al_0_3_f": 0, "per_marg_al_0_3_p": 0.0, "per_marg_al_0_3_m": 0.0, "per_marg_al_0_3_f": 0.0, "marg_hh_0_3_p": 0, "marg_hh_0_3_m": 0, "marg_hh_0_3_f": 0, "per_marg_hh_0_3_p": 0.0, "per_marg_hh_0_3_m": 0.0, "per_marg_hh_0_3_f": 0.0, "marg_ot_0_3_p": 0, "marg_ot_0_3_m": 0, "marg_ot_0_3_f": 0, "per_marg_ot_0_3_p": 0.0, "per_marg_ot_0_3_m": 0.0, "per_marg_ot_0_3_f": 0.0, "non_work_p": 396, "non_work_m": 135, "non_work_f": 261, "per_non_work_p": 65.56291391, "per_non_work_m": 34.09090909, "per_non_work_f": 65.90909091, "per_hc_tot_tot": 100, "per_hc_tot_god": 29.9, "per_hc_tot_liv": 61.8, "per_hc_tot_dil": 8.3, "per_hc_res_tot": 95.1, "per_hc_res_god": 25.7, "per_hc_res_liv": 61.1, "per_hc_res_dil": 8.3, "per_hc_oth_tot": 4.9, "per_hc_oth_god": 4.2, "per_hc_oth_liv": 0.7, "per_hc_oth_dil": 0.0, "per_mt_grsbam": 5.6, "per_mt_plastic": 0.7, "per_mt_h_tiles": 0.7, "per_mt_m_tiles": 50.0, "per_mt_b_brick": 0.0, "per_mt_stone": 0.0, "per_mt_asbstos": 13.9, "per_mt_concrte": 29.2, "per_mt_oth": 0.0, "per_mw_grsbam": 8.3, "per_mw_plastic": 0.0, "per_mw_mud": 27.8, "per_mw_wood": 0.0, "per_mw_no_mrtr": 0.0, "per_mw_st_mrtr": 0.0, "per_mw_asbstos": 0.0, "per_mw_b_brick": 63.9, "per_mw_concrte": 0.0, "per_mw_oth": 0.0, "per_mf_mud": 59.0, "per_mf_wood": 0.0, "per_mf_b_brick": 0.0, "per_mf_stone": 0.0, "per_mf_cement": 41.0, "per_mf_fl_tile": 0.0, "per_mf_oth": 0.0, "per_dw_n_exrm": 0.7, "per_dw_1_room": 52.8, "per_dw_2_room": 36.8, "per_dw_3_room": 6.9, "per_dw_4_room": 2.8, "per_dw_5_room": 0.0, "per_dw_6_room": 0.0, "per_hhsize_1": 4.9, "per_hhsize_2": 5.6, "per_hhsize_3": 24.3, "per_hhsize_4": 33.3, "per_hhsize_5": 12.5, "per_hhsize_6_8": 18.1, "per_hhsize_9p": 1.4, "per_ow_owned": 100.0, "per_ow_rented": 0.0, "per_ow_oth": 0.0, "per_mc_none": 11.1, "per_mcouple_1": 68.8, "per_mcouple_2": 17.4, "per_mcouple_3": 2.1, "per_mcouple_4": 0.7, "per_mcouple_5p": 0.0, "per_dw_t_ts": 0.0, "per_dw_t_unts": 0.0, "per_dw_c_well": 0.0, "per_dw_unc_wel": 0.0, "per_dw_hpump": 0.0, "per_dw_tw_bore": 100.0, "per_dw_spring": 0.0, "per_dw_rivcan": 0.0, "per_dw_tank": 0.0, "per_dw_oth": 0.0, "per_loc_dw_wp": 0.0, "per_loc_dw_np": 0.0, "per_loc_dw_aw": 100.0, "per_light_elec": 24.3, "per_light_kero": 71.5, "per_light_solr": 4.2, "per_light_oil": 0.0, "per_light_oth": 0.0, "per_light_no": 0.0, "per_hh_latrine": 88.2, "per_fl_sewer": 0.0, "per_fl_septict": 0.7, "per_fl_othsys": 41.0, "per_pl_wslab": 46.5, "per_pl_without": 0.0, "per_ns_open": 0.0, "per_sl_ns_hum": 0.0, "per_sl_ns_anml": 0.0, "per_hh_no_lat": 11.8, "per_as_pub": 0.0, "per_as_open": 11.8, "per_hh_bathrm": 0.0, "per_hh_en_wrf": 0.0, "per_hh_no_btrm": 100.0, "per_wwoc_drain": 0.0, "per_wwoc_open": 0.0, "per_wwoc_nodrn": 100.0, "per_cook_fire": 100.0, "per_cook_resdu": 0.0, "per_cook_cwdng": 0.0, "per_cook_coal": 0.0, "per_cook_kero": 0.0, "per_cook_lpng": 0.0, "per_cook_elec": 0.0, "per_cook_biogs": 0.0, "per_cook_oth": 0.0, "per_cook_no": 0.0, "per_kf_inside": 17.4, "per_kf_in_has": 16.0, "per_kf_in_does": 1.4, "per_kf_outside": 82.6, "per_kf_out_has": 77.1, "per_kf_out_dos": 5.6, "per_kf_no_cook": 0.0, "per_hh_banking": 27.1, "per_hh_radio": 0.7, "per_hh_tv": 11.1, "per_hh_cmp_int": 0.0, "per_hh_cmp_wnt": 7.6, "per_hh_ph_ll": 0.0, "per_hh_ph_mob": 10.4, "per_hh_ph_bth": 0.0, "per_hh_bcycl": 18.8, "per_hh_2wheel": 0.7, "per_hh_4wheel": 0.0, "per_hh_tvcomp": 0.0, "per_hh_no_ast": 59.7, "per_hs_perma": 63.2, "per_hs_sperma": 31.2, "per_hs_temp": 5.6, "per_hs_servc": 4.2, "per_hs_nservc": 1.4, "per_hs_unclss": 0.0, "avghhsz_cy": 4.19444444, "st_areashape": 989130.0016375, "st_lengthshape": 4939.271812727979}, "geometry": {"type": "Polygon", "coordinates": [[[88.39503999954142, 22.340579999512727], [88.39416999915505, 22.339949999394808], [88.39377999916772, 22.339589998286716], [88.39345999950056, 22.33916999886572], [88.39329999876868, 22.338759998883287], [88.39313999893513, 22.33774999897163], [88.39313999893513, 22.337089999387963], [88.39329999876868, 22.336679999105883], [88.39325999948403, 22.336379998966635], [88.39310999969622, 22.336219999016254], [88.39189999955121, 22.335949998943356], [88.39045999925247, 22.33545999861451], [88.39068999940622, 22.335239998534277], [88.39112999872397, 22.33476999935294], [88.39165999935172, 22.334099998753924], [88.3919199996427, 22.333259998813208], [88.39197999901884, 22.33278999877574], [88.39190999869865, 22.332579998954294], [88.39146999938089, 22.332229999103145], [88.39134999883198, 22.332129998984357], [88.39097999893613, 22.331939999724458], [88.39055999881157, 22.33180999911959], [88.39016999882422, 22.33161999859285], [88.38979999892837, 22.331309998795955], [88.38959999981014, 22.330889998534992], [88.38940999894103, 22.330539998597892], [88.39048999938967, 22.330459999035018], [88.39119999904416, 22.330439999760344], [88.39143999834536, 22.330459999035018], [88.39184999842418, 22.330619998945842], [88.39229999868598, 22.330649999479977], [88.39248999865677, 22.330599998863157], [88.39296999905581, 22.330489998772613], [88.39332999890591, 22.330499998406722], [88.39347999959205, 22.3305899992362], [88.39393999900128, 22.330999999141067], [88.39459999842705, 22.331799999579367], [88.3949199989925, 22.332279999135643], [88.39513999910052, 22.332309999312756], [88.39519999847666, 22.332289999472366], [88.39560999855551, 22.33206999937725], [88.39594999921243, 22.331849998935095], [88.3961299991375, 22.331839999397776], [88.39639999947424, 22.331959999615], [88.39680999955304, 22.332269999629126], [88.39714999841337, 22.332329999150243], [88.3978199987832, 22.33210999911818], [88.39873999939826, 22.33188999873913], [88.39930999931066, 22.331829999028766], [88.39995999869069, 22.331819999489998], [88.40059999982161, 22.331999999387495], [88.40086999926001, 22.332019999269473], [88.40084999916854, 22.332229999103145], [88.40089999849894, 22.332589998438547], [88.40105999923084, 22.33292999875805], [88.40134999876072, 22.333299999043792], [88.401819999114, 22.33354999877101], [88.40228999946729, 22.33379999888105], [88.4024599984483, 22.334019998740136], [88.40243999925511, 22.33425999947476], [88.40220999910133, 22.33489999886067], [88.40208999855244, 22.33567999917864], [88.4020299991763, 22.336049998815906], [88.40191999957146, 22.33631999869516], [88.40159999900598, 22.336759998424643], [88.40104999828675, 22.337089999387963], [88.40066999924348, 22.337209998411563], [88.39969999929801, 22.33723999918995], [88.3994899983374, 22.337339998968304], [88.39943999900703, 22.337479999368462], [88.39941999891552, 22.33866999917162], [88.39937999873256, 22.3389599995117], [88.39884999900315, 22.339979998752785], [88.39857999866639, 22.339999998321197], [88.39816999858755, 22.339989999368235], [88.3979399993321, 22.339819999609666], [88.39757999858367, 22.33931999892288], [88.3973699985214, 22.3391399985026], [88.39719999954039, 22.33912999865706], [88.39706999984406, 22.33916999886572], [88.39667999985672, 22.33976999895696], [88.39654999926206, 22.339899998788738], [88.39602999868008, 22.340039999111152], [88.39534999916282, 22.340509998809306], [88.39503999954142, 22.340579999512727]]]}}]}