{"type": "FeatureCollection", "features": [{"type": "Feature", "properties": {"premiumdata.sde.IN_Village_PCA.area": 23.06120254, "objectid": 95747, "id": "285234735658084", "name": "Kondapalle", "subdistrict": "Kukunoor", "district": "West Godavari", "state": "Andhra Pradesh", "country": "India", "censusname": "Kondapalle", "villagename_locallang": null, "lgd_villagename": "Kondapalle", "lgd_villagecode": 579326, "lgd_subdistrictcode": 4735, "lgd_districtcode": 523, "lgd_statecode": 28, "censuscode2001": "01033200", "censuscode2011": "579326", "censuscode2021": null, "level": "Village", "tru": "Rural", "no_hh": 450, "tot_p": 1527, "tot_m": 821, "tot_f": 706, "per_tot_m": 53.76555337000001, "per_tot_f": 46.23444663, "p_06": 182, "m_06": 100, "f_06": 82, "per_p_06": 11.91879502, "per_m_06": 54.94505495, "per_f_06": 45.05494505, "p_sc": 326, "m_sc": 176, "f_sc": 150, "per_p_sc": 21.34905043, "per_m_sc": 53.98773006, "per_f_sc": 46.01226994, "p_st": 639, "m_st": 351, "f_st": 288, "per_p_st": 41.84675835, "per_m_st": 54.92957746, "per_f_st": 45.07042254, "p_lit": 666, "m_lit": 388, "f_lit": 278, "per_p_lit": 43.61493124, "per_m_lit": 58.25825826000001, "per_f_lit": 41.74174174, "p_ill": 861, "m_ill": 433, "f_ill": 428, "per_p_ill": 56.38506876, "per_m_ill": 50.29036005, "per_f_ill": 49.70963995, "tot_work_p": 883, "tot_work_m": 502, "tot_work_f": 381, "per_tot_work_p": 57.82580223, "per_tot_work_m": 56.85164213, "per_tot_work_f": 43.14835787, "mainwork_p": 588, "mainwork_m": 346, "mainwork_f": 242, "per_mainwork_p": 38.50687623, "per_mainwork_m": 58.84353741, "per_mainwork_f": 41.15646259, "main_cl_p": 35, "main_cl_m": 34, "main_cl_f": 1, "per_main_cl_p": 5.95238095, "per_main_cl_m": 97.14285714, "per_main_cl_f": 2.85714286, "main_al_p": 527, "main_al_m": 292, "main_al_f": 235, "per_main_al_p": 89.62585034, "per_main_al_m": 55.40796964, "per_main_al_f": 44.59203036, "main_hh_p": 3, "main_hh_m": 2, "main_hh_f": 1, "per_main_hh_p": 0.51020408, "per_main_hh_m": 66.66666667, "per_main_hh_f": 33.33333333, "main_ot_p": 23, "main_ot_m": 18, "main_ot_f": 5, "per_main_ot_p": 3.91156463, "per_main_ot_m": 78.26086957, "per_main_ot_f": 21.73913043, "margwork_p": 295, "margwork_m": 156, "margwork_f": 139, "per_margwork_p": 19.318926, "per_margwork_m": 52.88135593000001, "per_margwork_f": 47.11864407, "marg_cl_p": 1, "marg_cl_m": 0, "marg_cl_f": 1, "per_marg_cl_p": 0.33898305, "per_marg_cl_m": 0.0, "per_marg_cl_f": 100.0, "marg_al_p": 291, "marg_al_m": 155, "marg_al_f": 136, "per_marg_al_p": 98.6440678, "per_marg_al_m": 53.26460481, "per_marg_al_f": 46.73539519000001, "marg_hh_p": 0, "marg_hh_m": 0, "marg_hh_f": 0, "per_marg_hh_p": 0.0, "per_marg_hh_m": 0.0, "per_marg_hh_f": 0.0, "marg_ot_p": 3, "marg_ot_m": 1, "marg_ot_f": 2, "per_marg_ot_p": 1.01694915, "per_marg_ot_m": 33.33333333, "per_marg_ot_f": 66.66666667, "margwork_3_6_p": 46, "margwork_3_6_m": 25, "margwork_3_6_f": 21, "per_margwork_3_6_p": 15.59322034, "per_margwork_3_6_m": 54.34782609, "per_margwork_3_6_f": 45.65217391, "marg_cl_3_6_p": 1, "marg_cl_3_6_m": 0, "marg_cl_3_6_f": 1, "per_marg_cl_3_6_p": 0.33898305, "per_marg_cl_3_6_m": 0.0, "per_marg_cl_3_6_f": 100.0, "marg_al_3_6_p": 42, "marg_al_3_6_m": 24, "marg_al_3_6_f": 18, "per_marg_al_3_6_p": 14.23728814, "per_marg_al_3_6_m": 57.14285714, "per_marg_al_3_6_f": 42.85714286, "marg_hh_3_6_p": 0, "marg_hh_3_6_m": 0, "marg_hh_3_6_f": 0, "per_marg_hh_3_6_p": 0.0, "per_marg_hh_3_6_m": 0.0, "per_marg_hh_3_6_f": 0.0, "marg_ot_3_6_p": 3, "marg_ot_3_6_m": 1, "marg_ot_3_6_f": 2, "per_marg_ot_3_6_p": 1.01694915, "per_marg_ot_3_6_m": 33.33333333, "per_marg_ot_3_6_f": 66.66666667, "margwork_0_3_p": 249, "margwork_0_3_m": 131, "margwork_0_3_f": 118, "per_margwork_0_3_p": 84.40677966, "per_margwork_0_3_m": 52.61044177, "per_margwork_0_3_f": 47.38955823, "marg_cl_0_3_p": 0, "marg_cl_0_3_m": 0, "marg_cl_0_3_f": 0, "per_marg_cl_0_3_p": 0.0, "per_marg_cl_0_3_m": 0.0, "per_marg_cl_0_3_f": 0.0, "marg_al_0_3_p": 249, "marg_al_0_3_m": 131, "marg_al_0_3_f": 118, "per_marg_al_0_3_p": 84.40677966, "per_marg_al_0_3_m": 52.61044177, "per_marg_al_0_3_f": 47.38955823, "marg_hh_0_3_p": 0, "marg_hh_0_3_m": 0, "marg_hh_0_3_f": 0, "per_marg_hh_0_3_p": 0.0, "per_marg_hh_0_3_m": 0.0, "per_marg_hh_0_3_f": 0.0, "marg_ot_0_3_p": 0, "marg_ot_0_3_m": 0, "marg_ot_0_3_f": 0, "per_marg_ot_0_3_p": 0.0, "per_marg_ot_0_3_m": 0.0, "per_marg_ot_0_3_f": 0.0, "non_work_p": 644, "non_work_m": 319, "non_work_f": 325, "per_non_work_p": 42.17419777000001, "per_non_work_m": 49.53416149, "per_non_work_f": 50.46583851, "per_hc_tot_tot": 100, "per_hc_tot_god": 59.1, "per_hc_tot_liv": 27.8, "per_hc_tot_dil": 13.1, "per_hc_res_tot": 98.6, "per_hc_res_god": 58.0, "per_hc_res_liv": 27.5, "per_hc_res_dil": 13.1, "per_hc_oth_tot": 1.4, "per_hc_oth_god": 1.1, "per_hc_oth_liv": 0.2, "per_hc_oth_dil": 0.0, "per_mt_grsbam": 57.1, "per_mt_plastic": 0.9, "per_mt_h_tiles": 4.5, "per_mt_m_tiles": 25.1, "per_mt_b_brick": 0.2, "per_mt_stone": 0.7, "per_mt_asbstos": 2.3, "per_mt_concrte": 9.3, "per_mt_oth": 0.0, "per_mw_grsbam": 57.6, "per_mw_plastic": 0.7, "per_mw_mud": 12.0, "per_mw_wood": 11.3, "per_mw_no_mrtr": 0.5, "per_mw_st_mrtr": 7.2, "per_mw_asbstos": 0.0, "per_mw_b_brick": 10.8, "per_mw_concrte": 0.0, "per_mw_oth": 0.0, "per_mf_mud": 77.7, "per_mf_wood": 0.5, "per_mf_b_brick": 0.5, "per_mf_stone": 3.6, "per_mf_cement": 17.6, "per_mf_fl_tile": 0.0, "per_mf_oth": 0.2, "per_dw_n_exrm": 5.6, "per_dw_1_room": 36.3, "per_dw_2_room": 41.8, "per_dw_3_room": 11.1, "per_dw_4_room": 5.0, "per_dw_5_room": 0.2, "per_dw_6_room": 0.0, "per_hhsize_1": 6.1, "per_hhsize_2": 21.0, "per_hhsize_3": 19.9, "per_hhsize_4": 33.4, "per_hhsize_5": 13.1, "per_hhsize_6_8": 6.3, "per_hhsize_9p": 0.2, "per_ow_owned": 89.2, "per_ow_rented": 1.4, "per_ow_oth": 9.5, "per_mc_none": 21.4, "per_mcouple_1": 73.4, "per_mcouple_2": 5.0, "per_mcouple_3": 0.2, "per_mcouple_4": 0.0, "per_mcouple_5p": 0.0, "per_dw_t_ts": 7.4, "per_dw_t_unts": 31.2, "per_dw_c_well": 0.0, "per_dw_unc_wel": 9.0, "per_dw_hpump": 51.5, "per_dw_tw_bore": 0.9, "per_dw_spring": 0.0, "per_dw_rivcan": 0.0, "per_dw_tank": 0.0, "per_dw_oth": 0.0, "per_loc_dw_wp": 23.3, "per_loc_dw_np": 22.1, "per_loc_dw_aw": 54.6, "per_light_elec": 60.0, "per_light_kero": 37.2, "per_light_solr": 0.2, "per_light_oil": 0.0, "per_light_oth": 0.0, "per_light_no": 2.5, "per_hh_latrine": 16.0, "per_fl_sewer": 1.6, "per_fl_septict": 3.4, "per_fl_othsys": 3.4, "per_pl_wslab": 4.5, "per_pl_without": 3.2, "per_ns_open": 0.0, "per_sl_ns_hum": 0.0, "per_sl_ns_anml": 0.0, "per_hh_no_lat": 84.0, "per_as_pub": 0.0, "per_as_open": 84.0, "per_hh_bathrm": 10.8, "per_hh_en_wrf": 5.6, "per_hh_no_btrm": 83.5, "per_wwoc_drain": 1.6, "per_wwoc_open": 0.9, "per_wwoc_nodrn": 97.5, "per_cook_fire": 89.4, "per_cook_resdu": 0.9, "per_cook_cwdng": 2.0, "per_cook_coal": 0.5, "per_cook_kero": 0.5, "per_cook_lpng": 6.3, "per_cook_elec": 0.0, "per_cook_biogs": 0.0, "per_cook_oth": 0.0, "per_cook_no": 0.5, "per_kf_inside": 57.3, "per_kf_in_has": 14.9, "per_kf_in_does": 42.4, "per_kf_outside": 42.2, "per_kf_out_has": 15.3, "per_kf_out_dos": 26.9, "per_kf_no_cook": 0.5, "per_hh_banking": 21.2, "per_hh_radio": 7.4, "per_hh_tv": 37.5, "per_hh_cmp_int": 0.9, "per_hh_cmp_wnt": 2.7, "per_hh_ph_ll": 2.0, "per_hh_ph_mob": 37.5, "per_hh_ph_bth": 2.3, "per_hh_bcycl": 22.3, "per_hh_2wheel": 5.0, "per_hh_4wheel": 1.6, "per_hh_tvcomp": 0.9, "per_hh_no_ast": 39.1, "per_hs_perma": 17.4, "per_hs_sperma": 25.7, "per_hs_temp": 56.9, "per_hs_servc": 14.0, "per_hs_nservc": 42.9, "per_hs_unclss": 0.0, "avghhsz_cy": 3.39333333, "st_areashape": 25508139.24865543, "st_lengthshape": 24763.209386650087}, "geometry": {"type": "Polygon", "coordinates": [[[81.13023221757062, 17.584489796580495], [81.12916951328445, 17.585293142910654], [81.12855210747789, 17.585723072457014], [81.12355000051501, 17.58420000001574], [81.1204300006163, 17.58356999940266], [81.11554999985339, 17.58392999989946], [81.11088000005105, 17.585080000038037], [81.10638999927546, 17.585699999408348], [81.10605999956259, 17.584950000411443], [81.10464000025362, 17.58093000040434], [81.103779999913, 17.576139999876737], [81.10194999962688, 17.57081000049464], [81.10198000066244, 17.568970000259394], [81.10280999996753, 17.566290000368245], [81.1035899999422, 17.564019999760525], [81.10503000024096, 17.56334000017189], [81.10553000073148, 17.562740000025695], [81.10609000059813, 17.562090000335264], [81.1062700005232, 17.561619999684954], [81.10605999956259, 17.560880000124175], [81.10455999988767, 17.558759999984986], [81.10453999979619, 17.557789999599063], [81.10658000014458, 17.555520000330024], [81.10815000013966, 17.55455000057553], [81.10818999942431, 17.553340000513458], [81.107539999146, 17.552560000711768], [81.10527999958788, 17.55046000010042], [81.10190999944392, 17.54714000072288], [81.09851000006103, 17.54250999992998], [81.09710999994525, 17.539110000113666], [81.09644999962117, 17.53506000003833], [81.09618999933019, 17.5286399998207], [81.0965700001701, 17.52225000041624], [81.09650000074821, 17.519380000059254], [81.09585000046987, 17.515099999368207], [81.09635000006209, 17.511920000255895], [81.09718999941288, 17.506429999849875], [81.09718439033225, 17.50427042869823], [81.09756318653135, 17.50425590218081], [81.09928342706277, 17.504409324968833], [81.10110576651616, 17.505602251648], [81.10280880071662, 17.507513326403945], [81.10295442301405, 17.507676736446736], [81.10434949048062, 17.50936359431494], [81.10562517274423, 17.51049932417888], [81.10800096334584, 17.512337098683386], [81.11093610972203, 17.515253774508842], [81.11372629945237, 17.51850539639068], [81.11515036273968, 17.519863574130255], [81.1150099991799, 17.521059999737766], [81.11543000020278, 17.5229999995273], [81.11578000000716, 17.52482000022113], [81.11762999948643, 17.528429999954266], [81.12021000050828, 17.53343999986253], [81.12382999999919, 17.539789999868045], [81.13106999987933, 17.5519799999337], [81.1327300002861, 17.555939999574434], [81.13476000058877, 17.55879000009949], [81.13605000020138, 17.560289999487793], [81.13768999961835, 17.56533999942789], [81.13780000012152, 17.567920000099853], [81.13776999998429, 17.572520000005195], [81.13891999985482, 17.578909999217665], [81.13901309406437, 17.58034365499858], [81.13784667209211, 17.580778176966977], [81.13655678746383, 17.581265707099785], [81.13542356273292, 17.58176868108587], [81.13505989056992, 17.581930094827154], [81.13370826203723, 17.582530003931602], [81.13357274938002, 17.58259014956033], [81.13192595959781, 17.583508294697655], [81.13023221757062, 17.584489796580495]]]}}]}