{"type": "FeatureCollection", "features": [{"type": "Feature", "properties": {"premiumdata.sde.IN_Village_PCA.area": 1.75438761, "objectid": 519139, "id": "193122348124014", "name": "Paschim Joykrishnapur", "subdistrict": "Haripal", "district": "Hooghly", "state": "West Bengal", "country": "India", "censusname": "Paschim Joykrishnapur", "villagename_locallang": null, "lgd_villagename": "Paschim Joykrishnapur", "lgd_villagecode": 325366, "lgd_subdistrictcode": 2348, "lgd_districtcode": 312, "lgd_statecode": 19, "censuscode2001": "01907700", "censuscode2011": "325366", "censuscode2021": null, "level": "Village", "tru": "Rural", "no_hh": 690, "tot_p": 2789, "tot_m": 1413, "tot_f": 1376, "per_tot_m": 50.66332019, "per_tot_f": 49.33667981, "p_06": 231, "m_06": 119, "f_06": 112, "per_p_06": 8.28253854, "per_m_06": 51.51515152, "per_f_06": 48.48484848, "p_sc": 868, "m_sc": 439, "f_sc": 429, "per_p_sc": 31.12226605, "per_m_sc": 50.57603687, "per_f_sc": 49.42396313, "p_st": 162, "m_st": 78, "f_st": 84, "per_p_st": 5.80853352, "per_m_st": 48.14814815, "per_f_st": 51.85185185, "p_lit": 2107, "m_lit": 1118, "f_lit": 989, "per_p_lit": 75.54679096, "per_m_lit": 53.06122449, "per_f_lit": 46.93877551, "p_ill": 682, "m_ill": 295, "f_ill": 387, "per_p_ill": 24.45320904, "per_m_ill": 43.25513196, "per_f_ill": 56.74486804, "tot_work_p": 1309, "tot_work_m": 925, "tot_work_f": 384, "per_tot_work_p": 46.93438508, "per_tot_work_m": 70.66462949000001, "per_tot_work_f": 29.33537051, "mainwork_p": 875, "mainwork_m": 682, "mainwork_f": 193, "per_mainwork_p": 31.37325206, "per_mainwork_m": 77.94285714, "per_mainwork_f": 22.05714286, "main_cl_p": 71, "main_cl_m": 64, "main_cl_f": 7, "per_main_cl_p": 8.11428571, "per_main_cl_m": 90.14084507, "per_main_cl_f": 9.85915493, "main_al_p": 265, "main_al_m": 155, "main_al_f": 110, "per_main_al_p": 30.28571429, "per_main_al_m": 58.49056604, "per_main_al_f": 41.50943396, "main_hh_p": 37, "main_hh_m": 32, "main_hh_f": 5, "per_main_hh_p": 4.22857143, "per_main_hh_m": 86.48648649, "per_main_hh_f": 13.51351351, "main_ot_p": 502, "main_ot_m": 431, "main_ot_f": 71, "per_main_ot_p": 57.37142857, "per_main_ot_m": 85.85657371, "per_main_ot_f": 14.14342629, "margwork_p": 434, "margwork_m": 243, "margwork_f": 191, "per_margwork_p": 15.56113302, "per_margwork_m": 55.99078341, "per_margwork_f": 44.00921659, "marg_cl_p": 10, "marg_cl_m": 4, "marg_cl_f": 6, "per_marg_cl_p": 2.30414747, "per_marg_cl_m": 40.0, "per_marg_cl_f": 60.0, "marg_al_p": 258, "marg_al_m": 145, "marg_al_f": 113, "per_marg_al_p": 59.44700461, "per_marg_al_m": 56.20155039, "per_marg_al_f": 43.79844961, "marg_hh_p": 33, "marg_hh_m": 15, "marg_hh_f": 18, "per_marg_hh_p": 7.60368664, "per_marg_hh_m": 45.45454545, "per_marg_hh_f": 54.54545455, "marg_ot_p": 133, "marg_ot_m": 79, "marg_ot_f": 54, "per_marg_ot_p": 30.64516129, "per_marg_ot_m": 59.39849624, "per_marg_ot_f": 40.60150376, "margwork_3_6_p": 381, "margwork_3_6_m": 215, "margwork_3_6_f": 166, "per_margwork_3_6_p": 87.78801843, "per_margwork_3_6_m": 56.43044619, "per_margwork_3_6_f": 43.56955381, "marg_cl_3_6_p": 8, "marg_cl_3_6_m": 3, "marg_cl_3_6_f": 5, "per_marg_cl_3_6_p": 1.84331797, "per_marg_cl_3_6_m": 37.5, "per_marg_cl_3_6_f": 62.5, "marg_al_3_6_p": 224, "marg_al_3_6_m": 128, "marg_al_3_6_f": 96, "per_marg_al_3_6_p": 51.61290323, "per_marg_al_3_6_m": 57.14285714, "per_marg_al_3_6_f": 42.85714286, "marg_hh_3_6_p": 20, "marg_hh_3_6_m": 8, "marg_hh_3_6_f": 12, "per_marg_hh_3_6_p": 4.60829493, "per_marg_hh_3_6_m": 40.0, "per_marg_hh_3_6_f": 60.0, "marg_ot_3_6_p": 129, "marg_ot_3_6_m": 76, "marg_ot_3_6_f": 53, "per_marg_ot_3_6_p": 29.7235023, "per_marg_ot_3_6_m": 58.91472868, "per_marg_ot_3_6_f": 41.08527132, "margwork_0_3_p": 53, "margwork_0_3_m": 28, "margwork_0_3_f": 25, "per_margwork_0_3_p": 12.21198157, "per_margwork_0_3_m": 52.83018868, "per_margwork_0_3_f": 47.16981132, "marg_cl_0_3_p": 2, "marg_cl_0_3_m": 1, "marg_cl_0_3_f": 1, "per_marg_cl_0_3_p": 0.46082949, "per_marg_cl_0_3_m": 50.0, "per_marg_cl_0_3_f": 50.0, "marg_al_0_3_p": 34, "marg_al_0_3_m": 17, "marg_al_0_3_f": 17, "per_marg_al_0_3_p": 7.83410138, "per_marg_al_0_3_m": 50.0, "per_marg_al_0_3_f": 50.0, "marg_hh_0_3_p": 13, "marg_hh_0_3_m": 7, "marg_hh_0_3_f": 6, "per_marg_hh_0_3_p": 2.99539171, "per_marg_hh_0_3_m": 53.84615385, "per_marg_hh_0_3_f": 46.15384615, "marg_ot_0_3_p": 4, "marg_ot_0_3_m": 3, "marg_ot_0_3_f": 1, "per_marg_ot_0_3_p": 0.92165899, "per_marg_ot_0_3_m": 75.0, "per_marg_ot_0_3_f": 25.0, "non_work_p": 1480, "non_work_m": 488, "non_work_f": 992, "per_non_work_p": 53.06561492, "per_non_work_m": 32.97297297, "per_non_work_f": 67.02702703, "per_hc_tot_tot": 100, "per_hc_tot_god": 45.0, "per_hc_tot_liv": 50.4, "per_hc_tot_dil": 4.5, "per_hc_res_tot": 99.3, "per_hc_res_god": 44.9, "per_hc_res_liv": 49.9, "per_hc_res_dil": 4.5, "per_hc_oth_tot": 0.7, "per_hc_oth_god": 0.1, "per_hc_oth_liv": 0.6, "per_hc_oth_dil": 0.0, "per_mt_grsbam": 8.2, "per_mt_plastic": 0.0, "per_mt_h_tiles": 28.4, "per_mt_m_tiles": 5.6, "per_mt_b_brick": 0.1, "per_mt_stone": 0.3, "per_mt_asbstos": 10.7, "per_mt_concrte": 46.8, "per_mt_oth": 0.0, "per_mw_grsbam": 1.3, "per_mw_plastic": 0.1, "per_mw_mud": 32.0, "per_mw_wood": 0.0, "per_mw_no_mrtr": 0.0, "per_mw_st_mrtr": 0.0, "per_mw_asbstos": 0.0, "per_mw_b_brick": 54.2, "per_mw_concrte": 12.0, "per_mw_oth": 0.3, "per_mf_mud": 34.4, "per_mf_wood": 0.0, "per_mf_b_brick": 1.5, "per_mf_stone": 0.1, "per_mf_cement": 64.0, "per_mf_fl_tile": 0.0, "per_mf_oth": 0.0, "per_dw_n_exrm": 2.5, "per_dw_1_room": 39.9, "per_dw_2_room": 36.7, "per_dw_3_room": 9.8, "per_dw_4_room": 7.2, "per_dw_5_room": 2.2, "per_dw_6_room": 1.8, "per_hhsize_1": 4.1, "per_hhsize_2": 13.2, "per_hhsize_3": 27.2, "per_hhsize_4": 23.8, "per_hhsize_5": 15.1, "per_hhsize_6_8": 12.9, "per_hhsize_9p": 3.8, "per_ow_owned": 96.5, "per_ow_rented": 2.0, "per_ow_oth": 1.5, "per_mc_none": 14.3, "per_mcouple_1": 70.5, "per_mcouple_2": 11.5, "per_mcouple_3": 3.2, "per_mcouple_4": 0.4, "per_mcouple_5p": 0.0, "per_dw_t_ts": 22.4, "per_dw_t_unts": 0.9, "per_dw_c_well": 0.4, "per_dw_unc_wel": 1.9, "per_dw_hpump": 50.9, "per_dw_tw_bore": 22.8, "per_dw_spring": 0.0, "per_dw_rivcan": 0.3, "per_dw_tank": 0.3, "per_dw_oth": 0.1, "per_loc_dw_wp": 29.1, "per_loc_dw_np": 45.2, "per_loc_dw_aw": 25.7, "per_light_elec": 92.1, "per_light_kero": 7.2, "per_light_solr": 0.0, "per_light_oil": 0.3, "per_light_oth": 0.0, "per_light_no": 0.4, "per_hh_latrine": 67.5, "per_fl_sewer": 3.5, "per_fl_septict": 24.3, "per_fl_othsys": 0.1, "per_pl_wslab": 39.6, "per_pl_without": 0.0, "per_ns_open": 0.0, "per_sl_ns_hum": 0.0, "per_sl_ns_anml": 0.0, "per_hh_no_lat": 32.5, "per_as_pub": 13.5, "per_as_open": 19.0, "per_hh_bathrm": 40.5, "per_hh_en_wrf": 10.5, "per_hh_no_btrm": 49.0, "per_wwoc_drain": 19.6, "per_wwoc_open": 33.2, "per_wwoc_nodrn": 47.2, "per_cook_fire": 53.9, "per_cook_resdu": 2.3, "per_cook_cwdng": 6.0, "per_cook_coal": 7.6, "per_cook_kero": 0.6, "per_cook_lpng": 28.9, "per_cook_elec": 0.1, "per_cook_biogs": 0.3, "per_cook_oth": 0.1, "per_cook_no": 0.0, "per_kf_inside": 93.0, "per_kf_in_has": 54.8, "per_kf_in_does": 38.2, "per_kf_outside": 7.0, "per_kf_out_has": 2.5, "per_kf_out_dos": 4.5, "per_kf_no_cook": 0.0, "per_hh_banking": 68.3, "per_hh_radio": 42.5, "per_hh_tv": 54.8, "per_hh_cmp_int": 2.5, "per_hh_cmp_wnt": 6.4, "per_hh_ph_ll": 3.4, "per_hh_ph_mob": 47.5, "per_hh_ph_bth": 7.7, "per_hh_bcycl": 81.1, "per_hh_2wheel": 15.2, "per_hh_4wheel": 0.7, "per_hh_tvcomp": 2.3, "per_hh_no_ast": 8.2, "per_hs_perma": 65.6, "per_hs_sperma": 26.5, "per_hs_temp": 7.6, "per_hs_servc": 7.5, "per_hs_nservc": 0.1, "per_hs_unclss": 0.3, "avghhsz_cy": 4.04202899, "st_areashape": 2074523.765798, "st_lengthshape": 7395.353427954102}, "geometry": {"type": "Polygon", "coordinates": [[[88.10905999933534, 22.818389999824728], [88.10898999991345, 22.81752999984986], [88.10888999945603, 22.817369999505665], [88.10833999963513, 22.817299998830208], [88.10807999934413, 22.81709999989587], [88.10771999949402, 22.81569999913176], [88.10670999936556, 22.813979999524094], [88.1064999993033, 22.813419999047213], [88.10641999893734, 22.81280999969328], [88.10706000006824, 22.812759998959923], [88.10850999951444, 22.812259999725747], [88.10953999883604, 22.81205999918697], [88.11029999961758, 22.812229998670013], [88.11107999959225, 22.812159999493055], [88.11125999951729, 22.81216999985088], [88.11130999974603, 22.812269999248155], [88.11121999933432, 22.812489999319887], [88.11102999936354, 22.81271999935372], [88.1110699995465, 22.81289999914532], [88.11117999915133, 22.81291999892347], [88.1115499990472, 22.81285999875213], [88.1119499990803, 22.812709999036286], [88.11234999911339, 22.81208999945213], [88.11245999961653, 22.811779999429874], [88.1140699988963, 22.810269999010902], [88.11414000011482, 22.809049999170945], [88.1141699993537, 22.80895999883153], [88.11468999903741, 22.808979999188125], [88.11504999978584, 22.809069998686283], [88.11529999913277, 22.809049999170945], [88.11535999940725, 22.809049999170945], [88.11564999893716, 22.808899999400257], [88.11596999950261, 22.8089099991693], [88.11643999985588, 22.809179999280275], [88.11659999879114, 22.80943999912679], [88.11660999973519, 22.809839999323085], [88.11666999911132, 22.810069998862776], [88.11691000020916, 22.8101199997554], [88.11740999980135, 22.810159999297], [88.11783999907335, 22.8100099990923], [88.11866999927676, 22.80943999912679], [88.11956999890204, 22.808519999352445], [88.11989999951321, 22.80764999930524], [88.12097999996189, 22.80628999898122], [88.12141999927961, 22.805549999033055], [88.121729998901, 22.805539999017416], [88.12185999949565, 22.805659999156525], [88.12227999962022, 22.806359998689945], [88.12251999981976, 22.806459999039514], [88.12343999953652, 22.806429999190776], [88.12407999976911, 22.806149998627845], [88.12504999881628, 22.8058499999888], [88.12567999990141, 22.805709999183325], [88.12573999927758, 22.805709999183325], [88.12595999938561, 22.80571999918647], [88.1260599989447, 22.80589999911774], [88.12613999931064, 22.80630999890166], [88.12622999972234, 22.807559999697137], [88.12634999937295, 22.80777999992231], [88.12684999986347, 22.808149999725728], [88.1269599994683, 22.808349998552092], [88.12711000015443, 22.80891999893758], [88.12711000015443, 22.80896999942422], [88.12713999939338, 22.809679999054268], [88.12703999893591, 22.80978999998382], [88.12696999951406, 22.810129999434864], [88.12684999986347, 22.810619999391726], [88.12641999969313, 22.811139998888546], [88.1259099991569, 22.81165999971266], [88.125839999735, 22.812109999349186], [88.12586999897391, 22.812339999196613], [88.12606999988878, 22.81263999844994], [88.12608999998027, 22.8126799989077], [88.12600999961431, 22.812689999227334], [88.12434000006009, 22.813579999063492], [88.1239399991287, 22.814009999366366], [88.12370999987326, 22.81492999932569], [88.12334999912481, 22.815209999231904], [88.12250999887567, 22.81540999928567], [88.12209999879686, 22.815619999978246], [88.12161999929614, 22.816069999780606], [88.1207699998996, 22.81706999907817], [88.11962999917648, 22.818189999179097], [88.11864999918525, 22.818749999087423], [88.11793999953076, 22.818849999449725], [88.11786999921057, 22.81885999848831], [88.11741999894878, 22.81871999946121], [88.11718999879503, 22.818749999087423], [88.11678999966027, 22.819019998737904], [88.11640999882034, 22.819169999784403], [88.11520999961941, 22.819159999112564], [88.11494999932843, 22.819249998508578], [88.114639999707, 22.819819998821927], [88.11392999915422, 22.82006999845355], [88.11357999934987, 22.82003999911817], [88.11331999995718, 22.819929999842458], [88.11268999977031, 22.819209999980355], [88.11264999958735, 22.819009999711064], [88.11281999946667, 22.818609999119232], [88.11312999908806, 22.818289999124634], [88.11319999940825, 22.81807999840902], [88.11305999966618, 22.817819999321816], [88.11265999873478, 22.817649999363635], [88.11192999988711, 22.81755999891019], [88.11102999936354, 22.817419998546658], [88.11023999934311, 22.817519999057584], [88.10946999941416, 22.817979999965313], [88.10905999933534, 22.818389999824728]]]}}]}