{"type": "FeatureCollection", "features": [{"type": "Feature", "properties": {"premiumdata.sde.IN_Village_PCA.area": 1.52747025, "objectid": 422824, "id": "552308582702", "name": "Khaitali", "subdistrict": "Thailisain", "district": "Pauri Garhwal", "state": "Uttarakhand", "country": "India", "censusname": "Khaitali", "villagename_locallang": null, "lgd_villagename": "Khaitali", "lgd_villagecode": 46686, "lgd_subdistrictcode": 308, "lgd_districtcode": 52, "lgd_statecode": 5, "censuscode2001": "00658500", "censuscode2011": "046686", "censuscode2021": null, "level": "Village", "tru": "Rural", "no_hh": 40, "tot_p": 194, "tot_m": 75, "tot_f": 119, "per_tot_m": 38.65979381, "per_tot_f": 61.34020619, "p_06": 24, "m_06": 11, "f_06": 13, "per_p_06": 12.37113402, "per_m_06": 45.83333333, "per_f_06": 54.16666667000001, "p_sc": 16, "m_sc": 6, "f_sc": 10, "per_p_sc": 8.24742268, "per_m_sc": 37.5, "per_f_sc": 62.5, "p_st": 0, "m_st": 0, "f_st": 0, "per_p_st": 0.0, "per_m_st": 0.0, "per_f_st": 0.0, "p_lit": 125, "m_lit": 55, "f_lit": 70, "per_p_lit": 64.43298969, "per_m_lit": 44.0, "per_f_lit": 56.0, "p_ill": 69, "m_ill": 20, "f_ill": 49, "per_p_ill": 35.56701031, "per_m_ill": 28.98550725, "per_f_ill": 71.01449274999999, "tot_work_p": 100, "tot_work_m": 34, "tot_work_f": 66, "per_tot_work_p": 51.54639175000001, "per_tot_work_m": 34.0, "per_tot_work_f": 66.0, "mainwork_p": 6, "mainwork_m": 4, "mainwork_f": 2, "per_mainwork_p": 3.09278351, "per_mainwork_m": 66.66666667, "per_mainwork_f": 33.33333333, "main_cl_p": 2, "main_cl_m": 1, "main_cl_f": 1, "per_main_cl_p": 33.33333333, "per_main_cl_m": 50.0, "per_main_cl_f": 50.0, "main_al_p": 0, "main_al_m": 0, "main_al_f": 0, "per_main_al_p": 0.0, "per_main_al_m": 0.0, "per_main_al_f": 0.0, "main_hh_p": 0, "main_hh_m": 0, "main_hh_f": 0, "per_main_hh_p": 0.0, "per_main_hh_m": 0.0, "per_main_hh_f": 0.0, "main_ot_p": 4, "main_ot_m": 3, "main_ot_f": 1, "per_main_ot_p": 66.66666667, "per_main_ot_m": 75.0, "per_main_ot_f": 25.0, "margwork_p": 94, "margwork_m": 30, "margwork_f": 64, "per_margwork_p": 48.45360825, "per_margwork_m": 31.91489362, "per_margwork_f": 68.08510638, "marg_cl_p": 93, "marg_cl_m": 29, "marg_cl_f": 64, "per_marg_cl_p": 98.93617021, "per_marg_cl_m": 31.1827957, "per_marg_cl_f": 68.8172043, "marg_al_p": 0, "marg_al_m": 0, "marg_al_f": 0, "per_marg_al_p": 0.0, "per_marg_al_m": 0.0, "per_marg_al_f": 0.0, "marg_hh_p": 0, "marg_hh_m": 0, "marg_hh_f": 0, "per_marg_hh_p": 0.0, "per_marg_hh_m": 0.0, "per_marg_hh_f": 0.0, "marg_ot_p": 1, "marg_ot_m": 1, "marg_ot_f": 0, "per_marg_ot_p": 1.06382979, "per_marg_ot_m": 100.0, "per_marg_ot_f": 0.0, "margwork_3_6_p": 35, "margwork_3_6_m": 29, "margwork_3_6_f": 6, "per_margwork_3_6_p": 37.23404255000001, "per_margwork_3_6_m": 82.85714286, "per_margwork_3_6_f": 17.14285714, "marg_cl_3_6_p": 34, "marg_cl_3_6_m": 28, "marg_cl_3_6_f": 6, "per_marg_cl_3_6_p": 36.17021277, "per_marg_cl_3_6_m": 82.35294118, "per_marg_cl_3_6_f": 17.64705882, "marg_al_3_6_p": 0, "marg_al_3_6_m": 0, "marg_al_3_6_f": 0, "per_marg_al_3_6_p": 0.0, "per_marg_al_3_6_m": 0.0, "per_marg_al_3_6_f": 0.0, "marg_hh_3_6_p": 0, "marg_hh_3_6_m": 0, "marg_hh_3_6_f": 0, "per_marg_hh_3_6_p": 0.0, "per_marg_hh_3_6_m": 0.0, "per_marg_hh_3_6_f": 0.0, "marg_ot_3_6_p": 1, "marg_ot_3_6_m": 1, "marg_ot_3_6_f": 0, "per_marg_ot_3_6_p": 1.06382979, "per_marg_ot_3_6_m": 100.0, "per_marg_ot_3_6_f": 0.0, "margwork_0_3_p": 59, "margwork_0_3_m": 1, "margwork_0_3_f": 58, "per_margwork_0_3_p": 62.76595745, "per_margwork_0_3_m": 1.69491525, "per_margwork_0_3_f": 98.30508475, "marg_cl_0_3_p": 59, "marg_cl_0_3_m": 1, "marg_cl_0_3_f": 58, "per_marg_cl_0_3_p": 62.76595745, "per_marg_cl_0_3_m": 1.69491525, "per_marg_cl_0_3_f": 98.30508475, "marg_al_0_3_p": 0, "marg_al_0_3_m": 0, "marg_al_0_3_f": 0, "per_marg_al_0_3_p": 0.0, "per_marg_al_0_3_m": 0.0, "per_marg_al_0_3_f": 0.0, "marg_hh_0_3_p": 0, "marg_hh_0_3_m": 0, "marg_hh_0_3_f": 0, "per_marg_hh_0_3_p": 0.0, "per_marg_hh_0_3_m": 0.0, "per_marg_hh_0_3_f": 0.0, "marg_ot_0_3_p": 0, "marg_ot_0_3_m": 0, "marg_ot_0_3_f": 0, "per_marg_ot_0_3_p": 0.0, "per_marg_ot_0_3_m": 0.0, "per_marg_ot_0_3_f": 0.0, "non_work_p": 94, "non_work_m": 41, "non_work_f": 53, "per_non_work_p": 48.45360825, "per_non_work_m": 43.61702128, "per_non_work_f": 56.38297872, "per_hc_tot_tot": 100, "per_hc_tot_god": 92.5, "per_hc_tot_liv": 2.5, "per_hc_tot_dil": 5.0, "per_hc_res_tot": 100.0, "per_hc_res_god": 92.5, "per_hc_res_liv": 2.5, "per_hc_res_dil": 5.0, "per_hc_oth_tot": 0.0, "per_hc_oth_god": 0.0, "per_hc_oth_liv": 0.0, "per_hc_oth_dil": 0.0, "per_mt_grsbam": 0.0, "per_mt_plastic": 0.0, "per_mt_h_tiles": 2.5, "per_mt_m_tiles": 0.0, "per_mt_b_brick": 0.0, "per_mt_stone": 97.5, "per_mt_asbstos": 0.0, "per_mt_concrte": 0.0, "per_mt_oth": 0.0, "per_mw_grsbam": 0.0, "per_mw_plastic": 0.0, "per_mw_mud": 0.0, "per_mw_wood": 0.0, "per_mw_no_mrtr": 87.5, "per_mw_st_mrtr": 12.5, "per_mw_asbstos": 0.0, "per_mw_b_brick": 0.0, "per_mw_concrte": 0.0, "per_mw_oth": 0.0, "per_mf_mud": 97.5, "per_mf_wood": 0.0, "per_mf_b_brick": 0.0, "per_mf_stone": 0.0, "per_mf_cement": 2.5, "per_mf_fl_tile": 0.0, "per_mf_oth": 0.0, "per_dw_n_exrm": 0.0, "per_dw_1_room": 2.5, "per_dw_2_room": 35.0, "per_dw_3_room": 0.0, "per_dw_4_room": 47.5, "per_dw_5_room": 10.0, "per_dw_6_room": 5.0, "per_hhsize_1": 7.5, "per_hhsize_2": 15.0, "per_hhsize_3": 7.5, "per_hhsize_4": 17.5, "per_hhsize_5": 17.5, "per_hhsize_6_8": 27.5, "per_hhsize_9p": 7.5, "per_ow_owned": 100.0, "per_ow_rented": 0.0, "per_ow_oth": 0.0, "per_mc_none": 20.0, "per_mcouple_1": 57.5, "per_mcouple_2": 15.0, "per_mcouple_3": 7.5, "per_mcouple_4": 0.0, "per_mcouple_5p": 0.0, "per_dw_t_ts": 95.0, "per_dw_t_unts": 0.0, "per_dw_c_well": 0.0, "per_dw_unc_wel": 0.0, "per_dw_hpump": 0.0, "per_dw_tw_bore": 0.0, "per_dw_spring": 0.0, "per_dw_rivcan": 0.0, "per_dw_tank": 0.0, "per_dw_oth": 5.0, "per_loc_dw_wp": 45.0, "per_loc_dw_np": 50.0, "per_loc_dw_aw": 5.0, "per_light_elec": 50.0, "per_light_kero": 27.5, "per_light_solr": 10.0, "per_light_oil": 12.5, "per_light_oth": 0.0, "per_light_no": 0.0, "per_hh_latrine": 45.0, "per_fl_sewer": 10.0, "per_fl_septict": 15.0, "per_fl_othsys": 0.0, "per_pl_wslab": 20.0, "per_pl_without": 0.0, "per_ns_open": 0.0, "per_sl_ns_hum": 0.0, "per_sl_ns_anml": 0.0, "per_hh_no_lat": 55.0, "per_as_pub": 0.0, "per_as_open": 55.0, "per_hh_bathrm": 40.0, "per_hh_en_wrf": 7.5, "per_hh_no_btrm": 52.5, "per_wwoc_drain": 12.5, "per_wwoc_open": 55.0, "per_wwoc_nodrn": 32.5, "per_cook_fire": 95.0, "per_cook_resdu": 0.0, "per_cook_cwdng": 5.0, "per_cook_coal": 0.0, "per_cook_kero": 0.0, "per_cook_lpng": 0.0, "per_cook_elec": 0.0, "per_cook_biogs": 0.0, "per_cook_oth": 0.0, "per_cook_no": 0.0, "per_kf_inside": 82.5, "per_kf_in_has": 80.0, "per_kf_in_does": 2.5, "per_kf_outside": 17.5, "per_kf_out_has": 10.0, "per_kf_out_dos": 7.5, "per_kf_no_cook": 0.0, "per_hh_banking": 100.0, "per_hh_radio": 40.0, "per_hh_tv": 32.5, "per_hh_cmp_int": 0.0, "per_hh_cmp_wnt": 2.5, "per_hh_ph_ll": 0.0, "per_hh_ph_mob": 57.5, "per_hh_ph_bth": 0.0, "per_hh_bcycl": 0.0, "per_hh_2wheel": 0.0, "per_hh_4wheel": 0.0, "per_hh_tvcomp": null, "per_hh_no_ast": 25.0, "per_hs_perma": 100.0, "per_hs_sperma": 0.0, "per_hs_temp": 0.0, "per_hs_servc": 0.0, "per_hs_nservc": 0.0, "per_hs_unclss": 0.0, "avghhsz_cy": 4.85, "st_areashape": 2041500.522174835, "st_lengthshape": 6403.125173095965}, "geometry": {"type": "Polygon", "coordinates": [[[79.09530978318156, 29.960032153122683], [79.09522524273015, 29.95948273630499], [79.09536218909861, 29.959407773001338], [79.0954296211354, 29.959333005768293], [79.09547029595316, 29.959200605046203], [79.09554472496771, 29.958269800087187], [79.09543416661074, 29.956580817684852], [79.09514377361873, 29.953927136072654], [79.09479931641967, 29.952411230370778], [79.09414846004688, 29.949882131028673], [79.09387045302599, 29.94876701786111], [79.09356081542566, 29.947895445863658], [79.09415441318225, 29.94761821583654], [79.09480122533965, 29.947253224622678], [79.09550294522217, 29.94673388700294], [79.0962573171601, 29.946148972370835], [79.09693797514244, 29.945451663246242], [79.09779597673155, 29.944802125646643], [79.09826989643445, 29.94421185281844], [79.09849055860082, 29.943550161653917], [79.09859896010276, 29.94230541572048], [79.09855035855097, 29.941194659289287], [79.09921258759526, 29.941229475873048], [79.10030986803672, 29.94120598692103], [79.10094717961167, 29.941218125669646], [79.1017917522856, 29.941101027240048], [79.102025304378, 29.94107901804434], [79.10204503497492, 29.941315089261252], [79.10227167542952, 29.942014955688002], [79.1028166186337, 29.943300503961016], [79.10346620568701, 29.94483920065105], [79.10411952613863, 29.94627084881024], [79.10436885534236, 29.94695182179322], [79.1044696319442, 29.947359463689082], [79.10456120620425, 29.948134028270164], [79.10450325768193, 29.948673901213223], [79.10445017084189, 29.949020661062196], [79.10423785492279, 29.949518952360712], [79.10401196995132, 29.950557959289497], [79.10366409106936, 29.951150264853784], [79.1035405376835, 29.951650243046046], [79.1034787084391, 29.952344597726235], [79.10340234625008, 29.952624660947876], [79.1034102936454, 29.953360816785967], [79.10355381119015, 29.953961552031977], [79.10377081002679, 29.954793691090146], [79.1041922456592, 29.955905716830703], [79.10444161169383, 29.956702976315437], [79.10466109886384, 29.95707959333569], [79.10479444478463, 29.957284556900003], [79.10461341808521, 29.957384671720405], [79.10386182014487, 29.957858674912746], [79.10341947981749, 29.95820539883873], [79.10259528722239, 29.958522640758073], [79.1020537459382, 29.9587564913638], [79.10171841023254, 29.958905478727665], [79.10115361695554, 29.95905009969132], [79.10074344889175, 29.959131059165166], [79.10023410322735, 29.95909916196684], [79.09957176818183, 29.959064350082706], [79.09908736064803, 29.95905512196216], [79.09819278055888, 29.959126860322623], [79.09762575317174, 29.959360209849724], [79.09680319461216, 29.959610883349654], [79.09598232578364, 29.959794982267464], [79.09530978318156, 29.960032153122683]]]}}]}