{"type": "FeatureCollection", "features": [{"type": "Feature", "properties": {"premiumdata.sde.IN_Village_PCA.area": 0.36944076, "objectid": 421289, "id": "552307585084", "name": "Kot", "subdistrict": "Pauri", "district": "Pauri Garhwal", "state": "Uttarakhand", "country": "India", "censusname": "Kot", "villagename_locallang": null, "lgd_villagename": "Kot", "lgd_villagecode": 45648, "lgd_subdistrictcode": 307, "lgd_districtcode": 52, "lgd_statecode": 5, "censuscode2001": "00554400", "censuscode2011": "045648", "censuscode2021": null, "level": "Village", "tru": "Rural", "no_hh": 116, "tot_p": 554, "tot_m": 255, "tot_f": 299, "per_tot_m": 46.02888087, "per_tot_f": 53.97111913, "p_06": 62, "m_06": 34, "f_06": 28, "per_p_06": 11.19133574, "per_m_06": 54.83870968, "per_f_06": 45.16129032, "p_sc": 248, "m_sc": 118, "f_sc": 130, "per_p_sc": 44.76534296000001, "per_m_sc": 47.58064516, "per_f_sc": 52.41935484, "p_st": 0, "m_st": 0, "f_st": 0, "per_p_st": 0.0, "per_m_st": 0.0, "per_f_st": 0.0, "p_lit": 373, "m_lit": 197, "f_lit": 176, "per_p_lit": 67.32851986, "per_m_lit": 52.8150134, "per_f_lit": 47.1849866, "p_ill": 181, "m_ill": 58, "f_ill": 123, "per_p_ill": 32.67148014, "per_m_ill": 32.0441989, "per_f_ill": 67.9558011, "tot_work_p": 263, "tot_work_m": 147, "tot_work_f": 116, "per_tot_work_p": 47.47292419, "per_tot_work_m": 55.89353612, "per_tot_work_f": 44.10646388, "mainwork_p": 126, "mainwork_m": 62, "mainwork_f": 64, "per_mainwork_p": 22.74368231, "per_mainwork_m": 49.20634921, "per_mainwork_f": 50.79365079, "main_cl_p": 91, "main_cl_m": 35, "main_cl_f": 56, "per_main_cl_p": 72.22222222, "per_main_cl_m": 38.46153846, "per_main_cl_f": 61.53846154, "main_al_p": 10, "main_al_m": 4, "main_al_f": 6, "per_main_al_p": 7.93650794, "per_main_al_m": 40.0, "per_main_al_f": 60.0, "main_hh_p": 0, "main_hh_m": 0, "main_hh_f": 0, "per_main_hh_p": 0.0, "per_main_hh_m": 0.0, "per_main_hh_f": 0.0, "main_ot_p": 25, "main_ot_m": 23, "main_ot_f": 2, "per_main_ot_p": 19.84126984, "per_main_ot_m": 92.0, "per_main_ot_f": 8.0, "margwork_p": 137, "margwork_m": 85, "margwork_f": 52, "per_margwork_p": 24.72924188, "per_margwork_m": 62.04379562, "per_margwork_f": 37.95620438, "marg_cl_p": 130, "marg_cl_m": 79, "marg_cl_f": 51, "per_marg_cl_p": 94.89051095, "per_marg_cl_m": 60.76923077, "per_marg_cl_f": 39.23076923, "marg_al_p": 3, "marg_al_m": 3, "marg_al_f": 0, "per_marg_al_p": 2.18978102, "per_marg_al_m": 100.0, "per_marg_al_f": 0.0, "marg_hh_p": 0, "marg_hh_m": 0, "marg_hh_f": 0, "per_marg_hh_p": 0.0, "per_marg_hh_m": 0.0, "per_marg_hh_f": 0.0, "marg_ot_p": 4, "marg_ot_m": 3, "marg_ot_f": 1, "per_marg_ot_p": 2.91970803, "per_marg_ot_m": 75.0, "per_marg_ot_f": 25.0, "margwork_3_6_p": 96, "margwork_3_6_m": 61, "margwork_3_6_f": 35, "per_margwork_3_6_p": 70.0729927, "per_margwork_3_6_m": 63.54166667000001, "per_margwork_3_6_f": 36.45833333, "marg_cl_3_6_p": 89, "marg_cl_3_6_m": 55, "marg_cl_3_6_f": 34, "per_marg_cl_3_6_p": 64.96350365, "per_marg_cl_3_6_m": 61.79775281, "per_marg_cl_3_6_f": 38.20224719, "marg_al_3_6_p": 3, "marg_al_3_6_m": 3, "marg_al_3_6_f": 0, "per_marg_al_3_6_p": 2.18978102, "per_marg_al_3_6_m": 100.0, "per_marg_al_3_6_f": 0.0, "marg_hh_3_6_p": 0, "marg_hh_3_6_m": 0, "marg_hh_3_6_f": 0, "per_marg_hh_3_6_p": 0.0, "per_marg_hh_3_6_m": 0.0, "per_marg_hh_3_6_f": 0.0, "marg_ot_3_6_p": 4, "marg_ot_3_6_m": 3, "marg_ot_3_6_f": 1, "per_marg_ot_3_6_p": 2.91970803, "per_marg_ot_3_6_m": 75.0, "per_marg_ot_3_6_f": 25.0, "margwork_0_3_p": 41, "margwork_0_3_m": 24, "margwork_0_3_f": 17, "per_margwork_0_3_p": 29.9270073, "per_margwork_0_3_m": 58.53658537, "per_margwork_0_3_f": 41.46341463, "marg_cl_0_3_p": 41, "marg_cl_0_3_m": 24, "marg_cl_0_3_f": 17, "per_marg_cl_0_3_p": 29.9270073, "per_marg_cl_0_3_m": 58.53658537, "per_marg_cl_0_3_f": 41.46341463, "marg_al_0_3_p": 0, "marg_al_0_3_m": 0, "marg_al_0_3_f": 0, "per_marg_al_0_3_p": 0.0, "per_marg_al_0_3_m": 0.0, "per_marg_al_0_3_f": 0.0, "marg_hh_0_3_p": 0, "marg_hh_0_3_m": 0, "marg_hh_0_3_f": 0, "per_marg_hh_0_3_p": 0.0, "per_marg_hh_0_3_m": 0.0, "per_marg_hh_0_3_f": 0.0, "marg_ot_0_3_p": 0, "marg_ot_0_3_m": 0, "marg_ot_0_3_f": 0, "per_marg_ot_0_3_p": 0.0, "per_marg_ot_0_3_m": 0.0, "per_marg_ot_0_3_f": 0.0, "non_work_p": 291, "non_work_m": 108, "non_work_f": 183, "per_non_work_p": 52.52707581, "per_non_work_m": 37.11340206, "per_non_work_f": 62.88659794, "per_hc_tot_tot": 100, "per_hc_tot_god": 86.1, "per_hc_tot_liv": 13.9, "per_hc_tot_dil": 0.0, "per_hc_res_tot": 100.0, "per_hc_res_god": 86.1, "per_hc_res_liv": 13.9, "per_hc_res_dil": 0.0, "per_hc_oth_tot": 0.0, "per_hc_oth_god": 0.0, "per_hc_oth_liv": 0.0, "per_hc_oth_dil": 0.0, "per_mt_grsbam": 0.9, "per_mt_plastic": 0.0, "per_mt_h_tiles": 0.0, "per_mt_m_tiles": 0.0, "per_mt_b_brick": 5.2, "per_mt_stone": 60.9, "per_mt_asbstos": 2.6, "per_mt_concrte": 30.4, "per_mt_oth": 0.0, "per_mw_grsbam": 0.0, "per_mw_plastic": 0.0, "per_mw_mud": 0.0, "per_mw_wood": 0.9, "per_mw_no_mrtr": 30.4, "per_mw_st_mrtr": 64.3, "per_mw_asbstos": 0.0, "per_mw_b_brick": 3.5, "per_mw_concrte": 0.0, "per_mw_oth": 0.9, "per_mf_mud": 47.0, "per_mf_wood": 0.0, "per_mf_b_brick": 1.7, "per_mf_stone": 3.5, "per_mf_cement": 47.8, "per_mf_fl_tile": 0.0, "per_mf_oth": 0.0, "per_dw_n_exrm": 0.9, "per_dw_1_room": 27.0, "per_dw_2_room": 20.9, "per_dw_3_room": 32.2, "per_dw_4_room": 16.5, "per_dw_5_room": 0.9, "per_dw_6_room": 1.7, "per_hhsize_1": 12.2, "per_hhsize_2": 16.5, "per_hhsize_3": 7.8, "per_hhsize_4": 18.3, "per_hhsize_5": 14.8, "per_hhsize_6_8": 27.8, "per_hhsize_9p": 2.6, "per_ow_owned": 95.7, "per_ow_rented": 0.9, "per_ow_oth": 3.5, "per_mc_none": 19.1, "per_mcouple_1": 60.9, "per_mcouple_2": 17.4, "per_mcouple_3": 2.6, "per_mcouple_4": 0.0, "per_mcouple_5p": 0.0, "per_dw_t_ts": 68.7, "per_dw_t_unts": 6.1, "per_dw_c_well": 0.0, "per_dw_unc_wel": 0.0, "per_dw_hpump": 25.2, "per_dw_tw_bore": 0.0, "per_dw_spring": 0.0, "per_dw_rivcan": 0.0, "per_dw_tank": 0.0, "per_dw_oth": 0.0, "per_loc_dw_wp": 7.8, "per_loc_dw_np": 49.6, "per_loc_dw_aw": 42.6, "per_light_elec": 96.5, "per_light_kero": 2.6, "per_light_solr": 0.9, "per_light_oil": 0.0, "per_light_oth": 0.0, "per_light_no": 0.0, "per_hh_latrine": 61.7, "per_fl_sewer": 0.9, "per_fl_septict": 60.9, "per_fl_othsys": 0.0, "per_pl_wslab": 0.0, "per_pl_without": 0.0, "per_ns_open": 0.0, "per_sl_ns_hum": 0.0, "per_sl_ns_anml": 0.0, "per_hh_no_lat": 38.3, "per_as_pub": 0.0, "per_as_open": 38.3, "per_hh_bathrm": 68.7, "per_hh_en_wrf": 6.1, "per_hh_no_btrm": 25.2, "per_wwoc_drain": 8.7, "per_wwoc_open": 40.9, "per_wwoc_nodrn": 50.4, "per_cook_fire": 27.0, "per_cook_resdu": 0.0, "per_cook_cwdng": 3.5, "per_cook_coal": 0.0, "per_cook_kero": 0.0, "per_cook_lpng": 68.7, "per_cook_elec": 0.0, "per_cook_biogs": 0.0, "per_cook_oth": 0.0, "per_cook_no": 0.9, "per_kf_inside": 92.2, "per_kf_in_has": 92.2, "per_kf_in_does": 0.0, "per_kf_outside": 7.0, "per_kf_out_has": 1.7, "per_kf_out_dos": 5.2, "per_kf_no_cook": 0.9, "per_hh_banking": 99.1, "per_hh_radio": 1.7, "per_hh_tv": 62.6, "per_hh_cmp_int": 0.0, "per_hh_cmp_wnt": 2.6, "per_hh_ph_ll": 2.6, "per_hh_ph_mob": 41.7, "per_hh_ph_bth": 0.9, "per_hh_bcycl": 0.0, "per_hh_2wheel": 0.0, "per_hh_4wheel": 0.9, "per_hh_tvcomp": null, "per_hh_no_ast": 18.3, "per_hs_perma": 97.4, "per_hs_sperma": 1.7, "per_hs_temp": 0.0, "per_hs_servc": 0.0, "per_hs_nservc": 0.0, "per_hs_unclss": 0.9, "avghhsz_cy": 4.77586207, "st_areashape": 495732.433747225, "st_lengthshape": 2972.091292894984}, "geometry": {"type": "Polygon", "coordinates": [[[78.70052255781044, 30.150807469277424], [78.69944376379924, 30.15131939401212], [78.69784926584802, 30.15174351996876], [78.6948709167949, 30.15231439104651], [78.6936473161565, 30.15253498022058], [78.69341046814532, 30.15229837410815], [78.69281848735623, 30.15170697130613], [78.69211532298273, 30.150740697337028], [78.69122908105604, 30.150510419241662], [78.69083446372815, 30.150528338807412], [78.69092293161397, 30.147562413330075], [78.69170279684135, 30.147940289929636], [78.6931297670769, 30.147816184156873], [78.69550226175973, 30.14728728433041], [78.69631879172543, 30.14672528097679], [78.69741712139911, 30.14767894714113], [78.69837979827841, 30.14851483085707], [78.70013445506501, 30.150517713994443], [78.70052255781044, 30.150807469277424]]]}}]}