{"type": "FeatureCollection", "features": [{"type": "Feature", "properties": {"premiumdata.sde.IN_Village_PCA.area": 0.76322704, "objectid": 499900, "id": "102121404303669", "name": "Danaganj", "subdistrict": "Naubatpur", "district": "Patna", "state": "Bihar", "country": "India", "censusname": "Danaganj", "villagename_locallang": null, "lgd_villagename": "Danaganj", "lgd_villagecode": 245503, "lgd_subdistrictcode": 1404, "lgd_districtcode": 212, "lgd_statecode": 10, "censuscode2001": "02964200", "censuscode2011": "245503", "censuscode2021": null, "level": "Village", "tru": "Rural", "no_hh": 134, "tot_p": 762, "tot_m": 431, "tot_f": 331, "per_tot_m": 56.56167979, "per_tot_f": 43.43832021, "p_06": 129, "m_06": 79, "f_06": 50, "per_p_06": 16.92913386, "per_m_06": 61.24031008, "per_f_06": 38.75968992, "p_sc": 53, "m_sc": 33, "f_sc": 20, "per_p_sc": 6.95538058, "per_m_sc": 62.26415094, "per_f_sc": 37.73584906, "p_st": 0, "m_st": 0, "f_st": 0, "per_p_st": 0.0, "per_m_st": 0.0, "per_f_st": 0.0, "p_lit": 520, "m_lit": 321, "f_lit": 199, "per_p_lit": 68.24146982, "per_m_lit": 61.73076923, "per_f_lit": 38.26923077, "p_ill": 242, "m_ill": 110, "f_ill": 132, "per_p_ill": 31.75853018, "per_m_ill": 45.45454545, "per_f_ill": 54.54545455, "tot_work_p": 227, "tot_work_m": 209, "tot_work_f": 18, "per_tot_work_p": 29.79002625, "per_tot_work_m": 92.07048458000001, "per_tot_work_f": 7.92951542, "mainwork_p": 202, "mainwork_m": 189, "mainwork_f": 13, "per_mainwork_p": 26.50918635, "per_mainwork_m": 93.56435644, "per_mainwork_f": 6.43564356, "main_cl_p": 34, "main_cl_m": 33, "main_cl_f": 1, "per_main_cl_p": 16.83168317, "per_main_cl_m": 97.05882353000001, "per_main_cl_f": 2.94117647, "main_al_p": 19, "main_al_m": 16, "main_al_f": 3, "per_main_al_p": 9.40594059, "per_main_al_m": 84.21052632, "per_main_al_f": 15.78947368, "main_hh_p": 15, "main_hh_m": 13, "main_hh_f": 2, "per_main_hh_p": 7.42574257, "per_main_hh_m": 86.66666667, "per_main_hh_f": 13.33333333, "main_ot_p": 134, "main_ot_m": 127, "main_ot_f": 7, "per_main_ot_p": 66.33663366, "per_main_ot_m": 94.7761194, "per_main_ot_f": 5.2238806, "margwork_p": 25, "margwork_m": 20, "margwork_f": 5, "per_margwork_p": 3.2808399, "per_margwork_m": 80.0, "per_margwork_f": 20.0, "marg_cl_p": 2, "marg_cl_m": 1, "marg_cl_f": 1, "per_marg_cl_p": 8.0, "per_marg_cl_m": 50.0, "per_marg_cl_f": 50.0, "marg_al_p": 10, "marg_al_m": 10, "marg_al_f": 0, "per_marg_al_p": 40.0, "per_marg_al_m": 100.0, "per_marg_al_f": 0.0, "marg_hh_p": 0, "marg_hh_m": 0, "marg_hh_f": 0, "per_marg_hh_p": 0.0, "per_marg_hh_m": 0.0, "per_marg_hh_f": 0.0, "marg_ot_p": 13, "marg_ot_m": 9, "marg_ot_f": 4, "per_marg_ot_p": 52.0, "per_marg_ot_m": 69.23076923, "per_marg_ot_f": 30.76923077, "margwork_3_6_p": 24, "margwork_3_6_m": 19, "margwork_3_6_f": 5, "per_margwork_3_6_p": 96.0, "per_margwork_3_6_m": 79.16666667, "per_margwork_3_6_f": 20.83333333, "marg_cl_3_6_p": 2, "marg_cl_3_6_m": 1, "marg_cl_3_6_f": 1, "per_marg_cl_3_6_p": 8.0, "per_marg_cl_3_6_m": 50.0, "per_marg_cl_3_6_f": 50.0, "marg_al_3_6_p": 9, "marg_al_3_6_m": 9, "marg_al_3_6_f": 0, "per_marg_al_3_6_p": 36.0, "per_marg_al_3_6_m": 100.0, "per_marg_al_3_6_f": 0.0, "marg_hh_3_6_p": 0, "marg_hh_3_6_m": 0, "marg_hh_3_6_f": 0, "per_marg_hh_3_6_p": 0.0, "per_marg_hh_3_6_m": 0.0, "per_marg_hh_3_6_f": 0.0, "marg_ot_3_6_p": 13, "marg_ot_3_6_m": 9, "marg_ot_3_6_f": 4, "per_marg_ot_3_6_p": 52.0, "per_marg_ot_3_6_m": 69.23076923, "per_marg_ot_3_6_f": 30.76923077, "margwork_0_3_p": 1, "margwork_0_3_m": 1, "margwork_0_3_f": 0, "per_margwork_0_3_p": 4.0, "per_margwork_0_3_m": 100.0, "per_margwork_0_3_f": 0.0, "marg_cl_0_3_p": 0, "marg_cl_0_3_m": 0, "marg_cl_0_3_f": 0, "per_marg_cl_0_3_p": 0.0, "per_marg_cl_0_3_m": 0.0, "per_marg_cl_0_3_f": 0.0, "marg_al_0_3_p": 1, "marg_al_0_3_m": 1, "marg_al_0_3_f": 0, "per_marg_al_0_3_p": 4.0, "per_marg_al_0_3_m": 100.0, "per_marg_al_0_3_f": 0.0, "marg_hh_0_3_p": 0, "marg_hh_0_3_m": 0, "marg_hh_0_3_f": 0, "per_marg_hh_0_3_p": 0.0, "per_marg_hh_0_3_m": 0.0, "per_marg_hh_0_3_f": 0.0, "marg_ot_0_3_p": 0, "marg_ot_0_3_m": 0, "marg_ot_0_3_f": 0, "per_marg_ot_0_3_p": 0.0, "per_marg_ot_0_3_m": 0.0, "per_marg_ot_0_3_f": 0.0, "non_work_p": 535, "non_work_m": 222, "non_work_f": 313, "per_non_work_p": 70.20997375, "per_non_work_m": 41.4953271, "per_non_work_f": 58.5046729, "per_hc_tot_tot": 100, "per_hc_tot_god": 24.3, "per_hc_tot_liv": 54.4, "per_hc_tot_dil": 21.3, "per_hc_res_tot": 99.3, "per_hc_res_god": 23.5, "per_hc_res_liv": 54.4, "per_hc_res_dil": 21.3, "per_hc_oth_tot": 0.7, "per_hc_oth_god": 0.7, "per_hc_oth_liv": 0.0, "per_hc_oth_dil": 0.0, "per_mt_grsbam": 21.3, "per_mt_plastic": 0.0, "per_mt_h_tiles": 0.7, "per_mt_m_tiles": 0.0, "per_mt_b_brick": 28.7, "per_mt_stone": 2.9, "per_mt_asbstos": 2.2, "per_mt_concrte": 19.9, "per_mt_oth": 24.3, "per_mw_grsbam": 2.2, "per_mw_plastic": 8.8, "per_mw_mud": 48.5, "per_mw_wood": 0.0, "per_mw_no_mrtr": 0.0, "per_mw_st_mrtr": 0.0, "per_mw_asbstos": 0.0, "per_mw_b_brick": 38.2, "per_mw_concrte": 1.5, "per_mw_oth": 0.7, "per_mf_mud": 78.7, "per_mf_wood": 0.7, "per_mf_b_brick": 9.6, "per_mf_stone": 0.0, "per_mf_cement": 11.0, "per_mf_fl_tile": 0.0, "per_mf_oth": 0.0, "per_dw_n_exrm": 5.1, "per_dw_1_room": 50.7, "per_dw_2_room": 24.3, "per_dw_3_room": 12.5, "per_dw_4_room": 4.4, "per_dw_5_room": 2.9, "per_dw_6_room": 0.0, "per_hhsize_1": 5.1, "per_hhsize_2": 4.4, "per_hhsize_3": 4.4, "per_hhsize_4": 15.4, "per_hhsize_5": 19.9, "per_hhsize_6_8": 36.0, "per_hhsize_9p": 14.7, "per_ow_owned": 97.8, "per_ow_rented": 2.2, "per_ow_oth": 0.0, "per_mc_none": 9.6, "per_mcouple_1": 64.7, "per_mcouple_2": 16.9, "per_mcouple_3": 8.1, "per_mcouple_4": 0.7, "per_mcouple_5p": 0.0, "per_dw_t_ts": 8.1, "per_dw_t_unts": 16.2, "per_dw_c_well": 0.7, "per_dw_unc_wel": 2.2, "per_dw_hpump": 70.6, "per_dw_tw_bore": 0.7, "per_dw_spring": 0.0, "per_dw_rivcan": 0.0, "per_dw_tank": 0.0, "per_dw_oth": 1.5, "per_loc_dw_wp": 41.9, "per_loc_dw_np": 46.3, "per_loc_dw_aw": 11.8, "per_light_elec": 36.8, "per_light_kero": 63.2, "per_light_solr": 0.0, "per_light_oil": 0.0, "per_light_oth": 0.0, "per_light_no": 0.0, "per_hh_latrine": 30.9, "per_fl_sewer": 1.5, "per_fl_septict": 27.2, "per_fl_othsys": 0.7, "per_pl_wslab": 0.7, "per_pl_without": 0.7, "per_ns_open": 0.0, "per_sl_ns_hum": 0.0, "per_sl_ns_anml": 0.0, "per_hh_no_lat": 69.1, "per_as_pub": 0.0, "per_as_open": 69.1, "per_hh_bathrm": 7.4, "per_hh_en_wrf": 58.8, "per_hh_no_btrm": 33.8, "per_wwoc_drain": 0.0, "per_wwoc_open": 70.6, "per_wwoc_nodrn": 29.4, "per_cook_fire": 1.5, "per_cook_resdu": 11.8, "per_cook_cwdng": 80.9, "per_cook_coal": 0.0, "per_cook_kero": 5.9, "per_cook_lpng": 0.0, "per_cook_elec": 0.0, "per_cook_biogs": 0.0, "per_cook_oth": 0.0, "per_cook_no": 0.0, "per_kf_inside": 93.4, "per_kf_in_has": 10.3, "per_kf_in_does": 83.1, "per_kf_outside": 6.6, "per_kf_out_has": 3.7, "per_kf_out_dos": 2.9, "per_kf_no_cook": 0.0, "per_hh_banking": 19.1, "per_hh_radio": 11.0, "per_hh_tv": 30.9, "per_hh_cmp_int": 4.4, "per_hh_cmp_wnt": 5.1, "per_hh_ph_ll": 0.0, "per_hh_ph_mob": 52.2, "per_hh_ph_bth": 2.9, "per_hh_bcycl": 30.9, "per_hh_2wheel": 11.8, "per_hh_4wheel": 0.7, "per_hh_tvcomp": 1.5, "per_hh_no_ast": 32.4, "per_hs_perma": 36.8, "per_hs_sperma": 18.4, "per_hs_temp": 19.9, "per_hs_servc": 14.7, "per_hs_nservc": 5.1, "per_hs_unclss": 25.0, "avghhsz_cy": 5.68656716, "st_areashape": 941443.17678198, "st_lengthshape": 4526.760790924857}, "geometry": {"type": "Polygon", "coordinates": [[[84.891315532958, 25.538006690315086], [84.89078075419127, 25.53836054568838], [84.89031727830191, 25.539100422099533], [84.8902816268632, 25.5396472846561], [84.89035293063888, 25.541352192945517], [84.88985380331084, 25.542381559217148], [84.88807120532566, 25.540805338164578], [84.8872868619966, 25.54064449800081], [84.88586078378809, 25.54177037380594], [84.88561122012406, 25.54218855401834], [84.88553991634838, 25.544279431580748], [84.88422079335427, 25.54424726417316], [84.87997821016748, 25.541738206535644], [84.88004951394316, 25.540354985486513], [84.88014030127904, 25.540250728940027], [84.88044168605684, 25.539904631116922], [84.88119037704894, 25.539422106353747], [84.88179646048967, 25.539003917303447], [84.88197472037803, 25.53877873779293], [84.88211732792936, 25.53826403948629], [84.88197472037803, 25.535787026331747], [84.8823312392564, 25.53549750127947], [84.88275906280876, 25.53517580730814], [84.88307993114681, 25.534628924360696], [84.88332949481081, 25.533309961205884], [84.88424000652155, 25.533290358919523], [84.88519072592608, 25.533290358919523], [84.88631970432064, 25.53377290754393], [84.88709216383685, 25.53457715228807], [84.88762694260359, 25.535327775039775], [84.88810230230585, 25.536078393904166], [84.88887476182202, 25.53693623747166], [84.88976606036546, 25.537418772237732], [84.891315532958, 25.538006690315086]]]}}]}