{"type": "FeatureCollection", "features": [{"type": "Feature", "properties": {"premiumdata.sde.IN_Village_PCA.area": 0.93816588, "objectid": 569488, "id": "9137960436230", "name": "Kotwa", "subdistrict": "Rudrapur", "district": "Deoria", "state": "Uttar Pradesh", "country": "India", "censusname": "Kotwa", "villagename_locallang": null, "lgd_villagename": "Kotwa", "lgd_villagecode": 190647, "lgd_subdistrictcode": 960, "lgd_districtcode": 137, "lgd_statecode": 9, "censuscode2001": "08371000", "censuscode2011": "190647", "censuscode2021": null, "level": "Village", "tru": "Rural", "no_hh": 221, "tot_p": 1565, "tot_m": 768, "tot_f": 797, "per_tot_m": 49.07348243, "per_tot_f": 50.92651757, "p_06": 260, "m_06": 138, "f_06": 122, "per_p_06": 16.61341853, "per_m_06": 53.07692308, "per_f_06": 46.92307692, "p_sc": 220, "m_sc": 101, "f_sc": 119, "per_p_sc": 14.05750799, "per_m_sc": 45.90909091, "per_f_sc": 54.09090909, "p_st": 14, "m_st": 5, "f_st": 9, "per_p_st": 0.89456869, "per_m_st": 35.71428571, "per_f_st": 64.28571429, "p_lit": 1000, "m_lit": 545, "f_lit": 455, "per_p_lit": 63.89776358, "per_m_lit": 54.5, "per_f_lit": 45.5, "p_ill": 565, "m_ill": 223, "f_ill": 342, "per_p_ill": 36.10223642, "per_m_ill": 39.46902655, "per_f_ill": 60.53097345, "tot_work_p": 272, "tot_work_m": 220, "tot_work_f": 52, "per_tot_work_p": 17.38019169, "per_tot_work_m": 80.88235294, "per_tot_work_f": 19.11764706, "mainwork_p": 152, "mainwork_m": 132, "mainwork_f": 20, "per_mainwork_p": 9.71246006, "per_mainwork_m": 86.84210526, "per_mainwork_f": 13.15789474, "main_cl_p": 25, "main_cl_m": 23, "main_cl_f": 2, "per_main_cl_p": 16.44736842, "per_main_cl_m": 92.0, "per_main_cl_f": 8.0, "main_al_p": 17, "main_al_m": 12, "main_al_f": 5, "per_main_al_p": 11.18421053, "per_main_al_m": 70.58823529, "per_main_al_f": 29.41176471, "main_hh_p": 2, "main_hh_m": 2, "main_hh_f": 0, "per_main_hh_p": 1.31578947, "per_main_hh_m": 100.0, "per_main_hh_f": 0.0, "main_ot_p": 108, "main_ot_m": 95, "main_ot_f": 13, "per_main_ot_p": 71.05263158, "per_main_ot_m": 87.96296296, "per_main_ot_f": 12.03703704, "margwork_p": 120, "margwork_m": 88, "margwork_f": 32, "per_margwork_p": 7.66773163, "per_margwork_m": 73.33333332999999, "per_margwork_f": 26.66666667, "marg_cl_p": 6, "marg_cl_m": 6, "marg_cl_f": 0, "per_marg_cl_p": 5.0, "per_marg_cl_m": 100.0, "per_marg_cl_f": 0.0, "marg_al_p": 35, "marg_al_m": 31, "marg_al_f": 4, "per_marg_al_p": 29.16666667, "per_marg_al_m": 88.57142857, "per_marg_al_f": 11.42857143, "marg_hh_p": 8, "marg_hh_m": 7, "marg_hh_f": 1, "per_marg_hh_p": 6.66666667, "per_marg_hh_m": 87.5, "per_marg_hh_f": 12.5, "marg_ot_p": 71, "marg_ot_m": 44, "marg_ot_f": 27, "per_marg_ot_p": 59.16666667000001, "per_marg_ot_m": 61.97183099, "per_marg_ot_f": 38.02816901, "margwork_3_6_p": 92, "margwork_3_6_m": 61, "margwork_3_6_f": 31, "per_margwork_3_6_p": 76.66666667, "per_margwork_3_6_m": 66.30434783, "per_margwork_3_6_f": 33.69565217, "marg_cl_3_6_p": 5, "marg_cl_3_6_m": 5, "marg_cl_3_6_f": 0, "per_marg_cl_3_6_p": 4.16666667, "per_marg_cl_3_6_m": 100.0, "per_marg_cl_3_6_f": 0.0, "marg_al_3_6_p": 21, "marg_al_3_6_m": 17, "marg_al_3_6_f": 4, "per_marg_al_3_6_p": 17.5, "per_marg_al_3_6_m": 80.95238095, "per_marg_al_3_6_f": 19.04761905, "marg_hh_3_6_p": 3, "marg_hh_3_6_m": 2, "marg_hh_3_6_f": 1, "per_marg_hh_3_6_p": 2.5, "per_marg_hh_3_6_m": 66.66666667, "per_marg_hh_3_6_f": 33.33333333, "marg_ot_3_6_p": 63, "marg_ot_3_6_m": 37, "marg_ot_3_6_f": 26, "per_marg_ot_3_6_p": 52.5, "per_marg_ot_3_6_m": 58.73015873, "per_marg_ot_3_6_f": 41.26984127, "margwork_0_3_p": 28, "margwork_0_3_m": 27, "margwork_0_3_f": 1, "per_margwork_0_3_p": 23.33333333, "per_margwork_0_3_m": 96.42857143, "per_margwork_0_3_f": 3.57142857, "marg_cl_0_3_p": 1, "marg_cl_0_3_m": 1, "marg_cl_0_3_f": 0, "per_marg_cl_0_3_p": 0.83333333, "per_marg_cl_0_3_m": 100.0, "per_marg_cl_0_3_f": 0.0, "marg_al_0_3_p": 14, "marg_al_0_3_m": 14, "marg_al_0_3_f": 0, "per_marg_al_0_3_p": 11.66666667, "per_marg_al_0_3_m": 100.0, "per_marg_al_0_3_f": 0.0, "marg_hh_0_3_p": 5, "marg_hh_0_3_m": 5, "marg_hh_0_3_f": 0, "per_marg_hh_0_3_p": 4.16666667, "per_marg_hh_0_3_m": 100.0, "per_marg_hh_0_3_f": 0.0, "marg_ot_0_3_p": 8, "marg_ot_0_3_m": 7, "marg_ot_0_3_f": 1, "per_marg_ot_0_3_p": 6.66666667, "per_marg_ot_0_3_m": 87.5, "per_marg_ot_0_3_f": 12.5, "non_work_p": 1293, "non_work_m": 548, "non_work_f": 745, "per_non_work_p": 82.61980831, "per_non_work_m": 42.38205723, "per_non_work_f": 57.61794277, "per_hc_tot_tot": 100, "per_hc_tot_god": 47.4, "per_hc_tot_liv": 46.2, "per_hc_tot_dil": 6.4, "per_hc_res_tot": 100.0, "per_hc_res_god": 47.4, "per_hc_res_liv": 46.2, "per_hc_res_dil": 6.4, "per_hc_oth_tot": 0.0, "per_hc_oth_god": 0.0, "per_hc_oth_liv": 0.0, "per_hc_oth_dil": 0.0, "per_mt_grsbam": 10.7, "per_mt_plastic": 0.4, "per_mt_h_tiles": 2.6, "per_mt_m_tiles": 0.0, "per_mt_b_brick": 33.3, "per_mt_stone": 3.0, "per_mt_asbstos": 5.6, "per_mt_concrte": 43.6, "per_mt_oth": 0.9, "per_mw_grsbam": 6.0, "per_mw_plastic": 0.0, "per_mw_mud": 18.4, "per_mw_wood": 0.0, "per_mw_no_mrtr": 6.8, "per_mw_st_mrtr": 3.0, "per_mw_asbstos": 0.0, "per_mw_b_brick": 63.2, "per_mw_concrte": 2.6, "per_mw_oth": 0.0, "per_mf_mud": 51.3, "per_mf_wood": 1.3, "per_mf_b_brick": 38.5, "per_mf_stone": 1.3, "per_mf_cement": 7.3, "per_mf_fl_tile": 0.4, "per_mf_oth": 0.0, "per_dw_n_exrm": 1.7, "per_dw_1_room": 19.7, "per_dw_2_room": 34.6, "per_dw_3_room": 20.5, "per_dw_4_room": 16.7, "per_dw_5_room": 3.8, "per_dw_6_room": 3.0, "per_hhsize_1": 3.4, "per_hhsize_2": 1.3, "per_hhsize_3": 5.6, "per_hhsize_4": 9.0, "per_hhsize_5": 16.7, "per_hhsize_6_8": 35.5, "per_hhsize_9p": 28.6, "per_ow_owned": 99.1, "per_ow_rented": 0.9, "per_ow_oth": 0.0, "per_mc_none": 5.6, "per_mcouple_1": 39.3, "per_mcouple_2": 39.3, "per_mcouple_3": 12.0, "per_mcouple_4": 3.4, "per_mcouple_5p": 0.4, "per_dw_t_ts": 52.6, "per_dw_t_unts": 6.0, "per_dw_c_well": 0.4, "per_dw_unc_wel": 0.0, "per_dw_hpump": 41.0, "per_dw_tw_bore": 0.0, "per_dw_spring": 0.0, "per_dw_rivcan": 0.0, "per_dw_tank": 0.0, "per_dw_oth": 0.0, "per_loc_dw_wp": 56.8, "per_loc_dw_np": 41.0, "per_loc_dw_aw": 2.1, "per_light_elec": 45.3, "per_light_kero": 54.7, "per_light_solr": 0.0, "per_light_oil": 0.0, "per_light_oth": 0.0, "per_light_no": 0.0, "per_hh_latrine": 32.5, "per_fl_sewer": 3.4, "per_fl_septict": 27.8, "per_fl_othsys": 0.0, "per_pl_wslab": 0.0, "per_pl_without": 0.0, "per_ns_open": 0.0, "per_sl_ns_hum": 0.0, "per_sl_ns_anml": 1.3, "per_hh_no_lat": 67.5, "per_as_pub": 0.0, "per_as_open": 67.5, "per_hh_bathrm": 5.1, "per_hh_en_wrf": 50.9, "per_hh_no_btrm": 44.0, "per_wwoc_drain": 12.0, "per_wwoc_open": 54.3, "per_wwoc_nodrn": 33.8, "per_cook_fire": 87.2, "per_cook_resdu": 9.0, "per_cook_cwdng": 0.0, "per_cook_coal": 0.0, "per_cook_kero": 0.0, "per_cook_lpng": 3.4, "per_cook_elec": 0.0, "per_cook_biogs": 0.0, "per_cook_oth": 0.0, "per_cook_no": 0.4, "per_kf_inside": 91.9, "per_kf_in_has": 21.4, "per_kf_in_does": 70.5, "per_kf_outside": 7.7, "per_kf_out_has": 3.0, "per_kf_out_dos": 4.7, "per_kf_no_cook": 0.4, "per_hh_banking": 90.6, "per_hh_radio": 6.4, "per_hh_tv": 24.8, "per_hh_cmp_int": 0.0, "per_hh_cmp_wnt": 6.8, "per_hh_ph_ll": 1.7, "per_hh_ph_mob": 81.6, "per_hh_ph_bth": 0.4, "per_hh_bcycl": 74.4, "per_hh_2wheel": 16.7, "per_hh_4wheel": 1.3, "per_hh_tvcomp": 0.4, "per_hh_no_ast": 4.7, "per_hs_perma": 73.5, "per_hs_sperma": 16.7, "per_hs_temp": 9.0, "per_hs_servc": 3.0, "per_hs_nservc": 6.0, "per_hs_unclss": 0.9, "avghhsz_cy": 7.08144796, "st_areashape": 1174104.87813066, "st_lengthshape": 5134.957321112289}, "geometry": {"type": "Polygon", "coordinates": [[[83.62684001571547, 26.4028291743918], [83.62680665228582, 26.40279957674143], [83.6266108914191, 26.402625883398933], [83.62627040836684, 26.402584358910456], [83.62563874000851, 26.40258847853177], [83.62449900069517, 26.402858371337953], [83.62352967358783, 26.4031708788562], [83.62326294850861, 26.40323821901595], [83.62299553801485, 26.40321808608806], [83.62263041686927, 26.403132982549117], [83.62231352088148, 26.40300381847809], [83.6219232361282, 26.40280951128596], [83.62165546002007, 26.402745645997168], [83.62109633690915, 26.40270553203784], [83.62027066478878, 26.40275463914985], [83.61995413800854, 26.402669199745556], [83.6195402527161, 26.4025625329613], [83.61922231198761, 26.402302129903653], [83.61883238296718, 26.40215155969024], [83.61846761575785, 26.402110191931396], [83.61798242489311, 26.40220081267352], [83.61742573262333, 26.402466866766623], [83.61627676851032, 26.40297401811059], [83.61632606266322, 26.401325052986245], [83.6162316694898, 26.399256128364893], [83.61601159931318, 26.398446626356417], [83.61562316239443, 26.397017872755868], [83.61541423132734, 26.3963471641042], [83.61731720805216, 26.39685083565784], [83.61850899754974, 26.397018090012025], [83.6199916175188, 26.39709595619374], [83.62096248613517, 26.39698030111748], [83.62178777377659, 26.3968874465824], [83.62215130131082, 26.396775730883444], [83.62265954653903, 26.39653184722811], [83.62321478443633, 26.39609079526262], [83.62372232358872, 26.39575941938935], [83.62415714232222, 26.395450388066294], [83.62447226593399, 26.395360856367247], [83.62478807585863, 26.395358798841638], [83.6250793357249, 26.395324090463024], [83.62566352452721, 26.395462445140225], [83.62593232740969, 26.395657538785468], [83.62627472836505, 26.39593963034942], [83.62656854034503, 26.396222039063964], [83.62688540758678, 26.39635119704517], [83.62739663791665, 26.396479099618325], [83.62783426927531, 26.39651997292276], [83.62807826158794, 26.396649604512373], [83.62832348818577, 26.396932342202398], [83.62837799526228, 26.396996876155466], [83.62941316887994, 26.398222589557516], [83.63014975058195, 26.399180109478255], [83.6303465714607, 26.399485018326406], [83.63049499470524, 26.399812117341277], [83.6306912873746, 26.40005142456556], [83.63100836033054, 26.400202445697776], [83.63115535615205, 26.40035458104373], [83.63122964862266, 26.400529066339786], [83.63123106257093, 26.400704014032414], [83.63115995013641, 26.400923198953286], [83.63074747430065, 26.40099152126197], [83.63052846593273, 26.400949208457636], [83.6303576961972, 26.400862848834382], [83.63025964688057, 26.400754123755842], [83.63013729274562, 26.400645573178945], [83.62991775526996, 26.40053765815593], [83.62955298985725, 26.400496298669516], [83.62940739091603, 26.400519125161953], [83.62928821322392, 26.40080422862974], [83.62921798024004, 26.401132758549984], [83.62919633802824, 26.401460969709643], [83.62927115870825, 26.40170105721485], [83.62937010723846, 26.40191912825988], [83.62949369655693, 26.402180768877077], [83.62952151378802, 26.402618023131748], [83.6295210843933, 26.402997470904698], [83.62911518512378, 26.40285011280381], [83.62867770917367, 26.402831099827914], [83.62824092133307, 26.402899560204922], [83.62761138198195, 26.403166138097163], [83.62739290002675, 26.4031894234935], [83.6271980177124, 26.40312509093669], [83.62700241494915, 26.40297327062711], [83.62684001571547, 26.4028291743918]]]}}]}