{"type": "FeatureCollection", "features": [{"type": "Feature", "properties": {"premiumdata.sde.IN_Village_PCA.area": 12.36599977, "objectid": 280289, "id": "223823301253537", "name": "Agarpani", "subdistrict": "Pandariya", "district": "Kabirdham", "state": "Chhattisgarh", "country": "India", "censusname": "Agarpani", "villagename_locallang": "\u0905\u0917\u0930\u092a\u093e\u0928\u0940", "lgd_villagename": "Agarpani", "lgd_villagecode": 439786, "lgd_subdistrictcode": 3301, "lgd_districtcode": 382, "lgd_statecode": 22, "censuscode2001": "00866200", "censuscode2011": "439786", "censuscode2021": null, "level": "Village", "tru": "Rural", "no_hh": 84, "tot_p": 427, "tot_m": 198, "tot_f": 229, "per_tot_m": 46.37002342, "per_tot_f": 53.62997658, "p_06": 85, "m_06": 31, "f_06": 54, "per_p_06": 19.90632319, "per_m_06": 36.47058824, "per_f_06": 63.52941176, "p_sc": 0, "m_sc": 0, "f_sc": 0, "per_p_sc": 0.0, "per_m_sc": 0.0, "per_f_sc": 0.0, "p_st": 389, "m_st": 178, "f_st": 211, "per_p_st": 91.10070258, "per_m_st": 45.75835476, "per_f_st": 54.24164524, "p_lit": 94, "m_lit": 64, "f_lit": 30, "per_p_lit": 22.01405152, "per_m_lit": 68.08510638, "per_f_lit": 31.91489362, "p_ill": 333, "m_ill": 134, "f_ill": 199, "per_p_ill": 77.98594848, "per_m_ill": 40.24024024, "per_f_ill": 59.75975976, "tot_work_p": 225, "tot_work_m": 106, "tot_work_f": 119, "per_tot_work_p": 52.69320843, "per_tot_work_m": 47.11111111, "per_tot_work_f": 52.88888889, "mainwork_p": 201, "mainwork_m": 94, "mainwork_f": 107, "per_mainwork_p": 47.07259953, "per_mainwork_m": 46.76616915, "per_mainwork_f": 53.23383085, "main_cl_p": 195, "main_cl_m": 94, "main_cl_f": 101, "per_main_cl_p": 97.01492537, "per_main_cl_m": 48.20512821000001, "per_main_cl_f": 51.79487179, "main_al_p": 1, "main_al_m": 0, "main_al_f": 1, "per_main_al_p": 0.49751244, "per_main_al_m": 0.0, "per_main_al_f": 100.0, "main_hh_p": 0, "main_hh_m": 0, "main_hh_f": 0, "per_main_hh_p": 0.0, "per_main_hh_m": 0.0, "per_main_hh_f": 0.0, "main_ot_p": 5, "main_ot_m": 0, "main_ot_f": 5, "per_main_ot_p": 2.48756219, "per_main_ot_m": 0.0, "per_main_ot_f": 100.0, "margwork_p": 24, "margwork_m": 12, "margwork_f": 12, "per_margwork_p": 5.6206089, "per_margwork_m": 50.0, "per_margwork_f": 50.0, "marg_cl_p": 16, "marg_cl_m": 9, "marg_cl_f": 7, "per_marg_cl_p": 66.66666667, "per_marg_cl_m": 56.25, "per_marg_cl_f": 43.75, "marg_al_p": 8, "marg_al_m": 3, "marg_al_f": 5, "per_marg_al_p": 33.33333333, "per_marg_al_m": 37.5, "per_marg_al_f": 62.5, "marg_hh_p": 0, "marg_hh_m": 0, "marg_hh_f": 0, "per_marg_hh_p": 0.0, "per_marg_hh_m": 0.0, "per_marg_hh_f": 0.0, "marg_ot_p": 0, "marg_ot_m": 0, "marg_ot_f": 0, "per_marg_ot_p": 0.0, "per_marg_ot_m": 0.0, "per_marg_ot_f": 0.0, "margwork_3_6_p": 23, "margwork_3_6_m": 11, "margwork_3_6_f": 12, "per_margwork_3_6_p": 95.83333332999999, "per_margwork_3_6_m": 47.82608696, "per_margwork_3_6_f": 52.17391304, "marg_cl_3_6_p": 15, "marg_cl_3_6_m": 8, "marg_cl_3_6_f": 7, "per_marg_cl_3_6_p": 62.5, "per_marg_cl_3_6_m": 53.33333333, "per_marg_cl_3_6_f": 46.66666667000001, "marg_al_3_6_p": 8, "marg_al_3_6_m": 3, "marg_al_3_6_f": 5, "per_marg_al_3_6_p": 33.33333333, "per_marg_al_3_6_m": 37.5, "per_marg_al_3_6_f": 62.5, "marg_hh_3_6_p": 0, "marg_hh_3_6_m": 0, "marg_hh_3_6_f": 0, "per_marg_hh_3_6_p": 0.0, "per_marg_hh_3_6_m": 0.0, "per_marg_hh_3_6_f": 0.0, "marg_ot_3_6_p": 0, "marg_ot_3_6_m": 0, "marg_ot_3_6_f": 0, "per_marg_ot_3_6_p": 0.0, "per_marg_ot_3_6_m": 0.0, "per_marg_ot_3_6_f": 0.0, "margwork_0_3_p": 1, "margwork_0_3_m": 1, "margwork_0_3_f": 0, "per_margwork_0_3_p": 4.16666667, "per_margwork_0_3_m": 100.0, "per_margwork_0_3_f": 0.0, "marg_cl_0_3_p": 1, "marg_cl_0_3_m": 1, "marg_cl_0_3_f": 0, "per_marg_cl_0_3_p": 4.16666667, "per_marg_cl_0_3_m": 100.0, "per_marg_cl_0_3_f": 0.0, "marg_al_0_3_p": 0, "marg_al_0_3_m": 0, "marg_al_0_3_f": 0, "per_marg_al_0_3_p": 0.0, "per_marg_al_0_3_m": 0.0, "per_marg_al_0_3_f": 0.0, "marg_hh_0_3_p": 0, "marg_hh_0_3_m": 0, "marg_hh_0_3_f": 0, "per_marg_hh_0_3_p": 0.0, "per_marg_hh_0_3_m": 0.0, "per_marg_hh_0_3_f": 0.0, "marg_ot_0_3_p": 0, "marg_ot_0_3_m": 0, "marg_ot_0_3_f": 0, "per_marg_ot_0_3_p": 0.0, "per_marg_ot_0_3_m": 0.0, "per_marg_ot_0_3_f": 0.0, "non_work_p": 202, "non_work_m": 92, "non_work_f": 110, "per_non_work_p": 47.30679157, "per_non_work_m": 45.54455446, "per_non_work_f": 54.45544554, "per_hc_tot_tot": 100, "per_hc_tot_god": 98.8, "per_hc_tot_liv": 1.2, "per_hc_tot_dil": 0.0, "per_hc_res_tot": 100.0, "per_hc_res_god": 98.8, "per_hc_res_liv": 1.2, "per_hc_res_dil": 0.0, "per_hc_oth_tot": 0.0, "per_hc_oth_god": 0.0, "per_hc_oth_liv": 0.0, "per_hc_oth_dil": 0.0, "per_mt_grsbam": 100.0, "per_mt_plastic": 0.0, "per_mt_h_tiles": 0.0, "per_mt_m_tiles": 0.0, "per_mt_b_brick": 0.0, "per_mt_stone": 0.0, "per_mt_asbstos": 0.0, "per_mt_concrte": 0.0, "per_mt_oth": 0.0, "per_mw_grsbam": 1.2, "per_mw_plastic": 0.0, "per_mw_mud": 95.2, "per_mw_wood": 0.0, "per_mw_no_mrtr": 2.4, "per_mw_st_mrtr": 0.0, "per_mw_asbstos": 0.0, "per_mw_b_brick": 1.2, "per_mw_concrte": 0.0, "per_mw_oth": 0.0, "per_mf_mud": 100.0, "per_mf_wood": 0.0, "per_mf_b_brick": 0.0, "per_mf_stone": 0.0, "per_mf_cement": 0.0, "per_mf_fl_tile": 0.0, "per_mf_oth": 0.0, "per_dw_n_exrm": 79.8, "per_dw_1_room": 15.5, "per_dw_2_room": 4.8, "per_dw_3_room": 0.0, "per_dw_4_room": 0.0, "per_dw_5_room": 0.0, "per_dw_6_room": 0.0, "per_hhsize_1": 3.6, "per_hhsize_2": 11.9, "per_hhsize_3": 9.5, "per_hhsize_4": 9.5, "per_hhsize_5": 25.0, "per_hhsize_6_8": 36.9, "per_hhsize_9p": 3.6, "per_ow_owned": 100.0, "per_ow_rented": 0.0, "per_ow_oth": 0.0, "per_mc_none": 6.0, "per_mcouple_1": 76.2, "per_mcouple_2": 16.7, "per_mcouple_3": 1.2, "per_mcouple_4": 0.0, "per_mcouple_5p": 0.0, "per_dw_t_ts": 0.0, "per_dw_t_unts": 0.0, "per_dw_c_well": 0.0, "per_dw_unc_wel": 100.0, "per_dw_hpump": 0.0, "per_dw_tw_bore": 0.0, "per_dw_spring": 0.0, "per_dw_rivcan": 0.0, "per_dw_tank": 0.0, "per_dw_oth": 0.0, "per_loc_dw_wp": 0.0, "per_loc_dw_np": 0.0, "per_loc_dw_aw": 100.0, "per_light_elec": 0.0, "per_light_kero": 1.2, "per_light_solr": 98.8, "per_light_oil": 0.0, "per_light_oth": 0.0, "per_light_no": 0.0, "per_hh_latrine": 0.0, "per_fl_sewer": 0.0, "per_fl_septict": 0.0, "per_fl_othsys": 0.0, "per_pl_wslab": 0.0, "per_pl_without": 0.0, "per_ns_open": 0.0, "per_sl_ns_hum": 0.0, "per_sl_ns_anml": 0.0, "per_hh_no_lat": 100.0, "per_as_pub": 0.0, "per_as_open": 100.0, "per_hh_bathrm": 0.0, "per_hh_en_wrf": 0.0, "per_hh_no_btrm": 100.0, "per_wwoc_drain": 0.0, "per_wwoc_open": 1.2, "per_wwoc_nodrn": 98.8, "per_cook_fire": 100.0, "per_cook_resdu": 0.0, "per_cook_cwdng": 0.0, "per_cook_coal": 0.0, "per_cook_kero": 0.0, "per_cook_lpng": 0.0, "per_cook_elec": 0.0, "per_cook_biogs": 0.0, "per_cook_oth": 0.0, "per_cook_no": 0.0, "per_kf_inside": 100.0, "per_kf_in_has": 0.0, "per_kf_in_does": 100.0, "per_kf_outside": 0.0, "per_kf_out_has": 0.0, "per_kf_out_dos": 0.0, "per_kf_no_cook": 0.0, "per_hh_banking": 100.0, "per_hh_radio": 41.7, "per_hh_tv": 0.0, "per_hh_cmp_int": 0.0, "per_hh_cmp_wnt": 1.2, "per_hh_ph_ll": 1.2, "per_hh_ph_mob": 3.6, "per_hh_ph_bth": 0.0, "per_hh_bcycl": 32.1, "per_hh_2wheel": 0.0, "per_hh_4wheel": 0.0, "per_hh_tvcomp": 0.0, "per_hh_no_ast": 45.2, "per_hs_perma": 0.0, "per_hs_sperma": 3.6, "per_hs_temp": 96.4, "per_hs_servc": 95.2, "per_hs_nservc": 1.2, "per_hs_unclss": 0.0, "avghhsz_cy": 5.08333333, "st_areashape": 14543399.365354376, "st_lengthshape": 18744.322522724593}, "geometry": {"type": "Polygon", "coordinates": [[[81.40178571448823, 22.44020552992588], [81.4011426734584, 22.440012797933004], [81.399700067147, 22.439710518902512], [81.39854407820849, 22.439814554169306], [81.39641178315118, 22.44008124324889], [81.3950421937027, 22.4411560656678], [81.39496949304676, 22.442131381304304], [81.39496958287826, 22.442632608290488], [81.39428475581468, 22.44354027367455], [81.39338158783141, 22.445319353129992], [81.39334770607381, 22.44625859056149], [81.39320209365783, 22.447364854861966], [81.39299085931036, 22.448989801777824], [81.39298374016172, 22.44904455864068], [81.39280008409348, 22.449191646461312], [81.391686944794, 22.45008314245104], [81.39063777362757, 22.451058587095677], [81.39005984159124, 22.45226420390477], [81.38995318910911, 22.453609767637634], [81.39024033828463, 22.454286563234266], [81.36370034893555, 22.445088314876166], [81.34317595214107, 22.44298056694272], [81.3476631268168, 22.440893250293467], [81.34978125005216, 22.43669805968138], [81.35095798558217, 22.432502741398007], [81.3552278541974, 22.432502741398007], [81.3649107048134, 22.433901194641304], [81.36914695218246, 22.432782433506155], [81.37368578897015, 22.426629083574248], [81.3755013227869, 22.420755177229946], [81.37714725377974, 22.4154297859633], [81.38397381752506, 22.414881021585856], [81.3842764069437, 22.417398547283447], [81.39184113432431, 22.420195743985897], [81.3991032722863, 22.42774789430717], [81.40061621758275, 22.435299634622897], [81.40178571448823, 22.44020552992588]]]}}]}