{"type": "FeatureCollection", "features": [{"type": "Feature", "properties": {"premiumdata.sde.IN_Village_PCA.area": 10.5638891, "objectid": 85486, "id": "366944581682747", "name": "Rakonda", "subdistrict": "Telkapally", "district": "Nagarkurnool", "state": "Telangana", "country": "India", "censusname": "Rakonda", "villagename_locallang": "\u0c30\u0c3e\u0c15\u0c4a\u0c02\u0c21", "lgd_villagename": "Rakonda", "lgd_villagecode": 575682, "lgd_subdistrictcode": 4581, "lgd_districtcode": 694, "lgd_statecode": 36, "censuscode2001": "00669900", "censuscode2011": "575682", "censuscode2021": null, "level": "Village", "tru": "Rural", "no_hh": 386, "tot_p": 1689, "tot_m": 837, "tot_f": 852, "per_tot_m": 49.55595027, "per_tot_f": 50.44404973, "p_06": 176, "m_06": 93, "f_06": 83, "per_p_06": 10.42036708, "per_m_06": 52.84090909, "per_f_06": 47.15909091, "p_sc": 481, "m_sc": 230, "f_sc": 251, "per_p_sc": 28.47838958, "per_m_sc": 47.81704782, "per_f_sc": 52.18295218, "p_st": 36, "m_st": 14, "f_st": 22, "per_p_st": 2.13143872, "per_m_st": 38.88888889, "per_f_st": 61.11111111, "p_lit": 752, "m_lit": 444, "f_lit": 308, "per_p_lit": 44.52338662, "per_m_lit": 59.04255319, "per_f_lit": 40.95744681, "p_ill": 937, "m_ill": 393, "f_ill": 544, "per_p_ill": 55.47661338, "per_m_ill": 41.94236926, "per_f_ill": 58.05763074, "tot_work_p": 1045, "tot_work_m": 542, "tot_work_f": 503, "per_tot_work_p": 61.87092954, "per_tot_work_m": 51.86602871, "per_tot_work_f": 48.13397129, "mainwork_p": 968, "mainwork_m": 508, "mainwork_f": 460, "per_mainwork_p": 57.31201895, "per_mainwork_m": 52.47933884, "per_mainwork_f": 47.52066116, "main_cl_p": 232, "main_cl_m": 151, "main_cl_f": 81, "per_main_cl_p": 23.96694215, "per_main_cl_m": 65.0862069, "per_main_cl_f": 34.9137931, "main_al_p": 570, "main_al_m": 233, "main_al_f": 337, "per_main_al_p": 58.88429752, "per_main_al_m": 40.87719298, "per_main_al_f": 59.12280702, "main_hh_p": 28, "main_hh_m": 14, "main_hh_f": 14, "per_main_hh_p": 2.89256198, "per_main_hh_m": 50.0, "per_main_hh_f": 50.0, "main_ot_p": 138, "main_ot_m": 110, "main_ot_f": 28, "per_main_ot_p": 14.25619835, "per_main_ot_m": 79.71014493, "per_main_ot_f": 20.28985507, "margwork_p": 77, "margwork_m": 34, "margwork_f": 43, "per_margwork_p": 4.5589106, "per_margwork_m": 44.15584416, "per_margwork_f": 55.84415584, "marg_cl_p": 9, "marg_cl_m": 8, "marg_cl_f": 1, "per_marg_cl_p": 11.68831169, "per_marg_cl_m": 88.88888889, "per_marg_cl_f": 11.11111111, "marg_al_p": 50, "marg_al_m": 15, "marg_al_f": 35, "per_marg_al_p": 64.93506494, "per_marg_al_m": 30.0, "per_marg_al_f": 70.0, "marg_hh_p": 3, "marg_hh_m": 1, "marg_hh_f": 2, "per_marg_hh_p": 3.8961039, "per_marg_hh_m": 33.33333333, "per_marg_hh_f": 66.66666667, "marg_ot_p": 15, "marg_ot_m": 10, "marg_ot_f": 5, "per_marg_ot_p": 19.48051948, "per_marg_ot_m": 66.66666667, "per_marg_ot_f": 33.33333333, "margwork_3_6_p": 75, "margwork_3_6_m": 33, "margwork_3_6_f": 42, "per_margwork_3_6_p": 97.4025974, "per_margwork_3_6_m": 44.0, "per_margwork_3_6_f": 56.0, "marg_cl_3_6_p": 9, "marg_cl_3_6_m": 8, "marg_cl_3_6_f": 1, "per_marg_cl_3_6_p": 11.68831169, "per_marg_cl_3_6_m": 88.88888889, "per_marg_cl_3_6_f": 11.11111111, "marg_al_3_6_p": 49, "marg_al_3_6_m": 15, "marg_al_3_6_f": 34, "per_marg_al_3_6_p": 63.63636364, "per_marg_al_3_6_m": 30.6122449, "per_marg_al_3_6_f": 69.3877551, "marg_hh_3_6_p": 3, "marg_hh_3_6_m": 1, "marg_hh_3_6_f": 2, "per_marg_hh_3_6_p": 3.8961039, "per_marg_hh_3_6_m": 33.33333333, "per_marg_hh_3_6_f": 66.66666667, "marg_ot_3_6_p": 14, "marg_ot_3_6_m": 9, "marg_ot_3_6_f": 5, "per_marg_ot_3_6_p": 18.18181818, "per_marg_ot_3_6_m": 64.28571429, "per_marg_ot_3_6_f": 35.71428571, "margwork_0_3_p": 2, "margwork_0_3_m": 1, "margwork_0_3_f": 1, "per_margwork_0_3_p": 2.5974026, "per_margwork_0_3_m": 50.0, "per_margwork_0_3_f": 50.0, "marg_cl_0_3_p": 0, "marg_cl_0_3_m": 0, "marg_cl_0_3_f": 0, "per_marg_cl_0_3_p": 0.0, "per_marg_cl_0_3_m": 0.0, "per_marg_cl_0_3_f": 0.0, "marg_al_0_3_p": 1, "marg_al_0_3_m": 0, "marg_al_0_3_f": 1, "per_marg_al_0_3_p": 1.2987013, "per_marg_al_0_3_m": 0.0, "per_marg_al_0_3_f": 100.0, "marg_hh_0_3_p": 0, "marg_hh_0_3_m": 0, "marg_hh_0_3_f": 0, "per_marg_hh_0_3_p": 0.0, "per_marg_hh_0_3_m": 0.0, "per_marg_hh_0_3_f": 0.0, "marg_ot_0_3_p": 1, "marg_ot_0_3_m": 1, "marg_ot_0_3_f": 0, "per_marg_ot_0_3_p": 1.2987013, "per_marg_ot_0_3_m": 100.0, "per_marg_ot_0_3_f": 0.0, "non_work_p": 644, "non_work_m": 295, "non_work_f": 349, "per_non_work_p": 38.12907046, "per_non_work_m": 45.80745342, "per_non_work_f": 54.19254658000001, "per_hc_tot_tot": 100, "per_hc_tot_god": 80.4, "per_hc_tot_liv": 14.4, "per_hc_tot_dil": 5.1, "per_hc_res_tot": 98.9, "per_hc_res_god": 79.5, "per_hc_res_liv": 14.3, "per_hc_res_dil": 5.1, "per_hc_oth_tot": 1.1, "per_hc_oth_god": 1.0, "per_hc_oth_liv": 0.2, "per_hc_oth_dil": 0.0, "per_mt_grsbam": 41.8, "per_mt_plastic": 0.0, "per_mt_h_tiles": 0.0, "per_mt_m_tiles": 2.9, "per_mt_b_brick": 0.0, "per_mt_stone": 0.6, "per_mt_asbstos": 3.8, "per_mt_concrte": 50.8, "per_mt_oth": 0.2, "per_mw_grsbam": 1.0, "per_mw_plastic": 0.0, "per_mw_mud": 21.1, "per_mw_wood": 0.0, "per_mw_no_mrtr": 9.9, "per_mw_st_mrtr": 20.3, "per_mw_asbstos": 0.0, "per_mw_b_brick": 32.7, "per_mw_concrte": 14.6, "per_mw_oth": 0.4, "per_mf_mud": 38.6, "per_mf_wood": 0.0, "per_mf_b_brick": 0.0, "per_mf_stone": 35.2, "per_mf_cement": 25.7, "per_mf_fl_tile": 0.4, "per_mf_oth": 0.2, "per_dw_n_exrm": 0.8, "per_dw_1_room": 16.0, "per_dw_2_room": 48.7, "per_dw_3_room": 10.6, "per_dw_4_room": 18.6, "per_dw_5_room": 1.9, "per_dw_6_room": 3.4, "per_hhsize_1": 3.4, "per_hhsize_2": 7.8, "per_hhsize_3": 11.6, "per_hhsize_4": 29.7, "per_hhsize_5": 19.8, "per_hhsize_6_8": 24.0, "per_hhsize_9p": 3.8, "per_ow_owned": 96.6, "per_ow_rented": 3.2, "per_ow_oth": 0.2, "per_mc_none": 9.7, "per_mcouple_1": 70.0, "per_mcouple_2": 18.3, "per_mcouple_3": 1.5, "per_mcouple_4": 0.2, "per_mcouple_5p": 0.4, "per_dw_t_ts": 95.4, "per_dw_t_unts": 0.8, "per_dw_c_well": 0.0, "per_dw_unc_wel": 0.2, "per_dw_hpump": 3.0, "per_dw_tw_bore": 0.2, "per_dw_spring": 0.0, "per_dw_rivcan": 0.0, "per_dw_tank": 0.0, "per_dw_oth": 0.4, "per_loc_dw_wp": 72.8, "per_loc_dw_np": 10.6, "per_loc_dw_aw": 16.5, "per_light_elec": 81.7, "per_light_kero": 16.7, "per_light_solr": 0.0, "per_light_oil": 0.6, "per_light_oth": 0.6, "per_light_no": 0.4, "per_hh_latrine": 27.2, "per_fl_sewer": 0.8, "per_fl_septict": 10.3, "per_fl_othsys": 0.2, "per_pl_wslab": 10.8, "per_pl_without": 4.8, "per_ns_open": 0.2, "per_sl_ns_hum": 0.0, "per_sl_ns_anml": 0.2, "per_hh_no_lat": 72.8, "per_as_pub": 0.2, "per_as_open": 72.6, "per_hh_bathrm": 16.5, "per_hh_en_wrf": 42.2, "per_hh_no_btrm": 41.3, "per_wwoc_drain": 11.6, "per_wwoc_open": 60.1, "per_wwoc_nodrn": 28.3, "per_cook_fire": 80.2, "per_cook_resdu": 0.6, "per_cook_cwdng": 0.0, "per_cook_coal": 0.0, "per_cook_kero": 0.4, "per_cook_lpng": 18.3, "per_cook_elec": 0.0, "per_cook_biogs": 0.2, "per_cook_oth": 0.0, "per_cook_no": 0.4, "per_kf_inside": 36.1, "per_kf_in_has": 24.7, "per_kf_in_does": 11.4, "per_kf_outside": 63.5, "per_kf_out_has": 8.6, "per_kf_out_dos": 54.9, "per_kf_no_cook": 0.4, "per_hh_banking": 66.7, "per_hh_radio": 1.7, "per_hh_tv": 42.6, "per_hh_cmp_int": 0.8, "per_hh_cmp_wnt": 0.2, "per_hh_ph_ll": 1.7, "per_hh_ph_mob": 62.5, "per_hh_ph_bth": 4.4, "per_hh_bcycl": 12.5, "per_hh_2wheel": 9.1, "per_hh_4wheel": 1.3, "per_hh_tvcomp": 0.2, "per_hh_no_ast": 24.3, "per_hs_perma": 56.3, "per_hs_sperma": 22.6, "per_hs_temp": 20.5, "per_hs_servc": 19.6, "per_hs_nservc": 1.0, "per_hs_unclss": 0.6, "avghhsz_cy": 4.37564767, "st_areashape": 11549423.4514973, "st_lengthshape": 13435.957042982007}, "geometry": {"type": "Polygon", "coordinates": [[[78.47322999996912, 16.46148000010657], [78.47327999929949, 16.460720000025436], [78.47324000001484, 16.4578500001652], [78.47299999981534, 16.451480000062052], [78.47277000055989, 16.448380000714774], [78.47212000028155, 16.44643000079412], [78.47205000085964, 16.444900000143143], [78.47240000066402, 16.442310000173244], [78.47263999996524, 16.43966000067509], [78.47314000045574, 16.438469999921264], [78.47404000008103, 16.437819999673703], [78.47780000021233, 16.436129999877075], [78.48141000055581, 16.43373999958962], [78.48271000021414, 16.431800000002788], [78.48308000011002, 16.430940000206327], [78.4841499996146, 16.430169999332662], [78.48708000044083, 16.428919999719653], [78.48944999960379, 16.42714000026167], [78.4953500005409, 16.42885999952909], [78.50098000024298, 16.436520000406375], [78.50702000002387, 16.445739999814315], [78.50915999993134, 16.44985000004253], [78.50818999998587, 16.450450000014214], [78.50627999933384, 16.451670000151108], [78.50354000027502, 16.453299999527335], [78.50145999974369, 16.45440999947264], [78.49937000006491, 16.455530000485457], [78.49521999994624, 16.458189999910932], [78.49392000028787, 16.459379999496107], [78.49364999995115, 16.460139999659898], [78.49394000037938, 16.46101999980117], [78.49408000012147, 16.461400000056926], [78.49198000039694, 16.460070000211445], [78.49094000013126, 16.459980000144974], [78.49055999929135, 16.459999999876207], [78.49005000055173, 16.46080000035564], [78.48884000040674, 16.46191999978955], [78.48713999981697, 16.46310000047118], [78.48540999998832, 16.46414999984328], [78.4847899998472, 16.464250000635516], [78.48394000045063, 16.46419999938437], [78.48275999954457, 16.463929999641703], [78.48004000057725, 16.463140000149416], [78.47556999989314, 16.46187999985962], [78.47366999928684, 16.46148000010657], [78.47322999996912, 16.46148000010657]]]}}]}