{"type": "FeatureCollection", "features": [{"type": "Feature", "properties": {"premiumdata.sde.IN_Village_PCA.area": 2.46905912, "objectid": 104678, "id": "366854374675391", "name": "Chinna Devada", "subdistrict": "Bichkunda", "district": "Kamareddy", "state": "Telangana", "country": "India", "censusname": "Chinna Devada", "villagename_locallang": "\u0c1a\u0c3f\u0c28\u0c4d\u0c28 \u0c26\u0c47\u0c35\u0c21", "lgd_villagename": "Chinna Devada", "lgd_villagecode": 571138, "lgd_subdistrictcode": 4374, "lgd_districtcode": 685, "lgd_statecode": 36, "censuscode2001": "00218200", "censuscode2011": "571138", "censuscode2021": null, "level": "Village", "tru": "Rural", "no_hh": 253, "tot_p": 1048, "tot_m": 513, "tot_f": 535, "per_tot_m": 48.95038168, "per_tot_f": 51.04961832, "p_06": 120, "m_06": 56, "f_06": 64, "per_p_06": 11.45038168, "per_m_06": 46.66666667000001, "per_f_06": 53.33333333, "p_sc": 174, "m_sc": 90, "f_sc": 84, "per_p_sc": 16.60305344, "per_m_sc": 51.72413793, "per_f_sc": 48.27586207, "p_st": 0, "m_st": 0, "f_st": 0, "per_p_st": 16.60305344, "per_m_st": 0.0, "per_f_st": 0.0, "p_lit": 466, "m_lit": 275, "f_lit": 191, "per_p_lit": 44.46564885, "per_m_lit": 59.01287554, "per_f_lit": 40.98712446, "p_ill": 582, "m_ill": 238, "f_ill": 344, "per_p_ill": 55.53435115, "per_m_ill": 40.89347079, "per_f_ill": 59.10652921, "tot_work_p": 561, "tot_work_m": 296, "tot_work_f": 265, "per_tot_work_p": 53.53053435, "per_tot_work_m": 52.76292335, "per_tot_work_f": 47.23707665, "mainwork_p": 188, "mainwork_m": 117, "mainwork_f": 71, "per_mainwork_p": 17.9389313, "per_mainwork_m": 62.23404255000001, "per_mainwork_f": 37.76595745, "main_cl_p": 134, "main_cl_m": 68, "main_cl_f": 66, "per_main_cl_p": 71.27659574, "per_main_cl_m": 50.74626866, "per_main_cl_f": 49.25373134, "main_al_p": 4, "main_al_m": 3, "main_al_f": 1, "per_main_al_p": 2.12765957, "per_main_al_m": 75.0, "per_main_al_f": 25.0, "main_hh_p": 9, "main_hh_m": 7, "main_hh_f": 2, "per_main_hh_p": 4.78723404, "per_main_hh_m": 77.77777778, "per_main_hh_f": 22.22222222, "main_ot_p": 41, "main_ot_m": 39, "main_ot_f": 2, "per_main_ot_p": 21.80851064, "per_main_ot_m": 95.12195122, "per_main_ot_f": 4.87804878, "margwork_p": 373, "margwork_m": 179, "margwork_f": 194, "per_margwork_p": 35.59160305, "per_margwork_m": 47.98927614, "per_margwork_f": 52.01072386, "marg_cl_p": 25, "marg_cl_m": 18, "marg_cl_f": 7, "per_marg_cl_p": 6.70241287, "per_marg_cl_m": 72.0, "per_marg_cl_f": 28.0, "marg_al_p": 343, "marg_al_m": 156, "marg_al_f": 187, "per_marg_al_p": 91.95710456, "per_marg_al_m": 45.48104956, "per_marg_al_f": 54.51895044, "marg_hh_p": 2, "marg_hh_m": 2, "marg_hh_f": 0, "per_marg_hh_p": 0.53619303, "per_marg_hh_m": 100.0, "per_marg_hh_f": 0.0, "marg_ot_p": 3, "marg_ot_m": 3, "marg_ot_f": 0, "per_marg_ot_p": 0.80428954, "per_marg_ot_m": 100.0, "per_marg_ot_f": 0.0, "margwork_3_6_p": 371, "margwork_3_6_m": 179, "margwork_3_6_f": 192, "per_margwork_3_6_p": 99.46380697000001, "per_margwork_3_6_m": 48.24797844, "per_margwork_3_6_f": 51.75202156, "marg_cl_3_6_p": 24, "marg_cl_3_6_m": 18, "marg_cl_3_6_f": 6, "per_marg_cl_3_6_p": 6.43431635, "per_marg_cl_3_6_m": 75.0, "per_marg_cl_3_6_f": 25.0, "marg_al_3_6_p": 342, "marg_al_3_6_m": 156, "marg_al_3_6_f": 186, "per_marg_al_3_6_p": 91.68900804, "per_marg_al_3_6_m": 45.61403509, "per_marg_al_3_6_f": 54.38596491, "marg_hh_3_6_p": 2, "marg_hh_3_6_m": 2, "marg_hh_3_6_f": 0, "per_marg_hh_3_6_p": 0.53619303, "per_marg_hh_3_6_m": 100.0, "per_marg_hh_3_6_f": 0.0, "marg_ot_3_6_p": 3, "marg_ot_3_6_m": 3, "marg_ot_3_6_f": 0, "per_marg_ot_3_6_p": 0.80428954, "per_marg_ot_3_6_m": 100.0, "per_marg_ot_3_6_f": 0.0, "margwork_0_3_p": 2, "margwork_0_3_m": 0, "margwork_0_3_f": 2, "per_margwork_0_3_p": 0.53619303, "per_margwork_0_3_m": 0.0, "per_margwork_0_3_f": 100.0, "marg_cl_0_3_p": 1, "marg_cl_0_3_m": 0, "marg_cl_0_3_f": 1, "per_marg_cl_0_3_p": 0.26809651, "per_marg_cl_0_3_m": 0.0, "per_marg_cl_0_3_f": 100.0, "marg_al_0_3_p": 1, "marg_al_0_3_m": 0, "marg_al_0_3_f": 1, "per_marg_al_0_3_p": 0.26809651, "per_marg_al_0_3_m": 0.0, "per_marg_al_0_3_f": 100.0, "marg_hh_0_3_p": 0, "marg_hh_0_3_m": 0, "marg_hh_0_3_f": 0, "per_marg_hh_0_3_p": 0.0, "per_marg_hh_0_3_m": 0.0, "per_marg_hh_0_3_f": 0.0, "marg_ot_0_3_p": 0, "marg_ot_0_3_m": 0, "marg_ot_0_3_f": 0, "per_marg_ot_0_3_p": 0.0, "per_marg_ot_0_3_m": 0.0, "per_marg_ot_0_3_f": 0.0, "non_work_p": 487, "non_work_m": 217, "non_work_f": 270, "per_non_work_p": 46.46946565, "per_non_work_m": 44.55852156, "per_non_work_f": 55.44147844, "per_hc_tot_tot": 100, "per_hc_tot_god": 68.8, "per_hc_tot_liv": 29.3, "per_hc_tot_dil": 1.9, "per_hc_res_tot": 100.0, "per_hc_res_god": 68.8, "per_hc_res_liv": 29.3, "per_hc_res_dil": 1.9, "per_hc_oth_tot": 0.0, "per_hc_oth_god": 0.0, "per_hc_oth_liv": 0.0, "per_hc_oth_dil": 0.0, "per_mt_grsbam": 5.6, "per_mt_plastic": 0.0, "per_mt_h_tiles": 63.5, "per_mt_m_tiles": 10.5, "per_mt_b_brick": 0.0, "per_mt_stone": 0.4, "per_mt_asbstos": 7.5, "per_mt_concrte": 12.4, "per_mt_oth": 0.0, "per_mw_grsbam": 6.8, "per_mw_plastic": 0.0, "per_mw_mud": 25.9, "per_mw_wood": 0.0, "per_mw_no_mrtr": 18.8, "per_mw_st_mrtr": 8.6, "per_mw_asbstos": 0.8, "per_mw_b_brick": 39.1, "per_mw_concrte": 0.0, "per_mw_oth": 0.0, "per_mf_mud": 67.7, "per_mf_wood": 0.0, "per_mf_b_brick": 0.0, "per_mf_stone": 19.5, "per_mf_cement": 12.8, "per_mf_fl_tile": 0.0, "per_mf_oth": 0.0, "per_dw_n_exrm": 0.4, "per_dw_1_room": 35.3, "per_dw_2_room": 53.4, "per_dw_3_room": 2.3, "per_dw_4_room": 8.6, "per_dw_5_room": 0.0, "per_dw_6_room": 0.0, "per_hhsize_1": 3.8, "per_hhsize_2": 14.3, "per_hhsize_3": 16.9, "per_hhsize_4": 25.2, "per_hhsize_5": 22.6, "per_hhsize_6_8": 16.9, "per_hhsize_9p": 0.4, "per_ow_owned": 100.0, "per_ow_rented": 0.0, "per_ow_oth": 0.0, "per_mc_none": 10.2, "per_mcouple_1": 78.9, "per_mcouple_2": 10.2, "per_mcouple_3": 0.8, "per_mcouple_4": 0.0, "per_mcouple_5p": 0.0, "per_dw_t_ts": 0.8, "per_dw_t_unts": 99.2, "per_dw_c_well": 0.0, "per_dw_unc_wel": 0.0, "per_dw_hpump": 0.0, "per_dw_tw_bore": 0.0, "per_dw_spring": 0.0, "per_dw_rivcan": 0.0, "per_dw_tank": 0.0, "per_dw_oth": 0.0, "per_loc_dw_wp": 17.3, "per_loc_dw_np": 74.4, "per_loc_dw_aw": 8.3, "per_light_elec": 89.1, "per_light_kero": 10.9, "per_light_solr": 0.0, "per_light_oil": 0.0, "per_light_oth": 0.0, "per_light_no": 0.0, "per_hh_latrine": 2.3, "per_fl_sewer": 0.0, "per_fl_septict": 0.8, "per_fl_othsys": 0.0, "per_pl_wslab": 1.5, "per_pl_without": 0.0, "per_ns_open": 0.0, "per_sl_ns_hum": 0.0, "per_sl_ns_anml": 0.0, "per_hh_no_lat": 97.7, "per_as_pub": 0.0, "per_as_open": 97.7, "per_hh_bathrm": 27.8, "per_hh_en_wrf": 45.5, "per_hh_no_btrm": 26.7, "per_wwoc_drain": 1.5, "per_wwoc_open": 89.8, "per_wwoc_nodrn": 8.6, "per_cook_fire": 95.9, "per_cook_resdu": 1.1, "per_cook_cwdng": 0.0, "per_cook_coal": 0.0, "per_cook_kero": 0.0, "per_cook_lpng": 3.0, "per_cook_elec": 0.0, "per_cook_biogs": 0.0, "per_cook_oth": 0.0, "per_cook_no": 0.0, "per_kf_inside": 53.0, "per_kf_in_has": 24.1, "per_kf_in_does": 28.9, "per_kf_outside": 47.0, "per_kf_out_has": 45.9, "per_kf_out_dos": 1.1, "per_kf_no_cook": 0.0, "per_hh_banking": 82.7, "per_hh_radio": 5.3, "per_hh_tv": 13.9, "per_hh_cmp_int": 0.0, "per_hh_cmp_wnt": 0.4, "per_hh_ph_ll": 0.4, "per_hh_ph_mob": 71.8, "per_hh_ph_bth": 0.0, "per_hh_bcycl": 33.1, "per_hh_2wheel": 6.8, "per_hh_4wheel": 0.0, "per_hh_tvcomp": 0.0, "per_hh_no_ast": 26.3, "per_hs_perma": 67.3, "per_hs_sperma": 27.1, "per_hs_temp": 5.6, "per_hs_servc": 1.1, "per_hs_nservc": 4.5, "per_hs_unclss": 0.0, "avghhsz_cy": 4.14229249, "st_areashape": 2757089.9443134, "st_lengthshape": 6799.959162780334}, "geometry": {"type": "Polygon", "coordinates": [[[77.74879000006145, 18.40962999999102], [77.74624000007512, 18.409199999656124], [77.7426199996859, 18.408839999738984], [77.73889999973757, 18.40885000031506], [77.73880999932587, 18.4088599991859], [77.7376900004909, 18.406209999382476], [77.73696999989235, 18.4042599995792], [77.73672999969281, 18.40284000025167], [77.73650000043736, 18.40059000077676], [77.73633999970548, 18.39854000063002], [77.73580999997607, 18.39612000027979], [77.7349600005795, 18.394399999913126], [77.73726999946798, 18.39378999946946], [77.74560999988827, 18.391939999967725], [77.74835999989112, 18.391659999598104], [77.74992999988622, 18.39189000069619], [77.75090000073001, 18.392059999865097], [77.75101000033487, 18.392140000318502], [77.75084999960298, 18.39511000002944], [77.75019000017723, 18.397889999771817], [77.74895000079334, 18.4016000004342], [77.748560000806, 18.403840000337336], [77.74850000053154, 18.40547000009028], [77.74867000041084, 18.407599999660228], [77.74879000006145, 18.40962999999102]]]}}]}