{"type": "FeatureCollection", "features": [{"type": "Feature", "properties": {"premiumdata.sde.IN_Village_PCA.area": 0.87957304, "objectid": 191531, "id": "21355293661179", "name": "Jalapadakandha", "subdistrict": "Kujang", "district": "Jagatsinghapur", "state": "Odisha", "country": "India", "censusname": "Jalapadakandha", "villagename_locallang": null, "lgd_villagename": "Jalapadakandha", "lgd_villagecode": 397275, "lgd_subdistrictcode": 2936, "lgd_districtcode": 355, "lgd_statecode": 21, "censuscode2001": "01753500", "censuscode2011": "397275", "censuscode2021": null, "level": "Village", "tru": "Rural", "no_hh": 3, "tot_p": 11, "tot_m": 8, "tot_f": 3, "per_tot_m": 72.72727273, "per_tot_f": 27.27272727, "p_06": 1, "m_06": 1, "f_06": 0, "per_p_06": 9.09090909, "per_m_06": 100.0, "per_f_06": 0.0, "p_sc": 0, "m_sc": 0, "f_sc": 0, "per_p_sc": 0.0, "per_m_sc": 0.0, "per_f_sc": 0.0, "p_st": 0, "m_st": 0, "f_st": 0, "per_p_st": 0.0, "per_m_st": 0.0, "per_f_st": 0.0, "p_lit": 10, "m_lit": 7, "f_lit": 3, "per_p_lit": 90.90909091, "per_m_lit": 70.0, "per_f_lit": 30.0, "p_ill": 1, "m_ill": 1, "f_ill": 0, "per_p_ill": 9.09090909, "per_m_ill": 100.0, "per_f_ill": 0.0, "tot_work_p": 7, "tot_work_m": 7, "tot_work_f": 0, "per_tot_work_p": 63.63636364, "per_tot_work_m": 100.0, "per_tot_work_f": 0.0, "mainwork_p": 3, "mainwork_m": 3, "mainwork_f": 0, "per_mainwork_p": 27.27272727, "per_mainwork_m": 100.0, "per_mainwork_f": 0.0, "main_cl_p": 3, "main_cl_m": 3, "main_cl_f": 0, "per_main_cl_p": 100.0, "per_main_cl_m": 100.0, "per_main_cl_f": 0.0, "main_al_p": 0, "main_al_m": 0, "main_al_f": 0, "per_main_al_p": 0.0, "per_main_al_m": 0.0, "per_main_al_f": 0.0, "main_hh_p": 0, "main_hh_m": 0, "main_hh_f": 0, "per_main_hh_p": 0.0, "per_main_hh_m": 0.0, "per_main_hh_f": 0.0, "main_ot_p": 0, "main_ot_m": 0, "main_ot_f": 0, "per_main_ot_p": 0.0, "per_main_ot_m": 0.0, "per_main_ot_f": 0.0, "margwork_p": 4, "margwork_m": 4, "margwork_f": 0, "per_margwork_p": 36.36363636, "per_margwork_m": 100.0, "per_margwork_f": 0.0, "marg_cl_p": 0, "marg_cl_m": 0, "marg_cl_f": 0, "per_marg_cl_p": 0.0, "per_marg_cl_m": 0.0, "per_marg_cl_f": 0.0, "marg_al_p": 0, "marg_al_m": 0, "marg_al_f": 0, "per_marg_al_p": 0.0, "per_marg_al_m": 0.0, "per_marg_al_f": 0.0, "marg_hh_p": 0, "marg_hh_m": 0, "marg_hh_f": 0, "per_marg_hh_p": 0.0, "per_marg_hh_m": 0.0, "per_marg_hh_f": 0.0, "marg_ot_p": 4, "marg_ot_m": 4, "marg_ot_f": 0, "per_marg_ot_p": 100.0, "per_marg_ot_m": 100.0, "per_marg_ot_f": 0.0, "margwork_3_6_p": 4, "margwork_3_6_m": 4, "margwork_3_6_f": 0, "per_margwork_3_6_p": 100.0, "per_margwork_3_6_m": 100.0, "per_margwork_3_6_f": 0.0, "marg_cl_3_6_p": 0, "marg_cl_3_6_m": 0, "marg_cl_3_6_f": 0, "per_marg_cl_3_6_p": 0.0, "per_marg_cl_3_6_m": 0.0, "per_marg_cl_3_6_f": 0.0, "marg_al_3_6_p": 0, "marg_al_3_6_m": 0, "marg_al_3_6_f": 0, "per_marg_al_3_6_p": 0.0, "per_marg_al_3_6_m": 0.0, "per_marg_al_3_6_f": 0.0, "marg_hh_3_6_p": 0, "marg_hh_3_6_m": 0, "marg_hh_3_6_f": 0, "per_marg_hh_3_6_p": 0.0, "per_marg_hh_3_6_m": 0.0, "per_marg_hh_3_6_f": 0.0, "marg_ot_3_6_p": 4, "marg_ot_3_6_m": 4, "marg_ot_3_6_f": 0, "per_marg_ot_3_6_p": 100.0, "per_marg_ot_3_6_m": 100.0, "per_marg_ot_3_6_f": 0.0, "margwork_0_3_p": 0, "margwork_0_3_m": 0, "margwork_0_3_f": 0, "per_margwork_0_3_p": 0.0, "per_margwork_0_3_m": 0.0, "per_margwork_0_3_f": 0.0, "marg_cl_0_3_p": 0, "marg_cl_0_3_m": 0, "marg_cl_0_3_f": 0, "per_marg_cl_0_3_p": 0.0, "per_marg_cl_0_3_m": 0.0, "per_marg_cl_0_3_f": 0.0, "marg_al_0_3_p": 0, "marg_al_0_3_m": 0, "marg_al_0_3_f": 0, "per_marg_al_0_3_p": 0.0, "per_marg_al_0_3_m": 0.0, "per_marg_al_0_3_f": 0.0, "marg_hh_0_3_p": 0, "marg_hh_0_3_m": 0, "marg_hh_0_3_f": 0, "per_marg_hh_0_3_p": 0.0, "per_marg_hh_0_3_m": 0.0, "per_marg_hh_0_3_f": 0.0, "marg_ot_0_3_p": 0, "marg_ot_0_3_m": 0, "marg_ot_0_3_f": 0, "per_marg_ot_0_3_p": 0.0, "per_marg_ot_0_3_m": 0.0, "per_marg_ot_0_3_f": 0.0, "non_work_p": 4, "non_work_m": 1, "non_work_f": 3, "per_non_work_p": 36.36363636, "per_non_work_m": 25.0, "per_non_work_f": 75.0, "per_hc_tot_tot": 100, "per_hc_tot_god": 33.3, "per_hc_tot_liv": 66.7, "per_hc_tot_dil": 0.0, "per_hc_res_tot": 100.0, "per_hc_res_god": 33.3, "per_hc_res_liv": 66.7, "per_hc_res_dil": 0.0, "per_hc_oth_tot": 0.0, "per_hc_oth_god": 0.0, "per_hc_oth_liv": 0.0, "per_hc_oth_dil": 0.0, "per_mt_grsbam": 0.0, "per_mt_plastic": 0.0, "per_mt_h_tiles": 0.0, "per_mt_m_tiles": 0.0, "per_mt_b_brick": 0.0, "per_mt_stone": 0.0, "per_mt_asbstos": 0.0, "per_mt_concrte": 100.0, "per_mt_oth": 0.0, "per_mw_grsbam": 0.0, "per_mw_plastic": 0.0, "per_mw_mud": 0.0, "per_mw_wood": 0.0, "per_mw_no_mrtr": 0.0, "per_mw_st_mrtr": 0.0, "per_mw_asbstos": 0.0, "per_mw_b_brick": 100.0, "per_mw_concrte": 0.0, "per_mw_oth": 0.0, "per_mf_mud": 0.0, "per_mf_wood": 0.0, "per_mf_b_brick": 0.0, "per_mf_stone": 0.0, "per_mf_cement": 100.0, "per_mf_fl_tile": 0.0, "per_mf_oth": 0.0, "per_dw_n_exrm": 0.0, "per_dw_1_room": 33.3, "per_dw_2_room": 0.0, "per_dw_3_room": 0.0, "per_dw_4_room": 0.0, "per_dw_5_room": 0.0, "per_dw_6_room": 66.7, "per_hhsize_1": 0.0, "per_hhsize_2": 0.0, "per_hhsize_3": 66.7, "per_hhsize_4": 0.0, "per_hhsize_5": 33.3, "per_hhsize_6_8": 0.0, "per_hhsize_9p": 0.0, "per_ow_owned": 100.0, "per_ow_rented": 0.0, "per_ow_oth": 0.0, "per_mc_none": 33.3, "per_mcouple_1": 66.7, "per_mcouple_2": 0.0, "per_mcouple_3": 0.0, "per_mcouple_4": 0.0, "per_mcouple_5p": 0.0, "per_dw_t_ts": 0.0, "per_dw_t_unts": 0.0, "per_dw_c_well": 0.0, "per_dw_unc_wel": 0.0, "per_dw_hpump": 0.0, "per_dw_tw_bore": 100.0, "per_dw_spring": 0.0, "per_dw_rivcan": 0.0, "per_dw_tank": 0.0, "per_dw_oth": 0.0, "per_loc_dw_wp": 100.0, "per_loc_dw_np": 0.0, "per_loc_dw_aw": 0.0, "per_light_elec": 0.0, "per_light_kero": 100.0, "per_light_solr": 0.0, "per_light_oil": 0.0, "per_light_oth": 0.0, "per_light_no": 0.0, "per_hh_latrine": 0.0, "per_fl_sewer": 0.0, "per_fl_septict": 0.0, "per_fl_othsys": 0.0, "per_pl_wslab": 0.0, "per_pl_without": 0.0, "per_ns_open": 0.0, "per_sl_ns_hum": 0.0, "per_sl_ns_anml": 0.0, "per_hh_no_lat": 100.0, "per_as_pub": 0.0, "per_as_open": 100.0, "per_hh_bathrm": 0.0, "per_hh_en_wrf": 0.0, "per_hh_no_btrm": 100.0, "per_wwoc_drain": 0.0, "per_wwoc_open": 0.0, "per_wwoc_nodrn": 100.0, "per_cook_fire": 100.0, "per_cook_resdu": 0.0, "per_cook_cwdng": 0.0, "per_cook_coal": 0.0, "per_cook_kero": 0.0, "per_cook_lpng": 0.0, "per_cook_elec": 0.0, "per_cook_biogs": 0.0, "per_cook_oth": 0.0, "per_cook_no": 0.0, "per_kf_inside": 100.0, "per_kf_in_has": 100.0, "per_kf_in_does": 0.0, "per_kf_outside": 0.0, "per_kf_out_has": 0.0, "per_kf_out_dos": 0.0, "per_kf_no_cook": 0.0, "per_hh_banking": 100.0, "per_hh_radio": 0.0, "per_hh_tv": 0.0, "per_hh_cmp_int": 0.0, "per_hh_cmp_wnt": 0.0, "per_hh_ph_ll": 0.0, "per_hh_ph_mob": 0.0, "per_hh_ph_bth": 0.0, "per_hh_bcycl": 100.0, "per_hh_2wheel": 33.3, "per_hh_4wheel": 0.0, "per_hh_tvcomp": 0.0, "per_hh_no_ast": 0.0, "per_hs_perma": 100.0, "per_hs_sperma": 0.0, "per_hs_temp": 0.0, "per_hs_servc": 0.0, "per_hs_nservc": 0.0, "per_hs_unclss": 0.0, "avghhsz_cy": 3.66666667, "st_areashape": 1004515.34793045, "st_lengthshape": 4244.40991129494}, "geometry": {"type": "Polygon", "coordinates": [[[86.55020434015653, 20.265697844244126], [86.54992203020542, 20.26573977730887], [86.55014332029423, 20.265415598861463], [86.55020427996938, 20.26530304085037], [86.55015087871904, 20.26490634709477], [86.54985338723962, 20.264397049835786], [86.54938027961379, 20.263718028606945], [86.548602077168, 20.262697626247796], [86.54735094496276, 20.26139492487655], [86.54651933857163, 20.260261916081095], [86.54568773397716, 20.259243386325714], [86.54491710073596, 20.258167698990633], [86.54441358064615, 20.25761267727783], [86.54444406228036, 20.257374274833992], [86.5446272161904, 20.256525469965005], [86.54493235772273, 20.255678587006603], [86.54517646232478, 20.254827939009513], [86.54559606719062, 20.25409364419554], [86.5460157151756, 20.25375414765604], [86.54655742085149, 20.25358626331992], [86.54709901513627, 20.25358624140786], [86.54769413014739, 20.2537007446043], [86.54841130823932, 20.254040231990086], [86.54930390035676, 20.25454944861417], [86.55020421888395, 20.254946230360744], [86.55062382015653, 20.255003455763738], [86.55086030704496, 20.254835612388398], [86.55098242312638, 20.254551404676214], [86.55110444488469, 20.254211893124978], [86.55140198307645, 20.253929554378406], [86.55159271697083, 20.25388004161594], [86.55182920565592, 20.25381710939723], [86.55224119190981, 20.253931537416882], [86.55272190736781, 20.254326299784484], [86.55314148169096, 20.25472301130892], [86.55367552833073, 20.255402097169227], [86.55385104476419, 20.25556988599546], [86.55414854073514, 20.25585600069438], [86.55468259186651, 20.2565349931098], [86.55498016329595, 20.257328457794163], [86.55521672923612, 20.2580456421679], [86.55473600928659, 20.258459540415615], [86.55382812335142, 20.259760307055398], [86.55304238943027, 20.261400629314217], [86.55249304178626, 20.262815864409877], [86.55224894706569, 20.264059497220394], [86.55182933770826, 20.264797591027676], [86.55128766437173, 20.265247745676792], [86.55020434015653, 20.265697844244126]]]}}]}