{"type": "FeatureCollection", "features": [{"type": "Feature", "properties": {"premiumdata.sde.IN_Village_PCA.area": 0.32434763, "objectid": 478433, "id": "9135994446277", "name": "Sahpurwa", "subdistrict": "Chakia", "district": "Chandauli", "state": "Uttar Pradesh", "country": "India", "censusname": "Sahpurwa", "villagename_locallang": null, "lgd_villagename": "Sahpurwa", "lgd_villagecode": 207874, "lgd_subdistrictcode": 994, "lgd_districtcode": 135, "lgd_statecode": 9, "censuscode2001": "10093000", "censuscode2011": "207874", "censuscode2021": null, "level": "Village", "tru": "Rural", "no_hh": 2, "tot_p": 6, "tot_m": 4, "tot_f": 2, "per_tot_m": 66.66666667, "per_tot_f": 33.33333333, "p_06": 0, "m_06": 0, "f_06": 0, "per_p_06": 0.0, "per_m_06": 0.0, "per_f_06": 0.0, "p_sc": 0, "m_sc": 0, "f_sc": 0, "per_p_sc": 0.0, "per_m_sc": 0.0, "per_f_sc": 0.0, "p_st": 0, "m_st": 0, "f_st": 0, "per_p_st": 0.0, "per_m_st": 0.0, "per_f_st": 0.0, "p_lit": 3, "m_lit": 3, "f_lit": 0, "per_p_lit": 50.0, "per_m_lit": 100.0, "per_f_lit": 0.0, "p_ill": 3, "m_ill": 1, "f_ill": 2, "per_p_ill": 50.0, "per_m_ill": 33.33333333, "per_f_ill": 66.66666667, "tot_work_p": 3, "tot_work_m": 2, "tot_work_f": 1, "per_tot_work_p": 50.0, "per_tot_work_m": 66.66666667, "per_tot_work_f": 33.33333333, "mainwork_p": 2, "mainwork_m": 2, "mainwork_f": 0, "per_mainwork_p": 33.33333333, "per_mainwork_m": 100.0, "per_mainwork_f": 0.0, "main_cl_p": 1, "main_cl_m": 1, "main_cl_f": 0, "per_main_cl_p": 50.0, "per_main_cl_m": 100.0, "per_main_cl_f": 0.0, "main_al_p": 1, "main_al_m": 1, "main_al_f": 0, "per_main_al_p": 50.0, "per_main_al_m": 100.0, "per_main_al_f": 0.0, "main_hh_p": 0, "main_hh_m": 0, "main_hh_f": 0, "per_main_hh_p": 0.0, "per_main_hh_m": 0.0, "per_main_hh_f": 0.0, "main_ot_p": 0, "main_ot_m": 0, "main_ot_f": 0, "per_main_ot_p": 0.0, "per_main_ot_m": 0.0, "per_main_ot_f": 0.0, "margwork_p": 1, "margwork_m": 0, "margwork_f": 1, "per_margwork_p": 16.66666667, "per_margwork_m": 0.0, "per_margwork_f": 100.0, "marg_cl_p": 0, "marg_cl_m": 0, "marg_cl_f": 0, "per_marg_cl_p": 0.0, "per_marg_cl_m": 0.0, "per_marg_cl_f": 0.0, "marg_al_p": 1, "marg_al_m": 0, "marg_al_f": 1, "per_marg_al_p": 100.0, "per_marg_al_m": 0.0, "per_marg_al_f": 100.0, "marg_hh_p": 0, "marg_hh_m": 0, "marg_hh_f": 0, "per_marg_hh_p": 0.0, "per_marg_hh_m": 0.0, "per_marg_hh_f": 0.0, "marg_ot_p": 0, "marg_ot_m": 0, "marg_ot_f": 0, "per_marg_ot_p": 0.0, "per_marg_ot_m": 0.0, "per_marg_ot_f": 0.0, "margwork_3_6_p": 1, "margwork_3_6_m": 0, "margwork_3_6_f": 1, "per_margwork_3_6_p": 100.0, "per_margwork_3_6_m": 0.0, "per_margwork_3_6_f": 100.0, "marg_cl_3_6_p": 0, "marg_cl_3_6_m": 0, "marg_cl_3_6_f": 0, "per_marg_cl_3_6_p": 0.0, "per_marg_cl_3_6_m": 0.0, "per_marg_cl_3_6_f": 0.0, "marg_al_3_6_p": 1, "marg_al_3_6_m": 0, "marg_al_3_6_f": 1, "per_marg_al_3_6_p": 100.0, "per_marg_al_3_6_m": 0.0, "per_marg_al_3_6_f": 100.0, "marg_hh_3_6_p": 0, "marg_hh_3_6_m": 0, "marg_hh_3_6_f": 0, "per_marg_hh_3_6_p": 0.0, "per_marg_hh_3_6_m": 0.0, "per_marg_hh_3_6_f": 0.0, "marg_ot_3_6_p": 0, "marg_ot_3_6_m": 0, "marg_ot_3_6_f": 0, "per_marg_ot_3_6_p": 0.0, "per_marg_ot_3_6_m": 0.0, "per_marg_ot_3_6_f": 0.0, "margwork_0_3_p": 0, "margwork_0_3_m": 0, "margwork_0_3_f": 0, "per_margwork_0_3_p": 0.0, "per_margwork_0_3_m": 0.0, "per_margwork_0_3_f": 0.0, "marg_cl_0_3_p": 0, "marg_cl_0_3_m": 0, "marg_cl_0_3_f": 0, "per_marg_cl_0_3_p": 0.0, "per_marg_cl_0_3_m": 0.0, "per_marg_cl_0_3_f": 0.0, "marg_al_0_3_p": 0, "marg_al_0_3_m": 0, "marg_al_0_3_f": 0, "per_marg_al_0_3_p": 0.0, "per_marg_al_0_3_m": 0.0, "per_marg_al_0_3_f": 0.0, "marg_hh_0_3_p": 0, "marg_hh_0_3_m": 0, "marg_hh_0_3_f": 0, "per_marg_hh_0_3_p": 0.0, "per_marg_hh_0_3_m": 0.0, "per_marg_hh_0_3_f": 0.0, "marg_ot_0_3_p": 0, "marg_ot_0_3_m": 0, "marg_ot_0_3_f": 0, "per_marg_ot_0_3_p": 0.0, "per_marg_ot_0_3_m": 0.0, "per_marg_ot_0_3_f": 0.0, "non_work_p": 3, "non_work_m": 2, "non_work_f": 1, "per_non_work_p": 50.0, "per_non_work_m": 66.66666667, "per_non_work_f": 33.33333333, "per_hc_tot_tot": 100, "per_hc_tot_god": 0.0, "per_hc_tot_liv": 100.0, "per_hc_tot_dil": 0.0, "per_hc_res_tot": 100.0, "per_hc_res_god": 0.0, "per_hc_res_liv": 100.0, "per_hc_res_dil": 0.0, "per_hc_oth_tot": 0.0, "per_hc_oth_god": 0.0, "per_hc_oth_liv": 0.0, "per_hc_oth_dil": 0.0, "per_mt_grsbam": 0.0, "per_mt_plastic": 0.0, "per_mt_h_tiles": 50.0, "per_mt_m_tiles": 0.0, "per_mt_b_brick": 0.0, "per_mt_stone": 50.0, "per_mt_asbstos": 0.0, "per_mt_concrte": 0.0, "per_mt_oth": 0.0, "per_mw_grsbam": 0.0, "per_mw_plastic": 0.0, "per_mw_mud": 50.0, "per_mw_wood": 0.0, "per_mw_no_mrtr": 0.0, "per_mw_st_mrtr": 0.0, "per_mw_asbstos": 0.0, "per_mw_b_brick": 50.0, "per_mw_concrte": 0.0, "per_mw_oth": 0.0, "per_mf_mud": 100.0, "per_mf_wood": 0.0, "per_mf_b_brick": 0.0, "per_mf_stone": 0.0, "per_mf_cement": 0.0, "per_mf_fl_tile": 0.0, "per_mf_oth": 0.0, "per_dw_n_exrm": 0.0, "per_dw_1_room": 100.0, "per_dw_2_room": 0.0, "per_dw_3_room": 0.0, "per_dw_4_room": 0.0, "per_dw_5_room": 0.0, "per_dw_6_room": 0.0, "per_hhsize_1": 0.0, "per_hhsize_2": 50.0, "per_hhsize_3": 0.0, "per_hhsize_4": 50.0, "per_hhsize_5": 0.0, "per_hhsize_6_8": 0.0, "per_hhsize_9p": 0.0, "per_ow_owned": 100.0, "per_ow_rented": 0.0, "per_ow_oth": 0.0, "per_mc_none": 0.0, "per_mcouple_1": 100.0, "per_mcouple_2": 0.0, "per_mcouple_3": 0.0, "per_mcouple_4": 0.0, "per_mcouple_5p": 0.0, "per_dw_t_ts": 0.0, "per_dw_t_unts": 0.0, "per_dw_c_well": 0.0, "per_dw_unc_wel": 0.0, "per_dw_hpump": 100.0, "per_dw_tw_bore": 0.0, "per_dw_spring": 0.0, "per_dw_rivcan": 0.0, "per_dw_tank": 0.0, "per_dw_oth": 0.0, "per_loc_dw_wp": 0.0, "per_loc_dw_np": 100.0, "per_loc_dw_aw": 0.0, "per_light_elec": 0.0, "per_light_kero": 100.0, "per_light_solr": 0.0, "per_light_oil": 0.0, "per_light_oth": 0.0, "per_light_no": 0.0, "per_hh_latrine": 0.0, "per_fl_sewer": 0.0, "per_fl_septict": 0.0, "per_fl_othsys": 0.0, "per_pl_wslab": 0.0, "per_pl_without": 0.0, "per_ns_open": 0.0, "per_sl_ns_hum": 0.0, "per_sl_ns_anml": 0.0, "per_hh_no_lat": 100.0, "per_as_pub": 0.0, "per_as_open": 100.0, "per_hh_bathrm": 0.0, "per_hh_en_wrf": 0.0, "per_hh_no_btrm": 100.0, "per_wwoc_drain": 0.0, "per_wwoc_open": 0.0, "per_wwoc_nodrn": 100.0, "per_cook_fire": 0.0, "per_cook_resdu": 0.0, "per_cook_cwdng": 100.0, "per_cook_coal": 0.0, "per_cook_kero": 0.0, "per_cook_lpng": 0.0, "per_cook_elec": 0.0, "per_cook_biogs": 0.0, "per_cook_oth": 0.0, "per_cook_no": 0.0, "per_kf_inside": 100.0, "per_kf_in_has": 0.0, "per_kf_in_does": 100.0, "per_kf_outside": 0.0, "per_kf_out_has": 0.0, "per_kf_out_dos": 0.0, "per_kf_no_cook": 0.0, "per_hh_banking": 100.0, "per_hh_radio": 0.0, "per_hh_tv": 0.0, "per_hh_cmp_int": 0.0, "per_hh_cmp_wnt": 0.0, "per_hh_ph_ll": 0.0, "per_hh_ph_mob": 0.0, "per_hh_ph_bth": 0.0, "per_hh_bcycl": 0.0, "per_hh_2wheel": 0.0, "per_hh_4wheel": 0.0, "per_hh_tvcomp": 0.0, "per_hh_no_ast": 100.0, "per_hs_perma": 50.0, "per_hs_sperma": 50.0, "per_hs_temp": 0.0, "per_hs_servc": 0.0, "per_hs_nservc": 0.0, "per_hs_unclss": 0.0, "avghhsz_cy": 3.0, "st_areashape": 397092.87918636, "st_lengthshape": 3121.108518714316}, "geometry": {"type": "Polygon", "coordinates": [[[83.22344974075105, 25.07527733854206], [83.22352487763804, 25.07562758046992], [83.22352658353876, 25.075961428869135], [83.22320258097871, 25.077024063962245], [83.22320411619951, 25.077324549439826], [83.2232787410468, 25.077574628665047], [83.22337128099579, 25.07774117157733], [83.22395999730716, 25.078122612493203], [83.22405236747454, 25.0782557770862], [83.22410891013347, 25.078556013825025], [83.22407506251186, 25.07910702889639], [83.22398465516338, 25.079357822096764], [83.22365656437047, 25.07974314952507], [83.22349255266084, 25.079944172319628], [83.2234036949062, 25.08049541953276], [83.22340557148682, 25.08086267302541], [83.22381418277024, 25.08187922032633], [83.22401733767005, 25.082162145244993], [83.22425639104524, 25.08229467246024], [83.22473417440214, 25.08249297119121], [83.22515780551709, 25.082858418193776], [83.22519056797383, 25.082896030114554], [83.22515622807545, 25.083139135997655], [83.22499214539891, 25.083323455762024], [83.22316890493532, 25.08457251224261], [83.22265829623962, 25.08409699628694], [83.2223996056923, 25.08371414205947], [83.22177054424493, 25.082615066045413], [83.22145252985457, 25.081381100771683], [83.22132271251621, 25.081097863248065], [83.22110123917116, 25.08081502699442], [83.22019840985273, 25.079967476824486], [83.21993974984812, 25.079584617004226], [83.219865299274, 25.07936792974143], [83.21970222450722, 25.078248334804584], [83.21984016890393, 25.07803257271758], [83.22001462891863, 25.07627902626147], [83.22033873029336, 25.075109125919777], [83.22044705454023, 25.07490957929001], [83.22044772019184, 25.074908352301172], [83.2205390653815, 25.07484119498356], [83.22068565336788, 25.07482388694419], [83.2214754656404, 25.075087635747558], [83.22169548371473, 25.075086705743445], [83.22191551885707, 25.075085774925657], [83.22218987692126, 25.07495107233583], [83.22272602561881, 25.07455771369325], [83.22330194273397, 25.07506094714855], [83.22344974075105, 25.07527733854206]]]}}]}