{"type": "FeatureCollection", "features": [{"type": "Feature", "properties": {"premiumdata.sde.IN_Village_PCA.area": 7.31272329, "objectid": 1523, "id": "29547551994242", "name": "Mitla Godu", "subdistrict": "Tirthahalli", "district": "Shivamogga", "state": "Karnataka", "country": "India", "censusname": "Mitla Godu", "villagename_locallang": null, "lgd_villagename": "Mitla Godu", "lgd_villagecode": 608185, "lgd_subdistrictcode": 5519, "lgd_districtcode": 547, "lgd_statecode": 29, "censuscode2001": "01243900", "censuscode2011": "608185", "censuscode2021": null, "level": "Village", "tru": "Rural", "no_hh": 126, "tot_p": 516, "tot_m": 263, "tot_f": 253, "per_tot_m": 50.96899225, "per_tot_f": 49.03100775, "p_06": 36, "m_06": 16, "f_06": 20, "per_p_06": 6.97674419, "per_m_06": 44.44444444000001, "per_f_06": 55.55555556, "p_sc": 5, "m_sc": 2, "f_sc": 3, "per_p_sc": 0.96899225, "per_m_sc": 40.0, "per_f_sc": 60.0, "p_st": 0, "m_st": 0, "f_st": 0, "per_p_st": 0.0, "per_m_st": 0.0, "per_f_st": 0.0, "p_lit": 394, "m_lit": 221, "f_lit": 173, "per_p_lit": 76.35658915, "per_m_lit": 56.09137056, "per_f_lit": 43.90862944, "p_ill": 122, "m_ill": 42, "f_ill": 80, "per_p_ill": 23.64341085, "per_m_ill": 34.42622951, "per_f_ill": 65.57377049, "tot_work_p": 294, "tot_work_m": 172, "tot_work_f": 122, "per_tot_work_p": 56.97674419, "per_tot_work_m": 58.50340136, "per_tot_work_f": 41.49659864, "mainwork_p": 158, "mainwork_m": 137, "mainwork_f": 21, "per_mainwork_p": 30.62015504, "per_mainwork_m": 86.70886076, "per_mainwork_f": 13.29113924, "main_cl_p": 47, "main_cl_m": 41, "main_cl_f": 6, "per_main_cl_p": 29.74683544, "per_main_cl_m": 87.23404255, "per_main_cl_f": 12.76595745, "main_al_p": 91, "main_al_m": 79, "main_al_f": 12, "per_main_al_p": 57.59493671000001, "per_main_al_m": 86.81318681, "per_main_al_f": 13.18681319, "main_hh_p": 5, "main_hh_m": 5, "main_hh_f": 0, "per_main_hh_p": 3.16455696, "per_main_hh_m": 100.0, "per_main_hh_f": 0.0, "main_ot_p": 15, "main_ot_m": 12, "main_ot_f": 3, "per_main_ot_p": 9.49367089, "per_main_ot_m": 80.0, "per_main_ot_f": 20.0, "margwork_p": 136, "margwork_m": 35, "margwork_f": 101, "per_margwork_p": 26.35658915, "per_margwork_m": 25.73529412, "per_margwork_f": 74.26470588000001, "marg_cl_p": 15, "marg_cl_m": 7, "marg_cl_f": 8, "per_marg_cl_p": 11.02941176, "per_marg_cl_m": 46.66666667000001, "per_marg_cl_f": 53.33333333, "marg_al_p": 95, "marg_al_m": 18, "marg_al_f": 77, "per_marg_al_p": 69.85294118, "per_marg_al_m": 18.94736842, "per_marg_al_f": 81.05263158, "marg_hh_p": 5, "marg_hh_m": 1, "marg_hh_f": 4, "per_marg_hh_p": 3.67647059, "per_marg_hh_m": 20.0, "per_marg_hh_f": 80.0, "marg_ot_p": 21, "marg_ot_m": 9, "marg_ot_f": 12, "per_marg_ot_p": 15.44117647, "per_marg_ot_m": 42.85714286, "per_marg_ot_f": 57.14285714, "margwork_3_6_p": 120, "margwork_3_6_m": 28, "margwork_3_6_f": 92, "per_margwork_3_6_p": 88.23529412, "per_margwork_3_6_m": 23.33333333, "per_margwork_3_6_f": 76.66666667, "marg_cl_3_6_p": 15, "marg_cl_3_6_m": 7, "marg_cl_3_6_f": 8, "per_marg_cl_3_6_p": 11.02941176, "per_marg_cl_3_6_m": 46.66666667000001, "per_marg_cl_3_6_f": 53.33333333, "marg_al_3_6_p": 81, "marg_al_3_6_m": 12, "marg_al_3_6_f": 69, "per_marg_al_3_6_p": 59.55882353, "per_marg_al_3_6_m": 14.81481481, "per_marg_al_3_6_f": 85.18518519, "marg_hh_3_6_p": 4, "marg_hh_3_6_m": 1, "marg_hh_3_6_f": 3, "per_marg_hh_3_6_p": 2.94117647, "per_marg_hh_3_6_m": 25.0, "per_marg_hh_3_6_f": 75.0, "marg_ot_3_6_p": 20, "marg_ot_3_6_m": 8, "marg_ot_3_6_f": 12, "per_marg_ot_3_6_p": 14.70588235, "per_marg_ot_3_6_m": 40.0, "per_marg_ot_3_6_f": 60.0, "margwork_0_3_p": 16, "margwork_0_3_m": 7, "margwork_0_3_f": 9, "per_margwork_0_3_p": 11.76470588, "per_margwork_0_3_m": 43.75, "per_margwork_0_3_f": 56.25, "marg_cl_0_3_p": 0, "marg_cl_0_3_m": 0, "marg_cl_0_3_f": 0, "per_marg_cl_0_3_p": 0.0, "per_marg_cl_0_3_m": 0.0, "per_marg_cl_0_3_f": 0.0, "marg_al_0_3_p": 14, "marg_al_0_3_m": 6, "marg_al_0_3_f": 8, "per_marg_al_0_3_p": 10.29411765, "per_marg_al_0_3_m": 42.85714286, "per_marg_al_0_3_f": 57.14285714, "marg_hh_0_3_p": 1, "marg_hh_0_3_m": 0, "marg_hh_0_3_f": 1, "per_marg_hh_0_3_p": 0.73529412, "per_marg_hh_0_3_m": 0.0, "per_marg_hh_0_3_f": 100.0, "marg_ot_0_3_p": 1, "marg_ot_0_3_m": 1, "marg_ot_0_3_f": 0, "per_marg_ot_0_3_p": 0.73529412, "per_marg_ot_0_3_m": 100.0, "per_marg_ot_0_3_f": 0.0, "non_work_p": 222, "non_work_m": 91, "non_work_f": 131, "per_non_work_p": 43.02325581, "per_non_work_m": 40.99099099, "per_non_work_f": 59.00900901, "per_hc_tot_tot": 100, "per_hc_tot_god": 85.7, "per_hc_tot_liv": 13.5, "per_hc_tot_dil": 0.8, "per_hc_res_tot": 100.0, "per_hc_res_god": 85.7, "per_hc_res_liv": 13.5, "per_hc_res_dil": 0.8, "per_hc_oth_tot": 0.0, "per_hc_oth_god": 0.0, "per_hc_oth_liv": 0.0, "per_hc_oth_dil": 0.0, "per_mt_grsbam": 1.6, "per_mt_plastic": 0.0, "per_mt_h_tiles": 0.0, "per_mt_m_tiles": 91.3, "per_mt_b_brick": 0.0, "per_mt_stone": 0.0, "per_mt_asbstos": 1.6, "per_mt_concrte": 5.6, "per_mt_oth": 0.0, "per_mw_grsbam": 4.0, "per_mw_plastic": 0.0, "per_mw_mud": 73.8, "per_mw_wood": 1.6, "per_mw_no_mrtr": 8.7, "per_mw_st_mrtr": 2.4, "per_mw_asbstos": 0.0, "per_mw_b_brick": 4.8, "per_mw_concrte": 4.8, "per_mw_oth": 0.0, "per_mf_mud": 24.6, "per_mf_wood": 0.0, "per_mf_b_brick": 0.8, "per_mf_stone": 0.8, "per_mf_cement": 71.4, "per_mf_fl_tile": 2.4, "per_mf_oth": 0.0, "per_dw_n_exrm": 4.8, "per_dw_1_room": 7.1, "per_dw_2_room": 6.3, "per_dw_3_room": 19.0, "per_dw_4_room": 22.2, "per_dw_5_room": 14.3, "per_dw_6_room": 26.2, "per_hhsize_1": 4.0, "per_hhsize_2": 4.8, "per_hhsize_3": 20.6, "per_hhsize_4": 33.3, "per_hhsize_5": 11.9, "per_hhsize_6_8": 17.5, "per_hhsize_9p": 7.9, "per_ow_owned": 96.8, "per_ow_rented": 1.6, "per_ow_oth": 1.6, "per_mc_none": 10.3, "per_mcouple_1": 76.2, "per_mcouple_2": 11.9, "per_mcouple_3": 1.6, "per_mcouple_4": 0.0, "per_mcouple_5p": 0.0, "per_dw_t_ts": 2.4, "per_dw_t_unts": 0.8, "per_dw_c_well": 0.0, "per_dw_unc_wel": 72.2, "per_dw_hpump": 16.7, "per_dw_tw_bore": 0.0, "per_dw_spring": 7.1, "per_dw_rivcan": 0.8, "per_dw_tank": 0.0, "per_dw_oth": 0.0, "per_loc_dw_wp": 33.3, "per_loc_dw_np": 24.6, "per_loc_dw_aw": 42.1, "per_light_elec": 90.5, "per_light_kero": 8.7, "per_light_solr": 0.0, "per_light_oil": 0.0, "per_light_oth": 0.0, "per_light_no": 0.8, "per_hh_latrine": 86.5, "per_fl_sewer": 0.8, "per_fl_septict": 11.9, "per_fl_othsys": 2.4, "per_pl_wslab": 53.2, "per_pl_without": 15.1, "per_ns_open": 1.6, "per_sl_ns_hum": 0.0, "per_sl_ns_anml": 1.6, "per_hh_no_lat": 13.5, "per_as_pub": 0.8, "per_as_open": 12.7, "per_hh_bathrm": 86.5, "per_hh_en_wrf": 10.3, "per_hh_no_btrm": 3.2, "per_wwoc_drain": 23.0, "per_wwoc_open": 55.6, "per_wwoc_nodrn": 21.4, "per_cook_fire": 76.2, "per_cook_resdu": 5.6, "per_cook_cwdng": 0.0, "per_cook_coal": 0.0, "per_cook_kero": 0.0, "per_cook_lpng": 17.5, "per_cook_elec": 0.0, "per_cook_biogs": 0.0, "per_cook_oth": 0.0, "per_cook_no": 0.8, "per_kf_inside": 88.1, "per_kf_in_has": 86.5, "per_kf_in_does": 1.6, "per_kf_outside": 11.1, "per_kf_out_has": 9.5, "per_kf_out_dos": 1.6, "per_kf_no_cook": 0.8, "per_hh_banking": 81.7, "per_hh_radio": 34.9, "per_hh_tv": 58.7, "per_hh_cmp_int": 3.2, "per_hh_cmp_wnt": 7.9, "per_hh_ph_ll": 39.7, "per_hh_ph_mob": 33.3, "per_hh_ph_bth": 7.9, "per_hh_bcycl": 31.0, "per_hh_2wheel": 41.3, "per_hh_4wheel": 10.3, "per_hh_tvcomp": 2.4, "per_hh_no_ast": 4.8, "per_hs_perma": 20.6, "per_hs_sperma": 77.8, "per_hs_temp": 1.6, "per_hs_servc": 1.6, "per_hs_nservc": 0.0, "per_hs_unclss": 0.0, "avghhsz_cy": 4.0952381, "st_areashape": 7796314.40391437, "st_lengthshape": 16397.32918601005}, "geometry": {"type": "Polygon", "coordinates": [[[75.17357017505913, 13.758110319018188], [75.17154502565901, 13.757627162793348], [75.17059276294886, 13.758056646385521], [75.17013496081879, 13.757645453038931], [75.16927477093364, 13.75630338393227], [75.16859028972144, 13.755241463640786], [75.16832328346956, 13.754088003914529], [75.16763196248475, 13.75419991968994], [75.1663263672205, 13.754819240635163], [75.16677765476811, 13.753302961175443], [75.16705948861208, 13.752277001299504], [75.16730955084111, 13.751182058769274], [75.1671214723667, 13.750440188023152], [75.16663151593937, 13.749482785044108], [75.16615121909629, 13.748628683382087], [75.16610308466845, 13.747877714014793], [75.1645274827792, 13.744997465490995], [75.16544070021558, 13.742416897916778], [75.16650981128637, 13.739495123653871], [75.16790691523369, 13.73873451753322], [75.16942950574135, 13.738222545970661], [75.17036648451527, 13.737426142666527], [75.17212332061476, 13.738563860469975], [75.17481713458984, 13.738450089025443], [75.17774519415676, 13.73753991548077], [75.18207872098627, 13.73674350985702], [75.18383555708574, 13.736174647663686], [75.18371843473898, 13.735150692236626], [75.18260577244494, 13.734524939495929], [75.18112817315995, 13.733002593881679], [75.17874073410407, 13.730542836595054], [75.17592979688392, 13.727584659882542], [75.176573969791, 13.724228221019963], [75.17780375533015, 13.723090434531581], [75.17783284906723, 13.723072146824578], [75.17879929527744, 13.722464649611064], [75.17973627405141, 13.724228221019963], [75.18149310925257, 13.725707335205383], [75.18272289479167, 13.72695888607787], [75.18360131239224, 13.727584659882542], [75.18483109703305, 13.726617554683996], [75.18647080988748, 13.726560666070041], [75.18787627894669, 13.727755324937885], [75.19150707169574, 13.727527771503157], [75.19285397868332, 13.727300217847661], [75.19531354886323, 13.729575744467509], [75.19543067120996, 13.735947102399805], [75.2025226520875, 13.736130813192288], [75.20421484901237, 13.736174647663686], [75.2040879269442, 13.737252411286747], [75.20355022865279, 13.73753415533032], [75.20315673871056, 13.73802247701267], [75.20304165374289, 13.73843553032549], [75.20297460169344, 13.7390456938801], [75.20271545390366, 13.739421258030957], [75.20231235288622, 13.739862488048596], [75.20157311217092, 13.740369622656509], [75.20073787209446, 13.741008215880914], [75.20035422139958, 13.742463310616484], [75.20014323139385, 13.74320489075068], [75.19999014229975, 13.745016653745774], [75.19994603412097, 13.745123667285728], [75.19944581354324, 13.745145753399957], [75.19802561840153, 13.745308050630392], [75.1973572915931, 13.745794940774354], [75.19652188263339, 13.746606421807604], [75.19526876874461, 13.747093308379906], [75.19409919638069, 13.747093308379906], [75.19292962401673, 13.746931013259134], [75.19109172394604, 13.745794940774354], [75.18942090602663, 13.74465886190656], [75.18766654748069, 13.744577713516799], [75.1872363317147, 13.744816512056106], [75.18649697511674, 13.74522690246551], [75.18557797702151, 13.746629925730975], [75.18187051575792, 13.747086345173413], [75.18203505208369, 13.750138819676149], [75.17937942549133, 13.751494157461197], [75.17793637451383, 13.752230635917886], [75.17661646190057, 13.752298112958925], [75.17627402321595, 13.754006277669724], [75.17585812210405, 13.754973544684166], [75.17494751157862, 13.75621647377934], [75.17357017505913, 13.758110319018188]]]}}]}