{"type": "FeatureCollection", "features": [{"type": "Feature", "properties": {"premiumdata.sde.IN_Village_PCA.area": 0.68422985, "objectid": 476798, "id": "101891485294486", "name": "Dura", "subdistrict": "Deo", "district": "Aurangabad", "state": "Bihar", "country": "India", "censusname": "Dura", "villagename_locallang": "\u0926\u0941\u0930\u093e", "lgd_villagename": "Dura", "lgd_villagecode": 254393, "lgd_subdistrictcode": 1485, "lgd_districtcode": 189, "lgd_statecode": 10, "censuscode2001": "03946300", "censuscode2011": "254393", "censuscode2021": null, "level": "Village", "tru": "Rural", "no_hh": 100, "tot_p": 457, "tot_m": 241, "tot_f": 216, "per_tot_m": 52.73522976, "per_tot_f": 47.26477024, "p_06": 101, "m_06": 47, "f_06": 54, "per_p_06": 22.10065646, "per_m_06": 46.53465347, "per_f_06": 53.46534653, "p_sc": 457, "m_sc": 241, "f_sc": 216, "per_p_sc": 100.0, "per_m_sc": 52.73522976, "per_f_sc": 47.26477024, "p_st": 0, "m_st": 0, "f_st": 0, "per_p_st": 0.0, "per_m_st": 0.0, "per_f_st": 0.0, "p_lit": 82, "m_lit": 55, "f_lit": 27, "per_p_lit": 17.94310722, "per_m_lit": 67.07317073, "per_f_lit": 32.92682927, "p_ill": 375, "m_ill": 186, "f_ill": 189, "per_p_ill": 82.05689278, "per_m_ill": 49.6, "per_f_ill": 50.4, "tot_work_p": 223, "tot_work_m": 117, "tot_work_f": 106, "per_tot_work_p": 48.79649891, "per_tot_work_m": 52.46636771, "per_tot_work_f": 47.53363229, "mainwork_p": 2, "mainwork_m": 2, "mainwork_f": 0, "per_mainwork_p": 0.43763676, "per_mainwork_m": 100.0, "per_mainwork_f": 0.0, "main_cl_p": 0, "main_cl_m": 0, "main_cl_f": 0, "per_main_cl_p": 0.0, "per_main_cl_m": 0.0, "per_main_cl_f": 0.0, "main_al_p": 1, "main_al_m": 1, "main_al_f": 0, "per_main_al_p": 50.0, "per_main_al_m": 100.0, "per_main_al_f": 0.0, "main_hh_p": 0, "main_hh_m": 0, "main_hh_f": 0, "per_main_hh_p": 0.0, "per_main_hh_m": 0.0, "per_main_hh_f": 0.0, "main_ot_p": 1, "main_ot_m": 1, "main_ot_f": 0, "per_main_ot_p": 50.0, "per_main_ot_m": 100.0, "per_main_ot_f": 0.0, "margwork_p": 221, "margwork_m": 115, "margwork_f": 106, "per_margwork_p": 48.35886214, "per_margwork_m": 52.0361991, "per_margwork_f": 47.9638009, "marg_cl_p": 1, "marg_cl_m": 0, "marg_cl_f": 1, "per_marg_cl_p": 0.45248869, "per_marg_cl_m": 0.0, "per_marg_cl_f": 100.0, "marg_al_p": 209, "marg_al_m": 110, "marg_al_f": 99, "per_marg_al_p": 94.57013575, "per_marg_al_m": 52.63157895000001, "per_marg_al_f": 47.36842105, "marg_hh_p": 1, "marg_hh_m": 1, "marg_hh_f": 0, "per_marg_hh_p": 0.45248869, "per_marg_hh_m": 100.0, "per_marg_hh_f": 0.0, "marg_ot_p": 10, "marg_ot_m": 4, "marg_ot_f": 6, "per_marg_ot_p": 4.52488688, "per_marg_ot_m": 40.0, "per_marg_ot_f": 60.0, "margwork_3_6_p": 188, "margwork_3_6_m": 115, "margwork_3_6_f": 73, "per_margwork_3_6_p": 85.0678733, "per_margwork_3_6_m": 61.17021277, "per_margwork_3_6_f": 38.82978723, "marg_cl_3_6_p": 1, "marg_cl_3_6_m": 0, "marg_cl_3_6_f": 1, "per_marg_cl_3_6_p": 0.45248869, "per_marg_cl_3_6_m": 0.0, "per_marg_cl_3_6_f": 100.0, "marg_al_3_6_p": 176, "marg_al_3_6_m": 110, "marg_al_3_6_f": 66, "per_marg_al_3_6_p": 79.63800905000001, "per_marg_al_3_6_m": 62.5, "per_marg_al_3_6_f": 37.5, "marg_hh_3_6_p": 1, "marg_hh_3_6_m": 1, "marg_hh_3_6_f": 0, "per_marg_hh_3_6_p": 0.45248869, "per_marg_hh_3_6_m": 100.0, "per_marg_hh_3_6_f": 0.0, "marg_ot_3_6_p": 10, "marg_ot_3_6_m": 4, "marg_ot_3_6_f": 6, "per_marg_ot_3_6_p": 4.52488688, "per_marg_ot_3_6_m": 40.0, "per_marg_ot_3_6_f": 60.0, "margwork_0_3_p": 33, "margwork_0_3_m": 0, "margwork_0_3_f": 33, "per_margwork_0_3_p": 14.9321267, "per_margwork_0_3_m": 0.0, "per_margwork_0_3_f": 100.0, "marg_cl_0_3_p": 0, "marg_cl_0_3_m": 0, "marg_cl_0_3_f": 0, "per_marg_cl_0_3_p": 0.0, "per_marg_cl_0_3_m": 0.0, "per_marg_cl_0_3_f": 0.0, "marg_al_0_3_p": 33, "marg_al_0_3_m": 0, "marg_al_0_3_f": 33, "per_marg_al_0_3_p": 14.9321267, "per_marg_al_0_3_m": 0.0, "per_marg_al_0_3_f": 100.0, "marg_hh_0_3_p": 0, "marg_hh_0_3_m": 0, "marg_hh_0_3_f": 0, "per_marg_hh_0_3_p": 0.0, "per_marg_hh_0_3_m": 0.0, "per_marg_hh_0_3_f": 0.0, "marg_ot_0_3_p": 0, "marg_ot_0_3_m": 0, "marg_ot_0_3_f": 0, "per_marg_ot_0_3_p": 0.0, "per_marg_ot_0_3_m": 0.0, "per_marg_ot_0_3_f": 0.0, "non_work_p": 234, "non_work_m": 124, "non_work_f": 110, "per_non_work_p": 51.20350109, "per_non_work_m": 52.99145299, "per_non_work_f": 47.00854701, "per_hc_tot_tot": 100, "per_hc_tot_god": 9.3, "per_hc_tot_liv": 87.6, "per_hc_tot_dil": 3.1, "per_hc_res_tot": 99.0, "per_hc_res_god": 9.3, "per_hc_res_liv": 86.6, "per_hc_res_dil": 3.1, "per_hc_oth_tot": 1.0, "per_hc_oth_god": 0.0, "per_hc_oth_liv": 1.0, "per_hc_oth_dil": 0.0, "per_mt_grsbam": 88.7, "per_mt_plastic": 0.0, "per_mt_h_tiles": 0.0, "per_mt_m_tiles": 0.0, "per_mt_b_brick": 0.0, "per_mt_stone": 0.0, "per_mt_asbstos": 0.0, "per_mt_concrte": 10.3, "per_mt_oth": 1.0, "per_mw_grsbam": 5.2, "per_mw_plastic": 0.0, "per_mw_mud": 84.5, "per_mw_wood": 0.0, "per_mw_no_mrtr": 0.0, "per_mw_st_mrtr": 0.0, "per_mw_asbstos": 0.0, "per_mw_b_brick": 10.3, "per_mw_concrte": 0.0, "per_mw_oth": 0.0, "per_mf_mud": 100.0, "per_mf_wood": 0.0, "per_mf_b_brick": 0.0, "per_mf_stone": 0.0, "per_mf_cement": 0.0, "per_mf_fl_tile": 0.0, "per_mf_oth": 0.0, "per_dw_n_exrm": 3.1, "per_dw_1_room": 82.5, "per_dw_2_room": 8.2, "per_dw_3_room": 2.1, "per_dw_4_room": 2.1, "per_dw_5_room": 0.0, "per_dw_6_room": 2.1, "per_hhsize_1": 4.1, "per_hhsize_2": 22.7, "per_hhsize_3": 19.6, "per_hhsize_4": 14.4, "per_hhsize_5": 12.4, "per_hhsize_6_8": 23.7, "per_hhsize_9p": 3.1, "per_ow_owned": 100.0, "per_ow_rented": 0.0, "per_ow_oth": 0.0, "per_mc_none": 18.6, "per_mcouple_1": 73.2, "per_mcouple_2": 7.2, "per_mcouple_3": 1.0, "per_mcouple_4": 0.0, "per_mcouple_5p": 0.0, "per_dw_t_ts": 7.2, "per_dw_t_unts": 0.0, "per_dw_c_well": 0.0, "per_dw_unc_wel": 24.7, "per_dw_hpump": 64.9, "per_dw_tw_bore": 3.1, "per_dw_spring": 0.0, "per_dw_rivcan": 0.0, "per_dw_tank": 0.0, "per_dw_oth": 0.0, "per_loc_dw_wp": 6.2, "per_loc_dw_np": 93.8, "per_loc_dw_aw": 0.0, "per_light_elec": 0.0, "per_light_kero": 100.0, "per_light_solr": 0.0, "per_light_oil": 0.0, "per_light_oth": 0.0, "per_light_no": 0.0, "per_hh_latrine": 8.2, "per_fl_sewer": 3.1, "per_fl_septict": 1.0, "per_fl_othsys": 4.1, "per_pl_wslab": 0.0, "per_pl_without": 0.0, "per_ns_open": 0.0, "per_sl_ns_hum": 0.0, "per_sl_ns_anml": 0.0, "per_hh_no_lat": 91.8, "per_as_pub": 0.0, "per_as_open": 91.8, "per_hh_bathrm": 4.1, "per_hh_en_wrf": 8.2, "per_hh_no_btrm": 87.6, "per_wwoc_drain": 3.1, "per_wwoc_open": 1.0, "per_wwoc_nodrn": 95.9, "per_cook_fire": 87.6, "per_cook_resdu": 12.4, "per_cook_cwdng": 0.0, "per_cook_coal": 0.0, "per_cook_kero": 0.0, "per_cook_lpng": 0.0, "per_cook_elec": 0.0, "per_cook_biogs": 0.0, "per_cook_oth": 0.0, "per_cook_no": 0.0, "per_kf_inside": 89.7, "per_kf_in_has": 8.2, "per_kf_in_does": 81.4, "per_kf_outside": 10.3, "per_kf_out_has": 2.1, "per_kf_out_dos": 8.2, "per_kf_no_cook": 0.0, "per_hh_banking": 1.0, "per_hh_radio": 0.0, "per_hh_tv": 1.0, "per_hh_cmp_int": 0.0, "per_hh_cmp_wnt": 16.5, "per_hh_ph_ll": 1.0, "per_hh_ph_mob": 16.5, "per_hh_ph_bth": 2.1, "per_hh_bcycl": 8.2, "per_hh_2wheel": 0.0, "per_hh_4wheel": 0.0, "per_hh_tvcomp": 0.0, "per_hh_no_ast": 64.9, "per_hs_perma": 10.3, "per_hs_sperma": 0.0, "per_hs_temp": 88.7, "per_hs_servc": 84.5, "per_hs_nservc": 4.1, "per_hs_unclss": 1.0, "avghhsz_cy": 4.57, "st_areashape": 830811.653338745, "st_lengthshape": 4771.084595671007}, "geometry": {"type": "Polygon", "coordinates": [[[84.35653291065375, 24.56002828995946], [84.35920680808069, 24.560676815692624], [84.36051404636359, 24.561865771504664], [84.36087056614032, 24.563324930138243], [84.36229664434877, 24.564621944959207], [84.36354446266893, 24.565648738671207], [84.36396040240841, 24.566459359989494], [84.36413157458917, 24.567449754688262], [84.36258514818375, 24.566258048709187], [84.36106549965866, 24.56547270833891], [84.36024772462795, 24.565251206407247], [84.35942176863996, 24.565490129354384], [84.35862896587585, 24.565914176696285], [84.35824523163764, 24.566073224206605], [84.357866644746, 24.566230138325594], [84.3568677163534, 24.56649503426594], [84.35554841459452, 24.566703859095263], [84.35499629385124, 24.565906205197614], [84.35417945486508, 24.564854155735382], [84.35295719990299, 24.5639080677432], [84.35131825959971, 24.563252842818336], [84.3508804431881, 24.563038061053305], [84.34956444363624, 24.5620913702774], [84.3485456849338, 24.560983923240872], [84.34758588805329, 24.559930993366322], [84.34741502040141, 24.5596637149452], [84.35100685770816, 24.55916358267428], [84.35207641613994, 24.55932571574452], [84.35243293591665, 24.559866157797792], [84.35379959416234, 24.560460640548634], [84.35492857255693, 24.560460640548634], [84.35653291065375, 24.56002828995946]]]}}]}