{"type": "FeatureCollection", "features": [{"type": "Feature", "properties": {"premiumdata.sde.IN_Village_PCA.area": 0.02371357, "objectid": 619080, "id": "142541871249390", "name": "L Gangpimual", "subdistrict": "Churachandpur", "district": "Churachandpur", "state": "Manipur", "country": "India", "censusname": "L.Gangpimual", "villagename_locallang": null, "lgd_villagename": "L.Gangpimual", "lgd_villagecode": 269708, "lgd_subdistrictcode": 1871, "lgd_districtcode": 254, "lgd_statecode": 14, "censuscode2001": "00120700", "censuscode2011": "269708", "censuscode2021": null, "level": "Village", "tru": "Rural", "no_hh": 38, "tot_p": 174, "tot_m": 88, "tot_f": 86, "per_tot_m": 50.57471264, "per_tot_f": 49.42528736, "p_06": 19, "m_06": 7, "f_06": 12, "per_p_06": 10.91954023, "per_m_06": 36.84210526, "per_f_06": 63.15789474, "p_sc": 0, "m_sc": 0, "f_sc": 0, "per_p_sc": 0.0, "per_m_sc": 0.0, "per_f_sc": 0.0, "p_st": 174, "m_st": 88, "f_st": 86, "per_p_st": 100.0, "per_m_st": 50.57471264, "per_f_st": 49.42528736, "p_lit": 102, "m_lit": 61, "f_lit": 41, "per_p_lit": 58.62068966, "per_m_lit": 59.80392157, "per_f_lit": 40.19607843, "p_ill": 72, "m_ill": 27, "f_ill": 45, "per_p_ill": 41.37931034, "per_m_ill": 37.5, "per_f_ill": 62.5, "tot_work_p": 48, "tot_work_m": 46, "tot_work_f": 2, "per_tot_work_p": 27.5862069, "per_tot_work_m": 95.83333332999999, "per_tot_work_f": 4.16666667, "mainwork_p": 48, "mainwork_m": 46, "mainwork_f": 2, "per_mainwork_p": 27.5862069, "per_mainwork_m": 95.83333332999999, "per_mainwork_f": 4.16666667, "main_cl_p": 40, "main_cl_m": 39, "main_cl_f": 1, "per_main_cl_p": 83.33333332999999, "per_main_cl_m": 97.5, "per_main_cl_f": 2.5, "main_al_p": 4, "main_al_m": 3, "main_al_f": 1, "per_main_al_p": 8.33333333, "per_main_al_m": 75.0, "per_main_al_f": 25.0, "main_hh_p": 0, "main_hh_m": 0, "main_hh_f": 0, "per_main_hh_p": 0.0, "per_main_hh_m": 0.0, "per_main_hh_f": 0.0, "main_ot_p": 4, "main_ot_m": 4, "main_ot_f": 0, "per_main_ot_p": 8.33333333, "per_main_ot_m": 100.0, "per_main_ot_f": 0.0, "margwork_p": 0, "margwork_m": 0, "margwork_f": 0, "per_margwork_p": 0.0, "per_margwork_m": 0.0, "per_margwork_f": 0.0, "marg_cl_p": 0, "marg_cl_m": 0, "marg_cl_f": 0, "per_marg_cl_p": 0.0, "per_marg_cl_m": 0.0, "per_marg_cl_f": 0.0, "marg_al_p": 0, "marg_al_m": 0, "marg_al_f": 0, "per_marg_al_p": 0.0, "per_marg_al_m": 0.0, "per_marg_al_f": 0.0, "marg_hh_p": 0, "marg_hh_m": 0, "marg_hh_f": 0, "per_marg_hh_p": 0.0, "per_marg_hh_m": 0.0, "per_marg_hh_f": 0.0, "marg_ot_p": 0, "marg_ot_m": 0, "marg_ot_f": 0, "per_marg_ot_p": 0.0, "per_marg_ot_m": 0.0, "per_marg_ot_f": 0.0, "margwork_3_6_p": 0, "margwork_3_6_m": 0, "margwork_3_6_f": 0, "per_margwork_3_6_p": 0.0, "per_margwork_3_6_m": 0.0, "per_margwork_3_6_f": 0.0, "marg_cl_3_6_p": 0, "marg_cl_3_6_m": 0, "marg_cl_3_6_f": 0, "per_marg_cl_3_6_p": 0.0, "per_marg_cl_3_6_m": 0.0, "per_marg_cl_3_6_f": 0.0, "marg_al_3_6_p": 0, "marg_al_3_6_m": 0, "marg_al_3_6_f": 0, "per_marg_al_3_6_p": 0.0, "per_marg_al_3_6_m": 0.0, "per_marg_al_3_6_f": 0.0, "marg_hh_3_6_p": 0, "marg_hh_3_6_m": 0, "marg_hh_3_6_f": 0, "per_marg_hh_3_6_p": 0.0, "per_marg_hh_3_6_m": 0.0, "per_marg_hh_3_6_f": 0.0, "marg_ot_3_6_p": 0, "marg_ot_3_6_m": 0, "marg_ot_3_6_f": 0, "per_marg_ot_3_6_p": 0.0, "per_marg_ot_3_6_m": 0.0, "per_marg_ot_3_6_f": 0.0, "margwork_0_3_p": 0, "margwork_0_3_m": 0, "margwork_0_3_f": 0, "per_margwork_0_3_p": 0.0, "per_margwork_0_3_m": 0.0, "per_margwork_0_3_f": 0.0, "marg_cl_0_3_p": 0, "marg_cl_0_3_m": 0, "marg_cl_0_3_f": 0, "per_marg_cl_0_3_p": 0.0, "per_marg_cl_0_3_m": 0.0, "per_marg_cl_0_3_f": 0.0, "marg_al_0_3_p": 0, "marg_al_0_3_m": 0, "marg_al_0_3_f": 0, "per_marg_al_0_3_p": 0.0, "per_marg_al_0_3_m": 0.0, "per_marg_al_0_3_f": 0.0, "marg_hh_0_3_p": 0, "marg_hh_0_3_m": 0, "marg_hh_0_3_f": 0, "per_marg_hh_0_3_p": 0.0, "per_marg_hh_0_3_m": 0.0, "per_marg_hh_0_3_f": 0.0, "marg_ot_0_3_p": 0, "marg_ot_0_3_m": 0, "marg_ot_0_3_f": 0, "per_marg_ot_0_3_p": 0.0, "per_marg_ot_0_3_m": 0.0, "per_marg_ot_0_3_f": 0.0, "non_work_p": 126, "non_work_m": 42, "non_work_f": 84, "per_non_work_p": 72.4137931, "per_non_work_m": 33.33333333, "per_non_work_f": 66.66666667, "per_hc_tot_tot": 100, "per_hc_tot_god": 9.1, "per_hc_tot_liv": 90.9, "per_hc_tot_dil": 0.0, "per_hc_res_tot": 100.0, "per_hc_res_god": 9.1, "per_hc_res_liv": 90.9, "per_hc_res_dil": 0.0, "per_hc_oth_tot": 0.0, "per_hc_oth_god": 0.0, "per_hc_oth_liv": 0.0, "per_hc_oth_dil": 0.0, "per_mt_grsbam": 75.8, "per_mt_plastic": 0.0, "per_mt_h_tiles": 0.0, "per_mt_m_tiles": 0.0, "per_mt_b_brick": 0.0, "per_mt_stone": 0.0, "per_mt_asbstos": 24.2, "per_mt_concrte": 0.0, "per_mt_oth": 0.0, "per_mw_grsbam": 21.2, "per_mw_plastic": 3.0, "per_mw_mud": 72.7, "per_mw_wood": 0.0, "per_mw_no_mrtr": 0.0, "per_mw_st_mrtr": 0.0, "per_mw_asbstos": 3.0, "per_mw_b_brick": 0.0, "per_mw_concrte": 0.0, "per_mw_oth": 0.0, "per_mf_mud": 69.7, "per_mf_wood": 30.3, "per_mf_b_brick": 0.0, "per_mf_stone": 0.0, "per_mf_cement": 0.0, "per_mf_fl_tile": 0.0, "per_mf_oth": 0.0, "per_dw_n_exrm": 0.0, "per_dw_1_room": 51.5, "per_dw_2_room": 33.3, "per_dw_3_room": 12.1, "per_dw_4_room": 0.0, "per_dw_5_room": 0.0, "per_dw_6_room": 3.0, "per_hhsize_1": 6.1, "per_hhsize_2": 6.1, "per_hhsize_3": 9.1, "per_hhsize_4": 18.2, "per_hhsize_5": 18.2, "per_hhsize_6_8": 42.4, "per_hhsize_9p": 0.0, "per_ow_owned": 100.0, "per_ow_rented": 0.0, "per_ow_oth": 0.0, "per_mc_none": 15.2, "per_mcouple_1": 84.8, "per_mcouple_2": 0.0, "per_mcouple_3": 0.0, "per_mcouple_4": 0.0, "per_mcouple_5p": 0.0, "per_dw_t_ts": 0.0, "per_dw_t_unts": 100.0, "per_dw_c_well": 0.0, "per_dw_unc_wel": 0.0, "per_dw_hpump": 0.0, "per_dw_tw_bore": 0.0, "per_dw_spring": 0.0, "per_dw_rivcan": 0.0, "per_dw_tank": 0.0, "per_dw_oth": 0.0, "per_loc_dw_wp": 0.0, "per_loc_dw_np": 100.0, "per_loc_dw_aw": 0.0, "per_light_elec": 0.0, "per_light_kero": 100.0, "per_light_solr": 0.0, "per_light_oil": 0.0, "per_light_oth": 0.0, "per_light_no": 0.0, "per_hh_latrine": 18.2, "per_fl_sewer": 0.0, "per_fl_septict": 0.0, "per_fl_othsys": 18.2, "per_pl_wslab": 0.0, "per_pl_without": 0.0, "per_ns_open": 0.0, "per_sl_ns_hum": 0.0, "per_sl_ns_anml": 0.0, "per_hh_no_lat": 81.8, "per_as_pub": 0.0, "per_as_open": 81.8, "per_hh_bathrm": 12.1, "per_hh_en_wrf": 57.6, "per_hh_no_btrm": 30.3, "per_wwoc_drain": 9.1, "per_wwoc_open": 33.3, "per_wwoc_nodrn": 57.6, "per_cook_fire": 100.0, "per_cook_resdu": 0.0, "per_cook_cwdng": 0.0, "per_cook_coal": 0.0, "per_cook_kero": 0.0, "per_cook_lpng": 0.0, "per_cook_elec": 0.0, "per_cook_biogs": 0.0, "per_cook_oth": 0.0, "per_cook_no": 0.0, "per_kf_inside": 60.6, "per_kf_in_has": 60.6, "per_kf_in_does": 0.0, "per_kf_outside": 39.4, "per_kf_out_has": 39.4, "per_kf_out_dos": 0.0, "per_kf_no_cook": 0.0, "per_hh_banking": 3.0, "per_hh_radio": 78.8, "per_hh_tv": 3.0, "per_hh_cmp_int": 0.0, "per_hh_cmp_wnt": 3.0, "per_hh_ph_ll": 0.0, "per_hh_ph_mob": 0.0, "per_hh_ph_bth": 0.0, "per_hh_bcycl": 81.8, "per_hh_2wheel": 0.0, "per_hh_4wheel": 0.0, "per_hh_tvcomp": 0.0, "per_hh_no_ast": 9.1, "per_hs_perma": 3.0, "per_hs_sperma": 21.2, "per_hs_temp": 75.8, "per_hs_servc": 57.6, "per_hs_nservc": 18.2, "per_hs_unclss": 0.0, "avghhsz_cy": 4.57894737, "st_areashape": 31363.87350204, "st_lengthshape": 628.0581775956349}, "geometry": {"type": "Polygon", "coordinates": [[[93.80252431707096, 24.230047201359863], [93.80243487361476, 24.23004313086326], [93.80234631949065, 24.230030958693185], [93.8022595341494, 24.23001080772412], [93.80217537997356, 24.22998287619344], [93.80209469419309, 24.229947443436103], [93.80201827810511, 24.22990486005445], [93.80194689078611, 24.229855549557108], [93.80188124280345, 24.229800003444126], [93.80182198633405, 24.229738772196452], [93.8017697088761, 24.229672464457096], [93.80172493145245, 24.229601740478085], [93.80168809872916, 24.229527301471425], [93.80165957721889, 24.229449887971242], [93.80163964899263, 24.22937027000371], [93.80162851347636, 24.229289238076408], [93.8016262811629, 24.22920759744407], [93.80163297361173, 24.22912615991704], [93.80164852434763, 24.229045734850185], [93.80167277975863, 24.228967120950927], [93.80170549729958, 24.228891100544928], [93.80174635357703, 24.228818428107267], [93.80179494075581, 24.228749826166197], [93.80185077733888, 24.228685977111112], [93.80191330726923, 24.22862751500013], [93.80198191070913, 24.228575020644723], [93.80205590404077, 24.228529016694278], [93.80213455244223, 24.228489959443568], [93.80221707527748, 24.228458237194424], [93.80230265148639, 24.228434166159058], [93.8023904303644, 24.22841798390653], [93.80247953964731, 24.228409852639246], [93.8025690944946, 24.228409852639246], [93.80265820377753, 24.22841798390653], [93.80274598265552, 24.228434166159058], [93.80283155886443, 24.228458237194424], [93.80291408169968, 24.228489959443568], [93.80299273010112, 24.228529016694278], [93.80306672343275, 24.228575020644723], [93.80313532687269, 24.22862751500013], [93.80319785680298, 24.228685977111112], [93.8032536933861, 24.228749826166197], [93.80330228056488, 24.228818428107267], [93.80334313684234, 24.228891100544928], [93.80337585438329, 24.228967120950927], [93.80340010979428, 24.229045734850185], [93.80341566053013, 24.22912615991704], [93.80342235297901, 24.22920759744407], [93.80342012066552, 24.229289238076408], [93.80340898514928, 24.22937027000371], [93.80338905692302, 24.229449887971242], [93.80336053541275, 24.229527301471425], [93.80332370268947, 24.229601740478085], [93.80327892526581, 24.229672464457096], [93.80322664780786, 24.229738772196452], [93.80316739133845, 24.229800003444126], [93.8031017433558, 24.229855549557108], [93.80303035603679, 24.22990486005445], [93.80295393994884, 24.229947443436103], [93.80287325416835, 24.22998287619344], [93.80278909999252, 24.23001080772412], [93.80270231465123, 24.230030958693185], [93.80261376052715, 24.23004313086326], [93.80252431707096, 24.230047201359863]]]}}]}