{"type": "FeatureCollection", "features": [{"type": "Feature", "properties": {"premiumdata.sde.IN_Village_PCA.area": 0.02370749, "objectid": 619082, "id": "142541871249405", "name": "Mongnelphai", "subdistrict": "Churachandpur", "district": "Churachandpur", "state": "Manipur", "country": "India", "censusname": "Mongnelphai", "villagename_locallang": null, "lgd_villagename": "Mongnelphai", "lgd_villagecode": 269679, "lgd_subdistrictcode": 1871, "lgd_districtcode": 254, "lgd_statecode": 14, "censuscode2001": "00118200", "censuscode2011": "269679", "censuscode2021": null, "level": "Village", "tru": "Rural", "no_hh": 33, "tot_p": 156, "tot_m": 67, "tot_f": 89, "per_tot_m": 42.94871795, "per_tot_f": 57.05128205, "p_06": 23, "m_06": 10, "f_06": 13, "per_p_06": 14.74358974, "per_m_06": 43.47826087, "per_f_06": 56.52173913, "p_sc": 0, "m_sc": 0, "f_sc": 0, "per_p_sc": 0.0, "per_m_sc": 0.0, "per_f_sc": 0.0, "p_st": 2, "m_st": 2, "f_st": 0, "per_p_st": 1.28205128, "per_m_st": 100.0, "per_f_st": 0.0, "p_lit": 99, "m_lit": 45, "f_lit": 54, "per_p_lit": 63.46153846, "per_m_lit": 45.45454545, "per_f_lit": 54.54545455, "p_ill": 57, "m_ill": 22, "f_ill": 35, "per_p_ill": 36.53846154, "per_m_ill": 38.59649123000001, "per_f_ill": 61.40350877, "tot_work_p": 35, "tot_work_m": 16, "tot_work_f": 19, "per_tot_work_p": 22.43589744, "per_tot_work_m": 45.71428571, "per_tot_work_f": 54.28571429, "mainwork_p": 13, "mainwork_m": 9, "mainwork_f": 4, "per_mainwork_p": 8.33333333, "per_mainwork_m": 69.23076923, "per_mainwork_f": 30.76923077, "main_cl_p": 9, "main_cl_m": 5, "main_cl_f": 4, "per_main_cl_p": 69.23076923, "per_main_cl_m": 55.55555556, "per_main_cl_f": 44.44444444000001, "main_al_p": 1, "main_al_m": 1, "main_al_f": 0, "per_main_al_p": 7.69230769, "per_main_al_m": 100.0, "per_main_al_f": 0.0, "main_hh_p": 0, "main_hh_m": 0, "main_hh_f": 0, "per_main_hh_p": 0.0, "per_main_hh_m": 0.0, "per_main_hh_f": 0.0, "main_ot_p": 3, "main_ot_m": 3, "main_ot_f": 0, "per_main_ot_p": 23.07692308, "per_main_ot_m": 100.0, "per_main_ot_f": 0.0, "margwork_p": 22, "margwork_m": 7, "margwork_f": 15, "per_margwork_p": 14.1025641, "per_margwork_m": 31.81818182, "per_margwork_f": 68.18181818, "marg_cl_p": 12, "marg_cl_m": 5, "marg_cl_f": 7, "per_marg_cl_p": 54.54545455, "per_marg_cl_m": 41.66666667000001, "per_marg_cl_f": 58.33333333, "marg_al_p": 6, "marg_al_m": 1, "marg_al_f": 5, "per_marg_al_p": 27.27272727, "per_marg_al_m": 16.66666667, "per_marg_al_f": 83.33333332999999, "marg_hh_p": 0, "marg_hh_m": 0, "marg_hh_f": 0, "per_marg_hh_p": 0.0, "per_marg_hh_m": 0.0, "per_marg_hh_f": 0.0, "marg_ot_p": 4, "marg_ot_m": 1, "marg_ot_f": 3, "per_marg_ot_p": 18.18181818, "per_marg_ot_m": 25.0, "per_marg_ot_f": 75.0, "margwork_3_6_p": 19, "margwork_3_6_m": 6, "margwork_3_6_f": 13, "per_margwork_3_6_p": 86.36363636, "per_margwork_3_6_m": 31.57894737, "per_margwork_3_6_f": 68.42105263, "marg_cl_3_6_p": 9, "marg_cl_3_6_m": 4, "marg_cl_3_6_f": 5, "per_marg_cl_3_6_p": 40.90909091, "per_marg_cl_3_6_m": 44.44444444000001, "per_marg_cl_3_6_f": 55.55555556, "marg_al_3_6_p": 6, "marg_al_3_6_m": 1, "marg_al_3_6_f": 5, "per_marg_al_3_6_p": 27.27272727, "per_marg_al_3_6_m": 16.66666667, "per_marg_al_3_6_f": 83.33333332999999, "marg_hh_3_6_p": 0, "marg_hh_3_6_m": 0, "marg_hh_3_6_f": 0, "per_marg_hh_3_6_p": 0.0, "per_marg_hh_3_6_m": 0.0, "per_marg_hh_3_6_f": 0.0, "marg_ot_3_6_p": 4, "marg_ot_3_6_m": 1, "marg_ot_3_6_f": 3, "per_marg_ot_3_6_p": 18.18181818, "per_marg_ot_3_6_m": 25.0, "per_marg_ot_3_6_f": 75.0, "margwork_0_3_p": 3, "margwork_0_3_m": 1, "margwork_0_3_f": 2, "per_margwork_0_3_p": 13.63636364, "per_margwork_0_3_m": 33.33333333, "per_margwork_0_3_f": 66.66666667, "marg_cl_0_3_p": 3, "marg_cl_0_3_m": 1, "marg_cl_0_3_f": 2, "per_marg_cl_0_3_p": 13.63636364, "per_marg_cl_0_3_m": 33.33333333, "per_marg_cl_0_3_f": 66.66666667, "marg_al_0_3_p": 0, "marg_al_0_3_m": 0, "marg_al_0_3_f": 0, "per_marg_al_0_3_p": 0.0, "per_marg_al_0_3_m": 0.0, "per_marg_al_0_3_f": 0.0, "marg_hh_0_3_p": 0, "marg_hh_0_3_m": 0, "marg_hh_0_3_f": 0, "per_marg_hh_0_3_p": 0.0, "per_marg_hh_0_3_m": 0.0, "per_marg_hh_0_3_f": 0.0, "marg_ot_0_3_p": 0, "marg_ot_0_3_m": 0, "marg_ot_0_3_f": 0, "per_marg_ot_0_3_p": 0.0, "per_marg_ot_0_3_m": 0.0, "per_marg_ot_0_3_f": 0.0, "non_work_p": 121, "non_work_m": 51, "non_work_f": 70, "per_non_work_p": 77.56410256, "per_non_work_m": 42.14876033, "per_non_work_f": 57.85123967, "per_hc_tot_tot": 100, "per_hc_tot_god": 0.0, "per_hc_tot_liv": 100.0, "per_hc_tot_dil": 0.0, "per_hc_res_tot": 100.0, "per_hc_res_god": 0.0, "per_hc_res_liv": 100.0, "per_hc_res_dil": 0.0, "per_hc_oth_tot": 0.0, "per_hc_oth_god": 0.0, "per_hc_oth_liv": 0.0, "per_hc_oth_dil": 0.0, "per_mt_grsbam": 87.5, "per_mt_plastic": 0.0, "per_mt_h_tiles": 0.0, "per_mt_m_tiles": 0.0, "per_mt_b_brick": 0.0, "per_mt_stone": 0.0, "per_mt_asbstos": 12.5, "per_mt_concrte": 0.0, "per_mt_oth": 0.0, "per_mw_grsbam": 0.0, "per_mw_plastic": 0.0, "per_mw_mud": 100.0, "per_mw_wood": 0.0, "per_mw_no_mrtr": 0.0, "per_mw_st_mrtr": 0.0, "per_mw_asbstos": 0.0, "per_mw_b_brick": 0.0, "per_mw_concrte": 0.0, "per_mw_oth": 0.0, "per_mf_mud": 71.9, "per_mf_wood": 28.1, "per_mf_b_brick": 0.0, "per_mf_stone": 0.0, "per_mf_cement": 0.0, "per_mf_fl_tile": 0.0, "per_mf_oth": 0.0, "per_dw_n_exrm": 0.0, "per_dw_1_room": 0.0, "per_dw_2_room": 37.5, "per_dw_3_room": 46.9, "per_dw_4_room": 15.6, "per_dw_5_room": 0.0, "per_dw_6_room": 0.0, "per_hhsize_1": 9.4, "per_hhsize_2": 9.4, "per_hhsize_3": 6.2, "per_hhsize_4": 18.8, "per_hhsize_5": 21.9, "per_hhsize_6_8": 31.2, "per_hhsize_9p": 3.1, "per_ow_owned": 100.0, "per_ow_rented": 0.0, "per_ow_oth": 0.0, "per_mc_none": 15.6, "per_mcouple_1": 84.4, "per_mcouple_2": 0.0, "per_mcouple_3": 0.0, "per_mcouple_4": 0.0, "per_mcouple_5p": 0.0, "per_dw_t_ts": 0.0, "per_dw_t_unts": 100.0, "per_dw_c_well": 0.0, "per_dw_unc_wel": 0.0, "per_dw_hpump": 0.0, "per_dw_tw_bore": 0.0, "per_dw_spring": 0.0, "per_dw_rivcan": 0.0, "per_dw_tank": 0.0, "per_dw_oth": 0.0, "per_loc_dw_wp": 0.0, "per_loc_dw_np": 0.0, "per_loc_dw_aw": 100.0, "per_light_elec": 0.0, "per_light_kero": 96.9, "per_light_solr": 3.1, "per_light_oil": 0.0, "per_light_oth": 0.0, "per_light_no": 0.0, "per_hh_latrine": 100.0, "per_fl_sewer": 0.0, "per_fl_septict": 0.0, "per_fl_othsys": 100.0, "per_pl_wslab": 0.0, "per_pl_without": 0.0, "per_ns_open": 0.0, "per_sl_ns_hum": 0.0, "per_sl_ns_anml": 0.0, "per_hh_no_lat": 0.0, "per_as_pub": 0.0, "per_as_open": 0.0, "per_hh_bathrm": 0.0, "per_hh_en_wrf": 0.0, "per_hh_no_btrm": 100.0, "per_wwoc_drain": 0.0, "per_wwoc_open": 96.9, "per_wwoc_nodrn": 3.1, "per_cook_fire": 100.0, "per_cook_resdu": 0.0, "per_cook_cwdng": 0.0, "per_cook_coal": 0.0, "per_cook_kero": 0.0, "per_cook_lpng": 0.0, "per_cook_elec": 0.0, "per_cook_biogs": 0.0, "per_cook_oth": 0.0, "per_cook_no": 0.0, "per_kf_inside": 100.0, "per_kf_in_has": 37.5, "per_kf_in_does": 62.5, "per_kf_outside": 0.0, "per_kf_out_has": 0.0, "per_kf_out_dos": 0.0, "per_kf_no_cook": 0.0, "per_hh_banking": 3.1, "per_hh_radio": 34.4, "per_hh_tv": 3.1, "per_hh_cmp_int": 0.0, "per_hh_cmp_wnt": 0.0, "per_hh_ph_ll": 0.0, "per_hh_ph_mob": 3.1, "per_hh_ph_bth": 0.0, "per_hh_bcycl": 3.1, "per_hh_2wheel": 3.1, "per_hh_4wheel": 0.0, "per_hh_tvcomp": 0.0, "per_hh_no_ast": 65.6, "per_hs_perma": 0.0, "per_hs_sperma": 12.5, "per_hs_temp": 87.5, "per_hs_servc": 87.5, "per_hs_nservc": 0.0, "per_hs_unclss": 0.0, "avghhsz_cy": 4.72727273, "st_areashape": 31363.87350204, "st_lengthshape": 628.0581775956349}, "geometry": {"type": "Polygon", "coordinates": [[[93.75999643658692, 24.24100992320625], [93.75990699313073, 24.241005853060233], [93.75981843900662, 24.24099368193853], [93.75973165366536, 24.240973532704995], [93.75964749948953, 24.240945603580048], [93.75956681370904, 24.24091017387448], [93.75949039762108, 24.24086759416045], [93.75941901030207, 24.240818287910102], [93.75935336231942, 24.240762746581208], [93.75929410585002, 24.24070152060724], [93.75924182839206, 24.24063521857881], [93.75919705096841, 24.240564500691004], [93.75916021824513, 24.240490068095596], [93.75913169673484, 24.24041266126278], [93.7591117685086, 24.24033305015246], [93.75910063299233, 24.240252025204086], [93.75909840067887, 24.240170391603126], [93.7591050931277, 24.240088961089985], [93.75912064386358, 24.24000854294974], [93.75914489927459, 24.23992993582111], [93.75917761681553, 24.239853921962396], [93.759218473093, 24.23978125578361], [93.75926706027177, 24.23971265975084], [93.75932289685487, 24.239648816194695], [93.75938542678519, 24.239590359118694], [93.75945403022509, 24.2395378692843], [93.75952802355674, 24.23949186929585], [93.7596066719582, 24.23945281540892], [93.75968919479345, 24.23942109589177], [93.75977477100234, 24.239397026929463], [93.75986254988035, 24.239380846070645], [93.75995165916326, 24.239372715503652], [93.76004121401057, 24.239372715503652], [93.76013032329348, 24.239380846070645], [93.76021810217149, 24.239397026929463], [93.7603036783804, 24.23942109589177], [93.76038620121565, 24.23945281540892], [93.76046484961711, 24.23949186929585], [93.76053884294872, 24.2395378692843], [93.76060744638865, 24.239590359118694], [93.76066997631895, 24.239648816194695], [93.76072581290207, 24.23971265975084], [93.76077440008085, 24.23978125578361], [93.7608152563583, 24.239853921962396], [93.76084797389925, 24.23992993582111], [93.76087222931025, 24.24000854294974], [93.76088778004613, 24.240088961089985], [93.76089447249498, 24.240170391603126], [93.76089224018149, 24.240252025204086], [93.76088110466524, 24.24033305015246], [93.760861176439, 24.24041266126278], [93.76083265492872, 24.240490068095596], [93.76079582220542, 24.240564500691004], [93.76075104478177, 24.24063521857881], [93.76069876732382, 24.24070152060724], [93.7606395108544, 24.240762746581208], [93.76057386287175, 24.240818287910102], [93.76050247555276, 24.24086759416045], [93.76042605946479, 24.24091017387448], [93.7603453736843, 24.240945603580048], [93.76026121950848, 24.240973532704995], [93.7601744341672, 24.24099368193853], [93.76008588004312, 24.241005853060233], [93.75999643658692, 24.24100992320625]]]}}]}