{"type": "FeatureCollection", "features": [{"type": "Feature", "properties": {"premiumdata.sde.IN_Village_PCA.area": 0.98865677, "objectid": 534564, "id": "203332676219146", "name": "Chirudih", "subdistrict": "Narayanpur", "district": "Jamtara", "state": "Jharkhand", "country": "India", "censusname": "Chirudi", "villagename_locallang": "\u091a\u093f\u0930\u0941\u0921\u0940\u0939", "lgd_villagename": "Chirudih.", "lgd_villagecode": 372418, "lgd_subdistrictcode": 2676, "lgd_districtcode": 333, "lgd_statecode": 20, "censuscode2001": "02140600", "censuscode2011": "372418", "censuscode2021": null, "level": "Village", "tru": "Rural", "no_hh": 13, "tot_p": 62, "tot_m": 25, "tot_f": 37, "per_tot_m": 40.32258065, "per_tot_f": 59.67741935, "p_06": 16, "m_06": 5, "f_06": 11, "per_p_06": 25.80645161, "per_m_06": 31.25, "per_f_06": 68.75, "p_sc": 0, "m_sc": 0, "f_sc": 0, "per_p_sc": 0.0, "per_m_sc": 0.0, "per_f_sc": 0.0, "p_st": 0, "m_st": 0, "f_st": 0, "per_p_st": 0.0, "per_m_st": 0.0, "per_f_st": 0.0, "p_lit": 27, "m_lit": 16, "f_lit": 11, "per_p_lit": 43.5483871, "per_m_lit": 59.25925926, "per_f_lit": 40.74074074, "p_ill": 35, "m_ill": 9, "f_ill": 26, "per_p_ill": 56.4516129, "per_m_ill": 25.71428571, "per_f_ill": 74.28571429, "tot_work_p": 28, "tot_work_m": 15, "tot_work_f": 13, "per_tot_work_p": 45.16129032, "per_tot_work_m": 53.57142857, "per_tot_work_f": 46.42857143, "mainwork_p": 3, "mainwork_m": 3, "mainwork_f": 0, "per_mainwork_p": 4.83870968, "per_mainwork_m": 100.0, "per_mainwork_f": 0.0, "main_cl_p": 0, "main_cl_m": 0, "main_cl_f": 0, "per_main_cl_p": 0.0, "per_main_cl_m": 0.0, "per_main_cl_f": 0.0, "main_al_p": 2, "main_al_m": 2, "main_al_f": 0, "per_main_al_p": 66.66666667, "per_main_al_m": 100.0, "per_main_al_f": 0.0, "main_hh_p": 0, "main_hh_m": 0, "main_hh_f": 0, "per_main_hh_p": 0.0, "per_main_hh_m": 0.0, "per_main_hh_f": 0.0, "main_ot_p": 1, "main_ot_m": 1, "main_ot_f": 0, "per_main_ot_p": 33.33333333, "per_main_ot_m": 100.0, "per_main_ot_f": 0.0, "margwork_p": 25, "margwork_m": 12, "margwork_f": 13, "per_margwork_p": 40.32258065, "per_margwork_m": 48.0, "per_margwork_f": 52.0, "marg_cl_p": 0, "marg_cl_m": 0, "marg_cl_f": 0, "per_marg_cl_p": 0.0, "per_marg_cl_m": 0.0, "per_marg_cl_f": 0.0, "marg_al_p": 25, "marg_al_m": 12, "marg_al_f": 13, "per_marg_al_p": 100.0, "per_marg_al_m": 48.0, "per_marg_al_f": 52.0, "marg_hh_p": 0, "marg_hh_m": 0, "marg_hh_f": 0, "per_marg_hh_p": 0.0, "per_marg_hh_m": 0.0, "per_marg_hh_f": 0.0, "marg_ot_p": 0, "marg_ot_m": 0, "marg_ot_f": 0, "per_marg_ot_p": 0.0, "per_marg_ot_m": 0.0, "per_marg_ot_f": 0.0, "margwork_3_6_p": 17, "margwork_3_6_m": 12, "margwork_3_6_f": 5, "per_margwork_3_6_p": 68.0, "per_margwork_3_6_m": 70.58823529, "per_margwork_3_6_f": 29.41176471, "marg_cl_3_6_p": 0, "marg_cl_3_6_m": 0, "marg_cl_3_6_f": 0, "per_marg_cl_3_6_p": 0.0, "per_marg_cl_3_6_m": 0.0, "per_marg_cl_3_6_f": 0.0, "marg_al_3_6_p": 17, "marg_al_3_6_m": 12, "marg_al_3_6_f": 5, "per_marg_al_3_6_p": 68.0, "per_marg_al_3_6_m": 70.58823529, "per_marg_al_3_6_f": 29.41176471, "marg_hh_3_6_p": 0, "marg_hh_3_6_m": 0, "marg_hh_3_6_f": 0, "per_marg_hh_3_6_p": 0.0, "per_marg_hh_3_6_m": 0.0, "per_marg_hh_3_6_f": 0.0, "marg_ot_3_6_p": 0, "marg_ot_3_6_m": 0, "marg_ot_3_6_f": 0, "per_marg_ot_3_6_p": 0.0, "per_marg_ot_3_6_m": 0.0, "per_marg_ot_3_6_f": 0.0, "margwork_0_3_p": 8, "margwork_0_3_m": 0, "margwork_0_3_f": 8, "per_margwork_0_3_p": 32.0, "per_margwork_0_3_m": 0.0, "per_margwork_0_3_f": 100.0, "marg_cl_0_3_p": 0, "marg_cl_0_3_m": 0, "marg_cl_0_3_f": 0, "per_marg_cl_0_3_p": 0.0, "per_marg_cl_0_3_m": 0.0, "per_marg_cl_0_3_f": 0.0, "marg_al_0_3_p": 8, "marg_al_0_3_m": 0, "marg_al_0_3_f": 8, "per_marg_al_0_3_p": 32.0, "per_marg_al_0_3_m": 0.0, "per_marg_al_0_3_f": 100.0, "marg_hh_0_3_p": 0, "marg_hh_0_3_m": 0, "marg_hh_0_3_f": 0, "per_marg_hh_0_3_p": 0.0, "per_marg_hh_0_3_m": 0.0, "per_marg_hh_0_3_f": 0.0, "marg_ot_0_3_p": 0, "marg_ot_0_3_m": 0, "marg_ot_0_3_f": 0, "per_marg_ot_0_3_p": 0.0, "per_marg_ot_0_3_m": 0.0, "per_marg_ot_0_3_f": 0.0, "non_work_p": 34, "non_work_m": 10, "non_work_f": 24, "per_non_work_p": 54.83870968, "per_non_work_m": 29.41176471, "per_non_work_f": 70.58823529, "per_hc_tot_tot": 100, "per_hc_tot_god": 30.8, "per_hc_tot_liv": 69.2, "per_hc_tot_dil": 0.0, "per_hc_res_tot": 100.0, "per_hc_res_god": 30.8, "per_hc_res_liv": 69.2, "per_hc_res_dil": 0.0, "per_hc_oth_tot": 0.0, "per_hc_oth_god": 0.0, "per_hc_oth_liv": 0.0, "per_hc_oth_dil": 0.0, "per_mt_grsbam": 0.0, "per_mt_plastic": 0.0, "per_mt_h_tiles": 100.0, "per_mt_m_tiles": 0.0, "per_mt_b_brick": 0.0, "per_mt_stone": 0.0, "per_mt_asbstos": 0.0, "per_mt_concrte": 0.0, "per_mt_oth": 0.0, "per_mw_grsbam": 0.0, "per_mw_plastic": 0.0, "per_mw_mud": 100.0, "per_mw_wood": 0.0, "per_mw_no_mrtr": 0.0, "per_mw_st_mrtr": 0.0, "per_mw_asbstos": 0.0, "per_mw_b_brick": 0.0, "per_mw_concrte": 0.0, "per_mw_oth": 0.0, "per_mf_mud": 100.0, "per_mf_wood": 0.0, "per_mf_b_brick": 0.0, "per_mf_stone": 0.0, "per_mf_cement": 0.0, "per_mf_fl_tile": 0.0, "per_mf_oth": 0.0, "per_dw_n_exrm": 0.0, "per_dw_1_room": 76.9, "per_dw_2_room": 23.1, "per_dw_3_room": 0.0, "per_dw_4_room": 0.0, "per_dw_5_room": 0.0, "per_dw_6_room": 0.0, "per_hhsize_1": 0.0, "per_hhsize_2": 7.7, "per_hhsize_3": 15.4, "per_hhsize_4": 30.8, "per_hhsize_5": 15.4, "per_hhsize_6_8": 30.8, "per_hhsize_9p": 0.0, "per_ow_owned": 100.0, "per_ow_rented": 0.0, "per_ow_oth": 0.0, "per_mc_none": 0.0, "per_mcouple_1": 100.0, "per_mcouple_2": 0.0, "per_mcouple_3": 0.0, "per_mcouple_4": 0.0, "per_mcouple_5p": 0.0, "per_dw_t_ts": 0.0, "per_dw_t_unts": 0.0, "per_dw_c_well": 7.7, "per_dw_unc_wel": 0.0, "per_dw_hpump": 92.3, "per_dw_tw_bore": 0.0, "per_dw_spring": 0.0, "per_dw_rivcan": 0.0, "per_dw_tank": 0.0, "per_dw_oth": 0.0, "per_loc_dw_wp": 0.0, "per_loc_dw_np": 100.0, "per_loc_dw_aw": 0.0, "per_light_elec": 0.0, "per_light_kero": 100.0, "per_light_solr": 0.0, "per_light_oil": 0.0, "per_light_oth": 0.0, "per_light_no": 0.0, "per_hh_latrine": 0.0, "per_fl_sewer": 0.0, "per_fl_septict": 0.0, "per_fl_othsys": 0.0, "per_pl_wslab": 0.0, "per_pl_without": 0.0, "per_ns_open": 0.0, "per_sl_ns_hum": 0.0, "per_sl_ns_anml": 0.0, "per_hh_no_lat": 100.0, "per_as_pub": 0.0, "per_as_open": 100.0, "per_hh_bathrm": 0.0, "per_hh_en_wrf": 0.0, "per_hh_no_btrm": 100.0, "per_wwoc_drain": 0.0, "per_wwoc_open": 0.0, "per_wwoc_nodrn": 100.0, "per_cook_fire": 100.0, "per_cook_resdu": 0.0, "per_cook_cwdng": 0.0, "per_cook_coal": 0.0, "per_cook_kero": 0.0, "per_cook_lpng": 0.0, "per_cook_elec": 0.0, "per_cook_biogs": 0.0, "per_cook_oth": 0.0, "per_cook_no": 0.0, "per_kf_inside": 100.0, "per_kf_in_has": 0.0, "per_kf_in_does": 100.0, "per_kf_outside": 0.0, "per_kf_out_has": 0.0, "per_kf_out_dos": 0.0, "per_kf_no_cook": 0.0, "per_hh_banking": 7.7, "per_hh_radio": 0.0, "per_hh_tv": 0.0, "per_hh_cmp_int": 0.0, "per_hh_cmp_wnt": 0.0, "per_hh_ph_ll": 0.0, "per_hh_ph_mob": 7.7, "per_hh_ph_bth": 0.0, "per_hh_bcycl": 7.7, "per_hh_2wheel": 7.7, "per_hh_4wheel": 0.0, "per_hh_tvcomp": 0.0, "per_hh_no_ast": 76.9, "per_hs_perma": 0.0, "per_hs_sperma": 100.0, "per_hs_temp": 0.0, "per_hs_servc": 0.0, "per_hs_nservc": 0.0, "per_hs_unclss": 0.0, "avghhsz_cy": 4.76923077, "st_areashape": 1190997.60661654, "st_lengthshape": 4315.624571852292}, "geometry": {"type": "Polygon", "coordinates": [[[86.65160999984428, 24.05134000053999], [86.65181999990659, 24.051409999598405], [86.65226000012264, 24.051649999830477], [86.65292000044671, 24.051770000598587], [86.65357999987249, 24.051770000598587], [86.65547000043304, 24.05157000034985], [86.65746999970015, 24.051209999609178], [86.66021999970299, 24.05091999964555], [86.66189000015551, 24.050449999925732], [86.66225000000564, 24.050879999684017], [86.66225000000564, 24.050940000031826], [86.66242999993068, 24.052229999906178], [86.6624799992611, 24.053299999943984], [86.66240999983921, 24.05421999989087], [86.66125999996868, 24.056759999731224], [86.66068000001054, 24.058659999230088], [86.66032000016044, 24.05929999934204], [86.65754000002032, 24.06068999979297], [86.65540000011285, 24.061520000471674], [86.65483000020045, 24.06091000024872], [86.65281999998929, 24.058670000051027], [86.65145000001074, 24.056759999731224], [86.6513699996448, 24.05506000003978], [86.65169999935766, 24.053589999453024], [86.65167000011876, 24.051819999996845], [86.65160999984428, 24.05134000053999]]]}}]}