{"type": "FeatureCollection", "features": [{"type": "Feature", "properties": {"premiumdata.sde.IN_Village_PCA.area": 10.91860682, "objectid": 4476, "id": "325635651715", "name": "Vandazhi Ii", "subdistrict": "Alathur", "district": "Palakkad", "state": "Kerala", "country": "India", "censusname": "Vandazhi-II", "villagename_locallang": "\u0d35\u0d23\u0d4d\u0d1f\u0d3e\u0d34\u0d3f 2", "lgd_villagename": "Vandazhi-Ii", "lgd_villagecode": 627708, "lgd_subdistrictcode": 5651, "lgd_districtcode": 563, "lgd_statecode": 32, "censuscode2001": "00058700", "censuscode2011": "627708", "censuscode2021": null, "level": "Village", "tru": "Rural", "no_hh": 3050, "tot_p": 12789, "tot_m": 6278, "tot_f": 6511, "per_tot_m": 49.08906091, "per_tot_f": 50.91093909, "p_06": 1298, "m_06": 658, "f_06": 640, "per_p_06": 10.1493471, "per_m_06": 50.69337442, "per_f_06": 49.30662558, "p_sc": 1345, "m_sc": 669, "f_sc": 676, "per_p_sc": 10.51685042, "per_m_sc": 49.73977695, "per_f_sc": 50.26022305, "p_st": 15, "m_st": 7, "f_st": 8, "per_p_st": 0.11728829, "per_m_st": 46.66666667000001, "per_f_st": 53.33333333, "p_lit": 9730, "m_lit": 5155, "f_lit": 4575, "per_p_lit": 76.08100712000001, "per_m_lit": 52.98047276, "per_f_lit": 47.01952724, "p_ill": 3059, "m_ill": 1123, "f_ill": 1936, "per_p_ill": 15.13800923, "per_m_ill": 36.71134358, "per_f_ill": 63.28865642, "tot_work_p": 5422, "tot_work_m": 3706, "tot_work_f": 1716, "per_tot_work_p": 42.3958089, "per_tot_work_m": 68.35116193, "per_tot_work_f": 31.64883807, "mainwork_p": 4878, "mainwork_m": 3476, "mainwork_f": 1402, "per_mainwork_p": 38.14215341, "per_mainwork_m": 71.25871259, "per_mainwork_f": 28.74128741, "main_cl_p": 200, "main_cl_m": 162, "main_cl_f": 38, "per_main_cl_p": 4.100041, "per_main_cl_m": 81.0, "per_main_cl_f": 19.0, "main_al_p": 1094, "main_al_m": 440, "main_al_f": 654, "per_main_al_p": 22.42722427, "per_main_al_m": 40.21937843, "per_main_al_f": 59.78062157, "main_hh_p": 194, "main_hh_m": 123, "main_hh_f": 71, "per_main_hh_p": 3.97703977, "per_main_hh_m": 63.40206186, "per_main_hh_f": 36.59793814, "main_ot_p": 3390, "main_ot_m": 2751, "main_ot_f": 639, "per_main_ot_p": 69.49569496, "per_main_ot_m": 81.15044248000001, "per_main_ot_f": 18.84955752, "margwork_p": 544, "margwork_m": 230, "margwork_f": 314, "per_margwork_p": 4.25365549, "per_margwork_m": 42.27941176, "per_margwork_f": 57.72058824, "marg_cl_p": 25, "marg_cl_m": 12, "marg_cl_f": 13, "per_marg_cl_p": 4.59558824, "per_marg_cl_m": 48.0, "per_marg_cl_f": 52.0, "marg_al_p": 246, "marg_al_m": 63, "marg_al_f": 183, "per_marg_al_p": 45.22058824, "per_marg_al_m": 25.6097561, "per_marg_al_f": 74.3902439, "marg_hh_p": 40, "marg_hh_m": 9, "marg_hh_f": 31, "per_marg_hh_p": 7.35294118, "per_marg_hh_m": 22.5, "per_marg_hh_f": 77.5, "marg_ot_p": 233, "marg_ot_m": 146, "marg_ot_f": 87, "per_marg_ot_p": 42.83088235, "per_marg_ot_m": 62.66094421, "per_marg_ot_f": 37.33905579, "margwork_3_6_p": 439, "margwork_3_6_m": 187, "margwork_3_6_f": 252, "per_margwork_3_6_p": 80.69852941, "per_margwork_3_6_m": 42.59681093, "per_margwork_3_6_f": 57.40318907, "marg_cl_3_6_p": 22, "marg_cl_3_6_m": 9, "marg_cl_3_6_f": 13, "per_marg_cl_3_6_p": 4.04411765, "per_marg_cl_3_6_m": 40.90909091, "per_marg_cl_3_6_f": 59.09090909, "marg_al_3_6_p": 197, "marg_al_3_6_m": 52, "marg_al_3_6_f": 145, "per_marg_al_3_6_p": 36.21323529, "per_marg_al_3_6_m": 26.39593909, "per_marg_al_3_6_f": 73.60406091, "marg_hh_3_6_p": 30, "marg_hh_3_6_m": 7, "marg_hh_3_6_f": 23, "per_marg_hh_3_6_p": 5.51470588, "per_marg_hh_3_6_m": 23.33333333, "per_marg_hh_3_6_f": 76.66666667, "marg_ot_3_6_p": 190, "marg_ot_3_6_m": 119, "marg_ot_3_6_f": 71, "per_marg_ot_3_6_p": 34.92647059, "per_marg_ot_3_6_m": 62.63157895000001, "per_marg_ot_3_6_f": 37.36842105, "margwork_0_3_p": 105, "margwork_0_3_m": 43, "margwork_0_3_f": 62, "per_margwork_0_3_p": 19.30147059, "per_margwork_0_3_m": 40.95238095, "per_margwork_0_3_f": 59.04761905, "marg_cl_0_3_p": 3, "marg_cl_0_3_m": 3, "marg_cl_0_3_f": 0, "per_marg_cl_0_3_p": 0.55147059, "per_marg_cl_0_3_m": 100.0, "per_marg_cl_0_3_f": 0.0, "marg_al_0_3_p": 49, "marg_al_0_3_m": 11, "marg_al_0_3_f": 38, "per_marg_al_0_3_p": 9.00735294, "per_marg_al_0_3_m": 22.44897959, "per_marg_al_0_3_f": 77.55102041, "marg_hh_0_3_p": 10, "marg_hh_0_3_m": 2, "marg_hh_0_3_f": 8, "per_marg_hh_0_3_p": 1.83823529, "per_marg_hh_0_3_m": 20.0, "per_marg_hh_0_3_f": 80.0, "marg_ot_0_3_p": 43, "marg_ot_0_3_m": 27, "marg_ot_0_3_f": 16, "per_marg_ot_0_3_p": 7.90441176, "per_marg_ot_0_3_m": 62.79069767, "per_marg_ot_0_3_f": 37.20930233, "non_work_p": 7367, "non_work_m": 2572, "non_work_f": 4795, "per_non_work_p": 57.6041911, "per_non_work_m": 34.9124474, "per_non_work_f": 65.0875526, "per_hc_tot_tot": 100, "per_hc_tot_god": 45.8, "per_hc_tot_liv": 48.8, "per_hc_tot_dil": 5.5, "per_hc_res_tot": 99.3, "per_hc_res_god": 45.6, "per_hc_res_liv": 48.3, "per_hc_res_dil": 5.5, "per_hc_oth_tot": 0.7, "per_hc_oth_god": 0.2, "per_hc_oth_liv": 0.5, "per_hc_oth_dil": 0.0, "per_mt_grsbam": 5.8, "per_mt_plastic": 0.1, "per_mt_h_tiles": 0.7, "per_mt_m_tiles": 69.3, "per_mt_b_brick": 0.0, "per_mt_stone": 0.4, "per_mt_asbstos": 1.6, "per_mt_concrte": 22.2, "per_mt_oth": 0.0, "per_mw_grsbam": 4.8, "per_mw_plastic": 0.0, "per_mw_mud": 26.7, "per_mw_wood": 1.3, "per_mw_no_mrtr": 4.9, "per_mw_st_mrtr": 25.2, "per_mw_asbstos": 0.1, "per_mw_b_brick": 32.8, "per_mw_concrte": 3.7, "per_mw_oth": 0.4, "per_mf_mud": 13.2, "per_mf_wood": 0.0, "per_mf_b_brick": 0.3, "per_mf_stone": 1.5, "per_mf_cement": 72.4, "per_mf_fl_tile": 11.9, "per_mf_oth": 0.7, "per_dw_n_exrm": 1.9, "per_dw_1_room": 11.9, "per_dw_2_room": 29.8, "per_dw_3_room": 32.4, "per_dw_4_room": 15.7, "per_dw_5_room": 5.2, "per_dw_6_room": 3.1, "per_hhsize_1": 3.8, "per_hhsize_2": 8.7, "per_hhsize_3": 15.8, "per_hhsize_4": 32.4, "per_hhsize_5": 18.7, "per_hhsize_6_8": 17.1, "per_hhsize_9p": 3.5, "per_ow_owned": 94.4, "per_ow_rented": 4.1, "per_ow_oth": 1.4, "per_mc_none": 13.8, "per_mcouple_1": 69.6, "per_mcouple_2": 14.3, "per_mcouple_3": 2.2, "per_mcouple_4": 0.1, "per_mcouple_5p": 0.0, "per_dw_t_ts": 39.9, "per_dw_t_unts": 22.8, "per_dw_c_well": 3.2, "per_dw_unc_wel": 20.6, "per_dw_hpump": 0.3, "per_dw_tw_bore": 12.4, "per_dw_spring": 0.0, "per_dw_rivcan": 0.0, "per_dw_tank": 0.0, "per_dw_oth": 0.9, "per_loc_dw_wp": 83.4, "per_loc_dw_np": 13.2, "per_loc_dw_aw": 3.4, "per_light_elec": 94.7, "per_light_kero": 5.1, "per_light_solr": 0.1, "per_light_oil": 0.1, "per_light_oth": 0.0, "per_light_no": 0.1, "per_hh_latrine": 92.9, "per_fl_sewer": 7.6, "per_fl_septict": 43.6, "per_fl_othsys": 1.7, "per_pl_wslab": 39.7, "per_pl_without": 0.3, "per_ns_open": 0.0, "per_sl_ns_hum": 0.0, "per_sl_ns_anml": 0.0, "per_hh_no_lat": 7.1, "per_as_pub": 0.8, "per_as_open": 6.3, "per_hh_bathrm": 82.0, "per_hh_en_wrf": 2.9, "per_hh_no_btrm": 15.1, "per_wwoc_drain": 6.8, "per_wwoc_open": 20.5, "per_wwoc_nodrn": 72.7, "per_cook_fire": 69.2, "per_cook_resdu": 0.5, "per_cook_cwdng": 0.0, "per_cook_coal": 0.0, "per_cook_kero": 0.2, "per_cook_lpng": 29.8, "per_cook_elec": 0.0, "per_cook_biogs": 0.1, "per_cook_oth": 0.0, "per_cook_no": 0.2, "per_kf_inside": 95.7, "per_kf_in_has": 94.0, "per_kf_in_does": 1.7, "per_kf_outside": 4.1, "per_kf_out_has": 3.1, "per_kf_out_dos": 1.1, "per_kf_no_cook": 0.2, "per_hh_banking": 65.4, "per_hh_radio": 25.3, "per_hh_tv": 71.7, "per_hh_cmp_int": 2.2, "per_hh_cmp_wnt": 3.7, "per_hh_ph_ll": 6.2, "per_hh_ph_mob": 61.8, "per_hh_ph_bth": 14.8, "per_hh_bcycl": 17.1, "per_hh_2wheel": 19.3, "per_hh_4wheel": 4.5, "per_hh_tvcomp": 2.7, "per_hh_no_ast": 8.6, "per_hs_perma": 65.4, "per_hs_sperma": 29.7, "per_hs_temp": 4.5, "per_hs_servc": 1.5, "per_hs_nservc": 3.0, "per_hs_unclss": 0.4, "avghhsz_cy": 4.19311475, "st_areashape": 11371627.13688991, "st_lengthshape": 16779.61892521683}, "geometry": {"type": "Polygon", "coordinates": [[[76.5198065801313, 10.611998097020798], [76.51891254262456, 10.612296190038393], [76.51756417856963, 10.611267559964142], [76.51621727517535, 10.61053724896489], [76.51279135580323, 10.610702924913257], [76.51278700975391, 10.609817006352486], [76.51277614732548, 10.60760204464757], [76.51172363173126, 10.60539213162377], [76.51127001934373, 10.60421454366628], [76.51037239486404, 10.603775792842264], [76.50947693801915, 10.603780164451253], [76.50918354465409, 10.604518378294058], [76.50844032350378, 10.604820272730786], [76.50844463990873, 10.605706263154433], [76.50814383005269, 10.605852299192222], [76.50799188092068, 10.604673202239837], [76.50709632705774, 10.604677557059519], [76.5069376037302, 10.60305549104685], [76.50604669236064, 10.603059774368413], [76.5054308693856, 10.599518691977499], [76.50319683293586, 10.59952941938921], [76.50274402094722, 10.598500944187515], [76.50125293435656, 10.599095730203663], [76.50050536895357, 10.598511606293636], [76.50124073792998, 10.596586944871476], [76.50152783679984, 10.593633765679028], [76.50196048071201, 10.590530704542338], [76.50225388395853, 10.589792545282087], [76.50278504071804, 10.589111960504981], [76.50392634579494, 10.588925689728983], [76.50491621198294, 10.588613547203328], [76.50602977169396, 10.58836415878807], [76.50649969030057, 10.588235310337923], [76.50668192074247, 10.588121406065936], [76.50692772136375, 10.587948529227486], [76.50745339121353, 10.587069042111706], [76.50779345744748, 10.586542997414613], [76.50798914016077, 10.586370326313867], [76.50816231199134, 10.586288173176692], [76.50832179978518, 10.586201462722356], [76.50862360227963, 10.586249726249758], [76.50904030558712, 10.58645115400863], [76.50977839466222, 10.58698108681525], [76.51047010821075, 10.587343907658902], [76.51093204528605, 10.587450158185035], [76.51118346397114, 10.587480567695883], [76.51146156082353, 10.587366223398327], [76.51171654761694, 10.587188713796522], [76.51190734619003, 10.586975321555606], [76.51207523592673, 10.586730473200431], [76.5121574829792, 10.58581245083763], [76.51230645958591, 10.585445533581602], [76.51251950583534, 10.585101023625803], [76.51292306589185, 10.584470728508702], [76.5133355390327, 10.583817838827718], [76.51354918176345, 10.5835908172735], [76.513991380157, 10.583389778819392], [76.51470812076937, 10.583277814538969], [76.51535096686477, 10.583017107458728], [76.51704844318859, 10.582606615216832], [76.5172132651786, 10.58256418092032], [76.518873566521, 10.582136717861383], [76.52018367312463, 10.581926967285007], [76.5215220533035, 10.58187533428692], [76.52296577532249, 10.581891014393676], [76.52364671088425, 10.581932875691697], [76.524044869371, 10.58208467605229], [76.525000775648, 10.582297057970674], [76.52620508766061, 10.580085224560948], [76.52680058265906, 10.579490209145398], [76.52709318999825, 10.57860284306315], [76.5281444434595, 10.579632907408904], [76.52933531577713, 10.579328741685956], [76.53022171131576, 10.578438506996877], [76.53067240956854, 10.579028490205562], [76.53231239371416, 10.579020477443567], [76.5330680762941, 10.581231766631216], [76.5345605121543, 10.580930676358683], [76.53605048842726, 10.581068054516784], [76.53664452905329, 10.580179194474951], [76.53843001063055, 10.580025835482774], [76.53917686546619, 10.580465194295401], [76.53992393140592, 10.580018583930258], [76.54155938624586, 10.580010534106341], [76.54201072409914, 10.580745182103826], [76.54305833938345, 10.581033851711023], [76.54454468915762, 10.580438921141566], [76.54573855825507, 10.580726898732529], [76.54558990683847, 10.580875447450154], [76.54484752651125, 10.581617303388146], [76.54336561171966, 10.58309814708273], [76.54471397757122, 10.584126694294637], [76.54457427337489, 10.586342277019282], [76.5432370457345, 10.587528662364761], [76.5413081202744, 10.589160873474691], [76.54041199148968, 10.589020643264178], [76.54041492808233, 10.589608271418504], [76.53952769172061, 10.590349406878675], [76.5384771101992, 10.589468494399984], [76.53788616067605, 10.590063599062395], [76.53625195629097, 10.591251340436331], [76.53551018771647, 10.591847175417161], [76.53611078873904, 10.59317316031846], [76.53582925403403, 10.596275435312755], [76.53672908477606, 10.597152544589063], [76.5368775116138, 10.59759481480183], [76.53613721897133, 10.598484402249216], [76.53570270566502, 10.60114444199308], [76.53466473918516, 10.601886316848871], [76.5348234562245, 10.604394301163222], [76.53408170381967, 10.604990069954113], [76.53365087091107, 10.608386962359253], [76.53290761742143, 10.60868440638834], [76.5327636606005, 10.609128114171966], [76.5300818130833, 10.610029895283411], [76.52799577856818, 10.610480248005116], [76.52739748801255, 10.609597186051952], [76.52575657411062, 10.609460519992133], [76.52233040321023, 10.610507735294876], [76.5198065801313, 10.611998097020798]]]}}]}