{"type": "FeatureCollection", "features": [{"type": "Feature", "properties": {"premiumdata.sde.IN_Village_PCA.area": 5.07481352, "objectid": 141712, "id": "223853341260060", "name": "Boriyajhar", "subdistrict": "Mahasamund", "district": "Mahasamund", "state": "Chhattisgarh", "country": "India", "censusname": "Boriyajhar", "villagename_locallang": "\u092c\u094b\u0930\u093f\u092f\u093e\u091d\u093e\u0930", "lgd_villagename": "Boriyajhar", "lgd_villagecode": 446216, "lgd_subdistrictcode": 3341, "lgd_districtcode": 385, "lgd_statecode": 22, "censuscode2001": "01563300", "censuscode2011": "446216", "censuscode2021": null, "level": "Village", "tru": "Rural", "no_hh": 280, "tot_p": 1324, "tot_m": 666, "tot_f": 658, "per_tot_m": 50.3021148, "per_tot_f": 49.6978852, "p_06": 183, "m_06": 92, "f_06": 91, "per_p_06": 13.82175227, "per_m_06": 50.27322404, "per_f_06": 49.72677596, "p_sc": 127, "m_sc": 63, "f_sc": 64, "per_p_sc": 9.59214502, "per_m_sc": 49.60629921, "per_f_sc": 50.39370079, "p_st": 255, "m_st": 137, "f_st": 118, "per_p_st": 19.25981873, "per_m_st": 53.7254902, "per_f_st": 46.2745098, "p_lit": 788, "m_lit": 449, "f_lit": 339, "per_p_lit": 59.51661631, "per_m_lit": 56.97969543, "per_f_lit": 43.02030457, "p_ill": 536, "m_ill": 217, "f_ill": 319, "per_p_ill": 40.48338369, "per_m_ill": 40.48507463, "per_f_ill": 59.51492537, "tot_work_p": 651, "tot_work_m": 411, "tot_work_f": 240, "per_tot_work_p": 49.16918429, "per_tot_work_m": 63.13364055, "per_tot_work_f": 36.86635945, "mainwork_p": 592, "mainwork_m": 399, "mainwork_f": 193, "per_mainwork_p": 44.71299094, "per_mainwork_m": 67.39864865, "per_mainwork_f": 32.60135135, "main_cl_p": 91, "main_cl_m": 83, "main_cl_f": 8, "per_main_cl_p": 15.37162162, "per_main_cl_m": 91.20879120999999, "per_main_cl_f": 8.79120879, "main_al_p": 403, "main_al_m": 228, "main_al_f": 175, "per_main_al_p": 68.07432431999999, "per_main_al_m": 56.57568238, "per_main_al_f": 43.42431762, "main_hh_p": 0, "main_hh_m": 0, "main_hh_f": 0, "per_main_hh_p": 0.0, "per_main_hh_m": 0.0, "per_main_hh_f": 0.0, "main_ot_p": 98, "main_ot_m": 88, "main_ot_f": 10, "per_main_ot_p": 16.55405405, "per_main_ot_m": 89.79591837000001, "per_main_ot_f": 10.20408163, "margwork_p": 59, "margwork_m": 12, "margwork_f": 47, "per_margwork_p": 4.45619335, "per_margwork_m": 20.33898305, "per_margwork_f": 79.66101695, "marg_cl_p": 0, "marg_cl_m": 0, "marg_cl_f": 0, "per_marg_cl_p": 0.0, "per_marg_cl_m": 0.0, "per_marg_cl_f": 0.0, "marg_al_p": 57, "marg_al_m": 10, "marg_al_f": 47, "per_marg_al_p": 96.61016949, "per_marg_al_m": 17.54385965, "per_marg_al_f": 82.45614035000001, "marg_hh_p": 0, "marg_hh_m": 0, "marg_hh_f": 0, "per_marg_hh_p": 0.0, "per_marg_hh_m": 0.0, "per_marg_hh_f": 0.0, "marg_ot_p": 2, "marg_ot_m": 2, "marg_ot_f": 0, "per_marg_ot_p": 3.38983051, "per_marg_ot_m": 100.0, "per_marg_ot_f": 0.0, "margwork_3_6_p": 56, "margwork_3_6_m": 10, "margwork_3_6_f": 46, "per_margwork_3_6_p": 94.91525424, "per_margwork_3_6_m": 17.85714286, "per_margwork_3_6_f": 82.14285714, "marg_cl_3_6_p": 0, "marg_cl_3_6_m": 0, "marg_cl_3_6_f": 0, "per_marg_cl_3_6_p": 0.0, "per_marg_cl_3_6_m": 0.0, "per_marg_cl_3_6_f": 0.0, "marg_al_3_6_p": 55, "marg_al_3_6_m": 9, "marg_al_3_6_f": 46, "per_marg_al_3_6_p": 93.22033898, "per_marg_al_3_6_m": 16.36363636, "per_marg_al_3_6_f": 83.63636364, "marg_hh_3_6_p": 0, "marg_hh_3_6_m": 0, "marg_hh_3_6_f": 0, "per_marg_hh_3_6_p": 0.0, "per_marg_hh_3_6_m": 0.0, "per_marg_hh_3_6_f": 0.0, "marg_ot_3_6_p": 1, "marg_ot_3_6_m": 1, "marg_ot_3_6_f": 0, "per_marg_ot_3_6_p": 1.69491525, "per_marg_ot_3_6_m": 100.0, "per_marg_ot_3_6_f": 0.0, "margwork_0_3_p": 3, "margwork_0_3_m": 2, "margwork_0_3_f": 1, "per_margwork_0_3_p": 5.08474576, "per_margwork_0_3_m": 66.66666667, "per_margwork_0_3_f": 33.33333333, "marg_cl_0_3_p": 0, "marg_cl_0_3_m": 0, "marg_cl_0_3_f": 0, "per_marg_cl_0_3_p": 0.0, "per_marg_cl_0_3_m": 0.0, "per_marg_cl_0_3_f": 0.0, "marg_al_0_3_p": 2, "marg_al_0_3_m": 1, "marg_al_0_3_f": 1, "per_marg_al_0_3_p": 3.38983051, "per_marg_al_0_3_m": 50.0, "per_marg_al_0_3_f": 50.0, "marg_hh_0_3_p": 0, "marg_hh_0_3_m": 0, "marg_hh_0_3_f": 0, "per_marg_hh_0_3_p": 0.0, "per_marg_hh_0_3_m": 0.0, "per_marg_hh_0_3_f": 0.0, "marg_ot_0_3_p": 1, "marg_ot_0_3_m": 1, "marg_ot_0_3_f": 0, "per_marg_ot_0_3_p": 1.69491525, "per_marg_ot_0_3_m": 100.0, "per_marg_ot_0_3_f": 0.0, "non_work_p": 673, "non_work_m": 255, "non_work_f": 418, "per_non_work_p": 50.83081571, "per_non_work_m": 37.89004458, "per_non_work_f": 62.10995542000001, "per_hc_tot_tot": 100, "per_hc_tot_god": 89.5, "per_hc_tot_liv": 10.5, "per_hc_tot_dil": 0.0, "per_hc_res_tot": 97.6, "per_hc_res_god": 87.8, "per_hc_res_liv": 9.8, "per_hc_res_dil": 0.0, "per_hc_oth_tot": 2.4, "per_hc_oth_god": 1.7, "per_hc_oth_liv": 0.7, "per_hc_oth_dil": 0.0, "per_mt_grsbam": 55.9, "per_mt_plastic": 1.0, "per_mt_h_tiles": 25.9, "per_mt_m_tiles": 1.7, "per_mt_b_brick": 1.0, "per_mt_stone": 0.0, "per_mt_asbstos": 0.0, "per_mt_concrte": 13.6, "per_mt_oth": 0.7, "per_mw_grsbam": 32.9, "per_mw_plastic": 0.0, "per_mw_mud": 50.0, "per_mw_wood": 0.3, "per_mw_no_mrtr": 0.0, "per_mw_st_mrtr": 0.0, "per_mw_asbstos": 0.0, "per_mw_b_brick": 15.7, "per_mw_concrte": 0.7, "per_mw_oth": 0.3, "per_mf_mud": 47.2, "per_mf_wood": 0.0, "per_mf_b_brick": 0.0, "per_mf_stone": 34.6, "per_mf_cement": 16.8, "per_mf_fl_tile": 1.4, "per_mf_oth": 0.0, "per_dw_n_exrm": 0.3, "per_dw_1_room": 19.9, "per_dw_2_room": 49.3, "per_dw_3_room": 21.3, "per_dw_4_room": 5.2, "per_dw_5_room": 1.7, "per_dw_6_room": 2.1, "per_hhsize_1": 1.7, "per_hhsize_2": 11.9, "per_hhsize_3": 11.5, "per_hhsize_4": 21.0, "per_hhsize_5": 25.2, "per_hhsize_6_8": 23.1, "per_hhsize_9p": 5.6, "per_ow_owned": 97.9, "per_ow_rented": 0.7, "per_ow_oth": 1.4, "per_mc_none": 8.0, "per_mcouple_1": 72.4, "per_mcouple_2": 16.8, "per_mcouple_3": 2.8, "per_mcouple_4": 0.0, "per_mcouple_5p": 0.0, "per_dw_t_ts": 52.4, "per_dw_t_unts": 35.3, "per_dw_c_well": 2.1, "per_dw_unc_wel": 2.8, "per_dw_hpump": 6.6, "per_dw_tw_bore": 0.7, "per_dw_spring": 0.0, "per_dw_rivcan": 0.0, "per_dw_tank": 0.0, "per_dw_oth": 0.0, "per_loc_dw_wp": 6.6, "per_loc_dw_np": 48.3, "per_loc_dw_aw": 45.1, "per_light_elec": 89.9, "per_light_kero": 9.4, "per_light_solr": 0.7, "per_light_oil": 0.0, "per_light_oth": 0.0, "per_light_no": 0.0, "per_hh_latrine": 9.8, "per_fl_sewer": 0.0, "per_fl_septict": 8.4, "per_fl_othsys": 0.0, "per_pl_wslab": 0.0, "per_pl_without": 1.4, "per_ns_open": 0.0, "per_sl_ns_hum": 0.0, "per_sl_ns_anml": 0.0, "per_hh_no_lat": 90.2, "per_as_pub": 0.0, "per_as_open": 90.2, "per_hh_bathrm": 7.7, "per_hh_en_wrf": 3.5, "per_hh_no_btrm": 88.8, "per_wwoc_drain": 2.4, "per_wwoc_open": 53.8, "per_wwoc_nodrn": 43.7, "per_cook_fire": 95.8, "per_cook_resdu": 0.3, "per_cook_cwdng": 0.0, "per_cook_coal": 0.0, "per_cook_kero": 0.0, "per_cook_lpng": 3.5, "per_cook_elec": 0.0, "per_cook_biogs": 0.3, "per_cook_oth": 0.0, "per_cook_no": 0.0, "per_kf_inside": 97.9, "per_kf_in_has": 91.3, "per_kf_in_does": 6.6, "per_kf_outside": 2.1, "per_kf_out_has": 2.1, "per_kf_out_dos": 0.0, "per_kf_no_cook": 0.0, "per_hh_banking": 41.3, "per_hh_radio": 10.5, "per_hh_tv": 34.6, "per_hh_cmp_int": 0.7, "per_hh_cmp_wnt": 8.7, "per_hh_ph_ll": 1.7, "per_hh_ph_mob": 21.0, "per_hh_ph_bth": 0.3, "per_hh_bcycl": 73.8, "per_hh_2wheel": 9.4, "per_hh_4wheel": 0.3, "per_hh_tvcomp": 3.1, "per_hh_no_ast": 18.5, "per_hs_perma": 16.1, "per_hs_sperma": 25.9, "per_hs_temp": 57.0, "per_hs_servc": 24.1, "per_hs_nservc": 32.9, "per_hs_unclss": 1.0, "avghhsz_cy": 4.72857143, "st_areashape": 5857024.03891361, "st_lengthshape": 11606.582343570726}, "geometry": {"type": "Polygon", "coordinates": [[[82.158589345188, 21.07842324283928], [82.15751978675621, 21.07675991089415], [82.15549950891989, 21.07531834159976], [82.15324155123244, 21.07365497491635], [82.1502705548899, 21.07365497491635], [82.14741839847294, 21.07365497491635], [82.14516044078549, 21.072878730371386], [82.1423082843685, 21.073322299178997], [82.14052568638333, 21.074652996824152], [82.13755468914248, 21.077757911959246], [82.13541557227892, 21.07986478202533], [82.13315761459147, 21.079975669140453], [82.1319177364801, 21.079418640177188], [82.12994893839779, 21.07853413102976], [82.12840402026374, 21.076094572569865], [82.12804750048703, 21.073544083086627], [82.12864170011488, 21.071880696554594], [82.13018661824891, 21.069662818622092], [82.13220689608524, 21.06644683733054], [82.1343460129488, 21.06156728463032], [82.13446485287439, 21.058240225921402], [82.13696049041296, 21.05757480474975], [82.13886192832372, 21.056465763689896], [82.14052568638333, 21.055467618915166], [82.14361552265146, 21.054802186184638], [82.14729955854736, 21.054136749640637], [82.14634883914283, 21.056465763689896], [82.14682419884508, 21.058572934553098], [82.1493198363837, 21.061789086066764], [82.15359807100916, 21.063674384087573], [82.15704442705393, 21.0645615752837], [82.15775746660738, 21.067555804829706], [82.15811398638405, 21.07476388782687], [82.158589345188, 21.07842324283928]]]}}]}