{"type": "FeatureCollection", "features": [{"type": "Feature", "properties": {"premiumdata.sde.IN_Village_PCA.area": 8.73643104, "objectid": 230315, "id": "892633492135", "name": "Galodiya", "subdistrict": "Sahara", "district": "Bhilwara", "state": "Rajasthan", "country": "India", "censusname": "Galodiya", "villagename_locallang": null, "lgd_villagename": "Galodiya", "lgd_villagecode": 95479, "lgd_subdistrictcode": 633, "lgd_districtcode": 92, "lgd_statecode": 8, "censuscode2001": "02867600", "censuscode2011": "095479", "censuscode2021": null, "level": "Village", "tru": "Rural", "no_hh": 276, "tot_p": 1331, "tot_m": 643, "tot_f": 688, "per_tot_m": 48.3095417, "per_tot_f": 51.6904583, "p_06": 209, "m_06": 105, "f_06": 104, "per_p_06": 15.70247934, "per_m_06": 50.23923445, "per_f_06": 49.76076555, "p_sc": 275, "m_sc": 134, "f_sc": 141, "per_p_sc": 20.66115702, "per_m_sc": 48.72727273, "per_f_sc": 51.27272727, "p_st": 89, "m_st": 44, "f_st": 45, "per_p_st": 6.68670173, "per_m_st": 49.43820225, "per_f_st": 50.56179775, "p_lit": 733, "m_lit": 436, "f_lit": 297, "per_p_lit": 55.07137491, "per_m_lit": 59.48158254, "per_f_lit": 40.51841746, "p_ill": 598, "m_ill": 207, "f_ill": 391, "per_p_ill": 44.92862509, "per_m_ill": 34.61538462, "per_f_ill": 65.38461538, "tot_work_p": 636, "tot_work_m": 330, "tot_work_f": 306, "per_tot_work_p": 47.78362134, "per_tot_work_m": 51.88679245, "per_tot_work_f": 48.11320755, "mainwork_p": 414, "mainwork_m": 225, "mainwork_f": 189, "per_mainwork_p": 31.10443276, "per_mainwork_m": 54.34782609, "per_mainwork_f": 45.65217391, "main_cl_p": 287, "main_cl_m": 132, "main_cl_f": 155, "per_main_cl_p": 69.3236715, "per_main_cl_m": 45.99303136, "per_main_cl_f": 54.00696864, "main_al_p": 55, "main_al_m": 34, "main_al_f": 21, "per_main_al_p": 13.28502415, "per_main_al_m": 61.81818182, "per_main_al_f": 38.18181818, "main_hh_p": 8, "main_hh_m": 7, "main_hh_f": 1, "per_main_hh_p": 1.93236715, "per_main_hh_m": 87.5, "per_main_hh_f": 12.5, "main_ot_p": 64, "main_ot_m": 52, "main_ot_f": 12, "per_main_ot_p": 15.4589372, "per_main_ot_m": 81.25, "per_main_ot_f": 18.75, "margwork_p": 222, "margwork_m": 105, "margwork_f": 117, "per_margwork_p": 16.67918858, "per_margwork_m": 47.2972973, "per_margwork_f": 52.7027027, "marg_cl_p": 81, "marg_cl_m": 39, "marg_cl_f": 42, "per_marg_cl_p": 36.48648649, "per_marg_cl_m": 48.14814815, "per_marg_cl_f": 51.85185185, "marg_al_p": 25, "marg_al_m": 11, "marg_al_f": 14, "per_marg_al_p": 11.26126126, "per_marg_al_m": 44.0, "per_marg_al_f": 56.0, "marg_hh_p": 4, "marg_hh_m": 3, "marg_hh_f": 1, "per_marg_hh_p": 1.8018018, "per_marg_hh_m": 75.0, "per_marg_hh_f": 25.0, "marg_ot_p": 112, "marg_ot_m": 52, "marg_ot_f": 60, "per_marg_ot_p": 50.45045045000001, "per_marg_ot_m": 46.42857143, "per_marg_ot_f": 53.57142857, "margwork_3_6_p": 213, "margwork_3_6_m": 103, "margwork_3_6_f": 110, "per_margwork_3_6_p": 95.94594595, "per_margwork_3_6_m": 48.35680751, "per_margwork_3_6_f": 51.64319249, "marg_cl_3_6_p": 77, "marg_cl_3_6_m": 39, "marg_cl_3_6_f": 38, "per_marg_cl_3_6_p": 34.68468468, "per_marg_cl_3_6_m": 50.64935065, "per_marg_cl_3_6_f": 49.35064935, "marg_al_3_6_p": 22, "marg_al_3_6_m": 10, "marg_al_3_6_f": 12, "per_marg_al_3_6_p": 9.90990991, "per_marg_al_3_6_m": 45.45454545, "per_marg_al_3_6_f": 54.54545455, "marg_hh_3_6_p": 4, "marg_hh_3_6_m": 3, "marg_hh_3_6_f": 1, "per_marg_hh_3_6_p": 1.8018018, "per_marg_hh_3_6_m": 75.0, "per_marg_hh_3_6_f": 25.0, "marg_ot_3_6_p": 110, "marg_ot_3_6_m": 51, "marg_ot_3_6_f": 59, "per_marg_ot_3_6_p": 49.54954955, "per_marg_ot_3_6_m": 46.36363636, "per_marg_ot_3_6_f": 53.63636364, "margwork_0_3_p": 9, "margwork_0_3_m": 2, "margwork_0_3_f": 7, "per_margwork_0_3_p": 4.05405405, "per_margwork_0_3_m": 22.22222222, "per_margwork_0_3_f": 77.77777778, "marg_cl_0_3_p": 4, "marg_cl_0_3_m": 0, "marg_cl_0_3_f": 4, "per_marg_cl_0_3_p": 1.8018018, "per_marg_cl_0_3_m": 0.0, "per_marg_cl_0_3_f": 100.0, "marg_al_0_3_p": 3, "marg_al_0_3_m": 1, "marg_al_0_3_f": 2, "per_marg_al_0_3_p": 1.35135135, "per_marg_al_0_3_m": 33.33333333, "per_marg_al_0_3_f": 66.66666667, "marg_hh_0_3_p": 0, "marg_hh_0_3_m": 0, "marg_hh_0_3_f": 0, "per_marg_hh_0_3_p": 0.0, "per_marg_hh_0_3_m": 0.0, "per_marg_hh_0_3_f": 0.0, "marg_ot_0_3_p": 2, "marg_ot_0_3_m": 1, "marg_ot_0_3_f": 1, "per_marg_ot_0_3_p": 0.9009009, "per_marg_ot_0_3_m": 50.0, "per_marg_ot_0_3_f": 50.0, "non_work_p": 695, "non_work_m": 313, "non_work_f": 382, "per_non_work_p": 52.21637866, "per_non_work_m": 45.03597122, "per_non_work_f": 54.96402878, "per_hc_tot_tot": 100, "per_hc_tot_god": 17.2, "per_hc_tot_liv": 82.0, "per_hc_tot_dil": 0.8, "per_hc_res_tot": 98.1, "per_hc_res_god": 16.9, "per_hc_res_liv": 80.5, "per_hc_res_dil": 0.8, "per_hc_oth_tot": 1.9, "per_hc_oth_god": 0.4, "per_hc_oth_liv": 1.5, "per_hc_oth_dil": 0.0, "per_mt_grsbam": 22.6, "per_mt_plastic": 0.4, "per_mt_h_tiles": 38.7, "per_mt_m_tiles": 0.4, "per_mt_b_brick": 0.8, "per_mt_stone": 34.9, "per_mt_asbstos": 0.8, "per_mt_concrte": 1.1, "per_mt_oth": 0.4, "per_mw_grsbam": 0.8, "per_mw_plastic": 10.7, "per_mw_mud": 16.5, "per_mw_wood": 0.0, "per_mw_no_mrtr": 2.3, "per_mw_st_mrtr": 35.6, "per_mw_asbstos": 0.0, "per_mw_b_brick": 34.1, "per_mw_concrte": 0.0, "per_mw_oth": 0.0, "per_mf_mud": 53.3, "per_mf_wood": 0.0, "per_mf_b_brick": 0.0, "per_mf_stone": 3.1, "per_mf_cement": 26.4, "per_mf_fl_tile": 16.5, "per_mf_oth": 0.8, "per_dw_n_exrm": 1.1, "per_dw_1_room": 35.2, "per_dw_2_room": 28.7, "per_dw_3_room": 14.2, "per_dw_4_room": 11.1, "per_dw_5_room": 6.1, "per_dw_6_room": 3.4, "per_hhsize_1": 5.0, "per_hhsize_2": 6.1, "per_hhsize_3": 11.1, "per_hhsize_4": 17.6, "per_hhsize_5": 16.9, "per_hhsize_6_8": 32.6, "per_hhsize_9p": 10.7, "per_ow_owned": 98.1, "per_ow_rented": 1.1, "per_ow_oth": 0.8, "per_mc_none": 6.1, "per_mcouple_1": 68.6, "per_mcouple_2": 16.9, "per_mcouple_3": 5.0, "per_mcouple_4": 2.7, "per_mcouple_5p": 0.8, "per_dw_t_ts": 70.9, "per_dw_t_unts": 0.8, "per_dw_c_well": 0.0, "per_dw_unc_wel": 3.4, "per_dw_hpump": 23.4, "per_dw_tw_bore": 1.5, "per_dw_spring": 0.0, "per_dw_rivcan": 0.0, "per_dw_tank": 0.0, "per_dw_oth": 0.0, "per_loc_dw_wp": 33.0, "per_loc_dw_np": 52.1, "per_loc_dw_aw": 14.9, "per_light_elec": 88.5, "per_light_kero": 7.3, "per_light_solr": 0.0, "per_light_oil": 4.2, "per_light_oth": 0.0, "per_light_no": 0.0, "per_hh_latrine": 6.5, "per_fl_sewer": 0.0, "per_fl_septict": 6.5, "per_fl_othsys": 0.0, "per_pl_wslab": 0.0, "per_pl_without": 0.0, "per_ns_open": 0.0, "per_sl_ns_hum": 0.0, "per_sl_ns_anml": 0.0, "per_hh_no_lat": 93.5, "per_as_pub": 3.4, "per_as_open": 90.0, "per_hh_bathrm": 13.8, "per_hh_en_wrf": 21.5, "per_hh_no_btrm": 64.8, "per_wwoc_drain": 1.1, "per_wwoc_open": 30.7, "per_wwoc_nodrn": 68.2, "per_cook_fire": 92.0, "per_cook_resdu": 1.5, "per_cook_cwdng": 0.0, "per_cook_coal": 0.0, "per_cook_kero": 0.0, "per_cook_lpng": 3.1, "per_cook_elec": 0.0, "per_cook_biogs": 0.0, "per_cook_oth": 0.0, "per_cook_no": 3.4, "per_kf_inside": 94.3, "per_kf_in_has": 24.1, "per_kf_in_does": 70.1, "per_kf_outside": 2.3, "per_kf_out_has": 0.0, "per_kf_out_dos": 2.3, "per_kf_no_cook": 3.4, "per_hh_banking": 53.3, "per_hh_radio": 1.5, "per_hh_tv": 43.7, "per_hh_cmp_int": 0.4, "per_hh_cmp_wnt": 0.0, "per_hh_ph_ll": 1.1, "per_hh_ph_mob": 65.1, "per_hh_ph_bth": 2.3, "per_hh_bcycl": 55.6, "per_hh_2wheel": 34.5, "per_hh_4wheel": 1.9, "per_hh_tvcomp": 0.0, "per_hh_no_ast": 7.7, "per_hs_perma": 69.3, "per_hs_sperma": 9.6, "per_hs_temp": 20.7, "per_hs_servc": 9.6, "per_hs_nservc": 11.1, "per_hs_unclss": 0.4, "avghhsz_cy": 4.82246377, "st_areashape": 10717117.53345237, "st_lengthshape": 13221.71753399069}, "geometry": {"type": "Polygon", "coordinates": [[[74.30918802495846, 25.21543246642159], [74.30797169797894, 25.215851691093736], [74.30537846926453, 25.21608361672653], [74.30257299559793, 25.215677515767883], [74.29901901329724, 25.21420919371116], [74.29469342487988, 25.212295166369433], [74.29198062950283, 25.211159010409126], [74.28862458199185, 25.210498551335814], [74.28804955600545, 25.20967652683626], [74.28786455785418, 25.207494559036313], [74.28788865875494, 25.206002256338028], [74.28774868775893, 25.204969556577517], [74.28719006680622, 25.204375750166907], [74.2864356023418, 25.203874868457703], [74.2883266736942, 25.200544719321254], [74.29004261758361, 25.197147562146704], [74.29136740086234, 25.19466260096185], [74.29229787044376, 25.19351954342514], [74.29342457610066, 25.191709299011794], [74.29444432474655, 25.189979405973013], [74.29503114022276, 25.189250989706352], [74.29536363815045, 25.188837729490768], [74.29679850817061, 25.187970279397184], [74.29878038482516, 25.187220011606286], [74.30087334624943, 25.186308145532543], [74.3031918198443, 25.185156777167855], [74.30469001480382, 25.184472942882532], [74.30630408614675, 25.1843003720882], [74.30779668639866, 25.184373430426042], [74.30905185922603, 25.18476906945171], [74.31055447838828, 25.186093179878732], [74.31201339451198, 25.188178756431988], [74.312177635292, 25.188414070104372], [74.31265581480596, 25.190764365193697], [74.31317815280434, 25.19335370945968], [74.31639613464604, 25.197352921685596], [74.31935342269733, 25.200586576916844], [74.32388987266133, 25.20500443813053], [74.32591619795612, 25.20674928980295], [74.32871027110345, 25.208863196576452], [74.32769380759655, 25.209472452733966], [74.32438298666685, 25.210214625776757], [74.3230818533346, 25.210698554285678], [74.32048941334101, 25.21093649350207], [74.31859129919681, 25.211506266790813], [74.31668291910553, 25.21248868885626], [74.31321450492894, 25.214042109508647], [74.31087767965113, 25.21484964052806], [74.30918802495846, 25.21543246642159]]]}}]}