{"type": "FeatureCollection", "features": [{"type": "Feature", "properties": {"premiumdata.sde.IN_Village_PCA.area": 18.53871816, "objectid": 389755, "id": "661388349708", "name": "Kumharia", "subdistrict": "Fatehabad", "district": "Fatehabad", "state": "Haryana", "country": "India", "censusname": "Kumharia (93)", "villagename_locallang": null, "lgd_villagename": "Kumharia", "lgd_villagecode": 60442, "lgd_subdistrictcode": 388, "lgd_districtcode": 61, "lgd_statecode": 6, "censuscode2001": "00350200", "censuscode2011": "060442", "censuscode2021": null, "level": "Village", "tru": "Rural", "no_hh": 783, "tot_p": 4188, "tot_m": 2211, "tot_f": 1977, "per_tot_m": 52.79369628, "per_tot_f": 47.20630372, "p_06": 529, "m_06": 285, "f_06": 244, "per_p_06": 12.6313276, "per_m_06": 53.87523629, "per_f_06": 46.12476371, "p_sc": 512, "m_sc": 267, "f_sc": 245, "per_p_sc": 12.22540592, "per_m_sc": 52.1484375, "per_f_sc": 47.8515625, "p_st": 0, "m_st": 0, "f_st": 0, "per_p_st": 0.0, "per_m_st": 0.0, "per_f_st": 0.0, "p_lit": 2496, "m_lit": 1555, "f_lit": 941, "per_p_lit": 59.59885387, "per_m_lit": 62.29967949, "per_f_lit": 37.70032051, "p_ill": 1692, "m_ill": 656, "f_ill": 1036, "per_p_ill": 40.40114613, "per_m_ill": 38.77068558, "per_f_ill": 61.22931442, "tot_work_p": 2247, "tot_work_m": 1353, "tot_work_f": 894, "per_tot_work_p": 53.65329513, "per_tot_work_m": 60.21361816, "per_tot_work_f": 39.78638184, "mainwork_p": 1795, "mainwork_m": 1107, "mainwork_f": 688, "per_mainwork_p": 42.86055396, "per_mainwork_m": 61.67130919, "per_mainwork_f": 38.32869081, "main_cl_p": 1663, "main_cl_m": 1008, "main_cl_f": 655, "per_main_cl_p": 92.64623955, "per_main_cl_m": 60.61334937, "per_main_cl_f": 39.38665063, "main_al_p": 58, "main_al_m": 39, "main_al_f": 19, "per_main_al_p": 3.23119777, "per_main_al_m": 67.24137931, "per_main_al_f": 32.75862069, "main_hh_p": 19, "main_hh_m": 13, "main_hh_f": 6, "per_main_hh_p": 1.05849582, "per_main_hh_m": 68.42105263, "per_main_hh_f": 31.57894737, "main_ot_p": 55, "main_ot_m": 47, "main_ot_f": 8, "per_main_ot_p": 3.06406685, "per_main_ot_m": 85.45454545, "per_main_ot_f": 14.54545455, "margwork_p": 452, "margwork_m": 246, "margwork_f": 206, "per_margwork_p": 10.79274117, "per_margwork_m": 54.42477876, "per_margwork_f": 45.57522124, "marg_cl_p": 142, "marg_cl_m": 53, "marg_cl_f": 89, "per_marg_cl_p": 31.4159292, "per_marg_cl_m": 37.32394366, "per_marg_cl_f": 62.67605634, "marg_al_p": 216, "marg_al_m": 149, "marg_al_f": 67, "per_marg_al_p": 47.78761062, "per_marg_al_m": 68.98148148, "per_marg_al_f": 31.01851852, "marg_hh_p": 0, "marg_hh_m": 0, "marg_hh_f": 0, "per_marg_hh_p": 0.0, "per_marg_hh_m": 0.0, "per_marg_hh_f": 0.0, "marg_ot_p": 94, "marg_ot_m": 44, "marg_ot_f": 50, "per_marg_ot_p": 20.79646018, "per_marg_ot_m": 46.80851064, "per_marg_ot_f": 53.19148936, "margwork_3_6_p": 360, "margwork_3_6_m": 196, "margwork_3_6_f": 164, "per_margwork_3_6_p": 79.6460177, "per_margwork_3_6_m": 54.44444444000001, "per_margwork_3_6_f": 45.55555556, "marg_cl_3_6_p": 83, "marg_cl_3_6_m": 21, "marg_cl_3_6_f": 62, "per_marg_cl_3_6_p": 18.36283186, "per_marg_cl_3_6_m": 25.30120482, "per_marg_cl_3_6_f": 74.69879518, "marg_al_3_6_p": 184, "marg_al_3_6_m": 131, "marg_al_3_6_f": 53, "per_marg_al_3_6_p": 40.7079646, "per_marg_al_3_6_m": 71.19565217, "per_marg_al_3_6_f": 28.80434783, "marg_hh_3_6_p": 0, "marg_hh_3_6_m": 0, "marg_hh_3_6_f": 0, "per_marg_hh_3_6_p": 0.0, "per_marg_hh_3_6_m": 0.0, "per_marg_hh_3_6_f": 0.0, "marg_ot_3_6_p": 93, "marg_ot_3_6_m": 44, "marg_ot_3_6_f": 49, "per_marg_ot_3_6_p": 20.57522124, "per_marg_ot_3_6_m": 47.31182796, "per_marg_ot_3_6_f": 52.68817204, "margwork_0_3_p": 92, "margwork_0_3_m": 50, "margwork_0_3_f": 42, "per_margwork_0_3_p": 20.3539823, "per_margwork_0_3_m": 54.34782609, "per_margwork_0_3_f": 45.65217391, "marg_cl_0_3_p": 59, "marg_cl_0_3_m": 32, "marg_cl_0_3_f": 27, "per_marg_cl_0_3_p": 13.05309735, "per_marg_cl_0_3_m": 54.23728814, "per_marg_cl_0_3_f": 45.76271186, "marg_al_0_3_p": 32, "marg_al_0_3_m": 18, "marg_al_0_3_f": 14, "per_marg_al_0_3_p": 7.07964602, "per_marg_al_0_3_m": 56.25, "per_marg_al_0_3_f": 43.75, "marg_hh_0_3_p": 0, "marg_hh_0_3_m": 0, "marg_hh_0_3_f": 0, "per_marg_hh_0_3_p": 0.0, "per_marg_hh_0_3_m": 0.0, "per_marg_hh_0_3_f": 0.0, "marg_ot_0_3_p": 1, "marg_ot_0_3_m": 0, "marg_ot_0_3_f": 1, "per_marg_ot_0_3_p": 0.22123894, "per_marg_ot_0_3_m": 0.0, "per_marg_ot_0_3_f": 100.0, "non_work_p": 1941, "non_work_m": 858, "non_work_f": 1083, "per_non_work_p": 46.34670487, "per_non_work_m": 44.20401855, "per_non_work_f": 55.79598145000001, "per_hc_tot_tot": 100, "per_hc_tot_god": 48.3, "per_hc_tot_liv": 45.5, "per_hc_tot_dil": 6.2, "per_hc_res_tot": 65.0, "per_hc_res_god": 36.7, "per_hc_res_liv": 23.2, "per_hc_res_dil": 5.1, "per_hc_oth_tot": 35.0, "per_hc_oth_god": 11.7, "per_hc_oth_liv": 22.3, "per_hc_oth_dil": 1.0, "per_mt_grsbam": 32.7, "per_mt_plastic": 0.0, "per_mt_h_tiles": 0.3, "per_mt_m_tiles": 0.3, "per_mt_b_brick": 21.9, "per_mt_stone": 34.9, "per_mt_asbstos": 1.2, "per_mt_concrte": 8.8, "per_mt_oth": 0.0, "per_mw_grsbam": 2.4, "per_mw_plastic": 0.0, "per_mw_mud": 4.4, "per_mw_wood": 0.0, "per_mw_no_mrtr": 0.1, "per_mw_st_mrtr": 0.0, "per_mw_asbstos": 0.0, "per_mw_b_brick": 93.1, "per_mw_concrte": 0.0, "per_mw_oth": 0.0, "per_mf_mud": 60.3, "per_mf_wood": 0.0, "per_mf_b_brick": 20.6, "per_mf_stone": 2.2, "per_mf_cement": 16.0, "per_mf_fl_tile": 0.9, "per_mf_oth": 0.0, "per_dw_n_exrm": 0.3, "per_dw_1_room": 12.7, "per_dw_2_room": 27.9, "per_dw_3_room": 23.5, "per_dw_4_room": 16.7, "per_dw_5_room": 10.6, "per_dw_6_room": 8.3, "per_hhsize_1": 0.9, "per_hhsize_2": 4.4, "per_hhsize_3": 9.5, "per_hhsize_4": 23.3, "per_hhsize_5": 23.8, "per_hhsize_6_8": 32.8, "per_hhsize_9p": 5.3, "per_ow_owned": 97.6, "per_ow_rented": 0.9, "per_ow_oth": 1.5, "per_mc_none": 8.8, "per_mcouple_1": 64.9, "per_mcouple_2": 19.1, "per_mcouple_3": 6.2, "per_mcouple_4": 0.8, "per_mcouple_5p": 0.3, "per_dw_t_ts": 53.7, "per_dw_t_unts": 7.4, "per_dw_c_well": 2.7, "per_dw_unc_wel": 0.3, "per_dw_hpump": 24.4, "per_dw_tw_bore": 7.3, "per_dw_spring": 0.0, "per_dw_rivcan": 0.8, "per_dw_tank": 0.0, "per_dw_oth": 3.5, "per_loc_dw_wp": 53.3, "per_loc_dw_np": 39.4, "per_loc_dw_aw": 7.3, "per_light_elec": 71.2, "per_light_kero": 28.6, "per_light_solr": 0.3, "per_light_oil": 0.0, "per_light_oth": 0.0, "per_light_no": 0.0, "per_hh_latrine": 43.1, "per_fl_sewer": 1.2, "per_fl_septict": 28.5, "per_fl_othsys": 3.2, "per_pl_wslab": 6.8, "per_pl_without": 3.2, "per_ns_open": 0.3, "per_sl_ns_hum": 0.0, "per_sl_ns_anml": 0.0, "per_hh_no_lat": 56.9, "per_as_pub": 22.3, "per_as_open": 34.6, "per_hh_bathrm": 64.4, "per_hh_en_wrf": 14.4, "per_hh_no_btrm": 21.3, "per_wwoc_drain": 1.4, "per_wwoc_open": 70.5, "per_wwoc_nodrn": 28.1, "per_cook_fire": 71.4, "per_cook_resdu": 5.0, "per_cook_cwdng": 0.0, "per_cook_coal": 0.1, "per_cook_kero": 0.0, "per_cook_lpng": 23.5, "per_cook_elec": 0.0, "per_cook_biogs": 0.0, "per_cook_oth": 0.0, "per_cook_no": 0.0, "per_kf_inside": 83.6, "per_kf_in_has": 76.0, "per_kf_in_does": 7.6, "per_kf_outside": 16.4, "per_kf_out_has": 8.8, "per_kf_out_dos": 7.6, "per_kf_no_cook": 0.0, "per_hh_banking": 36.3, "per_hh_radio": 31.4, "per_hh_tv": 45.4, "per_hh_cmp_int": 1.0, "per_hh_cmp_wnt": 2.3, "per_hh_ph_ll": 1.2, "per_hh_ph_mob": 77.8, "per_hh_ph_bth": 1.2, "per_hh_bcycl": 29.5, "per_hh_2wheel": 22.1, "per_hh_4wheel": 5.8, "per_hh_tvcomp": null, "per_hh_no_ast": 13.5, "per_hs_perma": 67.1, "per_hs_sperma": 26.4, "per_hs_temp": 6.5, "per_hs_servc": 4.1, "per_hs_nservc": 2.4, "per_hs_unclss": 0.0, "avghhsz_cy": 5.348659, "st_areashape": 24511566.642569683, "st_lengthshape": 22790.471492950513}, "geometry": {"type": "Polygon", "coordinates": [[[75.62804360679584, 29.413700486571816], [75.62812736840786, 29.413794097736936], [75.62821177950185, 29.413887257303138], [75.62829683917948, 29.413979963706538], [75.62838254833906, 29.414072233381248], [75.62846890248899, 29.41416404676561], [75.628555900731, 29.41425541012088], [75.62864354396338, 29.414346318753253], [75.62873217893583, 29.41443712949008], [75.62895006890128, 29.41467144507425], [75.62801282242934, 29.41544857563507], [75.62370418611974, 29.4201679162927], [75.61874047494872, 29.42392375636406], [75.60752663008559, 29.434825212646412], [75.60747091836829, 29.4349157336002], [75.60609172592945, 29.43343842855698], [75.59536411667173, 29.425233642482038], [75.58824677276048, 29.421878552943156], [75.58809954966517, 29.421808522303706], [75.58449404359307, 29.414525307772575], [75.58221378343204, 29.40538546822459], [75.58223545798324, 29.405347697620652], [75.58419326338145, 29.401966756169386], [75.5952832368551, 29.380465690725842], [75.59964420811485, 29.365886484057405], [75.59988309799668, 29.36620447429605], [75.60011306311617, 29.366510584086203], [75.60115310650096, 29.367638529611973], [75.60204373669784, 29.368734886562198], [75.60254310657102, 29.369425172483233], [75.6034802757878, 29.369894460680005], [75.60370771484469, 29.369976844528], [75.60517452536311, 29.37050815474756], [75.6065545945577, 29.37091886681683], [75.60790897822335, 29.37141070345022], [75.60836834072704, 29.37151786542913], [75.60926335380415, 29.371726657485674], [75.60991744321366, 29.371789879801938], [75.61140069380009, 29.37168629335115], [75.61322377256695, 29.37171807048929], [75.61447518414822, 29.371654963989197], [75.6153970487675, 29.371470046187014], [75.61530432735883, 29.372412850021252], [75.61537626085351, 29.373256399495407], [75.6154993866413, 29.373685849971377], [75.61565432716318, 29.37422626385272], [75.61563363447061, 29.375886321938374], [75.61580855711767, 29.37711785890499], [75.61589091196798, 29.378304253826446], [75.61622972505215, 29.38054929732217], [75.6162306224691, 29.38055524327588], [75.61614242317955, 29.38135576304862], [75.61614241689135, 29.38135581784239], [75.61609146624507, 29.38181825663886], [75.61615835659775, 29.38284228446379], [75.61633127959502, 29.38360817066155], [75.61653419464464, 29.38450689064832], [75.61594701085916, 29.385002994870163], [75.61520013985388, 29.385422527034596], [75.6145819300551, 29.385905133256138], [75.6143089814476, 29.38617124965268], [75.61425730586089, 29.386604541268472], [75.61412337603517, 29.38772752476516], [75.61419128956896, 29.388405017568374], [75.61420601834638, 29.388606808058388], [75.61422127712977, 29.388808563708825], [75.61423706591923, 29.389010288433518], [75.61425338381638, 29.389211979884458], [75.61427023171949, 29.389413629452086], [75.61428760962868, 29.389615236353986], [75.61430551664556, 29.389816806069245], [75.61432402643199, 29.39001913617095], [75.61434459875031, 29.390217555501327], [75.61473086713593, 29.391435573368355], [75.61529214530526, 29.39247315594678], [75.61537451093533, 29.3933708404095], [75.61536405364711, 29.39532859560436], [75.61542058552627, 29.396352589968206], [75.6153575624209, 29.397475007219764], [75.61535359456228, 29.397556156425118], [75.61535182398283, 29.3975923935949], [75.615346655975, 29.39770980174863], [75.61534206109235, 29.397827230898116], [75.61533803394492, 29.397944908791633], [75.61529155241718, 29.399158359035777], [75.61555905543742, 29.40095398785328], [75.61555417578882, 29.400917614923344], [75.61570351621322, 29.401901056076944], [75.61606398318727, 29.403263412176837], [75.61746518794384, 29.40316422076418], [75.61845950528406, 29.40318232230814], [75.61861399844496, 29.403664990610842], [75.62008733073233, 29.40331765179036], [75.62014847186718, 29.403550851199082], [75.62018096123607, 29.403670715303882], [75.62021307241422, 29.403790655961785], [75.62024480719823, 29.403910671607203], [75.62027616379156, 29.404030759109624], [75.62029550002805, 29.404105787118407], [75.62030713949918, 29.40415093333793], [75.62033773971105, 29.404271177857492], [75.62036795724056, 29.40439149032021], [75.62039779657935, 29.404511878551798], [75.62042725952402, 29.404632342551945], [75.62045634158306, 29.404752872929365], [75.62048504275639, 29.404873473596762], [75.62051336484065, 29.404994142206025], [75.62054130514093, 29.405114883452555], [75.62056886725048, 29.405235689510125], [75.62059604847434, 29.405356561161227], [75.62062306081494, 29.40547846567745], [75.62081360426647, 29.40634910534186], [75.62155030364787, 29.407914396731346], [75.6222766472506, 29.40745424350338], [75.62270624677228, 29.407305229276066], [75.62309585239923, 29.40717008822319], [75.62391500993715, 29.40717917698482], [75.6239567510551, 29.40764422327714], [75.62400772236265, 29.40821210076624], [75.6240076666671, 29.409452629200224], [75.62488356179837, 29.41017886374001], [75.62547708140154, 29.410811080168557], [75.62560264342038, 29.410944765550777], [75.62572761255112, 29.41107887567608], [75.62585197891231, 29.41121341993323], [75.62597574070732, 29.41134839284269], [75.62609890242774, 29.411483782664753], [75.62622145868362, 29.411619592527888], [75.6263434067801, 29.41175582243047], [75.62646523270566, 29.411893014666102], [75.6271625840809, 29.412673211286588], [75.62713571367412, 29.41264824553825], [75.62710963108988, 29.412622748447543], [75.62708433722639, 29.41259671140637], [75.62705976381184, 29.412570058509036], [75.62804360679584, 29.413700486571816]]]}}]}