{"type": "FeatureCollection", "features": [{"type": "Feature", "properties": {"premiumdata.sde.IN_Village_PCA.area": 3.41818639, "objectid": 209127, "id": "244463776289683", "name": "Chamla", "subdistrict": "Dehgam", "district": "Gandhinagar", "state": "Gujarat", "country": "India", "censusname": "Chamla", "villagename_locallang": null, "lgd_villagename": "Chamla", "lgd_villagecode": 511402, "lgd_subdistrictcode": 3776, "lgd_districtcode": 446, "lgd_statecode": 24, "censuscode2001": "00499900", "censuscode2011": "511402", "censuscode2021": null, "level": "Village", "tru": "Rural", "no_hh": 418, "tot_p": 2128, "tot_m": 1112, "tot_f": 1016, "per_tot_m": 52.2556391, "per_tot_f": 47.7443609, "p_06": 289, "m_06": 168, "f_06": 121, "per_p_06": 13.58082707, "per_m_06": 58.13148789, "per_f_06": 41.86851211, "p_sc": 42, "m_sc": 19, "f_sc": 23, "per_p_sc": 1.97368421, "per_m_sc": 45.23809524, "per_f_sc": 54.76190476, "p_st": 6, "m_st": 3, "f_st": 3, "per_p_st": 0.28195489, "per_m_st": 50.0, "per_f_st": 50.0, "p_lit": 1412, "m_lit": 844, "f_lit": 568, "per_p_lit": 66.35338346, "per_m_lit": 59.7733711, "per_f_lit": 40.2266289, "p_ill": 716, "m_ill": 268, "f_ill": 448, "per_p_ill": 33.64661654, "per_m_ill": 37.4301676, "per_f_ill": 62.5698324, "tot_work_p": 974, "tot_work_m": 662, "tot_work_f": 312, "per_tot_work_p": 45.77067669, "per_tot_work_m": 67.96714579, "per_tot_work_f": 32.03285421, "mainwork_p": 840, "mainwork_m": 635, "mainwork_f": 205, "per_mainwork_p": 39.47368421, "per_mainwork_m": 75.5952381, "per_mainwork_f": 24.4047619, "main_cl_p": 481, "main_cl_m": 400, "main_cl_f": 81, "per_main_cl_p": 57.26190476, "per_main_cl_m": 83.16008316, "per_main_cl_f": 16.83991684, "main_al_p": 214, "main_al_m": 107, "main_al_f": 107, "per_main_al_p": 25.47619048, "per_main_al_m": 50.0, "per_main_al_f": 50.0, "main_hh_p": 3, "main_hh_m": 1, "main_hh_f": 2, "per_main_hh_p": 0.35714286, "per_main_hh_m": 33.33333333, "per_main_hh_f": 66.66666667, "main_ot_p": 142, "main_ot_m": 127, "main_ot_f": 15, "per_main_ot_p": 16.9047619, "per_main_ot_m": 89.43661972, "per_main_ot_f": 10.56338028, "margwork_p": 134, "margwork_m": 27, "margwork_f": 107, "per_margwork_p": 6.29699248, "per_margwork_m": 20.14925373, "per_margwork_f": 79.85074627, "marg_cl_p": 2, "marg_cl_m": 0, "marg_cl_f": 2, "per_marg_cl_p": 1.49253731, "per_marg_cl_m": 0.0, "per_marg_cl_f": 100.0, "marg_al_p": 7, "marg_al_m": 3, "marg_al_f": 4, "per_marg_al_p": 5.2238806, "per_marg_al_m": 42.85714286, "per_marg_al_f": 57.14285714, "marg_hh_p": 2, "marg_hh_m": 2, "marg_hh_f": 0, "per_marg_hh_p": 1.49253731, "per_marg_hh_m": 100.0, "per_marg_hh_f": 0.0, "marg_ot_p": 123, "marg_ot_m": 22, "marg_ot_f": 101, "per_marg_ot_p": 91.79104478, "per_marg_ot_m": 17.88617886, "per_marg_ot_f": 82.11382114, "margwork_3_6_p": 130, "margwork_3_6_m": 25, "margwork_3_6_f": 105, "per_margwork_3_6_p": 97.01492537, "per_margwork_3_6_m": 19.23076923, "per_margwork_3_6_f": 80.76923077, "marg_cl_3_6_p": 2, "marg_cl_3_6_m": 0, "marg_cl_3_6_f": 2, "per_marg_cl_3_6_p": 1.49253731, "per_marg_cl_3_6_m": 0.0, "per_marg_cl_3_6_f": 100.0, "marg_al_3_6_p": 7, "marg_al_3_6_m": 3, "marg_al_3_6_f": 4, "per_marg_al_3_6_p": 5.2238806, "per_marg_al_3_6_m": 42.85714286, "per_marg_al_3_6_f": 57.14285714, "marg_hh_3_6_p": 1, "marg_hh_3_6_m": 1, "marg_hh_3_6_f": 0, "per_marg_hh_3_6_p": 0.74626866, "per_marg_hh_3_6_m": 100.0, "per_marg_hh_3_6_f": 0.0, "marg_ot_3_6_p": 120, "marg_ot_3_6_m": 21, "marg_ot_3_6_f": 99, "per_marg_ot_3_6_p": 89.55223881, "per_marg_ot_3_6_m": 17.5, "per_marg_ot_3_6_f": 82.5, "margwork_0_3_p": 4, "margwork_0_3_m": 2, "margwork_0_3_f": 2, "per_margwork_0_3_p": 2.98507463, "per_margwork_0_3_m": 50.0, "per_margwork_0_3_f": 50.0, "marg_cl_0_3_p": 0, "marg_cl_0_3_m": 0, "marg_cl_0_3_f": 0, "per_marg_cl_0_3_p": 0.0, "per_marg_cl_0_3_m": 0.0, "per_marg_cl_0_3_f": 0.0, "marg_al_0_3_p": 0, "marg_al_0_3_m": 0, "marg_al_0_3_f": 0, "per_marg_al_0_3_p": 0.0, "per_marg_al_0_3_m": 0.0, "per_marg_al_0_3_f": 0.0, "marg_hh_0_3_p": 1, "marg_hh_0_3_m": 1, "marg_hh_0_3_f": 0, "per_marg_hh_0_3_p": 0.74626866, "per_marg_hh_0_3_m": 100.0, "per_marg_hh_0_3_f": 0.0, "marg_ot_0_3_p": 3, "marg_ot_0_3_m": 1, "marg_ot_0_3_f": 2, "per_marg_ot_0_3_p": 2.23880597, "per_marg_ot_0_3_m": 33.33333333, "per_marg_ot_0_3_f": 66.66666667, "non_work_p": 1154, "non_work_m": 450, "non_work_f": 704, "per_non_work_p": 54.22932331000001, "per_non_work_m": 38.99480069, "per_non_work_f": 61.00519931, "per_hc_tot_tot": 100, "per_hc_tot_god": 32.5, "per_hc_tot_liv": 67.0, "per_hc_tot_dil": 0.5, "per_hc_res_tot": 100.0, "per_hc_res_god": 32.5, "per_hc_res_liv": 67.0, "per_hc_res_dil": 0.5, "per_hc_oth_tot": 0.0, "per_hc_oth_god": 0.0, "per_hc_oth_liv": 0.0, "per_hc_oth_dil": 0.0, "per_mt_grsbam": 0.5, "per_mt_plastic": 0.7, "per_mt_h_tiles": 31.1, "per_mt_m_tiles": 16.6, "per_mt_b_brick": 0.5, "per_mt_stone": 0.5, "per_mt_asbstos": 35.2, "per_mt_concrte": 14.9, "per_mt_oth": 0.0, "per_mw_grsbam": 0.2, "per_mw_plastic": 0.0, "per_mw_mud": 60.5, "per_mw_wood": 0.0, "per_mw_no_mrtr": 1.9, "per_mw_st_mrtr": 0.7, "per_mw_asbstos": 0.0, "per_mw_b_brick": 36.1, "per_mw_concrte": 0.5, "per_mw_oth": 0.0, "per_mf_mud": 64.6, "per_mf_wood": 0.0, "per_mf_b_brick": 1.2, "per_mf_stone": 1.4, "per_mf_cement": 26.7, "per_mf_fl_tile": 6.0, "per_mf_oth": 0.0, "per_dw_n_exrm": 2.7, "per_dw_1_room": 42.9, "per_dw_2_room": 51.1, "per_dw_3_room": 3.4, "per_dw_4_room": 0.0, "per_dw_5_room": 0.0, "per_dw_6_room": 0.0, "per_hhsize_1": 4.1, "per_hhsize_2": 8.0, "per_hhsize_3": 8.0, "per_hhsize_4": 20.2, "per_hhsize_5": 20.0, "per_hhsize_6_8": 33.5, "per_hhsize_9p": 6.3, "per_ow_owned": 99.3, "per_ow_rented": 0.7, "per_ow_oth": 0.0, "per_mc_none": 12.5, "per_mcouple_1": 53.5, "per_mcouple_2": 21.9, "per_mcouple_3": 11.6, "per_mcouple_4": 0.5, "per_mcouple_5p": 0.0, "per_dw_t_ts": 0.0, "per_dw_t_unts": 77.8, "per_dw_c_well": 0.0, "per_dw_unc_wel": 0.0, "per_dw_hpump": 0.0, "per_dw_tw_bore": 22.2, "per_dw_spring": 0.0, "per_dw_rivcan": 0.0, "per_dw_tank": 0.0, "per_dw_oth": 0.0, "per_loc_dw_wp": 38.1, "per_loc_dw_np": 45.8, "per_loc_dw_aw": 16.1, "per_light_elec": 92.5, "per_light_kero": 7.5, "per_light_solr": 0.0, "per_light_oil": 0.0, "per_light_oth": 0.0, "per_light_no": 0.0, "per_hh_latrine": 12.0, "per_fl_sewer": 0.2, "per_fl_septict": 11.8, "per_fl_othsys": 0.0, "per_pl_wslab": 0.0, "per_pl_without": 0.0, "per_ns_open": 0.0, "per_sl_ns_hum": 0.0, "per_sl_ns_anml": 0.0, "per_hh_no_lat": 88.0, "per_as_pub": 0.0, "per_as_open": 88.0, "per_hh_bathrm": 11.8, "per_hh_en_wrf": 31.3, "per_hh_no_btrm": 56.9, "per_wwoc_drain": 2.7, "per_wwoc_open": 1.4, "per_wwoc_nodrn": 95.9, "per_cook_fire": 92.8, "per_cook_resdu": 6.0, "per_cook_cwdng": 0.5, "per_cook_coal": 0.0, "per_cook_kero": 0.0, "per_cook_lpng": 0.2, "per_cook_elec": 0.2, "per_cook_biogs": 0.0, "per_cook_oth": 0.0, "per_cook_no": 0.2, "per_kf_inside": 61.2, "per_kf_in_has": 32.8, "per_kf_in_does": 28.4, "per_kf_outside": 38.6, "per_kf_out_has": 37.3, "per_kf_out_dos": 1.2, "per_kf_no_cook": 0.2, "per_hh_banking": 52.3, "per_hh_radio": 37.8, "per_hh_tv": 47.0, "per_hh_cmp_int": 0.7, "per_hh_cmp_wnt": 1.0, "per_hh_ph_ll": 0.2, "per_hh_ph_mob": 62.7, "per_hh_ph_bth": 0.2, "per_hh_bcycl": 43.4, "per_hh_2wheel": 14.9, "per_hh_4wheel": 2.4, "per_hh_tvcomp": 0.2, "per_hh_no_ast": 17.8, "per_hs_perma": 38.8, "per_hs_sperma": 60.5, "per_hs_temp": 0.7, "per_hs_servc": 0.7, "per_hs_nservc": 0.0, "per_hs_unclss": 0.0, "avghhsz_cy": 5.09090909, "st_areashape": 4053348.40819852, "st_lengthshape": 9907.177094905921}, "geometry": {"type": "Polygon", "coordinates": [[[72.82019270779685, 23.01406554855235], [72.81945721125969, 23.014127632602023], [72.81904822897208, 23.014048395397747], [72.8191828828399, 23.012870006653447], [72.81936275161091, 23.012136304383883], [72.82028383739086, 23.01177873004156], [72.82137167474205, 23.01155809651567], [72.8218774028908, 23.011508207898473], [72.82218758397191, 23.01130157223607], [72.82249776415465, 23.011094936257166], [72.8228698670066, 23.010577749601307], [72.82326344588202, 23.008766194065323], [72.82411481610772, 23.005694690499798], [72.82514777358156, 23.005409178227644], [72.8255964353536, 23.00528516662299], [72.82851358488135, 23.004579148245547], [72.83110128356691, 23.003977401471374], [72.83341497003963, 23.00292476276611], [72.83356120947967, 23.002710380085084], [72.83432700349645, 23.001925700929405], [72.8353289681947, 23.000899018266015], [72.83554970222629, 23.000688144208922], [72.83583348631275, 23.00050789904607], [72.83600085951818, 22.999999478336075], [72.83639899464873, 22.998916476716147], [72.83660040322364, 22.997607543438477], [72.83652417757853, 22.996548294235552], [72.83662157471827, 22.996497564048102], [72.83751395842654, 22.99638747133886], [72.83759478434425, 22.996382122783277], [72.83836854282433, 22.99633091291629], [72.8392887545435, 22.99646868534205], [72.83931184933114, 22.99647214271631], [72.84029362259673, 22.996910207278532], [72.84136168713022, 22.997227861743234], [72.84243160848136, 22.99742112865135], [72.8424710885398, 22.99742759681457], [72.84296892409047, 22.997248194064472], [72.84421368274872, 22.997159257088427], [72.84506069794193, 22.99724060045386], [72.8463109453066, 22.997686647240528], [72.84704029197734, 22.99800676574117], [72.84790728660076, 22.99854079765141], [72.8484503658007, 22.999170227108163], [72.8484347530811, 22.999999264994976], [72.8484211427062, 23.000519537669636], [72.84884197197579, 23.002106675170275], [72.84878988945225, 23.00260208844287], [72.84837986601724, 23.003177477805735], [72.84814161663421, 23.003478797347356], [72.84543137696413, 23.006906460295216], [72.8430014817313, 23.010166546347083], [72.84473055629522, 23.01132661291137], [72.84563011933928, 23.011631693706068], [72.84685053275503, 23.011988739266837], [72.8468480974223, 23.012267352616217], [72.84583100150141, 23.012574146121672], [72.84480367556611, 23.0128472168819], [72.84376508116384, 23.01308764741352], [72.84272001529828, 23.01329430431794], [72.84166717092067, 23.01346720180632], [72.84060794041972, 23.013606254019148], [72.83954458485495, 23.013710433324427], [72.83847844002123, 23.013780709661738], [72.83740948166405, 23.01381602475593], [72.8359896934592, 23.01381025769388], [72.83477081167099, 23.0137524564222], [72.83355292072456, 23.013676638724142], [72.83233727466799, 23.01357931456061], [72.83112262843638, 23.013463823415428], [72.82991144610845, 23.01332695799975], [72.8287024053642, 23.013171980064744], [72.82749687793101, 23.01299766998271], [72.82202194092172, 23.0138568588556], [72.82143043713806, 23.013745962583226], [72.82019270779685, 23.01406554855235]]]}}]}