{"type": "FeatureCollection", "features": [{"type": "Feature", "properties": {"premiumdata.sde.IN_Village_PCA.area": 1.66630479, "objectid": 299556, "id": "9120895370822", "name": "Misirpur", "subdistrict": "Koraon", "district": "Prayagraj", "state": "Uttar Pradesh", "country": "India", "censusname": "Misirpur", "villagename_locallang": null, "lgd_villagename": "Misirpur", "lgd_villagecode": 163642, "lgd_subdistrictcode": 895, "lgd_districtcode": 120, "lgd_statecode": 9, "censuscode2001": "05665100", "censuscode2011": "163642", "censuscode2021": null, "level": "Village", "tru": "Rural", "no_hh": 157, "tot_p": 980, "tot_m": 501, "tot_f": 479, "per_tot_m": 51.12244898, "per_tot_f": 48.87755102, "p_06": 168, "m_06": 86, "f_06": 82, "per_p_06": 17.14285714, "per_m_06": 51.19047619, "per_f_06": 48.80952381, "p_sc": 405, "m_sc": 205, "f_sc": 200, "per_p_sc": 41.32653061000001, "per_m_sc": 50.61728395, "per_f_sc": 49.38271605, "p_st": 0, "m_st": 0, "f_st": 0, "per_p_st": 0.0, "per_m_st": 0.0, "per_f_st": 0.0, "p_lit": 583, "m_lit": 347, "f_lit": 236, "per_p_lit": 59.48979592, "per_m_lit": 59.51972556, "per_f_lit": 40.48027444, "p_ill": 397, "m_ill": 154, "f_ill": 243, "per_p_ill": 40.51020408, "per_m_ill": 38.79093199, "per_f_ill": 61.20906801, "tot_work_p": 397, "tot_work_m": 234, "tot_work_f": 163, "per_tot_work_p": 40.51020408, "per_tot_work_m": 58.94206549, "per_tot_work_f": 41.05793451, "mainwork_p": 254, "mainwork_m": 185, "mainwork_f": 69, "per_mainwork_p": 25.91836735, "per_mainwork_m": 72.83464567, "per_mainwork_f": 27.16535433, "main_cl_p": 129, "main_cl_m": 87, "main_cl_f": 42, "per_main_cl_p": 50.78740157, "per_main_cl_m": 67.44186047, "per_main_cl_f": 32.55813953000001, "main_al_p": 103, "main_al_m": 80, "main_al_f": 23, "per_main_al_p": 40.5511811, "per_main_al_m": 77.66990291, "per_main_al_f": 22.33009709, "main_hh_p": 4, "main_hh_m": 2, "main_hh_f": 2, "per_main_hh_p": 1.57480315, "per_main_hh_m": 50.0, "per_main_hh_f": 50.0, "main_ot_p": 18, "main_ot_m": 16, "main_ot_f": 2, "per_main_ot_p": 7.08661417, "per_main_ot_m": 88.88888889, "per_main_ot_f": 11.11111111, "margwork_p": 143, "margwork_m": 49, "margwork_f": 94, "per_margwork_p": 14.59183673, "per_margwork_m": 34.26573427, "per_margwork_f": 65.73426573, "marg_cl_p": 22, "marg_cl_m": 1, "marg_cl_f": 21, "per_marg_cl_p": 15.38461538, "per_marg_cl_m": 4.54545455, "per_marg_cl_f": 95.45454545, "marg_al_p": 117, "marg_al_m": 47, "marg_al_f": 70, "per_marg_al_p": 81.81818182, "per_marg_al_m": 40.17094017, "per_marg_al_f": 59.82905983, "marg_hh_p": 1, "marg_hh_m": 0, "marg_hh_f": 1, "per_marg_hh_p": 0.6993007, "per_marg_hh_m": 0.0, "per_marg_hh_f": 100.0, "marg_ot_p": 3, "marg_ot_m": 1, "marg_ot_f": 2, "per_marg_ot_p": 2.0979021, "per_marg_ot_m": 33.33333333, "per_marg_ot_f": 66.66666667, "margwork_3_6_p": 131, "margwork_3_6_m": 45, "margwork_3_6_f": 86, "per_margwork_3_6_p": 91.60839161, "per_margwork_3_6_m": 34.35114504000001, "per_margwork_3_6_f": 65.64885496, "marg_cl_3_6_p": 19, "marg_cl_3_6_m": 0, "marg_cl_3_6_f": 19, "per_marg_cl_3_6_p": 13.28671329, "per_marg_cl_3_6_m": 0.0, "per_marg_cl_3_6_f": 100.0, "marg_al_3_6_p": 109, "marg_al_3_6_m": 44, "marg_al_3_6_f": 65, "per_marg_al_3_6_p": 76.22377622, "per_marg_al_3_6_m": 40.36697248, "per_marg_al_3_6_f": 59.63302752000001, "marg_hh_3_6_p": 1, "marg_hh_3_6_m": 0, "marg_hh_3_6_f": 1, "per_marg_hh_3_6_p": 0.6993007, "per_marg_hh_3_6_m": 0.0, "per_marg_hh_3_6_f": 100.0, "marg_ot_3_6_p": 2, "marg_ot_3_6_m": 1, "marg_ot_3_6_f": 1, "per_marg_ot_3_6_p": 1.3986014, "per_marg_ot_3_6_m": 50.0, "per_marg_ot_3_6_f": 50.0, "margwork_0_3_p": 12, "margwork_0_3_m": 4, "margwork_0_3_f": 8, "per_margwork_0_3_p": 8.39160839, "per_margwork_0_3_m": 33.33333333, "per_margwork_0_3_f": 66.66666667, "marg_cl_0_3_p": 3, "marg_cl_0_3_m": 1, "marg_cl_0_3_f": 2, "per_marg_cl_0_3_p": 2.0979021, "per_marg_cl_0_3_m": 33.33333333, "per_marg_cl_0_3_f": 66.66666667, "marg_al_0_3_p": 8, "marg_al_0_3_m": 3, "marg_al_0_3_f": 5, "per_marg_al_0_3_p": 5.59440559, "per_marg_al_0_3_m": 37.5, "per_marg_al_0_3_f": 62.5, "marg_hh_0_3_p": 0, "marg_hh_0_3_m": 0, "marg_hh_0_3_f": 0, "per_marg_hh_0_3_p": 0.0, "per_marg_hh_0_3_m": 0.0, "per_marg_hh_0_3_f": 0.0, "marg_ot_0_3_p": 1, "marg_ot_0_3_m": 0, "marg_ot_0_3_f": 1, "per_marg_ot_0_3_p": 0.6993007, "per_marg_ot_0_3_m": 0.0, "per_marg_ot_0_3_f": 100.0, "non_work_p": 583, "non_work_m": 267, "non_work_f": 316, "per_non_work_p": 59.48979592, "per_non_work_m": 45.79759863, "per_non_work_f": 54.20240137, "per_hc_tot_tot": 100, "per_hc_tot_god": 34.0, "per_hc_tot_liv": 64.7, "per_hc_tot_dil": 1.3, "per_hc_res_tot": 99.4, "per_hc_res_god": 34.0, "per_hc_res_liv": 64.1, "per_hc_res_dil": 1.3, "per_hc_oth_tot": 0.6, "per_hc_oth_god": 0.0, "per_hc_oth_liv": 0.6, "per_hc_oth_dil": 0.0, "per_mt_grsbam": 50.0, "per_mt_plastic": 0.0, "per_mt_h_tiles": 28.8, "per_mt_m_tiles": 0.0, "per_mt_b_brick": 1.3, "per_mt_stone": 16.7, "per_mt_asbstos": 2.6, "per_mt_concrte": 0.6, "per_mt_oth": 0.0, "per_mw_grsbam": 12.8, "per_mw_plastic": 0.0, "per_mw_mud": 62.8, "per_mw_wood": 0.0, "per_mw_no_mrtr": 0.0, "per_mw_st_mrtr": 0.0, "per_mw_asbstos": 0.0, "per_mw_b_brick": 22.4, "per_mw_concrte": 0.0, "per_mw_oth": 1.9, "per_mf_mud": 90.4, "per_mf_wood": 0.0, "per_mf_b_brick": 0.0, "per_mf_stone": 0.0, "per_mf_cement": 5.8, "per_mf_fl_tile": 1.9, "per_mf_oth": 1.9, "per_dw_n_exrm": 0.0, "per_dw_1_room": 9.0, "per_dw_2_room": 17.3, "per_dw_3_room": 25.0, "per_dw_4_room": 17.3, "per_dw_5_room": 14.1, "per_dw_6_room": 17.3, "per_hhsize_1": 2.6, "per_hhsize_2": 7.1, "per_hhsize_3": 7.1, "per_hhsize_4": 12.2, "per_hhsize_5": 16.0, "per_hhsize_6_8": 39.7, "per_hhsize_9p": 15.4, "per_ow_owned": 100.0, "per_ow_rented": 0.0, "per_ow_oth": 0.0, "per_mc_none": 8.3, "per_mcouple_1": 57.1, "per_mcouple_2": 19.9, "per_mcouple_3": 11.5, "per_mcouple_4": 3.2, "per_mcouple_5p": 0.0, "per_dw_t_ts": 0.0, "per_dw_t_unts": 1.9, "per_dw_c_well": 6.4, "per_dw_unc_wel": 16.0, "per_dw_hpump": 75.6, "per_dw_tw_bore": 0.0, "per_dw_spring": 0.0, "per_dw_rivcan": 0.0, "per_dw_tank": 0.0, "per_dw_oth": 0.0, "per_loc_dw_wp": 44.2, "per_loc_dw_np": 35.9, "per_loc_dw_aw": 19.9, "per_light_elec": 61.5, "per_light_kero": 38.5, "per_light_solr": 0.0, "per_light_oil": 0.0, "per_light_oth": 0.0, "per_light_no": 0.0, "per_hh_latrine": 15.4, "per_fl_sewer": 0.0, "per_fl_septict": 3.8, "per_fl_othsys": 1.3, "per_pl_wslab": 5.1, "per_pl_without": 4.5, "per_ns_open": 0.6, "per_sl_ns_hum": 0.0, "per_sl_ns_anml": 0.0, "per_hh_no_lat": 84.6, "per_as_pub": 0.6, "per_as_open": 84.0, "per_hh_bathrm": 3.8, "per_hh_en_wrf": 22.4, "per_hh_no_btrm": 73.7, "per_wwoc_drain": 0.6, "per_wwoc_open": 1.3, "per_wwoc_nodrn": 98.1, "per_cook_fire": 0.6, "per_cook_resdu": 0.6, "per_cook_cwdng": 91.7, "per_cook_coal": 0.0, "per_cook_kero": 0.0, "per_cook_lpng": 7.1, "per_cook_elec": 0.0, "per_cook_biogs": 0.0, "per_cook_oth": 0.0, "per_cook_no": 0.0, "per_kf_inside": 92.3, "per_kf_in_has": 80.8, "per_kf_in_does": 11.5, "per_kf_outside": 7.7, "per_kf_out_has": 4.5, "per_kf_out_dos": 3.2, "per_kf_no_cook": 0.0, "per_hh_banking": 70.5, "per_hh_radio": 53.2, "per_hh_tv": 37.8, "per_hh_cmp_int": 0.0, "per_hh_cmp_wnt": 24.4, "per_hh_ph_ll": 0.6, "per_hh_ph_mob": 73.7, "per_hh_ph_bth": 0.6, "per_hh_bcycl": 87.8, "per_hh_2wheel": 25.0, "per_hh_4wheel": 11.5, "per_hh_tvcomp": 0.6, "per_hh_no_ast": 1.3, "per_hs_perma": 21.2, "per_hs_sperma": 28.8, "per_hs_temp": 48.1, "per_hs_servc": 48.1, "per_hs_nservc": 0.0, "per_hs_unclss": 1.9, "avghhsz_cy": 6.24203822, "st_areashape": 2036478.13109592, "st_lengthshape": 6878.261476650229}, "geometry": {"type": "Polygon", "coordinates": [[[82.08521582774021, 24.98090540362566], [82.08467787881884, 24.97825835892279], [82.08468295340188, 24.976527119125965], [82.08590695828214, 24.975079255702404], [82.08706406921645, 24.97423145132558], [82.0901413946476, 24.97054298942127], [82.09154323900466, 24.968526575159483], [82.09836810942572, 24.962428274264376], [82.10111682753268, 24.960112397592855], [82.10115869800806, 24.96272133536473], [82.10128943072968, 24.963398498071427], [82.10181767604934, 24.964226973509867], [82.1013396735035, 24.96530904721915], [82.10101603476114, 24.968759862605896], [82.10100891291759, 24.97052168859169], [82.10083846477893, 24.97206877461143], [82.100530648962, 24.973185437155102], [82.1001341505619, 24.973555157672152], [82.09888384121348, 24.974335814634863], [82.09810714075084, 24.974751661966994], [82.09323297364736, 24.976547725127457], [82.08990358364242, 24.978053456289125], [82.08521582774021, 24.98090540362566]]]}}]}