{"type": "FeatureCollection", "features": [{"type": "Feature", "properties": {"premiumdata.sde.IN_Village_PCA.area": 2.70615854, "objectid": 201073, "id": "244473821280602", "name": "Sukhpar Dhrafa", "subdistrict": "Jamjodhpur", "district": "Jamnagar", "state": "Gujarat", "country": "India", "censusname": "Sukhpar Dhrafa", "villagename_locallang": null, "lgd_villagename": "Sukhpar Dhrafa", "lgd_villagecode": 514113, "lgd_subdistrictcode": 3821, "lgd_districtcode": 447, "lgd_statecode": 24, "censuscode2001": "00774900", "censuscode2011": "514113", "censuscode2021": null, "level": "Village", "tru": "Rural", "no_hh": 85, "tot_p": 414, "tot_m": 196, "tot_f": 218, "per_tot_m": 47.34299517, "per_tot_f": 52.65700483, "p_06": 63, "m_06": 28, "f_06": 35, "per_p_06": 15.2173913, "per_m_06": 44.44444444000001, "per_f_06": 55.55555556, "p_sc": 0, "m_sc": 0, "f_sc": 0, "per_p_sc": 0.0, "per_m_sc": 0.0, "per_f_sc": 0.0, "p_st": 0, "m_st": 0, "f_st": 0, "per_p_st": 0.0, "per_m_st": 0.0, "per_f_st": 0.0, "p_lit": 191, "m_lit": 107, "f_lit": 84, "per_p_lit": 46.1352657, "per_m_lit": 56.02094241, "per_f_lit": 43.97905759, "p_ill": 223, "m_ill": 89, "f_ill": 134, "per_p_ill": 53.8647343, "per_m_ill": 39.9103139, "per_f_ill": 60.0896861, "tot_work_p": 134, "tot_work_m": 122, "tot_work_f": 12, "per_tot_work_p": 32.36714976, "per_tot_work_m": 91.04477612000001, "per_tot_work_f": 8.95522388, "mainwork_p": 122, "mainwork_m": 115, "mainwork_f": 7, "per_mainwork_p": 29.46859903, "per_mainwork_m": 94.26229508, "per_mainwork_f": 5.73770492, "main_cl_p": 108, "main_cl_m": 102, "main_cl_f": 6, "per_main_cl_p": 88.52459016, "per_main_cl_m": 94.44444444, "per_main_cl_f": 5.55555556, "main_al_p": 10, "main_al_m": 10, "main_al_f": 0, "per_main_al_p": 8.19672131, "per_main_al_m": 100.0, "per_main_al_f": 0.0, "main_hh_p": 0, "main_hh_m": 0, "main_hh_f": 0, "per_main_hh_p": 0.0, "per_main_hh_m": 0.0, "per_main_hh_f": 0.0, "main_ot_p": 4, "main_ot_m": 3, "main_ot_f": 1, "per_main_ot_p": 3.27868852, "per_main_ot_m": 75.0, "per_main_ot_f": 25.0, "margwork_p": 12, "margwork_m": 7, "margwork_f": 5, "per_margwork_p": 2.89855072, "per_margwork_m": 58.33333333, "per_margwork_f": 41.66666667000001, "marg_cl_p": 9, "marg_cl_m": 6, "marg_cl_f": 3, "per_marg_cl_p": 75.0, "per_marg_cl_m": 66.66666667, "per_marg_cl_f": 33.33333333, "marg_al_p": 3, "marg_al_m": 1, "marg_al_f": 2, "per_marg_al_p": 25.0, "per_marg_al_m": 33.33333333, "per_marg_al_f": 66.66666667, "marg_hh_p": 0, "marg_hh_m": 0, "marg_hh_f": 0, "per_marg_hh_p": 0.0, "per_marg_hh_m": 0.0, "per_marg_hh_f": 0.0, "marg_ot_p": 0, "marg_ot_m": 0, "marg_ot_f": 0, "per_marg_ot_p": 0.0, "per_marg_ot_m": 0.0, "per_marg_ot_f": 0.0, "margwork_3_6_p": 8, "margwork_3_6_m": 5, "margwork_3_6_f": 3, "per_margwork_3_6_p": 66.66666667, "per_margwork_3_6_m": 62.5, "per_margwork_3_6_f": 37.5, "marg_cl_3_6_p": 7, "marg_cl_3_6_m": 4, "marg_cl_3_6_f": 3, "per_marg_cl_3_6_p": 58.33333333, "per_marg_cl_3_6_m": 57.14285714, "per_marg_cl_3_6_f": 42.85714286, "marg_al_3_6_p": 1, "marg_al_3_6_m": 1, "marg_al_3_6_f": 0, "per_marg_al_3_6_p": 8.33333333, "per_marg_al_3_6_m": 100.0, "per_marg_al_3_6_f": 0.0, "marg_hh_3_6_p": 0, "marg_hh_3_6_m": 0, "marg_hh_3_6_f": 0, "per_marg_hh_3_6_p": 0.0, "per_marg_hh_3_6_m": 0.0, "per_marg_hh_3_6_f": 0.0, "marg_ot_3_6_p": 0, "marg_ot_3_6_m": 0, "marg_ot_3_6_f": 0, "per_marg_ot_3_6_p": 0.0, "per_marg_ot_3_6_m": 0.0, "per_marg_ot_3_6_f": 0.0, "margwork_0_3_p": 4, "margwork_0_3_m": 2, "margwork_0_3_f": 2, "per_margwork_0_3_p": 33.33333333, "per_margwork_0_3_m": 50.0, "per_margwork_0_3_f": 50.0, "marg_cl_0_3_p": 2, "marg_cl_0_3_m": 2, "marg_cl_0_3_f": 0, "per_marg_cl_0_3_p": 16.66666667, "per_marg_cl_0_3_m": 100.0, "per_marg_cl_0_3_f": 0.0, "marg_al_0_3_p": 2, "marg_al_0_3_m": 0, "marg_al_0_3_f": 2, "per_marg_al_0_3_p": 16.66666667, "per_marg_al_0_3_m": 0.0, "per_marg_al_0_3_f": 100.0, "marg_hh_0_3_p": 0, "marg_hh_0_3_m": 0, "marg_hh_0_3_f": 0, "per_marg_hh_0_3_p": 0.0, "per_marg_hh_0_3_m": 0.0, "per_marg_hh_0_3_f": 0.0, "marg_ot_0_3_p": 0, "marg_ot_0_3_m": 0, "marg_ot_0_3_f": 0, "per_marg_ot_0_3_p": 0.0, "per_marg_ot_0_3_m": 0.0, "per_marg_ot_0_3_f": 0.0, "non_work_p": 280, "non_work_m": 74, "non_work_f": 206, "per_non_work_p": 67.63285024, "per_non_work_m": 26.42857143, "per_non_work_f": 73.57142857, "per_hc_tot_tot": 100, "per_hc_tot_god": 45.2, "per_hc_tot_liv": 54.8, "per_hc_tot_dil": 0.0, "per_hc_res_tot": 100.0, "per_hc_res_god": 45.2, "per_hc_res_liv": 54.8, "per_hc_res_dil": 0.0, "per_hc_oth_tot": 0.0, "per_hc_oth_god": 0.0, "per_hc_oth_liv": 0.0, "per_hc_oth_dil": 0.0, "per_mt_grsbam": 1.2, "per_mt_plastic": 1.2, "per_mt_h_tiles": 0.0, "per_mt_m_tiles": 44.0, "per_mt_b_brick": 0.0, "per_mt_stone": 47.6, "per_mt_asbstos": 1.2, "per_mt_concrte": 4.8, "per_mt_oth": 0.0, "per_mw_grsbam": 0.0, "per_mw_plastic": 0.0, "per_mw_mud": 3.6, "per_mw_wood": 0.0, "per_mw_no_mrtr": 1.2, "per_mw_st_mrtr": 95.2, "per_mw_asbstos": 0.0, "per_mw_b_brick": 0.0, "per_mw_concrte": 0.0, "per_mw_oth": 0.0, "per_mf_mud": 42.9, "per_mf_wood": 0.0, "per_mf_b_brick": 0.0, "per_mf_stone": 1.2, "per_mf_cement": 32.1, "per_mf_fl_tile": 23.8, "per_mf_oth": 0.0, "per_dw_n_exrm": 0.0, "per_dw_1_room": 46.4, "per_dw_2_room": 48.8, "per_dw_3_room": 4.8, "per_dw_4_room": 0.0, "per_dw_5_room": 0.0, "per_dw_6_room": 0.0, "per_hhsize_1": 1.2, "per_hhsize_2": 13.1, "per_hhsize_3": 7.1, "per_hhsize_4": 26.2, "per_hhsize_5": 21.4, "per_hhsize_6_8": 27.4, "per_hhsize_9p": 3.6, "per_ow_owned": 96.4, "per_ow_rented": 3.6, "per_ow_oth": 0.0, "per_mc_none": 1.2, "per_mcouple_1": 79.8, "per_mcouple_2": 19.0, "per_mcouple_3": 0.0, "per_mcouple_4": 0.0, "per_mcouple_5p": 0.0, "per_dw_t_ts": 0.0, "per_dw_t_unts": 0.0, "per_dw_c_well": 0.0, "per_dw_unc_wel": 1.2, "per_dw_hpump": 97.6, "per_dw_tw_bore": 1.2, "per_dw_spring": 0.0, "per_dw_rivcan": 0.0, "per_dw_tank": 0.0, "per_dw_oth": 0.0, "per_loc_dw_wp": 1.2, "per_loc_dw_np": 98.8, "per_loc_dw_aw": 0.0, "per_light_elec": 100.0, "per_light_kero": 0.0, "per_light_solr": 0.0, "per_light_oil": 0.0, "per_light_oth": 0.0, "per_light_no": 0.0, "per_hh_latrine": 3.6, "per_fl_sewer": 0.0, "per_fl_septict": 0.0, "per_fl_othsys": 0.0, "per_pl_wslab": 3.6, "per_pl_without": 0.0, "per_ns_open": 0.0, "per_sl_ns_hum": 0.0, "per_sl_ns_anml": 0.0, "per_hh_no_lat": 96.4, "per_as_pub": 0.0, "per_as_open": 96.4, "per_hh_bathrm": 2.4, "per_hh_en_wrf": 2.4, "per_hh_no_btrm": 95.2, "per_wwoc_drain": 0.0, "per_wwoc_open": 0.0, "per_wwoc_nodrn": 100.0, "per_cook_fire": 0.0, "per_cook_resdu": 92.9, "per_cook_cwdng": 7.1, "per_cook_coal": 0.0, "per_cook_kero": 0.0, "per_cook_lpng": 0.0, "per_cook_elec": 0.0, "per_cook_biogs": 0.0, "per_cook_oth": 0.0, "per_cook_no": 0.0, "per_kf_inside": 84.5, "per_kf_in_has": 46.4, "per_kf_in_does": 38.1, "per_kf_outside": 15.5, "per_kf_out_has": 14.3, "per_kf_out_dos": 1.2, "per_kf_no_cook": 0.0, "per_hh_banking": 89.3, "per_hh_radio": 4.8, "per_hh_tv": 26.2, "per_hh_cmp_int": 0.0, "per_hh_cmp_wnt": 0.0, "per_hh_ph_ll": 0.0, "per_hh_ph_mob": 58.3, "per_hh_ph_bth": 0.0, "per_hh_bcycl": 1.2, "per_hh_2wheel": 34.5, "per_hh_4wheel": 0.0, "per_hh_tvcomp": 0.0, "per_hh_no_ast": 38.1, "per_hs_perma": 94.0, "per_hs_sperma": 6.0, "per_hs_temp": 0.0, "per_hs_servc": 0.0, "per_hs_nservc": 0.0, "per_hs_unclss": 0.0, "avghhsz_cy": 4.87058824, "st_areashape": 3166659.38333251, "st_lengthshape": 7291.724583999301}, "geometry": {"type": "Polygon", "coordinates": [[[70.1404049493891, 22.0905853903266], [70.1395385844847, 22.090302670459028], [70.13860331071317, 22.090124006686207], [70.13767943117269, 22.089899587074104], [70.13676928417796, 22.089630697425452], [70.13587534997748, 22.089317803617746], [70.13500117601829, 22.088962272126228], [70.13414750790211, 22.08856392366657], [70.1333184356584, 22.088124464265427], [70.13251459439608, 22.087645142952816], [70.13173903389553, 22.087127522552603], [70.13099416433668, 22.086572969434638], [70.13028112837654, 22.085982467057626], [70.12922650533466, 22.085567621181568], [70.12874710051868, 22.08481986768045], [70.12793940907703, 22.083559457041204], [70.12717825845199, 22.082372773323325], [70.12696590390533, 22.081405396182088], [70.12678997963673, 22.08043148116753], [70.12665104978817, 22.07945212446294], [70.12654857537044, 22.07846910405115], [70.12648300554119, 22.077482903508127], [70.1264544579798, 22.0764951951665], [70.12646292549968, 22.075507111139668], [70.12650831108276, 22.07451993091887], [70.12659062820383, 22.073534562749185], [70.12671051197177, 22.07255225704873], [70.12686669935523, 22.07157467052186], [70.12691502781922, 22.070652852262306], [70.12697448820619, 22.07002910271931], [70.12713855381475, 22.069422931887743], [70.12740231625014, 22.06884777735219], [70.12775959689989, 22.068317826151688], [70.12820100387766, 22.06784577032447], [70.12871641496689, 22.067444326159034], [70.12929277405318, 22.06712208907648], [70.1299155185475, 22.06688823804173], [70.13056956843114, 22.066747078407122], [70.13182968199254, 22.066708900287463], [70.13247372554224, 22.067090763438358], [70.13308775637827, 22.06751367894769], [70.13366797193207, 22.067975355397124], [70.13421272738837, 22.06847394841776], [70.13471840433316, 22.06900687854148], [70.13518255395901, 22.069571111770987], [70.13560340388983, 22.07016434173199], [70.13597916288495, 22.070783426253097], [70.13630685662251, 22.071425830082877], [70.13658584101042, 22.07208825794987], [70.13681438589343, 22.072766742827167], [70.13699192892616, 22.07345905595779], [70.13711662407077, 22.07416061523904], [70.13724531312509, 22.07495141853747], [70.13744101470303, 22.075828325157666], [70.13768535466367, 22.07669487895395], [70.1379782305991, 22.077548121599246], [70.1383192391658, 22.078385911460565], [70.13870644898589, 22.079205853890155], [70.13913930220552, 22.080005719111348], [70.13961658250585, 22.08078331068717], [70.14003634547518, 22.081363679223657], [70.14054022758606, 22.082094015980935], [70.14095996630087, 22.082868977279094], [70.14128978006248, 22.083681307921204], [70.1415264304443, 22.08452119485934], [70.14166782167676, 22.085379807491613], [70.14171164508959, 22.086247923362027], [70.14165783780071, 22.087115560264788], [70.1415070879196, 22.087973539491106], [70.14126083814065, 22.088812352098774], [70.14092143755833, 22.08962232538761], [70.1404049493891, 22.0905853903266]]]}}]}