{"type": "FeatureCollection", "features": [{"type": "Feature", "properties": {"premiumdata.sde.IN_Village_PCA.area": 6.23713887, "objectid": 95364, "id": "285054923666533", "name": "Manjeru", "subdistrict": "Kajuluru", "district": "East Godavari", "state": "Andhra Pradesh", "country": "India", "censusname": "Manjeru", "villagename_locallang": null, "lgd_villagename": "Manjeru", "lgd_villagecode": 587620, "lgd_subdistrictcode": 4923, "lgd_districtcode": 505, "lgd_statecode": 28, "censuscode2001": "01862800", "censuscode2011": "587620", "censuscode2021": null, "level": "Village", "tru": "Rural", "no_hh": 927, "tot_p": 3541, "tot_m": 1801, "tot_f": 1740, "per_tot_m": 50.8613386, "per_tot_f": 49.1386614, "p_06": 407, "m_06": 209, "f_06": 198, "per_p_06": 11.49392827, "per_m_06": 51.35135135, "per_f_06": 48.64864865, "p_sc": 1049, "m_sc": 525, "f_sc": 524, "per_p_sc": 29.62439989, "per_m_sc": 50.04766444000001, "per_f_sc": 49.95233556, "p_st": 27, "m_st": 11, "f_st": 16, "per_p_st": 0.76249647, "per_m_st": 40.74074074, "per_f_st": 59.25925926, "p_lit": 1974, "m_lit": 1054, "f_lit": 920, "per_p_lit": 55.74696413, "per_m_lit": 53.39412361, "per_f_lit": 46.60587639, "p_ill": 1567, "m_ill": 747, "f_ill": 820, "per_p_ill": 44.25303587, "per_m_ill": 47.67070836, "per_f_ill": 52.32929164, "tot_work_p": 1516, "tot_work_m": 1082, "tot_work_f": 434, "per_tot_work_p": 42.81276476, "per_tot_work_m": 71.37203166, "per_tot_work_f": 28.62796834, "mainwork_p": 547, "mainwork_m": 490, "mainwork_f": 57, "per_mainwork_p": 15.44761367, "per_mainwork_m": 89.57952468, "per_mainwork_f": 10.42047532, "main_cl_p": 160, "main_cl_m": 155, "main_cl_f": 5, "per_main_cl_p": 29.25045704, "per_main_cl_m": 96.875, "per_main_cl_f": 3.125, "main_al_p": 233, "main_al_m": 227, "main_al_f": 6, "per_main_al_p": 42.59597806, "per_main_al_m": 97.4248927, "per_main_al_f": 2.5751073, "main_hh_p": 7, "main_hh_m": 6, "main_hh_f": 1, "per_main_hh_p": 1.2797075, "per_main_hh_m": 85.71428571, "per_main_hh_f": 14.28571429, "main_ot_p": 147, "main_ot_m": 102, "main_ot_f": 45, "per_main_ot_p": 26.8738574, "per_main_ot_m": 69.3877551, "per_main_ot_f": 30.6122449, "margwork_p": 969, "margwork_m": 592, "margwork_f": 377, "per_margwork_p": 27.36515109, "per_margwork_m": 61.09391125, "per_margwork_f": 38.90608875, "marg_cl_p": 14, "marg_cl_m": 13, "marg_cl_f": 1, "per_marg_cl_p": 1.44478844, "per_marg_cl_m": 92.85714286, "per_marg_cl_f": 7.14285714, "marg_al_p": 915, "marg_al_m": 545, "marg_al_f": 370, "per_marg_al_p": 94.42724458, "per_marg_al_m": 59.56284153, "per_marg_al_f": 40.43715847, "marg_hh_p": 1, "marg_hh_m": 1, "marg_hh_f": 0, "per_marg_hh_p": 0.10319917, "per_marg_hh_m": 100.0, "per_marg_hh_f": 0.0, "marg_ot_p": 39, "marg_ot_m": 33, "marg_ot_f": 6, "per_marg_ot_p": 4.0247678, "per_marg_ot_m": 84.61538462, "per_marg_ot_f": 15.38461538, "margwork_3_6_p": 965, "margwork_3_6_m": 590, "margwork_3_6_f": 375, "per_margwork_3_6_p": 99.5872033, "per_margwork_3_6_m": 61.13989637, "per_margwork_3_6_f": 38.86010363, "marg_cl_3_6_p": 14, "marg_cl_3_6_m": 13, "marg_cl_3_6_f": 1, "per_marg_cl_3_6_p": 1.44478844, "per_marg_cl_3_6_m": 92.85714286, "per_marg_cl_3_6_f": 7.14285714, "marg_al_3_6_p": 913, "marg_al_3_6_m": 544, "marg_al_3_6_f": 369, "per_marg_al_3_6_p": 94.22084623, "per_marg_al_3_6_m": 59.5837897, "per_marg_al_3_6_f": 40.4162103, "marg_hh_3_6_p": 1, "marg_hh_3_6_m": 1, "marg_hh_3_6_f": 0, "per_marg_hh_3_6_p": 0.10319917, "per_marg_hh_3_6_m": 100.0, "per_marg_hh_3_6_f": 0.0, "marg_ot_3_6_p": 37, "marg_ot_3_6_m": 32, "marg_ot_3_6_f": 5, "per_marg_ot_3_6_p": 3.81836945, "per_marg_ot_3_6_m": 86.48648649, "per_marg_ot_3_6_f": 13.51351351, "margwork_0_3_p": 4, "margwork_0_3_m": 2, "margwork_0_3_f": 2, "per_margwork_0_3_p": 0.4127967, "per_margwork_0_3_m": 50.0, "per_margwork_0_3_f": 50.0, "marg_cl_0_3_p": 0, "marg_cl_0_3_m": 0, "marg_cl_0_3_f": 0, "per_marg_cl_0_3_p": 0.0, "per_marg_cl_0_3_m": 0.0, "per_marg_cl_0_3_f": 0.0, "marg_al_0_3_p": 2, "marg_al_0_3_m": 1, "marg_al_0_3_f": 1, "per_marg_al_0_3_p": 0.20639835, "per_marg_al_0_3_m": 50.0, "per_marg_al_0_3_f": 50.0, "marg_hh_0_3_p": 0, "marg_hh_0_3_m": 0, "marg_hh_0_3_f": 0, "per_marg_hh_0_3_p": 0.0, "per_marg_hh_0_3_m": 0.0, "per_marg_hh_0_3_f": 0.0, "marg_ot_0_3_p": 2, "marg_ot_0_3_m": 1, "marg_ot_0_3_f": 1, "per_marg_ot_0_3_p": 0.20639835, "per_marg_ot_0_3_m": 50.0, "per_marg_ot_0_3_f": 50.0, "non_work_p": 2025, "non_work_m": 719, "non_work_f": 1306, "per_non_work_p": 57.18723524, "per_non_work_m": 35.50617284, "per_non_work_f": 64.49382716, "per_hc_tot_tot": 100, "per_hc_tot_god": 59.1, "per_hc_tot_liv": 33.8, "per_hc_tot_dil": 7.1, "per_hc_res_tot": 97.7, "per_hc_res_god": 57.5, "per_hc_res_liv": 33.1, "per_hc_res_dil": 7.1, "per_hc_oth_tot": 2.3, "per_hc_oth_god": 1.5, "per_hc_oth_liv": 0.8, "per_hc_oth_dil": 0.0, "per_mt_grsbam": 31.0, "per_mt_plastic": 0.0, "per_mt_h_tiles": 9.0, "per_mt_m_tiles": 23.3, "per_mt_b_brick": 0.1, "per_mt_stone": 0.3, "per_mt_asbstos": 0.4, "per_mt_concrte": 35.8, "per_mt_oth": 0.0, "per_mw_grsbam": 6.4, "per_mw_plastic": 0.1, "per_mw_mud": 20.1, "per_mw_wood": 0.0, "per_mw_no_mrtr": 0.6, "per_mw_st_mrtr": 7.7, "per_mw_asbstos": 0.0, "per_mw_b_brick": 64.8, "per_mw_concrte": 0.1, "per_mw_oth": 0.1, "per_mf_mud": 30.5, "per_mf_wood": 0.1, "per_mf_b_brick": 1.3, "per_mf_stone": 0.1, "per_mf_cement": 67.0, "per_mf_fl_tile": 0.7, "per_mf_oth": 0.2, "per_dw_n_exrm": 4.1, "per_dw_1_room": 48.2, "per_dw_2_room": 36.9, "per_dw_3_room": 5.6, "per_dw_4_room": 3.2, "per_dw_5_room": 0.6, "per_dw_6_room": 1.3, "per_hhsize_1": 7.1, "per_hhsize_2": 13.1, "per_hhsize_3": 15.9, "per_hhsize_4": 34.6, "per_hhsize_5": 16.7, "per_hhsize_6_8": 11.5, "per_hhsize_9p": 1.1, "per_ow_owned": 93.5, "per_ow_rented": 2.3, "per_ow_oth": 4.2, "per_mc_none": 16.3, "per_mcouple_1": 74.3, "per_mcouple_2": 8.2, "per_mcouple_3": 0.9, "per_mcouple_4": 0.3, "per_mcouple_5p": 0.0, "per_dw_t_ts": 56.0, "per_dw_t_unts": 4.0, "per_dw_c_well": 0.4, "per_dw_unc_wel": 39.5, "per_dw_hpump": 0.1, "per_dw_tw_bore": 0.0, "per_dw_spring": 0.0, "per_dw_rivcan": 0.0, "per_dw_tank": 0.0, "per_dw_oth": 0.0, "per_loc_dw_wp": 10.6, "per_loc_dw_np": 56.0, "per_loc_dw_aw": 33.4, "per_light_elec": 96.1, "per_light_kero": 3.1, "per_light_solr": 0.0, "per_light_oil": 0.6, "per_light_oth": 0.1, "per_light_no": 0.1, "per_hh_latrine": 31.1, "per_fl_sewer": 2.4, "per_fl_septict": 24.3, "per_fl_othsys": 0.9, "per_pl_wslab": 3.3, "per_pl_without": 0.1, "per_ns_open": 0.0, "per_sl_ns_hum": 0.0, "per_sl_ns_anml": 0.0, "per_hh_no_lat": 68.9, "per_as_pub": 6.9, "per_as_open": 62.1, "per_hh_bathrm": 35.4, "per_hh_en_wrf": 4.4, "per_hh_no_btrm": 60.2, "per_wwoc_drain": 7.4, "per_wwoc_open": 3.7, "per_wwoc_nodrn": 88.9, "per_cook_fire": 81.7, "per_cook_resdu": 0.8, "per_cook_cwdng": 0.4, "per_cook_coal": 0.1, "per_cook_kero": 0.4, "per_cook_lpng": 15.7, "per_cook_elec": 0.0, "per_cook_biogs": 0.1, "per_cook_oth": 0.0, "per_cook_no": 0.7, "per_kf_inside": 31.6, "per_kf_in_has": 21.9, "per_kf_in_does": 9.7, "per_kf_outside": 67.7, "per_kf_out_has": 36.2, "per_kf_out_dos": 31.5, "per_kf_no_cook": 0.7, "per_hh_banking": 26.7, "per_hh_radio": 6.6, "per_hh_tv": 56.1, "per_hh_cmp_int": 0.3, "per_hh_cmp_wnt": 15.3, "per_hh_ph_ll": 1.8, "per_hh_ph_mob": 43.9, "per_hh_ph_bth": 1.8, "per_hh_bcycl": 63.9, "per_hh_2wheel": 13.4, "per_hh_4wheel": 0.0, "per_hh_tvcomp": 3.1, "per_hh_no_ast": 18.0, "per_hs_perma": 65.6, "per_hs_sperma": 11.1, "per_hs_temp": 23.2, "per_hs_servc": 16.9, "per_hs_nservc": 6.3, "per_hs_unclss": 0.1, "avghhsz_cy": 3.81984898, "st_areashape": 6844995.42482177, "st_lengthshape": 12170.406048339859}, "geometry": {"type": "Polygon", "coordinates": [[[82.19370000076275, 16.829670000468063], [82.19358999936128, 16.828260000077464], [82.1936600005798, 16.826889999866022], [82.19438999942743, 16.824609999637424], [82.19498000032964, 16.82310000000869], [82.19516000025469, 16.82210000039105], [82.19526999985956, 16.82146999937573], [82.19524000062063, 16.820500000173737], [82.19502000051261, 16.819679999653246], [82.19479000035882, 16.818969999461846], [82.19498000032964, 16.818920000365484], [82.19545999983035, 16.818480000697473], [82.19674999944297, 16.816259999499323], [82.19868000018649, 16.81262000010875], [82.20033000054752, 16.810789999930083], [82.20173999981074, 16.808829999565397], [82.20534000010848, 16.80249000001366], [82.20721999972497, 16.798940000699027], [82.2086200007391, 16.796819999976634], [82.20970000028942, 16.79603999939881], [82.21099999994779, 16.795680000101843], [82.21232999974336, 16.79537000027962], [82.21412000074481, 16.79533000015472], [82.21601999955449, 16.79537000027962], [82.21702999968291, 16.795820000244046], [82.21681999962064, 16.796200000109433], [82.21633000007418, 16.797350000227233], [82.21568000069416, 16.800709999753717], [82.2156400005112, 16.803139999695542], [82.21577000020753, 16.80938000011084], [82.21588999985813, 16.815220000539334], [82.21553000000802, 16.818630000015013], [82.21462999948442, 16.81988000031707], [82.2127399998222, 16.82269000065752], [82.21114999973561, 16.82493999934351], [82.21012000041398, 16.827690000050747], [82.20986999927042, 16.834249999827545], [82.20616000026614, 16.831649999964625], [82.20485999970947, 16.830479999988942], [82.20408999978052, 16.830200000047363], [82.20328999971437, 16.829840000251327], [82.20236999999761, 16.82967999954913], [82.20074000062634, 16.82963999978236], [82.19955000057284, 16.829899999834936], [82.19871999947112, 16.830309999920257], [82.19764999996653, 16.831540000010182], [82.19693000026633, 16.831909999837553], [82.19581999968045, 16.83191999966017], [82.19465999976417, 16.831629999430508], [82.19407999980604, 16.831110000278677], [82.19376000013888, 16.830339999639964], [82.19370000076275, 16.829670000468063]]]}}]}