{"type": "FeatureCollection", "features": [{"type": "Feature", "properties": {"premiumdata.sde.IN_Village_PCA.area": 0.64439584, "objectid": 6440, "id": "335785839176024", "name": "Manibamettupatti", "subdistrict": "Peraiyur", "district": "Madurai", "state": "Tamil Nadu", "country": "India", "censusname": "Manibamettupatti", "villagename_locallang": null, "lgd_villagename": "Manibamettupatti", "lgd_villagecode": 640850, "lgd_subdistrictcode": 5839, "lgd_districtcode": 578, "lgd_statecode": 33, "censuscode2001": "01401500", "censuscode2011": "640850", "censuscode2021": null, "level": "Village", "tru": "Rural", "no_hh": 90, "tot_p": 334, "tot_m": 172, "tot_f": 162, "per_tot_m": 51.49700599, "per_tot_f": 48.50299401, "p_06": 27, "m_06": 10, "f_06": 17, "per_p_06": 8.08383234, "per_m_06": 37.03703704, "per_f_06": 62.96296296, "p_sc": 211, "m_sc": 105, "f_sc": 106, "per_p_sc": 63.17365269, "per_m_sc": 49.76303318, "per_f_sc": 50.23696682, "p_st": 0, "m_st": 0, "f_st": 0, "per_p_st": 0.0, "per_m_st": 0.0, "per_f_st": 0.0, "p_lit": 178, "m_lit": 116, "f_lit": 62, "per_p_lit": 53.29341317, "per_m_lit": 65.16853933, "per_f_lit": 34.83146067000001, "p_ill": 156, "m_ill": 56, "f_ill": 100, "per_p_ill": 46.70658683, "per_m_ill": 35.8974359, "per_f_ill": 64.1025641, "tot_work_p": 241, "tot_work_m": 125, "tot_work_f": 116, "per_tot_work_p": 72.15568862, "per_tot_work_m": 51.86721992, "per_tot_work_f": 48.13278008, "mainwork_p": 241, "mainwork_m": 125, "mainwork_f": 116, "per_mainwork_p": 72.15568862, "per_mainwork_m": 51.86721992, "per_mainwork_f": 48.13278008, "main_cl_p": 0, "main_cl_m": 0, "main_cl_f": 0, "per_main_cl_p": 0.0, "per_main_cl_m": 0.0, "per_main_cl_f": 0.0, "main_al_p": 215, "main_al_m": 103, "main_al_f": 112, "per_main_al_p": 89.21161826000001, "per_main_al_m": 47.90697674, "per_main_al_f": 52.09302326, "main_hh_p": 0, "main_hh_m": 0, "main_hh_f": 0, "per_main_hh_p": 0.0, "per_main_hh_m": 0.0, "per_main_hh_f": 0.0, "main_ot_p": 26, "main_ot_m": 22, "main_ot_f": 4, "per_main_ot_p": 10.78838174, "per_main_ot_m": 84.61538462, "per_main_ot_f": 15.38461538, "margwork_p": 0, "margwork_m": 0, "margwork_f": 0, "per_margwork_p": 0.0, "per_margwork_m": 0.0, "per_margwork_f": 0.0, "marg_cl_p": 0, "marg_cl_m": 0, "marg_cl_f": 0, "per_marg_cl_p": 0.0, "per_marg_cl_m": 0.0, "per_marg_cl_f": 0.0, "marg_al_p": 0, "marg_al_m": 0, "marg_al_f": 0, "per_marg_al_p": 0.0, "per_marg_al_m": 0.0, "per_marg_al_f": 0.0, "marg_hh_p": 0, "marg_hh_m": 0, "marg_hh_f": 0, "per_marg_hh_p": 0.0, "per_marg_hh_m": 0.0, "per_marg_hh_f": 0.0, "marg_ot_p": 0, "marg_ot_m": 0, "marg_ot_f": 0, "per_marg_ot_p": 0.0, "per_marg_ot_m": 0.0, "per_marg_ot_f": 0.0, "margwork_3_6_p": 0, "margwork_3_6_m": 0, "margwork_3_6_f": 0, "per_margwork_3_6_p": 0.0, "per_margwork_3_6_m": 0.0, "per_margwork_3_6_f": 0.0, "marg_cl_3_6_p": 0, "marg_cl_3_6_m": 0, "marg_cl_3_6_f": 0, "per_marg_cl_3_6_p": 0.0, "per_marg_cl_3_6_m": 0.0, "per_marg_cl_3_6_f": 0.0, "marg_al_3_6_p": 0, "marg_al_3_6_m": 0, "marg_al_3_6_f": 0, "per_marg_al_3_6_p": 0.0, "per_marg_al_3_6_m": 0.0, "per_marg_al_3_6_f": 0.0, "marg_hh_3_6_p": 0, "marg_hh_3_6_m": 0, "marg_hh_3_6_f": 0, "per_marg_hh_3_6_p": 0.0, "per_marg_hh_3_6_m": 0.0, "per_marg_hh_3_6_f": 0.0, "marg_ot_3_6_p": 0, "marg_ot_3_6_m": 0, "marg_ot_3_6_f": 0, "per_marg_ot_3_6_p": 0.0, "per_marg_ot_3_6_m": 0.0, "per_marg_ot_3_6_f": 0.0, "margwork_0_3_p": 0, "margwork_0_3_m": 0, "margwork_0_3_f": 0, "per_margwork_0_3_p": 0.0, "per_margwork_0_3_m": 0.0, "per_margwork_0_3_f": 0.0, "marg_cl_0_3_p": 0, "marg_cl_0_3_m": 0, "marg_cl_0_3_f": 0, "per_marg_cl_0_3_p": 0.0, "per_marg_cl_0_3_m": 0.0, "per_marg_cl_0_3_f": 0.0, "marg_al_0_3_p": 0, "marg_al_0_3_m": 0, "marg_al_0_3_f": 0, "per_marg_al_0_3_p": 0.0, "per_marg_al_0_3_m": 0.0, "per_marg_al_0_3_f": 0.0, "marg_hh_0_3_p": 0, "marg_hh_0_3_m": 0, "marg_hh_0_3_f": 0, "per_marg_hh_0_3_p": 0.0, "per_marg_hh_0_3_m": 0.0, "per_marg_hh_0_3_f": 0.0, "marg_ot_0_3_p": 0, "marg_ot_0_3_m": 0, "marg_ot_0_3_f": 0, "per_marg_ot_0_3_p": 0.0, "per_marg_ot_0_3_m": 0.0, "per_marg_ot_0_3_f": 0.0, "non_work_p": 93, "non_work_m": 47, "non_work_f": 46, "per_non_work_p": 27.84431138, "per_non_work_m": 50.53763441, "per_non_work_f": 49.46236559, "per_hc_tot_tot": 100, "per_hc_tot_god": 6.7, "per_hc_tot_liv": 93.3, "per_hc_tot_dil": 0.0, "per_hc_res_tot": 100.0, "per_hc_res_god": 6.7, "per_hc_res_liv": 93.3, "per_hc_res_dil": 0.0, "per_hc_oth_tot": 0.0, "per_hc_oth_god": 0.0, "per_hc_oth_liv": 0.0, "per_hc_oth_dil": 0.0, "per_mt_grsbam": 7.6, "per_mt_plastic": 0.0, "per_mt_h_tiles": 4.2, "per_mt_m_tiles": 56.3, "per_mt_b_brick": 0.0, "per_mt_stone": 0.8, "per_mt_asbstos": 21.8, "per_mt_concrte": 9.2, "per_mt_oth": 0.0, "per_mw_grsbam": 5.0, "per_mw_plastic": 0.0, "per_mw_mud": 42.0, "per_mw_wood": 0.0, "per_mw_no_mrtr": 20.2, "per_mw_st_mrtr": 29.4, "per_mw_asbstos": 0.8, "per_mw_b_brick": 1.7, "per_mw_concrte": 0.8, "per_mw_oth": 0.0, "per_mf_mud": 14.3, "per_mf_wood": 1.7, "per_mf_b_brick": 46.2, "per_mf_stone": 4.2, "per_mf_cement": 33.6, "per_mf_fl_tile": 0.0, "per_mf_oth": 0.0, "per_dw_n_exrm": 17.6, "per_dw_1_room": 32.8, "per_dw_2_room": 42.9, "per_dw_3_room": 6.7, "per_dw_4_room": 0.0, "per_dw_5_room": 0.0, "per_dw_6_room": 0.0, "per_hhsize_1": 0.0, "per_hhsize_2": 17.6, "per_hhsize_3": 15.1, "per_hhsize_4": 29.4, "per_hhsize_5": 29.4, "per_hhsize_6_8": 8.4, "per_hhsize_9p": 0.0, "per_ow_owned": 100.0, "per_ow_rented": 0.0, "per_ow_oth": 0.0, "per_mc_none": 20.2, "per_mcouple_1": 45.4, "per_mcouple_2": 31.9, "per_mcouple_3": 2.5, "per_mcouple_4": 0.0, "per_mcouple_5p": 0.0, "per_dw_t_ts": 66.4, "per_dw_t_unts": 31.1, "per_dw_c_well": 0.8, "per_dw_unc_wel": 1.7, "per_dw_hpump": 0.0, "per_dw_tw_bore": 0.0, "per_dw_spring": 0.0, "per_dw_rivcan": 0.0, "per_dw_tank": 0.0, "per_dw_oth": 0.0, "per_loc_dw_wp": 0.0, "per_loc_dw_np": 3.4, "per_loc_dw_aw": 96.6, "per_light_elec": 100.0, "per_light_kero": 0.0, "per_light_solr": 0.0, "per_light_oil": 0.0, "per_light_oth": 0.0, "per_light_no": 0.0, "per_hh_latrine": 0.0, "per_fl_sewer": 0.0, "per_fl_septict": 0.0, "per_fl_othsys": 0.0, "per_pl_wslab": 0.0, "per_pl_without": 0.0, "per_ns_open": 0.0, "per_sl_ns_hum": 0.0, "per_sl_ns_anml": 0.0, "per_hh_no_lat": 100.0, "per_as_pub": 0.0, "per_as_open": 100.0, "per_hh_bathrm": 1.7, "per_hh_en_wrf": 29.4, "per_hh_no_btrm": 68.9, "per_wwoc_drain": 0.0, "per_wwoc_open": 2.5, "per_wwoc_nodrn": 97.5, "per_cook_fire": 98.3, "per_cook_resdu": 0.0, "per_cook_cwdng": 0.8, "per_cook_coal": 0.0, "per_cook_kero": 0.8, "per_cook_lpng": 0.0, "per_cook_elec": 0.0, "per_cook_biogs": 0.0, "per_cook_oth": 0.0, "per_cook_no": 0.0, "per_kf_inside": 60.5, "per_kf_in_has": 7.6, "per_kf_in_does": 52.9, "per_kf_outside": 39.5, "per_kf_out_has": 37.0, "per_kf_out_dos": 2.5, "per_kf_no_cook": 0.0, "per_hh_banking": 13.4, "per_hh_radio": 16.0, "per_hh_tv": 93.3, "per_hh_cmp_int": 0.0, "per_hh_cmp_wnt": 0.8, "per_hh_ph_ll": 0.0, "per_hh_ph_mob": 4.2, "per_hh_ph_bth": 0.0, "per_hh_bcycl": 10.9, "per_hh_2wheel": 0.8, "per_hh_4wheel": 0.8, "per_hh_tvcomp": 0.0, "per_hh_no_ast": 4.2, "per_hs_perma": 52.9, "per_hs_sperma": 39.5, "per_hs_temp": 7.6, "per_hs_servc": 5.0, "per_hs_nservc": 2.5, "per_hs_unclss": 0.0, "avghhsz_cy": 3.71111111, "st_areashape": 668094.119548615, "st_lengthshape": 3512.488964925824}, "geometry": {"type": "Polygon", "coordinates": [[[77.7614900401885, 9.860775029901166], [77.76313775972706, 9.862642260082161], [77.76375588059257, 9.865017899614168], [77.7631913999293, 9.867076830172048], [77.76216107990913, 9.867585150557538], [77.76007848055166, 9.867469769697733], [77.75736983988278, 9.866627729809306], [77.75657640021313, 9.86693282999296], [77.75592804025852, 9.868578929708407], [77.75402076060345, 9.869083380229762], [77.75347896060448, 9.868871699720922], [77.75327303979189, 9.8686646999632], [77.75308980054191, 9.868147830137225], [77.75311283963401, 9.867735899656733], [77.7533875201934, 9.866808900418448], [77.75382996023376, 9.865058940357134], [77.75536355959521, 9.863521559592058], [77.75707248045575, 9.86250113965406], [77.7604978806016, 9.860769270032856], [77.7614900401885, 9.860775029901166]]]}}]}