{"type": "FeatureCollection", "features": [{"type": "Feature", "properties": {"premiumdata.sde.IN_Village_PCA.area": 4.72000468, "objectid": 387593, "id": "8101468510106", "name": "26 Ssw", "subdistrict": "Hanumangarh", "district": "Hanumangarh", "state": "Rajasthan", "country": "India", "censusname": "26 SSW", "villagename_locallang": null, "lgd_villagename": "26 Ssw", "lgd_villagecode": 67784, "lgd_subdistrictcode": 468, "lgd_districtcode": 101, "lgd_statecode": 8, "censuscode2001": "00368700", "censuscode2011": "067784", "censuscode2021": null, "level": "Village", "tru": "Rural", "no_hh": 108, "tot_p": 627, "tot_m": 317, "tot_f": 310, "per_tot_m": 50.55821372, "per_tot_f": 49.44178628, "p_06": 80, "m_06": 46, "f_06": 34, "per_p_06": 12.75917065, "per_m_06": 57.5, "per_f_06": 42.5, "p_sc": 181, "m_sc": 81, "f_sc": 100, "per_p_sc": 28.8676236, "per_m_sc": 44.75138122, "per_f_sc": 55.24861878, "p_st": 0, "m_st": 0, "f_st": 0, "per_p_st": 0.0, "per_m_st": 0.0, "per_f_st": 0.0, "p_lit": 369, "m_lit": 209, "f_lit": 160, "per_p_lit": 58.85167464, "per_m_lit": 56.6395664, "per_f_lit": 43.3604336, "p_ill": 258, "m_ill": 108, "f_ill": 150, "per_p_ill": 41.14832536, "per_m_ill": 41.86046512, "per_f_ill": 58.13953488, "tot_work_p": 259, "tot_work_m": 161, "tot_work_f": 98, "per_tot_work_p": 41.30781499, "per_tot_work_m": 62.16216216, "per_tot_work_f": 37.83783784, "mainwork_p": 250, "mainwork_m": 153, "mainwork_f": 97, "per_mainwork_p": 39.87240829, "per_mainwork_m": 61.2, "per_mainwork_f": 38.8, "main_cl_p": 108, "main_cl_m": 105, "main_cl_f": 3, "per_main_cl_p": 43.2, "per_main_cl_m": 97.22222222, "per_main_cl_f": 2.77777778, "main_al_p": 33, "main_al_m": 20, "main_al_f": 13, "per_main_al_p": 13.2, "per_main_al_m": 60.60606061, "per_main_al_f": 39.39393939, "main_hh_p": 0, "main_hh_m": 0, "main_hh_f": 0, "per_main_hh_p": 0.0, "per_main_hh_m": 0.0, "per_main_hh_f": 0.0, "main_ot_p": 109, "main_ot_m": 28, "main_ot_f": 81, "per_main_ot_p": 43.6, "per_main_ot_m": 25.68807339, "per_main_ot_f": 74.31192661, "margwork_p": 9, "margwork_m": 8, "margwork_f": 1, "per_margwork_p": 1.4354067, "per_margwork_m": 88.88888889, "per_margwork_f": 11.11111111, "marg_cl_p": 5, "marg_cl_m": 4, "marg_cl_f": 1, "per_marg_cl_p": 55.55555556, "per_marg_cl_m": 80.0, "per_marg_cl_f": 20.0, "marg_al_p": 0, "marg_al_m": 0, "marg_al_f": 0, "per_marg_al_p": 0.0, "per_marg_al_m": 0.0, "per_marg_al_f": 0.0, "marg_hh_p": 0, "marg_hh_m": 0, "marg_hh_f": 0, "per_marg_hh_p": 0.0, "per_marg_hh_m": 0.0, "per_marg_hh_f": 0.0, "marg_ot_p": 4, "marg_ot_m": 4, "marg_ot_f": 0, "per_marg_ot_p": 44.44444444000001, "per_marg_ot_m": 100.0, "per_marg_ot_f": 0.0, "margwork_3_6_p": 6, "margwork_3_6_m": 5, "margwork_3_6_f": 1, "per_margwork_3_6_p": 66.66666667, "per_margwork_3_6_m": 83.33333332999999, "per_margwork_3_6_f": 16.66666667, "marg_cl_3_6_p": 4, "marg_cl_3_6_m": 3, "marg_cl_3_6_f": 1, "per_marg_cl_3_6_p": 44.44444444000001, "per_marg_cl_3_6_m": 75.0, "per_marg_cl_3_6_f": 25.0, "marg_al_3_6_p": 0, "marg_al_3_6_m": 0, "marg_al_3_6_f": 0, "per_marg_al_3_6_p": 0.0, "per_marg_al_3_6_m": 0.0, "per_marg_al_3_6_f": 0.0, "marg_hh_3_6_p": 0, "marg_hh_3_6_m": 0, "marg_hh_3_6_f": 0, "per_marg_hh_3_6_p": 0.0, "per_marg_hh_3_6_m": 0.0, "per_marg_hh_3_6_f": 0.0, "marg_ot_3_6_p": 2, "marg_ot_3_6_m": 2, "marg_ot_3_6_f": 0, "per_marg_ot_3_6_p": 22.22222222, "per_marg_ot_3_6_m": 100.0, "per_marg_ot_3_6_f": 0.0, "margwork_0_3_p": 3, "margwork_0_3_m": 3, "margwork_0_3_f": 0, "per_margwork_0_3_p": 33.33333333, "per_margwork_0_3_m": 100.0, "per_margwork_0_3_f": 0.0, "marg_cl_0_3_p": 1, "marg_cl_0_3_m": 1, "marg_cl_0_3_f": 0, "per_marg_cl_0_3_p": 11.11111111, "per_marg_cl_0_3_m": 100.0, "per_marg_cl_0_3_f": 0.0, "marg_al_0_3_p": 0, "marg_al_0_3_m": 0, "marg_al_0_3_f": 0, "per_marg_al_0_3_p": 0.0, "per_marg_al_0_3_m": 0.0, "per_marg_al_0_3_f": 0.0, "marg_hh_0_3_p": 0, "marg_hh_0_3_m": 0, "marg_hh_0_3_f": 0, "per_marg_hh_0_3_p": 0.0, "per_marg_hh_0_3_m": 0.0, "per_marg_hh_0_3_f": 0.0, "marg_ot_0_3_p": 2, "marg_ot_0_3_m": 2, "marg_ot_0_3_f": 0, "per_marg_ot_0_3_p": 22.22222222, "per_marg_ot_0_3_m": 100.0, "per_marg_ot_0_3_f": 0.0, "non_work_p": 368, "non_work_m": 156, "non_work_f": 212, "per_non_work_p": 58.69218501, "per_non_work_m": 42.39130435, "per_non_work_f": 57.60869565, "per_hc_tot_tot": 100, "per_hc_tot_god": 17.1, "per_hc_tot_liv": 82.9, "per_hc_tot_dil": 0.0, "per_hc_res_tot": 61.9, "per_hc_res_god": 11.4, "per_hc_res_liv": 50.5, "per_hc_res_dil": 0.0, "per_hc_oth_tot": 38.1, "per_hc_oth_god": 5.7, "per_hc_oth_liv": 32.4, "per_hc_oth_dil": 0.0, "per_mt_grsbam": 45.7, "per_mt_plastic": 7.6, "per_mt_h_tiles": 1.9, "per_mt_m_tiles": 0.0, "per_mt_b_brick": 34.3, "per_mt_stone": 1.0, "per_mt_asbstos": 1.0, "per_mt_concrte": 6.7, "per_mt_oth": 1.9, "per_mw_grsbam": 0.0, "per_mw_plastic": 0.0, "per_mw_mud": 52.4, "per_mw_wood": 0.0, "per_mw_no_mrtr": 0.0, "per_mw_st_mrtr": 0.0, "per_mw_asbstos": 0.0, "per_mw_b_brick": 47.6, "per_mw_concrte": 0.0, "per_mw_oth": 0.0, "per_mf_mud": 81.0, "per_mf_wood": 0.0, "per_mf_b_brick": 8.6, "per_mf_stone": 2.9, "per_mf_cement": 7.6, "per_mf_fl_tile": 0.0, "per_mf_oth": 0.0, "per_dw_n_exrm": 6.7, "per_dw_1_room": 16.2, "per_dw_2_room": 17.1, "per_dw_3_room": 26.7, "per_dw_4_room": 20.0, "per_dw_5_room": 8.6, "per_dw_6_room": 4.8, "per_hhsize_1": 0.0, "per_hhsize_2": 8.6, "per_hhsize_3": 6.7, "per_hhsize_4": 18.1, "per_hhsize_5": 23.8, "per_hhsize_6_8": 25.7, "per_hhsize_9p": 17.1, "per_ow_owned": 98.1, "per_ow_rented": 0.0, "per_ow_oth": 1.9, "per_mc_none": 10.5, "per_mcouple_1": 59.0, "per_mcouple_2": 19.0, "per_mcouple_3": 10.5, "per_mcouple_4": 1.0, "per_mcouple_5p": 0.0, "per_dw_t_ts": 23.8, "per_dw_t_unts": 0.0, "per_dw_c_well": 2.9, "per_dw_unc_wel": 0.0, "per_dw_hpump": 0.0, "per_dw_tw_bore": 0.0, "per_dw_spring": 0.0, "per_dw_rivcan": 69.5, "per_dw_tank": 3.8, "per_dw_oth": 0.0, "per_loc_dw_wp": 25.7, "per_loc_dw_np": 73.3, "per_loc_dw_aw": 1.0, "per_light_elec": 84.8, "per_light_kero": 15.2, "per_light_solr": 0.0, "per_light_oil": 0.0, "per_light_oth": 0.0, "per_light_no": 0.0, "per_hh_latrine": 69.5, "per_fl_sewer": 0.0, "per_fl_septict": 61.0, "per_fl_othsys": 7.6, "per_pl_wslab": 1.0, "per_pl_without": 0.0, "per_ns_open": 0.0, "per_sl_ns_hum": 0.0, "per_sl_ns_anml": 0.0, "per_hh_no_lat": 30.5, "per_as_pub": 15.2, "per_as_open": 15.2, "per_hh_bathrm": 47.6, "per_hh_en_wrf": 23.8, "per_hh_no_btrm": 28.6, "per_wwoc_drain": 4.8, "per_wwoc_open": 1.9, "per_wwoc_nodrn": 93.3, "per_cook_fire": 0.0, "per_cook_resdu": 100.0, "per_cook_cwdng": 0.0, "per_cook_coal": 0.0, "per_cook_kero": 0.0, "per_cook_lpng": 0.0, "per_cook_elec": 0.0, "per_cook_biogs": 0.0, "per_cook_oth": 0.0, "per_cook_no": 0.0, "per_kf_inside": 85.7, "per_kf_in_has": 45.7, "per_kf_in_does": 40.0, "per_kf_outside": 14.3, "per_kf_out_has": 0.0, "per_kf_out_dos": 14.3, "per_kf_no_cook": 0.0, "per_hh_banking": 98.1, "per_hh_radio": 48.6, "per_hh_tv": 48.6, "per_hh_cmp_int": 2.9, "per_hh_cmp_wnt": 7.6, "per_hh_ph_ll": 2.9, "per_hh_ph_mob": 82.9, "per_hh_ph_bth": 4.8, "per_hh_bcycl": 43.8, "per_hh_2wheel": 30.5, "per_hh_4wheel": 11.4, "per_hh_tvcomp": 1.9, "per_hh_no_ast": 5.7, "per_hs_perma": 41.9, "per_hs_sperma": 6.7, "per_hs_temp": 49.5, "per_hs_servc": 49.5, "per_hs_nservc": 0.0, "per_hs_unclss": 1.9, "avghhsz_cy": 5.80555556, "st_areashape": 6245617.348617275, "st_lengthshape": 11790.20788586072}, "geometry": {"type": "Polygon", "coordinates": [[[74.25456482594213, 29.437164541944416], [74.25384691302831, 29.43764433569748], [74.2531254679388, 29.437916345311923], [74.25264923776902, 29.438408971183048], [74.25230200657235, 29.43942680412466], [74.25197416551111, 29.441690275402898], [74.25185693177328, 29.44578131690913], [74.25165312110326, 29.449934722679597], [74.2517896713147, 29.45279698393398], [74.25198640865013, 29.453811242602768], [74.25244491685596, 29.454299917060986], [74.25344506875395, 29.45463363001198], [74.25445420739804, 29.45577053813568], [74.25466434669919, 29.45755817992731], [74.25531472786321, 29.46142943174507], [74.2535615443137, 29.46101583078941], [74.24906035591955, 29.459770018209827], [74.24098211648823, 29.458195662708313], [74.23995729595423, 29.457995042875975], [74.24035864076531, 29.45449124456669], [74.24017740296178, 29.44971533148563], [74.23970760472943, 29.44712303136701], [74.23916162756439, 29.44663305663987], [74.23872476516358, 29.446241011791304], [74.23785208869599, 29.445548503087128], [74.23762560005667, 29.444802678098565], [74.23761386266919, 29.443978177854053], [74.23780754663095, 29.44243383034609], [74.23791651586819, 29.43618726740039], [74.23790298544338, 29.428425777654176], [74.23876190690734, 29.42862431919168], [74.24151821757506, 29.428726458888534], [74.24500315715964, 29.42852521747093], [74.24910897453937, 29.428948645587464], [74.25197131785164, 29.429301332134905], [74.2529803073754, 29.429685854724557], [74.25352788443998, 29.430177883659425], [74.25384784907284, 29.430922310778737], [74.25520379131552, 29.431704708417485], [74.2548493619185, 29.432204098342382], [74.25487051365015, 29.43355255787065], [74.254898227575, 29.43531618475733], [74.25456482594213, 29.437164541944416]]]}}]}