{"type": "FeatureCollection", "features": [{"type": "Feature", "properties": {"premiumdata.sde.IN_Village_PCA.area": 2.06688108, "objectid": 85881, "id": "365184543681668", "name": "Ootpalle", "subdistrict": "Shamshabad", "district": "Ranga Reddy", "state": "Telangana", "country": "India", "censusname": "Ootpalle", "villagename_locallang": "\u0c0a\u0c1f\u0c41\u0c2a\u0c32\u0c4d\u0c32\u0c3f", "lgd_villagename": "Ootpalle", "lgd_villagecode": 574738, "lgd_subdistrictcode": 4543, "lgd_districtcode": 518, "lgd_statecode": 36, "censuscode2001": "00575900", "censuscode2011": "574738", "censuscode2021": null, "level": "Village", "tru": "Rural", "no_hh": 392, "tot_p": 1659, "tot_m": 851, "tot_f": 808, "per_tot_m": 51.29596142, "per_tot_f": 48.70403858, "p_06": 195, "m_06": 99, "f_06": 96, "per_p_06": 11.75406872, "per_m_06": 50.76923077, "per_f_06": 49.23076923, "p_sc": 130, "m_sc": 63, "f_sc": 67, "per_p_sc": 7.83604581, "per_m_sc": 48.46153846, "per_f_sc": 51.53846154, "p_st": 0, "m_st": 0, "f_st": 0, "per_p_st": 7.83604581, "per_m_st": 0.0, "per_f_st": 0.0, "p_lit": 942, "m_lit": 538, "f_lit": 404, "per_p_lit": 56.78119349, "per_m_lit": 57.11252654, "per_f_lit": 42.88747346, "p_ill": 717, "m_ill": 313, "f_ill": 404, "per_p_ill": 43.21880651, "per_m_ill": 43.65411437, "per_f_ill": 56.34588563, "tot_work_p": 749, "tot_work_m": 490, "tot_work_f": 259, "per_tot_work_p": 45.14767932, "per_tot_work_m": 65.42056075, "per_tot_work_f": 34.57943925, "mainwork_p": 464, "mainwork_m": 336, "mainwork_f": 128, "per_mainwork_p": 27.96865582, "per_mainwork_m": 72.4137931, "per_mainwork_f": 27.5862069, "main_cl_p": 107, "main_cl_m": 86, "main_cl_f": 21, "per_main_cl_p": 23.06034483, "per_main_cl_m": 80.37383178, "per_main_cl_f": 19.62616822, "main_al_p": 78, "main_al_m": 54, "main_al_f": 24, "per_main_al_p": 16.81034483, "per_main_al_m": 69.23076923, "per_main_al_f": 30.76923077, "main_hh_p": 19, "main_hh_m": 14, "main_hh_f": 5, "per_main_hh_p": 4.09482759, "per_main_hh_m": 73.68421053, "per_main_hh_f": 26.31578947, "main_ot_p": 260, "main_ot_m": 182, "main_ot_f": 78, "per_main_ot_p": 56.03448276, "per_main_ot_m": 70.0, "per_main_ot_f": 30.0, "margwork_p": 285, "margwork_m": 154, "margwork_f": 131, "per_margwork_p": 17.17902351, "per_margwork_m": 54.03508772, "per_margwork_f": 45.96491228, "marg_cl_p": 10, "marg_cl_m": 7, "marg_cl_f": 3, "per_marg_cl_p": 3.50877193, "per_marg_cl_m": 70.0, "per_marg_cl_f": 30.0, "marg_al_p": 179, "marg_al_m": 90, "marg_al_f": 89, "per_marg_al_p": 62.80701754, "per_marg_al_m": 50.27932961, "per_marg_al_f": 49.72067039, "marg_hh_p": 3, "marg_hh_m": 3, "marg_hh_f": 0, "per_marg_hh_p": 1.05263158, "per_marg_hh_m": 100.0, "per_marg_hh_f": 0.0, "marg_ot_p": 93, "marg_ot_m": 54, "marg_ot_f": 39, "per_marg_ot_p": 32.63157895000001, "per_marg_ot_m": 58.06451613, "per_marg_ot_f": 41.93548387, "margwork_3_6_p": 271, "margwork_3_6_m": 148, "margwork_3_6_f": 123, "per_margwork_3_6_p": 95.0877193, "per_margwork_3_6_m": 54.61254613, "per_margwork_3_6_f": 45.38745387, "marg_cl_3_6_p": 9, "marg_cl_3_6_m": 6, "marg_cl_3_6_f": 3, "per_marg_cl_3_6_p": 3.15789474, "per_marg_cl_3_6_m": 66.66666667, "per_marg_cl_3_6_f": 33.33333333, "marg_al_3_6_p": 172, "marg_al_3_6_m": 88, "marg_al_3_6_f": 84, "per_marg_al_3_6_p": 60.35087719, "per_marg_al_3_6_m": 51.1627907, "per_marg_al_3_6_f": 48.8372093, "marg_hh_3_6_p": 3, "marg_hh_3_6_m": 3, "marg_hh_3_6_f": 0, "per_marg_hh_3_6_p": 1.05263158, "per_marg_hh_3_6_m": 100.0, "per_marg_hh_3_6_f": 0.0, "marg_ot_3_6_p": 87, "marg_ot_3_6_m": 51, "marg_ot_3_6_f": 36, "per_marg_ot_3_6_p": 30.52631579, "per_marg_ot_3_6_m": 58.62068966, "per_marg_ot_3_6_f": 41.37931034, "margwork_0_3_p": 14, "margwork_0_3_m": 6, "margwork_0_3_f": 8, "per_margwork_0_3_p": 4.9122807, "per_margwork_0_3_m": 42.85714286, "per_margwork_0_3_f": 57.14285714, "marg_cl_0_3_p": 1, "marg_cl_0_3_m": 1, "marg_cl_0_3_f": 0, "per_marg_cl_0_3_p": 0.35087719, "per_marg_cl_0_3_m": 100.0, "per_marg_cl_0_3_f": 0.0, "marg_al_0_3_p": 7, "marg_al_0_3_m": 2, "marg_al_0_3_f": 5, "per_marg_al_0_3_p": 2.45614035, "per_marg_al_0_3_m": 28.57142857, "per_marg_al_0_3_f": 71.42857143, "marg_hh_0_3_p": 0, "marg_hh_0_3_m": 0, "marg_hh_0_3_f": 0, "per_marg_hh_0_3_p": 0.0, "per_marg_hh_0_3_m": 0.0, "per_marg_hh_0_3_f": 0.0, "marg_ot_0_3_p": 6, "marg_ot_0_3_m": 3, "marg_ot_0_3_f": 3, "per_marg_ot_0_3_p": 2.10526316, "per_marg_ot_0_3_m": 50.0, "per_marg_ot_0_3_f": 50.0, "non_work_p": 910, "non_work_m": 361, "non_work_f": 549, "per_non_work_p": 54.85232068, "per_non_work_m": 39.67032967, "per_non_work_f": 60.32967033, "per_hc_tot_tot": 100, "per_hc_tot_god": 69.5, "per_hc_tot_liv": 30.5, "per_hc_tot_dil": 0.0, "per_hc_res_tot": 99.0, "per_hc_res_god": 68.8, "per_hc_res_liv": 30.2, "per_hc_res_dil": 0.0, "per_hc_oth_tot": 1.0, "per_hc_oth_god": 0.8, "per_hc_oth_liv": 0.3, "per_hc_oth_dil": 0.0, "per_mt_grsbam": 1.3, "per_mt_plastic": 0.5, "per_mt_h_tiles": 10.7, "per_mt_m_tiles": 2.9, "per_mt_b_brick": 0.5, "per_mt_stone": 1.3, "per_mt_asbstos": 56.0, "per_mt_concrte": 26.8, "per_mt_oth": 0.0, "per_mw_grsbam": 0.0, "per_mw_plastic": 0.3, "per_mw_mud": 30.2, "per_mw_wood": 0.0, "per_mw_no_mrtr": 1.6, "per_mw_st_mrtr": 7.6, "per_mw_asbstos": 0.0, "per_mw_b_brick": 58.6, "per_mw_concrte": 0.5, "per_mw_oth": 1.3, "per_mf_mud": 8.1, "per_mf_wood": 0.0, "per_mf_b_brick": 0.0, "per_mf_stone": 79.7, "per_mf_cement": 9.6, "per_mf_fl_tile": 2.6, "per_mf_oth": 0.0, "per_dw_n_exrm": 0.3, "per_dw_1_room": 30.5, "per_dw_2_room": 27.9, "per_dw_3_room": 18.8, "per_dw_4_room": 14.3, "per_dw_5_room": 3.6, "per_dw_6_room": 4.7, "per_hhsize_1": 3.4, "per_hhsize_2": 9.4, "per_hhsize_3": 14.8, "per_hhsize_4": 31.0, "per_hhsize_5": 24.7, "per_hhsize_6_8": 13.5, "per_hhsize_9p": 3.1, "per_ow_owned": 68.0, "per_ow_rented": 32.0, "per_ow_oth": 0.0, "per_mc_none": 12.5, "per_mcouple_1": 78.1, "per_mcouple_2": 8.1, "per_mcouple_3": 0.8, "per_mcouple_4": 0.5, "per_mcouple_5p": 0.0, "per_dw_t_ts": 24.0, "per_dw_t_unts": 71.9, "per_dw_c_well": 0.3, "per_dw_unc_wel": 0.0, "per_dw_hpump": 0.0, "per_dw_tw_bore": 3.9, "per_dw_spring": 0.0, "per_dw_rivcan": 0.0, "per_dw_tank": 0.0, "per_dw_oth": 0.0, "per_loc_dw_wp": 89.6, "per_loc_dw_np": 8.3, "per_loc_dw_aw": 2.1, "per_light_elec": 97.4, "per_light_kero": 2.1, "per_light_solr": 0.3, "per_light_oil": 0.3, "per_light_oth": 0.0, "per_light_no": 0.0, "per_hh_latrine": 71.6, "per_fl_sewer": 22.7, "per_fl_septict": 30.7, "per_fl_othsys": 0.3, "per_pl_wslab": 17.4, "per_pl_without": 0.5, "per_ns_open": 0.0, "per_sl_ns_hum": 0.0, "per_sl_ns_anml": 0.0, "per_hh_no_lat": 28.4, "per_as_pub": 0.0, "per_as_open": 28.4, "per_hh_bathrm": 83.9, "per_hh_en_wrf": 2.9, "per_hh_no_btrm": 13.3, "per_wwoc_drain": 91.9, "per_wwoc_open": 4.9, "per_wwoc_nodrn": 3.1, "per_cook_fire": 28.1, "per_cook_resdu": 2.3, "per_cook_cwdng": 0.3, "per_cook_coal": 0.0, "per_cook_kero": 4.4, "per_cook_lpng": 63.3, "per_cook_elec": 0.0, "per_cook_biogs": 0.3, "per_cook_oth": 0.0, "per_cook_no": 1.3, "per_kf_inside": 81.2, "per_kf_in_has": 68.0, "per_kf_in_does": 13.3, "per_kf_outside": 17.4, "per_kf_out_has": 1.6, "per_kf_out_dos": 15.9, "per_kf_no_cook": 1.3, "per_hh_banking": 61.2, "per_hh_radio": 10.2, "per_hh_tv": 70.8, "per_hh_cmp_int": 0.8, "per_hh_cmp_wnt": 2.9, "per_hh_ph_ll": 0.8, "per_hh_ph_mob": 75.8, "per_hh_ph_bth": 0.5, "per_hh_bcycl": 20.6, "per_hh_2wheel": 31.8, "per_hh_4wheel": 2.6, "per_hh_tvcomp": 1.6, "per_hh_no_ast": 9.9, "per_hs_perma": 67.4, "per_hs_sperma": 30.5, "per_hs_temp": 0.8, "per_hs_servc": 0.5, "per_hs_nservc": 0.3, "per_hs_unclss": 1.3, "avghhsz_cy": 4.23214286, "st_areashape": 2278855.97709495, "st_lengthshape": 6333.433548387596}, "geometry": {"type": "Polygon", "coordinates": [[[78.36007999981872, 17.262989999844088], [78.35976000015158, 17.262490000396404], [78.35901999946157, 17.26177999957164], [78.35791999981974, 17.260730000167392], [78.35726000039398, 17.259640000302632], [78.35685000031515, 17.258739999926362], [78.35672999976622, 17.25847999957186], [78.35644999938376, 17.256859999268876], [78.35652000060229, 17.255449999926345], [78.35654000069376, 17.254430000017116], [78.35652000060229, 17.25295999978999], [78.35654000069376, 17.251650000245775], [78.35657999997842, 17.251029999910266], [78.35670999967473, 17.2494099993844], [78.35646999947524, 17.248110000263836], [78.3564100000991, 17.246489999841465], [78.35617999994533, 17.24547000016059], [78.35593999974583, 17.24478999924357], [78.35644000023633, 17.24474999981816], [78.35738000004457, 17.244709999526144], [78.35853999996085, 17.244960000351135], [78.35948999981484, 17.24514999968785], [78.36081999961041, 17.24535999976574], [78.36262999980502, 17.245520000318365], [78.3633800005408, 17.2455899996586], [78.36349000014563, 17.2455899996586], [78.36364000083181, 17.246560000529698], [78.3645500005028, 17.24837999966658], [78.36504000004928, 17.249540000422794], [78.3659499997203, 17.25142999989471], [78.36605999932515, 17.251590000332033], [78.36687999948282, 17.252930000048575], [78.36793000069252, 17.254040000100495], [78.36889999973968, 17.25514999947875], [78.36953000082485, 17.25638000010041], [78.36960999939417, 17.257460000118776], [78.36960000024675, 17.25896000013798], [78.36951000073337, 17.26080999980137], [78.36945000045891, 17.26187000046787], [78.36947999969782, 17.262319999142964], [78.36847999961512, 17.2620899995189], [78.3675499998526, 17.2619399996095], [78.36596000066436, 17.26183000045625], [78.36469999939234, 17.26189000047043], [78.36308000006683, 17.261790000435937], [78.36196000033353, 17.261980000455125], [78.36079000037152, 17.26249999950649], [78.36007999981872, 17.262989999844088]]]}}]}