{"type": "FeatureCollection", "features": [{"type": "Feature", "properties": {"premiumdata.sde.IN_Village_PCA.area": 0.98577323, "objectid": 119118, "id": "274984015651158", "name": "Ramdara", "subdistrict": "Ashti", "district": "Wardha", "state": "Maharashtra", "country": "India", "censusname": "Ramdara", "villagename_locallang": null, "lgd_villagename": "Ramdara", "lgd_villagecode": 533521, "lgd_subdistrictcode": 4015, "lgd_districtcode": 498, "lgd_statecode": 27, "censuscode2001": "00850500", "censuscode2011": "533521", "censuscode2021": null, "level": "Village", "tru": "Rural", "no_hh": 919, "tot_p": 3789, "tot_m": 1944, "tot_f": 1845, "per_tot_m": 51.3064133, "per_tot_f": 48.6935867, "p_06": 382, "m_06": 202, "f_06": 180, "per_p_06": 10.08181578, "per_m_06": 52.87958115, "per_f_06": 47.12041885, "p_sc": 436, "m_sc": 235, "f_sc": 201, "per_p_sc": 11.50699393, "per_m_sc": 53.89908257, "per_f_sc": 46.10091743, "p_st": 218, "m_st": 112, "f_st": 106, "per_p_st": 5.75349696, "per_m_st": 51.37614679, "per_f_st": 48.62385321, "p_lit": 3024, "m_lit": 1619, "f_lit": 1405, "per_p_lit": 79.80997625, "per_m_lit": 53.53835979, "per_f_lit": 46.46164021, "p_ill": 765, "m_ill": 325, "f_ill": 440, "per_p_ill": 20.19002375, "per_m_ill": 42.48366013, "per_f_ill": 57.51633987, "tot_work_p": 1505, "tot_work_m": 1060, "tot_work_f": 445, "per_tot_work_p": 39.72024281, "per_tot_work_m": 70.43189369, "per_tot_work_f": 29.56810631, "mainwork_p": 1289, "mainwork_m": 981, "mainwork_f": 308, "per_mainwork_p": 34.01953022, "per_mainwork_m": 76.10550815, "per_mainwork_f": 23.89449185, "main_cl_p": 135, "main_cl_m": 113, "main_cl_f": 22, "per_main_cl_p": 10.47323507, "per_main_cl_m": 83.7037037, "per_main_cl_f": 16.2962963, "main_al_p": 492, "main_al_m": 328, "main_al_f": 164, "per_main_al_p": 38.16912335, "per_main_al_m": 66.66666667, "per_main_al_f": 33.33333333, "main_hh_p": 65, "main_hh_m": 36, "main_hh_f": 29, "per_main_hh_p": 5.04266874, "per_main_hh_m": 55.38461538, "per_main_hh_f": 44.61538462, "main_ot_p": 597, "main_ot_m": 504, "main_ot_f": 93, "per_main_ot_p": 46.31497285, "per_main_ot_m": 84.42211055, "per_main_ot_f": 15.57788945, "margwork_p": 216, "margwork_m": 79, "margwork_f": 137, "per_margwork_p": 5.70071259, "per_margwork_m": 36.57407407, "per_margwork_f": 63.42592593, "marg_cl_p": 4, "marg_cl_m": 2, "marg_cl_f": 2, "per_marg_cl_p": 1.85185185, "per_marg_cl_m": 50.0, "per_marg_cl_f": 50.0, "marg_al_p": 148, "marg_al_m": 43, "marg_al_f": 105, "per_marg_al_p": 68.51851852, "per_marg_al_m": 29.05405405, "per_marg_al_f": 70.94594595, "marg_hh_p": 14, "marg_hh_m": 2, "marg_hh_f": 12, "per_marg_hh_p": 6.48148148, "per_marg_hh_m": 14.28571429, "per_marg_hh_f": 85.71428571, "marg_ot_p": 50, "marg_ot_m": 32, "marg_ot_f": 18, "per_marg_ot_p": 23.14814815, "per_marg_ot_m": 64.0, "per_marg_ot_f": 36.0, "margwork_3_6_p": 203, "margwork_3_6_m": 76, "margwork_3_6_f": 127, "per_margwork_3_6_p": 93.98148148, "per_margwork_3_6_m": 37.43842365, "per_margwork_3_6_f": 62.56157635, "marg_cl_3_6_p": 4, "marg_cl_3_6_m": 2, "marg_cl_3_6_f": 2, "per_marg_cl_3_6_p": 1.85185185, "per_marg_cl_3_6_m": 50.0, "per_marg_cl_3_6_f": 50.0, "marg_al_3_6_p": 146, "marg_al_3_6_m": 43, "marg_al_3_6_f": 103, "per_marg_al_3_6_p": 67.59259259, "per_marg_al_3_6_m": 29.45205479, "per_marg_al_3_6_f": 70.54794521, "marg_hh_3_6_p": 6, "marg_hh_3_6_m": 1, "marg_hh_3_6_f": 5, "per_marg_hh_3_6_p": 2.77777778, "per_marg_hh_3_6_m": 16.66666667, "per_marg_hh_3_6_f": 83.33333332999999, "marg_ot_3_6_p": 47, "marg_ot_3_6_m": 30, "marg_ot_3_6_f": 17, "per_marg_ot_3_6_p": 21.75925926, "per_marg_ot_3_6_m": 63.82978723, "per_marg_ot_3_6_f": 36.17021277, "margwork_0_3_p": 13, "margwork_0_3_m": 3, "margwork_0_3_f": 10, "per_margwork_0_3_p": 6.01851852, "per_margwork_0_3_m": 23.07692308, "per_margwork_0_3_f": 76.92307692, "marg_cl_0_3_p": 0, "marg_cl_0_3_m": 0, "marg_cl_0_3_f": 0, "per_marg_cl_0_3_p": 0.0, "per_marg_cl_0_3_m": 0.0, "per_marg_cl_0_3_f": 0.0, "marg_al_0_3_p": 2, "marg_al_0_3_m": 0, "marg_al_0_3_f": 2, "per_marg_al_0_3_p": 0.92592593, "per_marg_al_0_3_m": 0.0, "per_marg_al_0_3_f": 100.0, "marg_hh_0_3_p": 8, "marg_hh_0_3_m": 1, "marg_hh_0_3_f": 7, "per_marg_hh_0_3_p": 3.7037037, "per_marg_hh_0_3_m": 12.5, "per_marg_hh_0_3_f": 87.5, "marg_ot_0_3_p": 3, "marg_ot_0_3_m": 2, "marg_ot_0_3_f": 1, "per_marg_ot_0_3_p": 1.38888889, "per_marg_ot_0_3_m": 66.66666667, "per_marg_ot_0_3_f": 33.33333333, "non_work_p": 2284, "non_work_m": 884, "non_work_f": 1400, "per_non_work_p": 60.27975719, "per_non_work_m": 38.70402802, "per_non_work_f": 61.29597198, "per_hc_tot_tot": 100, "per_hc_tot_god": 48.5, "per_hc_tot_liv": 46.4, "per_hc_tot_dil": 5.1, "per_hc_res_tot": 98.9, "per_hc_res_god": 47.8, "per_hc_res_liv": 46.1, "per_hc_res_dil": 5.1, "per_hc_oth_tot": 1.1, "per_hc_oth_god": 0.8, "per_hc_oth_liv": 0.3, "per_hc_oth_dil": 0.0, "per_mt_grsbam": 1.9, "per_mt_plastic": 0.9, "per_mt_h_tiles": 28.4, "per_mt_m_tiles": 11.6, "per_mt_b_brick": 0.2, "per_mt_stone": 1.3, "per_mt_asbstos": 14.4, "per_mt_concrte": 40.8, "per_mt_oth": 0.5, "per_mw_grsbam": 2.5, "per_mw_plastic": 1.1, "per_mw_mud": 49.7, "per_mw_wood": 0.1, "per_mw_no_mrtr": 1.2, "per_mw_st_mrtr": 4.5, "per_mw_asbstos": 0.2, "per_mw_b_brick": 31.5, "per_mw_concrte": 9.1, "per_mw_oth": 0.1, "per_mf_mud": 33.9, "per_mf_wood": 0.1, "per_mf_b_brick": 0.2, "per_mf_stone": 3.2, "per_mf_cement": 50.2, "per_mf_fl_tile": 12.2, "per_mf_oth": 0.1, "per_dw_n_exrm": 4.1, "per_dw_1_room": 36.4, "per_dw_2_room": 32.5, "per_dw_3_room": 12.9, "per_dw_4_room": 7.8, "per_dw_5_room": 4.4, "per_dw_6_room": 1.8, "per_hhsize_1": 5.1, "per_hhsize_2": 10.4, "per_hhsize_3": 16.4, "per_hhsize_4": 31.4, "per_hhsize_5": 21.0, "per_hhsize_6_8": 14.8, "per_hhsize_9p": 1.0, "per_ow_owned": 83.2, "per_ow_rented": 12.5, "per_ow_oth": 4.2, "per_mc_none": 19.2, "per_mcouple_1": 73.4, "per_mcouple_2": 6.7, "per_mcouple_3": 0.5, "per_mcouple_4": 0.1, "per_mcouple_5p": 0.0, "per_dw_t_ts": 37.5, "per_dw_t_unts": 19.4, "per_dw_c_well": 1.7, "per_dw_unc_wel": 40.4, "per_dw_hpump": 0.8, "per_dw_tw_bore": 0.2, "per_dw_spring": 0.0, "per_dw_rivcan": 0.0, "per_dw_tank": 0.0, "per_dw_oth": 0.0, "per_loc_dw_wp": 60.2, "per_loc_dw_np": 30.6, "per_loc_dw_aw": 9.2, "per_light_elec": 85.1, "per_light_kero": 14.6, "per_light_solr": 0.0, "per_light_oil": 0.3, "per_light_oth": 0.0, "per_light_no": 0.0, "per_hh_latrine": 59.5, "per_fl_sewer": 1.7, "per_fl_septict": 53.9, "per_fl_othsys": 1.1, "per_pl_wslab": 2.7, "per_pl_without": 0.0, "per_ns_open": 0.0, "per_sl_ns_hum": 0.0, "per_sl_ns_anml": 0.0, "per_hh_no_lat": 40.5, "per_as_pub": 0.0, "per_as_open": 40.5, "per_hh_bathrm": 58.7, "per_hh_en_wrf": 29.8, "per_hh_no_btrm": 11.5, "per_wwoc_drain": 17.2, "per_wwoc_open": 59.7, "per_wwoc_nodrn": 23.1, "per_cook_fire": 43.8, "per_cook_resdu": 11.8, "per_cook_cwdng": 0.0, "per_cook_coal": 0.0, "per_cook_kero": 3.1, "per_cook_lpng": 40.6, "per_cook_elec": 0.0, "per_cook_biogs": 0.0, "per_cook_oth": 0.0, "per_cook_no": 0.6, "per_kf_inside": 95.4, "per_kf_in_has": 80.4, "per_kf_in_does": 14.9, "per_kf_outside": 4.0, "per_kf_out_has": 1.3, "per_kf_out_dos": 2.7, "per_kf_no_cook": 0.6, "per_hh_banking": 66.1, "per_hh_radio": 6.8, "per_hh_tv": 53.7, "per_hh_cmp_int": 0.4, "per_hh_cmp_wnt": 4.2, "per_hh_ph_ll": 3.4, "per_hh_ph_mob": 49.4, "per_hh_ph_bth": 3.0, "per_hh_bcycl": 28.2, "per_hh_2wheel": 21.6, "per_hh_4wheel": 2.2, "per_hh_tvcomp": 2.8, "per_hh_no_ast": 30.4, "per_hs_perma": 45.9, "per_hs_sperma": 50.9, "per_hs_temp": 2.5, "per_hs_servc": 1.2, "per_hs_nservc": 1.3, "per_hs_unclss": 0.6, "avghhsz_cy": 4.12295974, "st_areashape": 1138236.36887752, "st_lengthshape": 4751.838335094395}, "geometry": {"type": "Polygon", "coordinates": [[[78.19836534255865, 21.103935519981807], [78.19712874239978, 21.107213403477644], [78.19710081557422, 21.107244401108723], [78.19539302120108, 21.106580265306132], [78.19308237193232, 21.106135265503067], [78.19031258204372, 21.106076153508596], [78.18892878214578, 21.106342689879625], [78.18835611872859, 21.106645644867754], [78.18741528348711, 21.104427471235482], [78.18544406264846, 21.102417637990694], [78.18382396899985, 21.101106391082055], [78.18175504918753, 21.10004779147796], [78.18990023915863, 21.09714312157618], [78.19836534255865, 21.103935519981807]]]}}]}