{"type": "FeatureCollection", "features": [{"type": "Feature", "properties": {"premiumdata.sde.IN_Village_PCA.area": 4.02003194, "objectid": 206008, "id": "8906912479682", "name": "Bilalani", "subdistrict": "Dhanaau", "district": "Barmer", "state": "Rajasthan", "country": "India", "censusname": "Bilalani", "villagename_locallang": null, "lgd_villagename": "Bilalani", "lgd_villagecode": 88838, "lgd_subdistrictcode": 6912, "lgd_districtcode": 90, "lgd_statecode": 8, "censuscode2001": "02254700", "censuscode2011": "088838", "censuscode2021": null, "level": "Village", "tru": "Rural", "no_hh": 139, "tot_p": 967, "tot_m": 511, "tot_f": 456, "per_tot_m": 52.84384695, "per_tot_f": 47.15615305, "p_06": 217, "m_06": 111, "f_06": 106, "per_p_06": 22.44053775, "per_m_06": 51.15207373, "per_f_06": 48.84792627, "p_sc": 64, "m_sc": 37, "f_sc": 27, "per_p_sc": 6.61840745, "per_m_sc": 57.8125, "per_f_sc": 42.1875, "p_st": 0, "m_st": 0, "f_st": 0, "per_p_st": 0.0, "per_m_st": 0.0, "per_f_st": 0.0, "p_lit": 201, "m_lit": 155, "f_lit": 46, "per_p_lit": 20.78593588, "per_m_lit": 77.11442786, "per_f_lit": 22.88557214, "p_ill": 766, "m_ill": 356, "f_ill": 410, "per_p_ill": 79.21406412, "per_m_ill": 46.47519582, "per_f_ill": 53.52480418, "tot_work_p": 473, "tot_work_m": 258, "tot_work_f": 215, "per_tot_work_p": 48.91416753, "per_tot_work_m": 54.54545455, "per_tot_work_f": 45.45454545, "mainwork_p": 203, "mainwork_m": 169, "mainwork_f": 34, "per_mainwork_p": 20.99276112, "per_mainwork_m": 83.25123153, "per_mainwork_f": 16.74876847, "main_cl_p": 186, "main_cl_m": 158, "main_cl_f": 28, "per_main_cl_p": 91.62561576, "per_main_cl_m": 84.94623656, "per_main_cl_f": 15.05376344, "main_al_p": 4, "main_al_m": 4, "main_al_f": 0, "per_main_al_p": 1.97044335, "per_main_al_m": 100.0, "per_main_al_f": 0.0, "main_hh_p": 0, "main_hh_m": 0, "main_hh_f": 0, "per_main_hh_p": 0.0, "per_main_hh_m": 0.0, "per_main_hh_f": 0.0, "main_ot_p": 13, "main_ot_m": 7, "main_ot_f": 6, "per_main_ot_p": 6.40394089, "per_main_ot_m": 53.84615385, "per_main_ot_f": 46.15384615, "margwork_p": 270, "margwork_m": 89, "margwork_f": 181, "per_margwork_p": 27.92140641, "per_margwork_m": 32.96296296, "per_margwork_f": 67.03703704, "marg_cl_p": 7, "marg_cl_m": 5, "marg_cl_f": 2, "per_marg_cl_p": 2.59259259, "per_marg_cl_m": 71.42857143, "per_marg_cl_f": 28.57142857, "marg_al_p": 79, "marg_al_m": 78, "marg_al_f": 1, "per_marg_al_p": 29.25925926, "per_marg_al_m": 98.73417722, "per_marg_al_f": 1.26582278, "marg_hh_p": 3, "marg_hh_m": 0, "marg_hh_f": 3, "per_marg_hh_p": 1.11111111, "per_marg_hh_m": 0.0, "per_marg_hh_f": 100.0, "marg_ot_p": 181, "marg_ot_m": 6, "marg_ot_f": 175, "per_marg_ot_p": 67.03703704, "per_marg_ot_m": 3.31491713, "per_marg_ot_f": 96.68508287, "margwork_3_6_p": 260, "margwork_3_6_m": 87, "margwork_3_6_f": 173, "per_margwork_3_6_p": 96.2962963, "per_margwork_3_6_m": 33.46153846, "per_margwork_3_6_f": 66.53846154, "marg_cl_3_6_p": 7, "marg_cl_3_6_m": 5, "marg_cl_3_6_f": 2, "per_marg_cl_3_6_p": 2.59259259, "per_marg_cl_3_6_m": 71.42857143, "per_marg_cl_3_6_f": 28.57142857, "marg_al_3_6_p": 76, "marg_al_3_6_m": 76, "marg_al_3_6_f": 0, "per_marg_al_3_6_p": 28.14814815, "per_marg_al_3_6_m": 100.0, "per_marg_al_3_6_f": 0.0, "marg_hh_3_6_p": 3, "marg_hh_3_6_m": 0, "marg_hh_3_6_f": 3, "per_marg_hh_3_6_p": 1.11111111, "per_marg_hh_3_6_m": 0.0, "per_marg_hh_3_6_f": 100.0, "marg_ot_3_6_p": 174, "marg_ot_3_6_m": 6, "marg_ot_3_6_f": 168, "per_marg_ot_3_6_p": 64.44444444, "per_marg_ot_3_6_m": 3.44827586, "per_marg_ot_3_6_f": 96.55172414, "margwork_0_3_p": 10, "margwork_0_3_m": 2, "margwork_0_3_f": 8, "per_margwork_0_3_p": 3.7037037, "per_margwork_0_3_m": 20.0, "per_margwork_0_3_f": 80.0, "marg_cl_0_3_p": 0, "marg_cl_0_3_m": 0, "marg_cl_0_3_f": 0, "per_marg_cl_0_3_p": 0.0, "per_marg_cl_0_3_m": 0.0, "per_marg_cl_0_3_f": 0.0, "marg_al_0_3_p": 3, "marg_al_0_3_m": 2, "marg_al_0_3_f": 1, "per_marg_al_0_3_p": 1.11111111, "per_marg_al_0_3_m": 66.66666667, "per_marg_al_0_3_f": 33.33333333, "marg_hh_0_3_p": 0, "marg_hh_0_3_m": 0, "marg_hh_0_3_f": 0, "per_marg_hh_0_3_p": 0.0, "per_marg_hh_0_3_m": 0.0, "per_marg_hh_0_3_f": 0.0, "marg_ot_0_3_p": 7, "marg_ot_0_3_m": 0, "marg_ot_0_3_f": 7, "per_marg_ot_0_3_p": 2.59259259, "per_marg_ot_0_3_m": 0.0, "per_marg_ot_0_3_f": 100.0, "non_work_p": 494, "non_work_m": 253, "non_work_f": 241, "per_non_work_p": 51.08583247, "per_non_work_m": 51.2145749, "per_non_work_f": 48.7854251, "per_hc_tot_tot": 100, "per_hc_tot_god": 7.1, "per_hc_tot_liv": 91.4, "per_hc_tot_dil": 1.4, "per_hc_res_tot": 98.6, "per_hc_res_god": 7.1, "per_hc_res_liv": 90.0, "per_hc_res_dil": 1.4, "per_hc_oth_tot": 1.4, "per_hc_oth_god": 0.0, "per_hc_oth_liv": 1.4, "per_hc_oth_dil": 0.0, "per_mt_grsbam": 90.0, "per_mt_plastic": 0.0, "per_mt_h_tiles": 0.0, "per_mt_m_tiles": 0.0, "per_mt_b_brick": 0.0, "per_mt_stone": 0.7, "per_mt_asbstos": 9.3, "per_mt_concrte": 0.0, "per_mt_oth": 0.0, "per_mw_grsbam": 0.0, "per_mw_plastic": 0.7, "per_mw_mud": 0.7, "per_mw_wood": 89.3, "per_mw_no_mrtr": 0.0, "per_mw_st_mrtr": 0.7, "per_mw_asbstos": 0.0, "per_mw_b_brick": 8.6, "per_mw_concrte": 0.0, "per_mw_oth": 0.0, "per_mf_mud": 90.7, "per_mf_wood": 0.0, "per_mf_b_brick": 0.0, "per_mf_stone": 0.0, "per_mf_cement": 9.3, "per_mf_fl_tile": 0.0, "per_mf_oth": 0.0, "per_dw_n_exrm": 0.0, "per_dw_1_room": 8.6, "per_dw_2_room": 24.3, "per_dw_3_room": 34.3, "per_dw_4_room": 18.6, "per_dw_5_room": 9.3, "per_dw_6_room": 5.0, "per_hhsize_1": 1.4, "per_hhsize_2": 4.3, "per_hhsize_3": 2.1, "per_hhsize_4": 13.6, "per_hhsize_5": 10.0, "per_hhsize_6_8": 45.0, "per_hhsize_9p": 23.6, "per_ow_owned": 100.0, "per_ow_rented": 0.0, "per_ow_oth": 0.0, "per_mc_none": 7.1, "per_mcouple_1": 63.6, "per_mcouple_2": 20.7, "per_mcouple_3": 4.3, "per_mcouple_4": 3.6, "per_mcouple_5p": 0.7, "per_dw_t_ts": 0.0, "per_dw_t_unts": 75.0, "per_dw_c_well": 21.4, "per_dw_unc_wel": 0.0, "per_dw_hpump": 0.0, "per_dw_tw_bore": 3.6, "per_dw_spring": 0.0, "per_dw_rivcan": 0.0, "per_dw_tank": 0.0, "per_dw_oth": 0.0, "per_loc_dw_wp": 0.7, "per_loc_dw_np": 30.7, "per_loc_dw_aw": 68.6, "per_light_elec": 2.1, "per_light_kero": 90.7, "per_light_solr": 7.1, "per_light_oil": 0.0, "per_light_oth": 0.0, "per_light_no": 0.0, "per_hh_latrine": 2.9, "per_fl_sewer": 0.0, "per_fl_septict": 2.1, "per_fl_othsys": 0.0, "per_pl_wslab": 0.7, "per_pl_without": 0.0, "per_ns_open": 0.0, "per_sl_ns_hum": 0.0, "per_sl_ns_anml": 0.0, "per_hh_no_lat": 97.1, "per_as_pub": 0.0, "per_as_open": 97.1, "per_hh_bathrm": 4.3, "per_hh_en_wrf": 0.0, "per_hh_no_btrm": 95.7, "per_wwoc_drain": 0.0, "per_wwoc_open": 0.0, "per_wwoc_nodrn": 100.0, "per_cook_fire": 100.0, "per_cook_resdu": 0.0, "per_cook_cwdng": 0.0, "per_cook_coal": 0.0, "per_cook_kero": 0.0, "per_cook_lpng": 0.0, "per_cook_elec": 0.0, "per_cook_biogs": 0.0, "per_cook_oth": 0.0, "per_cook_no": 0.0, "per_kf_inside": 100.0, "per_kf_in_has": 99.3, "per_kf_in_does": 0.7, "per_kf_outside": 0.0, "per_kf_out_has": 0.0, "per_kf_out_dos": 0.0, "per_kf_no_cook": 0.0, "per_hh_banking": 12.1, "per_hh_radio": 5.0, "per_hh_tv": 0.7, "per_hh_cmp_int": 0.0, "per_hh_cmp_wnt": 0.7, "per_hh_ph_ll": 0.7, "per_hh_ph_mob": 84.3, "per_hh_ph_bth": 0.0, "per_hh_bcycl": 2.9, "per_hh_2wheel": 3.6, "per_hh_4wheel": 1.4, "per_hh_tvcomp": 0.0, "per_hh_no_ast": 14.3, "per_hs_perma": 9.3, "per_hs_sperma": 0.7, "per_hs_temp": 90.0, "per_hs_servc": 89.3, "per_hs_nservc": 0.7, "per_hs_unclss": 0.0, "avghhsz_cy": 6.95683453, "st_areashape": 4943813.27665061, "st_lengthshape": 10997.047642107686}, "geometry": {"type": "Polygon", "coordinates": [[[71.29760217857175, 25.333862132621768], [71.30725680322321, 25.358763877173516], [71.30567713915227, 25.36240961611079], [71.3018366616496, 25.370284243023782], [71.30050372436305, 25.372187823743708], [71.30037692716068, 25.372666625066174], [71.28967999357329, 25.370988944472035], [71.29760217857175, 25.333862132621768]]]}}]}