{"type": "FeatureCollection", "features": [{"type": "Feature", "properties": {"premiumdata.sde.IN_Village_PCA.area": 6.81538331, "objectid": 281492, "id": "233903696571842", "name": "Thadh Pathar", "subdistrict": "Pushparajgarh", "district": "Anuppur", "state": "Madhya Pradesh", "country": "India", "censusname": "Thadh Pathar", "villagename_locallang": "\u0920\u093e\u0922\u093c\u092a\u093e\u0925\u0930", "lgd_villagename": "Thadh Pathar", "lgd_villagecode": 502186, "lgd_subdistrictcode": 3696, "lgd_districtcode": 390, "lgd_statecode": 23, "censuscode2001": "02053000", "censuscode2011": "502186", "censuscode2021": null, "level": "Village", "tru": "Rural", "no_hh": 412, "tot_p": 1539, "tot_m": 773, "tot_f": 766, "per_tot_m": 50.2274204, "per_tot_f": 49.7725796, "p_06": 230, "m_06": 130, "f_06": 100, "per_p_06": 14.94476933, "per_m_06": 56.52173913, "per_f_06": 43.47826087, "p_sc": 43, "m_sc": 19, "f_sc": 24, "per_p_sc": 2.79402209, "per_m_sc": 44.18604651, "per_f_sc": 55.81395349, "p_st": 1062, "m_st": 530, "f_st": 532, "per_p_st": 69.00584794999999, "per_m_st": 49.90583804, "per_f_st": 50.09416196, "p_lit": 801, "m_lit": 465, "f_lit": 336, "per_p_lit": 52.04678363, "per_m_lit": 58.05243446, "per_f_lit": 41.94756554, "p_ill": 738, "m_ill": 308, "f_ill": 430, "per_p_ill": 47.95321637, "per_m_ill": 41.73441734, "per_f_ill": 58.26558266, "tot_work_p": 904, "tot_work_m": 436, "tot_work_f": 468, "per_tot_work_p": 58.7394412, "per_tot_work_m": 48.2300885, "per_tot_work_f": 51.7699115, "mainwork_p": 388, "mainwork_m": 230, "mainwork_f": 158, "per_mainwork_p": 25.21117609, "per_mainwork_m": 59.27835052, "per_mainwork_f": 40.72164948, "main_cl_p": 274, "main_cl_m": 164, "main_cl_f": 110, "per_main_cl_p": 70.6185567, "per_main_cl_m": 59.8540146, "per_main_cl_f": 40.1459854, "main_al_p": 71, "main_al_m": 37, "main_al_f": 34, "per_main_al_p": 18.29896907, "per_main_al_m": 52.11267606, "per_main_al_f": 47.88732394, "main_hh_p": 3, "main_hh_m": 0, "main_hh_f": 3, "per_main_hh_p": 0.77319588, "per_main_hh_m": 0.0, "per_main_hh_f": 100.0, "main_ot_p": 40, "main_ot_m": 29, "main_ot_f": 11, "per_main_ot_p": 10.30927835, "per_main_ot_m": 72.5, "per_main_ot_f": 27.5, "margwork_p": 516, "margwork_m": 206, "margwork_f": 310, "per_margwork_p": 33.52826511, "per_margwork_m": 39.92248062, "per_margwork_f": 60.07751938, "marg_cl_p": 77, "marg_cl_m": 46, "marg_cl_f": 31, "per_marg_cl_p": 14.92248062, "per_marg_cl_m": 59.74025974, "per_marg_cl_f": 40.25974026, "marg_al_p": 408, "marg_al_m": 143, "marg_al_f": 265, "per_marg_al_p": 79.06976744, "per_marg_al_m": 35.04901961, "per_marg_al_f": 64.95098039, "marg_hh_p": 7, "marg_hh_m": 0, "marg_hh_f": 7, "per_marg_hh_p": 1.35658915, "per_marg_hh_m": 0.0, "per_marg_hh_f": 100.0, "marg_ot_p": 24, "marg_ot_m": 17, "marg_ot_f": 7, "per_marg_ot_p": 4.65116279, "per_marg_ot_m": 70.83333332999999, "per_marg_ot_f": 29.16666667, "margwork_3_6_p": 502, "margwork_3_6_m": 201, "margwork_3_6_f": 301, "per_margwork_3_6_p": 97.28682171, "per_margwork_3_6_m": 40.03984064, "per_margwork_3_6_f": 59.96015936, "marg_cl_3_6_p": 75, "marg_cl_3_6_m": 45, "marg_cl_3_6_f": 30, "per_marg_cl_3_6_p": 14.53488372, "per_marg_cl_3_6_m": 60.0, "per_marg_cl_3_6_f": 40.0, "marg_al_3_6_p": 396, "marg_al_3_6_m": 139, "marg_al_3_6_f": 257, "per_marg_al_3_6_p": 76.74418605, "per_marg_al_3_6_m": 35.1010101, "per_marg_al_3_6_f": 64.8989899, "marg_hh_3_6_p": 7, "marg_hh_3_6_m": 0, "marg_hh_3_6_f": 7, "per_marg_hh_3_6_p": 1.35658915, "per_marg_hh_3_6_m": 0.0, "per_marg_hh_3_6_f": 100.0, "marg_ot_3_6_p": 24, "marg_ot_3_6_m": 17, "marg_ot_3_6_f": 7, "per_marg_ot_3_6_p": 4.65116279, "per_marg_ot_3_6_m": 70.83333332999999, "per_marg_ot_3_6_f": 29.16666667, "margwork_0_3_p": 14, "margwork_0_3_m": 5, "margwork_0_3_f": 9, "per_margwork_0_3_p": 2.71317829, "per_margwork_0_3_m": 35.71428571, "per_margwork_0_3_f": 64.28571429, "marg_cl_0_3_p": 2, "marg_cl_0_3_m": 1, "marg_cl_0_3_f": 1, "per_marg_cl_0_3_p": 0.3875969, "per_marg_cl_0_3_m": 50.0, "per_marg_cl_0_3_f": 50.0, "marg_al_0_3_p": 12, "marg_al_0_3_m": 4, "marg_al_0_3_f": 8, "per_marg_al_0_3_p": 2.3255814, "per_marg_al_0_3_m": 33.33333333, "per_marg_al_0_3_f": 66.66666667, "marg_hh_0_3_p": 0, "marg_hh_0_3_m": 0, "marg_hh_0_3_f": 0, "per_marg_hh_0_3_p": 0.0, "per_marg_hh_0_3_m": 0.0, "per_marg_hh_0_3_f": 0.0, "marg_ot_0_3_p": 0, "marg_ot_0_3_m": 0, "marg_ot_0_3_f": 0, "per_marg_ot_0_3_p": 0.0, "per_marg_ot_0_3_m": 0.0, "per_marg_ot_0_3_f": 0.0, "non_work_p": 635, "non_work_m": 337, "non_work_f": 298, "per_non_work_p": 41.2605588, "per_non_work_m": 53.07086614, "per_non_work_f": 46.92913386, "per_hc_tot_tot": 100, "per_hc_tot_god": 95.5, "per_hc_tot_liv": 4.5, "per_hc_tot_dil": 0.0, "per_hc_res_tot": 96.7, "per_hc_res_god": 92.2, "per_hc_res_liv": 4.5, "per_hc_res_dil": 0.0, "per_hc_oth_tot": 3.3, "per_hc_oth_god": 3.3, "per_hc_oth_liv": 0.0, "per_hc_oth_dil": 0.0, "per_mt_grsbam": 0.5, "per_mt_plastic": 0.0, "per_mt_h_tiles": 94.7, "per_mt_m_tiles": 0.0, "per_mt_b_brick": 0.0, "per_mt_stone": 0.5, "per_mt_asbstos": 2.3, "per_mt_concrte": 2.0, "per_mt_oth": 0.0, "per_mw_grsbam": 0.0, "per_mw_plastic": 0.3, "per_mw_mud": 96.7, "per_mw_wood": 0.0, "per_mw_no_mrtr": 0.0, "per_mw_st_mrtr": 0.0, "per_mw_asbstos": 0.0, "per_mw_b_brick": 3.0, "per_mw_concrte": 0.0, "per_mw_oth": 0.0, "per_mf_mud": 97.2, "per_mf_wood": 0.0, "per_mf_b_brick": 0.0, "per_mf_stone": 0.3, "per_mf_cement": 2.5, "per_mf_fl_tile": 0.0, "per_mf_oth": 0.0, "per_dw_n_exrm": 0.0, "per_dw_1_room": 47.4, "per_dw_2_room": 31.3, "per_dw_3_room": 12.5, "per_dw_4_room": 5.8, "per_dw_5_room": 1.0, "per_dw_6_room": 2.0, "per_hhsize_1": 9.0, "per_hhsize_2": 17.8, "per_hhsize_3": 16.0, "per_hhsize_4": 22.1, "per_hhsize_5": 17.5, "per_hhsize_6_8": 15.5, "per_hhsize_9p": 2.0, "per_ow_owned": 99.5, "per_ow_rented": 0.0, "per_ow_oth": 0.5, "per_mc_none": 15.5, "per_mcouple_1": 71.7, "per_mcouple_2": 11.0, "per_mcouple_3": 1.5, "per_mcouple_4": 0.3, "per_mcouple_5p": 0.0, "per_dw_t_ts": 0.0, "per_dw_t_unts": 0.5, "per_dw_c_well": 0.0, "per_dw_unc_wel": 58.9, "per_dw_hpump": 33.6, "per_dw_tw_bore": 0.0, "per_dw_spring": 1.5, "per_dw_rivcan": 5.0, "per_dw_tank": 0.3, "per_dw_oth": 0.3, "per_loc_dw_wp": 38.6, "per_loc_dw_np": 33.1, "per_loc_dw_aw": 28.3, "per_light_elec": 13.3, "per_light_kero": 86.7, "per_light_solr": 0.0, "per_light_oil": 0.0, "per_light_oth": 0.0, "per_light_no": 0.0, "per_hh_latrine": 0.5, "per_fl_sewer": 0.0, "per_fl_septict": 0.3, "per_fl_othsys": 0.3, "per_pl_wslab": 0.0, "per_pl_without": 0.0, "per_ns_open": 0.0, "per_sl_ns_hum": 0.0, "per_sl_ns_anml": 0.0, "per_hh_no_lat": 99.5, "per_as_pub": 0.0, "per_as_open": 99.5, "per_hh_bathrm": 0.0, "per_hh_en_wrf": 6.8, "per_hh_no_btrm": 93.2, "per_wwoc_drain": 0.3, "per_wwoc_open": 0.3, "per_wwoc_nodrn": 99.5, "per_cook_fire": 100.0, "per_cook_resdu": 0.0, "per_cook_cwdng": 0.0, "per_cook_coal": 0.0, "per_cook_kero": 0.0, "per_cook_lpng": 0.0, "per_cook_elec": 0.0, "per_cook_biogs": 0.0, "per_cook_oth": 0.0, "per_cook_no": 0.0, "per_kf_inside": 100.0, "per_kf_in_has": 3.0, "per_kf_in_does": 97.0, "per_kf_outside": 0.0, "per_kf_out_has": 0.0, "per_kf_out_dos": 0.0, "per_kf_no_cook": 0.0, "per_hh_banking": 85.7, "per_hh_radio": 25.3, "per_hh_tv": 5.0, "per_hh_cmp_int": 0.0, "per_hh_cmp_wnt": 0.0, "per_hh_ph_ll": 0.0, "per_hh_ph_mob": 10.8, "per_hh_ph_bth": 0.3, "per_hh_bcycl": 9.3, "per_hh_2wheel": 3.3, "per_hh_4wheel": 0.3, "per_hh_tvcomp": 0.0, "per_hh_no_ast": 68.9, "per_hs_perma": 3.0, "per_hs_sperma": 96.5, "per_hs_temp": 0.5, "per_hs_servc": 0.3, "per_hs_nservc": 0.3, "per_hs_unclss": 0.0, "avghhsz_cy": 3.73543689, "st_areashape": 8064985.23422998, "st_lengthshape": 13814.101691148362}, "geometry": {"type": "Polygon", "coordinates": [[[81.41450427697814, 22.842655057407047], [81.41605000000268, 22.85088999967404], [81.41866000026349, 22.858190000278015], [81.42152999991691, 22.867129999861586], [81.42368999991591, 22.872600000442137], [81.42730000025941, 22.87950999929338], [81.42740999986425, 22.883310000015584], [81.4244000004687, 22.881940000250857], [81.409130000688, 22.878520000167132], [81.40508000012845, 22.87723999999391], [81.40513999950463, 22.871230000216727], [81.40217000029203, 22.85830000007731], [81.39838326000967, 22.85290630925278], [81.40025259303049, 22.853598990648567], [81.40200656619913, 22.854158503788252], [81.4032438948917, 22.853950583213948], [81.40390634312493, 22.853372554664556], [81.40479537701553, 22.85188883749562], [81.40483764993618, 22.85181828669916], [81.40485601150058, 22.851787642877373], [81.40490934627562, 22.850825925181063], [81.40437331974898, 22.850067443704745], [81.40310145173206, 22.84850996488856], [81.40293079967584, 22.847792119588156], [81.40354927178265, 22.846749035118627], [81.40481075257992, 22.845367227461495], [81.40571665593326, 22.844567882535564], [81.40648135220874, 22.844071030911984], [81.40728063631765, 22.843793562355756], [81.40830313560495, 22.843438603941124], [81.41035877562243, 22.84299118068847], [81.41118117787516, 22.842883587518884], [81.41177624707218, 22.84280573608984], [81.41450427697814, 22.842655057407047]]]}}]}