{"type": "FeatureCollection", "features": [{"type": "Feature", "properties": {"premiumdata.sde.IN_Village_PCA.area": 0.93546731, "objectid": 360382, "id": "9121910378784", "name": "Kayamudden Pur", "subdistrict": "Akbarpur", "district": "Ambedkar Nagar", "state": "Uttar Pradesh", "country": "India", "censusname": "Kayamudden Pur", "villagename_locallang": null, "lgd_villagename": "Kayamudden Pur", "lgd_villagecode": 168267, "lgd_subdistrictcode": 910, "lgd_districtcode": 121, "lgd_statecode": 9, "censuscode2001": "06154400", "censuscode2011": "168267", "censuscode2021": null, "level": "Village", "tru": "Rural", "no_hh": 153, "tot_p": 1183, "tot_m": 592, "tot_f": 591, "per_tot_m": 50.04226543, "per_tot_f": 49.95773457, "p_06": 212, "m_06": 99, "f_06": 113, "per_p_06": 17.920541, "per_m_06": 46.69811321, "per_f_06": 53.30188679, "p_sc": 0, "m_sc": 0, "f_sc": 0, "per_p_sc": 0.0, "per_m_sc": 0.0, "per_f_sc": 0.0, "p_st": 0, "m_st": 0, "f_st": 0, "per_p_st": 0.0, "per_m_st": 0.0, "per_f_st": 0.0, "p_lit": 501, "m_lit": 295, "f_lit": 206, "per_p_lit": 42.34995773, "per_m_lit": 58.88223553, "per_f_lit": 41.11776447, "p_ill": 682, "m_ill": 297, "f_ill": 385, "per_p_ill": 57.65004227, "per_m_ill": 43.5483871, "per_f_ill": 56.4516129, "tot_work_p": 318, "tot_work_m": 225, "tot_work_f": 93, "per_tot_work_p": 26.8808115, "per_tot_work_m": 70.75471698, "per_tot_work_f": 29.24528302, "mainwork_p": 151, "mainwork_m": 126, "mainwork_f": 25, "per_mainwork_p": 12.76415892, "per_mainwork_m": 83.44370861, "per_mainwork_f": 16.55629139, "main_cl_p": 73, "main_cl_m": 64, "main_cl_f": 9, "per_main_cl_p": 48.34437086, "per_main_cl_m": 87.67123288, "per_main_cl_f": 12.32876712, "main_al_p": 32, "main_al_m": 26, "main_al_f": 6, "per_main_al_p": 21.19205298, "per_main_al_m": 81.25, "per_main_al_f": 18.75, "main_hh_p": 17, "main_hh_m": 10, "main_hh_f": 7, "per_main_hh_p": 11.25827815, "per_main_hh_m": 58.82352941000001, "per_main_hh_f": 41.17647059, "main_ot_p": 29, "main_ot_m": 26, "main_ot_f": 3, "per_main_ot_p": 19.20529801, "per_main_ot_m": 89.65517241, "per_main_ot_f": 10.34482759, "margwork_p": 167, "margwork_m": 99, "margwork_f": 68, "per_margwork_p": 14.11665258, "per_margwork_m": 59.28143713, "per_margwork_f": 40.71856287, "marg_cl_p": 11, "marg_cl_m": 4, "marg_cl_f": 7, "per_marg_cl_p": 6.58682635, "per_marg_cl_m": 36.36363636, "per_marg_cl_f": 63.63636364, "marg_al_p": 124, "marg_al_m": 67, "marg_al_f": 57, "per_marg_al_p": 74.25149701000001, "per_marg_al_m": 54.03225806, "per_marg_al_f": 45.96774194, "marg_hh_p": 7, "marg_hh_m": 7, "marg_hh_f": 0, "per_marg_hh_p": 4.19161677, "per_marg_hh_m": 100.0, "per_marg_hh_f": 0.0, "marg_ot_p": 25, "marg_ot_m": 21, "marg_ot_f": 4, "per_marg_ot_p": 14.97005988, "per_marg_ot_m": 84.0, "per_marg_ot_f": 16.0, "margwork_3_6_p": 160, "margwork_3_6_m": 93, "margwork_3_6_f": 67, "per_margwork_3_6_p": 95.80838323, "per_margwork_3_6_m": 58.125, "per_margwork_3_6_f": 41.875, "marg_cl_3_6_p": 10, "marg_cl_3_6_m": 4, "marg_cl_3_6_f": 6, "per_marg_cl_3_6_p": 5.98802395, "per_marg_cl_3_6_m": 40.0, "per_marg_cl_3_6_f": 60.0, "marg_al_3_6_p": 123, "marg_al_3_6_m": 66, "marg_al_3_6_f": 57, "per_marg_al_3_6_p": 73.65269461000001, "per_marg_al_3_6_m": 53.65853659, "per_marg_al_3_6_f": 46.34146341, "marg_hh_3_6_p": 4, "marg_hh_3_6_m": 4, "marg_hh_3_6_f": 0, "per_marg_hh_3_6_p": 2.39520958, "per_marg_hh_3_6_m": 100.0, "per_marg_hh_3_6_f": 0.0, "marg_ot_3_6_p": 23, "marg_ot_3_6_m": 19, "marg_ot_3_6_f": 4, "per_marg_ot_3_6_p": 13.77245509, "per_marg_ot_3_6_m": 82.60869565, "per_marg_ot_3_6_f": 17.39130435, "margwork_0_3_p": 7, "margwork_0_3_m": 6, "margwork_0_3_f": 1, "per_margwork_0_3_p": 4.19161677, "per_margwork_0_3_m": 85.71428571, "per_margwork_0_3_f": 14.28571429, "marg_cl_0_3_p": 1, "marg_cl_0_3_m": 0, "marg_cl_0_3_f": 1, "per_marg_cl_0_3_p": 0.5988024, "per_marg_cl_0_3_m": 0.0, "per_marg_cl_0_3_f": 100.0, "marg_al_0_3_p": 1, "marg_al_0_3_m": 1, "marg_al_0_3_f": 0, "per_marg_al_0_3_p": 0.5988024, "per_marg_al_0_3_m": 100.0, "per_marg_al_0_3_f": 0.0, "marg_hh_0_3_p": 3, "marg_hh_0_3_m": 3, "marg_hh_0_3_f": 0, "per_marg_hh_0_3_p": 1.79640719, "per_marg_hh_0_3_m": 100.0, "per_marg_hh_0_3_f": 0.0, "marg_ot_0_3_p": 2, "marg_ot_0_3_m": 2, "marg_ot_0_3_f": 0, "per_marg_ot_0_3_p": 1.19760479, "per_marg_ot_0_3_m": 100.0, "per_marg_ot_0_3_f": 0.0, "non_work_p": 865, "non_work_m": 367, "non_work_f": 498, "per_non_work_p": 73.1191885, "per_non_work_m": 42.42774566, "per_non_work_f": 57.57225434, "per_hc_tot_tot": 100, "per_hc_tot_god": 56.2, "per_hc_tot_liv": 42.5, "per_hc_tot_dil": 1.3, "per_hc_res_tot": 92.2, "per_hc_res_god": 54.9, "per_hc_res_liv": 36.6, "per_hc_res_dil": 0.7, "per_hc_oth_tot": 7.8, "per_hc_oth_god": 1.3, "per_hc_oth_liv": 5.9, "per_hc_oth_dil": 0.7, "per_mt_grsbam": 13.7, "per_mt_plastic": 0.0, "per_mt_h_tiles": 9.2, "per_mt_m_tiles": 0.7, "per_mt_b_brick": 58.2, "per_mt_stone": 0.0, "per_mt_asbstos": 2.6, "per_mt_concrte": 11.1, "per_mt_oth": 4.6, "per_mw_grsbam": 4.6, "per_mw_plastic": 0.0, "per_mw_mud": 9.8, "per_mw_wood": 0.0, "per_mw_no_mrtr": 0.7, "per_mw_st_mrtr": 0.0, "per_mw_asbstos": 0.0, "per_mw_b_brick": 55.6, "per_mw_concrte": 1.3, "per_mw_oth": 28.1, "per_mf_mud": 91.5, "per_mf_wood": 0.0, "per_mf_b_brick": 3.3, "per_mf_stone": 0.7, "per_mf_cement": 4.6, "per_mf_fl_tile": 0.0, "per_mf_oth": 0.0, "per_dw_n_exrm": 6.5, "per_dw_1_room": 40.5, "per_dw_2_room": 26.1, "per_dw_3_room": 11.8, "per_dw_4_room": 7.8, "per_dw_5_room": 2.6, "per_dw_6_room": 4.6, "per_hhsize_1": 1.3, "per_hhsize_2": 1.3, "per_hhsize_3": 3.9, "per_hhsize_4": 8.5, "per_hhsize_5": 11.1, "per_hhsize_6_8": 35.9, "per_hhsize_9p": 37.9, "per_ow_owned": 99.3, "per_ow_rented": 0.0, "per_ow_oth": 0.7, "per_mc_none": 5.2, "per_mcouple_1": 51.0, "per_mcouple_2": 22.2, "per_mcouple_3": 16.3, "per_mcouple_4": 3.9, "per_mcouple_5p": 1.3, "per_dw_t_ts": 11.8, "per_dw_t_unts": 0.0, "per_dw_c_well": 0.0, "per_dw_unc_wel": 0.0, "per_dw_hpump": 87.6, "per_dw_tw_bore": 0.0, "per_dw_spring": 0.0, "per_dw_rivcan": 0.7, "per_dw_tank": 0.0, "per_dw_oth": 0.0, "per_loc_dw_wp": 40.5, "per_loc_dw_np": 47.1, "per_loc_dw_aw": 12.4, "per_light_elec": 29.4, "per_light_kero": 70.6, "per_light_solr": 0.0, "per_light_oil": 0.0, "per_light_oth": 0.0, "per_light_no": 0.0, "per_hh_latrine": 10.5, "per_fl_sewer": 0.0, "per_fl_septict": 10.5, "per_fl_othsys": 0.0, "per_pl_wslab": 0.0, "per_pl_without": 0.0, "per_ns_open": 0.0, "per_sl_ns_hum": 0.0, "per_sl_ns_anml": 0.0, "per_hh_no_lat": 89.5, "per_as_pub": 3.9, "per_as_open": 85.6, "per_hh_bathrm": 18.3, "per_hh_en_wrf": 15.0, "per_hh_no_btrm": 66.7, "per_wwoc_drain": 54.2, "per_wwoc_open": 22.9, "per_wwoc_nodrn": 22.9, "per_cook_fire": 23.5, "per_cook_resdu": 0.0, "per_cook_cwdng": 68.6, "per_cook_coal": 0.0, "per_cook_kero": 0.0, "per_cook_lpng": 7.8, "per_cook_elec": 0.0, "per_cook_biogs": 0.0, "per_cook_oth": 0.0, "per_cook_no": 0.0, "per_kf_inside": 98.7, "per_kf_in_has": 19.0, "per_kf_in_does": 79.7, "per_kf_outside": 1.3, "per_kf_out_has": 0.7, "per_kf_out_dos": 0.7, "per_kf_no_cook": 0.0, "per_hh_banking": 70.6, "per_hh_radio": 12.4, "per_hh_tv": 12.4, "per_hh_cmp_int": 0.0, "per_hh_cmp_wnt": 0.7, "per_hh_ph_ll": 0.0, "per_hh_ph_mob": 55.6, "per_hh_ph_bth": 1.3, "per_hh_bcycl": 93.5, "per_hh_2wheel": 8.5, "per_hh_4wheel": 3.3, "per_hh_tvcomp": 0.0, "per_hh_no_ast": 3.3, "per_hs_perma": 52.3, "per_hs_sperma": 10.5, "per_hs_temp": 5.9, "per_hs_servc": 1.3, "per_hs_nservc": 4.6, "per_hs_unclss": 31.4, "avghhsz_cy": 7.73202614, "st_areashape": 1171394.33506501, "st_lengthshape": 4707.499135383314}, "geometry": {"type": "Polygon", "coordinates": [[[82.61689377001461, 26.437917483709267], [82.6164828967733, 26.437542578875554], [82.61624694977237, 26.43708355636349], [82.61636396881283, 26.4361650827505], [82.6162064627025, 26.435600029850654], [82.61600920614086, 26.434434533786], [82.61522310301213, 26.433304724374594], [82.61361229524861, 26.431822244019024], [82.6123552036198, 26.43079871754827], [82.61200163480882, 26.43048103282829], [82.6119228004561, 26.430092533210352], [82.61192260282674, 26.42984528429151], [82.61184372984648, 26.42938613298188], [82.61224601968522, 26.428946827538244], [82.61252062388778, 26.428699383902853], [82.61299119556958, 26.42806326032608], [82.6138537336509, 26.4266851103184], [82.61456015621391, 26.426437377858463], [82.61467791277127, 26.42643729982709], [82.61499210932166, 26.426613704500447], [82.61573839462541, 26.427107721742544], [82.61656350080713, 26.427954923683878], [82.61742769268687, 26.428590154938796], [82.61868472502688, 26.429543012150823], [82.61994176096013, 26.430460533013687], [82.62088449074851, 26.431095689325613], [82.62225863824874, 26.431236008922067], [82.62276900080607, 26.431235646935924], [82.62436595834454, 26.43069969058702], [82.62492833784837, 26.43141071055071], [82.62524325394931, 26.432364194406958], [82.62532263178278, 26.433317848147674], [82.62532304321117, 26.433777032059172], [82.62528415154927, 26.43420093427411], [82.62512802345456, 26.4350479899684], [82.62510553053818, 26.435044624412797], [82.62483071433317, 26.4350448239008], [82.62365390963288, 26.43614067788031], [82.62286919260464, 26.436671070800536], [82.62137797575829, 26.437413893330252], [82.62004366045605, 26.43801530837603], [82.6189839466615, 26.438369262820135], [82.61784543175185, 26.438405368296973], [82.61737419621507, 26.438264389002413], [82.61690278460848, 26.43791148795708], [82.61689377001461, 26.437917483709267]]]}}]}