{"type": "FeatureCollection", "features": [{"type": "Feature", "properties": {"premiumdata.sde.IN_Village_PCA.area": 1.90662942, "objectid": 38972, "id": "335935722183651", "name": "Melputhur", "subdistrict": "Cheyyar", "district": "Tiruvannamalai", "state": "Tamil Nadu", "country": "India", "censusname": "Melputhur", "villagename_locallang": null, "lgd_villagename": "Melputhur", "lgd_villagecode": 631420, "lgd_subdistrictcode": 5722, "lgd_districtcode": 593, "lgd_statecode": 33, "censuscode2001": "00403100", "censuscode2011": "631420", "censuscode2021": null, "level": "Village", "tru": "Rural", "no_hh": 107, "tot_p": 459, "tot_m": 225, "tot_f": 234, "per_tot_m": 49.01960784, "per_tot_f": 50.98039216, "p_06": 36, "m_06": 19, "f_06": 17, "per_p_06": 7.84313725, "per_m_06": 52.77777778, "per_f_06": 47.22222222, "p_sc": 96, "m_sc": 52, "f_sc": 44, "per_p_sc": 20.91503268, "per_m_sc": 54.16666667000001, "per_f_sc": 45.83333333, "p_st": 0, "m_st": 0, "f_st": 0, "per_p_st": 0.0, "per_m_st": 0.0, "per_f_st": 0.0, "p_lit": 292, "m_lit": 168, "f_lit": 124, "per_p_lit": 63.61655773, "per_m_lit": 57.53424658, "per_f_lit": 42.46575342, "p_ill": 167, "m_ill": 57, "f_ill": 110, "per_p_ill": 36.38344227, "per_m_ill": 34.13173653, "per_f_ill": 65.86826347, "tot_work_p": 300, "tot_work_m": 148, "tot_work_f": 152, "per_tot_work_p": 65.35947712, "per_tot_work_m": 49.33333333, "per_tot_work_f": 50.66666667000001, "mainwork_p": 300, "mainwork_m": 148, "mainwork_f": 152, "per_mainwork_p": 65.35947712, "per_mainwork_m": 49.33333333, "per_mainwork_f": 50.66666667000001, "main_cl_p": 8, "main_cl_m": 6, "main_cl_f": 2, "per_main_cl_p": 2.66666667, "per_main_cl_m": 75.0, "per_main_cl_f": 25.0, "main_al_p": 259, "main_al_m": 118, "main_al_f": 141, "per_main_al_p": 86.33333332999999, "per_main_al_m": 45.55984556, "per_main_al_f": 54.44015444, "main_hh_p": 7, "main_hh_m": 4, "main_hh_f": 3, "per_main_hh_p": 2.33333333, "per_main_hh_m": 57.14285714, "per_main_hh_f": 42.85714286, "main_ot_p": 26, "main_ot_m": 20, "main_ot_f": 6, "per_main_ot_p": 8.66666667, "per_main_ot_m": 76.92307692, "per_main_ot_f": 23.07692308, "margwork_p": 0, "margwork_m": 0, "margwork_f": 0, "per_margwork_p": 0.0, "per_margwork_m": 0.0, "per_margwork_f": 0.0, "marg_cl_p": 0, "marg_cl_m": 0, "marg_cl_f": 0, "per_marg_cl_p": 0.0, "per_marg_cl_m": 0.0, "per_marg_cl_f": 0.0, "marg_al_p": 0, "marg_al_m": 0, "marg_al_f": 0, "per_marg_al_p": 0.0, "per_marg_al_m": 0.0, "per_marg_al_f": 0.0, "marg_hh_p": 0, "marg_hh_m": 0, "marg_hh_f": 0, "per_marg_hh_p": 0.0, "per_marg_hh_m": 0.0, "per_marg_hh_f": 0.0, "marg_ot_p": 0, "marg_ot_m": 0, "marg_ot_f": 0, "per_marg_ot_p": 0.0, "per_marg_ot_m": 0.0, "per_marg_ot_f": 0.0, "margwork_3_6_p": 0, "margwork_3_6_m": 0, "margwork_3_6_f": 0, "per_margwork_3_6_p": 0.0, "per_margwork_3_6_m": 0.0, "per_margwork_3_6_f": 0.0, "marg_cl_3_6_p": 0, "marg_cl_3_6_m": 0, "marg_cl_3_6_f": 0, "per_marg_cl_3_6_p": 0.0, "per_marg_cl_3_6_m": 0.0, "per_marg_cl_3_6_f": 0.0, "marg_al_3_6_p": 0, "marg_al_3_6_m": 0, "marg_al_3_6_f": 0, "per_marg_al_3_6_p": 0.0, "per_marg_al_3_6_m": 0.0, "per_marg_al_3_6_f": 0.0, "marg_hh_3_6_p": 0, "marg_hh_3_6_m": 0, "marg_hh_3_6_f": 0, "per_marg_hh_3_6_p": 0.0, "per_marg_hh_3_6_m": 0.0, "per_marg_hh_3_6_f": 0.0, "marg_ot_3_6_p": 0, "marg_ot_3_6_m": 0, "marg_ot_3_6_f": 0, "per_marg_ot_3_6_p": 0.0, "per_marg_ot_3_6_m": 0.0, "per_marg_ot_3_6_f": 0.0, "margwork_0_3_p": 0, "margwork_0_3_m": 0, "margwork_0_3_f": 0, "per_margwork_0_3_p": 0.0, "per_margwork_0_3_m": 0.0, "per_margwork_0_3_f": 0.0, "marg_cl_0_3_p": 0, "marg_cl_0_3_m": 0, "marg_cl_0_3_f": 0, "per_marg_cl_0_3_p": 0.0, "per_marg_cl_0_3_m": 0.0, "per_marg_cl_0_3_f": 0.0, "marg_al_0_3_p": 0, "marg_al_0_3_m": 0, "marg_al_0_3_f": 0, "per_marg_al_0_3_p": 0.0, "per_marg_al_0_3_m": 0.0, "per_marg_al_0_3_f": 0.0, "marg_hh_0_3_p": 0, "marg_hh_0_3_m": 0, "marg_hh_0_3_f": 0, "per_marg_hh_0_3_p": 0.0, "per_marg_hh_0_3_m": 0.0, "per_marg_hh_0_3_f": 0.0, "marg_ot_0_3_p": 0, "marg_ot_0_3_m": 0, "marg_ot_0_3_f": 0, "per_marg_ot_0_3_p": 0.0, "per_marg_ot_0_3_m": 0.0, "per_marg_ot_0_3_f": 0.0, "non_work_p": 159, "non_work_m": 77, "non_work_f": 82, "per_non_work_p": 34.64052288000001, "per_non_work_m": 48.42767296, "per_non_work_f": 51.57232704, "per_hc_tot_tot": 100, "per_hc_tot_god": 48.1, "per_hc_tot_liv": 49.1, "per_hc_tot_dil": 2.8, "per_hc_res_tot": 96.2, "per_hc_res_god": 47.2, "per_hc_res_liv": 46.2, "per_hc_res_dil": 2.8, "per_hc_oth_tot": 3.8, "per_hc_oth_god": 0.9, "per_hc_oth_liv": 2.8, "per_hc_oth_dil": 0.0, "per_mt_grsbam": 38.7, "per_mt_plastic": 0.0, "per_mt_h_tiles": 24.5, "per_mt_m_tiles": 17.0, "per_mt_b_brick": 0.0, "per_mt_stone": 0.0, "per_mt_asbstos": 0.0, "per_mt_concrte": 19.8, "per_mt_oth": 0.0, "per_mw_grsbam": 0.0, "per_mw_plastic": 0.0, "per_mw_mud": 38.7, "per_mw_wood": 0.0, "per_mw_no_mrtr": 0.0, "per_mw_st_mrtr": 0.0, "per_mw_asbstos": 0.0, "per_mw_b_brick": 61.3, "per_mw_concrte": 0.0, "per_mw_oth": 0.0, "per_mf_mud": 43.4, "per_mf_wood": 0.0, "per_mf_b_brick": 0.0, "per_mf_stone": 0.0, "per_mf_cement": 55.7, "per_mf_fl_tile": 0.9, "per_mf_oth": 0.0, "per_dw_n_exrm": 0.0, "per_dw_1_room": 46.2, "per_dw_2_room": 24.5, "per_dw_3_room": 24.5, "per_dw_4_room": 2.8, "per_dw_5_room": 0.0, "per_dw_6_room": 1.9, "per_hhsize_1": 6.6, "per_hhsize_2": 7.5, "per_hhsize_3": 17.9, "per_hhsize_4": 25.5, "per_hhsize_5": 20.8, "per_hhsize_6_8": 20.8, "per_hhsize_9p": 0.9, "per_ow_owned": 98.1, "per_ow_rented": 0.9, "per_ow_oth": 0.9, "per_mc_none": 24.5, "per_mcouple_1": 64.2, "per_mcouple_2": 9.4, "per_mcouple_3": 1.9, "per_mcouple_4": 0.0, "per_mcouple_5p": 0.0, "per_dw_t_ts": 0.0, "per_dw_t_unts": 100.0, "per_dw_c_well": 0.0, "per_dw_unc_wel": 0.0, "per_dw_hpump": 0.0, "per_dw_tw_bore": 0.0, "per_dw_spring": 0.0, "per_dw_rivcan": 0.0, "per_dw_tank": 0.0, "per_dw_oth": 0.0, "per_loc_dw_wp": 1.9, "per_loc_dw_np": 98.1, "per_loc_dw_aw": 0.0, "per_light_elec": 97.2, "per_light_kero": 2.8, "per_light_solr": 0.0, "per_light_oil": 0.0, "per_light_oth": 0.0, "per_light_no": 0.0, "per_hh_latrine": 1.9, "per_fl_sewer": 0.0, "per_fl_septict": 1.9, "per_fl_othsys": 0.0, "per_pl_wslab": 0.0, "per_pl_without": 0.0, "per_ns_open": 0.0, "per_sl_ns_hum": 0.0, "per_sl_ns_anml": 0.0, "per_hh_no_lat": 98.1, "per_as_pub": 0.0, "per_as_open": 98.1, "per_hh_bathrm": 7.5, "per_hh_en_wrf": 63.2, "per_hh_no_btrm": 29.2, "per_wwoc_drain": 0.0, "per_wwoc_open": 0.0, "per_wwoc_nodrn": 100.0, "per_cook_fire": 99.1, "per_cook_resdu": 0.0, "per_cook_cwdng": 0.0, "per_cook_coal": 0.0, "per_cook_kero": 0.0, "per_cook_lpng": 0.9, "per_cook_elec": 0.0, "per_cook_biogs": 0.0, "per_cook_oth": 0.0, "per_cook_no": 0.0, "per_kf_inside": 33.0, "per_kf_in_has": 31.1, "per_kf_in_does": 1.9, "per_kf_outside": 67.0, "per_kf_out_has": 0.0, "per_kf_out_dos": 67.0, "per_kf_no_cook": 0.0, "per_hh_banking": 14.2, "per_hh_radio": 16.0, "per_hh_tv": 53.8, "per_hh_cmp_int": 0.0, "per_hh_cmp_wnt": 0.0, "per_hh_ph_ll": 0.0, "per_hh_ph_mob": 13.2, "per_hh_ph_bth": 0.0, "per_hh_bcycl": 43.4, "per_hh_2wheel": 9.4, "per_hh_4wheel": 0.0, "per_hh_tvcomp": 0.0, "per_hh_no_ast": 32.1, "per_hs_perma": 56.6, "per_hs_sperma": 9.4, "per_hs_temp": 34.0, "per_hs_servc": 34.0, "per_hs_nservc": 0.0, "per_hs_unclss": 0.0, "avghhsz_cy": 4.28971963, "st_areashape": 2014341.93092901, "st_lengthshape": 7684.595724796368}, "geometry": {"type": "Polygon", "coordinates": [[[79.37670114130565, 12.62589694211556], [79.37616636164057, 12.626070891275589], [79.37527506309715, 12.626418789240827], [79.37361130503753, 12.625780975943124], [79.37272000559577, 12.625201145168973], [79.37230406585631, 12.624273411793975], [79.3726011656702, 12.623577609554781], [79.37349246511197, 12.622997773786446], [79.37361130503753, 12.622359951959194], [79.37337362518637, 12.62154817730154], [79.37266058563299, 12.620678414942619], [79.37272000559577, 12.619924619383518], [79.37218522593072, 12.619344774460567], [79.37141276731285, 12.619344774460567], [79.37028378891829, 12.619112836123518], [79.36933306951376, 12.619228805318295], [79.36832293104476, 12.619460743550244], [79.36766931145414, 12.61963469708626], [79.36695627279906, 12.620214540475725], [79.3660055533945, 12.620098572604226], [79.36517367481386, 12.619518728075382], [79.36523309477667, 12.618880897576261], [79.3650548348883, 12.61795314216194], [79.36428237537213, 12.617315307761167], [79.36297513708918, 12.6162135909292], [79.36303455705199, 12.61505388383215], [79.36303455705199, 12.61372021316793], [79.36362875578152, 12.61290841110855], [79.36440121529769, 12.612270564138939], [79.36440121529769, 12.611458757483657], [79.36428237537213, 12.610299027973898], [79.36398527555819, 12.608907346506836], [79.36362875578152, 12.60797955495345], [79.3645547167185, 12.607124243768492], [79.36633731470367, 12.605529588230812], [79.36841701250277, 12.60581952562227], [79.36915976113923, 12.60625443240931], [79.37005106058099, 12.60799405129769], [79.37079380921746, 12.609443724534062], [79.37168510865922, 12.611183321762315], [79.37287350701658, 12.612922907173791], [79.37391335636529, 12.614952408696205], [79.37495320481568, 12.616836931355847], [79.3765872528939, 12.61640204254039], [79.37807275106518, 12.615387299974353], [79.38000389895734, 12.615387299974353], [79.38050401712714, 12.615807693736011], [79.38002865742487, 12.6165615022968], [79.37907793802034, 12.61795314216194], [79.37848373929083, 12.61963469708626], [79.3778301197002, 12.620446477814284], [79.37771127977462, 12.621490193236259], [79.37735475999794, 12.622128016355068], [79.37664172134284, 12.62322970860211], [79.37634462152893, 12.624099461411594], [79.37634462152893, 12.624853245547659], [79.37670114130565, 12.62589694211556]]]}}]}