{"type": "FeatureCollection", "features": [{"type": "Feature", "properties": {"premiumdata.sde.IN_Village_PCA.area": 1.11443041, "objectid": 394472, "id": "335205337545", "name": "Sheruwal", "subdistrict": "Bhulath", "district": "Kapurthala", "state": "Punjab", "country": "India", "censusname": "Sheruwal (79)", "villagename_locallang": null, "lgd_villagename": "Sheruwal (79)", "lgd_villagecode": 29012, "lgd_subdistrictcode": 205, "lgd_districtcode": 35, "lgd_statecode": 3, "censuscode2001": "00286900", "censuscode2011": "029012", "censuscode2021": null, "level": "Village", "tru": "Rural", "no_hh": 17, "tot_p": 98, "tot_m": 49, "tot_f": 49, "per_tot_m": 50.0, "per_tot_f": 50.0, "p_06": 8, "m_06": 6, "f_06": 2, "per_p_06": 8.16326531, "per_m_06": 75.0, "per_f_06": 25.0, "p_sc": 0, "m_sc": 0, "f_sc": 0, "per_p_sc": 0.0, "per_m_sc": 0.0, "per_f_sc": 0.0, "p_st": 0, "m_st": 0, "f_st": 0, "per_p_st": 0.0, "per_m_st": 0.0, "per_f_st": 0.0, "p_lit": 51, "m_lit": 33, "f_lit": 18, "per_p_lit": 52.04081633, "per_m_lit": 64.70588235, "per_f_lit": 35.29411765, "p_ill": 47, "m_ill": 16, "f_ill": 31, "per_p_ill": 47.95918367, "per_m_ill": 34.04255319, "per_f_ill": 65.95744681000001, "tot_work_p": 29, "tot_work_m": 27, "tot_work_f": 2, "per_tot_work_p": 29.59183673, "per_tot_work_m": 93.10344828, "per_tot_work_f": 6.89655172, "mainwork_p": 28, "mainwork_m": 26, "mainwork_f": 2, "per_mainwork_p": 28.57142857, "per_mainwork_m": 92.85714286, "per_mainwork_f": 7.14285714, "main_cl_p": 25, "main_cl_m": 23, "main_cl_f": 2, "per_main_cl_p": 89.28571429, "per_main_cl_m": 92.0, "per_main_cl_f": 8.0, "main_al_p": 2, "main_al_m": 2, "main_al_f": 0, "per_main_al_p": 7.14285714, "per_main_al_m": 100.0, "per_main_al_f": 0.0, "main_hh_p": 0, "main_hh_m": 0, "main_hh_f": 0, "per_main_hh_p": 0.0, "per_main_hh_m": 0.0, "per_main_hh_f": 0.0, "main_ot_p": 1, "main_ot_m": 1, "main_ot_f": 0, "per_main_ot_p": 3.57142857, "per_main_ot_m": 100.0, "per_main_ot_f": 0.0, "margwork_p": 1, "margwork_m": 1, "margwork_f": 0, "per_margwork_p": 1.02040816, "per_margwork_m": 100.0, "per_margwork_f": 0.0, "marg_cl_p": 1, "marg_cl_m": 1, "marg_cl_f": 0, "per_marg_cl_p": 100.0, "per_marg_cl_m": 100.0, "per_marg_cl_f": 0.0, "marg_al_p": 0, "marg_al_m": 0, "marg_al_f": 0, "per_marg_al_p": 0.0, "per_marg_al_m": 0.0, "per_marg_al_f": 0.0, "marg_hh_p": 0, "marg_hh_m": 0, "marg_hh_f": 0, "per_marg_hh_p": 0.0, "per_marg_hh_m": 0.0, "per_marg_hh_f": 0.0, "marg_ot_p": 0, "marg_ot_m": 0, "marg_ot_f": 0, "per_marg_ot_p": 0.0, "per_marg_ot_m": 0.0, "per_marg_ot_f": 0.0, "margwork_3_6_p": 1, "margwork_3_6_m": 1, "margwork_3_6_f": 0, "per_margwork_3_6_p": 100.0, "per_margwork_3_6_m": 100.0, "per_margwork_3_6_f": 0.0, "marg_cl_3_6_p": 1, "marg_cl_3_6_m": 1, "marg_cl_3_6_f": 0, "per_marg_cl_3_6_p": 100.0, "per_marg_cl_3_6_m": 100.0, "per_marg_cl_3_6_f": 0.0, "marg_al_3_6_p": 0, "marg_al_3_6_m": 0, "marg_al_3_6_f": 0, "per_marg_al_3_6_p": 0.0, "per_marg_al_3_6_m": 0.0, "per_marg_al_3_6_f": 0.0, "marg_hh_3_6_p": 0, "marg_hh_3_6_m": 0, "marg_hh_3_6_f": 0, "per_marg_hh_3_6_p": 0.0, "per_marg_hh_3_6_m": 0.0, "per_marg_hh_3_6_f": 0.0, "marg_ot_3_6_p": 0, "marg_ot_3_6_m": 0, "marg_ot_3_6_f": 0, "per_marg_ot_3_6_p": 0.0, "per_marg_ot_3_6_m": 0.0, "per_marg_ot_3_6_f": 0.0, "margwork_0_3_p": 0, "margwork_0_3_m": 0, "margwork_0_3_f": 0, "per_margwork_0_3_p": 0.0, "per_margwork_0_3_m": 0.0, "per_margwork_0_3_f": 0.0, "marg_cl_0_3_p": 0, "marg_cl_0_3_m": 0, "marg_cl_0_3_f": 0, "per_marg_cl_0_3_p": 0.0, "per_marg_cl_0_3_m": 0.0, "per_marg_cl_0_3_f": 0.0, "marg_al_0_3_p": 0, "marg_al_0_3_m": 0, "marg_al_0_3_f": 0, "per_marg_al_0_3_p": 0.0, "per_marg_al_0_3_m": 0.0, "per_marg_al_0_3_f": 0.0, "marg_hh_0_3_p": 0, "marg_hh_0_3_m": 0, "marg_hh_0_3_f": 0, "per_marg_hh_0_3_p": 0.0, "per_marg_hh_0_3_m": 0.0, "per_marg_hh_0_3_f": 0.0, "marg_ot_0_3_p": 0, "marg_ot_0_3_m": 0, "marg_ot_0_3_f": 0, "per_marg_ot_0_3_p": 0.0, "per_marg_ot_0_3_m": 0.0, "per_marg_ot_0_3_f": 0.0, "non_work_p": 69, "non_work_m": 22, "non_work_f": 47, "per_non_work_p": 70.40816327, "per_non_work_m": 31.88405797, "per_non_work_f": 68.11594203, "per_hc_tot_tot": 100, "per_hc_tot_god": 87.5, "per_hc_tot_liv": 12.5, "per_hc_tot_dil": 0.0, "per_hc_res_tot": 87.5, "per_hc_res_god": 81.2, "per_hc_res_liv": 6.2, "per_hc_res_dil": 0.0, "per_hc_oth_tot": 12.5, "per_hc_oth_god": 6.2, "per_hc_oth_liv": 6.2, "per_hc_oth_dil": 0.0, "per_mt_grsbam": 0.0, "per_mt_plastic": 0.0, "per_mt_h_tiles": 68.8, "per_mt_m_tiles": 0.0, "per_mt_b_brick": 0.0, "per_mt_stone": 0.0, "per_mt_asbstos": 0.0, "per_mt_concrte": 31.2, "per_mt_oth": 0.0, "per_mw_grsbam": 0.0, "per_mw_plastic": 0.0, "per_mw_mud": 0.0, "per_mw_wood": 0.0, "per_mw_no_mrtr": 0.0, "per_mw_st_mrtr": 0.0, "per_mw_asbstos": 0.0, "per_mw_b_brick": 100.0, "per_mw_concrte": 0.0, "per_mw_oth": 0.0, "per_mf_mud": 12.5, "per_mf_wood": 0.0, "per_mf_b_brick": 0.0, "per_mf_stone": 25.0, "per_mf_cement": 62.5, "per_mf_fl_tile": 0.0, "per_mf_oth": 0.0, "per_dw_n_exrm": 0.0, "per_dw_1_room": 6.2, "per_dw_2_room": 6.2, "per_dw_3_room": 37.5, "per_dw_4_room": 6.2, "per_dw_5_room": 12.5, "per_dw_6_room": 31.2, "per_hhsize_1": 0.0, "per_hhsize_2": 6.2, "per_hhsize_3": 6.2, "per_hhsize_4": 18.8, "per_hhsize_5": 12.5, "per_hhsize_6_8": 43.8, "per_hhsize_9p": 12.5, "per_ow_owned": 100.0, "per_ow_rented": 0.0, "per_ow_oth": 0.0, "per_mc_none": 0.0, "per_mcouple_1": 62.5, "per_mcouple_2": 18.8, "per_mcouple_3": 12.5, "per_mcouple_4": 0.0, "per_mcouple_5p": 6.2, "per_dw_t_ts": 6.2, "per_dw_t_unts": 0.0, "per_dw_c_well": 0.0, "per_dw_unc_wel": 0.0, "per_dw_hpump": 0.0, "per_dw_tw_bore": 93.8, "per_dw_spring": 0.0, "per_dw_rivcan": 0.0, "per_dw_tank": 0.0, "per_dw_oth": 0.0, "per_loc_dw_wp": 81.2, "per_loc_dw_np": 18.8, "per_loc_dw_aw": 0.0, "per_light_elec": 100.0, "per_light_kero": 0.0, "per_light_solr": 0.0, "per_light_oil": 0.0, "per_light_oth": 0.0, "per_light_no": 0.0, "per_hh_latrine": 93.8, "per_fl_sewer": 0.0, "per_fl_septict": 87.5, "per_fl_othsys": 6.2, "per_pl_wslab": 0.0, "per_pl_without": 0.0, "per_ns_open": 0.0, "per_sl_ns_hum": 0.0, "per_sl_ns_anml": 0.0, "per_hh_no_lat": 6.2, "per_as_pub": 0.0, "per_as_open": 6.2, "per_hh_bathrm": 81.2, "per_hh_en_wrf": 18.8, "per_hh_no_btrm": 0.0, "per_wwoc_drain": 0.0, "per_wwoc_open": 93.8, "per_wwoc_nodrn": 6.2, "per_cook_fire": 0.0, "per_cook_resdu": 0.0, "per_cook_cwdng": 43.8, "per_cook_coal": 0.0, "per_cook_kero": 0.0, "per_cook_lpng": 50.0, "per_cook_elec": 0.0, "per_cook_biogs": 6.2, "per_cook_oth": 0.0, "per_cook_no": 0.0, "per_kf_inside": 87.5, "per_kf_in_has": 81.2, "per_kf_in_does": 6.2, "per_kf_outside": 12.5, "per_kf_out_has": 0.0, "per_kf_out_dos": 12.5, "per_kf_no_cook": 0.0, "per_hh_banking": 100.0, "per_hh_radio": 25.0, "per_hh_tv": 100.0, "per_hh_cmp_int": 0.0, "per_hh_cmp_wnt": 6.2, "per_hh_ph_ll": 0.0, "per_hh_ph_mob": 50.0, "per_hh_ph_bth": 43.8, "per_hh_bcycl": 81.2, "per_hh_2wheel": 93.8, "per_hh_4wheel": 18.8, "per_hh_tvcomp": 6.2, "per_hh_no_ast": 0.0, "per_hs_perma": 100.0, "per_hs_sperma": 0.0, "per_hs_temp": 0.0, "per_hs_servc": 0.0, "per_hs_nservc": 0.0, "per_hs_unclss": 0.0, "avghhsz_cy": 5.76470588, "st_areashape": 1538257.908166325, "st_lengthshape": 4963.908034806797}, "geometry": {"type": "Polygon", "coordinates": [[[75.46977338318584, 31.519802823663465], [75.46876271291421, 31.52003075550312], [75.46420851403681, 31.522339556344722], [75.46199724808292, 31.52369268521574], [75.45962653116604, 31.5251704008373], [75.45929591431056, 31.525349942179954], [75.45769550274981, 31.52472866119964], [75.45718086421176, 31.52442801474102], [75.45631673701071, 31.52370803688095], [75.45596771816666, 31.52326945746554], [75.45497105532522, 31.521235281284895], [75.45477324450302, 31.520722530836753], [75.45427903994272, 31.518999683573675], [75.45424929492707, 31.518468653741994], [75.4543795066258, 31.517705120575993], [75.45465875960997, 31.517254570354805], [75.45546708885546, 31.516622721819772], [75.45601052558487, 31.51638647880389], [75.45909254201845, 31.515852697115765], [75.45971798954342, 31.515782416426894], [75.46337799281058, 31.51558974599668], [75.46400971057625, 31.515573781879358], [75.46983833407585, 31.51558567034538], [75.46984006692601, 31.5157100833118], [75.46977338318584, 31.519802823663465]]]}}]}