{"type": "FeatureCollection", "features": [{"type": "Feature", "properties": {"premiumdata.sde.IN_Village_PCA.area": 1.28029214, "objectid": 31852, "id": "295425590111036", "name": "Avaganapalli", "subdistrict": "Srinivaspur", "district": "Kolar", "state": "Karnataka", "country": "India", "censusname": "Avaganapalli", "villagename_locallang": null, "lgd_villagename": "Avaganapalli", "lgd_villagecode": 621449, "lgd_subdistrictcode": 5590, "lgd_districtcode": 542, "lgd_statecode": 29, "censuscode2001": "01856100", "censuscode2011": "621449", "censuscode2021": null, "level": "Village", "tru": "Rural", "no_hh": 103, "tot_p": 512, "tot_m": 267, "tot_f": 245, "per_tot_m": 52.1484375, "per_tot_f": 47.8515625, "p_06": 46, "m_06": 27, "f_06": 19, "per_p_06": 8.984375, "per_m_06": 58.69565217, "per_f_06": 41.30434783, "p_sc": 233, "m_sc": 126, "f_sc": 107, "per_p_sc": 45.5078125, "per_m_sc": 54.07725322, "per_f_sc": 45.92274678, "p_st": 16, "m_st": 8, "f_st": 8, "per_p_st": 3.125, "per_m_st": 50.0, "per_f_st": 50.0, "p_lit": 318, "m_lit": 187, "f_lit": 131, "per_p_lit": 62.109375, "per_m_lit": 58.80503145, "per_f_lit": 41.19496855, "p_ill": 194, "m_ill": 80, "f_ill": 114, "per_p_ill": 37.890625, "per_m_ill": 41.2371134, "per_f_ill": 58.7628866, "tot_work_p": 310, "tot_work_m": 165, "tot_work_f": 145, "per_tot_work_p": 60.546875, "per_tot_work_m": 53.22580645, "per_tot_work_f": 46.77419355, "mainwork_p": 300, "mainwork_m": 160, "mainwork_f": 140, "per_mainwork_p": 58.59375, "per_mainwork_m": 53.33333333, "per_mainwork_f": 46.66666667000001, "main_cl_p": 96, "main_cl_m": 51, "main_cl_f": 45, "per_main_cl_p": 32.0, "per_main_cl_m": 53.125, "per_main_cl_f": 46.875, "main_al_p": 146, "main_al_m": 68, "main_al_f": 78, "per_main_al_p": 48.66666667000001, "per_main_al_m": 46.57534247, "per_main_al_f": 53.42465753, "main_hh_p": 5, "main_hh_m": 3, "main_hh_f": 2, "per_main_hh_p": 1.66666667, "per_main_hh_m": 60.0, "per_main_hh_f": 40.0, "main_ot_p": 53, "main_ot_m": 38, "main_ot_f": 15, "per_main_ot_p": 17.66666667, "per_main_ot_m": 71.69811321, "per_main_ot_f": 28.30188679, "margwork_p": 10, "margwork_m": 5, "margwork_f": 5, "per_margwork_p": 1.953125, "per_margwork_m": 50.0, "per_margwork_f": 50.0, "marg_cl_p": 2, "marg_cl_m": 1, "marg_cl_f": 1, "per_marg_cl_p": 20.0, "per_marg_cl_m": 50.0, "per_marg_cl_f": 50.0, "marg_al_p": 3, "marg_al_m": 2, "marg_al_f": 1, "per_marg_al_p": 30.0, "per_marg_al_m": 66.66666667, "per_marg_al_f": 33.33333333, "marg_hh_p": 4, "marg_hh_m": 2, "marg_hh_f": 2, "per_marg_hh_p": 40.0, "per_marg_hh_m": 50.0, "per_marg_hh_f": 50.0, "marg_ot_p": 1, "marg_ot_m": 0, "marg_ot_f": 1, "per_marg_ot_p": 10.0, "per_marg_ot_m": 0.0, "per_marg_ot_f": 100.0, "margwork_3_6_p": 10, "margwork_3_6_m": 5, "margwork_3_6_f": 5, "per_margwork_3_6_p": 100.0, "per_margwork_3_6_m": 50.0, "per_margwork_3_6_f": 50.0, "marg_cl_3_6_p": 2, "marg_cl_3_6_m": 1, "marg_cl_3_6_f": 1, "per_marg_cl_3_6_p": 20.0, "per_marg_cl_3_6_m": 50.0, "per_marg_cl_3_6_f": 50.0, "marg_al_3_6_p": 3, "marg_al_3_6_m": 2, "marg_al_3_6_f": 1, "per_marg_al_3_6_p": 30.0, "per_marg_al_3_6_m": 66.66666667, "per_marg_al_3_6_f": 33.33333333, "marg_hh_3_6_p": 4, "marg_hh_3_6_m": 2, "marg_hh_3_6_f": 2, "per_marg_hh_3_6_p": 40.0, "per_marg_hh_3_6_m": 50.0, "per_marg_hh_3_6_f": 50.0, "marg_ot_3_6_p": 1, "marg_ot_3_6_m": 0, "marg_ot_3_6_f": 1, "per_marg_ot_3_6_p": 10.0, "per_marg_ot_3_6_m": 0.0, "per_marg_ot_3_6_f": 100.0, "margwork_0_3_p": 0, "margwork_0_3_m": 0, "margwork_0_3_f": 0, "per_margwork_0_3_p": 0.0, "per_margwork_0_3_m": 0.0, "per_margwork_0_3_f": 0.0, "marg_cl_0_3_p": 0, "marg_cl_0_3_m": 0, "marg_cl_0_3_f": 0, "per_marg_cl_0_3_p": 0.0, "per_marg_cl_0_3_m": 0.0, "per_marg_cl_0_3_f": 0.0, "marg_al_0_3_p": 0, "marg_al_0_3_m": 0, "marg_al_0_3_f": 0, "per_marg_al_0_3_p": 0.0, "per_marg_al_0_3_m": 0.0, "per_marg_al_0_3_f": 0.0, "marg_hh_0_3_p": 0, "marg_hh_0_3_m": 0, "marg_hh_0_3_f": 0, "per_marg_hh_0_3_p": 0.0, "per_marg_hh_0_3_m": 0.0, "per_marg_hh_0_3_f": 0.0, "marg_ot_0_3_p": 0, "marg_ot_0_3_m": 0, "marg_ot_0_3_f": 0, "per_marg_ot_0_3_p": 0.0, "per_marg_ot_0_3_m": 0.0, "per_marg_ot_0_3_f": 0.0, "non_work_p": 202, "non_work_m": 102, "non_work_f": 100, "per_non_work_p": 39.453125, "per_non_work_m": 50.4950495, "per_non_work_f": 49.5049505, "per_hc_tot_tot": 100, "per_hc_tot_god": 40.2, "per_hc_tot_liv": 59.8, "per_hc_tot_dil": 0.0, "per_hc_res_tot": 100.0, "per_hc_res_god": 40.2, "per_hc_res_liv": 59.8, "per_hc_res_dil": 0.0, "per_hc_oth_tot": 0.0, "per_hc_oth_god": 0.0, "per_hc_oth_liv": 0.0, "per_hc_oth_dil": 0.0, "per_mt_grsbam": 11.3, "per_mt_plastic": 0.0, "per_mt_h_tiles": 0.0, "per_mt_m_tiles": 0.0, "per_mt_b_brick": 0.0, "per_mt_stone": 88.7, "per_mt_asbstos": 0.0, "per_mt_concrte": 0.0, "per_mt_oth": 0.0, "per_mw_grsbam": 0.0, "per_mw_plastic": 0.0, "per_mw_mud": 22.7, "per_mw_wood": 0.0, "per_mw_no_mrtr": 0.0, "per_mw_st_mrtr": 1.0, "per_mw_asbstos": 0.0, "per_mw_b_brick": 76.3, "per_mw_concrte": 0.0, "per_mw_oth": 0.0, "per_mf_mud": 27.8, "per_mf_wood": 0.0, "per_mf_b_brick": 0.0, "per_mf_stone": 0.0, "per_mf_cement": 72.2, "per_mf_fl_tile": 0.0, "per_mf_oth": 0.0, "per_dw_n_exrm": 4.1, "per_dw_1_room": 61.9, "per_dw_2_room": 28.9, "per_dw_3_room": 4.1, "per_dw_4_room": 1.0, "per_dw_5_room": 0.0, "per_dw_6_room": 0.0, "per_hhsize_1": 2.1, "per_hhsize_2": 7.2, "per_hhsize_3": 12.4, "per_hhsize_4": 27.8, "per_hhsize_5": 18.6, "per_hhsize_6_8": 23.7, "per_hhsize_9p": 8.2, "per_ow_owned": 100.0, "per_ow_rented": 0.0, "per_ow_oth": 0.0, "per_mc_none": 15.5, "per_mcouple_1": 51.5, "per_mcouple_2": 27.8, "per_mcouple_3": 5.2, "per_mcouple_4": 0.0, "per_mcouple_5p": 0.0, "per_dw_t_ts": 0.0, "per_dw_t_unts": 8.2, "per_dw_c_well": 0.0, "per_dw_unc_wel": 0.0, "per_dw_hpump": 0.0, "per_dw_tw_bore": 90.7, "per_dw_spring": 0.0, "per_dw_rivcan": 1.0, "per_dw_tank": 0.0, "per_dw_oth": 0.0, "per_loc_dw_wp": 1.0, "per_loc_dw_np": 32.0, "per_loc_dw_aw": 67.0, "per_light_elec": 93.8, "per_light_kero": 6.2, "per_light_solr": 0.0, "per_light_oil": 0.0, "per_light_oth": 0.0, "per_light_no": 0.0, "per_hh_latrine": 3.1, "per_fl_sewer": 0.0, "per_fl_septict": 0.0, "per_fl_othsys": 0.0, "per_pl_wslab": 3.1, "per_pl_without": 0.0, "per_ns_open": 0.0, "per_sl_ns_hum": 0.0, "per_sl_ns_anml": 0.0, "per_hh_no_lat": 96.9, "per_as_pub": 0.0, "per_as_open": 96.9, "per_hh_bathrm": 4.1, "per_hh_en_wrf": 1.0, "per_hh_no_btrm": 94.8, "per_wwoc_drain": 0.0, "per_wwoc_open": 2.1, "per_wwoc_nodrn": 97.9, "per_cook_fire": 94.8, "per_cook_resdu": 1.0, "per_cook_cwdng": 0.0, "per_cook_coal": 0.0, "per_cook_kero": 0.0, "per_cook_lpng": 4.1, "per_cook_elec": 0.0, "per_cook_biogs": 0.0, "per_cook_oth": 0.0, "per_cook_no": 0.0, "per_kf_inside": 96.9, "per_kf_in_has": 92.8, "per_kf_in_does": 4.1, "per_kf_outside": 3.1, "per_kf_out_has": 1.0, "per_kf_out_dos": 2.1, "per_kf_no_cook": 0.0, "per_hh_banking": 20.6, "per_hh_radio": 24.7, "per_hh_tv": 57.7, "per_hh_cmp_int": 0.0, "per_hh_cmp_wnt": 5.2, "per_hh_ph_ll": 4.1, "per_hh_ph_mob": 71.1, "per_hh_ph_bth": 2.1, "per_hh_bcycl": 43.3, "per_hh_2wheel": 18.6, "per_hh_4wheel": 0.0, "per_hh_tvcomp": 1.0, "per_hh_no_ast": 12.4, "per_hs_perma": 77.3, "per_hs_sperma": 11.3, "per_hs_temp": 11.3, "per_hs_servc": 11.3, "per_hs_nservc": 0.0, "per_hs_unclss": 0.0, "avghhsz_cy": 4.97087379, "st_areashape": 1362105.018208815, "st_lengthshape": 6295.1257174363645}, "geometry": {"type": "Polygon", "coordinates": [[[78.2203074299918, 13.496260341021358], [78.22025605264575, 13.49812677931393], [78.21777554183822, 13.498127674653075], [78.21781669725465, 13.496730396418085], [78.21780581416498, 13.49552691599744], [78.21710742613388, 13.495261991280222], [78.21599212908107, 13.49493601381226], [78.2155543252459, 13.494742384662706], [78.2153876949472, 13.495079009642419], [78.21556498735002, 13.49538491885935], [78.21621149677514, 13.496272006726407], [78.21607620600179, 13.496802403060755], [78.21596169595588, 13.497159408379392], [78.21540937488828, 13.497322784360556], [78.21498209481668, 13.497414724191707], [78.214659033691, 13.49749642564821], [78.21441929579956, 13.497425116271215], [78.21431503463275, 13.497323160841018], [78.21451267208009, 13.496272596344568], [78.21456436114156, 13.49513028833053], [78.21457445281544, 13.49423277168309], [78.21461601696534, 13.493896190933135], [78.21355295964125, 13.49389655431624], [78.21266706356593, 13.493856056313227], [78.21224995062671, 13.493223856979883], [78.21181198958634, 13.492571266224362], [78.21147832025552, 13.492112420429844], [78.21141554778012, 13.491439305762997], [78.21138402140521, 13.490704987160523], [78.21117535983268, 13.490082916813023], [78.21051851798514, 13.489348802814664], [78.21000765776118, 13.488818621410918], [78.21038275559626, 13.488563522653127], [78.21041392803495, 13.48829323891947], [78.21041384898321, 13.488068860201414], [78.21058054485889, 13.487915819716878], [78.21115371672255, 13.487828941009175], [78.2114924013476, 13.487752335968954], [78.21172696314639, 13.487946038922109], [78.21207605834728, 13.487843933563518], [78.21226347117005, 13.487339020364391], [78.21230482421585, 13.486410896013858], [78.21240855807156, 13.48506458984487], [78.21246024892964, 13.483901884033628], [78.21227229172783, 13.48288204466333], [78.21235032298667, 13.482514854147558], [78.21270963832052, 13.481872195353052], [78.21305857272296, 13.481351928895663], [78.21353787692765, 13.48110698870229], [78.21400697537238, 13.481453596753031], [78.21430945160328, 13.482136829175452], [78.21434092677418, 13.482707963833247], [78.21466422056349, 13.483309594708492], [78.21546692815188, 13.483951857411896], [78.21549836110202, 13.484400601405328], [78.21604040364613, 13.484706383657903], [78.21724950906909, 13.485185312593877], [78.21899021771429, 13.485898623652274], [78.22174715630439, 13.486841023684399], [78.22158600123736, 13.487804890724243], [78.2211178999226, 13.490038647129076], [78.22086822396916, 13.491181030165972], [78.22051443776589, 13.492609020713298], [78.22020251215652, 13.494485753972942], [78.2203074299918, 13.496260341021358]]]}}]}