{"type": "FeatureCollection", "features": [{"type": "Feature", "properties": {"premiumdata.sde.IN_Village_PCA.area": 423.78943811, "objectid": 653746, "id": "122351727654146", "name": "Data Partially Available", "subdistrict": "Koronu Circle", "district": "Lower Dibang Valley", "state": "Arunachal Pradesh", "country": "India", "censusname": null, "villagename_locallang": null, "lgd_villagename": null, "lgd_villagecode": null, "lgd_subdistrictcode": 1727, "lgd_districtcode": 235, "lgd_statecode": 12, "censuscode2001": null, "censuscode2011": null, "censuscode2021": null, "level": "Village", "tru": "Rural", "no_hh": null, "tot_p": null, "tot_m": null, "tot_f": null, "per_tot_m": 0.0, "per_tot_f": 0.0, "p_06": null, "m_06": null, "f_06": null, "per_p_06": 0.0, "per_m_06": 0.0, "per_f_06": 0.0, "p_sc": null, "m_sc": null, "f_sc": null, "per_p_sc": 0.0, "per_m_sc": 0.0, "per_f_sc": 0.0, "p_st": null, "m_st": null, "f_st": null, "per_p_st": 0.0, "per_m_st": 0.0, "per_f_st": 0.0, "p_lit": null, "m_lit": null, "f_lit": null, "per_p_lit": 0.0, "per_m_lit": 0.0, "per_f_lit": 0.0, "p_ill": null, "m_ill": null, "f_ill": null, "per_p_ill": 0.0, "per_m_ill": 0.0, "per_f_ill": 0.0, "tot_work_p": null, "tot_work_m": null, "tot_work_f": null, "per_tot_work_p": 0.0, "per_tot_work_m": 0.0, "per_tot_work_f": 0.0, "mainwork_p": null, "mainwork_m": null, "mainwork_f": null, "per_mainwork_p": 0.0, "per_mainwork_m": 0.0, "per_mainwork_f": 0.0, "main_cl_p": null, "main_cl_m": null, "main_cl_f": null, "per_main_cl_p": 0.0, "per_main_cl_m": 0.0, "per_main_cl_f": 0.0, "main_al_p": null, "main_al_m": null, "main_al_f": null, "per_main_al_p": 0.0, "per_main_al_m": 0.0, "per_main_al_f": 0.0, "main_hh_p": null, "main_hh_m": null, "main_hh_f": null, "per_main_hh_p": 0.0, "per_main_hh_m": 0.0, "per_main_hh_f": 0.0, "main_ot_p": null, "main_ot_m": null, "main_ot_f": null, "per_main_ot_p": 0.0, "per_main_ot_m": 0.0, "per_main_ot_f": 0.0, "margwork_p": null, "margwork_m": null, "margwork_f": null, "per_margwork_p": 0.0, "per_margwork_m": 0.0, "per_margwork_f": 0.0, "marg_cl_p": null, "marg_cl_m": null, "marg_cl_f": null, "per_marg_cl_p": 0.0, "per_marg_cl_m": 0.0, "per_marg_cl_f": 0.0, "marg_al_p": null, "marg_al_m": null, "marg_al_f": null, "per_marg_al_p": 0.0, "per_marg_al_m": 0.0, "per_marg_al_f": 0.0, "marg_hh_p": null, "marg_hh_m": null, "marg_hh_f": null, "per_marg_hh_p": 0.0, "per_marg_hh_m": 0.0, "per_marg_hh_f": 0.0, "marg_ot_p": null, "marg_ot_m": null, "marg_ot_f": null, "per_marg_ot_p": 0.0, "per_marg_ot_m": 0.0, "per_marg_ot_f": 0.0, "margwork_3_6_p": null, "margwork_3_6_m": null, "margwork_3_6_f": null, "per_margwork_3_6_p": 0.0, "per_margwork_3_6_m": 0.0, "per_margwork_3_6_f": 0.0, "marg_cl_3_6_p": null, "marg_cl_3_6_m": null, "marg_cl_3_6_f": null, "per_marg_cl_3_6_p": 0.0, "per_marg_cl_3_6_m": 0.0, "per_marg_cl_3_6_f": 0.0, "marg_al_3_6_p": null, "marg_al_3_6_m": null, "marg_al_3_6_f": null, "per_marg_al_3_6_p": 0.0, "per_marg_al_3_6_m": 0.0, "per_marg_al_3_6_f": 0.0, "marg_hh_3_6_p": null, "marg_hh_3_6_m": null, "marg_hh_3_6_f": null, "per_marg_hh_3_6_p": 0.0, "per_marg_hh_3_6_m": 0.0, "per_marg_hh_3_6_f": 0.0, "marg_ot_3_6_p": null, "marg_ot_3_6_m": null, "marg_ot_3_6_f": null, "per_marg_ot_3_6_p": 0.0, "per_marg_ot_3_6_m": 0.0, "per_marg_ot_3_6_f": 0.0, "margwork_0_3_p": null, "margwork_0_3_m": null, "margwork_0_3_f": null, "per_margwork_0_3_p": 0.0, "per_margwork_0_3_m": 0.0, "per_margwork_0_3_f": 0.0, "marg_cl_0_3_p": null, "marg_cl_0_3_m": null, "marg_cl_0_3_f": null, "per_marg_cl_0_3_p": 0.0, "per_marg_cl_0_3_m": 0.0, "per_marg_cl_0_3_f": 0.0, "marg_al_0_3_p": null, "marg_al_0_3_m": null, "marg_al_0_3_f": null, "per_marg_al_0_3_p": 0.0, "per_marg_al_0_3_m": 0.0, "per_marg_al_0_3_f": 0.0, "marg_hh_0_3_p": null, "marg_hh_0_3_m": null, "marg_hh_0_3_f": null, "per_marg_hh_0_3_p": 0.0, "per_marg_hh_0_3_m": 0.0, "per_marg_hh_0_3_f": 0.0, "marg_ot_0_3_p": null, "marg_ot_0_3_m": null, "marg_ot_0_3_f": null, "per_marg_ot_0_3_p": 0.0, "per_marg_ot_0_3_m": 0.0, "per_marg_ot_0_3_f": 0.0, "non_work_p": null, "non_work_m": null, "non_work_f": null, "per_non_work_p": 0.0, "per_non_work_m": 0.0, "per_non_work_f": 0.0, "per_hc_tot_tot": null, "per_hc_tot_god": null, "per_hc_tot_liv": null, "per_hc_tot_dil": null, "per_hc_res_tot": null, "per_hc_res_god": null, "per_hc_res_liv": null, "per_hc_res_dil": null, "per_hc_oth_tot": null, "per_hc_oth_god": null, "per_hc_oth_liv": null, "per_hc_oth_dil": null, "per_mt_grsbam": null, "per_mt_plastic": null, "per_mt_h_tiles": null, "per_mt_m_tiles": null, "per_mt_b_brick": null, "per_mt_stone": null, "per_mt_asbstos": null, "per_mt_concrte": null, "per_mt_oth": null, "per_mw_grsbam": null, "per_mw_plastic": null, "per_mw_mud": null, "per_mw_wood": null, "per_mw_no_mrtr": null, "per_mw_st_mrtr": null, "per_mw_asbstos": null, "per_mw_b_brick": null, "per_mw_concrte": null, "per_mw_oth": null, "per_mf_mud": null, "per_mf_wood": null, "per_mf_b_brick": null, "per_mf_stone": null, "per_mf_cement": null, "per_mf_fl_tile": null, "per_mf_oth": null, "per_dw_n_exrm": null, "per_dw_1_room": null, "per_dw_2_room": null, "per_dw_3_room": null, "per_dw_4_room": null, "per_dw_5_room": null, "per_dw_6_room": null, "per_hhsize_1": null, "per_hhsize_2": null, "per_hhsize_3": null, "per_hhsize_4": null, "per_hhsize_5": null, "per_hhsize_6_8": null, "per_hhsize_9p": null, "per_ow_owned": null, "per_ow_rented": null, "per_ow_oth": null, "per_mc_none": null, "per_mcouple_1": null, "per_mcouple_2": null, "per_mcouple_3": null, "per_mcouple_4": null, "per_mcouple_5p": null, "per_dw_t_ts": null, "per_dw_t_unts": null, "per_dw_c_well": null, "per_dw_unc_wel": null, "per_dw_hpump": null, "per_dw_tw_bore": null, "per_dw_spring": null, "per_dw_rivcan": null, "per_dw_tank": null, "per_dw_oth": null, "per_loc_dw_wp": null, "per_loc_dw_np": null, "per_loc_dw_aw": null, "per_light_elec": null, "per_light_kero": null, "per_light_solr": null, "per_light_oil": null, "per_light_oth": null, "per_light_no": null, "per_hh_latrine": null, "per_fl_sewer": null, "per_fl_septict": null, "per_fl_othsys": null, "per_pl_wslab": null, "per_pl_without": null, "per_ns_open": null, "per_sl_ns_hum": null, "per_sl_ns_anml": null, "per_hh_no_lat": null, "per_as_pub": null, "per_as_open": null, "per_hh_bathrm": null, "per_hh_en_wrf": null, "per_hh_no_btrm": null, "per_wwoc_drain": null, "per_wwoc_open": null, "per_wwoc_nodrn": null, "per_cook_fire": null, "per_cook_resdu": null, "per_cook_cwdng": null, "per_cook_coal": null, "per_cook_kero": null, "per_cook_lpng": null, "per_cook_elec": null, "per_cook_biogs": null, "per_cook_oth": null, "per_cook_no": null, "per_kf_inside": null, "per_kf_in_has": null, "per_kf_in_does": null, "per_kf_outside": null, "per_kf_out_has": null, "per_kf_out_dos": null, "per_kf_no_cook": null, "per_hh_banking": null, "per_hh_radio": null, "per_hh_tv": null, "per_hh_cmp_int": null, "per_hh_cmp_wnt": null, "per_hh_ph_ll": null, "per_hh_ph_mob": null, "per_hh_ph_bth": null, "per_hh_bcycl": null, "per_hh_2wheel": null, "per_hh_4wheel": null, "per_hh_tvcomp": null, "per_hh_no_ast": null, "per_hs_perma": null, "per_hs_sperma": null, "per_hs_temp": null, "per_hs_servc": null, "per_hs_nservc": null, "per_hs_unclss": null, "avghhsz_cy": null, "st_areashape": 423789438.14044017, "st_lengthshape": 113316.53995524421}, "geometry": {"type": "Polygon", "coordinates": [[[96.0515761508144, 28.198921398699753], [96.0463438451701, 28.2010334629799], [96.03892823812664, 28.203714593005518], [96.03341406809562, 28.20555783111749], [96.03227320588816, 28.2067307845549], [96.02732946696088, 28.205892961759], [96.0214350095274, 28.205892961759], [96.01877299681166, 28.206060527477163], [96.01439968988642, 28.204887566680533], [96.01021652666243, 28.20471999991424], [96.00717422654422, 28.20471999991424], [96.00318120702147, 28.20254160724413], [95.99956847490121, 28.20136860781343], [95.992343011559, 28.20254160724413], [95.98682884152797, 28.203714593005518], [95.98207524720024, 28.205222699424663], [95.97808222767749, 28.20404972942914], [95.9754202149618, 28.202876747347158], [95.97104690803656, 28.20471999991424], [95.96895532642453, 28.20555783111749], [95.96553273800552, 28.20639565654171], [95.96172986218404, 28.206563220679744], [95.95963828057201, 28.206563220679744], [95.95731429401624, 28.206307502533367], [95.95351141819476, 28.199604712803296], [95.94994622222437, 28.190387690790377], [95.9470940658074, 28.183055401356622], [95.94352886983704, 28.16797025332027], [95.94043903267062, 28.156445443585223], [95.93711151655135, 28.150368225906856], [95.93378400043214, 28.14617683972741], [95.92807968759821, 28.144919392201682], [95.92190001416365, 28.145600511873138], [95.91809713834216, 28.146229233086927], [95.9161957004314, 28.14518136181871], [95.91548266177632, 28.14266642862913], [95.9152449819252, 28.139313091993472], [95.9161957004314, 28.133654098893686], [95.91857249804443, 28.12757558798021], [95.92023625610406, 28.123173691739925], [95.91881017789557, 28.119610120627488], [95.91643338028253, 28.1166753256951], [95.9123928255082, 28.113321175760795], [95.90954066819295, 28.110386208710498], [95.90835226983559, 28.10367741056801], [95.90763923028219, 28.099903527839732], [95.90811458998445, 28.095710168873843], [95.9071638714782, 28.09067792136141], [95.90597547222255, 28.08627451156167], [95.90407403431183, 28.084387280419215], [95.9024102762522, 28.083758195736266], [95.9000334795375, 28.08522605347076], [95.89741900207333, 28.086693891138825], [95.89504220535864, 28.088790767622324], [95.88933789162638, 28.09193600515936], [95.88292053923902, 28.098016536304925], [95.88173213998337, 28.100951841779956], [95.87959302311981, 28.10179048619203], [95.8767408658045, 28.09906486867967], [95.87341334968524, 28.093194074212306], [95.87198727147678, 28.088161708739744], [95.86865975535751, 28.084177585934416], [95.86556991908942, 28.080193315296192], [95.86271776177414, 28.079773909537487], [95.86057864491058, 28.078725388767637], [95.85843952714868, 28.074111774665393], [95.85748880774415, 28.070756294347788], [95.85843952714868, 28.066981253522172], [95.85820184729754, 28.062786608782016], [95.85725112789301, 28.059011288771178], [95.85582504968454, 28.057543072823268], [95.85321057311869, 28.0569138309384], [95.85083377550569, 28.05418707512838], [95.84774393923756, 28.049572407443083], [95.8486946577438, 28.048104062592177], [95.85392361177378, 28.04579662258077], [95.85779018533546, 28.044145386295032], [95.86129168356567, 28.042650034196743], [95.8667583174468, 28.04118159483512], [95.87840462386411, 28.038874007106312], [95.89266540774561, 28.037405516199843], [95.90787691013331, 28.037195730035098], [95.91881017789557, 28.033419510708466], [95.92380145207441, 28.027545129054644], [95.92403913192554, 28.02271950403759], [95.92094929565745, 28.017264189672627], [95.92047114129632, 28.016570708835783], [95.9176217795382, 28.01243810383268], [95.9161957004314, 28.006352731002497], [95.91334354401444, 28.00089658756133], [95.91215514565707, 27.995440167039167], [95.90977834804407, 27.989353834149725], [95.90573779237143, 27.98389683008275], [95.90550011341861, 27.9794890480726], [95.9071638714782, 27.976340521940646], [95.90763923028219, 27.974241453195308], [95.90740155043105, 27.97046302747689], [95.90729077198685, 27.966341340306908], [95.91317025450455, 27.966001392480603], [95.92016760954499, 27.965457863458642], [95.92574204665009, 27.965162590428573], [95.92866968580543, 27.964981251390014], [95.9325584226018, 27.96474038140786], [95.9334406688221, 27.964685735061217], [95.93827318194417, 27.964390262355085], [95.94089515405275, 27.96416345854992], [95.94672367334778, 27.963889852960047], [95.95039563947954, 27.963677293391616], [95.95270451188068, 27.963543638807987], [95.95434561712378, 27.963514418235107], [95.95794359351719, 27.963450355584595], [95.96234407447974, 27.963221981974915], [95.96736956369115, 27.962947973312087], [95.97034225515463, 27.962787980412486], [95.97128727385036, 27.962719623235966], [95.97174445254961, 27.962448598224857], [95.97182036108941, 27.962177856585942], [95.97161670582803, 27.961636548209423], [95.98068817204475, 27.961643640836567], [95.98591712607478, 27.96185357413708], [95.98781856398551, 27.96290323372116], [95.98853160353892, 27.965212449030165], [95.9903628785344, 27.968419070414324], [95.99096525372964, 27.970547136316146], [95.99156762892487, 27.973739156864692], [95.99186881697165, 27.977197072808636], [95.99186881697165, 27.97959094949559], [95.99141703535065, 27.982383738474642], [95.99186881697165, 27.984112571333547], [95.99280983816436, 27.985993166901867], [95.9951866357774, 27.990190805297388], [95.99922719145002, 27.99459814982619], [96.00136630831362, 27.999215174725922], [96.00231702771815, 28.006769879621974], [96.00421846562887, 28.01998933899047], [96.0080213414504, 28.02859160685585], [96.01063581801623, 28.033207174668043], [96.01348797443319, 28.03614425104101], [96.01776620995699, 28.03866168103711], [96.02038068652281, 28.046003849377975], [96.02014300757001, 28.051247948936304], [96.02965019622543, 28.06047694241285], [96.03891970592807, 28.0713829131936], [96.04557473816656, 28.078932552083565], [96.05294280995842, 28.0908850616179], [96.05365584861352, 28.09612697097315], [96.05555728652428, 28.100320313652652], [96.05603264622654, 28.10556176136605], [96.05888480264352, 28.10912580011566], [96.0565080059288, 28.112899359225718], [96.05627032607768, 28.115624624460835], [96.0610239204054, 28.12275191396265], [96.06363839697123, 28.126944215823034], [96.06411375667349, 28.134489946279793], [96.06696591398878, 28.13931055160833], [96.06649055428653, 28.14413094002734], [96.06553983488199, 28.153613896953978], [96.06464853633854, 28.15937660937819], [96.06019204092642, 28.162781703005223], [96.05781524421172, 28.16880583366377], [96.05632974604045, 28.180329312201994], [96.05395294842742, 28.188709244719217], [96.05395294842742, 28.192898964285007], [96.05187325062833, 28.194993762882554], [96.05145661828776, 28.196829731509695], [96.05127905189882, 28.197612202799302], [96.0515761508144, 28.198921398699753]], [[95.88071727817258, 28.09378259630688], [95.88080583229666, 28.09377082093571], [95.88089261763795, 28.09375132686496], [95.88097677181378, 28.093724305869223], [95.88105745759425, 28.093690028176667], [95.88113387368223, 28.09364883295959], [95.88120526100124, 28.093601129919755], [95.8812709089839, 28.09354739453393], [95.88133016545329, 28.093488159337006], [95.88138244291125, 28.09342401313], [95.8814272203349, 28.09335559464063], [95.88146405305818, 28.093283582221652], [95.88149257456845, 28.093208692266042], [95.8815125027947, 28.093131669697858], [95.88152363831095, 28.093053279255074], [95.88152587062444, 28.092974299942462], [95.88151917817557, 28.092895517106925], [95.88150362743971, 28.092817713720137], [95.88147937202872, 28.092741662453914], [95.88144665448777, 28.092668120132398], [95.88140579821031, 28.092597816637397], [95.88135721103153, 28.09253145094538], [95.88130137444841, 28.09246968320256], [95.88123884451812, 28.09241312679954], [95.88117024107818, 28.092362343616056], [95.88109624774657, 28.092317839265544], [95.88101759934511, 28.09228005517002], [95.88093507650986, 28.09224936697458], [95.88084950030094, 28.092226080584716], [95.88076172142294, 28.092210425826025], [95.88067261214003, 28.092202559614055], [95.88058305729274, 28.092202559614055], [95.88049394800983, 28.092210425826025], [95.88040616913182, 28.092226080584716], [95.88032059292291, 28.09224936697458], [95.88023807008766, 28.09228005517002], [95.88015942168622, 28.092317839265544], [95.88008542835455, 28.092362343616056], [95.88001682491462, 28.09241312679954], [95.87995429498433, 28.09246968320256], [95.87989845840124, 28.09253145094538], [95.87984987122246, 28.092597816637397], [95.879809014945, 28.092668120132398], [95.87977629740405, 28.092741662453914], [95.87975204199307, 28.092817713720137], [95.87973649125718, 28.092895517106925], [95.87972979880833, 28.092974299942462], [95.87973203112179, 28.093053279255074], [95.87974316663806, 28.093131669697858], [95.87976309486432, 28.093208692266042], [95.87979161637459, 28.093283582221652], [95.87982844909787, 28.09335559464063], [95.87987322652152, 28.09342401313], [95.87992550397948, 28.093488159337006], [95.87998476044889, 28.09354739453393], [95.88005040843154, 28.093601129919755], [95.88012179575051, 28.09364883295959], [95.88019821183848, 28.093690028176667], [95.880278897619, 28.093724305869223], [95.88036305179482, 28.09375132686496], [95.88044983713608, 28.09377082093571], [95.88053839126019, 28.09378259630688], [95.88062783471639, 28.093786534109903], [95.88071727817258, 28.09378259630688]], [[95.90153864632188, 28.072982751719017], [95.90150592878094, 28.073056307523512], [95.90148167336993, 28.073132372732754], [95.90146612263408, 28.073210190383772], [95.9014594301852, 28.0732889876632], [95.90146166249869, 28.073367981455743], [95.90147279801494, 28.07344638627054], [95.90149272624119, 28.073523422959966], [95.90152124775146, 28.07359832664588], [95.90155808047476, 28.07367035226762], [95.90160285789841, 28.07373878330087], [95.90165513535636, 28.07380294126851], [95.90171439182576, 28.073862187325677], [95.90178003980841, 28.073915932563423], [95.90185142712741, 28.073963644349227], [95.90192784321539, 28.074004847119102], [95.90200852899588, 28.074039131096242], [95.9020926831717, 28.074066157046076], [95.90217946851298, 28.074085654690926], [95.90226802263706, 28.074097432220995], [95.90235746609326, 28.074101370746018], [95.90244690954945, 28.074097432220995], [95.90253546367356, 28.074085654690926], [95.90262224901483, 28.074066157046076], [95.90270640319065, 28.074039131096242], [95.90278708897117, 28.074004847119102], [95.90286350505913, 28.073963644349227], [95.9029348923781, 28.073915932563423], [95.90300054036075, 28.073862187325677], [95.90305979683016, 28.07380294126851], [95.90311207428812, 28.07373878330087], [95.90315685171177, 28.07367035226762], [95.90319368443505, 28.07359832664588], [95.90322220594534, 28.073523422959966], [95.90324213417158, 28.07344638627054], [95.90325326968785, 28.073367981455743], [95.90325550200131, 28.0732889876632], [95.90324880955247, 28.073210190383772], [95.90323325881658, 28.073132372732754], [95.90320900340559, 28.073056307523512], [95.90317628586465, 28.072982751719017], [95.90313542958718, 28.072912435334857], [95.90308684240843, 28.07284605747564], [95.90303100582531, 28.072784278408644], [95.90296847589502, 28.072727711636848], [95.9028998724551, 28.072676919143056], [95.90282587912343, 28.072632406633378], [95.90274723072199, 28.072594615610747], [95.90266470788673, 28.072563921789136], [95.90257913167784, 28.072540631130074], [95.90249135279983, 28.072524973501356], [95.90240224351692, 28.072517105847243], [95.90231268866961, 28.072517105847243], [95.9022235793867, 28.072524973501356], [95.90213580050872, 28.072540631130074], [95.90205022429978, 28.072563921789136], [95.90196770146453, 28.072594615610747], [95.90188905306307, 28.072632406633378], [95.90181505973146, 28.072676919143056], [95.90174645629153, 28.072727711636848], [95.90168392636123, 28.072784278408644], [95.90162808977811, 28.07284605747564], [95.90157950259933, 28.072912435334857], [95.90153864632188, 28.072982751719017]], [[95.94766660166384, 28.072529115790125], [95.9476777371801, 28.072607521217137], [95.94769766540638, 28.072684558508122], [95.94772618691663, 28.07275946277894], [95.94776301963991, 28.072831488963143], [95.94780779706356, 28.072899920530737], [95.94786007452151, 28.072964078999355], [95.94791933099093, 28.07302332551919], [95.94798497897358, 28.073077071176627], [95.94805636629258, 28.07312478333499], [95.94813278238054, 28.073165986426634], [95.94821346816104, 28.073200270671478], [95.94829762233685, 28.07322729683237], [95.94838440767813, 28.07324679462947], [95.94847296180221, 28.073258572251508], [95.94856240525841, 28.073262510807254], [95.94865184871465, 28.073258572251508], [95.94874040283871, 28.07324679462947], [95.94882718818002, 28.07322729683237], [95.9489113423558, 28.073200270671478], [95.94899202813633, 28.073165986426634], [95.94906844422428, 28.07312478333499], [95.94913983154326, 28.073077071176627], [95.94920547952592, 28.07302332551919], [95.94926473599531, 28.072964078999355], [95.9493170134533, 28.072899920530737], [95.94936179087696, 28.072831488963143], [95.9493986236002, 28.07275946277894], [95.94942714511049, 28.072684558508122], [95.94944707333676, 28.072607521217137], [95.94945820885302, 28.072529115790125], [95.94946044116651, 28.072450121380758], [95.94945374871763, 28.072371323486017], [95.94943819798175, 28.07229350522735], [95.94941394257074, 28.072217439424122], [95.9493812250298, 28.072143883045293], [95.94934036875237, 28.072073566112028], [95.94929178157359, 28.072007187734485], [95.94923594499048, 28.071945408185076], [95.94917341506019, 28.071888840971614], [95.94910481162024, 28.071838048081183], [95.94903081828859, 28.071793535223932], [95.94895216988714, 28.071755743906195], [95.94886964705188, 28.071725049844915], [95.94878407084299, 28.071701759004025], [95.94869629196502, 28.071686101253043], [95.94860718268207, 28.071678233537472], [95.94851762783476, 28.071678233537472], [95.94842851855185, 28.071686101253043], [95.94834073967387, 28.071701759004025], [95.94825516346495, 28.071725049844915], [95.94817264062968, 28.071755743906195], [95.94809399222824, 28.071793535223932], [95.94801999889663, 28.071838048081183], [95.94795139545668, 28.071888840971614], [95.94788886552638, 28.071945408185076], [95.94783302894326, 28.072007187734485], [95.9477844417645, 28.072073566112028], [95.94774358548707, 28.072143883045293], [95.94771086794609, 28.072217439424122], [95.94768661253512, 28.07229350522735], [95.94767106179923, 28.072371323486017], [95.94766436935036, 28.072450121380758], [95.94766660166384, 28.072529115790125]], [[95.89498066896503, 28.07249594101457], [95.89501750168832, 28.0724239146054], [95.89504602319856, 28.072349010100663], [95.89506595142484, 28.072271972569048], [95.8950770869411, 28.072193566897134], [95.89507931925458, 28.07211457224102], [95.89507262680571, 28.072035774100154], [95.89505707606986, 28.071957955598442], [95.89503282065886, 28.071881889557652], [95.89500010311787, 28.071808332949047], [95.89495924684044, 28.07173801579616], [95.89491065966168, 28.07167163721133], [95.89485482307856, 28.071609857468964], [95.89479229314826, 28.071553290078793], [95.89472368970833, 28.07150249702974], [95.8946496963767, 28.07145798403346], [95.89457104797526, 28.0714201925977], [95.89448852513999, 28.071389498440542], [95.89440294893107, 28.07136620752687], [95.89431517005309, 28.071350549726986], [95.89422606077018, 28.071342681986874], [95.89413650592287, 28.071342681986874], [95.89404739663993, 28.071350549726986], [95.89395961776195, 28.07136620752687], [95.89387404155306, 28.071389498440542], [95.8937915187178, 28.0714201925977], [95.89371287031635, 28.07145798403346], [95.8936388769847, 28.07150249702974], [95.89357027354475, 28.071553290078793], [95.89350774361448, 28.071609857468964], [95.89345190703135, 28.07167163721133], [95.89340331985261, 28.07173801579616], [95.89336246357516, 28.071808332949047], [95.8933297460342, 28.071881889557652], [95.8933054906232, 28.071957955598442], [95.89328993988732, 28.072035774100154], [95.89328324743845, 28.07211457224102], [95.89328547975192, 28.072193566897134], [95.89329661526821, 28.072271972569048], [95.89331654349445, 28.072349010100663], [95.89334506500474, 28.0724239146054], [95.89338189772802, 28.07249594101457], [95.89342667515169, 28.072564372795913], [95.89347895260963, 28.072628531464957], [95.89353820907904, 28.07268777816981], [95.89360385706169, 28.07274152399513], [95.89367524438066, 28.072789236302523], [95.89375166046861, 28.072830439522864], [95.89383234624916, 28.072864723874815], [95.89391650042494, 28.07289175012011], [95.89400328576622, 28.07291124797811], [95.89409183989032, 28.07292302563694], [95.89418128334653, 28.072926964204974], [95.89427072680273, 28.07292302563694], [95.8943592809268, 28.07291124797811], [95.89444606626809, 28.07289175012011], [95.89453022044391, 28.072864723874815], [95.89461090622441, 28.072830439522864], [95.89468732231236, 28.072789236302523], [95.89475870963138, 28.07274152399513], [95.89482435761403, 28.07268777816981], [95.89488361408343, 28.072628531464957], [95.89493589154138, 28.072564372795913], [95.89498066896503, 28.07249594101457]], [[95.96402030924037, 28.06967277954703], [95.96393253036236, 28.069688437591434], [95.96384695415347, 28.06971172886882], [95.96376443131821, 28.069742423505303], [95.96368578291676, 28.06978021553122], [95.9636117895851, 28.069824729222628], [95.9635431861452, 28.069875523064912], [95.96348065621488, 28.069932091338426], [95.96342481963178, 28.069993872045572], [95.96337623245302, 28.07006025166703], [95.96333537617555, 28.070130569917985], [95.9633026586346, 28.07020412767529], [95.9632784032236, 28.070280194903955], [95.96326285248772, 28.07035801462097], [95.96325616003888, 28.07043681399235], [95.96325839235234, 28.070515809882092], [95.96326952786862, 28.070594216778456], [95.96328945609486, 28.070671255513147], [95.96331797760514, 28.070746161187667], [95.96335481032843, 28.070818188721635], [95.96339958775208, 28.07088662157168], [95.96345186521003, 28.070950781242676], [95.96351112167945, 28.07101002887279], [95.96357676966208, 28.071063775537436], [95.96364815698111, 28.071111488589967], [95.96372457306906, 28.071152692453786], [95.96380525884955, 28.071186977341114], [95.96388941302537, 28.07121400400848], [95.96397619836664, 28.071233502170998], [95.96406475249074, 28.071245280013766], [95.96415419594693, 28.071249218643313], [95.96424363940314, 28.071245280013766], [95.96433219352721, 28.071233502170998], [95.9644189788685, 28.07121400400848], [95.96450313304432, 28.071186977341114], [95.9645838188248, 28.071152692453786], [95.96466023491277, 28.071111488589967], [95.96473162223178, 28.071063775537436], [95.96479727021443, 28.07101002887279], [95.96485652668383, 28.070950781242676], [95.96490880414179, 28.07088662157168], [95.96495358156544, 28.070818188721635], [95.96499041428874, 28.070746161187667], [95.96501893579901, 28.070671255513147], [95.96503886402526, 28.070594216778456], [95.9650499995415, 28.070515809882092], [95.965052231855, 28.07043681399235], [95.96504553940615, 28.07035801462097], [95.96502998867027, 28.070280194903955], [95.96500573325926, 28.07020412767529], [95.96497301571831, 28.070130569917985], [95.96493215944086, 28.07006025166703], [95.96488357226208, 28.069993872045572], [95.96482773567897, 28.069932091338426], [95.96476520574866, 28.069875523064912], [95.96469660230873, 28.069824729222628], [95.96462260897712, 28.06978021553122], [95.96454396057567, 28.069742423505303], [95.96446143774041, 28.06971172886882], [95.96437586153151, 28.069688437591434], [95.9642880826535, 28.06967277954703], [95.96419897337059, 28.069664911684043], [95.96410941852328, 28.069664911684043], [95.96402030924037, 28.06967277954703]], [[96.00039601461903, 28.06973949703637], [96.00043284734232, 28.06981152524521], [96.00047762476598, 28.069879958736458], [96.00052990222393, 28.069944119008586], [96.00058915869334, 28.070003367193838], [96.000654806676, 28.07005711436208], [96.00072619399496, 28.070104827861666], [96.00080261008291, 28.07014603211154], [96.00088329586345, 28.070180317320133], [96.00096745003924, 28.07020734424072], [96.00105423538052, 28.070226842585903], [96.0011427895046, 28.070238620539065], [96.00123223296083, 28.070242559205518], [96.00132167641702, 28.070238620539065], [96.0014102305411, 28.070226842585903], [96.00149701588239, 28.07020734424072], [96.00158117005822, 28.070180317320133], [96.00166185583872, 28.07014603211154], [96.00173827192667, 28.070104827861666], [96.00180965924568, 28.07005711436208], [96.00187530722833, 28.070003367193838], [96.00193456369773, 28.069944119008586], [96.00198684115568, 28.069879958736458], [96.00203161857934, 28.06981152524521], [96.00206845130262, 28.06973949703637], [96.00209697281286, 28.06966459066], [96.00211690103914, 28.0695875512035], [96.0021280365554, 28.069509143572493], [96.00213026886888, 28.06943014694261], [96.00212357642, 28.0693513468329], [96.00210802568412, 28.06927352638676], [96.00208377027316, 28.069197458445394], [96.00205105273217, 28.0691238999989], [96.00201019645475, 28.06905358108909], [96.00196160927597, 28.068987200845704], [96.00190577269285, 28.06892541955971], [96.00184324276256, 28.068868850756164], [96.00177463932263, 28.068818056438005], [96.00170064599101, 28.068773542329527], [96.00162199758957, 28.06873574994952], [96.0015394747543, 28.068705055025443], [96.00145389854538, 28.068681763529845], [96.0013661196674, 28.06866610533874], [96.00127701038448, 28.06865823740204], [96.00118745553718, 28.06865823740204], [96.00109834625424, 28.06866610533874], [96.00101056737626, 28.068681763529845], [96.00092499116735, 28.068705055025443], [96.0008424683321, 28.06873574994952], [96.00076381993065, 28.068773542329527], [96.000689826599, 28.068818056438005], [96.00062122315907, 28.068868850756164], [96.00055869322877, 28.06892541955971], [96.00050285664565, 28.068987200845704], [96.00045426946689, 28.06905358108909], [96.00041341318946, 28.0691238999989], [96.0003806956485, 28.069197458445394], [96.00035644023751, 28.06927352638676], [96.00034088950162, 28.0693513468329], [96.00033419705275, 28.06943014694261], [96.00033642936623, 28.069509143572493], [96.00034756488249, 28.0695875512035], [96.00036749310877, 28.06966459066], [96.00039601461903, 28.06973949703637]], [[95.86210324135628, 28.06682051066821], [95.86201546247827, 28.06683616912829], [95.86192988626937, 28.066859461023938], [95.86184736343411, 28.066890156475253], [95.86176871503267, 28.066927949504382], [95.86169472170104, 28.066972464377443], [95.86162611826111, 28.067023259568074], [95.86156358833082, 28.06707982934327], [95.86150775174771, 28.06714161169045], [95.86145916456891, 28.067207993073986], [95.86141830829146, 28.067278313191657], [95.86138559075052, 28.067351872901636], [95.86136133533952, 28.067427942149607], [95.86134578460363, 28.067505763932406], [95.8613390921548, 28.067584565395666], [95.86134132446828, 28.06766356338247], [95.86135245998453, 28.067741972360253], [95.86137238821078, 28.067819013140053], [95.86140090972104, 28.067893920803044], [95.86143774244434, 28.067965950249135], [95.86148251986799, 28.068034384915826], [95.86153479732594, 28.06809854629007], [95.86159405379534, 28.068157795493008], [95.861659701778, 28.06821154358449], [95.861731089097, 28.068259257903616], [95.86180750518497, 28.06830046286128], [95.86188819096546, 28.06833474865882], [95.86197234514128, 28.068361776043666], [95.86205913048258, 28.068381274723762], [95.86214768460664, 28.068393052879205], [95.86223712806284, 28.068396991613305], [95.86232657151905, 28.068393052879205], [95.86241512564315, 28.068381274723762], [95.8625019109844, 28.068361776043666], [95.86258606516023, 28.06833474865882], [95.86266675094072, 28.06830046286128], [95.86274316702868, 28.068259257903616], [95.8628145543477, 28.06821154358449], [95.86288020233035, 28.068157795493008], [95.86293945879974, 28.06809854629007], [95.8629917362577, 28.068034384915826], [95.86303651368135, 28.067965950249135], [95.86307334640463, 28.067893920803044], [95.8631018679149, 28.067819013140053], [95.86312179614116, 28.067741972360253], [95.86313293165745, 28.06766356338247], [95.8631351639709, 28.067584565395666], [95.86312847152206, 28.067505763932406], [95.86311292078616, 28.067427942149607], [95.86308866537519, 28.067351872901636], [95.86305594783423, 28.067278313191657], [95.86301509155676, 28.067207993073986], [95.86296650437798, 28.06714161169045], [95.8629106677949, 28.06707982934327], [95.86284813786459, 28.067023259568074], [95.86277953442467, 28.066972464377443], [95.86270554109302, 28.066927949504382], [95.86262689269158, 28.066890156475253], [95.86254436985632, 28.066859461023938], [95.86245879364742, 28.06683616912829], [95.86237101476942, 28.06682051066821], [95.8622819054865, 28.06681264259638], [95.86219235063919, 28.06681264259638], [95.86210324135628, 28.06682051066821]], [[95.90071222320996, 28.063882932416362], [95.90073215143622, 28.063959975962863], [95.90076067294649, 28.06403488631597], [95.90079750566979, 28.064106918348802], [95.90084228309344, 28.064175355473186], [95.9008945605514, 28.064239519151588], [95.90095381702079, 28.064298770482356], [95.90101946500344, 28.064352520504052], [95.90109085232244, 28.064400236536734], [95.9011672684104, 28.06444144297417], [95.90124795419091, 28.064475730002993], [95.90133210836673, 28.06450275835847], [95.90141889370801, 28.064522257738833], [95.90150744783209, 28.064534036317266], [95.90159689128829, 28.06453797519282], [95.90168633474448, 28.064534036317266], [95.90177488886859, 28.064522257738833], [95.90186167420985, 28.06450275835847], [95.90194582838566, 28.064475730002993], [95.90202651416617, 28.06444144297417], [95.90210293025412, 28.064400236536734], [95.90217431757313, 28.064352520504052], [95.90223996555578, 28.064298770482356], [95.90229922202519, 28.064239519151588], [95.90235149948313, 28.064175355473186], [95.9023962769068, 28.064106918348802], [95.90243310963008, 28.06403488631597], [95.90246163114037, 28.063959975962863], [95.90248155936659, 28.063882932416362], [95.90249269488288, 28.063804520622746], [95.90249492719634, 28.063725519798975], [95.9024882347475, 28.063646715505797], [95.90247268401161, 28.06356889092827], [95.90244842860062, 28.063492818948532], [95.90241571105966, 28.0634192565969], [95.90237485478221, 28.063348933953918], [95.90232626760343, 28.063282550186532], [95.90227043102034, 28.063220765620674], [95.90220790109002, 28.06316419381397], [95.90213929765012, 28.063113396799224], [95.90206530431846, 28.06306888032758], [95.90198665591701, 28.063031085941258], [95.90190413308176, 28.06300038938764], [95.90181855687287, 28.062977096655544], [95.90173077799486, 28.062961437633167], [95.90164166871195, 28.062953569278786], [95.90155211386464, 28.062953569278786], [95.90146300458173, 28.062961437633167], [95.90137522570372, 28.062977096655544], [95.90128964949481, 28.06300038938764], [95.90120712665956, 28.063031085941258], [95.9011284782581, 28.06306888032758], [95.90105448492649, 28.063113396799224], [95.90098588148656, 28.06316419381397], [95.90092335155626, 28.063220765620674], [95.90086751497314, 28.063282550186532], [95.90081892779436, 28.063348933953918], [95.90077807151691, 28.0634192565969], [95.90074535397596, 28.063492818948532], [95.90072109856496, 28.06356889092827], [95.90070554782908, 28.063646715505797], [95.90069885538023, 28.063725519798975], [95.90070108769372, 28.063804520622746], [95.90071222320996, 28.063882932416362]], [[95.97989555074037, 28.06299640527177], [95.97983302081008, 28.063052977166766], [95.97977718422696, 28.063114761829098], [95.97972859704818, 28.063181145700145], [95.97968774077071, 28.063251468452922], [95.97965502322977, 28.06332503091936], [95.97963076781878, 28.06340110301787], [95.97961521708288, 28.063478927716933], [95.97960852463405, 28.063557732133134], [95.97961075694752, 28.063636733080244], [95.97962189246378, 28.063715144996262], [95.97964182069002, 28.06379218866305], [95.97967034220031, 28.063867099133137], [95.97970717492359, 28.06393913127844], [95.97975195234724, 28.064007568509634], [95.9798042298052, 28.064071732288227], [95.9798634862746, 28.064130983711486], [95.97992913425725, 28.064184733817132], [95.98000052157626, 28.06423244992432], [95.98007693766422, 28.064273656426092], [95.98015762344471, 28.06430794350842], [95.98024177762053, 28.064334971906124], [95.98032856296183, 28.064354471316932], [95.9804171170859, 28.06436624991376], [95.9805065605421, 28.06437018879546], [95.9805960039983, 28.06436624991376], [95.9806845581224, 28.064354471316932], [95.98077134346366, 28.064334971906124], [95.98085549763948, 28.06430794350842], [95.98093618341997, 28.064273656426092], [95.98101259950793, 28.06423244992432], [95.98108398682693, 28.064184733817132], [95.98114963480958, 28.064130983711486], [95.981208891279, 28.064071732288227], [95.98126116873695, 28.064007568509634], [95.9813059461606, 28.06393913127844], [95.9813427788839, 28.063867099133137], [95.98137130039417, 28.06379218866305], [95.98139122862042, 28.063715144996262], [95.9814023641367, 28.063636733080244], [95.98140459645016, 28.063557732133134], [95.98139790400131, 28.063478927716933], [95.98138235326542, 28.06340110301787], [95.98135809785443, 28.06332503091936], [95.98132538031346, 28.063251468452922], [95.98128452403603, 28.063181145700145], [95.98123593685725, 28.063114761829098], [95.98118010027416, 28.063052977166766], [95.98111757034383, 28.06299640527177], [95.98104896690393, 28.062945608177703], [95.98097497357227, 28.062901091636544], [95.98089632517083, 28.062863297191214], [95.98081380233558, 28.062832600589672], [95.98072822612667, 28.06280930782123], [95.98064044724866, 28.062793648774413], [95.98055133796575, 28.06278578040772], [95.98046178311844, 28.06278578040772], [95.98037267383553, 28.062793648774413], [95.98028489495752, 28.06280930782123], [95.98019931874863, 28.062832600589672], [95.98011679591337, 28.062863297191214], [95.98003814751192, 28.062901091636544], [95.97996415418031, 28.062945608177703], [95.97989555074037, 28.06299640527177]], [[95.89543736437064, 28.06289773771499], [95.89541310895964, 28.06282166526018], [95.8953803914187, 28.062748102449163], [95.89533953514128, 28.06267777936702], [95.8952909479625, 28.06261139518508], [95.89523511137938, 28.062549610233333], [95.89517258144907, 28.062493038073384], [95.89510397800915, 28.062442240741422], [95.89502998467749, 28.062397723991772], [95.89495133627605, 28.062359929369425], [95.89486881344078, 28.062329232624112], [95.89478323723189, 28.06230593974656], [95.89469545835391, 28.06229028062639], [95.89460634907095, 28.062282412222874], [95.89451679422366, 28.062282412222874], [95.89442768494075, 28.06229028062639], [95.89433990606277, 28.06230593974656], [95.89425432985384, 28.062329232624112], [95.89417180701858, 28.062359929369425], [95.89409315861714, 28.062397723991772], [95.89401916528551, 28.062442240741422], [95.89395056184559, 28.062493038073384], [95.89388803191528, 28.062549610233333], [95.89383219533217, 28.06261139518508], [95.89378360815338, 28.06267777936702], [95.89374275187596, 28.062748102449163], [95.89371003433497, 28.06282166526018], [95.89368577892401, 28.06289773771499], [95.89367022818813, 28.062975562778533], [95.89366353573925, 28.063054367563815], [95.89366576805276, 28.063133368880955], [95.893676903569, 28.063211781164263], [95.89369683179527, 28.06328882519192], [95.89372535330556, 28.063363736012832], [95.8937621860288, 28.063435768495513], [95.89380696345246, 28.06350420604726], [95.89385924091042, 28.06356837012641], [95.89391849737981, 28.063627621827166], [95.89398414536247, 28.06368137218456], [95.89405553268148, 28.06372908851524], [95.89413194876944, 28.06377029521002], [95.89421263454993, 28.06380458245298], [95.89429678872575, 28.063831610977246], [95.89438357406705, 28.063851110479387], [95.89447212819111, 28.06386288913138], [95.89456157164732, 28.06386682803154], [95.89465101510355, 28.06386288913138], [95.89473956922762, 28.063851110479387], [95.8948263545689, 28.063831610977246], [95.89491050874473, 28.06380458245298], [95.89499119452522, 28.06377029521002], [95.89506761061318, 28.06372908851524], [95.89513899793218, 28.06368137218456], [95.89520464591482, 28.063627621827166], [95.89526390238422, 28.06356837012641], [95.8953161798422, 28.06350420604726], [95.89536095726585, 28.063435768495513], [95.8953977899891, 28.063363736012832], [95.89542631149938, 28.06328882519192], [95.89544623972567, 28.063211781164263], [95.89545737524192, 28.063133368880955], [95.89545960755541, 28.063054367563815], [95.89545291510653, 28.062975562778533], [95.89543736437064, 28.06289773771499]], [[95.93454802297117, 28.06010898982362], [95.93446024409319, 28.060124649261578], [95.93437466788426, 28.060147942611863], [95.93429214504899, 28.060178639980172], [95.93421349664759, 28.060216435369565], [95.93413950331592, 28.060260953022684], [95.934070899876, 28.060311751385566], [95.9340083699457, 28.060368324693695], [95.93395253336259, 28.060430110899333], [95.9339039461838, 28.060496496428595], [95.93386308990638, 28.060566820937925], [95.9338303723654, 28.06064038524192], [95.93380611695444, 28.060716459240652], [95.93379056621855, 28.060794285883706], [95.93378387376967, 28.060873092268352], [95.93378610608316, 28.06095209518887], [95.93379724159941, 28.06103050906359], [95.93381716982569, 28.061107554654882], [95.93384569133596, 28.06118246699619], [95.93388252405923, 28.061254500940805], [95.93392730148287, 28.061322939881563], [95.93397957894082, 28.06138710526295], [95.93403883541023, 28.061446358166297], [95.93410448339289, 28.061500109614574], [95.93417587071188, 28.061547826913717], [95.93425228679985, 28.06158903444483], [95.93433297258035, 28.061623322383646], [95.93441712675617, 28.06165035145649], [95.93450391209745, 28.06166985135438], [95.93459246622153, 28.061681630245463], [95.93468190967774, 28.061685569225556], [95.93477135313395, 28.061681630245463], [95.93485990725803, 28.06166985135438], [95.93494669259931, 28.06165035145649], [95.93503084677515, 28.061623322383646], [95.93511153255564, 28.06158903444483], [95.9351879486436, 28.061547826913717], [95.93525933596261, 28.061500109614574], [95.93532498394522, 28.061446358166297], [95.93538424041463, 28.06138710526295], [95.93543651787262, 28.061322939881563], [95.93548129529626, 28.061254500940805], [95.93551812801952, 28.06118246699619], [95.93554664952981, 28.061107554654882], [95.93556657775608, 28.06103050906359], [95.93557771327232, 28.06095209518887], [95.93557994558581, 28.060873092268352], [95.93557325313694, 28.060794285883706], [95.93555770240104, 28.060716459240652], [95.93553344699006, 28.06064038524192], [95.9355007294491, 28.060566820937925], [95.93545987317168, 28.060496496428595], [95.9354112859929, 28.060430110899333], [95.93535544940978, 28.060368324693695], [95.9352929194795, 28.060311751385566], [95.93522431603957, 28.060260953022684], [95.9351503227079, 28.060216435369565], [95.9350716743065, 28.060178639980172], [95.93498915147124, 28.060147942611863], [95.9349035752623, 28.060124649261578], [95.93481579638431, 28.06010898982362], [95.93472668710137, 28.060101121260406], [95.93463713225408, 28.060101121260406], [95.93454802297117, 28.06010898982362]], [[96.0098449601047, 28.05775985882905], [96.00975718122673, 28.057775518609215], [96.0096716050178, 28.057798812468565], [96.00958908218254, 28.05782951050774], [96.00951043378113, 28.057867306723136], [96.00943644044948, 28.057911825349162], [96.00936783700953, 28.057962624822274], [96.00930530707926, 28.058019199366747], [96.00924947049613, 28.05808098692272], [96.00920088331736, 28.058147373902813], [96.00916002703994, 28.05821769994909], [96.00912730949898, 28.058291265860806], [96.00910305408799, 28.058367341522114], [96.0090875033521, 28.05844516986608], [96.00908081090323, 28.05852397797303], [96.0090830432167, 28.058602982620183], [96.00909417873297, 28.058681398208623], [96.00911410695923, 28.058758445483765], [96.0091426284695, 28.058833359462295], [96.00917946119277, 28.05890539498126], [96.00922423861643, 28.058973835417746], [96.00927651607441, 28.05903800220149], [96.00933577254382, 28.05909725639983], [96.00940142052643, 28.059151009022877], [96.00947280784544, 28.05919872736491], [96.00954922393339, 28.05923993579663], [96.0096299097139, 28.059274224484835], [96.00971406388972, 28.059301254148412], [96.009800849231, 28.059320754472523], [96.00988940335507, 28.059332533621], [96.00997884681131, 28.059336472687196], [96.0100682902675, 28.059332533621], [96.01015684439159, 28.059320754472523], [96.01024362973287, 28.059301254148412], [96.01032778390869, 28.059274224484835], [96.0104084696892, 28.05923993579663], [96.01048488577715, 28.05919872736491], [96.01055627309616, 28.059151009022877], [96.01062192107881, 28.05909725639983], [96.01068117754821, 28.05903800220149], [96.01073345500616, 28.058973835417746], [96.01077823242981, 28.05890539498126], [96.01081506515307, 28.058833359462295], [96.01084358666334, 28.058758445483765], [96.01086351488962, 28.058681398208623], [96.01087465040588, 28.058602982620183], [96.01087688271936, 28.05852397797303], [96.01087019027048, 28.05844516986608], [96.0108546395346, 28.058367341522114], [96.01083038412364, 28.058291265860806], [96.01079766658265, 28.05821769994909], [96.01075681030522, 28.058147373902813], [96.01070822312646, 28.05808098692272], [96.01065238654333, 28.058019199366747], [96.01058985661304, 28.057962624822274], [96.0105212531731, 28.057911825349162], [96.01044725984148, 28.057867306723136], [96.01036861144003, 28.05782951050774], [96.01028608860477, 28.057798812468565], [96.01020051239585, 28.057775518609215], [96.01011273351787, 28.05775985882905], [96.01002362423496, 28.057751990093845], [96.00993406938765, 28.057751990093845], [96.0098449601047, 28.05775985882905]], [[95.98721784977525, 28.05423606568464], [95.98713007089727, 28.054251725978133], [95.98704449468835, 28.054275020601004], [95.98696197185308, 28.054305719646422], [95.98688332345164, 28.054343517100733], [95.98680933012001, 28.054388037186047], [95.98674072668008, 28.054438838324295], [95.98667819674979, 28.054495414723235], [95.98662236016666, 28.054557204304533], [95.9865737729879, 28.054623593460736], [95.98653291671047, 28.054693921812266], [95.98650019916948, 28.0547674901354], [95.98647594375852, 28.05484356829043], [95.98646039302264, 28.05492139918557], [95.98645370057376, 28.055000209875832], [95.98645593288724, 28.055079217112695], [95.9864670684035, 28.055157635271584], [95.98648699662978, 28.055234685072314], [95.98651551814002, 28.055309601506526], [95.9865523508633, 28.05538163938681], [95.98659712828696, 28.055450082066766], [95.98664940574491, 28.0555142509539], [95.98670866221431, 28.05557350709462], [95.98677431019696, 28.055627261479707], [95.98684569751597, 28.055674981385938], [95.98692211360392, 28.05571619116848], [95.98700279938443, 28.055750480980677], [95.98708695356025, 28.05577751153033], [95.98717373890153, 28.055797012493645], [95.98726229302562, 28.05580879202825], [95.98735173648181, 28.05581273122357], [95.98744117993805, 28.05580879202825], [95.98752973406212, 28.055797012493645], [95.9876165194034, 28.05577751153033], [95.98770067357918, 28.055750480980677], [95.98778135935973, 28.05571619116848], [95.98785777544768, 28.055674981385938], [95.98792916276665, 28.055627261479707], [95.9879948107493, 28.05557350709462], [95.98805406721871, 28.0555142509539], [95.98810634467665, 28.055450082066766], [95.98815112210032, 28.05538163938681], [95.98818795482362, 28.055309601506526], [95.98821647633389, 28.055234685072314], [95.98823640456015, 28.055157635271584], [95.98824754007642, 28.055079217112695], [95.98824977238989, 28.055000209875832], [95.98824307994103, 28.05492139918557], [95.98822752920513, 28.05484356829043], [95.98820327379414, 28.0547674901354], [95.98817055625318, 28.054693921812266], [95.98812969997576, 28.054623593460736], [95.98808111279699, 28.054557204304533], [95.98802527621388, 28.054495414723235], [95.98796274628359, 28.054438838324295], [95.98789414284364, 28.054388037186047], [95.98782014951199, 28.054343517100733], [95.98774150111055, 28.054305719646422], [95.98765897827529, 28.054275020601004], [95.98757340206639, 28.054251725978133], [95.9874856231884, 28.05423606568464], [95.98739651390547, 28.054228196691493], [95.98730695905816, 28.054228196691493], [95.98721784977525, 28.05423606568464]], [[95.87351186882078, 28.04953749569062], [95.8734240899428, 28.04955315666845], [95.87333851373388, 28.049576452309314], [95.87325599089863, 28.049607152696264], [95.87317734249717, 28.049644951802314], [95.87310334916556, 28.049689473833123], [95.87303474572562, 28.049740277191333], [95.87297221579533, 28.04979685606267], [95.87291637921221, 28.04985864834416], [95.87286779203343, 28.049925040401536], [95.87282693575601, 28.049995371826412], [95.87279421821502, 28.050068943364515], [95.87276996280406, 28.050145024844177], [95.87275441206818, 28.05022285914051], [95.8727477196193, 28.050301673274856], [95.87274995193279, 28.050380683964377], [95.87276108744904, 28.0504591055502], [95.87278101567532, 28.050536158718067], [95.87280953718556, 28.05061107842615], [95.87284636990884, 28.05068311945456], [95.8728911473325, 28.050751565125577], [95.87294342479045, 28.05081573681697], [95.87300268125985, 28.050874995547247], [95.8730683292425, 28.050928752281436], [95.87313971656151, 28.050976474273096], [95.87321613264947, 28.051017685856564], [95.87329681842996, 28.051051977167315], [95.87338097260579, 28.051079008898203], [95.87346775794708, 28.051098510713754], [95.87355631207116, 28.051110290763138], [95.87364575552735, 28.0511142301306], [95.8737351989836, 28.051110290763138], [95.87382375310766, 28.051098510713754], [95.87391053844894, 28.051079008898203], [95.87399469262475, 28.051051977167315], [95.87407537840527, 28.051017685856564], [95.87415179449323, 28.050976474273096], [95.8742231818122, 28.050928752281436], [95.87428882979485, 28.050874995547247], [95.87434808626426, 28.05081573681697], [95.87440036372222, 28.050751565125577], [95.87444514114586, 28.05068311945456], [95.87448197386915, 28.05061107842615], [95.87451049537943, 28.050536158718067], [95.8745304236057, 28.0504591055502], [95.87454155912195, 28.050380683964377], [95.87454379143544, 28.050301673274856], [95.87453709898656, 28.05022285914051], [95.87452154825067, 28.050145024844177], [95.87449729283968, 28.050068943364515], [95.87446457529873, 28.049995371826412], [95.87442371902128, 28.049925040401536], [95.87437513184253, 28.04985864834416], [95.87431929525941, 28.04979685606267], [95.87425676532912, 28.049740277191333], [95.8741881618892, 28.049689473833123], [95.87411416855753, 28.049644951802314], [95.87403552015608, 28.049607152696264], [95.87395299732083, 28.049576452309314], [95.87386742111192, 28.04955315666845], [95.87377964223396, 28.04953749569062], [95.873690532951, 28.049529626353635], [95.87360097810371, 28.049529626353635], [95.87351186882078, 28.04953749569062]], [[95.96606160046781, 28.049576903412564], [95.96611387792576, 28.049641075804963], [95.96617313439518, 28.049700335182585], [95.96623878237783, 28.04975409250406], [95.9663101696968, 28.049801815017034], [95.96638658578476, 28.049843027050706], [95.96646727156528, 28.049877318736062], [95.96655142574109, 28.049904350762258], [95.96663821108237, 28.04992385279083], [95.96672676520643, 28.04993563296891], [95.96681620866266, 28.0499395723794], [95.96690565211887, 28.04993563296891], [95.96699420624294, 28.04992385279083], [95.96708099158423, 28.049904350762258], [95.96716514576006, 28.049877318736062], [95.96724583154054, 28.049843027050706], [95.96732224762852, 28.049801815017034], [95.96739363494753, 28.04975409250406], [95.96745928293018, 28.049700335182585], [95.96751853939958, 28.049641075804963], [95.96757081685753, 28.049576903412564], [95.96761559428117, 28.049508456993877], [95.96765242700447, 28.049436415178494], [95.96768094851471, 28.04936149465198], [95.96770087674099, 28.049284440642396], [95.96771201225724, 28.049206018199886], [95.96771424457073, 28.049127006647264], [95.96770755212185, 28.049048191651966], [95.96769200138596, 28.048970356505382], [95.96766774597499, 28.048894274194616], [95.96763502843402, 28.048820701852836], [95.9675941721566, 28.04875036965968], [95.96754558497781, 28.04868397687706], [95.9674897483947, 28.04862218392053], [95.9674272184644, 28.04856560443117], [95.96735861502447, 28.048514800517967], [95.96728462169285, 28.048470278000824], [95.9672059732914, 28.04843247848189], [95.96712345045614, 28.048401777759583], [95.96703787424721, 28.04837848186426], [95.96695009536923, 28.048362820715326], [95.96686098608632, 28.04835495129237], [95.96677143123902, 28.04835495129237], [95.96668232195607, 28.048362820715326], [95.9665945430781, 28.04837848186426], [95.9665089668692, 28.048401777759583], [95.96642644403394, 28.04843247848189], [95.9663477956325, 28.048470278000824], [95.96627380230083, 28.048514800517967], [95.9662051988609, 28.04856560443117], [95.96614266893062, 28.04862218392053], [95.9660868323475, 28.04868397687706], [95.9660382451687, 28.04875036965968], [95.96599738889128, 28.048820701852836], [95.96596467135033, 28.048894274194616], [95.96594041593936, 28.048970356505382], [95.96592486520346, 28.049048191651966], [95.96591817275458, 28.049127006647264], [95.96592040506808, 28.049206018199886], [95.96593154058432, 28.049284440642396], [95.9659514688106, 28.04936149465198], [95.96597999032088, 28.049436415178494], [95.96601682304416, 28.049508456993877], [95.96606160046781, 28.049576903412564]], [[95.89347696553622, 28.04148232538188], [95.89338918665824, 28.041497987532715], [95.89330361044931, 28.041521284918346], [95.89322108761405, 28.04155198760472], [95.89314243921261, 28.041589789541884], [95.89306844588098, 28.041634314907352], [95.89299984244106, 28.041685122070728], [95.89293731251075, 28.04174170517976], [95.89288147592764, 28.041803502089465], [95.89283288874886, 28.0418698991196], [95.89279203247143, 28.041940235812277], [95.89275931493046, 28.042013812860855], [95.8927350595195, 28.042089900039027], [95.8927195087836, 28.042167740165205], [95.89271281633472, 28.042246560202763], [95.89271504864821, 28.04232557681024], [95.89272618416446, 28.042404004269894], [95.89274611239074, 28.04248106320912], [95.89277463390098, 28.042555988528836], [95.89281146662428, 28.04262803495321], [95.89285624404792, 28.042696485750884], [95.89290852150587, 28.042760662248845], [95.89296777797529, 28.042819925417714], [95.89303342595794, 28.042873686178435], [95.89310481327695, 28.04292141174457], [95.89318122936491, 28.042962626414894], [95.89326191514539, 28.042996920294108], [95.89334606932123, 28.043023954049772], [95.8934328546625, 28.04304345732605], [95.89352140878658, 28.0430552382578], [95.89361085224279, 28.043059177920327], [95.89370029569902, 28.0430552382578], [95.89378884982308, 28.04304345732605], [95.89387563516436, 28.043023954049772], [95.89395978934017, 28.042996920294108], [95.89404047512069, 28.042962626414894], [95.89411689120865, 28.04292141174457], [95.89418827852764, 28.042873686178435], [95.89425392651029, 28.042819925417714], [95.89431318297969, 28.042760662248845], [95.89436546043764, 28.042696485750884], [95.8944102378613, 28.04262803495321], [95.89444707058458, 28.042555988528836], [95.89447559209485, 28.04248106320912], [95.89449552032113, 28.042404004269894], [95.89450665583738, 28.04232557681024], [95.89450888815088, 28.042246560202763], [95.894502195702, 28.042167740165205], [95.89448664496611, 28.042089900039027], [95.89446238955512, 28.042013812860855], [95.89442967201417, 28.041940235812277], [95.89438881573675, 28.0418698991196], [95.89434022855797, 28.041803502089465], [95.89428439197485, 28.04174170517976], [95.89422186204455, 28.041685122070728], [95.89415325860462, 28.041634314907352], [95.89407926527296, 28.041589789541884], [95.89400061687151, 28.04155198760472], [95.89391809403625, 28.041521284918346], [95.89383251782735, 28.041497987532715], [95.89374473894938, 28.04148232538188], [95.89365562966643, 28.041474455455468], [95.89356607481913, 28.041474455455468], [95.89347696553622, 28.04148232538188]], [[95.98759813807607, 28.039468438741814], [95.98751035919805, 28.039484101185867], [95.98742478298915, 28.039507399007693], [95.9873422601539, 28.039538102268843], [95.98726361175245, 28.039575904913693], [95.9871896184208, 28.03962043111271], [95.98712101498087, 28.039671239227246], [95.98705848505057, 28.039727823395584], [95.98700264846745, 28.039789621462194], [95.9869540612887, 28.03985601973538], [95.98691320501125, 28.039926357744847], [95.98688048747029, 28.039999936170922], [95.98685623205931, 28.040076024773562], [95.98684068132341, 28.04015386635698], [95.98683398887458, 28.040232687870176], [95.98683622118803, 28.040311705956967], [95.98684735670432, 28.040390134884934], [95.98686728493057, 28.040467195266835], [95.98689580644083, 28.040542121989237], [95.98693263916412, 28.04061416976246], [95.98697741658778, 28.040682621841654], [95.98702969404573, 28.040746799541125], [95.98708895051513, 28.040806063819502], [95.98715459849778, 28.04085982558673], [95.98722598581675, 28.04090755204638], [95.98730240190471, 28.04094876748832], [95.98738308768525, 28.040983062009612], [95.98746724186107, 28.041010096271368], [95.98755402720232, 28.041029599912797], [95.98764258132643, 28.04104138106511], [95.98773202478263, 28.041045320801388], [95.98782146823883, 28.04104138106511], [95.9879100223629, 28.041029599912797], [95.98799680770419, 28.041010096271368], [95.98808096188002, 28.040983062009612], [95.9881616476605, 28.04094876748832], [95.98823806374847, 28.04090755204638], [95.98830945106748, 28.04085982558673], [95.98837509905013, 28.040806063819502], [95.98843435551953, 28.040746799541125], [95.98848663297748, 28.040682621841654], [95.98853141040114, 28.04061416976246], [95.98856824312442, 28.040542121989237], [95.98859676463468, 28.040467195266835], [95.98861669286094, 28.040390134884934], [95.98862782837719, 28.040311705956967], [95.98863006069068, 28.040232687870176], [95.9886233682418, 28.04015386635698], [95.98860781750595, 28.040076024773562], [95.98858356209496, 28.039999936170922], [95.98855084455401, 28.039926357744847], [95.98850998827655, 28.03985601973538], [95.98846140109777, 28.039789621462194], [95.98840556451465, 28.039727823395584], [95.98834303458436, 28.039671239227246], [95.98827443114443, 28.03962043111271], [95.98820043781281, 28.039575904913693], [95.98812178941137, 28.039538102268843], [95.98803926657611, 28.039507399007693], [95.98795369036718, 28.039484101185867], [95.9878659114892, 28.039468438741814], [95.98777680220628, 28.039460568668076], [95.98768724735898, 28.039460568668076], [95.98759813807607, 28.039468438741814]], [[95.91477306905867, 28.03695102762335], [95.91468529018069, 28.036966690433893], [95.91459971397175, 28.03698998880085], [95.9145171911365, 28.037020692780466], [95.91443854273504, 28.03705849630988], [95.91436454940343, 28.037103023550817], [95.9142959459635, 28.037153832854262], [95.9142334160332, 28.03721041834665], [95.91417757945008, 28.037272217859346], [95.9141289922713, 28.03733861768623], [95.91408813599388, 28.037408957341608], [95.9140554184529, 28.037482537489396], [95.91403116304194, 28.037558627872496], [95.91401561230604, 28.03763647127747], [95.91400891985717, 28.037715294635095], [95.91401115217066, 28.03779431457093], [95.9140222876869, 28.03787274533414], [95.91404221591318, 28.03794980751928], [95.91407073742347, 28.03802473599503], [95.91410757014673, 28.0380967854542], [95.91415234757037, 28.038165239135214], [95.91420462502832, 28.03822941833648], [95.91426388149773, 28.03828868400169], [95.91432952948038, 28.038342447026967], [95.9144009167994, 28.03839017460345], [95.91447733288736, 28.038431391009865], [95.91455801866783, 28.03846568633366], [95.91464217284367, 28.038492721228064], [95.91472895818495, 28.038512225325892], [95.91481751230903, 28.038524006753885], [95.91490695576523, 28.038527946582374], [95.91499639922147, 28.038524006753885], [95.91508495334553, 28.038512225325892], [95.91517173868681, 28.038492721228064], [95.91525589286265, 28.03846568633366], [95.91533657864314, 28.038431391009865], [95.9154129947311, 28.03839017460345], [95.9154843820501, 28.038342447026967], [95.91555003003273, 28.03828868400169], [95.91560928650213, 28.03822941833648], [95.91566156396011, 28.038165239135214], [95.91570634138375, 28.0380967854542], [95.91574317410702, 28.03802473599503], [95.91577169561731, 28.03794980751928], [95.91579162384357, 28.03787274533414], [95.91580275935982, 28.03779431457093], [95.91580499167333, 28.037715294635095], [95.91579829922445, 28.03763647127747], [95.91578274848855, 28.037558627872496], [95.91575849307756, 28.037482537489396], [95.91572577553661, 28.037408957341608], [95.91568491925919, 28.03733861768623], [95.91563633208041, 28.037272217859346], [95.91558049549728, 28.03721041834665], [95.91551796556699, 28.037153832854262], [95.91544936212706, 28.037103023550817], [95.91537536879541, 28.03705849630988], [95.915296720394, 28.037020692780466], [95.91521419755874, 28.03698998880085], [95.9151286213498, 28.036966690433893], [95.91504084247183, 28.03695102762335], [95.91495173318887, 28.036943157365446], [95.91486217834158, 28.036943157365446], [95.91477306905867, 28.03695102762335]], [[95.93968190470137, 28.01647389406453], [95.9395941258234, 28.0164895598551], [95.93950854961446, 28.016512862654874], [95.9394260267792, 28.016543572476238], [95.93934737837779, 28.016581383198258], [95.93927338504614, 28.01662591891101], [95.93920478160621, 28.01667673788156], [95.9391422516759, 28.016733334140064], [95.93908641509279, 28.016795145410924], [95.939037827914, 28.01686155787128], [95.93899697163658, 28.016931910909754], [95.93896425409561, 28.017005505057252], [95.93893999868465, 28.017081609917703], [95.93892444794875, 28.017159468133528], [95.93891775549987, 28.017238306488547], [95.93891998781338, 28.017317341459226], [95.93893112332962, 28.017395787145205], [95.9389510515559, 28.017472863992758], [95.93897957306618, 28.017547806724995], [95.93901640578943, 28.017619869892886], [95.93906118321308, 28.01768833659849], [95.93911346067105, 28.017752528011062], [95.93917271714045, 28.017811804952725], [95.9392383651231, 28.017865578207495], [95.9393097524421, 28.017913314865122], [95.93938616853006, 28.01795453911379], [95.93946685431057, 28.01798884096298], [95.93955100848639, 28.018015881001332], [95.93963779382767, 28.01803538881022], [95.93972634795173, 28.01804717247989], [95.93981579140794, 28.018051113057997], [95.93990523486417, 28.01804717247989], [95.93999378898825, 28.01803538881022], [95.94008057432954, 28.018015881001332], [95.94016472850537, 28.01798884096298], [95.94024541428584, 28.01795453911379], [95.9403218303738, 28.017913314865122], [95.94039321769282, 28.017865578207495], [95.94045886567544, 28.017811804952725], [95.94051812214484, 28.017752528011062], [95.94057039960283, 28.01768833659849], [95.94061517702647, 28.017619869892886], [95.94065200974973, 28.017547806724995], [95.94068053126001, 28.017472863992758], [95.9407004594863, 28.017395787145205], [95.94071159500254, 28.017317341459226], [95.94071382731603, 28.017238306488547], [95.94070713486715, 28.017159468133528], [95.94069158413127, 28.017081609917703], [95.94066732872027, 28.017005505057252], [95.94063461117932, 28.016931910909754], [95.9405937549019, 28.01686155787128], [95.94054516772312, 28.016795145410924], [95.94048933114, 28.016733334140064], [95.9404268012097, 28.01667673788156], [95.94035819776977, 28.01662591891101], [95.94028420443811, 28.016581383198258], [95.9402055560367, 28.016543572476238], [95.94012303320144, 28.016512862654874], [95.94003745699251, 28.0164895598551], [95.93994967811453, 28.01647389406453], [95.93986056883159, 28.01646602230923], [95.93977101398428, 28.01646602230923], [95.93968190470137, 28.01647389406453]], [[95.91686465067065, 27.974164535036397], [95.91677687179266, 27.974180206977856], [95.91669129558377, 27.97420351892711], [95.91660877274852, 27.974234240806247], [95.91653012434708, 27.974272066374052], [95.91645613101542, 27.974316619573155], [95.91638752757548, 27.974367458497053], [95.91632499764519, 27.97442407697735], [95.91626916106208, 27.97448591251764], [95.9162205738833, 27.97455235105408], [95.91617971760587, 27.97462273171594], [95.91614700006491, 27.974696354759434], [95.91612274465392, 27.974772489501785], [95.91610719391804, 27.97485037828808], [95.91610050146916, 27.97492924759842], [95.91610273378265, 27.97500831360172], [95.9161138692989, 27.97508679008907], [95.91613379752518, 27.97516389720057], [95.91616231903546, 27.97523886935886], [95.9161991517587, 27.975310960822192], [95.91624392918236, 27.97537945441123], [95.91629620664035, 27.975443671028565], [95.91635546310975, 27.975502971245362], [95.9164211110924, 27.975556765614254], [95.91649249841137, 27.97560452101582], [95.91656891449935, 27.97564576145131], [95.91664960027983, 27.97568007676921], [95.91673375445565, 27.97570712742493], [95.91682053979694, 27.975726642893658], [95.91690909392102, 27.975738431190223], [95.91699853737725, 27.97574237331563], [95.91708798083346, 27.975738431190223], [95.91717653495752, 27.975726642893658], [95.9172633202988, 27.97570712742493], [95.91734747447462, 27.97568007676921], [95.91742816025513, 27.97564576145131], [95.91750457634309, 27.97560452101582], [95.91757596366209, 27.975556765614254], [95.91764161164474, 27.975502971245362], [95.91770086811414, 27.975443671028565], [95.91775314557209, 27.97537945441123], [95.91779792299575, 27.975310960822192], [95.91783475571901, 27.97523886935886], [95.91786327722929, 27.97516389720057], [95.91788320545557, 27.97508679008907], [95.91789434097181, 27.97500831360172], [95.9178965732853, 27.97492924759842], [95.91788988083643, 27.97485037828808], [95.91787433010055, 27.974772489501785], [95.91785007468958, 27.974696354759434], [95.91781735714859, 27.97462273171594], [95.91777650087117, 27.97455235105408], [95.9177279136924, 27.97448591251764], [95.91767207710927, 27.97442407697735], [95.91760954717898, 27.974367458497053], [95.91754094373906, 27.974316619573155], [95.91746695040743, 27.974272066374052], [95.91738830200599, 27.974234240806247], [95.91730577917072, 27.97420351892711], [95.91722020296179, 27.974180206977856], [95.91713242408382, 27.974164535036397], [95.9170433148009, 27.974156660190367], [95.91695375995359, 27.974156660190367], [95.91686465067065, 27.974164535036397]]]}}]}