{"type": "FeatureCollection", "features": [{"type": "Feature", "properties": {"premiumdata.sde.IN_Village_PCA.area": 7.97657836, "objectid": 607145, "id": "193082188156446", "name": "Kismat Dasagram", "subdistrict": "Dinhata - II", "district": "Coochbehar", "state": "West Bengal", "country": "India", "censusname": "Kismat Dasagram", "villagename_locallang": null, "lgd_villagename": "Kismat Dasagram", "lgd_villagecode": 308622, "lgd_subdistrictcode": 2188, "lgd_districtcode": 308, "lgd_statecode": 19, "censuscode2001": "00245900", "censuscode2011": "308622", "censuscode2021": null, "level": "Village", "tru": "Rural", "no_hh": 1740, "tot_p": 6841, "tot_m": 3607, "tot_f": 3234, "per_tot_m": 52.72620962, "per_tot_f": 47.27379038, "p_06": 780, "m_06": 407, "f_06": 373, "per_p_06": 11.40184184, "per_m_06": 52.17948718, "per_f_06": 47.82051282, "p_sc": 5556, "m_sc": 2923, "f_sc": 2633, "per_p_sc": 81.21619646, "per_m_sc": 52.60979122, "per_f_sc": 47.39020878, "p_st": 1, "m_st": 1, "f_st": 0, "per_p_st": 0.01461775, "per_m_st": 100.0, "per_f_st": 0.0, "p_lit": 4761, "m_lit": 2701, "f_lit": 2060, "per_p_lit": 69.59508844, "per_m_lit": 56.73177904000001, "per_f_lit": 43.26822096, "p_ill": 2080, "m_ill": 906, "f_ill": 1174, "per_p_ill": 30.40491156, "per_m_ill": 43.55769231, "per_f_ill": 56.44230769, "tot_work_p": 2887, "tot_work_m": 2207, "tot_work_f": 680, "per_tot_work_p": 42.20143254, "per_tot_work_m": 76.44613786000001, "per_tot_work_f": 23.55386214, "mainwork_p": 2063, "mainwork_m": 1838, "mainwork_f": 225, "per_mainwork_p": 30.15640988, "per_mainwork_m": 89.09355308, "per_mainwork_f": 10.90644692, "main_cl_p": 834, "main_cl_m": 769, "main_cl_f": 65, "per_main_cl_p": 40.42656326, "per_main_cl_m": 92.20623501, "per_main_cl_f": 7.79376499, "main_al_p": 896, "main_al_m": 770, "main_al_f": 126, "per_main_al_p": 43.4318953, "per_main_al_m": 85.9375, "per_main_al_f": 14.0625, "main_hh_p": 14, "main_hh_m": 9, "main_hh_f": 5, "per_main_hh_p": 0.67862336, "per_main_hh_m": 64.28571429, "per_main_hh_f": 35.71428571, "main_ot_p": 319, "main_ot_m": 290, "main_ot_f": 29, "per_main_ot_p": 15.46291808, "per_main_ot_m": 90.90909091, "per_main_ot_f": 9.09090909, "margwork_p": 824, "margwork_m": 369, "margwork_f": 455, "per_margwork_p": 12.04502266, "per_margwork_m": 44.7815534, "per_margwork_f": 55.2184466, "marg_cl_p": 137, "marg_cl_m": 83, "marg_cl_f": 54, "per_marg_cl_p": 16.62621359, "per_marg_cl_m": 60.58394161, "per_marg_cl_f": 39.41605839, "marg_al_p": 619, "marg_al_m": 241, "marg_al_f": 378, "per_marg_al_p": 75.12135922, "per_marg_al_m": 38.93376414, "per_marg_al_f": 61.06623586, "marg_hh_p": 15, "marg_hh_m": 2, "marg_hh_f": 13, "per_marg_hh_p": 1.82038835, "per_marg_hh_m": 13.33333333, "per_marg_hh_f": 86.66666667, "marg_ot_p": 53, "marg_ot_m": 43, "marg_ot_f": 10, "per_marg_ot_p": 6.43203883, "per_marg_ot_m": 81.13207547, "per_marg_ot_f": 18.86792453, "margwork_3_6_p": 734, "margwork_3_6_m": 316, "margwork_3_6_f": 418, "per_margwork_3_6_p": 89.0776699, "per_margwork_3_6_m": 43.05177112, "per_margwork_3_6_f": 56.94822888, "marg_cl_3_6_p": 121, "marg_cl_3_6_m": 77, "marg_cl_3_6_f": 44, "per_marg_cl_3_6_p": 14.68446602, "per_marg_cl_3_6_m": 63.63636364, "per_marg_cl_3_6_f": 36.36363636, "marg_al_3_6_p": 549, "marg_al_3_6_m": 196, "marg_al_3_6_f": 353, "per_marg_al_3_6_p": 66.62621359, "per_marg_al_3_6_m": 35.70127505, "per_marg_al_3_6_f": 64.29872495, "marg_hh_3_6_p": 15, "marg_hh_3_6_m": 2, "marg_hh_3_6_f": 13, "per_marg_hh_3_6_p": 1.82038835, "per_marg_hh_3_6_m": 13.33333333, "per_marg_hh_3_6_f": 86.66666667, "marg_ot_3_6_p": 49, "marg_ot_3_6_m": 41, "marg_ot_3_6_f": 8, "per_marg_ot_3_6_p": 5.94660194, "per_marg_ot_3_6_m": 83.67346939, "per_marg_ot_3_6_f": 16.32653061, "margwork_0_3_p": 90, "margwork_0_3_m": 53, "margwork_0_3_f": 37, "per_margwork_0_3_p": 10.9223301, "per_margwork_0_3_m": 58.88888889, "per_margwork_0_3_f": 41.11111111, "marg_cl_0_3_p": 16, "marg_cl_0_3_m": 6, "marg_cl_0_3_f": 10, "per_marg_cl_0_3_p": 1.94174757, "per_marg_cl_0_3_m": 37.5, "per_marg_cl_0_3_f": 62.5, "marg_al_0_3_p": 70, "marg_al_0_3_m": 45, "marg_al_0_3_f": 25, "per_marg_al_0_3_p": 8.49514563, "per_marg_al_0_3_m": 64.28571429, "per_marg_al_0_3_f": 35.71428571, "marg_hh_0_3_p": 0, "marg_hh_0_3_m": 0, "marg_hh_0_3_f": 0, "per_marg_hh_0_3_p": 0.0, "per_marg_hh_0_3_m": 0.0, "per_marg_hh_0_3_f": 0.0, "marg_ot_0_3_p": 4, "marg_ot_0_3_m": 2, "marg_ot_0_3_f": 2, "per_marg_ot_0_3_p": 0.48543689, "per_marg_ot_0_3_m": 50.0, "per_marg_ot_0_3_f": 50.0, "non_work_p": 3954, "non_work_m": 1400, "non_work_f": 2554, "per_non_work_p": 57.79856746, "per_non_work_m": 35.4071826, "per_non_work_f": 64.5928174, "per_hc_tot_tot": 100, "per_hc_tot_god": 48.0, "per_hc_tot_liv": 44.4, "per_hc_tot_dil": 7.6, "per_hc_res_tot": 99.2, "per_hc_res_god": 47.3, "per_hc_res_liv": 44.3, "per_hc_res_dil": 7.6, "per_hc_oth_tot": 0.8, "per_hc_oth_god": 0.7, "per_hc_oth_liv": 0.1, "per_hc_oth_dil": 0.0, "per_mt_grsbam": 4.0, "per_mt_plastic": 1.3, "per_mt_h_tiles": 0.6, "per_mt_m_tiles": 0.0, "per_mt_b_brick": 0.1, "per_mt_stone": 0.2, "per_mt_asbstos": 93.4, "per_mt_concrte": 0.3, "per_mt_oth": 0.1, "per_mw_grsbam": 59.2, "per_mw_plastic": 0.6, "per_mw_mud": 0.1, "per_mw_wood": 0.1, "per_mw_no_mrtr": 0.0, "per_mw_st_mrtr": 0.2, "per_mw_asbstos": 37.1, "per_mw_b_brick": 2.5, "per_mw_concrte": 0.4, "per_mw_oth": 0.0, "per_mf_mud": 96.6, "per_mf_wood": 0.0, "per_mf_b_brick": 0.1, "per_mf_stone": 0.0, "per_mf_cement": 3.2, "per_mf_fl_tile": 0.1, "per_mf_oth": 0.0, "per_dw_n_exrm": 1.4, "per_dw_1_room": 56.6, "per_dw_2_room": 33.2, "per_dw_3_room": 6.9, "per_dw_4_room": 1.7, "per_dw_5_room": 0.2, "per_dw_6_room": 0.1, "per_hhsize_1": 5.1, "per_hhsize_2": 10.5, "per_hhsize_3": 20.0, "per_hhsize_4": 32.2, "per_hhsize_5": 18.7, "per_hhsize_6_8": 12.8, "per_hhsize_9p": 0.7, "per_ow_owned": 97.4, "per_ow_rented": 0.2, "per_ow_oth": 2.4, "per_mc_none": 12.4, "per_mcouple_1": 79.0, "per_mcouple_2": 8.1, "per_mcouple_3": 0.6, "per_mcouple_4": 0.0, "per_mcouple_5p": 0.0, "per_dw_t_ts": 0.2, "per_dw_t_unts": 0.2, "per_dw_c_well": 0.2, "per_dw_unc_wel": 0.7, "per_dw_hpump": 87.1, "per_dw_tw_bore": 4.9, "per_dw_spring": 0.0, "per_dw_rivcan": 0.0, "per_dw_tank": 0.1, "per_dw_oth": 6.6, "per_loc_dw_wp": 82.8, "per_loc_dw_np": 9.7, "per_loc_dw_aw": 7.5, "per_light_elec": 11.8, "per_light_kero": 88.2, "per_light_solr": 0.0, "per_light_oil": 0.0, "per_light_oth": 0.0, "per_light_no": 0.0, "per_hh_latrine": 39.6, "per_fl_sewer": 0.3, "per_fl_septict": 2.0, "per_fl_othsys": 6.0, "per_pl_wslab": 21.5, "per_pl_without": 2.0, "per_ns_open": 1.8, "per_sl_ns_hum": 4.4, "per_sl_ns_anml": 1.7, "per_hh_no_lat": 60.4, "per_as_pub": 3.2, "per_as_open": 57.2, "per_hh_bathrm": 4.2, "per_hh_en_wrf": 18.2, "per_hh_no_btrm": 77.6, "per_wwoc_drain": 1.2, "per_wwoc_open": 29.8, "per_wwoc_nodrn": 69.0, "per_cook_fire": 86.2, "per_cook_resdu": 10.5, "per_cook_cwdng": 1.3, "per_cook_coal": 0.0, "per_cook_kero": 0.0, "per_cook_lpng": 0.9, "per_cook_elec": 0.0, "per_cook_biogs": 0.3, "per_cook_oth": 0.6, "per_cook_no": 0.1, "per_kf_inside": 97.4, "per_kf_in_has": 91.9, "per_kf_in_does": 5.5, "per_kf_outside": 2.5, "per_kf_out_has": 0.2, "per_kf_out_dos": 2.2, "per_kf_no_cook": 0.1, "per_hh_banking": 58.6, "per_hh_radio": 2.0, "per_hh_tv": 4.2, "per_hh_cmp_int": 0.1, "per_hh_cmp_wnt": 3.1, "per_hh_ph_ll": 2.0, "per_hh_ph_mob": 15.3, "per_hh_ph_bth": 0.4, "per_hh_bcycl": 57.6, "per_hh_2wheel": 3.2, "per_hh_4wheel": 0.2, "per_hh_tvcomp": 0.1, "per_hh_no_ast": 36.2, "per_hs_perma": 39.7, "per_hs_sperma": 55.4, "per_hs_temp": 4.8, "per_hs_servc": 0.0, "per_hs_nservc": 4.8, "per_hs_unclss": 0.1, "avghhsz_cy": 3.9316092, "st_areashape": 9929776.886571635, "st_lengthshape": 23161.549689563242}, "geometry": {"type": "Polygon", "coordinates": [[[89.53818000128933, 26.105059997534156], [89.53767000165139, 26.10384999756621], [89.5375100009195, 26.103019997688424], [89.53671000085335, 26.102189998373095], [89.53653000182662, 26.101789997892126], [89.5364300013692, 26.10124999842042], [89.53622000130689, 26.100619997767634], [89.5359100007872, 26.10035999803273], [89.5351300008125, 26.100259998291076], [89.53185000197854, 26.100299998198008], [89.53142000180824, 26.100029997754003], [89.53024000090214, 26.099329998211754], [89.52953000214599, 26.098329998628127], [89.52918000054497, 26.09802999797324], [89.52891000110657, 26.097939998836807], [89.52848000093626, 26.097929997852873], [89.52827000087397, 26.098419998271194], [89.52803000067445, 26.098519997972655], [89.52744000156889, 26.0984599980007], [89.52687000165648, 26.098069997836134], [89.52538000112902, 26.098149998327543], [89.52460000115435, 26.098009998440038], [89.52402000119622, 26.09780999807959], [89.52318000094708, 26.097309998102485], [89.52255000076022, 26.097279997406666], [89.52129000128483, 26.097549998551855], [89.52035000147659, 26.09757999837174], [89.51980000075737, 26.097489998082306], [89.51934000134814, 26.0971099981586], [89.51923000174328, 26.096889998148026], [89.51918000151458, 26.096199998694463], [89.51975000142696, 26.09446999734563], [89.51941000077004, 26.093079998305], [89.51958000154764, 26.091759997387232], [89.5194300008615, 26.09142999785614], [89.51889000108633, 26.09125999817454], [89.51775000215984, 26.091329997741155], [89.51601000138713, 26.09178999788517], [89.51530000083436, 26.091719997787006], [89.51424000137548, 26.09109999820108], [89.51319000106407, 26.09069999852038], [89.5122900014388, 26.090659998557765], [89.51146000123542, 26.090839998281808], [89.50849000112451, 26.091759997387232], [89.50751000203162, 26.091969998291084], [89.50672000111287, 26.091939997839276], [89.50625000075958, 26.091919998071656], [89.5059100018993, 26.091689998077886], [89.50536000118007, 26.091589998185093], [89.50500000132996, 26.09167999817312], [89.50484000149636, 26.091749998295214], [89.50422000135528, 26.092909997793825], [89.50385000145941, 26.093469998164615], [89.50365000144288, 26.094679998225516], [89.50347000151781, 26.09520999857773], [89.50338000110614, 26.095539998740858], [89.50106000127359, 26.09661999789955], [89.50108000136507, 26.0963999977741], [89.50079000093686, 26.095949998355636], [89.50034000067505, 26.095609998166854], [89.49888000118312, 26.09516999854359], [89.49591000197056, 26.094209998461565], [89.49580000146739, 26.094179997777434], [89.49536000125133, 26.09379999839563], [89.4950000014012, 26.093489998474023], [89.49491000188783, 26.092789998518175], [89.49495000207082, 26.09159999809754], [89.49514000114331, 26.089669998352903], [89.49612000203282, 26.08873999798687], [89.49759000067218, 26.08768999782494], [89.49834000140795, 26.087159998099235], [89.49894000145756, 26.086279997378398], [89.49934000149065, 26.0863199980315], [89.49979000175246, 26.086149998187032], [89.50003000105366, 26.085869997762504], [89.50031000143612, 26.08569999807116], [89.50069000137773, 26.085649998399692], [89.50103000113636, 26.085759998132808], [89.50140000103222, 26.08605999797957], [89.50191000156846, 26.08610999828266], [89.50431000176695, 26.08608999832534], [89.50479000126765, 26.086009997655097], [89.50497000119272, 26.085609998324422], [89.50500000132996, 26.085079998053402], [89.50501000137567, 26.084609997647053], [89.50510000088904, 26.084259997852126], [89.50541000140876, 26.083999998064538], [89.50569000179127, 26.08391999757925], [89.50583000153334, 26.083889998290864], [89.5090100017065, 26.083959997425318], [89.50924000186028, 26.08427999812217], [89.50954000143592, 26.08441999830319], [89.50992000137754, 26.084379998614345], [89.51076000162668, 26.083879997719535], [89.51112000147678, 26.083479998370297], [89.51131000144758, 26.08273999798741], [89.51140000096093, 26.08219999852775], [89.51131000144758, 26.08178999833499], [89.51092000146024, 26.081399998275092], [89.51086000118576, 26.081139997782223], [89.51122000103588, 26.08074999797716], [89.51348000149228, 26.080529997865597], [89.51372000079348, 26.08069999861156], [89.51424000137548, 26.081569997757562], [89.51464000140858, 26.08268999866504], [89.5148600015166, 26.084049998440932], [89.51487000156236, 26.085869997762504], [89.51485000147085, 26.086249997888135], [89.51508000162463, 26.086639997923047], [89.51527000159543, 26.086859998651935], [89.5155800012168, 26.087029998271817], [89.51609000175308, 26.08708999845836], [89.51749000186886, 26.087269998026592], [89.51960000163912, 26.087679998385134], [89.52390000154561, 26.087979998150605], [89.52466000142881, 26.08782999796063], [89.52509000159911, 26.087559998586293], [89.52524000228524, 26.08699999736019], [89.52581000129932, 26.086369998223496], [89.5264400014862, 26.08601999804442], [89.5269200009869, 26.08587999816379], [89.52754000202631, 26.085839998167128], [89.52978000149291, 26.08558999828166], [89.52988000195036, 26.084749998240145], [89.53020000161749, 26.084229998650848], [89.53023000175472, 26.083659998650045], [89.52990000204184, 26.08320999783505], [89.52921000158054, 26.082519997581922], [89.52857000134794, 26.08204999738405], [89.52800000143554, 26.081769998446294], [89.52744000156889, 26.081669998144637], [89.52812000198448, 26.079489998415713], [89.52869000189685, 26.077439998566152], [89.52896000133528, 26.077349998116194], [89.52919000148903, 26.077359998438563], [89.52990000204184, 26.077949998195255], [89.52992000213332, 26.077179998153333], [89.52989000109778, 26.075909997644956], [89.52991000118928, 26.075279997719296], [89.5302500018462, 26.074619997580925], [89.53069000116395, 26.074079997781393], [89.53205000109675, 26.073469998194984], [89.53434000169038, 26.07268999782442], [89.53442000115804, 26.072479997830012], [89.5345100015697, 26.07216999791843], [89.53445000129524, 26.071599998099693], [89.53388000138287, 26.070519998818614], [89.53390000057605, 26.07009999793248], [89.53432000159891, 26.070119998200948], [89.5374800016806, 26.070259998370823], [89.53896000126402, 26.072069998292484], [89.53944000076471, 26.072449998030613], [89.5405500013506, 26.073439997842307], [89.54176000149559, 26.07591999809031], [89.54262000093789, 26.077639997435632], [89.5428800012289, 26.077789998582436], [89.54308000124544, 26.07779999806033], [89.5439300015403, 26.077519998639087], [89.54448000136124, 26.077569997749162], [89.54444000117824, 26.07806999735792], [89.54461000105756, 26.07884999738916], [89.5447800018352, 26.079449998655775], [89.54496000086193, 26.079779998081897], [89.5452600013359, 26.079999997989336], [89.54541000112374, 26.07996999769625], [89.54623000128137, 26.079619997742828], [89.54711000171346, 26.079519998024967], [89.54796000111004, 26.079449998655775], [89.5490200014672, 26.079699997939716], [89.5497800013504, 26.079809997616852], [89.55093000122093, 26.079819998535932], [89.55123000169489, 26.07993999820231], [89.55164000177372, 26.080449997429085], [89.55182000169879, 26.081719997902706], [89.55225000186911, 26.082369998461985], [89.55197000148662, 26.082709997589735], [89.55072000115867, 26.083429998557204], [89.55032000112557, 26.084149998322783], [89.55005000078883, 26.085049997448724], [89.54968000089298, 26.087369998384226], [89.54946000168326, 26.087379997850533], [89.5474200013349, 26.087289998589032], [89.54723000136408, 26.087279997501447], [89.5455700009573, 26.086709997833086], [89.54443000203082, 26.086629997586684], [89.54169000117541, 26.086909997806437], [89.54065000090972, 26.087329998090084], [89.53957000135938, 26.087969997928802], [89.53916000128055, 26.088449997931097], [89.53891000193363, 26.088909998102693], [89.53889000184212, 26.089379997374895], [89.53892000108105, 26.08969999777317], [89.53998000143822, 26.090819998326115], [89.54023000168347, 26.091379998212723], [89.54173000135836, 26.094279997876658], [89.54234000145372, 26.0961399983392], [89.54250000128731, 26.097039998016765], [89.5424800011958, 26.097509998511175], [89.54242000181966, 26.097629997785493], [89.5415500014333, 26.09947999817824], [89.54085000092626, 26.101499997918143], [89.54079000155012, 26.104089997501962], [89.54075000136713, 26.105309998566824], [89.5405700014421, 26.105839997536282], [89.54028000101385, 26.106369998136717], [89.53992000206205, 26.106639997655893], [89.53941000152581, 26.106799998152272], [89.53909000096037, 26.106749998625673], [89.53887000175064, 26.106379998398925], [89.53821000142656, 26.10512999852253], [89.53818000128933, 26.105059997534156]]]}}]}