{"type": "FeatureCollection", "features": [{"type": "Feature", "properties": {"premiumdata.sde.IN_Village_PCA.area": 4.18126318, "objectid": 425508, "id": "340218345883", "name": "Khatkar Kalan", "subdistrict": "Nawanshahr", "district": "Shahid Bhagat Singh Nagar", "state": "Punjab", "country": "India", "censusname": "Khatkar Kalan (103)", "villagename_locallang": null, "lgd_villagename": "Khatkar Kalan (103)", "lgd_villagecode": 32099, "lgd_subdistrictcode": 218, "lgd_districtcode": 40, "lgd_statecode": 3, "censuscode2001": "00595000", "censuscode2011": "032099", "censuscode2021": null, "level": "Village", "tru": "Rural", "no_hh": 409, "tot_p": 1811, "tot_m": 878, "tot_f": 933, "per_tot_m": 48.48150193, "per_tot_f": 51.51849807, "p_06": 191, "m_06": 96, "f_06": 95, "per_p_06": 10.5466593, "per_m_06": 50.2617801, "per_f_06": 49.7382199, "p_sc": 798, "m_sc": 397, "f_sc": 401, "per_p_sc": 44.06405301, "per_m_sc": 49.74937343, "per_f_sc": 50.25062657, "p_st": 0, "m_st": 0, "f_st": 0, "per_p_st": 0.0, "per_m_st": 0.0, "per_f_st": 0.0, "p_lit": 1306, "m_lit": 675, "f_lit": 631, "per_p_lit": 72.11485367, "per_m_lit": 51.68453292, "per_f_lit": 48.31546708, "p_ill": 505, "m_ill": 203, "f_ill": 302, "per_p_ill": 27.88514633, "per_m_ill": 40.1980198, "per_f_ill": 59.8019802, "tot_work_p": 561, "tot_work_m": 457, "tot_work_f": 104, "per_tot_work_p": 30.97736057, "per_tot_work_m": 81.46167558, "per_tot_work_f": 18.53832442, "mainwork_p": 412, "mainwork_m": 339, "mainwork_f": 73, "per_mainwork_p": 22.74986195, "per_mainwork_m": 82.2815534, "per_mainwork_f": 17.7184466, "main_cl_p": 109, "main_cl_m": 104, "main_cl_f": 5, "per_main_cl_p": 26.45631068, "per_main_cl_m": 95.41284404000001, "per_main_cl_f": 4.58715596, "main_al_p": 12, "main_al_m": 9, "main_al_f": 3, "per_main_al_p": 2.91262136, "per_main_al_m": 75.0, "per_main_al_f": 25.0, "main_hh_p": 13, "main_hh_m": 12, "main_hh_f": 1, "per_main_hh_p": 3.15533981, "per_main_hh_m": 92.30769231, "per_main_hh_f": 7.69230769, "main_ot_p": 278, "main_ot_m": 214, "main_ot_f": 64, "per_main_ot_p": 67.47572816, "per_main_ot_m": 76.97841727, "per_main_ot_f": 23.02158273, "margwork_p": 149, "margwork_m": 118, "margwork_f": 31, "per_margwork_p": 8.22749862, "per_margwork_m": 79.19463087, "per_margwork_f": 20.80536913, "marg_cl_p": 3, "marg_cl_m": 2, "marg_cl_f": 1, "per_marg_cl_p": 2.01342282, "per_marg_cl_m": 66.66666667, "per_marg_cl_f": 33.33333333, "marg_al_p": 4, "marg_al_m": 0, "marg_al_f": 4, "per_marg_al_p": 2.68456376, "per_marg_al_m": 0.0, "per_marg_al_f": 100.0, "marg_hh_p": 4, "marg_hh_m": 3, "marg_hh_f": 1, "per_marg_hh_p": 2.68456376, "per_marg_hh_m": 75.0, "per_marg_hh_f": 25.0, "marg_ot_p": 138, "marg_ot_m": 113, "marg_ot_f": 25, "per_marg_ot_p": 92.61744966, "per_marg_ot_m": 81.88405797, "per_marg_ot_f": 18.11594203, "margwork_3_6_p": 145, "margwork_3_6_m": 116, "margwork_3_6_f": 29, "per_margwork_3_6_p": 97.31543624, "per_margwork_3_6_m": 80.0, "per_margwork_3_6_f": 20.0, "marg_cl_3_6_p": 3, "marg_cl_3_6_m": 2, "marg_cl_3_6_f": 1, "per_marg_cl_3_6_p": 2.01342282, "per_marg_cl_3_6_m": 66.66666667, "per_marg_cl_3_6_f": 33.33333333, "marg_al_3_6_p": 4, "marg_al_3_6_m": 0, "marg_al_3_6_f": 4, "per_marg_al_3_6_p": 2.68456376, "per_marg_al_3_6_m": 0.0, "per_marg_al_3_6_f": 100.0, "marg_hh_3_6_p": 4, "marg_hh_3_6_m": 3, "marg_hh_3_6_f": 1, "per_marg_hh_3_6_p": 2.68456376, "per_marg_hh_3_6_m": 75.0, "per_marg_hh_3_6_f": 25.0, "marg_ot_3_6_p": 134, "marg_ot_3_6_m": 111, "marg_ot_3_6_f": 23, "per_marg_ot_3_6_p": 89.93288591, "per_marg_ot_3_6_m": 82.8358209, "per_marg_ot_3_6_f": 17.1641791, "margwork_0_3_p": 4, "margwork_0_3_m": 2, "margwork_0_3_f": 2, "per_margwork_0_3_p": 2.68456376, "per_margwork_0_3_m": 50.0, "per_margwork_0_3_f": 50.0, "marg_cl_0_3_p": 0, "marg_cl_0_3_m": 0, "marg_cl_0_3_f": 0, "per_marg_cl_0_3_p": 0.0, "per_marg_cl_0_3_m": 0.0, "per_marg_cl_0_3_f": 0.0, "marg_al_0_3_p": 0, "marg_al_0_3_m": 0, "marg_al_0_3_f": 0, "per_marg_al_0_3_p": 0.0, "per_marg_al_0_3_m": 0.0, "per_marg_al_0_3_f": 0.0, "marg_hh_0_3_p": 0, "marg_hh_0_3_m": 0, "marg_hh_0_3_f": 0, "per_marg_hh_0_3_p": 0.0, "per_marg_hh_0_3_m": 0.0, "per_marg_hh_0_3_f": 0.0, "marg_ot_0_3_p": 4, "marg_ot_0_3_m": 2, "marg_ot_0_3_f": 2, "per_marg_ot_0_3_p": 2.68456376, "per_marg_ot_0_3_m": 50.0, "per_marg_ot_0_3_f": 50.0, "non_work_p": 1250, "non_work_m": 421, "non_work_f": 829, "per_non_work_p": 69.02263943, "per_non_work_m": 33.68, "per_non_work_f": 66.32, "per_hc_tot_tot": 100, "per_hc_tot_god": 66.9, "per_hc_tot_liv": 29.5, "per_hc_tot_dil": 3.6, "per_hc_res_tot": 97.4, "per_hc_res_god": 65.0, "per_hc_res_liv": 28.8, "per_hc_res_dil": 3.6, "per_hc_oth_tot": 2.6, "per_hc_oth_god": 1.9, "per_hc_oth_liv": 0.7, "per_hc_oth_dil": 0.0, "per_mt_grsbam": 0.5, "per_mt_plastic": 0.0, "per_mt_h_tiles": 0.0, "per_mt_m_tiles": 0.2, "per_mt_b_brick": 76.7, "per_mt_stone": 4.3, "per_mt_asbstos": 0.7, "per_mt_concrte": 17.6, "per_mt_oth": 0.0, "per_mw_grsbam": 0.2, "per_mw_plastic": 0.0, "per_mw_mud": 2.6, "per_mw_wood": 0.0, "per_mw_no_mrtr": 0.5, "per_mw_st_mrtr": 0.0, "per_mw_asbstos": 0.0, "per_mw_b_brick": 94.8, "per_mw_concrte": 1.4, "per_mw_oth": 0.5, "per_mf_mud": 5.0, "per_mf_wood": 0.0, "per_mf_b_brick": 7.6, "per_mf_stone": 15.2, "per_mf_cement": 71.4, "per_mf_fl_tile": 0.7, "per_mf_oth": 0.0, "per_dw_n_exrm": 0.7, "per_dw_1_room": 13.6, "per_dw_2_room": 26.9, "per_dw_3_room": 26.2, "per_dw_4_room": 15.5, "per_dw_5_room": 8.1, "per_dw_6_room": 9.0, "per_hhsize_1": 5.7, "per_hhsize_2": 10.0, "per_hhsize_3": 13.3, "per_hhsize_4": 25.7, "per_hhsize_5": 18.1, "per_hhsize_6_8": 24.3, "per_hhsize_9p": 2.9, "per_ow_owned": 88.1, "per_ow_rented": 8.3, "per_ow_oth": 3.6, "per_mc_none": 20.5, "per_mcouple_1": 66.9, "per_mcouple_2": 10.7, "per_mcouple_3": 1.9, "per_mcouple_4": 0.0, "per_mcouple_5p": 0.0, "per_dw_t_ts": 81.9, "per_dw_t_unts": 0.0, "per_dw_c_well": 0.0, "per_dw_unc_wel": 0.0, "per_dw_hpump": 2.9, "per_dw_tw_bore": 14.0, "per_dw_spring": 0.0, "per_dw_rivcan": 0.0, "per_dw_tank": 0.0, "per_dw_oth": 1.2, "per_loc_dw_wp": 96.0, "per_loc_dw_np": 3.8, "per_loc_dw_aw": 0.2, "per_light_elec": 97.6, "per_light_kero": 1.9, "per_light_solr": 0.5, "per_light_oil": 0.0, "per_light_oth": 0.0, "per_light_no": 0.0, "per_hh_latrine": 90.2, "per_fl_sewer": 3.8, "per_fl_septict": 60.7, "per_fl_othsys": 0.7, "per_pl_wslab": 24.8, "per_pl_without": 0.0, "per_ns_open": 0.2, "per_sl_ns_hum": 0.0, "per_sl_ns_anml": 0.0, "per_hh_no_lat": 9.8, "per_as_pub": 0.0, "per_as_open": 9.8, "per_hh_bathrm": 87.6, "per_hh_en_wrf": 5.0, "per_hh_no_btrm": 7.4, "per_wwoc_drain": 5.0, "per_wwoc_open": 86.9, "per_wwoc_nodrn": 8.1, "per_cook_fire": 9.5, "per_cook_resdu": 2.1, "per_cook_cwdng": 19.0, "per_cook_coal": 0.0, "per_cook_kero": 1.2, "per_cook_lpng": 67.9, "per_cook_elec": 0.2, "per_cook_biogs": 0.0, "per_cook_oth": 0.0, "per_cook_no": 0.0, "per_kf_inside": 95.5, "per_kf_in_has": 87.9, "per_kf_in_does": 7.6, "per_kf_outside": 4.5, "per_kf_out_has": 0.7, "per_kf_out_dos": 3.8, "per_kf_no_cook": 0.0, "per_hh_banking": 97.6, "per_hh_radio": 45.2, "per_hh_tv": 91.0, "per_hh_cmp_int": 8.6, "per_hh_cmp_wnt": 4.0, "per_hh_ph_ll": 35.0, "per_hh_ph_mob": 43.1, "per_hh_ph_bth": 14.0, "per_hh_bcycl": 83.3, "per_hh_2wheel": 57.1, "per_hh_4wheel": 10.7, "per_hh_tvcomp": 10.0, "per_hh_no_ast": 2.4, "per_hs_perma": 96.4, "per_hs_sperma": 3.1, "per_hs_temp": 0.0, "per_hs_servc": 0.0, "per_hs_nservc": 0.0, "per_hs_unclss": 0.5, "avghhsz_cy": 4.42787286, "st_areashape": 5729903.05865381, "st_lengthshape": 10182.601626392761}, "geometry": {"type": "Polygon", "coordinates": [[[76.00674330888383, 31.178652948682537], [76.00694161557605, 31.175740563700796], [76.00670987987714, 31.174135547392208], [76.00668329333801, 31.170484195750927], [76.00663210373985, 31.167288917284903], [76.00765766268903, 31.163423940718136], [76.0117200429315, 31.164811783591702], [76.01486350143553, 31.16598913340287], [76.01803709033253, 31.16654655302087], [76.02191500871791, 31.167483991824113], [76.02403650602551, 31.168447112475558], [76.02587767776049, 31.1688520795989], [76.02602800723004, 31.171074333741675], [76.02674989159571, 31.173483308539275], [76.02735162180056, 31.17713005378405], [76.02820780609784, 31.180763029251505], [76.02835825953491, 31.18431525129459], [76.02898913018927, 31.1886050700086], [76.02881450218962, 31.191803078026446], [76.02641262271554, 31.190774947939452], [76.02274416181, 31.189258063079304], [76.0208173779335, 31.187748111014443], [76.01927169533315, 31.186362647681396], [76.01727522195353, 31.18496097850486], [76.01230829750877, 31.182288860681577], [76.00961968298255, 31.180529732360817], [76.00674330888383, 31.178652948682537]]]}}]}