{"type": "FeatureCollection", "features": [{"type": "Feature", "properties": {"premiumdata.sde.IN_Village_PCA.area": 0.94149239, "objectid": 558214, "id": "193162215144730", "name": "Isahakpur", "subdistrict": "Bamangola", "district": "Maldah", "state": "West Bengal", "country": "India", "censusname": "Isahakpur", "villagename_locallang": null, "lgd_villagename": "Isahakpur", "lgd_villagecode": 312800, "lgd_subdistrictcode": 2215, "lgd_districtcode": 316, "lgd_statecode": 19, "censuscode2001": "00664300", "censuscode2011": "312800", "censuscode2021": null, "level": "Village", "tru": "Rural", "no_hh": 159, "tot_p": 678, "tot_m": 343, "tot_f": 335, "per_tot_m": 50.5899705, "per_tot_f": 49.4100295, "p_06": 84, "m_06": 39, "f_06": 45, "per_p_06": 12.38938053, "per_m_06": 46.42857143, "per_f_06": 53.57142857, "p_sc": 127, "m_sc": 69, "f_sc": 58, "per_p_sc": 18.73156342, "per_m_sc": 54.33070866, "per_f_sc": 45.66929134, "p_st": 160, "m_st": 79, "f_st": 81, "per_p_st": 23.59882006, "per_m_st": 49.375, "per_f_st": 50.625, "p_lit": 456, "m_lit": 264, "f_lit": 192, "per_p_lit": 67.25663717, "per_m_lit": 57.89473684, "per_f_lit": 42.10526316000001, "p_ill": 222, "m_ill": 79, "f_ill": 143, "per_p_ill": 32.74336283, "per_m_ill": 35.58558559, "per_f_ill": 64.41441441, "tot_work_p": 221, "tot_work_m": 193, "tot_work_f": 28, "per_tot_work_p": 32.59587021, "per_tot_work_m": 87.33031674, "per_tot_work_f": 12.66968326, "mainwork_p": 220, "mainwork_m": 192, "mainwork_f": 28, "per_mainwork_p": 32.44837758000001, "per_mainwork_m": 87.27272727, "per_mainwork_f": 12.72727273, "main_cl_p": 137, "main_cl_m": 133, "main_cl_f": 4, "per_main_cl_p": 62.27272727, "per_main_cl_m": 97.08029197, "per_main_cl_f": 2.91970803, "main_al_p": 34, "main_al_m": 20, "main_al_f": 14, "per_main_al_p": 15.45454545, "per_main_al_m": 58.82352941000001, "per_main_al_f": 41.17647059, "main_hh_p": 3, "main_hh_m": 0, "main_hh_f": 3, "per_main_hh_p": 1.36363636, "per_main_hh_m": 0.0, "per_main_hh_f": 100.0, "main_ot_p": 46, "main_ot_m": 39, "main_ot_f": 7, "per_main_ot_p": 20.90909091, "per_main_ot_m": 84.7826087, "per_main_ot_f": 15.2173913, "margwork_p": 1, "margwork_m": 1, "margwork_f": 0, "per_margwork_p": 0.14749263, "per_margwork_m": 100.0, "per_margwork_f": 0.0, "marg_cl_p": 1, "marg_cl_m": 1, "marg_cl_f": 0, "per_marg_cl_p": 100.0, "per_marg_cl_m": 100.0, "per_marg_cl_f": 0.0, "marg_al_p": 0, "marg_al_m": 0, "marg_al_f": 0, "per_marg_al_p": 0.0, "per_marg_al_m": 0.0, "per_marg_al_f": 0.0, "marg_hh_p": 0, "marg_hh_m": 0, "marg_hh_f": 0, "per_marg_hh_p": 0.0, "per_marg_hh_m": 0.0, "per_marg_hh_f": 0.0, "marg_ot_p": 0, "marg_ot_m": 0, "marg_ot_f": 0, "per_marg_ot_p": 0.0, "per_marg_ot_m": 0.0, "per_marg_ot_f": 0.0, "margwork_3_6_p": 0, "margwork_3_6_m": 0, "margwork_3_6_f": 0, "per_margwork_3_6_p": 0.0, "per_margwork_3_6_m": 0.0, "per_margwork_3_6_f": 0.0, "marg_cl_3_6_p": 0, "marg_cl_3_6_m": 0, "marg_cl_3_6_f": 0, "per_marg_cl_3_6_p": 0.0, "per_marg_cl_3_6_m": 0.0, "per_marg_cl_3_6_f": 0.0, "marg_al_3_6_p": 0, "marg_al_3_6_m": 0, "marg_al_3_6_f": 0, "per_marg_al_3_6_p": 0.0, "per_marg_al_3_6_m": 0.0, "per_marg_al_3_6_f": 0.0, "marg_hh_3_6_p": 0, "marg_hh_3_6_m": 0, "marg_hh_3_6_f": 0, "per_marg_hh_3_6_p": 0.0, "per_marg_hh_3_6_m": 0.0, "per_marg_hh_3_6_f": 0.0, "marg_ot_3_6_p": 0, "marg_ot_3_6_m": 0, "marg_ot_3_6_f": 0, "per_marg_ot_3_6_p": 0.0, "per_marg_ot_3_6_m": 0.0, "per_marg_ot_3_6_f": 0.0, "margwork_0_3_p": 1, "margwork_0_3_m": 1, "margwork_0_3_f": 0, "per_margwork_0_3_p": 100.0, "per_margwork_0_3_m": 100.0, "per_margwork_0_3_f": 0.0, "marg_cl_0_3_p": 1, "marg_cl_0_3_m": 1, "marg_cl_0_3_f": 0, "per_marg_cl_0_3_p": 100.0, "per_marg_cl_0_3_m": 100.0, "per_marg_cl_0_3_f": 0.0, "marg_al_0_3_p": 0, "marg_al_0_3_m": 0, "marg_al_0_3_f": 0, "per_marg_al_0_3_p": 0.0, "per_marg_al_0_3_m": 0.0, "per_marg_al_0_3_f": 0.0, "marg_hh_0_3_p": 0, "marg_hh_0_3_m": 0, "marg_hh_0_3_f": 0, "per_marg_hh_0_3_p": 0.0, "per_marg_hh_0_3_m": 0.0, "per_marg_hh_0_3_f": 0.0, "marg_ot_0_3_p": 0, "marg_ot_0_3_m": 0, "marg_ot_0_3_f": 0, "per_marg_ot_0_3_p": 0.0, "per_marg_ot_0_3_m": 0.0, "per_marg_ot_0_3_f": 0.0, "non_work_p": 457, "non_work_m": 150, "non_work_f": 307, "per_non_work_p": 67.40412979, "per_non_work_m": 32.82275711, "per_non_work_f": 67.17724289, "per_hc_tot_tot": 100, "per_hc_tot_god": 65.4, "per_hc_tot_liv": 34.6, "per_hc_tot_dil": 0.0, "per_hc_res_tot": 100.0, "per_hc_res_god": 65.4, "per_hc_res_liv": 34.6, "per_hc_res_dil": 0.0, "per_hc_oth_tot": 0.0, "per_hc_oth_god": 0.0, "per_hc_oth_liv": 0.0, "per_hc_oth_dil": 0.0, "per_mt_grsbam": 13.2, "per_mt_plastic": 0.0, "per_mt_h_tiles": 1.3, "per_mt_m_tiles": 35.2, "per_mt_b_brick": 0.0, "per_mt_stone": 0.0, "per_mt_asbstos": 50.3, "per_mt_concrte": 0.0, "per_mt_oth": 0.0, "per_mw_grsbam": 0.0, "per_mw_plastic": 0.0, "per_mw_mud": 89.3, "per_mw_wood": 0.0, "per_mw_no_mrtr": 0.0, "per_mw_st_mrtr": 0.0, "per_mw_asbstos": 10.7, "per_mw_b_brick": 0.0, "per_mw_concrte": 0.0, "per_mw_oth": 0.0, "per_mf_mud": 100.0, "per_mf_wood": 0.0, "per_mf_b_brick": 0.0, "per_mf_stone": 0.0, "per_mf_cement": 0.0, "per_mf_fl_tile": 0.0, "per_mf_oth": 0.0, "per_dw_n_exrm": 1.3, "per_dw_1_room": 76.7, "per_dw_2_room": 18.2, "per_dw_3_room": 1.3, "per_dw_4_room": 2.5, "per_dw_5_room": 0.0, "per_dw_6_room": 0.0, "per_hhsize_1": 3.8, "per_hhsize_2": 11.9, "per_hhsize_3": 17.6, "per_hhsize_4": 28.3, "per_hhsize_5": 14.5, "per_hhsize_6_8": 22.6, "per_hhsize_9p": 1.3, "per_ow_owned": 99.4, "per_ow_rented": 0.0, "per_ow_oth": 0.6, "per_mc_none": 15.7, "per_mcouple_1": 69.2, "per_mcouple_2": 14.5, "per_mcouple_3": 0.6, "per_mcouple_4": 0.0, "per_mcouple_5p": 0.0, "per_dw_t_ts": 36.5, "per_dw_t_unts": 6.3, "per_dw_c_well": 0.6, "per_dw_unc_wel": 10.1, "per_dw_hpump": 0.0, "per_dw_tw_bore": 46.5, "per_dw_spring": 0.0, "per_dw_rivcan": 0.0, "per_dw_tank": 0.0, "per_dw_oth": 0.0, "per_loc_dw_wp": 1.3, "per_loc_dw_np": 69.8, "per_loc_dw_aw": 28.9, "per_light_elec": 0.6, "per_light_kero": 91.8, "per_light_solr": 7.5, "per_light_oil": 0.0, "per_light_oth": 0.0, "per_light_no": 0.0, "per_hh_latrine": 4.4, "per_fl_sewer": 0.0, "per_fl_septict": 1.3, "per_fl_othsys": 0.0, "per_pl_wslab": 3.1, "per_pl_without": 0.0, "per_ns_open": 0.0, "per_sl_ns_hum": 0.0, "per_sl_ns_anml": 0.0, "per_hh_no_lat": 95.6, "per_as_pub": 0.0, "per_as_open": 95.6, "per_hh_bathrm": 0.0, "per_hh_en_wrf": 0.0, "per_hh_no_btrm": 100.0, "per_wwoc_drain": 0.0, "per_wwoc_open": 0.0, "per_wwoc_nodrn": 100.0, "per_cook_fire": 0.6, "per_cook_resdu": 76.7, "per_cook_cwdng": 22.6, "per_cook_coal": 0.0, "per_cook_kero": 0.0, "per_cook_lpng": 0.0, "per_cook_elec": 0.0, "per_cook_biogs": 0.0, "per_cook_oth": 0.0, "per_cook_no": 0.0, "per_kf_inside": 45.9, "per_kf_in_has": 1.9, "per_kf_in_does": 44.0, "per_kf_outside": 54.1, "per_kf_out_has": 5.7, "per_kf_out_dos": 48.4, "per_kf_no_cook": 0.0, "per_hh_banking": 0.6, "per_hh_radio": 14.5, "per_hh_tv": 6.9, "per_hh_cmp_int": 0.0, "per_hh_cmp_wnt": 4.4, "per_hh_ph_ll": 0.6, "per_hh_ph_mob": 10.1, "per_hh_ph_bth": 3.1, "per_hh_bcycl": 17.0, "per_hh_2wheel": 0.6, "per_hh_4wheel": 0.0, "per_hh_tvcomp": 0.0, "per_hh_no_ast": 73.6, "per_hs_perma": 10.7, "per_hs_sperma": 76.1, "per_hs_temp": 13.2, "per_hs_servc": 13.2, "per_hs_nservc": 0.0, "per_hs_unclss": 0.0, "avghhsz_cy": 4.26415094, "st_areashape": 1155936.768375425, "st_lengthshape": 4386.024831291158}, "geometry": {"type": "Polygon", "coordinates": [[[88.42439999999334, 25.259419999207], [88.42390000040116, 25.258339998438405], [88.42391000044691, 25.25803999931873], [88.42393000053839, 25.257669999302497], [88.42413999970236, 25.256859998515704], [88.42412000050918, 25.256479999424275], [88.42357000068829, 25.255249999065757], [88.42354000055106, 25.254099999623406], [88.42318999984838, 25.253549998937732], [88.4227200003934, 25.25269999970078], [88.42349000032235, 25.25229999919652], [88.42490000048386, 25.25229999919652], [88.42580000010913, 25.251939999485188], [88.42653999990085, 25.2517199994975], [88.42770000071545, 25.25119999853358], [88.42881000040299, 25.251129998671313], [88.43056000032317, 25.250549999073357], [88.43232000028905, 25.250009998639378], [88.43316999968563, 25.24989999938514], [88.43431000040874, 25.24983999886361], [88.43433000050021, 25.2499399989039], [88.43494000059557, 25.25214999917566], [88.43513999971378, 25.25342999903326], [88.43526000026272, 25.25597999850897], [88.43517000074935, 25.25639999899368], [88.43495000064132, 25.25673999863174], [88.43470000039608, 25.25705999914206], [88.43442000001357, 25.257079998942846], [88.43359000070849, 25.257099999552754], [88.43292000033867, 25.25730999925871], [88.43244000083796, 25.257969998523823], [88.43215000040973, 25.25830999945347], [88.43181000065113, 25.25836999904083], [88.43114000117963, 25.2585399990647], [88.42833000090228, 25.258479998748925], [88.42790000073198, 25.258569999617674], [88.42772999995434, 25.258599999350828], [88.42649999971786, 25.259109999367425], [88.42439999999334, 25.259419999207]]]}}]}