{"type": "FeatureCollection", "features": [{"type": "Feature", "properties": {"premiumdata.sde.IN_Village_PCA.area": 6.69457109, "objectid": 492089, "id": "102101523292070", "name": "Sirdala", "subdistrict": "Sirdala", "district": "Nawada", "state": "Bihar", "country": "India", "censusname": "Sirdala", "villagename_locallang": "\u0938\u093f\u0930\u0926\u0932\u093e", "lgd_villagename": "Sirdala", "lgd_villagecode": 258314, "lgd_subdistrictcode": 1523, "lgd_districtcode": 210, "lgd_statecode": 10, "censuscode2001": "04338200", "censuscode2011": "258314", "censuscode2021": null, "level": "Village", "tru": "Rural", "no_hh": 1288, "tot_p": 8780, "tot_m": 4482, "tot_f": 4298, "per_tot_m": 51.04783599, "per_tot_f": 48.95216401, "p_06": 1578, "m_06": 803, "f_06": 775, "per_p_06": 17.97266515, "per_m_06": 50.88719899, "per_f_06": 49.11280101, "p_sc": 2379, "m_sc": 1158, "f_sc": 1221, "per_p_sc": 27.09567198, "per_m_sc": 48.67591425, "per_f_sc": 51.32408575, "p_st": 1, "m_st": 1, "f_st": 0, "per_p_st": 0.01138952, "per_m_st": 100.0, "per_f_st": 0.0, "p_lit": 5001, "m_lit": 2961, "f_lit": 2040, "per_p_lit": 56.95899772, "per_m_lit": 59.20815837, "per_f_lit": 40.79184163, "p_ill": 3779, "m_ill": 1521, "f_ill": 2258, "per_p_ill": 43.04100228, "per_m_ill": 40.24874305, "per_f_ill": 59.75125695, "tot_work_p": 3503, "tot_work_m": 2132, "tot_work_f": 1371, "per_tot_work_p": 39.89749431, "per_tot_work_m": 60.86211818, "per_tot_work_f": 39.13788182, "mainwork_p": 2745, "mainwork_m": 1771, "mainwork_f": 974, "per_mainwork_p": 31.2642369, "per_mainwork_m": 64.51730419, "per_mainwork_f": 35.48269581, "main_cl_p": 621, "main_cl_m": 423, "main_cl_f": 198, "per_main_cl_p": 22.62295082, "per_main_cl_m": 68.11594203, "per_main_cl_f": 31.88405797, "main_al_p": 1025, "main_al_m": 630, "main_al_f": 395, "per_main_al_p": 37.34061931, "per_main_al_m": 61.46341463, "per_main_al_f": 38.53658537, "main_hh_p": 61, "main_hh_m": 47, "main_hh_f": 14, "per_main_hh_p": 2.22222222, "per_main_hh_m": 77.04918033, "per_main_hh_f": 22.95081967, "main_ot_p": 1038, "main_ot_m": 671, "main_ot_f": 367, "per_main_ot_p": 37.81420765, "per_main_ot_m": 64.64354528, "per_main_ot_f": 35.35645472, "margwork_p": 758, "margwork_m": 361, "margwork_f": 397, "per_margwork_p": 8.6332574, "per_margwork_m": 47.62532982, "per_margwork_f": 52.37467018, "marg_cl_p": 262, "marg_cl_m": 66, "marg_cl_f": 196, "per_marg_cl_p": 34.5646438, "per_marg_cl_m": 25.19083969, "per_marg_cl_f": 74.80916031, "marg_al_p": 311, "marg_al_m": 163, "marg_al_f": 148, "per_marg_al_p": 41.02902375, "per_marg_al_m": 52.41157556, "per_marg_al_f": 47.58842444, "marg_hh_p": 28, "marg_hh_m": 20, "marg_hh_f": 8, "per_marg_hh_p": 3.6939314, "per_marg_hh_m": 71.42857143, "per_marg_hh_f": 28.57142857, "marg_ot_p": 157, "marg_ot_m": 112, "marg_ot_f": 45, "per_marg_ot_p": 20.71240106, "per_marg_ot_m": 71.33757962, "per_marg_ot_f": 28.66242038, "margwork_3_6_p": 703, "margwork_3_6_m": 325, "margwork_3_6_f": 378, "per_margwork_3_6_p": 92.74406332, "per_margwork_3_6_m": 46.23044097, "per_margwork_3_6_f": 53.76955903, "marg_cl_3_6_p": 244, "marg_cl_3_6_m": 56, "marg_cl_3_6_f": 188, "per_marg_cl_3_6_p": 32.18997361, "per_marg_cl_3_6_m": 22.95081967, "per_marg_cl_3_6_f": 77.04918033, "marg_al_3_6_p": 290, "marg_al_3_6_m": 146, "marg_al_3_6_f": 144, "per_marg_al_3_6_p": 38.2585752, "per_marg_al_3_6_m": 50.34482759, "per_marg_al_3_6_f": 49.65517241, "marg_hh_3_6_p": 20, "marg_hh_3_6_m": 15, "marg_hh_3_6_f": 5, "per_marg_hh_3_6_p": 2.63852243, "per_marg_hh_3_6_m": 75.0, "per_marg_hh_3_6_f": 25.0, "marg_ot_3_6_p": 149, "marg_ot_3_6_m": 108, "marg_ot_3_6_f": 41, "per_marg_ot_3_6_p": 19.65699208, "per_marg_ot_3_6_m": 72.48322148, "per_marg_ot_3_6_f": 27.51677852, "margwork_0_3_p": 55, "margwork_0_3_m": 36, "margwork_0_3_f": 19, "per_margwork_0_3_p": 7.25593668, "per_margwork_0_3_m": 65.45454545, "per_margwork_0_3_f": 34.54545455, "marg_cl_0_3_p": 18, "marg_cl_0_3_m": 10, "marg_cl_0_3_f": 8, "per_marg_cl_0_3_p": 2.37467018, "per_marg_cl_0_3_m": 55.55555556, "per_marg_cl_0_3_f": 44.44444444000001, "marg_al_0_3_p": 21, "marg_al_0_3_m": 17, "marg_al_0_3_f": 4, "per_marg_al_0_3_p": 2.77044855, "per_marg_al_0_3_m": 80.95238095, "per_marg_al_0_3_f": 19.04761905, "marg_hh_0_3_p": 8, "marg_hh_0_3_m": 5, "marg_hh_0_3_f": 3, "per_marg_hh_0_3_p": 1.05540897, "per_marg_hh_0_3_m": 62.5, "per_marg_hh_0_3_f": 37.5, "marg_ot_0_3_p": 8, "marg_ot_0_3_m": 4, "marg_ot_0_3_f": 4, "per_marg_ot_0_3_p": 1.05540897, "per_marg_ot_0_3_m": 50.0, "per_marg_ot_0_3_f": 50.0, "non_work_p": 5277, "non_work_m": 2350, "non_work_f": 2927, "per_non_work_p": 60.10250569, "per_non_work_m": 44.53287853, "per_non_work_f": 55.46712147, "per_hc_tot_tot": 100, "per_hc_tot_god": 34.2, "per_hc_tot_liv": 51.4, "per_hc_tot_dil": 14.4, "per_hc_res_tot": 89.8, "per_hc_res_god": 30.7, "per_hc_res_liv": 45.8, "per_hc_res_dil": 13.3, "per_hc_oth_tot": 10.2, "per_hc_oth_god": 3.5, "per_hc_oth_liv": 5.6, "per_hc_oth_dil": 1.1, "per_mt_grsbam": 16.3, "per_mt_plastic": 0.2, "per_mt_h_tiles": 22.7, "per_mt_m_tiles": 0.9, "per_mt_b_brick": 1.6, "per_mt_stone": 5.9, "per_mt_asbstos": 0.5, "per_mt_concrte": 51.9, "per_mt_oth": 0.1, "per_mw_grsbam": 0.3, "per_mw_plastic": 0.2, "per_mw_mud": 35.2, "per_mw_wood": 0.0, "per_mw_no_mrtr": 0.2, "per_mw_st_mrtr": 0.4, "per_mw_asbstos": 0.2, "per_mw_b_brick": 61.4, "per_mw_concrte": 1.8, "per_mw_oth": 0.4, "per_mf_mud": 63.4, "per_mf_wood": 0.1, "per_mf_b_brick": 3.9, "per_mf_stone": 0.2, "per_mf_cement": 32.2, "per_mf_fl_tile": 0.2, "per_mf_oth": 0.0, "per_dw_n_exrm": 0.8, "per_dw_1_room": 15.9, "per_dw_2_room": 31.7, "per_dw_3_room": 14.6, "per_dw_4_room": 13.9, "per_dw_5_room": 8.1, "per_dw_6_room": 15.1, "per_hhsize_1": 2.1, "per_hhsize_2": 4.4, "per_hhsize_3": 5.2, "per_hhsize_4": 10.3, "per_hhsize_5": 17.6, "per_hhsize_6_8": 36.3, "per_hhsize_9p": 24.0, "per_ow_owned": 96.0, "per_ow_rented": 1.5, "per_ow_oth": 2.4, "per_mc_none": 6.2, "per_mcouple_1": 49.7, "per_mcouple_2": 27.1, "per_mcouple_3": 9.6, "per_mcouple_4": 4.6, "per_mcouple_5p": 2.7, "per_dw_t_ts": 0.8, "per_dw_t_unts": 0.5, "per_dw_c_well": 0.4, "per_dw_unc_wel": 4.8, "per_dw_hpump": 92.9, "per_dw_tw_bore": 0.1, "per_dw_spring": 0.2, "per_dw_rivcan": 0.0, "per_dw_tank": 0.4, "per_dw_oth": 0.0, "per_loc_dw_wp": 41.9, "per_loc_dw_np": 44.2, "per_loc_dw_aw": 13.9, "per_light_elec": 6.2, "per_light_kero": 92.0, "per_light_solr": 1.6, "per_light_oil": 0.0, "per_light_oth": 0.2, "per_light_no": 0.1, "per_hh_latrine": 22.9, "per_fl_sewer": 1.4, "per_fl_septict": 19.6, "per_fl_othsys": 0.7, "per_pl_wslab": 0.8, "per_pl_without": 0.1, "per_ns_open": 0.2, "per_sl_ns_hum": 0.0, "per_sl_ns_anml": 0.2, "per_hh_no_lat": 77.1, "per_as_pub": 0.2, "per_as_open": 77.0, "per_hh_bathrm": 16.0, "per_hh_en_wrf": 20.7, "per_hh_no_btrm": 63.3, "per_wwoc_drain": 16.6, "per_wwoc_open": 39.4, "per_wwoc_nodrn": 44.0, "per_cook_fire": 52.6, "per_cook_resdu": 5.9, "per_cook_cwdng": 35.9, "per_cook_coal": 0.5, "per_cook_kero": 0.4, "per_cook_lpng": 4.4, "per_cook_elec": 0.2, "per_cook_biogs": 0.0, "per_cook_oth": 0.1, "per_cook_no": 0.1, "per_kf_inside": 82.4, "per_kf_in_has": 33.2, "per_kf_in_does": 49.2, "per_kf_outside": 17.6, "per_kf_out_has": 5.2, "per_kf_out_dos": 12.3, "per_kf_no_cook": 0.1, "per_hh_banking": 51.3, "per_hh_radio": 11.9, "per_hh_tv": 11.4, "per_hh_cmp_int": 0.2, "per_hh_cmp_wnt": 5.1, "per_hh_ph_ll": 1.6, "per_hh_ph_mob": 59.0, "per_hh_ph_bth": 1.4, "per_hh_bcycl": 21.2, "per_hh_2wheel": 6.3, "per_hh_4wheel": 1.1, "per_hh_tvcomp": 0.2, "per_hh_no_ast": 32.0, "per_hs_perma": 62.1, "per_hs_sperma": 22.5, "per_hs_temp": 14.9, "per_hs_servc": 14.6, "per_hs_nservc": 0.3, "per_hs_unclss": 0.5, "avghhsz_cy": 6.81677019, "st_areashape": 8140282.820183335, "st_lengthshape": 12693.563712431009}, "geometry": {"type": "Polygon", "coordinates": [[[85.41270863120515, 24.660611231044413], [85.41220950387711, 24.66145363674089], [85.41171037654904, 24.663462427564465], [85.4104982096676, 24.665406388025186], [85.40778866080196, 24.6675447091417], [85.40450868083265, 24.6687758471975], [85.40229825929507, 24.668905440528807], [85.39787741621993, 24.668322271518505], [85.39502525890465, 24.667415115213174], [85.3924583184887, 24.66605436838711], [85.3924583184887, 24.663462427564465], [85.39224440626334, 24.661129635850898], [85.39288614204106, 24.655815890623842], [85.39267222981573, 24.65367736771173], [85.39146006293427, 24.652510886266505], [85.38454358321887, 24.65127958774643], [85.3827609852337, 24.65030750087394], [85.38176273057759, 24.647326389068606], [85.38211925035428, 24.643632303701477], [85.3796473813398, 24.64041339129341], [85.38126360324952, 24.639808485660723], [85.38255063842172, 24.638707766843638], [85.38490366840894, 24.638772578726808], [85.39246188300376, 24.638448518158107], [85.40194530493173, 24.638967014174593], [85.40270099290156, 24.63905660829401], [85.40346734567044, 24.641126312057544], [85.40418038522382, 24.64320023956676], [85.40517863987994, 24.64546855878202], [85.40546385588097, 24.648190486476295], [85.40589167943334, 24.64987545983454], [85.4071038463148, 24.65045871504781], [85.40945687540372, 24.65045871504781], [85.40902905185133, 24.651884437000874], [85.40974209050644, 24.654930244289023], [85.4102412187328, 24.657392757169717], [85.41152468849162, 24.659790420526733], [85.41270863120515, 24.660611231044413]]]}}]}