{"type": "FeatureCollection", "features": [{"type": "Feature", "properties": {"premiumdata.sde.IN_Village_PCA.area": 0.68321836, "objectid": 423976, "id": "555297583451", "name": "Dharogi", "subdistrict": "Tehri", "district": "Tehri Garhwal", "state": "Uttarakhand", "country": "India", "censusname": "Dharogi", "villagename_locallang": null, "lgd_villagename": "Dharogi", "lgd_villagecode": 43772, "lgd_subdistrictcode": 297, "lgd_districtcode": 55, "lgd_statecode": 5, "censuscode2001": "00393100", "censuscode2011": "043772", "censuscode2021": null, "level": "Village", "tru": "Rural", "no_hh": 30, "tot_p": 169, "tot_m": 65, "tot_f": 104, "per_tot_m": 38.46153846, "per_tot_f": 61.53846154, "p_06": 26, "m_06": 12, "f_06": 14, "per_p_06": 15.38461538, "per_m_06": 46.15384615, "per_f_06": 53.84615385, "p_sc": 19, "m_sc": 9, "f_sc": 10, "per_p_sc": 11.24260355, "per_m_sc": 47.36842105, "per_f_sc": 52.63157895000001, "p_st": 0, "m_st": 0, "f_st": 0, "per_p_st": 0.0, "per_m_st": 0.0, "per_f_st": 0.0, "p_lit": 105, "m_lit": 44, "f_lit": 61, "per_p_lit": 62.13017751, "per_m_lit": 41.9047619, "per_f_lit": 58.0952381, "p_ill": 64, "m_ill": 21, "f_ill": 43, "per_p_ill": 37.86982249, "per_m_ill": 32.8125, "per_f_ill": 67.1875, "tot_work_p": 86, "tot_work_m": 34, "tot_work_f": 52, "per_tot_work_p": 50.88757396, "per_tot_work_m": 39.53488372, "per_tot_work_f": 60.46511628, "mainwork_p": 28, "mainwork_m": 22, "mainwork_f": 6, "per_mainwork_p": 16.56804734, "per_mainwork_m": 78.57142857, "per_mainwork_f": 21.42857143, "main_cl_p": 5, "main_cl_m": 2, "main_cl_f": 3, "per_main_cl_p": 17.85714286, "per_main_cl_m": 40.0, "per_main_cl_f": 60.0, "main_al_p": 0, "main_al_m": 0, "main_al_f": 0, "per_main_al_p": 0.0, "per_main_al_m": 0.0, "per_main_al_f": 0.0, "main_hh_p": 0, "main_hh_m": 0, "main_hh_f": 0, "per_main_hh_p": 0.0, "per_main_hh_m": 0.0, "per_main_hh_f": 0.0, "main_ot_p": 23, "main_ot_m": 20, "main_ot_f": 3, "per_main_ot_p": 82.14285714, "per_main_ot_m": 86.95652174, "per_main_ot_f": 13.04347826, "margwork_p": 58, "margwork_m": 12, "margwork_f": 46, "per_margwork_p": 34.31952663, "per_margwork_m": 20.68965517, "per_margwork_f": 79.31034483, "marg_cl_p": 32, "marg_cl_m": 8, "marg_cl_f": 24, "per_marg_cl_p": 55.17241379, "per_marg_cl_m": 25.0, "per_marg_cl_f": 75.0, "marg_al_p": 0, "marg_al_m": 0, "marg_al_f": 0, "per_marg_al_p": 0.0, "per_marg_al_m": 0.0, "per_marg_al_f": 0.0, "marg_hh_p": 0, "marg_hh_m": 0, "marg_hh_f": 0, "per_marg_hh_p": 0.0, "per_marg_hh_m": 0.0, "per_marg_hh_f": 0.0, "marg_ot_p": 26, "marg_ot_m": 4, "marg_ot_f": 22, "per_marg_ot_p": 44.82758621, "per_marg_ot_m": 15.38461538, "per_marg_ot_f": 84.61538462, "margwork_3_6_p": 26, "margwork_3_6_m": 1, "margwork_3_6_f": 25, "per_margwork_3_6_p": 44.82758621, "per_margwork_3_6_m": 3.84615385, "per_margwork_3_6_f": 96.15384615, "marg_cl_3_6_p": 6, "marg_cl_3_6_m": 1, "marg_cl_3_6_f": 5, "per_marg_cl_3_6_p": 10.34482759, "per_marg_cl_3_6_m": 16.66666667, "per_marg_cl_3_6_f": 83.33333332999999, "marg_al_3_6_p": 0, "marg_al_3_6_m": 0, "marg_al_3_6_f": 0, "per_marg_al_3_6_p": 0.0, "per_marg_al_3_6_m": 0.0, "per_marg_al_3_6_f": 0.0, "marg_hh_3_6_p": 0, "marg_hh_3_6_m": 0, "marg_hh_3_6_f": 0, "per_marg_hh_3_6_p": 0.0, "per_marg_hh_3_6_m": 0.0, "per_marg_hh_3_6_f": 0.0, "marg_ot_3_6_p": 20, "marg_ot_3_6_m": 0, "marg_ot_3_6_f": 20, "per_marg_ot_3_6_p": 34.48275862, "per_marg_ot_3_6_m": 0.0, "per_marg_ot_3_6_f": 100.0, "margwork_0_3_p": 32, "margwork_0_3_m": 11, "margwork_0_3_f": 21, "per_margwork_0_3_p": 55.17241379, "per_margwork_0_3_m": 34.375, "per_margwork_0_3_f": 65.625, "marg_cl_0_3_p": 26, "marg_cl_0_3_m": 7, "marg_cl_0_3_f": 19, "per_marg_cl_0_3_p": 44.82758621, "per_marg_cl_0_3_m": 26.92307692, "per_marg_cl_0_3_f": 73.07692308, "marg_al_0_3_p": 0, "marg_al_0_3_m": 0, "marg_al_0_3_f": 0, "per_marg_al_0_3_p": 0.0, "per_marg_al_0_3_m": 0.0, "per_marg_al_0_3_f": 0.0, "marg_hh_0_3_p": 0, "marg_hh_0_3_m": 0, "marg_hh_0_3_f": 0, "per_marg_hh_0_3_p": 0.0, "per_marg_hh_0_3_m": 0.0, "per_marg_hh_0_3_f": 0.0, "marg_ot_0_3_p": 6, "marg_ot_0_3_m": 4, "marg_ot_0_3_f": 2, "per_marg_ot_0_3_p": 10.34482759, "per_marg_ot_0_3_m": 66.66666667, "per_marg_ot_0_3_f": 33.33333333, "non_work_p": 83, "non_work_m": 31, "non_work_f": 52, "per_non_work_p": 49.11242604, "per_non_work_m": 37.34939759, "per_non_work_f": 62.65060241, "per_hc_tot_tot": 100, "per_hc_tot_god": 100.0, "per_hc_tot_liv": 0.0, "per_hc_tot_dil": 0.0, "per_hc_res_tot": 100.0, "per_hc_res_god": 100.0, "per_hc_res_liv": 0.0, "per_hc_res_dil": 0.0, "per_hc_oth_tot": 0.0, "per_hc_oth_god": 0.0, "per_hc_oth_liv": 0.0, "per_hc_oth_dil": 0.0, "per_mt_grsbam": 0.0, "per_mt_plastic": 0.0, "per_mt_h_tiles": 0.0, "per_mt_m_tiles": 0.0, "per_mt_b_brick": 0.0, "per_mt_stone": 54.8, "per_mt_asbstos": 0.0, "per_mt_concrte": 45.2, "per_mt_oth": 0.0, "per_mw_grsbam": 0.0, "per_mw_plastic": 0.0, "per_mw_mud": 0.0, "per_mw_wood": 0.0, "per_mw_no_mrtr": 54.8, "per_mw_st_mrtr": 35.5, "per_mw_asbstos": 0.0, "per_mw_b_brick": 9.7, "per_mw_concrte": 0.0, "per_mw_oth": 0.0, "per_mf_mud": 51.6, "per_mf_wood": 0.0, "per_mf_b_brick": 0.0, "per_mf_stone": 0.0, "per_mf_cement": 48.4, "per_mf_fl_tile": 0.0, "per_mf_oth": 0.0, "per_dw_n_exrm": 0.0, "per_dw_1_room": 41.9, "per_dw_2_room": 29.0, "per_dw_3_room": 25.8, "per_dw_4_room": 3.2, "per_dw_5_room": 0.0, "per_dw_6_room": 0.0, "per_hhsize_1": 3.2, "per_hhsize_2": 0.0, "per_hhsize_3": 9.7, "per_hhsize_4": 25.8, "per_hhsize_5": 16.1, "per_hhsize_6_8": 45.2, "per_hhsize_9p": 0.0, "per_ow_owned": 96.8, "per_ow_rented": 3.2, "per_ow_oth": 0.0, "per_mc_none": 12.9, "per_mcouple_1": 51.6, "per_mcouple_2": 32.3, "per_mcouple_3": 3.2, "per_mcouple_4": 0.0, "per_mcouple_5p": 0.0, "per_dw_t_ts": 96.8, "per_dw_t_unts": 3.2, "per_dw_c_well": 0.0, "per_dw_unc_wel": 0.0, "per_dw_hpump": 0.0, "per_dw_tw_bore": 0.0, "per_dw_spring": 0.0, "per_dw_rivcan": 0.0, "per_dw_tank": 0.0, "per_dw_oth": 0.0, "per_loc_dw_wp": 0.0, "per_loc_dw_np": 100.0, "per_loc_dw_aw": 0.0, "per_light_elec": 96.8, "per_light_kero": 3.2, "per_light_solr": 0.0, "per_light_oil": 0.0, "per_light_oth": 0.0, "per_light_no": 0.0, "per_hh_latrine": 9.7, "per_fl_sewer": 0.0, "per_fl_septict": 0.0, "per_fl_othsys": 0.0, "per_pl_wslab": 9.7, "per_pl_without": 0.0, "per_ns_open": 0.0, "per_sl_ns_hum": 0.0, "per_sl_ns_anml": 0.0, "per_hh_no_lat": 90.3, "per_as_pub": 0.0, "per_as_open": 90.3, "per_hh_bathrm": 16.1, "per_hh_en_wrf": 6.5, "per_hh_no_btrm": 77.4, "per_wwoc_drain": 0.0, "per_wwoc_open": 100.0, "per_wwoc_nodrn": 0.0, "per_cook_fire": 100.0, "per_cook_resdu": 0.0, "per_cook_cwdng": 0.0, "per_cook_coal": 0.0, "per_cook_kero": 0.0, "per_cook_lpng": 0.0, "per_cook_elec": 0.0, "per_cook_biogs": 0.0, "per_cook_oth": 0.0, "per_cook_no": 0.0, "per_kf_inside": 90.3, "per_kf_in_has": 90.3, "per_kf_in_does": 0.0, "per_kf_outside": 9.7, "per_kf_out_has": 9.7, "per_kf_out_dos": 0.0, "per_kf_no_cook": 0.0, "per_hh_banking": 100.0, "per_hh_radio": 3.2, "per_hh_tv": 54.8, "per_hh_cmp_int": 0.0, "per_hh_cmp_wnt": 0.0, "per_hh_ph_ll": 0.0, "per_hh_ph_mob": 90.3, "per_hh_ph_bth": 3.2, "per_hh_bcycl": 0.0, "per_hh_2wheel": 0.0, "per_hh_4wheel": 0.0, "per_hh_tvcomp": null, "per_hh_no_ast": 6.5, "per_hs_perma": 100.0, "per_hs_sperma": 0.0, "per_hs_temp": 0.0, "per_hs_servc": 0.0, "per_hs_nservc": 0.0, "per_hs_unclss": 0.0, "avghhsz_cy": 5.63333333, "st_areashape": 923441.498956095, "st_lengthshape": 4231.971376199616}, "geometry": {"type": "Polygon", "coordinates": [[[78.36803334018788, 30.51186514563848], [78.36694578939927, 30.512679338795742], [78.36641090103805, 30.512927668820506], [78.36502652621834, 30.511995718273123], [78.36257784361965, 30.510500608704035], [78.36085433322059, 30.509461781789174], [78.35926564287766, 30.508545944095452], [78.35813739301683, 30.507680668685705], [78.35672991173134, 30.50629351583187], [78.35701660905426, 30.50582882872238], [78.35704198286777, 30.505004621014585], [78.3601487002767, 30.505369190333152], [78.36244943843293, 30.50566202681034], [78.36512807267637, 30.505683780771026], [78.36748478485792, 30.505658128325436], [78.36955596303488, 30.50590563111014], [78.37116057062632, 30.50578864196019], [78.37058623634265, 30.50770773074067], [78.36955185863236, 30.509802008024277], [78.3685182660496, 30.51111700105733], [78.36803334018788, 30.51186514563848]]]}}]}