{"type": "FeatureCollection", "features": [{"type": "Feature", "properties": {"premiumdata.sde.IN_Village_PCA.area": 2.24473826, "objectid": 310946, "id": "891513473631", "name": "Kanawar", "subdistrict": "Bayana", "district": "Bharatpur", "state": "Rajasthan", "country": "India", "censusname": "Kanawar", "villagename_locallang": null, "lgd_villagename": "Kanawar", "lgd_villagecode": 75059, "lgd_subdistrictcode": 513, "lgd_districtcode": 91, "lgd_statecode": 8, "censuscode2001": "01072300", "censuscode2011": "075059", "censuscode2021": null, "level": "Village", "tru": "Rural", "no_hh": 371, "tot_p": 2110, "tot_m": 1175, "tot_f": 935, "per_tot_m": 55.68720379, "per_tot_f": 44.31279621, "p_06": 310, "m_06": 187, "f_06": 123, "per_p_06": 14.69194313, "per_m_06": 60.32258065, "per_f_06": 39.67741935, "p_sc": 714, "m_sc": 389, "f_sc": 325, "per_p_sc": 33.83886256, "per_m_sc": 54.48179272, "per_f_sc": 45.51820728, "p_st": 0, "m_st": 0, "f_st": 0, "per_p_st": 0.0, "per_m_st": 0.0, "per_f_st": 0.0, "p_lit": 1251, "m_lit": 838, "f_lit": 413, "per_p_lit": 59.28909953, "per_m_lit": 66.98641087, "per_f_lit": 33.01358913, "p_ill": 859, "m_ill": 337, "f_ill": 522, "per_p_ill": 40.71090047000001, "per_m_ill": 39.23166473, "per_f_ill": 60.76833527, "tot_work_p": 861, "tot_work_m": 557, "tot_work_f": 304, "per_tot_work_p": 40.8056872, "per_tot_work_m": 64.69221835, "per_tot_work_f": 35.30778165, "mainwork_p": 526, "mainwork_m": 506, "mainwork_f": 20, "per_mainwork_p": 24.92890995, "per_mainwork_m": 96.19771863, "per_mainwork_f": 3.80228137, "main_cl_p": 250, "main_cl_m": 243, "main_cl_f": 7, "per_main_cl_p": 47.52851711, "per_main_cl_m": 97.2, "per_main_cl_f": 2.8, "main_al_p": 65, "main_al_m": 57, "main_al_f": 8, "per_main_al_p": 12.35741445, "per_main_al_m": 87.69230769, "per_main_al_f": 12.30769231, "main_hh_p": 9, "main_hh_m": 9, "main_hh_f": 0, "per_main_hh_p": 1.71102662, "per_main_hh_m": 100.0, "per_main_hh_f": 0.0, "main_ot_p": 202, "main_ot_m": 197, "main_ot_f": 5, "per_main_ot_p": 38.40304183, "per_main_ot_m": 97.52475247999999, "per_main_ot_f": 2.47524752, "margwork_p": 335, "margwork_m": 51, "margwork_f": 284, "per_margwork_p": 15.87677725, "per_margwork_m": 15.2238806, "per_margwork_f": 84.7761194, "marg_cl_p": 202, "marg_cl_m": 15, "marg_cl_f": 187, "per_marg_cl_p": 60.29850746, "per_marg_cl_m": 7.42574257, "per_marg_cl_f": 92.57425743, "marg_al_p": 124, "marg_al_m": 30, "marg_al_f": 94, "per_marg_al_p": 37.01492537, "per_marg_al_m": 24.19354839, "per_marg_al_f": 75.80645161, "marg_hh_p": 4, "marg_hh_m": 1, "marg_hh_f": 3, "per_marg_hh_p": 1.19402985, "per_marg_hh_m": 25.0, "per_marg_hh_f": 75.0, "marg_ot_p": 5, "marg_ot_m": 5, "marg_ot_f": 0, "per_marg_ot_p": 1.49253731, "per_marg_ot_m": 100.0, "per_marg_ot_f": 0.0, "margwork_3_6_p": 180, "margwork_3_6_m": 29, "margwork_3_6_f": 151, "per_margwork_3_6_p": 53.73134328, "per_margwork_3_6_m": 16.11111111, "per_margwork_3_6_f": 83.88888889, "marg_cl_3_6_p": 104, "marg_cl_3_6_m": 3, "marg_cl_3_6_f": 101, "per_marg_cl_3_6_p": 31.04477612, "per_marg_cl_3_6_m": 2.88461538, "per_marg_cl_3_6_f": 97.11538462, "marg_al_3_6_p": 69, "marg_al_3_6_m": 20, "marg_al_3_6_f": 49, "per_marg_al_3_6_p": 20.59701493, "per_marg_al_3_6_m": 28.98550725, "per_marg_al_3_6_f": 71.01449274999999, "marg_hh_3_6_p": 2, "marg_hh_3_6_m": 1, "marg_hh_3_6_f": 1, "per_marg_hh_3_6_p": 0.59701493, "per_marg_hh_3_6_m": 50.0, "per_marg_hh_3_6_f": 50.0, "marg_ot_3_6_p": 5, "marg_ot_3_6_m": 5, "marg_ot_3_6_f": 0, "per_marg_ot_3_6_p": 1.49253731, "per_marg_ot_3_6_m": 100.0, "per_marg_ot_3_6_f": 0.0, "margwork_0_3_p": 155, "margwork_0_3_m": 22, "margwork_0_3_f": 133, "per_margwork_0_3_p": 46.26865672, "per_margwork_0_3_m": 14.19354839, "per_margwork_0_3_f": 85.80645161, "marg_cl_0_3_p": 98, "marg_cl_0_3_m": 12, "marg_cl_0_3_f": 86, "per_marg_cl_0_3_p": 29.25373134, "per_marg_cl_0_3_m": 12.24489796, "per_marg_cl_0_3_f": 87.75510204, "marg_al_0_3_p": 55, "marg_al_0_3_m": 10, "marg_al_0_3_f": 45, "per_marg_al_0_3_p": 16.41791045, "per_marg_al_0_3_m": 18.18181818, "per_marg_al_0_3_f": 81.81818182, "marg_hh_0_3_p": 2, "marg_hh_0_3_m": 0, "marg_hh_0_3_f": 2, "per_marg_hh_0_3_p": 0.59701493, "per_marg_hh_0_3_m": 0.0, "per_marg_hh_0_3_f": 100.0, "marg_ot_0_3_p": 0, "marg_ot_0_3_m": 0, "marg_ot_0_3_f": 0, "per_marg_ot_0_3_p": 0.0, "per_marg_ot_0_3_m": 0.0, "per_marg_ot_0_3_f": 0.0, "non_work_p": 1249, "non_work_m": 618, "non_work_f": 631, "per_non_work_p": 59.1943128, "per_non_work_m": 49.47958367, "per_non_work_f": 50.52041633, "per_hc_tot_tot": 100, "per_hc_tot_god": 39.7, "per_hc_tot_liv": 55.7, "per_hc_tot_dil": 4.6, "per_hc_res_tot": 97.0, "per_hc_res_god": 37.8, "per_hc_res_liv": 55.1, "per_hc_res_dil": 4.1, "per_hc_oth_tot": 3.0, "per_hc_oth_god": 1.9, "per_hc_oth_liv": 0.5, "per_hc_oth_dil": 0.5, "per_mt_grsbam": 12.2, "per_mt_plastic": 0.0, "per_mt_h_tiles": 0.0, "per_mt_m_tiles": 0.0, "per_mt_b_brick": 1.1, "per_mt_stone": 85.7, "per_mt_asbstos": 0.0, "per_mt_concrte": 1.1, "per_mt_oth": 0.0, "per_mw_grsbam": 5.4, "per_mw_plastic": 0.0, "per_mw_mud": 7.8, "per_mw_wood": 1.9, "per_mw_no_mrtr": 0.3, "per_mw_st_mrtr": 77.0, "per_mw_asbstos": 0.0, "per_mw_b_brick": 7.6, "per_mw_concrte": 0.0, "per_mw_oth": 0.0, "per_mf_mud": 55.9, "per_mf_wood": 0.8, "per_mf_b_brick": 0.3, "per_mf_stone": 11.4, "per_mf_cement": 30.3, "per_mf_fl_tile": 0.8, "per_mf_oth": 0.5, "per_dw_n_exrm": 13.2, "per_dw_1_room": 45.7, "per_dw_2_room": 24.6, "per_dw_3_room": 8.6, "per_dw_4_room": 4.1, "per_dw_5_room": 1.9, "per_dw_6_room": 1.9, "per_hhsize_1": 1.4, "per_hhsize_2": 6.8, "per_hhsize_3": 8.6, "per_hhsize_4": 19.5, "per_hhsize_5": 19.5, "per_hhsize_6_8": 30.5, "per_hhsize_9p": 13.8, "per_ow_owned": 95.7, "per_ow_rented": 0.3, "per_ow_oth": 4.1, "per_mc_none": 7.0, "per_mcouple_1": 72.2, "per_mcouple_2": 13.8, "per_mcouple_3": 5.7, "per_mcouple_4": 0.8, "per_mcouple_5p": 0.5, "per_dw_t_ts": 5.1, "per_dw_t_unts": 54.1, "per_dw_c_well": 0.8, "per_dw_unc_wel": 14.3, "per_dw_hpump": 13.0, "per_dw_tw_bore": 11.4, "per_dw_spring": 1.1, "per_dw_rivcan": 0.0, "per_dw_tank": 0.0, "per_dw_oth": 0.3, "per_loc_dw_wp": 8.9, "per_loc_dw_np": 44.3, "per_loc_dw_aw": 46.8, "per_light_elec": 94.3, "per_light_kero": 3.8, "per_light_solr": 1.1, "per_light_oil": 0.0, "per_light_oth": 0.8, "per_light_no": 0.0, "per_hh_latrine": 11.4, "per_fl_sewer": 0.3, "per_fl_septict": 9.7, "per_fl_othsys": 1.1, "per_pl_wslab": 0.0, "per_pl_without": 0.3, "per_ns_open": 0.0, "per_sl_ns_hum": 0.0, "per_sl_ns_anml": 0.0, "per_hh_no_lat": 88.6, "per_as_pub": 0.0, "per_as_open": 88.6, "per_hh_bathrm": 7.6, "per_hh_en_wrf": 20.3, "per_hh_no_btrm": 72.2, "per_wwoc_drain": 0.3, "per_wwoc_open": 10.8, "per_wwoc_nodrn": 88.9, "per_cook_fire": 52.2, "per_cook_resdu": 42.2, "per_cook_cwdng": 0.0, "per_cook_coal": 0.3, "per_cook_kero": 0.0, "per_cook_lpng": 5.4, "per_cook_elec": 0.0, "per_cook_biogs": 0.0, "per_cook_oth": 0.0, "per_cook_no": 0.0, "per_kf_inside": 48.1, "per_kf_in_has": 8.9, "per_kf_in_does": 39.2, "per_kf_outside": 51.9, "per_kf_out_has": 9.2, "per_kf_out_dos": 42.7, "per_kf_no_cook": 0.0, "per_hh_banking": 55.1, "per_hh_radio": 7.3, "per_hh_tv": 33.2, "per_hh_cmp_int": 1.1, "per_hh_cmp_wnt": 3.8, "per_hh_ph_ll": 0.3, "per_hh_ph_mob": 71.1, "per_hh_ph_bth": 4.1, "per_hh_bcycl": 30.8, "per_hh_2wheel": 19.2, "per_hh_4wheel": 2.2, "per_hh_tvcomp": 1.1, "per_hh_no_ast": 20.8, "per_hs_perma": 80.8, "per_hs_sperma": 11.1, "per_hs_temp": 8.1, "per_hs_servc": 4.6, "per_hs_nservc": 3.5, "per_hs_unclss": 0.0, "avghhsz_cy": 5.68733154, "st_areashape": 2836691.49544998, "st_lengthshape": 7831.48351164633}, "geometry": {"type": "Polygon", "coordinates": [[[77.2698138852765, 26.956798933876602], [77.27392959490413, 26.958809669644644], [77.27725743531518, 26.960565845571935], [77.27741837209162, 26.961105149052873], [77.27789449176858, 26.96270215131929], [77.27779472936473, 26.9666538965196], [77.27776764875216, 26.967726597964653], [77.277330622858, 26.96664683325568], [77.27630622902375, 26.966146130621542], [77.27523406008777, 26.96627412736025], [77.27153141738735, 26.966028314758002], [77.26915199040548, 26.964017272291226], [77.26677327039778, 26.963766770086607], [77.26446214771684, 26.964396558257807], [77.26259555186269, 26.964396156327474], [77.26101291346987, 26.964143606877705], [77.25686360774893, 26.96048489465981], [77.25468605017774, 26.959093498227457], [77.25418557268179, 26.958587858531004], [77.2530498263799, 26.95757572358038], [77.25233227548712, 26.956312007013505], [77.25166580908963, 26.955212025112466], [77.25344274409528, 26.954706785173393], [77.25551865369881, 26.95382192239892], [77.25714367011518, 26.952601136349536], [77.25816868378695, 26.951489781205183], [77.2698138852765, 26.956798933876602]]]}}]}