{"type": "FeatureCollection", "features": [{"type": "Feature", "properties": {"premiumdata.sde.IN_Village_PCA.area": 0.01946533, "objectid": 435243, "id": "222139609099", "name": "D P F Drahal", "subdistrict": "Karsog", "district": "Mandi", "state": "Himachal Pradesh", "country": "India", "censusname": "D.P.F.Drahal (577)", "villagename_locallang": null, "lgd_villagename": "D.P.F.Drahal", "lgd_villagecode": 16302, "lgd_subdistrictcode": 139, "lgd_districtcode": 22, "lgd_statecode": 2, "censuscode2001": "00947000", "censuscode2011": "016302", "censuscode2021": null, "level": "Village", "tru": "Rural", "no_hh": 34, "tot_p": 136, "tot_m": 67, "tot_f": 69, "per_tot_m": 49.26470588, "per_tot_f": 50.73529412, "p_06": 15, "m_06": 11, "f_06": 4, "per_p_06": 11.02941176, "per_m_06": 73.33333332999999, "per_f_06": 26.66666667, "p_sc": 16, "m_sc": 9, "f_sc": 7, "per_p_sc": 11.76470588, "per_m_sc": 56.25, "per_f_sc": 43.75, "p_st": 0, "m_st": 0, "f_st": 0, "per_p_st": 0.0, "per_m_st": 0.0, "per_f_st": 0.0, "p_lit": 98, "m_lit": 51, "f_lit": 47, "per_p_lit": 72.05882353000001, "per_m_lit": 52.04081633, "per_f_lit": 47.95918367, "p_ill": 38, "m_ill": 16, "f_ill": 22, "per_p_ill": 27.94117647, "per_m_ill": 42.10526316000001, "per_f_ill": 57.89473684, "tot_work_p": 68, "tot_work_m": 31, "tot_work_f": 37, "per_tot_work_p": 50.0, "per_tot_work_m": 45.58823529, "per_tot_work_f": 54.41176471, "mainwork_p": 68, "mainwork_m": 31, "mainwork_f": 37, "per_mainwork_p": 50.0, "per_mainwork_m": 45.58823529, "per_mainwork_f": 54.41176471, "main_cl_p": 68, "main_cl_m": 31, "main_cl_f": 37, "per_main_cl_p": 100.0, "per_main_cl_m": 45.58823529, "per_main_cl_f": 54.41176471, "main_al_p": 0, "main_al_m": 0, "main_al_f": 0, "per_main_al_p": 0.0, "per_main_al_m": 0.0, "per_main_al_f": 0.0, "main_hh_p": 0, "main_hh_m": 0, "main_hh_f": 0, "per_main_hh_p": 0.0, "per_main_hh_m": 0.0, "per_main_hh_f": 0.0, "main_ot_p": 0, "main_ot_m": 0, "main_ot_f": 0, "per_main_ot_p": 0.0, "per_main_ot_m": 0.0, "per_main_ot_f": 0.0, "margwork_p": 0, "margwork_m": 0, "margwork_f": 0, "per_margwork_p": 0.0, "per_margwork_m": 0.0, "per_margwork_f": 0.0, "marg_cl_p": 0, "marg_cl_m": 0, "marg_cl_f": 0, "per_marg_cl_p": 0.0, "per_marg_cl_m": 0.0, "per_marg_cl_f": 0.0, "marg_al_p": 0, "marg_al_m": 0, "marg_al_f": 0, "per_marg_al_p": 0.0, "per_marg_al_m": 0.0, "per_marg_al_f": 0.0, "marg_hh_p": 0, "marg_hh_m": 0, "marg_hh_f": 0, "per_marg_hh_p": 0.0, "per_marg_hh_m": 0.0, "per_marg_hh_f": 0.0, "marg_ot_p": 0, "marg_ot_m": 0, "marg_ot_f": 0, "per_marg_ot_p": 0.0, "per_marg_ot_m": 0.0, "per_marg_ot_f": 0.0, "margwork_3_6_p": 0, "margwork_3_6_m": 0, "margwork_3_6_f": 0, "per_margwork_3_6_p": 0.0, "per_margwork_3_6_m": 0.0, "per_margwork_3_6_f": 0.0, "marg_cl_3_6_p": 0, "marg_cl_3_6_m": 0, "marg_cl_3_6_f": 0, "per_marg_cl_3_6_p": 0.0, "per_marg_cl_3_6_m": 0.0, "per_marg_cl_3_6_f": 0.0, "marg_al_3_6_p": 0, "marg_al_3_6_m": 0, "marg_al_3_6_f": 0, "per_marg_al_3_6_p": 0.0, "per_marg_al_3_6_m": 0.0, "per_marg_al_3_6_f": 0.0, "marg_hh_3_6_p": 0, "marg_hh_3_6_m": 0, "marg_hh_3_6_f": 0, "per_marg_hh_3_6_p": 0.0, "per_marg_hh_3_6_m": 0.0, "per_marg_hh_3_6_f": 0.0, "marg_ot_3_6_p": 0, "marg_ot_3_6_m": 0, "marg_ot_3_6_f": 0, "per_marg_ot_3_6_p": 0.0, "per_marg_ot_3_6_m": 0.0, "per_marg_ot_3_6_f": 0.0, "margwork_0_3_p": 0, "margwork_0_3_m": 0, "margwork_0_3_f": 0, "per_margwork_0_3_p": 0.0, "per_margwork_0_3_m": 0.0, "per_margwork_0_3_f": 0.0, "marg_cl_0_3_p": 0, "marg_cl_0_3_m": 0, "marg_cl_0_3_f": 0, "per_marg_cl_0_3_p": 0.0, "per_marg_cl_0_3_m": 0.0, "per_marg_cl_0_3_f": 0.0, "marg_al_0_3_p": 0, "marg_al_0_3_m": 0, "marg_al_0_3_f": 0, "per_marg_al_0_3_p": 0.0, "per_marg_al_0_3_m": 0.0, "per_marg_al_0_3_f": 0.0, "marg_hh_0_3_p": 0, "marg_hh_0_3_m": 0, "marg_hh_0_3_f": 0, "per_marg_hh_0_3_p": 0.0, "per_marg_hh_0_3_m": 0.0, "per_marg_hh_0_3_f": 0.0, "marg_ot_0_3_p": 0, "marg_ot_0_3_m": 0, "marg_ot_0_3_f": 0, "per_marg_ot_0_3_p": 0.0, "per_marg_ot_0_3_m": 0.0, "per_marg_ot_0_3_f": 0.0, "non_work_p": 68, "non_work_m": 36, "non_work_f": 32, "per_non_work_p": 50.0, "per_non_work_m": 52.94117647, "per_non_work_f": 47.05882353, "per_hc_tot_tot": 100, "per_hc_tot_god": 100.0, "per_hc_tot_liv": 0.0, "per_hc_tot_dil": 0.0, "per_hc_res_tot": 100.0, "per_hc_res_god": 100.0, "per_hc_res_liv": 0.0, "per_hc_res_dil": 0.0, "per_hc_oth_tot": 0.0, "per_hc_oth_god": 0.0, "per_hc_oth_liv": 0.0, "per_hc_oth_dil": 0.0, "per_mt_grsbam": 0.0, "per_mt_plastic": 0.0, "per_mt_h_tiles": 0.0, "per_mt_m_tiles": 0.0, "per_mt_b_brick": 0.0, "per_mt_stone": 67.6, "per_mt_asbstos": 29.4, "per_mt_concrte": 2.9, "per_mt_oth": 0.0, "per_mw_grsbam": 0.0, "per_mw_plastic": 0.0, "per_mw_mud": 0.0, "per_mw_wood": 0.0, "per_mw_no_mrtr": 14.7, "per_mw_st_mrtr": 76.5, "per_mw_asbstos": 0.0, "per_mw_b_brick": 8.8, "per_mw_concrte": 0.0, "per_mw_oth": 0.0, "per_mf_mud": 29.4, "per_mf_wood": 8.8, "per_mf_b_brick": 0.0, "per_mf_stone": 0.0, "per_mf_cement": 61.8, "per_mf_fl_tile": 0.0, "per_mf_oth": 0.0, "per_dw_n_exrm": 0.0, "per_dw_1_room": 5.9, "per_dw_2_room": 26.5, "per_dw_3_room": 8.8, "per_dw_4_room": 23.5, "per_dw_5_room": 2.9, "per_dw_6_room": 32.4, "per_hhsize_1": 2.9, "per_hhsize_2": 17.6, "per_hhsize_3": 11.8, "per_hhsize_4": 20.6, "per_hhsize_5": 14.7, "per_hhsize_6_8": 32.4, "per_hhsize_9p": 0.0, "per_ow_owned": 100.0, "per_ow_rented": 0.0, "per_ow_oth": 0.0, "per_mc_none": 11.8, "per_mcouple_1": 70.6, "per_mcouple_2": 17.6, "per_mcouple_3": 0.0, "per_mcouple_4": 0.0, "per_mcouple_5p": 0.0, "per_dw_t_ts": 100.0, "per_dw_t_unts": 0.0, "per_dw_c_well": 0.0, "per_dw_unc_wel": 0.0, "per_dw_hpump": 0.0, "per_dw_tw_bore": 0.0, "per_dw_spring": 0.0, "per_dw_rivcan": 0.0, "per_dw_tank": 0.0, "per_dw_oth": 0.0, "per_loc_dw_wp": 14.7, "per_loc_dw_np": 82.4, "per_loc_dw_aw": 2.9, "per_light_elec": 82.4, "per_light_kero": 17.6, "per_light_solr": 0.0, "per_light_oil": 0.0, "per_light_oth": 0.0, "per_light_no": 0.0, "per_hh_latrine": 47.1, "per_fl_sewer": 0.0, "per_fl_septict": 26.5, "per_fl_othsys": 5.9, "per_pl_wslab": 2.9, "per_pl_without": 11.8, "per_ns_open": 0.0, "per_sl_ns_hum": 0.0, "per_sl_ns_anml": 0.0, "per_hh_no_lat": 52.9, "per_as_pub": 0.0, "per_as_open": 52.9, "per_hh_bathrm": 61.8, "per_hh_en_wrf": 35.3, "per_hh_no_btrm": 2.9, "per_wwoc_drain": 2.9, "per_wwoc_open": 97.1, "per_wwoc_nodrn": 0.0, "per_cook_fire": 94.1, "per_cook_resdu": 0.0, "per_cook_cwdng": 0.0, "per_cook_coal": 0.0, "per_cook_kero": 0.0, "per_cook_lpng": 5.9, "per_cook_elec": 0.0, "per_cook_biogs": 0.0, "per_cook_oth": 0.0, "per_cook_no": 0.0, "per_kf_inside": 20.6, "per_kf_in_has": 20.6, "per_kf_in_does": 0.0, "per_kf_outside": 79.4, "per_kf_out_has": 79.4, "per_kf_out_dos": 0.0, "per_kf_no_cook": 0.0, "per_hh_banking": 91.2, "per_hh_radio": 44.1, "per_hh_tv": 73.5, "per_hh_cmp_int": 2.9, "per_hh_cmp_wnt": 0.0, "per_hh_ph_ll": 2.9, "per_hh_ph_mob": 91.2, "per_hh_ph_bth": 0.0, "per_hh_bcycl": 0.0, "per_hh_2wheel": 0.0, "per_hh_4wheel": 0.0, "per_hh_tvcomp": null, "per_hh_no_ast": 0.0, "per_hs_perma": 100.0, "per_hs_sperma": 0.0, "per_hs_temp": 0.0, "per_hs_servc": 0.0, "per_hs_nservc": 0.0, "per_hs_unclss": 0.0, "avghhsz_cy": 4.0, "st_areashape": 31363.87350204, "st_lengthshape": 628.0581775956349}, "geometry": {"type": "Polygon", "coordinates": [[[77.31222116064544, 31.412755770177966], [77.31213171718923, 31.412751960676598], [77.31204316306516, 31.412740568970953], [77.31195637772387, 31.412721710056303], [77.31187222354804, 31.412695569458442], [77.31179153776755, 31.41266240860036], [77.31171512167958, 31.412622555602844], [77.31164373436059, 31.412576406817916], [77.31157808637793, 31.412524422229573], [77.31151882990852, 31.412467117020814], [77.31146655245057, 31.41240506080766], [77.31142177502693, 31.41233887150608], [77.31138494230363, 31.412269205366183], [77.31135642079339, 31.412196755439073], [77.31133649256711, 31.412122242377553], [77.31132535705086, 31.412046406002883], [77.31132312473737, 31.4119699999386], [77.31132981718625, 31.411893783943942], [77.31134536792214, 31.411818515480554], [77.3113696233331, 31.411744942045928], [77.31140234087408, 31.41167379580673], [77.3114431971515, 31.41160578286486], [77.31149178433029, 31.411541579424398], [77.3115476209134, 31.41148182412413], [77.3116101508437, 31.411427110370884], [77.31167875428363, 31.41137798173869], [77.31175274761524, 31.411334927368717], [77.3118313960167, 31.41129837430196], [77.31191391885196, 31.411268685945565], [77.31199949506089, 31.411246158239052], [77.31208727393887, 31.411231013520755], [77.31217638322178, 31.411223403594025], [77.31226593806907, 31.411223403594025], [77.31235504735203, 31.411231013520755], [77.31244282623, 31.411246158239052], [77.3125284024389, 31.411268685945565], [77.31261092527416, 31.41129837430196], [77.3126895736756, 31.411334927368717], [77.31276356700727, 31.41137798173869], [77.3128321704472, 31.411427110370884], [77.31289470037748, 31.41148182412413], [77.3129505369606, 31.411541579424398], [77.31299912413938, 31.41160578286486], [77.3130399804168, 31.41167379580673], [77.31307269795776, 31.411744942045928], [77.31309695336874, 31.411818515480554], [77.31311250410464, 31.411893783943942], [77.31311919655352, 31.4119699999386], [77.31311696424002, 31.412046406002883], [77.31310582872378, 31.412122242377553], [77.3130859004975, 31.412196755439073], [77.31305737898722, 31.412269205366183], [77.31302054626394, 31.41233887150608], [77.31297576884032, 31.41240506080766], [77.31292349138234, 31.412467117020814], [77.31286423491292, 31.412524422229573], [77.31279858693027, 31.412576406817916], [77.3127271996113, 31.412622555602844], [77.31265078352334, 31.41266240860036], [77.3125700977428, 31.412695569458442], [77.31248594356701, 31.412721710056303], [77.31239915822573, 31.412740568970953], [77.31231060410167, 31.412751960676598], [77.31222116064544, 31.412755770177966]]]}}]}