{"type": "FeatureCollection", "features": [{"type": "Feature", "properties": {"premiumdata.sde.IN_Village_PCA.area": 3.21550683, "objectid": 174325, "id": "21347276765474", "name": "Runipali", "subdistrict": "Bhatli", "district": "Bargarh", "state": "Odisha", "country": "India", "censusname": "Runipali", "villagename_locallang": null, "lgd_villagename": "Runipali", "lgd_villagecode": 380667, "lgd_subdistrictcode": 2767, "lgd_districtcode": 347, "lgd_statecode": 21, "censuscode2001": "00095000", "censuscode2011": "380667", "censuscode2021": null, "level": "Village", "tru": "Rural", "no_hh": 193, "tot_p": 782, "tot_m": 414, "tot_f": 368, "per_tot_m": 52.94117647, "per_tot_f": 47.05882353, "p_06": 73, "m_06": 46, "f_06": 27, "per_p_06": 9.33503836, "per_m_06": 63.01369863, "per_f_06": 36.98630137, "p_sc": 52, "m_sc": 30, "f_sc": 22, "per_p_sc": 6.64961637, "per_m_sc": 57.69230769, "per_f_sc": 42.30769231, "p_st": 324, "m_st": 162, "f_st": 162, "per_p_st": 41.43222506, "per_m_st": 50.0, "per_f_st": 50.0, "p_lit": 552, "m_lit": 308, "f_lit": 244, "per_p_lit": 70.58823529, "per_m_lit": 55.79710145, "per_f_lit": 44.20289855, "p_ill": 230, "m_ill": 106, "f_ill": 124, "per_p_ill": 29.41176471, "per_m_ill": 46.08695652, "per_f_ill": 53.91304348, "tot_work_p": 315, "tot_work_m": 264, "tot_work_f": 51, "per_tot_work_p": 40.28132992, "per_tot_work_m": 83.80952381, "per_tot_work_f": 16.19047619, "mainwork_p": 295, "mainwork_m": 264, "mainwork_f": 31, "per_mainwork_p": 37.72378517, "per_mainwork_m": 89.49152542, "per_mainwork_f": 10.50847458, "main_cl_p": 185, "main_cl_m": 184, "main_cl_f": 1, "per_main_cl_p": 62.71186441, "per_main_cl_m": 99.45945946, "per_main_cl_f": 0.54054054, "main_al_p": 37, "main_al_m": 32, "main_al_f": 5, "per_main_al_p": 12.54237288, "per_main_al_m": 86.48648649, "per_main_al_f": 13.51351351, "main_hh_p": 58, "main_hh_m": 34, "main_hh_f": 24, "per_main_hh_p": 19.66101695, "per_main_hh_m": 58.62068966, "per_main_hh_f": 41.37931034, "main_ot_p": 15, "main_ot_m": 14, "main_ot_f": 1, "per_main_ot_p": 5.08474576, "per_main_ot_m": 93.33333332999999, "per_main_ot_f": 6.66666667, "margwork_p": 20, "margwork_m": 0, "margwork_f": 20, "per_margwork_p": 2.55754476, "per_margwork_m": 0.0, "per_margwork_f": 100.0, "marg_cl_p": 1, "marg_cl_m": 0, "marg_cl_f": 1, "per_marg_cl_p": 5.0, "per_marg_cl_m": 0.0, "per_marg_cl_f": 100.0, "marg_al_p": 13, "marg_al_m": 0, "marg_al_f": 13, "per_marg_al_p": 65.0, "per_marg_al_m": 0.0, "per_marg_al_f": 100.0, "marg_hh_p": 0, "marg_hh_m": 0, "marg_hh_f": 0, "per_marg_hh_p": 0.0, "per_marg_hh_m": 0.0, "per_marg_hh_f": 0.0, "marg_ot_p": 6, "marg_ot_m": 0, "marg_ot_f": 6, "per_marg_ot_p": 30.0, "per_marg_ot_m": 0.0, "per_marg_ot_f": 100.0, "margwork_3_6_p": 20, "margwork_3_6_m": 0, "margwork_3_6_f": 20, "per_margwork_3_6_p": 100.0, "per_margwork_3_6_m": 0.0, "per_margwork_3_6_f": 100.0, "marg_cl_3_6_p": 1, "marg_cl_3_6_m": 0, "marg_cl_3_6_f": 1, "per_marg_cl_3_6_p": 5.0, "per_marg_cl_3_6_m": 0.0, "per_marg_cl_3_6_f": 100.0, "marg_al_3_6_p": 13, "marg_al_3_6_m": 0, "marg_al_3_6_f": 13, "per_marg_al_3_6_p": 65.0, "per_marg_al_3_6_m": 0.0, "per_marg_al_3_6_f": 100.0, "marg_hh_3_6_p": 0, "marg_hh_3_6_m": 0, "marg_hh_3_6_f": 0, "per_marg_hh_3_6_p": 0.0, "per_marg_hh_3_6_m": 0.0, "per_marg_hh_3_6_f": 0.0, "marg_ot_3_6_p": 6, "marg_ot_3_6_m": 0, "marg_ot_3_6_f": 6, "per_marg_ot_3_6_p": 30.0, "per_marg_ot_3_6_m": 0.0, "per_marg_ot_3_6_f": 100.0, "margwork_0_3_p": 0, "margwork_0_3_m": 0, "margwork_0_3_f": 0, "per_margwork_0_3_p": 0.0, "per_margwork_0_3_m": 0.0, "per_margwork_0_3_f": 0.0, "marg_cl_0_3_p": 0, "marg_cl_0_3_m": 0, "marg_cl_0_3_f": 0, "per_marg_cl_0_3_p": 0.0, "per_marg_cl_0_3_m": 0.0, "per_marg_cl_0_3_f": 0.0, "marg_al_0_3_p": 0, "marg_al_0_3_m": 0, "marg_al_0_3_f": 0, "per_marg_al_0_3_p": 0.0, "per_marg_al_0_3_m": 0.0, "per_marg_al_0_3_f": 0.0, "marg_hh_0_3_p": 0, "marg_hh_0_3_m": 0, "marg_hh_0_3_f": 0, "per_marg_hh_0_3_p": 0.0, "per_marg_hh_0_3_m": 0.0, "per_marg_hh_0_3_f": 0.0, "marg_ot_0_3_p": 0, "marg_ot_0_3_m": 0, "marg_ot_0_3_f": 0, "per_marg_ot_0_3_p": 0.0, "per_marg_ot_0_3_m": 0.0, "per_marg_ot_0_3_f": 0.0, "non_work_p": 467, "non_work_m": 150, "non_work_f": 317, "per_non_work_p": 59.71867008, "per_non_work_m": 32.11991435, "per_non_work_f": 67.88008565, "per_hc_tot_tot": 100, "per_hc_tot_god": 6.8, "per_hc_tot_liv": 88.0, "per_hc_tot_dil": 5.2, "per_hc_res_tot": 94.2, "per_hc_res_god": 6.3, "per_hc_res_liv": 83.2, "per_hc_res_dil": 4.7, "per_hc_oth_tot": 5.8, "per_hc_oth_god": 0.5, "per_hc_oth_liv": 4.7, "per_hc_oth_dil": 0.5, "per_mt_grsbam": 20.9, "per_mt_plastic": 0.0, "per_mt_h_tiles": 55.5, "per_mt_m_tiles": 0.5, "per_mt_b_brick": 0.0, "per_mt_stone": 13.6, "per_mt_asbstos": 2.1, "per_mt_concrte": 7.3, "per_mt_oth": 0.0, "per_mw_grsbam": 0.0, "per_mw_plastic": 0.0, "per_mw_mud": 70.2, "per_mw_wood": 0.0, "per_mw_no_mrtr": 0.0, "per_mw_st_mrtr": 1.6, "per_mw_asbstos": 0.0, "per_mw_b_brick": 23.6, "per_mw_concrte": 4.7, "per_mw_oth": 0.0, "per_mf_mud": 74.3, "per_mf_wood": 0.0, "per_mf_b_brick": 2.1, "per_mf_stone": 0.0, "per_mf_cement": 23.6, "per_mf_fl_tile": 0.0, "per_mf_oth": 0.0, "per_dw_n_exrm": 14.1, "per_dw_1_room": 31.4, "per_dw_2_room": 35.6, "per_dw_3_room": 9.4, "per_dw_4_room": 6.3, "per_dw_5_room": 0.5, "per_dw_6_room": 2.6, "per_hhsize_1": 11.0, "per_hhsize_2": 14.1, "per_hhsize_3": 12.6, "per_hhsize_4": 21.5, "per_hhsize_5": 16.8, "per_hhsize_6_8": 22.0, "per_hhsize_9p": 2.1, "per_ow_owned": 97.4, "per_ow_rented": 0.5, "per_ow_oth": 2.1, "per_mc_none": 29.8, "per_mcouple_1": 61.3, "per_mcouple_2": 7.9, "per_mcouple_3": 0.5, "per_mcouple_4": 0.5, "per_mcouple_5p": 0.0, "per_dw_t_ts": 21.5, "per_dw_t_unts": 0.0, "per_dw_c_well": 0.0, "per_dw_unc_wel": 0.0, "per_dw_hpump": 20.9, "per_dw_tw_bore": 57.6, "per_dw_spring": 0.0, "per_dw_rivcan": 0.0, "per_dw_tank": 0.0, "per_dw_oth": 0.0, "per_loc_dw_wp": 27.7, "per_loc_dw_np": 26.7, "per_loc_dw_aw": 45.5, "per_light_elec": 36.6, "per_light_kero": 63.4, "per_light_solr": 0.0, "per_light_oil": 0.0, "per_light_oth": 0.0, "per_light_no": 0.0, "per_hh_latrine": 27.7, "per_fl_sewer": 0.0, "per_fl_septict": 27.7, "per_fl_othsys": 0.0, "per_pl_wslab": 0.0, "per_pl_without": 0.0, "per_ns_open": 0.0, "per_sl_ns_hum": 0.0, "per_sl_ns_anml": 0.0, "per_hh_no_lat": 72.3, "per_as_pub": 0.0, "per_as_open": 72.3, "per_hh_bathrm": 19.9, "per_hh_en_wrf": 0.0, "per_hh_no_btrm": 80.1, "per_wwoc_drain": 1.0, "per_wwoc_open": 2.1, "per_wwoc_nodrn": 96.9, "per_cook_fire": 95.3, "per_cook_resdu": 3.7, "per_cook_cwdng": 1.0, "per_cook_coal": 0.0, "per_cook_kero": 0.0, "per_cook_lpng": 0.0, "per_cook_elec": 0.0, "per_cook_biogs": 0.0, "per_cook_oth": 0.0, "per_cook_no": 0.0, "per_kf_inside": 88.0, "per_kf_in_has": 27.2, "per_kf_in_does": 60.7, "per_kf_outside": 12.0, "per_kf_out_has": 2.6, "per_kf_out_dos": 9.4, "per_kf_no_cook": 0.0, "per_hh_banking": 22.0, "per_hh_radio": 1.6, "per_hh_tv": 28.8, "per_hh_cmp_int": 0.0, "per_hh_cmp_wnt": 0.0, "per_hh_ph_ll": 1.0, "per_hh_ph_mob": 34.0, "per_hh_ph_bth": 0.5, "per_hh_bcycl": 65.4, "per_hh_2wheel": 5.8, "per_hh_4wheel": 0.5, "per_hh_tvcomp": 0.0, "per_hh_no_ast": 26.2, "per_hs_perma": 29.3, "per_hs_sperma": 50.3, "per_hs_temp": 20.4, "per_hs_servc": 20.4, "per_hs_nservc": 0.0, "per_hs_unclss": 0.0, "avghhsz_cy": 4.05181347, "st_areashape": 3731914.23749013, "st_lengthshape": 8110.588292530308}, "geometry": {"type": "Polygon", "coordinates": [[[83.57646491913499, 21.491096042185127], [83.57410941788243, 21.490726132939802], [83.57318052574266, 21.49139045332704], [83.5699473075754, 21.491584712397586], [83.56618039221307, 21.492699023762327], [83.56456845077564, 21.49347317869858], [83.56348395875058, 21.494347511756768], [83.56254738691347, 21.49457413058839], [83.56147974728312, 21.494482112153303], [83.561356090591, 21.49375715703912], [83.56146450017782, 21.492789486137017], [83.56198250739818, 21.49097120317542], [83.56207470059749, 21.49017532417846], [83.5619656460203, 21.4894591401123], [83.56165792183151, 21.487585924169505], [83.56116817381334, 21.486063049662214], [83.55989968436023, 21.48330609900103], [83.56169625114808, 21.48151346212251], [83.56346349243347, 21.480249431858912], [83.56409363455415, 21.47959869540528], [83.56482133910457, 21.478467974716725], [83.56583443213253, 21.47683173899567], [83.56800567095404, 21.475778097945724], [83.56870092655973, 21.475270875927087], [83.56906199720167, 21.474687436591836], [83.56971066527844, 21.473720398807068], [83.57027039385389, 21.47318812419389], [83.57110784558256, 21.472543304920634], [83.57369657014414, 21.471650248902968], [83.5746666931588, 21.47279096298083], [83.57671526433333, 21.475188090069192], [83.57774911293593, 21.476652868328355], [83.57850544769278, 21.47797290318496], [83.57913316076889, 21.479927025673035], [83.57958387788628, 21.481965077608546], [83.57983664494265, 21.48344639876838], [83.58010681416266, 21.485365301029645], [83.57693627684267, 21.486091403829253], [83.57654008566638, 21.48714932519132], [83.57646491913499, 21.491096042185127]]]}}]}