{"type": "FeatureCollection", "features": [{"type": "Feature", "properties": {"premiumdata.sde.IN_Village_PCA.area": 1.70792698, "objectid": 426724, "id": "333217347951", "name": "Bharta", "subdistrict": "Garhshankar", "district": "Hoshiarpur", "state": "Punjab", "country": "India", "censusname": "Bharta (70)", "villagename_locallang": null, "lgd_villagename": "Bharta (70)", "lgd_villagecode": 31869, "lgd_subdistrictcode": 217, "lgd_districtcode": 33, "lgd_statecode": 3, "censuscode2001": "00571900", "censuscode2011": "031869", "censuscode2021": null, "level": "Village", "tru": "Rural", "no_hh": 226, "tot_p": 1080, "tot_m": 549, "tot_f": 531, "per_tot_m": 50.83333333, "per_tot_f": 49.16666667000001, "p_06": 101, "m_06": 53, "f_06": 48, "per_p_06": 9.35185185, "per_m_06": 52.47524752, "per_f_06": 47.52475248, "p_sc": 460, "m_sc": 233, "f_sc": 227, "per_p_sc": 42.59259259, "per_m_sc": 50.65217391, "per_f_sc": 49.34782609, "p_st": 0, "m_st": 0, "f_st": 0, "per_p_st": 0.0, "per_m_st": 0.0, "per_f_st": 0.0, "p_lit": 826, "m_lit": 452, "f_lit": 374, "per_p_lit": 76.48148148, "per_m_lit": 54.72154964, "per_f_lit": 45.27845036, "p_ill": 254, "m_ill": 97, "f_ill": 157, "per_p_ill": 23.51851852, "per_m_ill": 38.18897638, "per_f_ill": 61.81102362, "tot_work_p": 343, "tot_work_m": 298, "tot_work_f": 45, "per_tot_work_p": 31.75925926, "per_tot_work_m": 86.88046646999999, "per_tot_work_f": 13.11953353, "mainwork_p": 242, "mainwork_m": 217, "mainwork_f": 25, "per_mainwork_p": 22.40740741, "per_mainwork_m": 89.66942149, "per_mainwork_f": 10.33057851, "main_cl_p": 51, "main_cl_m": 50, "main_cl_f": 1, "per_main_cl_p": 21.07438017, "per_main_cl_m": 98.03921569, "per_main_cl_f": 1.96078431, "main_al_p": 2, "main_al_m": 2, "main_al_f": 0, "per_main_al_p": 0.82644628, "per_main_al_m": 100.0, "per_main_al_f": 0.0, "main_hh_p": 9, "main_hh_m": 7, "main_hh_f": 2, "per_main_hh_p": 3.71900826, "per_main_hh_m": 77.77777778, "per_main_hh_f": 22.22222222, "main_ot_p": 180, "main_ot_m": 158, "main_ot_f": 22, "per_main_ot_p": 74.38016529, "per_main_ot_m": 87.77777778, "per_main_ot_f": 12.22222222, "margwork_p": 101, "margwork_m": 81, "margwork_f": 20, "per_margwork_p": 9.35185185, "per_margwork_m": 80.1980198, "per_margwork_f": 19.8019802, "marg_cl_p": 3, "marg_cl_m": 2, "marg_cl_f": 1, "per_marg_cl_p": 2.97029703, "per_marg_cl_m": 66.66666667, "per_marg_cl_f": 33.33333333, "marg_al_p": 1, "marg_al_m": 1, "marg_al_f": 0, "per_marg_al_p": 0.99009901, "per_marg_al_m": 100.0, "per_marg_al_f": 0.0, "marg_hh_p": 2, "marg_hh_m": 2, "marg_hh_f": 0, "per_marg_hh_p": 1.98019802, "per_marg_hh_m": 100.0, "per_marg_hh_f": 0.0, "marg_ot_p": 95, "marg_ot_m": 76, "marg_ot_f": 19, "per_marg_ot_p": 94.05940594, "per_marg_ot_m": 80.0, "per_marg_ot_f": 20.0, "margwork_3_6_p": 55, "margwork_3_6_m": 49, "margwork_3_6_f": 6, "per_margwork_3_6_p": 54.45544554, "per_margwork_3_6_m": 89.09090909000001, "per_margwork_3_6_f": 10.90909091, "marg_cl_3_6_p": 2, "marg_cl_3_6_m": 1, "marg_cl_3_6_f": 1, "per_marg_cl_3_6_p": 1.98019802, "per_marg_cl_3_6_m": 50.0, "per_marg_cl_3_6_f": 50.0, "marg_al_3_6_p": 0, "marg_al_3_6_m": 0, "marg_al_3_6_f": 0, "per_marg_al_3_6_p": 0.0, "per_marg_al_3_6_m": 0.0, "per_marg_al_3_6_f": 0.0, "marg_hh_3_6_p": 1, "marg_hh_3_6_m": 1, "marg_hh_3_6_f": 0, "per_marg_hh_3_6_p": 0.99009901, "per_marg_hh_3_6_m": 100.0, "per_marg_hh_3_6_f": 0.0, "marg_ot_3_6_p": 52, "marg_ot_3_6_m": 47, "marg_ot_3_6_f": 5, "per_marg_ot_3_6_p": 51.48514851, "per_marg_ot_3_6_m": 90.38461538, "per_marg_ot_3_6_f": 9.61538462, "margwork_0_3_p": 46, "margwork_0_3_m": 32, "margwork_0_3_f": 14, "per_margwork_0_3_p": 45.54455446, "per_margwork_0_3_m": 69.56521739, "per_margwork_0_3_f": 30.43478261, "marg_cl_0_3_p": 1, "marg_cl_0_3_m": 1, "marg_cl_0_3_f": 0, "per_marg_cl_0_3_p": 0.99009901, "per_marg_cl_0_3_m": 100.0, "per_marg_cl_0_3_f": 0.0, "marg_al_0_3_p": 1, "marg_al_0_3_m": 1, "marg_al_0_3_f": 0, "per_marg_al_0_3_p": 0.99009901, "per_marg_al_0_3_m": 100.0, "per_marg_al_0_3_f": 0.0, "marg_hh_0_3_p": 1, "marg_hh_0_3_m": 1, "marg_hh_0_3_f": 0, "per_marg_hh_0_3_p": 0.99009901, "per_marg_hh_0_3_m": 100.0, "per_marg_hh_0_3_f": 0.0, "marg_ot_0_3_p": 43, "marg_ot_0_3_m": 29, "marg_ot_0_3_f": 14, "per_marg_ot_0_3_p": 42.57425743, "per_marg_ot_0_3_m": 67.44186047, "per_marg_ot_0_3_f": 32.55813953000001, "non_work_p": 737, "non_work_m": 251, "non_work_f": 486, "per_non_work_p": 68.24074074, "per_non_work_m": 34.05698779, "per_non_work_f": 65.94301221, "per_hc_tot_tot": 100, "per_hc_tot_god": 65.2, "per_hc_tot_liv": 32.9, "per_hc_tot_dil": 1.9, "per_hc_res_tot": 95.7, "per_hc_res_god": 61.9, "per_hc_res_liv": 31.9, "per_hc_res_dil": 1.9, "per_hc_oth_tot": 4.3, "per_hc_oth_god": 3.3, "per_hc_oth_liv": 1.0, "per_hc_oth_dil": 0.0, "per_mt_grsbam": 3.3, "per_mt_plastic": 0.0, "per_mt_h_tiles": 1.4, "per_mt_m_tiles": 0.0, "per_mt_b_brick": 60.0, "per_mt_stone": 0.0, "per_mt_asbstos": 1.4, "per_mt_concrte": 33.8, "per_mt_oth": 0.0, "per_mw_grsbam": 0.0, "per_mw_plastic": 0.0, "per_mw_mud": 1.4, "per_mw_wood": 0.0, "per_mw_no_mrtr": 0.0, "per_mw_st_mrtr": 0.0, "per_mw_asbstos": 0.0, "per_mw_b_brick": 98.1, "per_mw_concrte": 0.5, "per_mw_oth": 0.0, "per_mf_mud": 5.2, "per_mf_wood": 0.0, "per_mf_b_brick": 3.3, "per_mf_stone": 12.9, "per_mf_cement": 78.6, "per_mf_fl_tile": 0.0, "per_mf_oth": 0.0, "per_dw_n_exrm": 0.0, "per_dw_1_room": 7.6, "per_dw_2_room": 24.8, "per_dw_3_room": 29.5, "per_dw_4_room": 16.7, "per_dw_5_room": 13.3, "per_dw_6_room": 8.1, "per_hhsize_1": 5.7, "per_hhsize_2": 5.7, "per_hhsize_3": 14.3, "per_hhsize_4": 22.9, "per_hhsize_5": 16.7, "per_hhsize_6_8": 31.0, "per_hhsize_9p": 3.8, "per_ow_owned": 95.2, "per_ow_rented": 2.9, "per_ow_oth": 1.9, "per_mc_none": 11.4, "per_mcouple_1": 61.4, "per_mcouple_2": 22.9, "per_mcouple_3": 4.3, "per_mcouple_4": 0.0, "per_mcouple_5p": 0.0, "per_dw_t_ts": 17.1, "per_dw_t_unts": 10.5, "per_dw_c_well": 0.0, "per_dw_unc_wel": 0.0, "per_dw_hpump": 43.8, "per_dw_tw_bore": 26.2, "per_dw_spring": 0.0, "per_dw_rivcan": 0.0, "per_dw_tank": 0.0, "per_dw_oth": 2.4, "per_loc_dw_wp": 80.0, "per_loc_dw_np": 14.3, "per_loc_dw_aw": 5.7, "per_light_elec": 98.6, "per_light_kero": 1.0, "per_light_solr": 0.0, "per_light_oil": 0.5, "per_light_oth": 0.0, "per_light_no": 0.0, "per_hh_latrine": 71.0, "per_fl_sewer": 1.0, "per_fl_septict": 70.0, "per_fl_othsys": 0.0, "per_pl_wslab": 0.0, "per_pl_without": 0.0, "per_ns_open": 0.0, "per_sl_ns_hum": 0.0, "per_sl_ns_anml": 0.0, "per_hh_no_lat": 29.0, "per_as_pub": 0.0, "per_as_open": 29.0, "per_hh_bathrm": 82.4, "per_hh_en_wrf": 11.9, "per_hh_no_btrm": 5.7, "per_wwoc_drain": 1.0, "per_wwoc_open": 89.5, "per_wwoc_nodrn": 9.5, "per_cook_fire": 23.3, "per_cook_resdu": 4.3, "per_cook_cwdng": 3.3, "per_cook_coal": 0.0, "per_cook_kero": 0.0, "per_cook_lpng": 67.1, "per_cook_elec": 0.0, "per_cook_biogs": 0.5, "per_cook_oth": 0.0, "per_cook_no": 1.4, "per_kf_inside": 96.2, "per_kf_in_has": 82.9, "per_kf_in_does": 13.3, "per_kf_outside": 2.4, "per_kf_out_has": 0.0, "per_kf_out_dos": 2.4, "per_kf_no_cook": 1.4, "per_hh_banking": 91.4, "per_hh_radio": 13.8, "per_hh_tv": 91.9, "per_hh_cmp_int": 2.4, "per_hh_cmp_wnt": 4.3, "per_hh_ph_ll": 4.3, "per_hh_ph_mob": 61.9, "per_hh_ph_bth": 25.2, "per_hh_bcycl": 88.1, "per_hh_2wheel": 38.6, "per_hh_4wheel": 10.0, "per_hh_tvcomp": 2.9, "per_hh_no_ast": 1.4, "per_hs_perma": 96.2, "per_hs_sperma": 2.9, "per_hs_temp": 1.0, "per_hs_servc": 1.0, "per_hs_nservc": 0.0, "per_hs_unclss": 0.0, "avghhsz_cy": 4.77876106, "st_areashape": 2348410.760299775, "st_lengthshape": 7246.381538985743}, "geometry": {"type": "Polygon", "coordinates": [[[76.00840097456918, 31.337732868046334], [76.00832915695716, 31.337695192213353], [76.0080934498064, 31.337323942814226], [76.00803775695374, 31.337157818900735], [76.00798264800599, 31.33699345404856], [76.00804046627262, 31.336429274228035], [76.00818250249546, 31.335514350814755], [76.0083691616317, 31.334684665316285], [76.00844628379548, 31.334101957581854], [76.00856392986002, 31.33368798539254], [76.00896344390455, 31.3334932094357], [76.0095961192743, 31.333515896973633], [76.0103139477465, 31.33379255896627], [76.01166244385378, 31.33413363153562], [76.01335163052416, 31.33448691816436], [76.0148947960451, 31.334834941395208], [76.01585803257477, 31.335078550906257], [76.01662861371372, 31.335273420259927], [76.01740325613603, 31.335384805563475], [76.01799741444138, 31.335196996244605], [76.01821643538574, 31.334703009702185], [76.01819009947657, 31.334242057199237], [76.01780077232736, 31.333224451315566], [76.01761425242998, 31.332046821564774], [76.01760212337702, 31.331293641702437], [76.017691361119, 31.330460434570174], [76.0179353040243, 31.329422435809338], [76.01825166371792, 31.329425543510613], [76.01902777039417, 31.32951812840809], [76.0196191484137, 31.32958868464093], [76.02040531801774, 31.329845195811085], [76.02091097430127, 31.330396139601643], [76.02172113341497, 31.33107215344647], [76.0227952076777, 31.331795669946857], [76.023780726918, 31.33251599425341], [76.0246776525084, 31.333233157898608], [76.02583481374839, 31.334073796297496], [76.02717742678887, 31.334934774152064], [76.02768681826737, 31.335409697054853], [76.02835310679843, 31.3363088685121], [76.02886440809523, 31.337659213558766], [76.02893582326197, 31.337853875777682], [76.02443919651287, 31.34036923965816], [76.02268062307164, 31.341327849129378], [76.02061239945367, 31.34253070884171], [76.01944202938576, 31.343638017733415], [76.01892804122792, 31.345024181275473], [76.01892118079414, 31.34504522881498], [76.01885393381025, 31.34525141527735], [76.0172959559686, 31.344655577746988], [76.01646732030613, 31.344299393943118], [76.01560348415924, 31.343796831675412], [76.01503347436537, 31.343341067165557], [76.01469045536909, 31.3425669250081], [76.01451102497592, 31.34190749152528], [76.0141961340278, 31.341424583804503], [76.01366308451802, 31.341078973359483], [76.01287669213175, 31.340724281341927], [76.01233836232471, 31.34048731466351], [76.01163289467081, 31.34020807599431], [76.01130920741946, 31.339906240272555], [76.0109538653341, 31.33938559264873], [76.01022556609894, 31.338706456702674], [76.00953423074114, 31.33813747871823], [76.00907683195464, 31.337975959824732], [76.00870035071404, 31.33788990039365], [76.00840097456918, 31.337732868046334]]]}}]}