{"type": "FeatureCollection", "features": [{"type": "Feature", "properties": {"premiumdata.sde.IN_Village_PCA.area": 5.54614738, "objectid": 61969, "id": "274904188616979", "name": "Tambademala", "subdistrict": "Ambegaon", "district": "Pune", "state": "Maharashtra", "country": "India", "censusname": "Tamblemala", "villagename_locallang": "\u0924\u093e\u0902\u092c\u0921\u0947\u092e\u0933\u093e", "lgd_villagename": "Tambademala", "lgd_villagecode": 555528, "lgd_subdistrictcode": 4188, "lgd_districtcode": 490, "lgd_statecode": 27, "censuscode2001": "03039700", "censuscode2011": "555528", "censuscode2021": null, "level": "Village", "tru": "Rural", "no_hh": 227, "tot_p": 1145, "tot_m": 550, "tot_f": 595, "per_tot_m": 48.0349345, "per_tot_f": 51.9650655, "p_06": 122, "m_06": 64, "f_06": 58, "per_p_06": 10.65502183, "per_m_06": 52.45901639, "per_f_06": 47.54098361, "p_sc": 0, "m_sc": 0, "f_sc": 0, "per_p_sc": 0.0, "per_m_sc": 0.0, "per_f_sc": 0.0, "p_st": 1, "m_st": 0, "f_st": 1, "per_p_st": 0.08733624, "per_m_st": 0.0, "per_f_st": 100.0, "p_lit": 847, "m_lit": 454, "f_lit": 393, "per_p_lit": 73.97379912999999, "per_m_lit": 53.60094451000001, "per_f_lit": 46.39905549, "p_ill": 298, "m_ill": 96, "f_ill": 202, "per_p_ill": 26.02620087, "per_m_ill": 32.2147651, "per_f_ill": 67.7852349, "tot_work_p": 691, "tot_work_m": 321, "tot_work_f": 370, "per_tot_work_p": 60.34934498, "per_tot_work_m": 46.45441389, "per_tot_work_f": 53.54558611, "mainwork_p": 610, "mainwork_m": 305, "mainwork_f": 305, "per_mainwork_p": 53.27510917, "per_mainwork_m": 50.0, "per_mainwork_f": 50.0, "main_cl_p": 522, "main_cl_m": 267, "main_cl_f": 255, "per_main_cl_p": 85.57377049, "per_main_cl_m": 51.14942529, "per_main_cl_f": 48.85057471, "main_al_p": 55, "main_al_m": 16, "main_al_f": 39, "per_main_al_p": 9.01639344, "per_main_al_m": 29.09090909, "per_main_al_f": 70.90909091, "main_hh_p": 2, "main_hh_m": 1, "main_hh_f": 1, "per_main_hh_p": 0.32786885, "per_main_hh_m": 50.0, "per_main_hh_f": 50.0, "main_ot_p": 31, "main_ot_m": 21, "main_ot_f": 10, "per_main_ot_p": 5.08196721, "per_main_ot_m": 67.74193548, "per_main_ot_f": 32.25806452, "margwork_p": 81, "margwork_m": 16, "margwork_f": 65, "per_margwork_p": 7.07423581, "per_margwork_m": 19.75308642, "per_margwork_f": 80.24691358, "marg_cl_p": 51, "marg_cl_m": 11, "marg_cl_f": 40, "per_marg_cl_p": 62.96296296, "per_marg_cl_m": 21.56862745, "per_marg_cl_f": 78.43137255, "marg_al_p": 22, "marg_al_m": 2, "marg_al_f": 20, "per_marg_al_p": 27.16049383, "per_marg_al_m": 9.09090909, "per_marg_al_f": 90.90909091, "marg_hh_p": 0, "marg_hh_m": 0, "marg_hh_f": 0, "per_marg_hh_p": 0.0, "per_marg_hh_m": 0.0, "per_marg_hh_f": 0.0, "marg_ot_p": 8, "marg_ot_m": 3, "marg_ot_f": 5, "per_marg_ot_p": 9.87654321, "per_marg_ot_m": 37.5, "per_marg_ot_f": 62.5, "margwork_3_6_p": 75, "margwork_3_6_m": 16, "margwork_3_6_f": 59, "per_margwork_3_6_p": 92.59259259, "per_margwork_3_6_m": 21.33333333, "per_margwork_3_6_f": 78.66666667, "marg_cl_3_6_p": 46, "marg_cl_3_6_m": 11, "marg_cl_3_6_f": 35, "per_marg_cl_3_6_p": 56.79012346, "per_marg_cl_3_6_m": 23.91304348, "per_marg_cl_3_6_f": 76.08695652, "marg_al_3_6_p": 21, "marg_al_3_6_m": 2, "marg_al_3_6_f": 19, "per_marg_al_3_6_p": 25.92592593, "per_marg_al_3_6_m": 9.52380952, "per_marg_al_3_6_f": 90.47619048, "marg_hh_3_6_p": 0, "marg_hh_3_6_m": 0, "marg_hh_3_6_f": 0, "per_marg_hh_3_6_p": 0.0, "per_marg_hh_3_6_m": 0.0, "per_marg_hh_3_6_f": 0.0, "marg_ot_3_6_p": 8, "marg_ot_3_6_m": 3, "marg_ot_3_6_f": 5, "per_marg_ot_3_6_p": 9.87654321, "per_marg_ot_3_6_m": 37.5, "per_marg_ot_3_6_f": 62.5, "margwork_0_3_p": 6, "margwork_0_3_m": 0, "margwork_0_3_f": 6, "per_margwork_0_3_p": 7.40740741, "per_margwork_0_3_m": 0.0, "per_margwork_0_3_f": 100.0, "marg_cl_0_3_p": 5, "marg_cl_0_3_m": 0, "marg_cl_0_3_f": 5, "per_marg_cl_0_3_p": 6.17283951, "per_marg_cl_0_3_m": 0.0, "per_marg_cl_0_3_f": 100.0, "marg_al_0_3_p": 1, "marg_al_0_3_m": 0, "marg_al_0_3_f": 1, "per_marg_al_0_3_p": 1.2345679, "per_marg_al_0_3_m": 0.0, "per_marg_al_0_3_f": 100.0, "marg_hh_0_3_p": 0, "marg_hh_0_3_m": 0, "marg_hh_0_3_f": 0, "per_marg_hh_0_3_p": 0.0, "per_marg_hh_0_3_m": 0.0, "per_marg_hh_0_3_f": 0.0, "marg_ot_0_3_p": 0, "marg_ot_0_3_m": 0, "marg_ot_0_3_f": 0, "per_marg_ot_0_3_p": 0.0, "per_marg_ot_0_3_m": 0.0, "per_marg_ot_0_3_f": 0.0, "non_work_p": 454, "non_work_m": 229, "non_work_f": 225, "per_non_work_p": 39.65065502, "per_non_work_m": 50.44052863, "per_non_work_f": 49.55947137, "per_hc_tot_tot": 100, "per_hc_tot_god": 48.9, "per_hc_tot_liv": 46.6, "per_hc_tot_dil": 4.5, "per_hc_res_tot": 99.1, "per_hc_res_god": 48.4, "per_hc_res_liv": 46.2, "per_hc_res_dil": 4.5, "per_hc_oth_tot": 0.9, "per_hc_oth_god": 0.4, "per_hc_oth_liv": 0.4, "per_hc_oth_dil": 0.0, "per_mt_grsbam": 4.9, "per_mt_plastic": 0.0, "per_mt_h_tiles": 15.2, "per_mt_m_tiles": 45.3, "per_mt_b_brick": 0.4, "per_mt_stone": 5.8, "per_mt_asbstos": 17.5, "per_mt_concrte": 10.8, "per_mt_oth": 0.0, "per_mw_grsbam": 2.2, "per_mw_plastic": 0.0, "per_mw_mud": 13.9, "per_mw_wood": 0.4, "per_mw_no_mrtr": 2.2, "per_mw_st_mrtr": 44.4, "per_mw_asbstos": 0.0, "per_mw_b_brick": 31.8, "per_mw_concrte": 4.9, "per_mw_oth": 0.0, "per_mf_mud": 51.1, "per_mf_wood": 0.0, "per_mf_b_brick": 1.3, "per_mf_stone": 0.0, "per_mf_cement": 1.8, "per_mf_fl_tile": 45.7, "per_mf_oth": 0.0, "per_dw_n_exrm": 0.4, "per_dw_1_room": 32.7, "per_dw_2_room": 47.1, "per_dw_3_room": 14.8, "per_dw_4_room": 4.5, "per_dw_5_room": 0.0, "per_dw_6_room": 0.4, "per_hhsize_1": 7.6, "per_hhsize_2": 9.9, "per_hhsize_3": 9.0, "per_hhsize_4": 16.6, "per_hhsize_5": 19.3, "per_hhsize_6_8": 27.4, "per_hhsize_9p": 10.3, "per_ow_owned": 97.8, "per_ow_rented": 1.8, "per_ow_oth": 0.4, "per_mc_none": 11.7, "per_mcouple_1": 44.4, "per_mcouple_2": 31.8, "per_mcouple_3": 10.3, "per_mcouple_4": 1.3, "per_mcouple_5p": 0.4, "per_dw_t_ts": 12.1, "per_dw_t_unts": 30.0, "per_dw_c_well": 16.1, "per_dw_unc_wel": 19.7, "per_dw_hpump": 12.6, "per_dw_tw_bore": 8.1, "per_dw_spring": 0.0, "per_dw_rivcan": 0.0, "per_dw_tank": 1.3, "per_dw_oth": 0.0, "per_loc_dw_wp": 35.0, "per_loc_dw_np": 62.3, "per_loc_dw_aw": 2.7, "per_light_elec": 95.5, "per_light_kero": 2.2, "per_light_solr": 0.4, "per_light_oil": 0.0, "per_light_oth": 0.0, "per_light_no": 1.8, "per_hh_latrine": 91.5, "per_fl_sewer": 4.0, "per_fl_septict": 49.8, "per_fl_othsys": 25.1, "per_pl_wslab": 12.1, "per_pl_without": 0.4, "per_ns_open": 0.0, "per_sl_ns_hum": 0.0, "per_sl_ns_anml": 0.0, "per_hh_no_lat": 8.5, "per_as_pub": 0.9, "per_as_open": 7.6, "per_hh_bathrm": 49.8, "per_hh_en_wrf": 23.3, "per_hh_no_btrm": 26.9, "per_wwoc_drain": 2.2, "per_wwoc_open": 0.4, "per_wwoc_nodrn": 97.3, "per_cook_fire": 58.3, "per_cook_resdu": 2.2, "per_cook_cwdng": 9.4, "per_cook_coal": 0.0, "per_cook_kero": 1.8, "per_cook_lpng": 26.9, "per_cook_elec": 0.0, "per_cook_biogs": 0.9, "per_cook_oth": 0.0, "per_cook_no": 0.4, "per_kf_inside": 97.8, "per_kf_in_has": 73.1, "per_kf_in_does": 24.7, "per_kf_outside": 1.8, "per_kf_out_has": 0.9, "per_kf_out_dos": 0.9, "per_kf_no_cook": 0.4, "per_hh_banking": 65.9, "per_hh_radio": 4.9, "per_hh_tv": 48.4, "per_hh_cmp_int": 1.8, "per_hh_cmp_wnt": 1.8, "per_hh_ph_ll": 2.2, "per_hh_ph_mob": 61.4, "per_hh_ph_bth": 0.4, "per_hh_bcycl": 21.5, "per_hh_2wheel": 28.7, "per_hh_4wheel": 1.3, "per_hh_tvcomp": 0.0, "per_hh_no_ast": 27.8, "per_hs_perma": 78.9, "per_hs_sperma": 20.6, "per_hs_temp": 0.4, "per_hs_servc": 0.4, "per_hs_nservc": 0.0, "per_hs_unclss": 0.0, "avghhsz_cy": 5.04405286, "st_areashape": 6234197.06237299, "st_lengthshape": 10533.190485406305}, "geometry": {"type": "Polygon", "coordinates": [[[73.96390344068583, 18.974579358831253], [73.96364713965716, 18.974606920968814], [73.96256508565976, 18.978179603958672], [73.96074273632495, 18.981742035422748], [73.96067961350657, 18.9821553031255], [73.95754753845378, 18.981458865377153], [73.95417813928276, 18.978543393859667], [73.95052322048011, 18.977059069020772], [73.94764544950114, 18.97415167831283], [73.94594740544206, 18.973172685596005], [73.94586009817962, 18.973154461892904], [73.9458056441037, 18.97308711351843], [73.9457511900278, 18.973019765116735], [73.94569673685025, 18.972952417537364], [73.94564228367267, 18.972885069930765], [73.94558782959679, 18.972817720597927], [73.94553337641919, 18.972750372936893], [73.94547892324161, 18.972683025248656], [73.94542446916572, 18.97261567668367], [73.94537001598816, 18.972548328091495], [73.94531556281056, 18.972480979472067], [73.94526110873468, 18.97241363082543], [73.9452066555571, 18.972346283001105], [73.94515220237955, 18.972278934300064], [73.94509774920195, 18.972211585571774], [73.94504329512606, 18.972144236816273], [73.94498884194847, 18.972076888033595], [73.94493438877087, 18.97200954007319], [73.944879934695, 18.97194219123604], [73.94482548151744, 18.971874842371673], [73.94477102744152, 18.97180749348013], [73.94471657426396, 18.971740145410863], [73.94466212108637, 18.971672796464844], [73.94460766790881, 18.971605447491626], [73.94455321383289, 18.97153809849121], [73.94449876065535, 18.971470749463553], [73.94444430747775, 18.971403401258222], [73.94438985340186, 18.971336052176166], [73.94433540022426, 18.97126870306687], [73.94428094614838, 18.97120135393035], [73.9442264929708, 18.971134005616154], [73.94417203979324, 18.971066656425247], [73.94411758661565, 18.970999307207077], [73.94406313253975, 18.970931957961703], [73.94400867936217, 18.97086460868916], [73.94395422618462, 18.970797260238886], [73.94389977300702, 18.970729910911864], [73.94384531893114, 18.97066256155764], [73.94379086575356, 18.970595212176217], [73.94373641167766, 18.970527862767568], [73.94368195850008, 18.970460514181234], [73.94362750532251, 18.970393164718146], [73.94357305214493, 18.97032581522787], [73.94351859806905, 18.97025846571037], [73.94346414489145, 18.970191117015183], [73.9434096917139, 18.970123767443273], [73.943355237638, 18.97005641784412], [73.94330078446042, 18.969989068217743], [73.94324633128282, 18.969921718564205], [73.94319187810527, 18.9698543688834], [73.94313742492768, 18.9697870191754], [73.94308297175009, 18.96971966944022], [73.94302851767421, 18.96965231967778], [73.94297406449665, 18.969584970737678], [73.94291961131907, 18.969517620920826], [73.94286515724318, 18.969450271076784], [73.94281070406558, 18.969382921205504], [73.94275625088802, 18.969315571307035], [73.94270179771044, 18.969248222230885], [73.94264734363456, 18.969180872277953], [73.94259289045696, 18.96911352229782], [73.94253843727938, 18.969046172290504], [73.94248398320349, 18.96897882225595], [73.94242953002593, 18.96891147304373], [73.94237507684834, 18.968844122954746], [73.94232062277246, 18.96877677283859], [73.94226616959487, 18.968709422695184], [73.9422117164173, 18.968642073374127], [73.94215726234138, 18.968574723176292], [73.94210280916383, 18.968507372951287], [73.94201614150184, 18.968486298549795], [73.94192947473816, 18.96846522499519], [73.9418428070762, 18.96844415058837], [73.94175614031252, 18.968423076178905], [73.94166947265056, 18.968402001766766], [73.94158280588688, 18.968380928201483], [73.94149613822492, 18.968359853784005], [73.94140947056292, 18.968338779363865], [73.94132280379925, 18.968317704941093], [73.94123613613728, 18.968296630515624], [73.94114946937361, 18.968275556087484], [73.94106280171164, 18.96825448165667], [73.94097613404963, 18.968233407223234], [73.94088946728596, 18.968212332787104], [73.940802799624, 18.968191258348316], [73.94071613286032, 18.968170183906892], [73.94062946519836, 18.96814910946277], [73.94054279843469, 18.96812803501598], [73.94045613077272, 18.96810696056655], [73.94036946311073, 18.968085886114444], [73.94028279634703, 18.968064811659662], [73.94019612868509, 18.96804373720222], [73.9401094619214, 18.968022662742133], [73.94002279425943, 18.968001588279364], [73.93993612659743, 18.96798051381393], [73.93984945983377, 18.96795943934587], [73.93976279217179, 18.967938364875096], [73.93967612540813, 18.96791729040166], [73.93958945774617, 18.967896215925595], [73.93950279098249, 18.967875141446832], [73.93941612332048, 18.967854066965426], [73.93932945565851, 18.96783299248133], [73.93924278889484, 18.967811917994617], [73.93915612123287, 18.967790843505206], [73.9390694544692, 18.967769769013135], [73.93898278680723, 18.967748694518406], [73.93889611914524, 18.967727620021005], [73.93880945238156, 18.96770654552093], [73.9387227847196, 18.967685471018225], [73.93863611795592, 18.96766439651282], [73.93854945029396, 18.967643322004758], [73.93846278353028, 18.967622247494024], [73.9383761158683, 18.96760117298067], [73.93828944820632, 18.96758009846462], [73.93820278144266, 18.967559023945896], [73.93811611378068, 18.96753794942454], [73.93802944701702, 18.967516874900483], [73.93794277935504, 18.96749580037377], [73.93785589879234, 18.967494630557795], [73.93776901912794, 18.96749346159133], [73.93768213856522, 18.967492292624893], [73.93759525800252, 18.967491122808855], [73.93750837833814, 18.967489953842353], [73.93742149777542, 18.96748878402634], [73.93733461721274, 18.967487614210327], [73.93724773754836, 18.967486445243814], [73.93716085698564, 18.967485276277273], [73.93707397732126, 18.967484107310785], [73.93698709675856, 18.967482938344247], [73.93690021619584, 18.96748176937771], [73.93681333653144, 18.967480600411143], [73.93672645596874, 18.96747943144462], [73.93663957540605, 18.96747826247804], [73.93655269574168, 18.967477093511462], [73.93646581517896, 18.967475924544885], [73.93558619563252, 18.963403269134616], [73.93519716672402, 18.95933770170605], [73.93493413551724, 18.95813997406736], [73.93502345680257, 18.958137969041495], [73.9351127780879, 18.958135964865175], [73.93520209937326, 18.95813395983924], [73.93529142065859, 18.958131955662875], [73.93538074194392, 18.958129950636877], [73.93547006322925, 18.95812794646047], [73.93555938451456, 18.95812594143446], [73.93564870579989, 18.958123937258], [73.93573802708522, 18.958121932231915], [73.93582734837055, 18.958119928055407], [73.93591666965587, 18.95811792302926], [73.9360059909412, 18.958115918852712], [73.93609531312485, 18.958113913826548], [73.93618463441018, 18.958111908800348], [73.93627395569551, 18.958109903774123], [73.93636327698084, 18.95810789959746], [73.93645259826616, 18.95810589457121], [73.93654191955153, 18.95810389039451], [73.93663124083686, 18.958101885368198], [73.93672056212218, 18.958099881191433], [73.9368098834075, 18.958097876165056], [73.93689920469284, 18.958095871988267], [73.93698852597817, 18.95809386696186], [73.9370778472635, 18.95809186278502], [73.93716716854881, 18.95808985775854], [73.93725648983414, 18.958087853581652], [73.93734581111947, 18.958085848555132], [73.93743513240483, 18.95808384437819], [73.93752445369016, 18.95808183935165], [73.93761377497549, 18.95807983517463], [73.93770309626082, 18.95807783014805], [73.93779241754615, 18.9580758251214], [73.93788173883146, 18.958073820944335], [73.9379710601168, 18.958071815917688], [73.93806038140212, 18.95806981089097], [73.93814970268745, 18.958067806713835], [73.93823902397278, 18.958065802536666], [73.93832834615644, 18.95806379750988], [73.93841766744175, 18.958061792483107], [73.93850698872708, 18.958059788305835], [73.93859631001241, 18.95805778327901], [73.93868563129774, 18.958055779101738], [73.9387749525831, 18.958053774074827], [73.93886427386843, 18.95805176989749], [73.93895359515376, 18.958049764870538], [73.93904291643909, 18.958047759843602], [73.93913223772441, 18.9580457548166], [73.93922155900974, 18.958043749789596], [73.93931088029507, 18.958041744762543], [73.9394002015804, 18.958039739735465], [73.93948952286573, 18.9580377347084], [73.93957884415104, 18.958035729681285], [73.93966816543642, 18.958033725503732], [73.93975748672175, 18.958031720476566], [73.93984680800706, 18.9580297154494], [73.93993612929239, 18.95802771042218], [73.94002545057772, 18.958025705394963], [73.94011477186305, 18.958023700367704], [73.94020409314838, 18.9580216953404], [73.9402934144337, 18.95801969031313], [73.94038273571903, 18.958017685285785], [73.94047205700436, 18.958015680258452], [73.94056137918801, 18.958013675231054], [73.94065070047334, 18.958011670203646], [73.94074002175867, 18.958009665176238], [73.94082934304399, 18.958007660148777], [73.94091866432936, 18.958005655970894], [73.94100798561469, 18.958003650943386], [73.9410973069, 18.958001645915886], [73.94118662818533, 18.957999640888325], [73.94127594947066, 18.95799763586079], [73.941365270756, 18.957995630833178], [73.94145459204132, 18.95799362580555], [73.94154391332664, 18.957991620777925], [73.94163323461197, 18.95798961575025], [73.94168416819028, 18.95792204460464], [73.9417351026669, 18.957854472582085], [73.94178603624519, 18.95778690138173], [73.9418369707218, 18.95771932930443], [73.94188790430007, 18.957651758898923], [73.94193883877671, 18.957584186766844], [73.9419897732533, 18.957516614607425], [73.94204070683159, 18.957449044119794], [73.94209164130822, 18.95738147190563], [73.94214257578481, 18.95731389966405], [73.94219351026143, 18.95724632824475], [73.94224444383973, 18.95717875679803], [73.94229537831633, 18.957111185323942], [73.94234631279294, 18.9570436129729], [73.94239724637124, 18.956976041444072], [73.94244818084783, 18.95690846988785], [73.94249911532445, 18.956840898304304], [73.94255004890276, 18.956773325843734], [73.94260098337935, 18.956705754205455], [73.94265191785597, 18.95663818253975], [73.94270285143428, 18.956570610846676], [73.94275378591087, 18.956503038276658], [73.94280472038749, 18.95643546652884], [73.94285565396578, 18.956367894753658], [73.94290658844238, 18.956300322951133], [73.942957522919, 18.95623275027158], [73.94300845739559, 18.956165178414288], [73.94305939097389, 18.956097606529642], [73.9431103254505, 18.956030034617594], [73.9431612599271, 18.955962461828605], [73.9432121935054, 18.955894889861813], [73.94326312798202, 18.95582731786764], [73.94331406245861, 18.95575974584612], [73.94336499693524, 18.955692173797242], [73.94341593141188, 18.955624601720974], [73.94350160643543, 18.955607346343168], [73.94358728145906, 18.955590091813182], [73.94367295648263, 18.955572836431813], [73.94375863150624, 18.955555581898253], [73.94384430563152, 18.955538327362923], [73.94392998065508, 18.95552107197621], [73.9440156556787, 18.955503816587715], [73.94410133070227, 18.955486561197375], [73.94418700572588, 18.955469306654923], [73.94427268074946, 18.955452051261062], [73.94435835577306, 18.95543479586543], [73.94444403079665, 18.95541754131758], [73.94452970582024, 18.955400285918376], [73.94461538084383, 18.955383030517364], [73.9447010549691, 18.95536577596417], [73.94478672999271, 18.955348520559596], [73.9448724050163, 18.955331265153255], [73.9449580800399, 18.955314010594694], [73.94504375506348, 18.955296755184776], [73.94512943008708, 18.955279499773077], [73.94521510511065, 18.955262244359584], [73.94530077923594, 18.955244989793886], [73.94538645425955, 18.955227734376816], [73.94547212928312, 18.95521047895798], [73.94555780430673, 18.95519322353735], [73.9456434793303, 18.95517596811494], [73.94572489454282, 18.95520356744433], [73.94580630975535, 18.955231166769142], [73.94588772406952, 18.955258765239822], [73.94596913928207, 18.955286364555473], [73.94605055449456, 18.955313963866608], [73.94613196970708, 18.955341563173175], [73.94621338402128, 18.95536916162556], [73.9462947992338, 18.955396760922994], [73.94637621444629, 18.955424360215858], [73.94645762965884, 18.955451959504156], [73.946539043973, 18.955479557938286], [73.94662045918554, 18.95550715721745], [73.94670187439806, 18.955534755642443], [73.94678328961056, 18.955562354912487], [73.9468647048231, 18.95558995417795], [73.94694611913728, 18.955617552589253], [73.94702753434981, 18.955645150995966], [73.94710894956232, 18.95567275024775], [73.94717802731273, 18.95572483325612], [73.9472471041648, 18.955776916248244], [73.9473161819152, 18.955828999224085], [73.9473852587673, 18.95588108218369], [73.94745433561938, 18.955933165127025], [73.94752341336978, 18.955985248054088], [73.94759249112019, 18.9560373309649], [73.94766156887059, 18.95608941385942], [73.94773064662098, 18.956141496737708], [73.9477997234731, 18.956193578750142], [73.9478688012235, 18.95624566159591], [73.94793787897389, 18.956297744425417], [73.94800695582597, 18.95634982638905], [73.94807603357638, 18.956401909186017], [73.94815867409096, 18.95638023513887], [73.9482413146055, 18.956358560239305], [73.94832395422175, 18.956336886186534], [73.9484065947363, 18.956315211281336], [73.94848923525088, 18.956293537222912], [73.94857187576542, 18.956271863161682], [73.94865451628, 18.956250188248035], [73.94873715589625, 18.956228514181152], [73.9488197964108, 18.956206839261895], [73.94890243692538, 18.956185165189392], [73.94898507743993, 18.956163491114065], [73.94906771795452, 18.95614181618636], [73.94915035846905, 18.956120142105394], [73.94923299808531, 18.956098467172016], [73.94931563859988, 18.956076793085465], [73.94939827911443, 18.956055118996066], [73.94948091962901, 18.956033444054242], [73.94956356014356, 18.95601176995923], [73.94964619975981, 18.955990095861385], [73.94972884027435, 18.955968421760712], [73.94981148078894, 18.955946747657244], [73.94990088921085, 18.95595333459353], [73.94999029763277, 18.955959921529566], [73.95007970605468, 18.955966508465348], [73.95016911357826, 18.955973096250478], [73.95025852200017, 18.955979683185735], [73.95034793042208, 18.955986270970328], [73.950437338844, 18.955992857905066], [73.95052674726594, 18.955999445689116], [73.95061615568785, 18.956006032623332], [73.95070556321143, 18.956012620406895], [73.95079497163336, 18.95601920734059], [73.95088438005526, 18.95602579427403], [73.95097378847717, 18.95603238205678], [73.95106319689909, 18.956038968989695], [73.951152605321, 18.95604555677195], [73.95124201284462, 18.95605214370436], [73.95133142126653, 18.956058731486102], [73.95142082968843, 18.956065318417977], [73.95151023811034, 18.956071906199163], [73.95159964653226, 18.956078493130516], [73.95168905495417, 18.95608508091123], [73.95177846337609, 18.95609166784205], [73.95186787089966, 18.956098254772627], [73.95195727932159, 18.956104842552552], [73.95204668774349, 18.956111430332186], [73.9521360961654, 18.956118017261975], [73.95222550458732, 18.95612460504111], [73.95231491300923, 18.95613119197039], [73.95240432053285, 18.956137778899404], [73.95249372895475, 18.956144366677737], [73.95258313737666, 18.956150954455833], [73.95267254579859, 18.95615754138407], [73.95276195422049, 18.956164129161653], [73.9528513626424, 18.956170716089368], [73.95294077016598, 18.956177303016815], [73.95303017858791, 18.956183890793586], [73.95311958700981, 18.956190478570125], [73.95320899543172, 18.9561970654968], [73.95329840385365, 18.956203653272816], [73.9533878122756, 18.956210240198967], [73.95347721979917, 18.956216827124862], [73.95356662822108, 18.95622341490007], [73.95365603664298, 18.956230002675046], [73.95374544506491, 18.956236589600152], [73.95383340001268, 18.956221797267375], [73.95392135496049, 18.956207004083712], [73.95400930990826, 18.956192211748327], [73.95409726575437, 18.956177418562028], [73.95418522070214, 18.95616262622401], [73.95427317564992, 18.956147833884692], [73.95436113059769, 18.956133041544067], [73.9544490855455, 18.956118249202092], [73.95453704049328, 18.956103456858845], [73.95462499544105, 18.95608866451426], [73.95471295038884, 18.956073872168393], [73.95480090623494, 18.95605907982119], [73.95488886118271, 18.95604428747269], [73.95497681613053, 18.95602949512289], [73.9550647710783, 18.956014702771743], [73.95515272602607, 18.955999910419308], [73.95524068097384, 18.95598511806554], [73.95532863592162, 18.95597032571049], [73.95541659176773, 18.95595553335411], [73.95550454671553, 18.955940740996425], [73.9555925016633, 18.9559259486374], [73.95568045661109, 18.955911156277107], [73.95576841155886, 18.955896363915503], [73.95585636650664, 18.95588157155255], [73.95594432145445, 18.955866779188323], [73.95603227640223, 18.955851986822733], [73.95612023224834, 18.95583719445589], [73.9562081871961, 18.95582240208769], [73.95629614214387, 18.95580760971821], [73.95638409709166, 18.955792817347383], [73.95647205203946, 18.95577802497528], [73.95656000698723, 18.955763232601857], [73.95664796193502, 18.95574844022711], [73.95673591778112, 18.955733647851066], [73.9568238727289, 18.955718855473684], [73.95691182767666, 18.95570406309503], [73.95699978262448, 18.955689270715016], [73.95708773757225, 18.95567447833373], [73.95717569252002, 18.955659685951108], [73.9572636474678, 18.955644893567186], [73.95735160241561, 18.95563010118198], [73.95743955826168, 18.955615308795416], [73.95752751320948, 18.95560051640758], [73.95761546815727, 18.95558572401839], [73.95770342310504, 18.955570931627918], [73.95775504658947, 18.95563612739479], [73.95780667007391, 18.95570132228656], [73.95785829355835, 18.95576651800244], [73.95790991704277, 18.955831713692877], [73.95796154052721, 18.955896909357833], [73.95801316401163, 18.955962104147698], [73.9580647883944, 18.956027299761676], [73.95811641187883, 18.956092495350166], [73.95816803536326, 18.956157690063613], [73.9582196588477, 18.95622288560114], [73.95827128233213, 18.95628808111321], [73.95832290581656, 18.9563532765998], [73.958374529301, 18.9564184712113], [73.95842615278542, 18.956483666646935], [73.95865908144701, 18.956777862676688], [73.96002930600439, 18.96109698804389], [73.96256718502258, 18.96782359404386], [73.96390344068583, 18.974579358831253]]]}}]}