{"type": "FeatureCollection", "features": [{"type": "Feature", "properties": {"premiumdata.sde.IN_Village_PCA.area": 2.22179321, "objectid": 361951, "id": "9129900405127", "name": "Murar Pur", "subdistrict": "Ramsanehighat", "district": "Barabanki", "state": "Uttar Pradesh", "country": "India", "censusname": "Murar Pur", "villagename_locallang": null, "lgd_villagename": "Murar Pur", "lgd_villagecode": 165079, "lgd_subdistrictcode": 900, "lgd_districtcode": 129, "lgd_statecode": 9, "censuscode2001": "05808600", "censuscode2011": "165079", "censuscode2021": null, "level": "Village", "tru": "Rural", "no_hh": 307, "tot_p": 1822, "tot_m": 960, "tot_f": 862, "per_tot_m": 52.68935236, "per_tot_f": 47.31064764, "p_06": 318, "m_06": 159, "f_06": 159, "per_p_06": 17.45334797, "per_m_06": 50.0, "per_f_06": 50.0, "p_sc": 628, "m_sc": 314, "f_sc": 314, "per_p_sc": 34.467618, "per_m_sc": 50.0, "per_f_sc": 50.0, "p_st": 0, "m_st": 0, "f_st": 0, "per_p_st": 0.0, "per_m_st": 0.0, "per_f_st": 0.0, "p_lit": 850, "m_lit": 537, "f_lit": 313, "per_p_lit": 46.65203074, "per_m_lit": 63.17647059, "per_f_lit": 36.82352941000001, "p_ill": 972, "m_ill": 423, "f_ill": 549, "per_p_ill": 53.34796926, "per_m_ill": 43.51851852, "per_f_ill": 56.48148148, "tot_work_p": 741, "tot_work_m": 498, "tot_work_f": 243, "per_tot_work_p": 40.66959385, "per_tot_work_m": 67.20647773, "per_tot_work_f": 32.79352227, "mainwork_p": 601, "mainwork_m": 441, "mainwork_f": 160, "per_mainwork_p": 32.98572997, "per_mainwork_m": 73.37770383, "per_mainwork_f": 26.62229617, "main_cl_p": 251, "main_cl_m": 203, "main_cl_f": 48, "per_main_cl_p": 41.76372712, "per_main_cl_m": 80.87649402000001, "per_main_cl_f": 19.12350598, "main_al_p": 261, "main_al_m": 167, "main_al_f": 94, "per_main_al_p": 43.42762063, "per_main_al_m": 63.98467433, "per_main_al_f": 36.01532567, "main_hh_p": 7, "main_hh_m": 5, "main_hh_f": 2, "per_main_hh_p": 1.16472546, "per_main_hh_m": 71.42857143, "per_main_hh_f": 28.57142857, "main_ot_p": 82, "main_ot_m": 66, "main_ot_f": 16, "per_main_ot_p": 13.64392679, "per_main_ot_m": 80.48780488, "per_main_ot_f": 19.51219512, "margwork_p": 140, "margwork_m": 57, "margwork_f": 83, "per_margwork_p": 7.68386389, "per_margwork_m": 40.71428571, "per_margwork_f": 59.28571429, "marg_cl_p": 41, "marg_cl_m": 10, "marg_cl_f": 31, "per_marg_cl_p": 29.28571429, "per_marg_cl_m": 24.3902439, "per_marg_cl_f": 75.6097561, "marg_al_p": 88, "marg_al_m": 43, "marg_al_f": 45, "per_marg_al_p": 62.85714286, "per_marg_al_m": 48.86363636, "per_marg_al_f": 51.13636364, "marg_hh_p": 6, "marg_hh_m": 2, "marg_hh_f": 4, "per_marg_hh_p": 4.28571429, "per_marg_hh_m": 33.33333333, "per_marg_hh_f": 66.66666667, "marg_ot_p": 5, "marg_ot_m": 2, "marg_ot_f": 3, "per_marg_ot_p": 3.57142857, "per_marg_ot_m": 40.0, "per_marg_ot_f": 60.0, "margwork_3_6_p": 116, "margwork_3_6_m": 49, "margwork_3_6_f": 67, "per_margwork_3_6_p": 82.85714286, "per_margwork_3_6_m": 42.24137931, "per_margwork_3_6_f": 57.75862069, "marg_cl_3_6_p": 29, "marg_cl_3_6_m": 6, "marg_cl_3_6_f": 23, "per_marg_cl_3_6_p": 20.71428571, "per_marg_cl_3_6_m": 20.68965517, "per_marg_cl_3_6_f": 79.31034483, "marg_al_3_6_p": 77, "marg_al_3_6_m": 39, "marg_al_3_6_f": 38, "per_marg_al_3_6_p": 55.0, "per_marg_al_3_6_m": 50.64935065, "per_marg_al_3_6_f": 49.35064935, "marg_hh_3_6_p": 6, "marg_hh_3_6_m": 2, "marg_hh_3_6_f": 4, "per_marg_hh_3_6_p": 4.28571429, "per_marg_hh_3_6_m": 33.33333333, "per_marg_hh_3_6_f": 66.66666667, "marg_ot_3_6_p": 4, "marg_ot_3_6_m": 2, "marg_ot_3_6_f": 2, "per_marg_ot_3_6_p": 2.85714286, "per_marg_ot_3_6_m": 50.0, "per_marg_ot_3_6_f": 50.0, "margwork_0_3_p": 24, "margwork_0_3_m": 8, "margwork_0_3_f": 16, "per_margwork_0_3_p": 17.14285714, "per_margwork_0_3_m": 33.33333333, "per_margwork_0_3_f": 66.66666667, "marg_cl_0_3_p": 12, "marg_cl_0_3_m": 4, "marg_cl_0_3_f": 8, "per_marg_cl_0_3_p": 8.57142857, "per_marg_cl_0_3_m": 33.33333333, "per_marg_cl_0_3_f": 66.66666667, "marg_al_0_3_p": 11, "marg_al_0_3_m": 4, "marg_al_0_3_f": 7, "per_marg_al_0_3_p": 7.85714286, "per_marg_al_0_3_m": 36.36363636, "per_marg_al_0_3_f": 63.63636364, "marg_hh_0_3_p": 0, "marg_hh_0_3_m": 0, "marg_hh_0_3_f": 0, "per_marg_hh_0_3_p": 0.0, "per_marg_hh_0_3_m": 0.0, "per_marg_hh_0_3_f": 0.0, "marg_ot_0_3_p": 1, "marg_ot_0_3_m": 0, "marg_ot_0_3_f": 1, "per_marg_ot_0_3_p": 0.71428571, "per_marg_ot_0_3_m": 0.0, "per_marg_ot_0_3_f": 100.0, "non_work_p": 1081, "non_work_m": 462, "non_work_f": 619, "per_non_work_p": 59.33040615, "per_non_work_m": 42.73820537, "per_non_work_f": 57.26179463, "per_hc_tot_tot": 100, "per_hc_tot_god": 27.1, "per_hc_tot_liv": 48.5, "per_hc_tot_dil": 24.4, "per_hc_res_tot": 99.0, "per_hc_res_god": 27.1, "per_hc_res_liv": 47.5, "per_hc_res_dil": 24.4, "per_hc_oth_tot": 1.0, "per_hc_oth_god": 0.0, "per_hc_oth_liv": 1.0, "per_hc_oth_dil": 0.0, "per_mt_grsbam": 45.2, "per_mt_plastic": 0.3, "per_mt_h_tiles": 0.0, "per_mt_m_tiles": 0.0, "per_mt_b_brick": 48.8, "per_mt_stone": 0.3, "per_mt_asbstos": 1.3, "per_mt_concrte": 4.0, "per_mt_oth": 0.0, "per_mw_grsbam": 30.7, "per_mw_plastic": 0.0, "per_mw_mud": 12.9, "per_mw_wood": 0.0, "per_mw_no_mrtr": 1.0, "per_mw_st_mrtr": 0.7, "per_mw_asbstos": 0.0, "per_mw_b_brick": 53.8, "per_mw_concrte": 0.0, "per_mw_oth": 1.0, "per_mf_mud": 90.8, "per_mf_wood": 0.3, "per_mf_b_brick": 2.0, "per_mf_stone": 0.0, "per_mf_cement": 5.9, "per_mf_fl_tile": 1.0, "per_mf_oth": 0.0, "per_dw_n_exrm": 16.5, "per_dw_1_room": 38.9, "per_dw_2_room": 20.8, "per_dw_3_room": 8.9, "per_dw_4_room": 8.9, "per_dw_5_room": 2.0, "per_dw_6_room": 4.0, "per_hhsize_1": 4.0, "per_hhsize_2": 6.3, "per_hhsize_3": 6.9, "per_hhsize_4": 12.5, "per_hhsize_5": 19.5, "per_hhsize_6_8": 37.3, "per_hhsize_9p": 13.5, "per_ow_owned": 98.0, "per_ow_rented": 0.0, "per_ow_oth": 2.0, "per_mc_none": 10.2, "per_mcouple_1": 54.5, "per_mcouple_2": 27.4, "per_mcouple_3": 5.3, "per_mcouple_4": 2.3, "per_mcouple_5p": 0.3, "per_dw_t_ts": 0.7, "per_dw_t_unts": 0.3, "per_dw_c_well": 0.0, "per_dw_unc_wel": 9.2, "per_dw_hpump": 88.4, "per_dw_tw_bore": 0.7, "per_dw_spring": 0.0, "per_dw_rivcan": 0.0, "per_dw_tank": 0.0, "per_dw_oth": 0.7, "per_loc_dw_wp": 46.2, "per_loc_dw_np": 41.9, "per_loc_dw_aw": 11.9, "per_light_elec": 12.9, "per_light_kero": 87.1, "per_light_solr": 0.0, "per_light_oil": 0.0, "per_light_oth": 0.0, "per_light_no": 0.0, "per_hh_latrine": 6.3, "per_fl_sewer": 0.0, "per_fl_septict": 5.9, "per_fl_othsys": 0.0, "per_pl_wslab": 0.0, "per_pl_without": 0.0, "per_ns_open": 0.3, "per_sl_ns_hum": 0.0, "per_sl_ns_anml": 0.0, "per_hh_no_lat": 93.7, "per_as_pub": 0.0, "per_as_open": 93.7, "per_hh_bathrm": 10.6, "per_hh_en_wrf": 33.0, "per_hh_no_btrm": 56.4, "per_wwoc_drain": 11.6, "per_wwoc_open": 63.7, "per_wwoc_nodrn": 24.8, "per_cook_fire": 90.8, "per_cook_resdu": 1.3, "per_cook_cwdng": 1.7, "per_cook_coal": 0.0, "per_cook_kero": 0.3, "per_cook_lpng": 5.9, "per_cook_elec": 0.0, "per_cook_biogs": 0.0, "per_cook_oth": 0.0, "per_cook_no": 0.0, "per_kf_inside": 98.0, "per_kf_in_has": 8.9, "per_kf_in_does": 89.1, "per_kf_outside": 2.0, "per_kf_out_has": 0.3, "per_kf_out_dos": 1.7, "per_kf_no_cook": 0.0, "per_hh_banking": 15.5, "per_hh_radio": 22.1, "per_hh_tv": 16.2, "per_hh_cmp_int": 0.3, "per_hh_cmp_wnt": 1.0, "per_hh_ph_ll": 0.0, "per_hh_ph_mob": 37.6, "per_hh_ph_bth": 0.0, "per_hh_bcycl": 78.9, "per_hh_2wheel": 13.5, "per_hh_4wheel": 1.3, "per_hh_tvcomp": 0.3, "per_hh_no_ast": 12.9, "per_hs_perma": 49.5, "per_hs_sperma": 10.2, "per_hs_temp": 39.3, "per_hs_servc": 9.2, "per_hs_nservc": 30.0, "per_hs_unclss": 1.0, "avghhsz_cy": 5.93485342, "st_areashape": 2802197.16234475, "st_lengthshape": 7159.559537504071}, "geometry": {"type": "Polygon", "coordinates": [[[81.5480002523379, 26.854814288166498], [81.5476805841491, 26.855061930703144], [81.54667938481549, 26.856160904389135], [81.54572572612335, 26.856120028445428], [81.54524950673337, 26.856010520690486], [81.54505247744545, 26.85576003676005], [81.54493739696936, 26.855153721291792], [81.5447413450485, 26.85476071378497], [81.54422783659105, 26.85429471385175], [81.54304158790218, 26.85339745731465], [81.54229180545703, 26.852609489224964], [81.54217527060847, 26.85221693131373], [81.5422181885195, 26.851753996898548], [81.54254250638819, 26.85082944560406], [81.54246644333816, 26.85033022469366], [81.5422296905484, 26.85007951580067], [81.5418332280809, 26.849934809650016], [81.54119756671112, 26.84989566503798], [81.54084061304815, 26.84978680445879], [81.53973242346588, 26.84910372209148], [81.53895375299781, 26.848404682123114], [81.53955212530015, 26.848087340077683], [81.54067131924465, 26.84716718946669], [81.54095171937742, 26.846848081470863], [81.54107561232647, 26.846171818136874], [81.5413962515941, 26.845781673654553], [81.54215382333106, 26.845429573534936], [81.54291015179969, 26.845255607373847], [81.54339048727032, 26.844759453291786], [81.54399127693907, 26.84408581685811], [81.54459472921435, 26.843020257477914], [81.54500020268246, 26.84184673118954], [81.54552221998227, 26.84106576423276], [81.54604323925378, 26.840427306949206], [81.54652232876111, 26.840109279667782], [81.54694843922626, 26.84005812779401], [81.54746557148754, 26.839989712317095], [81.54842276684694, 26.839496161016296], [81.5494998989749, 26.838896373603852], [81.55021766366669, 26.83854401561351], [81.55060781277437, 26.839615033950157], [81.55088405280908, 26.839901581291187], [81.55124124811888, 26.839974795645634], [81.55159963908632, 26.83986986991145], [81.55195804532511, 26.839764942476954], [81.55263339695907, 26.839804265328308], [81.55322734685527, 26.84012817516427], [81.55346313485441, 26.840521384969385], [81.55365772431797, 26.841128144321196], [81.55389351501206, 26.84152135305823], [81.55420999957151, 26.84173685615035], [81.554525518442, 26.84209486938869], [81.55523821843222, 26.842490676511748], [81.55587145345241, 26.84288606305602], [81.55646637263081, 26.843067448510638], [81.55710056166183, 26.84332030416818], [81.55761697886415, 26.843358741711743], [81.55825333732658, 26.843290942992954], [81.55840172104521, 26.844859425995924], [81.55823336598117, 26.846248039658164], [81.55790820010286, 26.84731513797175], [81.55742598086509, 26.84809634955072], [81.55690111231256, 26.849304885994222], [81.55670093802284, 26.84951756911345], [81.55618282659788, 26.84972851985282], [81.55586294371174, 26.85001180686441], [81.55526170398701, 26.850756731971565], [81.55514030655783, 26.85107672738684], [81.55518279058256, 26.85182271703254], [81.55521134622883, 26.8523241145182], [81.55528287009176, 26.8535002434756], [81.55520169023782, 26.853749200048973], [81.55492249923742, 26.85389019144673], [81.5546038120089, 26.853995339008076], [81.55408761399552, 26.853921280185777], [81.55349263552831, 26.853739875257297], [81.55309518311739, 26.85373770414756], [81.55285550181979, 26.85391455127894], [81.55269385806928, 26.85430556533948], [81.55249320228255, 26.85458951089555], [81.55225424502711, 26.854659461115947], [81.55189676944292, 26.85462186250718], [81.55142103604149, 26.85444111748404], [81.55094578773034, 26.854189116960747], [81.55058855648792, 26.85411590378508], [81.55035008432273, 26.854114597436947], [81.55011064107869, 26.854255798356604], [81.54994803523248, 26.85478934828846], [81.54982757654277, 26.854966829313934], [81.54954886344608, 26.855036558105272], [81.54891341946863, 26.854961815539315], [81.54827870582146, 26.854780189479715], [81.5480002523379, 26.854814288166498]]]}}]}