{"type": "FeatureCollection", "features": [{"type": "Feature", "properties": {"premiumdata.sde.IN_Village_PCA.area": 2.47695454, "objectid": 19502, "id": "295445546105502", "name": "Harirayanahally", "subdistrict": "Krishnarajpet", "district": "Mandya", "state": "Karnataka", "country": "India", "censusname": "Harinahalli", "villagename_locallang": "Harirayanahally", "lgd_villagename": "Harirayanahally", "lgd_villagecode": 613540, "lgd_subdistrictcode": 5546, "lgd_districtcode": 544, "lgd_statecode": 29, "censuscode2001": "02304900", "censuscode2011": "613540", "censuscode2021": null, "level": "Village", "tru": "Rural", "no_hh": 127, "tot_p": 532, "tot_m": 266, "tot_f": 266, "per_tot_m": 50.0, "per_tot_f": 50.0, "p_06": 52, "m_06": 29, "f_06": 23, "per_p_06": 9.77443609, "per_m_06": 55.76923077, "per_f_06": 44.23076923, "p_sc": 65, "m_sc": 35, "f_sc": 30, "per_p_sc": 12.21804511, "per_m_sc": 53.84615385, "per_f_sc": 46.15384615, "p_st": 0, "m_st": 0, "f_st": 0, "per_p_st": 0.0, "per_m_st": 0.0, "per_f_st": 0.0, "p_lit": 312, "m_lit": 172, "f_lit": 140, "per_p_lit": 58.64661654, "per_m_lit": 55.12820513, "per_f_lit": 44.87179487, "p_ill": 220, "m_ill": 94, "f_ill": 126, "per_p_ill": 41.35338346, "per_m_ill": 42.72727273, "per_f_ill": 57.27272727, "tot_work_p": 298, "tot_work_m": 179, "tot_work_f": 119, "per_tot_work_p": 56.01503759, "per_tot_work_m": 60.06711409, "per_tot_work_f": 39.93288591, "mainwork_p": 278, "mainwork_m": 167, "mainwork_f": 111, "per_mainwork_p": 52.2556391, "per_mainwork_m": 60.07194245, "per_mainwork_f": 39.92805755, "main_cl_p": 232, "main_cl_m": 140, "main_cl_f": 92, "per_main_cl_p": 83.45323741, "per_main_cl_m": 60.34482759, "per_main_cl_f": 39.65517241, "main_al_p": 29, "main_al_m": 14, "main_al_f": 15, "per_main_al_p": 10.43165468, "per_main_al_m": 48.27586207, "per_main_al_f": 51.72413793, "main_hh_p": 5, "main_hh_m": 4, "main_hh_f": 1, "per_main_hh_p": 1.79856115, "per_main_hh_m": 80.0, "per_main_hh_f": 20.0, "main_ot_p": 12, "main_ot_m": 9, "main_ot_f": 3, "per_main_ot_p": 4.31654676, "per_main_ot_m": 75.0, "per_main_ot_f": 25.0, "margwork_p": 20, "margwork_m": 12, "margwork_f": 8, "per_margwork_p": 3.7593985, "per_margwork_m": 60.0, "per_margwork_f": 40.0, "marg_cl_p": 10, "marg_cl_m": 4, "marg_cl_f": 6, "per_marg_cl_p": 50.0, "per_marg_cl_m": 40.0, "per_marg_cl_f": 60.0, "marg_al_p": 3, "marg_al_m": 2, "marg_al_f": 1, "per_marg_al_p": 15.0, "per_marg_al_m": 66.66666667, "per_marg_al_f": 33.33333333, "marg_hh_p": 5, "marg_hh_m": 4, "marg_hh_f": 1, "per_marg_hh_p": 25.0, "per_marg_hh_m": 80.0, "per_marg_hh_f": 20.0, "marg_ot_p": 2, "marg_ot_m": 2, "marg_ot_f": 0, "per_marg_ot_p": 10.0, "per_marg_ot_m": 100.0, "per_marg_ot_f": 0.0, "margwork_3_6_p": 16, "margwork_3_6_m": 10, "margwork_3_6_f": 6, "per_margwork_3_6_p": 80.0, "per_margwork_3_6_m": 62.5, "per_margwork_3_6_f": 37.5, "marg_cl_3_6_p": 8, "marg_cl_3_6_m": 4, "marg_cl_3_6_f": 4, "per_marg_cl_3_6_p": 40.0, "per_marg_cl_3_6_m": 50.0, "per_marg_cl_3_6_f": 50.0, "marg_al_3_6_p": 3, "marg_al_3_6_m": 2, "marg_al_3_6_f": 1, "per_marg_al_3_6_p": 15.0, "per_marg_al_3_6_m": 66.66666667, "per_marg_al_3_6_f": 33.33333333, "marg_hh_3_6_p": 4, "marg_hh_3_6_m": 3, "marg_hh_3_6_f": 1, "per_marg_hh_3_6_p": 20.0, "per_marg_hh_3_6_m": 75.0, "per_marg_hh_3_6_f": 25.0, "marg_ot_3_6_p": 1, "marg_ot_3_6_m": 1, "marg_ot_3_6_f": 0, "per_marg_ot_3_6_p": 5.0, "per_marg_ot_3_6_m": 100.0, "per_marg_ot_3_6_f": 0.0, "margwork_0_3_p": 4, "margwork_0_3_m": 2, "margwork_0_3_f": 2, "per_margwork_0_3_p": 20.0, "per_margwork_0_3_m": 50.0, "per_margwork_0_3_f": 50.0, "marg_cl_0_3_p": 2, "marg_cl_0_3_m": 0, "marg_cl_0_3_f": 2, "per_marg_cl_0_3_p": 10.0, "per_marg_cl_0_3_m": 0.0, "per_marg_cl_0_3_f": 100.0, "marg_al_0_3_p": 0, "marg_al_0_3_m": 0, "marg_al_0_3_f": 0, "per_marg_al_0_3_p": 0.0, "per_marg_al_0_3_m": 0.0, "per_marg_al_0_3_f": 0.0, "marg_hh_0_3_p": 1, "marg_hh_0_3_m": 1, "marg_hh_0_3_f": 0, "per_marg_hh_0_3_p": 5.0, "per_marg_hh_0_3_m": 100.0, "per_marg_hh_0_3_f": 0.0, "marg_ot_0_3_p": 1, "marg_ot_0_3_m": 1, "marg_ot_0_3_f": 0, "per_marg_ot_0_3_p": 5.0, "per_marg_ot_0_3_m": 100.0, "per_marg_ot_0_3_f": 0.0, "non_work_p": 234, "non_work_m": 87, "non_work_f": 147, "per_non_work_p": 43.98496241, "per_non_work_m": 37.17948718, "per_non_work_f": 62.82051282, "per_hc_tot_tot": 100, "per_hc_tot_god": 64.7, "per_hc_tot_liv": 25.2, "per_hc_tot_dil": 10.1, "per_hc_res_tot": 99.2, "per_hc_res_god": 63.9, "per_hc_res_liv": 25.2, "per_hc_res_dil": 10.1, "per_hc_oth_tot": 0.8, "per_hc_oth_god": 0.8, "per_hc_oth_liv": 0.0, "per_hc_oth_dil": 0.0, "per_mt_grsbam": 2.5, "per_mt_plastic": 0.0, "per_mt_h_tiles": 50.4, "per_mt_m_tiles": 38.7, "per_mt_b_brick": 0.0, "per_mt_stone": 0.0, "per_mt_asbstos": 2.5, "per_mt_concrte": 5.9, "per_mt_oth": 0.0, "per_mw_grsbam": 0.8, "per_mw_plastic": 0.0, "per_mw_mud": 60.5, "per_mw_wood": 0.0, "per_mw_no_mrtr": 0.0, "per_mw_st_mrtr": 0.0, "per_mw_asbstos": 0.0, "per_mw_b_brick": 38.7, "per_mw_concrte": 0.0, "per_mw_oth": 0.0, "per_mf_mud": 29.4, "per_mf_wood": 0.0, "per_mf_b_brick": 0.0, "per_mf_stone": 0.0, "per_mf_cement": 68.9, "per_mf_fl_tile": 1.7, "per_mf_oth": 0.0, "per_dw_n_exrm": 35.3, "per_dw_1_room": 51.3, "per_dw_2_room": 11.8, "per_dw_3_room": 0.8, "per_dw_4_room": 0.8, "per_dw_5_room": 0.0, "per_dw_6_room": 0.0, "per_hhsize_1": 2.5, "per_hhsize_2": 10.1, "per_hhsize_3": 17.6, "per_hhsize_4": 36.1, "per_hhsize_5": 12.6, "per_hhsize_6_8": 18.5, "per_hhsize_9p": 2.5, "per_ow_owned": 90.8, "per_ow_rented": 6.7, "per_ow_oth": 2.5, "per_mc_none": 7.6, "per_mcouple_1": 70.6, "per_mcouple_2": 18.5, "per_mcouple_3": 2.5, "per_mcouple_4": 0.8, "per_mcouple_5p": 0.0, "per_dw_t_ts": 0.0, "per_dw_t_unts": 79.8, "per_dw_c_well": 0.0, "per_dw_unc_wel": 0.0, "per_dw_hpump": 0.0, "per_dw_tw_bore": 19.3, "per_dw_spring": 0.0, "per_dw_rivcan": 0.0, "per_dw_tank": 0.0, "per_dw_oth": 0.8, "per_loc_dw_wp": 0.8, "per_loc_dw_np": 83.2, "per_loc_dw_aw": 16.0, "per_light_elec": 74.8, "per_light_kero": 24.4, "per_light_solr": 0.0, "per_light_oil": 0.0, "per_light_oth": 0.8, "per_light_no": 0.0, "per_hh_latrine": 4.2, "per_fl_sewer": 0.0, "per_fl_septict": 0.0, "per_fl_othsys": 0.0, "per_pl_wslab": 3.4, "per_pl_without": 0.0, "per_ns_open": 0.0, "per_sl_ns_hum": 0.0, "per_sl_ns_anml": 0.8, "per_hh_no_lat": 95.8, "per_as_pub": 0.0, "per_as_open": 95.8, "per_hh_bathrm": 84.0, "per_hh_en_wrf": 11.8, "per_hh_no_btrm": 4.2, "per_wwoc_drain": 0.8, "per_wwoc_open": 10.1, "per_wwoc_nodrn": 89.1, "per_cook_fire": 99.2, "per_cook_resdu": 0.0, "per_cook_cwdng": 0.0, "per_cook_coal": 0.0, "per_cook_kero": 0.0, "per_cook_lpng": 0.8, "per_cook_elec": 0.0, "per_cook_biogs": 0.0, "per_cook_oth": 0.0, "per_cook_no": 0.0, "per_kf_inside": 99.2, "per_kf_in_has": 84.9, "per_kf_in_does": 14.3, "per_kf_outside": 0.8, "per_kf_out_has": 0.0, "per_kf_out_dos": 0.8, "per_kf_no_cook": 0.0, "per_hh_banking": 56.3, "per_hh_radio": 16.0, "per_hh_tv": 36.1, "per_hh_cmp_int": 0.0, "per_hh_cmp_wnt": 0.0, "per_hh_ph_ll": 10.9, "per_hh_ph_mob": 64.7, "per_hh_ph_bth": 0.8, "per_hh_bcycl": 30.3, "per_hh_2wheel": 10.1, "per_hh_4wheel": 1.7, "per_hh_tvcomp": 0.0, "per_hh_no_ast": 17.6, "per_hs_perma": 37.8, "per_hs_sperma": 60.5, "per_hs_temp": 1.7, "per_hs_servc": 0.8, "per_hs_nservc": 0.8, "per_hs_unclss": 0.0, "avghhsz_cy": 4.18897638, "st_areashape": 2618731.039286825, "st_lengthshape": 7543.596022434857}, "geometry": {"type": "Polygon", "coordinates": [[[76.48468000012149, 12.714720999667074], [76.48483300118069, 12.714577000289282], [76.48439000059157, 12.709897000162842], [76.4832230001043, 12.707103999738415], [76.4824910007085, 12.704076999976197], [76.47772200027366, 12.701679000290508], [76.47724900134396, 12.700961000474418], [76.4813920008916, 12.700305999348227], [76.48316200000494, 12.700242000482937], [76.48546599994394, 12.699187000133549], [76.48780099984512, 12.699103000263975], [76.48909000053114, 12.699056999384688], [76.4899600009175, 12.698621000162824], [76.49064600118088, 12.698240999435352], [76.49065400067845, 12.698378999862067], [76.49354600097155, 12.69791999981047], [76.49402600047225, 12.698875999882912], [76.49639900090658, 12.699705999932961], [76.49610900047834, 12.701476999595242], [76.49585000091055, 12.703025000312891], [76.49582700044604, 12.704564999547797], [76.49585000091055, 12.705213000174002], [76.49669600010918, 12.706234999740182], [76.49655200106746, 12.706726000049926], [76.49510200072295, 12.70677899953939], [76.4944380002009, 12.70834199928806], [76.49380500053933, 12.708768999684416], [76.49388100070729, 12.71071099977554], [76.49284400081467, 12.711192999731212], [76.49224899988958, 12.71469799976586], [76.49206500066491, 12.716324000108983], [76.49216500112233, 12.71686599966202], [76.4872359999556, 12.717590999795059], [76.48597000063242, 12.716751000230273], [76.4848710008155, 12.715727000356804], [76.48468000012149, 12.714720999667074]]]}}]}