{"type": "FeatureCollection", "features": [{"type": "Feature", "properties": {"premiumdata.sde.IN_Village_PCA.area": 1.45855629, "objectid": 450841, "id": "545333579241", "name": "Seli", "subdistrict": "Bhanoli", "district": "Almora", "state": "Uttarakhand", "country": "India", "censusname": "Seli", "villagename_locallang": null, "lgd_villagename": "Seli", "lgd_villagecode": 53592, "lgd_subdistrictcode": 333, "lgd_districtcode": 45, "lgd_statecode": 5, "censuscode2001": "01347000", "censuscode2011": "053592", "censuscode2021": null, "level": "Village", "tru": "Rural", "no_hh": 41, "tot_p": 170, "tot_m": 75, "tot_f": 95, "per_tot_m": 44.11764706, "per_tot_f": 55.88235294, "p_06": 34, "m_06": 15, "f_06": 19, "per_p_06": 20.0, "per_m_06": 44.11764706, "per_f_06": 55.88235294, "p_sc": 0, "m_sc": 0, "f_sc": 0, "per_p_sc": 0.0, "per_m_sc": 0.0, "per_f_sc": 0.0, "p_st": 0, "m_st": 0, "f_st": 0, "per_p_st": 0.0, "per_m_st": 0.0, "per_f_st": 0.0, "p_lit": 103, "m_lit": 56, "f_lit": 47, "per_p_lit": 60.58823529, "per_m_lit": 54.36893204, "per_f_lit": 45.63106796, "p_ill": 67, "m_ill": 19, "f_ill": 48, "per_p_ill": 39.41176471, "per_m_ill": 28.35820896, "per_f_ill": 71.64179104, "tot_work_p": 58, "tot_work_m": 27, "tot_work_f": 31, "per_tot_work_p": 34.11764706, "per_tot_work_m": 46.55172414, "per_tot_work_f": 53.44827586, "mainwork_p": 56, "mainwork_m": 26, "mainwork_f": 30, "per_mainwork_p": 32.94117647, "per_mainwork_m": 46.42857143, "per_mainwork_f": 53.57142857, "main_cl_p": 47, "main_cl_m": 21, "main_cl_f": 26, "per_main_cl_p": 83.92857143, "per_main_cl_m": 44.68085106, "per_main_cl_f": 55.31914894, "main_al_p": 0, "main_al_m": 0, "main_al_f": 0, "per_main_al_p": 0.0, "per_main_al_m": 0.0, "per_main_al_f": 0.0, "main_hh_p": 0, "main_hh_m": 0, "main_hh_f": 0, "per_main_hh_p": 0.0, "per_main_hh_m": 0.0, "per_main_hh_f": 0.0, "main_ot_p": 9, "main_ot_m": 5, "main_ot_f": 4, "per_main_ot_p": 16.07142857, "per_main_ot_m": 55.55555556, "per_main_ot_f": 44.44444444000001, "margwork_p": 2, "margwork_m": 1, "margwork_f": 1, "per_margwork_p": 1.17647059, "per_margwork_m": 50.0, "per_margwork_f": 50.0, "marg_cl_p": 0, "marg_cl_m": 0, "marg_cl_f": 0, "per_marg_cl_p": 0.0, "per_marg_cl_m": 0.0, "per_marg_cl_f": 0.0, "marg_al_p": 0, "marg_al_m": 0, "marg_al_f": 0, "per_marg_al_p": 0.0, "per_marg_al_m": 0.0, "per_marg_al_f": 0.0, "marg_hh_p": 0, "marg_hh_m": 0, "marg_hh_f": 0, "per_marg_hh_p": 0.0, "per_marg_hh_m": 0.0, "per_marg_hh_f": 0.0, "marg_ot_p": 2, "marg_ot_m": 1, "marg_ot_f": 1, "per_marg_ot_p": 100.0, "per_marg_ot_m": 50.0, "per_marg_ot_f": 50.0, "margwork_3_6_p": 2, "margwork_3_6_m": 1, "margwork_3_6_f": 1, "per_margwork_3_6_p": 100.0, "per_margwork_3_6_m": 50.0, "per_margwork_3_6_f": 50.0, "marg_cl_3_6_p": 0, "marg_cl_3_6_m": 0, "marg_cl_3_6_f": 0, "per_marg_cl_3_6_p": 0.0, "per_marg_cl_3_6_m": 0.0, "per_marg_cl_3_6_f": 0.0, "marg_al_3_6_p": 0, "marg_al_3_6_m": 0, "marg_al_3_6_f": 0, "per_marg_al_3_6_p": 0.0, "per_marg_al_3_6_m": 0.0, "per_marg_al_3_6_f": 0.0, "marg_hh_3_6_p": 0, "marg_hh_3_6_m": 0, "marg_hh_3_6_f": 0, "per_marg_hh_3_6_p": 0.0, "per_marg_hh_3_6_m": 0.0, "per_marg_hh_3_6_f": 0.0, "marg_ot_3_6_p": 2, "marg_ot_3_6_m": 1, "marg_ot_3_6_f": 1, "per_marg_ot_3_6_p": 100.0, "per_marg_ot_3_6_m": 50.0, "per_marg_ot_3_6_f": 50.0, "margwork_0_3_p": 0, "margwork_0_3_m": 0, "margwork_0_3_f": 0, "per_margwork_0_3_p": 0.0, "per_margwork_0_3_m": 0.0, "per_margwork_0_3_f": 0.0, "marg_cl_0_3_p": 0, "marg_cl_0_3_m": 0, "marg_cl_0_3_f": 0, "per_marg_cl_0_3_p": 0.0, "per_marg_cl_0_3_m": 0.0, "per_marg_cl_0_3_f": 0.0, "marg_al_0_3_p": 0, "marg_al_0_3_m": 0, "marg_al_0_3_f": 0, "per_marg_al_0_3_p": 0.0, "per_marg_al_0_3_m": 0.0, "per_marg_al_0_3_f": 0.0, "marg_hh_0_3_p": 0, "marg_hh_0_3_m": 0, "marg_hh_0_3_f": 0, "per_marg_hh_0_3_p": 0.0, "per_marg_hh_0_3_m": 0.0, "per_marg_hh_0_3_f": 0.0, "marg_ot_0_3_p": 0, "marg_ot_0_3_m": 0, "marg_ot_0_3_f": 0, "per_marg_ot_0_3_p": 0.0, "per_marg_ot_0_3_m": 0.0, "per_marg_ot_0_3_f": 0.0, "non_work_p": 112, "non_work_m": 48, "non_work_f": 64, "per_non_work_p": 65.88235294, "per_non_work_m": 42.85714286, "per_non_work_f": 57.14285714, "per_hc_tot_tot": 100, "per_hc_tot_god": 89.7, "per_hc_tot_liv": 5.1, "per_hc_tot_dil": 5.1, "per_hc_res_tot": 100.0, "per_hc_res_god": 89.7, "per_hc_res_liv": 5.1, "per_hc_res_dil": 5.1, "per_hc_oth_tot": 0.0, "per_hc_oth_god": 0.0, "per_hc_oth_liv": 0.0, "per_hc_oth_dil": 0.0, "per_mt_grsbam": 0.0, "per_mt_plastic": 0.0, "per_mt_h_tiles": 0.0, "per_mt_m_tiles": 0.0, "per_mt_b_brick": 0.0, "per_mt_stone": 89.7, "per_mt_asbstos": 0.0, "per_mt_concrte": 10.3, "per_mt_oth": 0.0, "per_mw_grsbam": 0.0, "per_mw_plastic": 0.0, "per_mw_mud": 0.0, "per_mw_wood": 0.0, "per_mw_no_mrtr": 0.0, "per_mw_st_mrtr": 100.0, "per_mw_asbstos": 0.0, "per_mw_b_brick": 0.0, "per_mw_concrte": 0.0, "per_mw_oth": 0.0, "per_mf_mud": 100.0, "per_mf_wood": 0.0, "per_mf_b_brick": 0.0, "per_mf_stone": 0.0, "per_mf_cement": 0.0, "per_mf_fl_tile": 0.0, "per_mf_oth": 0.0, "per_dw_n_exrm": 0.0, "per_dw_1_room": 51.3, "per_dw_2_room": 35.9, "per_dw_3_room": 7.7, "per_dw_4_room": 5.1, "per_dw_5_room": 0.0, "per_dw_6_room": 0.0, "per_hhsize_1": 7.7, "per_hhsize_2": 5.1, "per_hhsize_3": 15.4, "per_hhsize_4": 28.2, "per_hhsize_5": 15.4, "per_hhsize_6_8": 28.2, "per_hhsize_9p": 0.0, "per_ow_owned": 100.0, "per_ow_rented": 0.0, "per_ow_oth": 0.0, "per_mc_none": 20.5, "per_mcouple_1": 69.2, "per_mcouple_2": 10.3, "per_mcouple_3": 0.0, "per_mcouple_4": 0.0, "per_mcouple_5p": 0.0, "per_dw_t_ts": 0.0, "per_dw_t_unts": 69.2, "per_dw_c_well": 2.6, "per_dw_unc_wel": 0.0, "per_dw_hpump": 0.0, "per_dw_tw_bore": 0.0, "per_dw_spring": 0.0, "per_dw_rivcan": 0.0, "per_dw_tank": 2.6, "per_dw_oth": 25.6, "per_loc_dw_wp": 0.0, "per_loc_dw_np": 33.3, "per_loc_dw_aw": 66.7, "per_light_elec": 0.0, "per_light_kero": 33.3, "per_light_solr": 66.7, "per_light_oil": 0.0, "per_light_oth": 0.0, "per_light_no": 0.0, "per_hh_latrine": 53.8, "per_fl_sewer": 0.0, "per_fl_septict": 51.3, "per_fl_othsys": 2.6, "per_pl_wslab": 0.0, "per_pl_without": 0.0, "per_ns_open": 0.0, "per_sl_ns_hum": 0.0, "per_sl_ns_anml": 0.0, "per_hh_no_lat": 46.2, "per_as_pub": 0.0, "per_as_open": 46.2, "per_hh_bathrm": 43.6, "per_hh_en_wrf": 0.0, "per_hh_no_btrm": 56.4, "per_wwoc_drain": 2.6, "per_wwoc_open": 0.0, "per_wwoc_nodrn": 97.4, "per_cook_fire": 97.4, "per_cook_resdu": 2.6, "per_cook_cwdng": 0.0, "per_cook_coal": 0.0, "per_cook_kero": 0.0, "per_cook_lpng": 0.0, "per_cook_elec": 0.0, "per_cook_biogs": 0.0, "per_cook_oth": 0.0, "per_cook_no": 0.0, "per_kf_inside": 51.3, "per_kf_in_has": 51.3, "per_kf_in_does": 0.0, "per_kf_outside": 48.7, "per_kf_out_has": 48.7, "per_kf_out_dos": 0.0, "per_kf_no_cook": 0.0, "per_hh_banking": 66.7, "per_hh_radio": 23.1, "per_hh_tv": 7.7, "per_hh_cmp_int": 0.0, "per_hh_cmp_wnt": 2.6, "per_hh_ph_ll": 0.0, "per_hh_ph_mob": 61.5, "per_hh_ph_bth": 0.0, "per_hh_bcycl": 0.0, "per_hh_2wheel": 0.0, "per_hh_4wheel": 2.6, "per_hh_tvcomp": null, "per_hh_no_ast": 35.9, "per_hs_perma": 100.0, "per_hs_sperma": 0.0, "per_hs_temp": 0.0, "per_hs_servc": 0.0, "per_hs_nservc": 0.0, "per_hs_unclss": 0.0, "avghhsz_cy": 4.14634146, "st_areashape": 1937015.10648635, "st_lengthshape": 6644.811883426846}, "geometry": {"type": "Polygon", "coordinates": [[[79.94577689119066, 29.6353434759347], [79.94374681003963, 29.634572637941844], [79.94260179312398, 29.634366518793975], [79.94155094300629, 29.634107551248007], [79.94066244002003, 29.63347158216608], [79.93912616367899, 29.632609521378736], [79.93808145085137, 29.632025482264357], [79.93706678217836, 29.63149606398014], [79.93585535730533, 29.631144946157598], [79.93388505184996, 29.630249481164483], [79.9321905624245, 29.62954764008643], [79.93111383543673, 29.62901728815049], [79.92917104358186, 29.628311830908945], [79.92749160273404, 29.627842789118763], [79.92816968255148, 29.62695861975572], [79.92965168358135, 29.625760710902053], [79.93018962082463, 29.625226569697958], [79.93135809365069, 29.624186700187842], [79.93183549342695, 29.623570383806307], [79.93227927105879, 29.623089069938096], [79.93297341095693, 29.622502960891303], [79.93428936199979, 29.62152001065251], [79.93486014614143, 29.62189500479624], [79.93641927562325, 29.622788568359265], [79.93815750491827, 29.623936832793554], [79.93932493480025, 29.62471010108962], [79.94003327796135, 29.625214241863407], [79.9404456729487, 29.62563278377074], [79.94070006685402, 29.62607199223614], [79.94131607937359, 29.626837308917953], [79.9422734615826, 29.62760753065699], [79.94336477361729, 29.628242124964192], [79.9447221334015, 29.628697154737473], [79.94550091166738, 29.62918972984771], [79.94625860198197, 29.629406908656044], [79.94711961921551, 29.629717264348688], [79.94804049119641, 29.629638777926967], [79.9485546141015, 29.62937647881994], [79.94835441465895, 29.629891835003747], [79.94845095211097, 29.630190299250796], [79.948749439822, 29.630610497737365], [79.94907752432668, 29.631268765326812], [79.94950936783995, 29.631839398007664], [79.95000316007356, 29.632737712159344], [79.95043558659344, 29.63327864495761], [79.95070724611851, 29.63356401730336], [79.95004364624508, 29.633873502849546], [79.94900511292829, 29.634688002952483], [79.9481953508699, 29.6349953846676], [79.94739519270026, 29.634792510654584], [79.9465962382731, 29.63452585163389], [79.94593382327753, 29.63477153963064], [79.94577689119066, 29.6353434759347]]]}}]}