{"type": "FeatureCollection", "features": [{"type": "Feature", "properties": {"premiumdata.sde.IN_Village_PCA.area": 0.2810229, "objectid": 510685, "id": "197032442134345", "name": "Shushna", "subdistrict": "Binpur - I", "district": "Jhargram", "state": "West Bengal", "country": "India", "censusname": "Shushna", "villagename_locallang": null, "lgd_villagename": "Shushna", "lgd_villagecode": 336198, "lgd_subdistrictcode": 2442, "lgd_districtcode": 703, "lgd_statecode": 19, "censuscode2001": "02695700", "censuscode2011": "336198", "censuscode2021": null, "level": "Village", "tru": "Rural", "no_hh": 11, "tot_p": 50, "tot_m": 26, "tot_f": 24, "per_tot_m": 52.0, "per_tot_f": 48.0, "p_06": 5, "m_06": 1, "f_06": 4, "per_p_06": 10.0, "per_m_06": 20.0, "per_f_06": 80.0, "p_sc": 0, "m_sc": 0, "f_sc": 0, "per_p_sc": 0.0, "per_m_sc": 0.0, "per_f_sc": 0.0, "p_st": 50, "m_st": 26, "f_st": 24, "per_p_st": 100.0, "per_m_st": 52.0, "per_f_st": 48.0, "p_lit": 34, "m_lit": 24, "f_lit": 10, "per_p_lit": 68.0, "per_m_lit": 70.58823529, "per_f_lit": 29.41176471, "p_ill": 16, "m_ill": 2, "f_ill": 14, "per_p_ill": 32.0, "per_m_ill": 12.5, "per_f_ill": 87.5, "tot_work_p": 25, "tot_work_m": 11, "tot_work_f": 14, "per_tot_work_p": 50.0, "per_tot_work_m": 44.0, "per_tot_work_f": 56.0, "mainwork_p": 2, "mainwork_m": 1, "mainwork_f": 1, "per_mainwork_p": 4.0, "per_mainwork_m": 50.0, "per_mainwork_f": 50.0, "main_cl_p": 0, "main_cl_m": 0, "main_cl_f": 0, "per_main_cl_p": 0.0, "per_main_cl_m": 0.0, "per_main_cl_f": 0.0, "main_al_p": 0, "main_al_m": 0, "main_al_f": 0, "per_main_al_p": 0.0, "per_main_al_m": 0.0, "per_main_al_f": 0.0, "main_hh_p": 0, "main_hh_m": 0, "main_hh_f": 0, "per_main_hh_p": 0.0, "per_main_hh_m": 0.0, "per_main_hh_f": 0.0, "main_ot_p": 2, "main_ot_m": 1, "main_ot_f": 1, "per_main_ot_p": 100.0, "per_main_ot_m": 50.0, "per_main_ot_f": 50.0, "margwork_p": 23, "margwork_m": 10, "margwork_f": 13, "per_margwork_p": 46.0, "per_margwork_m": 43.47826087, "per_margwork_f": 56.52173913, "marg_cl_p": 0, "marg_cl_m": 0, "marg_cl_f": 0, "per_marg_cl_p": 0.0, "per_marg_cl_m": 0.0, "per_marg_cl_f": 0.0, "marg_al_p": 10, "marg_al_m": 10, "marg_al_f": 0, "per_marg_al_p": 43.47826087, "per_marg_al_m": 100.0, "per_marg_al_f": 0.0, "marg_hh_p": 12, "marg_hh_m": 0, "marg_hh_f": 12, "per_marg_hh_p": 52.17391304, "per_marg_hh_m": 0.0, "per_marg_hh_f": 100.0, "marg_ot_p": 1, "marg_ot_m": 0, "marg_ot_f": 1, "per_marg_ot_p": 4.34782609, "per_marg_ot_m": 0.0, "per_marg_ot_f": 100.0, "margwork_3_6_p": 15, "margwork_3_6_m": 10, "margwork_3_6_f": 5, "per_margwork_3_6_p": 65.2173913, "per_margwork_3_6_m": 66.66666667, "per_margwork_3_6_f": 33.33333333, "marg_cl_3_6_p": 0, "marg_cl_3_6_m": 0, "marg_cl_3_6_f": 0, "per_marg_cl_3_6_p": 0.0, "per_marg_cl_3_6_m": 0.0, "per_marg_cl_3_6_f": 0.0, "marg_al_3_6_p": 10, "marg_al_3_6_m": 10, "marg_al_3_6_f": 0, "per_marg_al_3_6_p": 43.47826087, "per_marg_al_3_6_m": 100.0, "per_marg_al_3_6_f": 0.0, "marg_hh_3_6_p": 4, "marg_hh_3_6_m": 0, "marg_hh_3_6_f": 4, "per_marg_hh_3_6_p": 17.39130435, "per_marg_hh_3_6_m": 0.0, "per_marg_hh_3_6_f": 100.0, "marg_ot_3_6_p": 1, "marg_ot_3_6_m": 0, "marg_ot_3_6_f": 1, "per_marg_ot_3_6_p": 4.34782609, "per_marg_ot_3_6_m": 0.0, "per_marg_ot_3_6_f": 100.0, "margwork_0_3_p": 8, "margwork_0_3_m": 0, "margwork_0_3_f": 8, "per_margwork_0_3_p": 34.7826087, "per_margwork_0_3_m": 0.0, "per_margwork_0_3_f": 100.0, "marg_cl_0_3_p": 0, "marg_cl_0_3_m": 0, "marg_cl_0_3_f": 0, "per_marg_cl_0_3_p": 0.0, "per_marg_cl_0_3_m": 0.0, "per_marg_cl_0_3_f": 0.0, "marg_al_0_3_p": 0, "marg_al_0_3_m": 0, "marg_al_0_3_f": 0, "per_marg_al_0_3_p": 0.0, "per_marg_al_0_3_m": 0.0, "per_marg_al_0_3_f": 0.0, "marg_hh_0_3_p": 8, "marg_hh_0_3_m": 0, "marg_hh_0_3_f": 8, "per_marg_hh_0_3_p": 34.7826087, "per_marg_hh_0_3_m": 0.0, "per_marg_hh_0_3_f": 100.0, "marg_ot_0_3_p": 0, "marg_ot_0_3_m": 0, "marg_ot_0_3_f": 0, "per_marg_ot_0_3_p": 0.0, "per_marg_ot_0_3_m": 0.0, "per_marg_ot_0_3_f": 0.0, "non_work_p": 25, "non_work_m": 15, "non_work_f": 10, "per_non_work_p": 50.0, "per_non_work_m": 60.0, "per_non_work_f": 40.0, "per_hc_tot_tot": 100, "per_hc_tot_god": 0.0, "per_hc_tot_liv": 100.0, "per_hc_tot_dil": 0.0, "per_hc_res_tot": 100.0, "per_hc_res_god": 0.0, "per_hc_res_liv": 100.0, "per_hc_res_dil": 0.0, "per_hc_oth_tot": 0.0, "per_hc_oth_god": 0.0, "per_hc_oth_liv": 0.0, "per_hc_oth_dil": 0.0, "per_mt_grsbam": 100.0, "per_mt_plastic": 0.0, "per_mt_h_tiles": 0.0, "per_mt_m_tiles": 0.0, "per_mt_b_brick": 0.0, "per_mt_stone": 0.0, "per_mt_asbstos": 0.0, "per_mt_concrte": 0.0, "per_mt_oth": 0.0, "per_mw_grsbam": 0.0, "per_mw_plastic": 0.0, "per_mw_mud": 100.0, "per_mw_wood": 0.0, "per_mw_no_mrtr": 0.0, "per_mw_st_mrtr": 0.0, "per_mw_asbstos": 0.0, "per_mw_b_brick": 0.0, "per_mw_concrte": 0.0, "per_mw_oth": 0.0, "per_mf_mud": 100.0, "per_mf_wood": 0.0, "per_mf_b_brick": 0.0, "per_mf_stone": 0.0, "per_mf_cement": 0.0, "per_mf_fl_tile": 0.0, "per_mf_oth": 0.0, "per_dw_n_exrm": 100.0, "per_dw_1_room": 0.0, "per_dw_2_room": 0.0, "per_dw_3_room": 0.0, "per_dw_4_room": 0.0, "per_dw_5_room": 0.0, "per_dw_6_room": 0.0, "per_hhsize_1": 0.0, "per_hhsize_2": 0.0, "per_hhsize_3": 12.5, "per_hhsize_4": 25.0, "per_hhsize_5": 37.5, "per_hhsize_6_8": 12.5, "per_hhsize_9p": 12.5, "per_ow_owned": 100.0, "per_ow_rented": 0.0, "per_ow_oth": 0.0, "per_mc_none": 12.5, "per_mcouple_1": 50.0, "per_mcouple_2": 25.0, "per_mcouple_3": 12.5, "per_mcouple_4": 0.0, "per_mcouple_5p": 0.0, "per_dw_t_ts": 0.0, "per_dw_t_unts": 0.0, "per_dw_c_well": 0.0, "per_dw_unc_wel": 100.0, "per_dw_hpump": 0.0, "per_dw_tw_bore": 0.0, "per_dw_spring": 0.0, "per_dw_rivcan": 0.0, "per_dw_tank": 0.0, "per_dw_oth": 0.0, "per_loc_dw_wp": 0.0, "per_loc_dw_np": 0.0, "per_loc_dw_aw": 100.0, "per_light_elec": 0.0, "per_light_kero": 100.0, "per_light_solr": 0.0, "per_light_oil": 0.0, "per_light_oth": 0.0, "per_light_no": 0.0, "per_hh_latrine": 0.0, "per_fl_sewer": 0.0, "per_fl_septict": 0.0, "per_fl_othsys": 0.0, "per_pl_wslab": 0.0, "per_pl_without": 0.0, "per_ns_open": 0.0, "per_sl_ns_hum": 0.0, "per_sl_ns_anml": 0.0, "per_hh_no_lat": 100.0, "per_as_pub": 0.0, "per_as_open": 100.0, "per_hh_bathrm": 0.0, "per_hh_en_wrf": 0.0, "per_hh_no_btrm": 100.0, "per_wwoc_drain": 0.0, "per_wwoc_open": 0.0, "per_wwoc_nodrn": 100.0, "per_cook_fire": 100.0, "per_cook_resdu": 0.0, "per_cook_cwdng": 0.0, "per_cook_coal": 0.0, "per_cook_kero": 0.0, "per_cook_lpng": 0.0, "per_cook_elec": 0.0, "per_cook_biogs": 0.0, "per_cook_oth": 0.0, "per_cook_no": 0.0, "per_kf_inside": 0.0, "per_kf_in_has": 0.0, "per_kf_in_does": 0.0, "per_kf_outside": 100.0, "per_kf_out_has": 0.0, "per_kf_out_dos": 100.0, "per_kf_no_cook": 0.0, "per_hh_banking": 0.0, "per_hh_radio": 0.0, "per_hh_tv": 0.0, "per_hh_cmp_int": 0.0, "per_hh_cmp_wnt": 0.0, "per_hh_ph_ll": 0.0, "per_hh_ph_mob": 0.0, "per_hh_ph_bth": 0.0, "per_hh_bcycl": 100.0, "per_hh_2wheel": 0.0, "per_hh_4wheel": 100.0, "per_hh_tvcomp": 0.0, "per_hh_no_ast": 0.0, "per_hs_perma": 0.0, "per_hs_sperma": 0.0, "per_hs_temp": 100.0, "per_hs_servc": 100.0, "per_hs_nservc": 0.0, "per_hs_unclss": 0.0, "avghhsz_cy": 4.54545455, "st_areashape": 331599.288333165, "st_lengthshape": 2189.1343874242566}, "geometry": {"type": "Polygon", "coordinates": [[[87.10231399824089, 22.665827663354616], [87.10183257670707, 22.66696343204338], [87.10021635479735, 22.668761855604437], [87.09774448488454, 22.66928821978415], [87.09727863295126, 22.669349628337187], [87.0969363739297, 22.66832321835042], [87.09627087052617, 22.6670950245883], [87.09570043942247, 22.665822955823124], [87.0966932898138, 22.665012494552474], [87.0969363739297, 22.66481406485523], [87.09883781184043, 22.66411222288834], [87.10095251608784, 22.66362357100094], [87.10138768875755, 22.664045703187973], [87.1016178443199, 22.66462493313554], [87.10166549365749, 22.66472112375699], [87.10200836982168, 22.665413296349804], [87.10231399824089, 22.665827663354616]]]}}]}