{"type": "FeatureCollection", "features": [{"type": "Feature", "properties": {"premiumdata.sde.IN_Village_PCA.area": 5.08059413, "objectid": 221295, "id": "8115596484342", "name": "Dhanera", "subdistrict": "Reodar", "district": "Sirohi", "state": "Rajasthan", "country": "India", "censusname": "Dhanera", "villagename_locallang": null, "lgd_villagename": "Dhanera", "lgd_villagecode": 90287, "lgd_subdistrictcode": 596, "lgd_districtcode": 115, "lgd_statecode": 8, "censuscode2001": "02382600", "censuscode2011": "090287", "censuscode2021": null, "level": "Village", "tru": "Rural", "no_hh": 248, "tot_p": 1387, "tot_m": 716, "tot_f": 671, "per_tot_m": 51.6222062, "per_tot_f": 48.3777938, "p_06": 272, "m_06": 132, "f_06": 140, "per_p_06": 19.61067051, "per_m_06": 48.52941176, "per_f_06": 51.47058824, "p_sc": 1037, "m_sc": 530, "f_sc": 507, "per_p_sc": 74.76568133, "per_m_sc": 51.10896818, "per_f_sc": 48.89103182, "p_st": 86, "m_st": 51, "f_st": 35, "per_p_st": 6.20043259, "per_m_st": 59.30232558, "per_f_st": 40.69767442, "p_lit": 444, "m_lit": 324, "f_lit": 120, "per_p_lit": 32.01153569, "per_m_lit": 72.97297297, "per_f_lit": 27.02702703, "p_ill": 943, "m_ill": 392, "f_ill": 551, "per_p_ill": 67.98846431, "per_m_ill": 41.56945917, "per_f_ill": 58.43054083000001, "tot_work_p": 746, "tot_work_m": 396, "tot_work_f": 350, "per_tot_work_p": 53.7851478, "per_tot_work_m": 53.08310992, "per_tot_work_f": 46.91689008, "mainwork_p": 210, "mainwork_m": 150, "mainwork_f": 60, "per_mainwork_p": 15.1405912, "per_mainwork_m": 71.42857143, "per_mainwork_f": 28.57142857, "main_cl_p": 153, "main_cl_m": 102, "main_cl_f": 51, "per_main_cl_p": 72.85714286, "per_main_cl_m": 66.66666667, "per_main_cl_f": 33.33333333, "main_al_p": 16, "main_al_m": 9, "main_al_f": 7, "per_main_al_p": 7.61904762, "per_main_al_m": 56.25, "per_main_al_f": 43.75, "main_hh_p": 3, "main_hh_m": 3, "main_hh_f": 0, "per_main_hh_p": 1.42857143, "per_main_hh_m": 100.0, "per_main_hh_f": 0.0, "main_ot_p": 38, "main_ot_m": 36, "main_ot_f": 2, "per_main_ot_p": 18.0952381, "per_main_ot_m": 94.73684211, "per_main_ot_f": 5.26315789, "margwork_p": 536, "margwork_m": 246, "margwork_f": 290, "per_margwork_p": 38.6445566, "per_margwork_m": 45.89552239, "per_margwork_f": 54.10447761, "marg_cl_p": 140, "marg_cl_m": 78, "marg_cl_f": 62, "per_marg_cl_p": 26.11940299, "per_marg_cl_m": 55.71428571, "per_marg_cl_f": 44.28571429, "marg_al_p": 387, "marg_al_m": 160, "marg_al_f": 227, "per_marg_al_p": 72.20149254, "per_marg_al_m": 41.34366925, "per_marg_al_f": 58.65633075, "marg_hh_p": 1, "marg_hh_m": 0, "marg_hh_f": 1, "per_marg_hh_p": 0.18656716, "per_marg_hh_m": 0.0, "per_marg_hh_f": 100.0, "marg_ot_p": 8, "marg_ot_m": 8, "marg_ot_f": 0, "per_marg_ot_p": 1.49253731, "per_marg_ot_m": 100.0, "per_marg_ot_f": 0.0, "margwork_3_6_p": 526, "margwork_3_6_m": 241, "margwork_3_6_f": 285, "per_margwork_3_6_p": 98.13432836, "per_margwork_3_6_m": 45.81749049, "per_margwork_3_6_f": 54.18250951, "marg_cl_3_6_p": 139, "marg_cl_3_6_m": 77, "marg_cl_3_6_f": 62, "per_marg_cl_3_6_p": 25.93283582, "per_marg_cl_3_6_m": 55.39568345, "per_marg_cl_3_6_f": 44.60431655, "marg_al_3_6_p": 378, "marg_al_3_6_m": 156, "marg_al_3_6_f": 222, "per_marg_al_3_6_p": 70.52238806, "per_marg_al_3_6_m": 41.26984127, "per_marg_al_3_6_f": 58.73015873, "marg_hh_3_6_p": 1, "marg_hh_3_6_m": 0, "marg_hh_3_6_f": 1, "per_marg_hh_3_6_p": 0.18656716, "per_marg_hh_3_6_m": 0.0, "per_marg_hh_3_6_f": 100.0, "marg_ot_3_6_p": 8, "marg_ot_3_6_m": 8, "marg_ot_3_6_f": 0, "per_marg_ot_3_6_p": 1.49253731, "per_marg_ot_3_6_m": 100.0, "per_marg_ot_3_6_f": 0.0, "margwork_0_3_p": 10, "margwork_0_3_m": 5, "margwork_0_3_f": 5, "per_margwork_0_3_p": 1.86567164, "per_margwork_0_3_m": 50.0, "per_margwork_0_3_f": 50.0, "marg_cl_0_3_p": 1, "marg_cl_0_3_m": 1, "marg_cl_0_3_f": 0, "per_marg_cl_0_3_p": 0.18656716, "per_marg_cl_0_3_m": 100.0, "per_marg_cl_0_3_f": 0.0, "marg_al_0_3_p": 9, "marg_al_0_3_m": 4, "marg_al_0_3_f": 5, "per_marg_al_0_3_p": 1.67910448, "per_marg_al_0_3_m": 44.44444444000001, "per_marg_al_0_3_f": 55.55555556, "marg_hh_0_3_p": 0, "marg_hh_0_3_m": 0, "marg_hh_0_3_f": 0, "per_marg_hh_0_3_p": 0.0, "per_marg_hh_0_3_m": 0.0, "per_marg_hh_0_3_f": 0.0, "marg_ot_0_3_p": 0, "marg_ot_0_3_m": 0, "marg_ot_0_3_f": 0, "per_marg_ot_0_3_p": 0.0, "per_marg_ot_0_3_m": 0.0, "per_marg_ot_0_3_f": 0.0, "non_work_p": 641, "non_work_m": 320, "non_work_f": 321, "per_non_work_p": 46.2148522, "per_non_work_m": 49.92199688, "per_non_work_f": 50.07800312000001, "per_hc_tot_tot": 100, "per_hc_tot_god": 8.6, "per_hc_tot_liv": 90.2, "per_hc_tot_dil": 1.2, "per_hc_res_tot": 97.5, "per_hc_res_god": 8.2, "per_hc_res_liv": 88.1, "per_hc_res_dil": 1.2, "per_hc_oth_tot": 2.5, "per_hc_oth_god": 0.4, "per_hc_oth_liv": 2.0, "per_hc_oth_dil": 0.0, "per_mt_grsbam": 4.1, "per_mt_plastic": 2.0, "per_mt_h_tiles": 63.1, "per_mt_m_tiles": 13.9, "per_mt_b_brick": 0.4, "per_mt_stone": 9.8, "per_mt_asbstos": 2.9, "per_mt_concrte": 3.7, "per_mt_oth": 0.0, "per_mw_grsbam": 3.7, "per_mw_plastic": 0.0, "per_mw_mud": 36.5, "per_mw_wood": 0.0, "per_mw_no_mrtr": 3.3, "per_mw_st_mrtr": 8.6, "per_mw_asbstos": 0.0, "per_mw_b_brick": 47.5, "per_mw_concrte": 0.4, "per_mw_oth": 0.0, "per_mf_mud": 84.0, "per_mf_wood": 0.0, "per_mf_b_brick": 0.4, "per_mf_stone": 0.0, "per_mf_cement": 15.6, "per_mf_fl_tile": 0.0, "per_mf_oth": 0.0, "per_dw_n_exrm": 6.1, "per_dw_1_room": 86.9, "per_dw_2_room": 6.6, "per_dw_3_room": 0.4, "per_dw_4_room": 0.0, "per_dw_5_room": 0.0, "per_dw_6_room": 0.0, "per_hhsize_1": 2.0, "per_hhsize_2": 7.0, "per_hhsize_3": 8.2, "per_hhsize_4": 13.9, "per_hhsize_5": 16.8, "per_hhsize_6_8": 43.4, "per_hhsize_9p": 8.6, "per_ow_owned": 98.8, "per_ow_rented": 0.8, "per_ow_oth": 0.4, "per_mc_none": 7.0, "per_mcouple_1": 71.3, "per_mcouple_2": 17.2, "per_mcouple_3": 4.1, "per_mcouple_4": 0.4, "per_mcouple_5p": 0.0, "per_dw_t_ts": 0.8, "per_dw_t_unts": 27.0, "per_dw_c_well": 2.5, "per_dw_unc_wel": 48.8, "per_dw_hpump": 8.6, "per_dw_tw_bore": 0.0, "per_dw_spring": 0.0, "per_dw_rivcan": 0.0, "per_dw_tank": 12.3, "per_dw_oth": 0.0, "per_loc_dw_wp": 29.1, "per_loc_dw_np": 23.8, "per_loc_dw_aw": 47.1, "per_light_elec": 48.0, "per_light_kero": 51.2, "per_light_solr": 0.8, "per_light_oil": 0.0, "per_light_oth": 0.0, "per_light_no": 0.0, "per_hh_latrine": 0.8, "per_fl_sewer": 0.4, "per_fl_septict": 0.4, "per_fl_othsys": 0.0, "per_pl_wslab": 0.0, "per_pl_without": 0.0, "per_ns_open": 0.0, "per_sl_ns_hum": 0.0, "per_sl_ns_anml": 0.0, "per_hh_no_lat": 99.2, "per_as_pub": 0.0, "per_as_open": 99.2, "per_hh_bathrm": 0.0, "per_hh_en_wrf": 0.8, "per_hh_no_btrm": 99.2, "per_wwoc_drain": 0.4, "per_wwoc_open": 0.8, "per_wwoc_nodrn": 98.8, "per_cook_fire": 95.5, "per_cook_resdu": 3.7, "per_cook_cwdng": 0.4, "per_cook_coal": 0.0, "per_cook_kero": 0.0, "per_cook_lpng": 0.0, "per_cook_elec": 0.4, "per_cook_biogs": 0.0, "per_cook_oth": 0.0, "per_cook_no": 0.0, "per_kf_inside": 84.8, "per_kf_in_has": 1.2, "per_kf_in_does": 83.6, "per_kf_outside": 15.2, "per_kf_out_has": 6.6, "per_kf_out_dos": 8.6, "per_kf_no_cook": 0.0, "per_hh_banking": 19.3, "per_hh_radio": 4.9, "per_hh_tv": 4.1, "per_hh_cmp_int": 0.0, "per_hh_cmp_wnt": 1.2, "per_hh_ph_ll": 0.4, "per_hh_ph_mob": 61.9, "per_hh_ph_bth": 1.6, "per_hh_bcycl": 35.2, "per_hh_2wheel": 6.1, "per_hh_4wheel": 0.0, "per_hh_tvcomp": 0.0, "per_hh_no_ast": 22.5, "per_hs_perma": 57.0, "per_hs_sperma": 39.8, "per_hs_temp": 3.3, "per_hs_servc": 0.0, "per_hs_nservc": 3.3, "per_hs_unclss": 0.0, "avghhsz_cy": 5.59274194, "st_areashape": 6169202.138879705, "st_lengthshape": 11555.94714063071}, "geometry": {"type": "Polygon", "coordinates": [[[72.64504177994893, 24.567585471042136], [72.63408048385152, 24.57186497754665], [72.6211551345731, 24.57666088649009], [72.61247612074436, 24.579943701618276], [72.61091321205011, 24.580378916206016], [72.6137944397463, 24.575388624594368], [72.61865680478358, 24.5643248555545], [72.62789153261674, 24.54806925700968], [72.64070836001895, 24.562824157220195], [72.64504177994893, 24.567585471042136]]]}}]}