{"type": "FeatureCollection", "features": [{"type": "Feature", "properties": {"premiumdata.sde.IN_Village_PCA.area": 4.34733274, "objectid": 488961, "id": "203322657216255", "name": "Pandaul", "subdistrict": "Barkagaon", "district": "Hazaribagh", "state": "Jharkhand", "country": "India", "censusname": "Pandaul", "villagename_locallang": null, "lgd_villagename": "Pandaul", "lgd_villagecode": 368843, "lgd_subdistrictcode": 2657, "lgd_districtcode": 332, "lgd_statecode": 20, "censuscode2001": "00631100", "censuscode2011": "368843", "censuscode2021": null, "level": "Village", "tru": "Rural", "no_hh": 232, "tot_p": 1335, "tot_m": 653, "tot_f": 682, "per_tot_m": 48.91385768, "per_tot_f": 51.08614232, "p_06": 233, "m_06": 113, "f_06": 120, "per_p_06": 17.45318352, "per_m_06": 48.49785408, "per_f_06": 51.50214592, "p_sc": 199, "m_sc": 93, "f_sc": 106, "per_p_sc": 14.90636704, "per_m_sc": 46.73366834, "per_f_sc": 53.26633166, "p_st": 49, "m_st": 23, "f_st": 26, "per_p_st": 3.67041199, "per_m_st": 46.93877551, "per_f_st": 53.06122449, "p_lit": 569, "m_lit": 319, "f_lit": 250, "per_p_lit": 42.62172285, "per_m_lit": 56.06326889, "per_f_lit": 43.93673111, "p_ill": 766, "m_ill": 334, "f_ill": 432, "per_p_ill": 57.37827715, "per_m_ill": 43.60313316, "per_f_ill": 56.39686684, "tot_work_p": 629, "tot_work_m": 329, "tot_work_f": 300, "per_tot_work_p": 47.11610487, "per_tot_work_m": 52.30524642, "per_tot_work_f": 47.69475358, "mainwork_p": 592, "mainwork_m": 309, "mainwork_f": 283, "per_mainwork_p": 44.34456929, "per_mainwork_m": 52.19594595, "per_mainwork_f": 47.80405405, "main_cl_p": 364, "main_cl_m": 249, "main_cl_f": 115, "per_main_cl_p": 61.48648649, "per_main_cl_m": 68.40659341, "per_main_cl_f": 31.59340659, "main_al_p": 224, "main_al_m": 58, "main_al_f": 166, "per_main_al_p": 37.83783784, "per_main_al_m": 25.89285714, "per_main_al_f": 74.10714286, "main_hh_p": 1, "main_hh_m": 1, "main_hh_f": 0, "per_main_hh_p": 0.16891892, "per_main_hh_m": 100.0, "per_main_hh_f": 0.0, "main_ot_p": 3, "main_ot_m": 1, "main_ot_f": 2, "per_main_ot_p": 0.50675676, "per_main_ot_m": 33.33333333, "per_main_ot_f": 66.66666667, "margwork_p": 37, "margwork_m": 20, "margwork_f": 17, "per_margwork_p": 2.77153558, "per_margwork_m": 54.05405405, "per_margwork_f": 45.94594595, "marg_cl_p": 8, "marg_cl_m": 3, "marg_cl_f": 5, "per_marg_cl_p": 21.62162162, "per_marg_cl_m": 37.5, "per_marg_cl_f": 62.5, "marg_al_p": 29, "marg_al_m": 17, "marg_al_f": 12, "per_marg_al_p": 78.37837838, "per_marg_al_m": 58.62068966, "per_marg_al_f": 41.37931034, "marg_hh_p": 0, "marg_hh_m": 0, "marg_hh_f": 0, "per_marg_hh_p": 0.0, "per_marg_hh_m": 0.0, "per_marg_hh_f": 0.0, "marg_ot_p": 0, "marg_ot_m": 0, "marg_ot_f": 0, "per_marg_ot_p": 0.0, "per_marg_ot_m": 0.0, "per_marg_ot_f": 0.0, "margwork_3_6_p": 34, "margwork_3_6_m": 18, "margwork_3_6_f": 16, "per_margwork_3_6_p": 91.89189189, "per_margwork_3_6_m": 52.94117647, "per_margwork_3_6_f": 47.05882353, "marg_cl_3_6_p": 7, "marg_cl_3_6_m": 2, "marg_cl_3_6_f": 5, "per_marg_cl_3_6_p": 18.91891892, "per_marg_cl_3_6_m": 28.57142857, "per_marg_cl_3_6_f": 71.42857143, "marg_al_3_6_p": 27, "marg_al_3_6_m": 16, "marg_al_3_6_f": 11, "per_marg_al_3_6_p": 72.97297297, "per_marg_al_3_6_m": 59.25925926, "per_marg_al_3_6_f": 40.74074074, "marg_hh_3_6_p": 0, "marg_hh_3_6_m": 0, "marg_hh_3_6_f": 0, "per_marg_hh_3_6_p": 0.0, "per_marg_hh_3_6_m": 0.0, "per_marg_hh_3_6_f": 0.0, "marg_ot_3_6_p": 0, "marg_ot_3_6_m": 0, "marg_ot_3_6_f": 0, "per_marg_ot_3_6_p": 0.0, "per_marg_ot_3_6_m": 0.0, "per_marg_ot_3_6_f": 0.0, "margwork_0_3_p": 3, "margwork_0_3_m": 2, "margwork_0_3_f": 1, "per_margwork_0_3_p": 8.10810811, "per_margwork_0_3_m": 66.66666667, "per_margwork_0_3_f": 33.33333333, "marg_cl_0_3_p": 1, "marg_cl_0_3_m": 1, "marg_cl_0_3_f": 0, "per_marg_cl_0_3_p": 2.7027027, "per_marg_cl_0_3_m": 100.0, "per_marg_cl_0_3_f": 0.0, "marg_al_0_3_p": 2, "marg_al_0_3_m": 1, "marg_al_0_3_f": 1, "per_marg_al_0_3_p": 5.40540541, "per_marg_al_0_3_m": 50.0, "per_marg_al_0_3_f": 50.0, "marg_hh_0_3_p": 0, "marg_hh_0_3_m": 0, "marg_hh_0_3_f": 0, "per_marg_hh_0_3_p": 0.0, "per_marg_hh_0_3_m": 0.0, "per_marg_hh_0_3_f": 0.0, "marg_ot_0_3_p": 0, "marg_ot_0_3_m": 0, "marg_ot_0_3_f": 0, "per_marg_ot_0_3_p": 0.0, "per_marg_ot_0_3_m": 0.0, "per_marg_ot_0_3_f": 0.0, "non_work_p": 706, "non_work_m": 324, "non_work_f": 382, "per_non_work_p": 52.88389513, "per_non_work_m": 45.89235127, "per_non_work_f": 54.10764873, "per_hc_tot_tot": 100, "per_hc_tot_god": 70.1, "per_hc_tot_liv": 26.4, "per_hc_tot_dil": 3.5, "per_hc_res_tot": 97.8, "per_hc_res_god": 68.0, "per_hc_res_liv": 26.4, "per_hc_res_dil": 3.5, "per_hc_oth_tot": 2.2, "per_hc_oth_god": 2.2, "per_hc_oth_liv": 0.0, "per_hc_oth_dil": 0.0, "per_mt_grsbam": 1.7, "per_mt_plastic": 0.0, "per_mt_h_tiles": 41.1, "per_mt_m_tiles": 3.0, "per_mt_b_brick": 0.0, "per_mt_stone": 0.0, "per_mt_asbstos": 4.8, "per_mt_concrte": 49.4, "per_mt_oth": 0.0, "per_mw_grsbam": 0.9, "per_mw_plastic": 0.0, "per_mw_mud": 42.9, "per_mw_wood": 0.0, "per_mw_no_mrtr": 0.0, "per_mw_st_mrtr": 0.4, "per_mw_asbstos": 0.0, "per_mw_b_brick": 55.4, "per_mw_concrte": 0.4, "per_mw_oth": 0.0, "per_mf_mud": 56.7, "per_mf_wood": 0.0, "per_mf_b_brick": 0.9, "per_mf_stone": 0.0, "per_mf_cement": 42.4, "per_mf_fl_tile": 0.0, "per_mf_oth": 0.0, "per_dw_n_exrm": 2.2, "per_dw_1_room": 31.6, "per_dw_2_room": 36.8, "per_dw_3_room": 6.9, "per_dw_4_room": 11.3, "per_dw_5_room": 4.8, "per_dw_6_room": 6.5, "per_hhsize_1": 0.9, "per_hhsize_2": 3.9, "per_hhsize_3": 10.4, "per_hhsize_4": 16.9, "per_hhsize_5": 19.5, "per_hhsize_6_8": 40.7, "per_hhsize_9p": 7.8, "per_ow_owned": 99.1, "per_ow_rented": 0.9, "per_ow_oth": 0.0, "per_mc_none": 10.4, "per_mcouple_1": 65.8, "per_mcouple_2": 18.6, "per_mcouple_3": 4.3, "per_mcouple_4": 0.9, "per_mcouple_5p": 0.0, "per_dw_t_ts": 0.0, "per_dw_t_unts": 0.0, "per_dw_c_well": 1.3, "per_dw_unc_wel": 58.9, "per_dw_hpump": 39.4, "per_dw_tw_bore": 0.0, "per_dw_spring": 0.0, "per_dw_rivcan": 0.4, "per_dw_tank": 0.0, "per_dw_oth": 0.0, "per_loc_dw_wp": 26.4, "per_loc_dw_np": 18.2, "per_loc_dw_aw": 55.4, "per_light_elec": 92.2, "per_light_kero": 7.8, "per_light_solr": 0.0, "per_light_oil": 0.0, "per_light_oth": 0.0, "per_light_no": 0.0, "per_hh_latrine": 2.6, "per_fl_sewer": 0.0, "per_fl_septict": 2.6, "per_fl_othsys": 0.0, "per_pl_wslab": 0.0, "per_pl_without": 0.0, "per_ns_open": 0.0, "per_sl_ns_hum": 0.0, "per_sl_ns_anml": 0.0, "per_hh_no_lat": 97.4, "per_as_pub": 0.0, "per_as_open": 97.4, "per_hh_bathrm": 0.4, "per_hh_en_wrf": 27.7, "per_hh_no_btrm": 71.9, "per_wwoc_drain": 0.0, "per_wwoc_open": 16.9, "per_wwoc_nodrn": 83.1, "per_cook_fire": 93.9, "per_cook_resdu": 0.0, "per_cook_cwdng": 6.1, "per_cook_coal": 0.0, "per_cook_kero": 0.0, "per_cook_lpng": 0.0, "per_cook_elec": 0.0, "per_cook_biogs": 0.0, "per_cook_oth": 0.0, "per_cook_no": 0.0, "per_kf_inside": 100.0, "per_kf_in_has": 6.1, "per_kf_in_does": 93.9, "per_kf_outside": 0.0, "per_kf_out_has": 0.0, "per_kf_out_dos": 0.0, "per_kf_no_cook": 0.0, "per_hh_banking": 20.3, "per_hh_radio": 22.5, "per_hh_tv": 11.3, "per_hh_cmp_int": 0.0, "per_hh_cmp_wnt": 0.9, "per_hh_ph_ll": 1.3, "per_hh_ph_mob": 19.0, "per_hh_ph_bth": 0.0, "per_hh_bcycl": 78.8, "per_hh_2wheel": 6.5, "per_hh_4wheel": 0.9, "per_hh_tvcomp": 0.0, "per_hh_no_ast": 16.5, "per_hs_perma": 55.0, "per_hs_sperma": 44.6, "per_hs_temp": 0.4, "per_hs_servc": 0.4, "per_hs_nservc": 0.0, "per_hs_unclss": 0.0, "avghhsz_cy": 5.75431034, "st_areashape": 5222277.87299602, "st_lengthshape": 12330.128115531175}, "geometry": {"type": "Polygon", "coordinates": [[[85.26942000055897, 23.859769999901157], [85.27020999968107, 23.86064999995605], [85.27130000017546, 23.86282000062752], [85.27124999994672, 23.866230000403924], [85.2716399999341, 23.867789999927464], [85.27267999930145, 23.870309999773653], [85.27376999979582, 23.87253000038914], [85.27542000015687, 23.87509999978893], [85.2772799996819, 23.876289999881788], [85.27968999992613, 23.878269999805777], [85.28115000031636, 23.880360000223327], [85.2825600004779, 23.883060000146614], [85.28390000031922, 23.885759999587233], [85.28371000034844, 23.885989999390414], [85.28258999971682, 23.888400000523138], [85.2824700000662, 23.88848000033276], [85.28133000024144, 23.88926999980042], [85.27788999977724, 23.89024999999407], [85.27675999999819, 23.88803999953559], [85.27495999984934, 23.886599999530887], [85.2704399998348, 23.884330000065646], [85.2682199995614, 23.882690000205557], [85.26756000013562, 23.880099999745777], [85.26494999987486, 23.872379999570725], [85.2632999995138, 23.87067999978144], [85.26071000024282, 23.865730000055358], [85.2605800005465, 23.86470000015367], [85.2617500005085, 23.86200999978334], [85.26136000052118, 23.860129999824633], [85.26059999973964, 23.859339999959367], [85.25990000013091, 23.859140000092363], [85.25835000022732, 23.85944000018782], [85.25729999991587, 23.85942000047692], [85.25588999975437, 23.85797000006509], [85.25828999995286, 23.855159999902384], [85.26022999984382, 23.853679999391893], [85.26463000020772, 23.852099999986706], [85.26700000026896, 23.851539999837513], [85.26743000043929, 23.852659999359105], [85.2679799993619, 23.853279999949336], [85.26858000030984, 23.854020000083352], [85.26883999970251, 23.85492999955024], [85.26942000055897, 23.859769999901157]]]}}]}