{"type": "FeatureCollection", "features": [{"type": "Feature", "properties": {"premiumdata.sde.IN_Village_PCA.area": 1.05468697, "objectid": 178906, "id": "21362303574614", "name": "Suanla", "subdistrict": "Begunia", "district": "Khordha", "state": "Odisha", "country": "India", "censusname": "Suanla", "villagename_locallang": null, "lgd_villagename": "Suanla", "lgd_villagecode": 407189, "lgd_subdistrictcode": 3035, "lgd_districtcode": 362, "lgd_statecode": 21, "censuscode2001": "02743900", "censuscode2011": "407189", "censuscode2021": null, "level": "Village", "tru": "Rural", "no_hh": 38, "tot_p": 180, "tot_m": 86, "tot_f": 94, "per_tot_m": 47.77777778, "per_tot_f": 52.22222222, "p_06": 21, "m_06": 11, "f_06": 10, "per_p_06": 11.66666667, "per_m_06": 52.38095238, "per_f_06": 47.61904762, "p_sc": 3, "m_sc": 2, "f_sc": 1, "per_p_sc": 1.66666667, "per_m_sc": 66.66666667, "per_f_sc": 33.33333333, "p_st": 0, "m_st": 0, "f_st": 0, "per_p_st": 0.0, "per_m_st": 0.0, "per_f_st": 0.0, "p_lit": 134, "m_lit": 69, "f_lit": 65, "per_p_lit": 74.44444444, "per_m_lit": 51.49253731, "per_f_lit": 48.50746269, "p_ill": 46, "m_ill": 17, "f_ill": 29, "per_p_ill": 25.55555556, "per_m_ill": 36.95652174, "per_f_ill": 63.04347826, "tot_work_p": 61, "tot_work_m": 52, "tot_work_f": 9, "per_tot_work_p": 33.88888889, "per_tot_work_m": 85.24590164, "per_tot_work_f": 14.75409836, "mainwork_p": 56, "mainwork_m": 48, "mainwork_f": 8, "per_mainwork_p": 31.11111111, "per_mainwork_m": 85.71428571, "per_mainwork_f": 14.28571429, "main_cl_p": 17, "main_cl_m": 17, "main_cl_f": 0, "per_main_cl_p": 30.35714286, "per_main_cl_m": 100.0, "per_main_cl_f": 0.0, "main_al_p": 7, "main_al_m": 7, "main_al_f": 0, "per_main_al_p": 12.5, "per_main_al_m": 100.0, "per_main_al_f": 0.0, "main_hh_p": 4, "main_hh_m": 3, "main_hh_f": 1, "per_main_hh_p": 7.14285714, "per_main_hh_m": 75.0, "per_main_hh_f": 25.0, "main_ot_p": 28, "main_ot_m": 21, "main_ot_f": 7, "per_main_ot_p": 50.0, "per_main_ot_m": 75.0, "per_main_ot_f": 25.0, "margwork_p": 5, "margwork_m": 4, "margwork_f": 1, "per_margwork_p": 2.77777778, "per_margwork_m": 80.0, "per_margwork_f": 20.0, "marg_cl_p": 0, "marg_cl_m": 0, "marg_cl_f": 0, "per_marg_cl_p": 0.0, "per_marg_cl_m": 0.0, "per_marg_cl_f": 0.0, "marg_al_p": 0, "marg_al_m": 0, "marg_al_f": 0, "per_marg_al_p": 0.0, "per_marg_al_m": 0.0, "per_marg_al_f": 0.0, "marg_hh_p": 0, "marg_hh_m": 0, "marg_hh_f": 0, "per_marg_hh_p": 0.0, "per_marg_hh_m": 0.0, "per_marg_hh_f": 0.0, "marg_ot_p": 5, "marg_ot_m": 4, "marg_ot_f": 1, "per_marg_ot_p": 100.0, "per_marg_ot_m": 80.0, "per_marg_ot_f": 20.0, "margwork_3_6_p": 5, "margwork_3_6_m": 4, "margwork_3_6_f": 1, "per_margwork_3_6_p": 100.0, "per_margwork_3_6_m": 80.0, "per_margwork_3_6_f": 20.0, "marg_cl_3_6_p": 0, "marg_cl_3_6_m": 0, "marg_cl_3_6_f": 0, "per_marg_cl_3_6_p": 0.0, "per_marg_cl_3_6_m": 0.0, "per_marg_cl_3_6_f": 0.0, "marg_al_3_6_p": 0, "marg_al_3_6_m": 0, "marg_al_3_6_f": 0, "per_marg_al_3_6_p": 0.0, "per_marg_al_3_6_m": 0.0, "per_marg_al_3_6_f": 0.0, "marg_hh_3_6_p": 0, "marg_hh_3_6_m": 0, "marg_hh_3_6_f": 0, "per_marg_hh_3_6_p": 0.0, "per_marg_hh_3_6_m": 0.0, "per_marg_hh_3_6_f": 0.0, "marg_ot_3_6_p": 5, "marg_ot_3_6_m": 4, "marg_ot_3_6_f": 1, "per_marg_ot_3_6_p": 100.0, "per_marg_ot_3_6_m": 80.0, "per_marg_ot_3_6_f": 20.0, "margwork_0_3_p": 0, "margwork_0_3_m": 0, "margwork_0_3_f": 0, "per_margwork_0_3_p": 0.0, "per_margwork_0_3_m": 0.0, "per_margwork_0_3_f": 0.0, "marg_cl_0_3_p": 0, "marg_cl_0_3_m": 0, "marg_cl_0_3_f": 0, "per_marg_cl_0_3_p": 0.0, "per_marg_cl_0_3_m": 0.0, "per_marg_cl_0_3_f": 0.0, "marg_al_0_3_p": 0, "marg_al_0_3_m": 0, "marg_al_0_3_f": 0, "per_marg_al_0_3_p": 0.0, "per_marg_al_0_3_m": 0.0, "per_marg_al_0_3_f": 0.0, "marg_hh_0_3_p": 0, "marg_hh_0_3_m": 0, "marg_hh_0_3_f": 0, "per_marg_hh_0_3_p": 0.0, "per_marg_hh_0_3_m": 0.0, "per_marg_hh_0_3_f": 0.0, "marg_ot_0_3_p": 0, "marg_ot_0_3_m": 0, "marg_ot_0_3_f": 0, "per_marg_ot_0_3_p": 0.0, "per_marg_ot_0_3_m": 0.0, "per_marg_ot_0_3_f": 0.0, "non_work_p": 119, "non_work_m": 34, "non_work_f": 85, "per_non_work_p": 66.11111111, "per_non_work_m": 28.57142857, "per_non_work_f": 71.42857143, "per_hc_tot_tot": 100, "per_hc_tot_god": 87.2, "per_hc_tot_liv": 12.8, "per_hc_tot_dil": 0.0, "per_hc_res_tot": 100.0, "per_hc_res_god": 87.2, "per_hc_res_liv": 12.8, "per_hc_res_dil": 0.0, "per_hc_oth_tot": 0.0, "per_hc_oth_god": 0.0, "per_hc_oth_liv": 0.0, "per_hc_oth_dil": 0.0, "per_mt_grsbam": 51.3, "per_mt_plastic": 0.0, "per_mt_h_tiles": 5.1, "per_mt_m_tiles": 2.6, "per_mt_b_brick": 0.0, "per_mt_stone": 0.0, "per_mt_asbstos": 10.3, "per_mt_concrte": 30.8, "per_mt_oth": 0.0, "per_mw_grsbam": 0.0, "per_mw_plastic": 0.0, "per_mw_mud": 61.5, "per_mw_wood": 0.0, "per_mw_no_mrtr": 0.0, "per_mw_st_mrtr": 38.5, "per_mw_asbstos": 0.0, "per_mw_b_brick": 0.0, "per_mw_concrte": 0.0, "per_mw_oth": 0.0, "per_mf_mud": 59.0, "per_mf_wood": 0.0, "per_mf_b_brick": 0.0, "per_mf_stone": 0.0, "per_mf_cement": 41.0, "per_mf_fl_tile": 0.0, "per_mf_oth": 0.0, "per_dw_n_exrm": 2.6, "per_dw_1_room": 33.3, "per_dw_2_room": 33.3, "per_dw_3_room": 15.4, "per_dw_4_room": 12.8, "per_dw_5_room": 2.6, "per_dw_6_room": 0.0, "per_hhsize_1": 2.6, "per_hhsize_2": 7.7, "per_hhsize_3": 12.8, "per_hhsize_4": 23.1, "per_hhsize_5": 33.3, "per_hhsize_6_8": 20.5, "per_hhsize_9p": 0.0, "per_ow_owned": 94.9, "per_ow_rented": 0.0, "per_ow_oth": 5.1, "per_mc_none": 12.8, "per_mcouple_1": 69.2, "per_mcouple_2": 17.9, "per_mcouple_3": 0.0, "per_mcouple_4": 0.0, "per_mcouple_5p": 0.0, "per_dw_t_ts": 2.6, "per_dw_t_unts": 5.1, "per_dw_c_well": 0.0, "per_dw_unc_wel": 35.9, "per_dw_hpump": 0.0, "per_dw_tw_bore": 56.4, "per_dw_spring": 0.0, "per_dw_rivcan": 0.0, "per_dw_tank": 0.0, "per_dw_oth": 0.0, "per_loc_dw_wp": 28.2, "per_loc_dw_np": 41.0, "per_loc_dw_aw": 30.8, "per_light_elec": 48.7, "per_light_kero": 51.3, "per_light_solr": 0.0, "per_light_oil": 0.0, "per_light_oth": 0.0, "per_light_no": 0.0, "per_hh_latrine": 10.3, "per_fl_sewer": 0.0, "per_fl_septict": 10.3, "per_fl_othsys": 0.0, "per_pl_wslab": 0.0, "per_pl_without": 0.0, "per_ns_open": 0.0, "per_sl_ns_hum": 0.0, "per_sl_ns_anml": 0.0, "per_hh_no_lat": 89.7, "per_as_pub": 0.0, "per_as_open": 89.7, "per_hh_bathrm": 7.7, "per_hh_en_wrf": 20.5, "per_hh_no_btrm": 71.8, "per_wwoc_drain": 0.0, "per_wwoc_open": 2.6, "per_wwoc_nodrn": 97.4, "per_cook_fire": 7.7, "per_cook_resdu": 61.5, "per_cook_cwdng": 0.0, "per_cook_coal": 0.0, "per_cook_kero": 0.0, "per_cook_lpng": 0.0, "per_cook_elec": 0.0, "per_cook_biogs": 0.0, "per_cook_oth": 30.8, "per_cook_no": 0.0, "per_kf_inside": 100.0, "per_kf_in_has": 10.3, "per_kf_in_does": 89.7, "per_kf_outside": 0.0, "per_kf_out_has": 0.0, "per_kf_out_dos": 0.0, "per_kf_no_cook": 0.0, "per_hh_banking": 46.2, "per_hh_radio": 7.7, "per_hh_tv": 30.8, "per_hh_cmp_int": 0.0, "per_hh_cmp_wnt": 0.0, "per_hh_ph_ll": 0.0, "per_hh_ph_mob": 79.5, "per_hh_ph_bth": 5.1, "per_hh_bcycl": 69.2, "per_hh_2wheel": 23.1, "per_hh_4wheel": 0.0, "per_hh_tvcomp": 0.0, "per_hh_no_ast": 2.6, "per_hs_perma": 35.9, "per_hs_sperma": 15.4, "per_hs_temp": 48.7, "per_hs_servc": 48.7, "per_hs_nservc": 0.0, "per_hs_unclss": 0.0, "avghhsz_cy": 4.73684211, "st_areashape": 1203821.89045056, "st_lengthshape": 5511.761524813237}, "geometry": {"type": "Polygon", "coordinates": [[[85.43262401425443, 20.219095774979614], [85.43151762759095, 20.220379536692914], [85.43055282978928, 20.221260264190075], [85.4297491843597, 20.22122897903451], [85.42958866619821, 20.22073740996999], [85.42896422658298, 20.220063831369714], [85.42807276634277, 20.21973150906287], [85.42740915029968, 20.21895981234502], [85.42663639433947, 20.218092640182746], [85.42635437813746, 20.21720752395543], [85.42535099320277, 20.216713486605727], [85.42304903693102, 20.216233531266372], [85.42107877369646, 20.216139268962998], [85.419353957147, 20.21517399780645], [85.41921517641875, 20.213773199931712], [85.4184525283021, 20.213154281099083], [85.41693949676736, 20.212214506402145], [85.41568333399654, 20.211116087384532], [85.4151634007882, 20.209990939775526], [85.41492075505018, 20.209204012932513], [85.41650451903209, 20.20929573438276], [85.41754615872313, 20.209009165579094], [85.41858992023491, 20.208772372083825], [85.41945358121029, 20.209288082360004], [85.42060252376375, 20.209047363374594], [85.42187681094373, 20.209299483258366], [85.42376209984063, 20.21032520999985], [85.42508710410492, 20.21117240162269], [85.42603977375195, 20.21128696978439], [85.42734848257697, 20.21109015578461], [85.42786427634849, 20.210822643019846], [85.42998863658691, 20.21512237536119], [85.43075562536299, 20.21713377001355], [85.43094786213885, 20.217972285860466], [85.43262401425443, 20.219095774979614]]]}}]}