{"type": "FeatureCollection", "features": [{"type": "Feature", "properties": {"premiumdata.sde.IN_Village_PCA.area": 1.44095114, "objectid": 380045, "id": "9173790459431", "name": "Alaknath", "subdistrict": "Pilibhit", "district": "Pilibhit", "state": "Uttar Pradesh", "country": "India", "censusname": "Alakthan", "villagename_locallang": null, "lgd_villagename": "Alaknath", "lgd_villagecode": 131520, "lgd_subdistrictcode": 790, "lgd_districtcode": 173, "lgd_statecode": 9, "censuscode2001": "02433200", "censuscode2011": "131520", "censuscode2021": null, "level": "Village", "tru": "Rural", "no_hh": 352, "tot_p": 1998, "tot_m": 1025, "tot_f": 973, "per_tot_m": 51.3013013, "per_tot_f": 48.6986987, "p_06": 314, "m_06": 150, "f_06": 164, "per_p_06": 15.71571572, "per_m_06": 47.77070064, "per_f_06": 52.22929936, "p_sc": 239, "m_sc": 123, "f_sc": 116, "per_p_sc": 11.96196196, "per_m_sc": 51.46443515, "per_f_sc": 48.53556485, "p_st": 0, "m_st": 0, "f_st": 0, "per_p_st": 0.0, "per_m_st": 0.0, "per_f_st": 0.0, "p_lit": 954, "m_lit": 640, "f_lit": 314, "per_p_lit": 47.74774775, "per_m_lit": 67.08595388, "per_f_lit": 32.91404612, "p_ill": 1044, "m_ill": 385, "f_ill": 659, "per_p_ill": 52.25225225000001, "per_m_ill": 36.87739464, "per_f_ill": 63.12260536, "tot_work_p": 601, "tot_work_m": 521, "tot_work_f": 80, "per_tot_work_p": 30.08008008, "per_tot_work_m": 86.68885191, "per_tot_work_f": 13.31114809, "mainwork_p": 319, "mainwork_m": 305, "mainwork_f": 14, "per_mainwork_p": 15.96596597, "per_mainwork_m": 95.61128527, "per_mainwork_f": 4.38871473, "main_cl_p": 201, "main_cl_m": 199, "main_cl_f": 2, "per_main_cl_p": 63.00940439, "per_main_cl_m": 99.00497512000001, "per_main_cl_f": 0.99502488, "main_al_p": 70, "main_al_m": 70, "main_al_f": 0, "per_main_al_p": 21.94357367, "per_main_al_m": 100.0, "per_main_al_f": 0.0, "main_hh_p": 10, "main_hh_m": 4, "main_hh_f": 6, "per_main_hh_p": 3.13479624, "per_main_hh_m": 40.0, "per_main_hh_f": 60.0, "main_ot_p": 38, "main_ot_m": 32, "main_ot_f": 6, "per_main_ot_p": 11.91222571, "per_main_ot_m": 84.21052632, "per_main_ot_f": 15.78947368, "margwork_p": 282, "margwork_m": 216, "margwork_f": 66, "per_margwork_p": 14.11411411, "per_margwork_m": 76.59574468, "per_margwork_f": 23.40425532, "marg_cl_p": 31, "marg_cl_m": 29, "marg_cl_f": 2, "per_marg_cl_p": 10.9929078, "per_marg_cl_m": 93.5483871, "per_marg_cl_f": 6.4516129, "marg_al_p": 163, "marg_al_m": 155, "marg_al_f": 8, "per_marg_al_p": 57.80141844, "per_marg_al_m": 95.09202454, "per_marg_al_f": 4.90797546, "marg_hh_p": 65, "marg_hh_m": 13, "marg_hh_f": 52, "per_marg_hh_p": 23.04964539, "per_marg_hh_m": 20.0, "per_marg_hh_f": 80.0, "marg_ot_p": 23, "marg_ot_m": 19, "marg_ot_f": 4, "per_marg_ot_p": 8.15602837, "per_marg_ot_m": 82.60869565, "per_marg_ot_f": 17.39130435, "margwork_3_6_p": 205, "margwork_3_6_m": 198, "margwork_3_6_f": 7, "per_margwork_3_6_p": 72.69503546, "per_margwork_3_6_m": 96.58536585, "per_margwork_3_6_f": 3.41463415, "marg_cl_3_6_p": 26, "marg_cl_3_6_m": 24, "marg_cl_3_6_f": 2, "per_marg_cl_3_6_p": 9.21985816, "per_marg_cl_3_6_m": 92.30769231, "per_marg_cl_3_6_f": 7.69230769, "marg_al_3_6_p": 148, "marg_al_3_6_m": 144, "marg_al_3_6_f": 4, "per_marg_al_3_6_p": 52.4822695, "per_marg_al_3_6_m": 97.2972973, "per_marg_al_3_6_f": 2.7027027, "marg_hh_3_6_p": 14, "marg_hh_3_6_m": 13, "marg_hh_3_6_f": 1, "per_marg_hh_3_6_p": 4.96453901, "per_marg_hh_3_6_m": 92.85714286, "per_marg_hh_3_6_f": 7.14285714, "marg_ot_3_6_p": 17, "marg_ot_3_6_m": 17, "marg_ot_3_6_f": 0, "per_marg_ot_3_6_p": 6.02836879, "per_marg_ot_3_6_m": 100.0, "per_marg_ot_3_6_f": 0.0, "margwork_0_3_p": 77, "margwork_0_3_m": 18, "margwork_0_3_f": 59, "per_margwork_0_3_p": 27.30496454, "per_margwork_0_3_m": 23.37662338, "per_margwork_0_3_f": 76.62337662, "marg_cl_0_3_p": 5, "marg_cl_0_3_m": 5, "marg_cl_0_3_f": 0, "per_marg_cl_0_3_p": 1.77304965, "per_marg_cl_0_3_m": 100.0, "per_marg_cl_0_3_f": 0.0, "marg_al_0_3_p": 15, "marg_al_0_3_m": 11, "marg_al_0_3_f": 4, "per_marg_al_0_3_p": 5.31914894, "per_marg_al_0_3_m": 73.33333332999999, "per_marg_al_0_3_f": 26.66666667, "marg_hh_0_3_p": 51, "marg_hh_0_3_m": 0, "marg_hh_0_3_f": 51, "per_marg_hh_0_3_p": 18.08510638, "per_marg_hh_0_3_m": 0.0, "per_marg_hh_0_3_f": 100.0, "marg_ot_0_3_p": 6, "marg_ot_0_3_m": 2, "marg_ot_0_3_f": 4, "per_marg_ot_0_3_p": 2.12765957, "per_marg_ot_0_3_m": 33.33333333, "per_marg_ot_0_3_f": 66.66666667, "non_work_p": 1397, "non_work_m": 504, "non_work_f": 893, "per_non_work_p": 69.91991992, "per_non_work_m": 36.07730852, "per_non_work_f": 63.92269148, "per_hc_tot_tot": 100, "per_hc_tot_god": 34.5, "per_hc_tot_liv": 61.0, "per_hc_tot_dil": 4.5, "per_hc_res_tot": 98.6, "per_hc_res_god": 33.9, "per_hc_res_liv": 60.2, "per_hc_res_dil": 4.5, "per_hc_oth_tot": 1.4, "per_hc_oth_god": 0.6, "per_hc_oth_liv": 0.8, "per_hc_oth_dil": 0.0, "per_mt_grsbam": 9.3, "per_mt_plastic": 0.3, "per_mt_h_tiles": 7.9, "per_mt_m_tiles": 0.0, "per_mt_b_brick": 66.7, "per_mt_stone": 0.0, "per_mt_asbstos": 0.6, "per_mt_concrte": 0.6, "per_mt_oth": 14.7, "per_mw_grsbam": 4.8, "per_mw_plastic": 0.0, "per_mw_mud": 8.2, "per_mw_wood": 0.0, "per_mw_no_mrtr": 0.0, "per_mw_st_mrtr": 0.3, "per_mw_asbstos": 0.0, "per_mw_b_brick": 86.2, "per_mw_concrte": 0.3, "per_mw_oth": 0.3, "per_mf_mud": 94.9, "per_mf_wood": 0.3, "per_mf_b_brick": 0.6, "per_mf_stone": 0.0, "per_mf_cement": 4.2, "per_mf_fl_tile": 0.0, "per_mf_oth": 0.0, "per_dw_n_exrm": 1.4, "per_dw_1_room": 29.7, "per_dw_2_room": 50.8, "per_dw_3_room": 13.0, "per_dw_4_room": 3.1, "per_dw_5_room": 0.6, "per_dw_6_room": 1.4, "per_hhsize_1": 2.8, "per_hhsize_2": 9.0, "per_hhsize_3": 7.6, "per_hhsize_4": 16.1, "per_hhsize_5": 18.1, "per_hhsize_6_8": 36.2, "per_hhsize_9p": 10.2, "per_ow_owned": 100.0, "per_ow_rented": 0.0, "per_ow_oth": 0.0, "per_mc_none": 8.2, "per_mcouple_1": 66.7, "per_mcouple_2": 19.8, "per_mcouple_3": 4.0, "per_mcouple_4": 1.4, "per_mcouple_5p": 0.0, "per_dw_t_ts": 0.3, "per_dw_t_unts": 0.8, "per_dw_c_well": 0.0, "per_dw_unc_wel": 0.0, "per_dw_hpump": 98.3, "per_dw_tw_bore": 0.0, "per_dw_spring": 0.0, "per_dw_rivcan": 0.3, "per_dw_tank": 0.0, "per_dw_oth": 0.3, "per_loc_dw_wp": 82.5, "per_loc_dw_np": 17.5, "per_loc_dw_aw": 0.0, "per_light_elec": 6.5, "per_light_kero": 93.2, "per_light_solr": 0.0, "per_light_oil": 0.0, "per_light_oth": 0.3, "per_light_no": 0.0, "per_hh_latrine": 7.9, "per_fl_sewer": 0.0, "per_fl_septict": 7.9, "per_fl_othsys": 0.0, "per_pl_wslab": 0.0, "per_pl_without": 0.0, "per_ns_open": 0.0, "per_sl_ns_hum": 0.0, "per_sl_ns_anml": 0.0, "per_hh_no_lat": 92.1, "per_as_pub": 0.0, "per_as_open": 92.1, "per_hh_bathrm": 6.8, "per_hh_en_wrf": 46.3, "per_hh_no_btrm": 46.9, "per_wwoc_drain": 0.6, "per_wwoc_open": 95.2, "per_wwoc_nodrn": 4.2, "per_cook_fire": 46.0, "per_cook_resdu": 7.1, "per_cook_cwdng": 39.8, "per_cook_coal": 0.0, "per_cook_kero": 0.0, "per_cook_lpng": 6.8, "per_cook_elec": 0.0, "per_cook_biogs": 0.0, "per_cook_oth": 0.0, "per_cook_no": 0.3, "per_kf_inside": 99.2, "per_kf_in_has": 24.3, "per_kf_in_does": 74.9, "per_kf_outside": 0.6, "per_kf_out_has": 0.3, "per_kf_out_dos": 0.3, "per_kf_no_cook": 0.3, "per_hh_banking": 94.4, "per_hh_radio": 29.7, "per_hh_tv": 27.1, "per_hh_cmp_int": 0.0, "per_hh_cmp_wnt": 4.2, "per_hh_ph_ll": 0.6, "per_hh_ph_mob": 63.6, "per_hh_ph_bth": 0.8, "per_hh_bcycl": 92.7, "per_hh_2wheel": 11.0, "per_hh_4wheel": 1.4, "per_hh_tvcomp": 0.6, "per_hh_no_ast": 3.7, "per_hs_perma": 73.7, "per_hs_sperma": 4.5, "per_hs_temp": 7.1, "per_hs_servc": 3.1, "per_hs_nservc": 4.0, "per_hs_unclss": 14.7, "avghhsz_cy": 5.67613636, "st_areashape": 1874705.52740408, "st_lengthshape": 5727.107252301077}, "geometry": {"type": "Polygon", "coordinates": [[[79.79724354467449, 28.563390480830112], [79.7960053796504, 28.564051667768794], [79.79350468908834, 28.56569372452198], [79.79114551821783, 28.566959233064345], [79.7901992849998, 28.5673233572954], [79.7891440196625, 28.567647854561162], [79.78913969337611, 28.567501018573708], [79.78888221555442, 28.566952635836046], [79.78852990977472, 28.56645017229277], [79.78779628352994, 28.565563088759465], [79.7862723482443, 28.563930159210678], [79.78561542285345, 28.563233661445288], [79.78533350905943, 28.56256650699839], [79.7851823360718, 28.562067131923694], [79.7851136212408, 28.561474355720353], [79.78496738269908, 28.560051968145505], [79.78498142696019, 28.559342079669214], [79.78499919024662, 28.559257222347632], [79.7850406600734, 28.559058988642835], [79.7853525398687, 28.55821165198257], [79.78585266073345, 28.55734365102856], [79.78654371132534, 28.556312821313224], [79.78711861873411, 28.555729956946248], [79.78823462545598, 28.55491872617195], [79.78978013108824, 28.554090370712203], [79.79029254180442, 28.553956292122916], [79.7908026169008, 28.553940429043685], [79.79125799268127, 28.553971149160095], [79.79213249272891, 28.553842562218847], [79.79307876187953, 28.553478447374168], [79.79511773545353, 28.552113268645044], [79.79555423583325, 28.55174123268506], [79.79585622517726, 28.5513908577533], [79.79600312398071, 28.55112243076798], [79.79652502988942, 28.555182690128483], [79.79688398769383, 28.557389432642392], [79.79690381261379, 28.55774477581258], [79.796704789066, 28.558996180854496], [79.79652567937138, 28.55991653374596], [79.79646691877201, 28.560175981535227], [79.79640720865338, 28.560482764866038], [79.79640394597229, 28.560648406221432], [79.7964270335734, 28.56083810548439], [79.79650563526245, 28.560933985419723], [79.7965842378498, 28.56102987946968], [79.79756309428566, 28.56173129540747], [79.79832506147933, 28.562547747269363], [79.79845729977735, 28.56264444777046], [79.79856458467341, 28.562646094383656], [79.79863547522406, 28.562647181605946], [79.79724354467449, 28.563390480830112]]]}}]}