{"type": "FeatureCollection", "features": [{"type": "Feature", "properties": {"premiumdata.sde.IN_Village_PCA.area": 3.55108935, "objectid": 285537, "id": "234003455540902", "name": "Bamuniya Patera", "subdistrict": "Patera", "district": "Damoh", "state": "Madhya Pradesh", "country": "India", "censusname": "Bamuniya Patera", "villagename_locallang": "\u092c\u092e\u0941\u0930\u093f\u092f\u093e \u092a\u091f\u0947\u0930\u093e", "lgd_villagename": "Bamuniya Patera", "lgd_villagecode": 461859, "lgd_subdistrictcode": 3455, "lgd_districtcode": 400, "lgd_statecode": 23, "censuscode2001": "01275200", "censuscode2011": "461859", "censuscode2021": null, "level": "Village", "tru": "Rural", "no_hh": 262, "tot_p": 934, "tot_m": 498, "tot_f": 436, "per_tot_m": 53.31905782, "per_tot_f": 46.68094218, "p_06": 127, "m_06": 66, "f_06": 61, "per_p_06": 13.59743041, "per_m_06": 51.96850394, "per_f_06": 48.03149606, "p_sc": 232, "m_sc": 128, "f_sc": 104, "per_p_sc": 24.83940043, "per_m_sc": 55.17241379, "per_f_sc": 44.82758621, "p_st": 14, "m_st": 5, "f_st": 9, "per_p_st": 1.49892934, "per_m_st": 35.71428571, "per_f_st": 64.28571429, "p_lit": 563, "m_lit": 342, "f_lit": 221, "per_p_lit": 60.27837259, "per_m_lit": 60.74600355, "per_f_lit": 39.25399645, "p_ill": 371, "m_ill": 156, "f_ill": 215, "per_p_ill": 39.72162741, "per_m_ill": 42.04851752, "per_f_ill": 57.95148248, "tot_work_p": 463, "tot_work_m": 307, "tot_work_f": 156, "per_tot_work_p": 49.57173448, "per_tot_work_m": 66.30669546, "per_tot_work_f": 33.69330454, "mainwork_p": 363, "mainwork_m": 279, "mainwork_f": 84, "per_mainwork_p": 38.86509636, "per_mainwork_m": 76.85950413, "per_mainwork_f": 23.14049587, "main_cl_p": 73, "main_cl_m": 68, "main_cl_f": 5, "per_main_cl_p": 20.11019284, "per_main_cl_m": 93.15068493, "per_main_cl_f": 6.84931507, "main_al_p": 203, "main_al_m": 166, "main_al_f": 37, "per_main_al_p": 55.92286501, "per_main_al_m": 81.77339901, "per_main_al_f": 18.22660099, "main_hh_p": 19, "main_hh_m": 2, "main_hh_f": 17, "per_main_hh_p": 5.23415978, "per_main_hh_m": 10.52631579, "per_main_hh_f": 89.47368421, "main_ot_p": 68, "main_ot_m": 43, "main_ot_f": 25, "per_main_ot_p": 18.73278237, "per_main_ot_m": 63.23529412, "per_main_ot_f": 36.76470588, "margwork_p": 100, "margwork_m": 28, "margwork_f": 72, "per_margwork_p": 10.70663812, "per_margwork_m": 28.0, "per_margwork_f": 72.0, "marg_cl_p": 3, "marg_cl_m": 2, "marg_cl_f": 1, "per_marg_cl_p": 3.0, "per_marg_cl_m": 66.66666667, "per_marg_cl_f": 33.33333333, "marg_al_p": 95, "marg_al_m": 26, "marg_al_f": 69, "per_marg_al_p": 95.0, "per_marg_al_m": 27.36842105, "per_marg_al_f": 72.63157895, "marg_hh_p": 1, "marg_hh_m": 0, "marg_hh_f": 1, "per_marg_hh_p": 1.0, "per_marg_hh_m": 0.0, "per_marg_hh_f": 100.0, "marg_ot_p": 1, "marg_ot_m": 0, "marg_ot_f": 1, "per_marg_ot_p": 1.0, "per_marg_ot_m": 0.0, "per_marg_ot_f": 100.0, "margwork_3_6_p": 54, "margwork_3_6_m": 14, "margwork_3_6_f": 40, "per_margwork_3_6_p": 54.0, "per_margwork_3_6_m": 25.92592593, "per_margwork_3_6_f": 74.07407407, "marg_cl_3_6_p": 3, "marg_cl_3_6_m": 2, "marg_cl_3_6_f": 1, "per_marg_cl_3_6_p": 3.0, "per_marg_cl_3_6_m": 66.66666667, "per_marg_cl_3_6_f": 33.33333333, "marg_al_3_6_p": 49, "marg_al_3_6_m": 12, "marg_al_3_6_f": 37, "per_marg_al_3_6_p": 49.0, "per_marg_al_3_6_m": 24.48979592, "per_marg_al_3_6_f": 75.51020408, "marg_hh_3_6_p": 1, "marg_hh_3_6_m": 0, "marg_hh_3_6_f": 1, "per_marg_hh_3_6_p": 1.0, "per_marg_hh_3_6_m": 0.0, "per_marg_hh_3_6_f": 100.0, "marg_ot_3_6_p": 1, "marg_ot_3_6_m": 0, "marg_ot_3_6_f": 1, "per_marg_ot_3_6_p": 1.0, "per_marg_ot_3_6_m": 0.0, "per_marg_ot_3_6_f": 100.0, "margwork_0_3_p": 46, "margwork_0_3_m": 14, "margwork_0_3_f": 32, "per_margwork_0_3_p": 46.0, "per_margwork_0_3_m": 30.43478261, "per_margwork_0_3_f": 69.56521739, "marg_cl_0_3_p": 0, "marg_cl_0_3_m": 0, "marg_cl_0_3_f": 0, "per_marg_cl_0_3_p": 0.0, "per_marg_cl_0_3_m": 0.0, "per_marg_cl_0_3_f": 0.0, "marg_al_0_3_p": 46, "marg_al_0_3_m": 14, "marg_al_0_3_f": 32, "per_marg_al_0_3_p": 46.0, "per_marg_al_0_3_m": 30.43478261, "per_marg_al_0_3_f": 69.56521739, "marg_hh_0_3_p": 0, "marg_hh_0_3_m": 0, "marg_hh_0_3_f": 0, "per_marg_hh_0_3_p": 0.0, "per_marg_hh_0_3_m": 0.0, "per_marg_hh_0_3_f": 0.0, "marg_ot_0_3_p": 0, "marg_ot_0_3_m": 0, "marg_ot_0_3_f": 0, "per_marg_ot_0_3_p": 0.0, "per_marg_ot_0_3_m": 0.0, "per_marg_ot_0_3_f": 0.0, "non_work_p": 471, "non_work_m": 191, "non_work_f": 280, "per_non_work_p": 50.42826552, "per_non_work_m": 40.55201699, "per_non_work_f": 59.44798301, "per_hc_tot_tot": 100, "per_hc_tot_god": 86.4, "per_hc_tot_liv": 10.7, "per_hc_tot_dil": 2.9, "per_hc_res_tot": 98.2, "per_hc_res_god": 85.3, "per_hc_res_liv": 9.9, "per_hc_res_dil": 2.9, "per_hc_oth_tot": 1.8, "per_hc_oth_god": 1.1, "per_hc_oth_liv": 0.7, "per_hc_oth_dil": 0.0, "per_mt_grsbam": 0.0, "per_mt_plastic": 1.1, "per_mt_h_tiles": 81.6, "per_mt_m_tiles": 0.0, "per_mt_b_brick": 2.6, "per_mt_stone": 1.5, "per_mt_asbstos": 1.8, "per_mt_concrte": 11.4, "per_mt_oth": 0.0, "per_mw_grsbam": 0.0, "per_mw_plastic": 0.7, "per_mw_mud": 61.0, "per_mw_wood": 0.0, "per_mw_no_mrtr": 0.7, "per_mw_st_mrtr": 0.0, "per_mw_asbstos": 0.0, "per_mw_b_brick": 37.5, "per_mw_concrte": 0.0, "per_mw_oth": 0.0, "per_mf_mud": 89.0, "per_mf_wood": 0.0, "per_mf_b_brick": 0.7, "per_mf_stone": 0.0, "per_mf_cement": 10.3, "per_mf_fl_tile": 0.0, "per_mf_oth": 0.0, "per_dw_n_exrm": 9.6, "per_dw_1_room": 60.7, "per_dw_2_room": 25.0, "per_dw_3_room": 3.3, "per_dw_4_room": 1.1, "per_dw_5_room": 0.4, "per_dw_6_room": 0.0, "per_hhsize_1": 6.6, "per_hhsize_2": 21.7, "per_hhsize_3": 14.7, "per_hhsize_4": 30.9, "per_hhsize_5": 15.8, "per_hhsize_6_8": 9.6, "per_hhsize_9p": 0.7, "per_ow_owned": 96.7, "per_ow_rented": 1.5, "per_ow_oth": 1.8, "per_mc_none": 20.2, "per_mcouple_1": 79.8, "per_mcouple_2": 0.0, "per_mcouple_3": 0.0, "per_mcouple_4": 0.0, "per_mcouple_5p": 0.0, "per_dw_t_ts": 0.4, "per_dw_t_unts": 4.8, "per_dw_c_well": 0.4, "per_dw_unc_wel": 34.2, "per_dw_hpump": 60.3, "per_dw_tw_bore": 0.0, "per_dw_spring": 0.0, "per_dw_rivcan": 0.0, "per_dw_tank": 0.0, "per_dw_oth": 0.0, "per_loc_dw_wp": 3.7, "per_loc_dw_np": 45.6, "per_loc_dw_aw": 50.7, "per_light_elec": 83.8, "per_light_kero": 16.2, "per_light_solr": 0.0, "per_light_oil": 0.0, "per_light_oth": 0.0, "per_light_no": 0.0, "per_hh_latrine": 5.1, "per_fl_sewer": 0.0, "per_fl_septict": 5.1, "per_fl_othsys": 0.0, "per_pl_wslab": 0.0, "per_pl_without": 0.0, "per_ns_open": 0.0, "per_sl_ns_hum": 0.0, "per_sl_ns_anml": 0.0, "per_hh_no_lat": 94.9, "per_as_pub": 0.0, "per_as_open": 94.9, "per_hh_bathrm": 10.3, "per_hh_en_wrf": 10.7, "per_hh_no_btrm": 79.0, "per_wwoc_drain": 45.6, "per_wwoc_open": 10.7, "per_wwoc_nodrn": 43.8, "per_cook_fire": 97.1, "per_cook_resdu": 0.4, "per_cook_cwdng": 0.4, "per_cook_coal": 0.0, "per_cook_kero": 0.0, "per_cook_lpng": 1.1, "per_cook_elec": 0.0, "per_cook_biogs": 1.1, "per_cook_oth": 0.0, "per_cook_no": 0.0, "per_kf_inside": 76.1, "per_kf_in_has": 7.0, "per_kf_in_does": 69.1, "per_kf_outside": 23.9, "per_kf_out_has": 7.4, "per_kf_out_dos": 16.5, "per_kf_no_cook": 0.0, "per_hh_banking": 76.8, "per_hh_radio": 6.2, "per_hh_tv": 22.4, "per_hh_cmp_int": 0.0, "per_hh_cmp_wnt": 1.1, "per_hh_ph_ll": 0.4, "per_hh_ph_mob": 29.0, "per_hh_ph_bth": 0.7, "per_hh_bcycl": 30.1, "per_hh_2wheel": 10.3, "per_hh_4wheel": 1.8, "per_hh_tvcomp": 0.4, "per_hh_no_ast": 49.6, "per_hs_perma": 38.2, "per_hs_sperma": 60.7, "per_hs_temp": 1.1, "per_hs_servc": 0.7, "per_hs_nservc": 0.4, "per_hs_unclss": 0.0, "avghhsz_cy": 3.5648855, "st_areashape": 4275687.03769846, "st_lengthshape": 8787.662863883457}, "geometry": {"type": "Polygon", "coordinates": [[[79.64815999980974, 24.02304999955638], [79.6495999992102, 24.022220000487444], [79.65223999960817, 24.0199199998814], [79.65388999996924, 24.017409999965505], [79.65587000004315, 24.015109999472685], [79.65675999962268, 24.01316999971857], [79.65796999976767, 24.011139999791812], [79.6591899999584, 24.009600000036592], [79.65942000011218, 24.00923000011917], [79.65987999952141, 24.009510000088117], [79.66083000027372, 24.00984000041201], [79.6616100002484, 24.009930000129586], [79.66211999988634, 24.009940000641404], [79.66299000027269, 24.009799999970234], [79.66305999969457, 24.00978000056525], [79.66323999961963, 24.010360000099418], [79.66346999977338, 24.011440000497007], [79.6636100004138, 24.01259000054724], [79.66400000040115, 24.013680000492965], [79.66446999985612, 24.014910000411138], [79.66517999951057, 24.016000000386555], [79.66613000026288, 24.017159999817675], [79.66818999980443, 24.01863999948902], [79.67026000029004, 24.020040000752036], [79.67249000060922, 24.02130000025968], [79.67340000028025, 24.021669999912007], [79.67163999941603, 24.023479999962014], [79.66953999969151, 24.025389999663215], [79.66679999973438, 24.027209999832312], [79.66551000012177, 24.027909999598805], [79.66358000027657, 24.028810000377298], [79.65995000073993, 24.031489999224167], [79.65874000059493, 24.032469999485883], [79.65792000043726, 24.033609999812594], [79.65667999925672, 24.034950000060288], [79.65613000033417, 24.034290000301144], [79.65540999973562, 24.033630000433327], [79.65405999984854, 24.032739999333064], [79.65270999996146, 24.031569999726642], [79.65111999987488, 24.030109999946678], [79.65033999990021, 24.028799999692218], [79.64971000061166, 24.027140000712578], [79.6489399997844, 24.0248200008161], [79.64815999980974, 24.02304999955638]]]}}]}