{"type": "FeatureCollection", "features": [{"type": "Feature", "properties": {"premiumdata.sde.IN_Village_PCA.area": 2.184106, "objectid": 624968, "id": "182812110222338", "name": "Jhakuapara Pt I [Jakuapara", "subdistrict": "Bongaigaon (Pt)", "district": "Bongaigaon", "state": "Assam", "country": "India", "censusname": "Jhakuapara Pt I [Jakuapara]", "villagename_locallang": null, "lgd_villagename": "Jhakuapara Pt I [Jakuapara]", "lgd_villagecode": 301264, "lgd_subdistrictcode": 2110, "lgd_districtcode": 281, "lgd_statecode": 18, "censuscode2001": "00317400", "censuscode2011": "301264", "censuscode2021": null, "level": "Village", "tru": "Rural", "no_hh": 204, "tot_p": 924, "tot_m": 480, "tot_f": 444, "per_tot_m": 51.94805195, "per_tot_f": 48.05194805, "p_06": 83, "m_06": 43, "f_06": 40, "per_p_06": 8.98268398, "per_m_06": 51.80722892, "per_f_06": 48.19277108, "p_sc": 20, "m_sc": 11, "f_sc": 9, "per_p_sc": 2.16450216, "per_m_sc": 55.0, "per_f_sc": 45.0, "p_st": 0, "m_st": 0, "f_st": 0, "per_p_st": 0.0, "per_m_st": 0.0, "per_f_st": 0.0, "p_lit": 704, "m_lit": 384, "f_lit": 320, "per_p_lit": 76.19047619, "per_m_lit": 54.54545455, "per_f_lit": 45.45454545, "p_ill": 220, "m_ill": 96, "f_ill": 124, "per_p_ill": 23.80952381, "per_m_ill": 43.63636364, "per_f_ill": 56.36363636, "tot_work_p": 398, "tot_work_m": 265, "tot_work_f": 133, "per_tot_work_p": 43.07359307, "per_tot_work_m": 66.58291457, "per_tot_work_f": 33.41708543, "mainwork_p": 189, "mainwork_m": 156, "mainwork_f": 33, "per_mainwork_p": 20.45454545, "per_mainwork_m": 82.53968254, "per_mainwork_f": 17.46031746, "main_cl_p": 48, "main_cl_m": 45, "main_cl_f": 3, "per_main_cl_p": 25.3968254, "per_main_cl_m": 93.75, "per_main_cl_f": 6.25, "main_al_p": 5, "main_al_m": 4, "main_al_f": 1, "per_main_al_p": 2.64550265, "per_main_al_m": 80.0, "per_main_al_f": 20.0, "main_hh_p": 13, "main_hh_m": 5, "main_hh_f": 8, "per_main_hh_p": 6.87830688, "per_main_hh_m": 38.46153846, "per_main_hh_f": 61.53846154, "main_ot_p": 123, "main_ot_m": 102, "main_ot_f": 21, "per_main_ot_p": 65.07936508, "per_main_ot_m": 82.92682927, "per_main_ot_f": 17.07317073, "margwork_p": 209, "margwork_m": 109, "margwork_f": 100, "per_margwork_p": 22.61904762, "per_margwork_m": 52.15311005, "per_margwork_f": 47.84688995, "marg_cl_p": 63, "marg_cl_m": 30, "marg_cl_f": 33, "per_marg_cl_p": 30.14354067, "per_marg_cl_m": 47.61904762, "per_marg_cl_f": 52.38095238, "marg_al_p": 90, "marg_al_m": 43, "marg_al_f": 47, "per_marg_al_p": 43.06220096, "per_marg_al_m": 47.77777778, "per_marg_al_f": 52.22222222, "marg_hh_p": 11, "marg_hh_m": 4, "marg_hh_f": 7, "per_marg_hh_p": 5.26315789, "per_marg_hh_m": 36.36363636, "per_marg_hh_f": 63.63636364, "marg_ot_p": 45, "marg_ot_m": 32, "marg_ot_f": 13, "per_marg_ot_p": 21.53110048, "per_marg_ot_m": 71.11111111, "per_marg_ot_f": 28.88888889, "margwork_3_6_p": 121, "margwork_3_6_m": 82, "margwork_3_6_f": 39, "per_margwork_3_6_p": 57.89473684, "per_margwork_3_6_m": 67.76859504000001, "per_margwork_3_6_f": 32.23140496, "marg_cl_3_6_p": 38, "marg_cl_3_6_m": 26, "marg_cl_3_6_f": 12, "per_marg_cl_3_6_p": 18.18181818, "per_marg_cl_3_6_m": 68.42105263, "per_marg_cl_3_6_f": 31.57894737, "marg_al_3_6_p": 38, "marg_al_3_6_m": 26, "marg_al_3_6_f": 12, "per_marg_al_3_6_p": 18.18181818, "per_marg_al_3_6_m": 68.42105263, "per_marg_al_3_6_f": 31.57894737, "marg_hh_3_6_p": 3, "marg_hh_3_6_m": 1, "marg_hh_3_6_f": 2, "per_marg_hh_3_6_p": 1.4354067, "per_marg_hh_3_6_m": 33.33333333, "per_marg_hh_3_6_f": 66.66666667, "marg_ot_3_6_p": 42, "marg_ot_3_6_m": 29, "marg_ot_3_6_f": 13, "per_marg_ot_3_6_p": 20.09569378, "per_marg_ot_3_6_m": 69.04761905000001, "per_marg_ot_3_6_f": 30.95238095, "margwork_0_3_p": 88, "margwork_0_3_m": 27, "margwork_0_3_f": 61, "per_margwork_0_3_p": 42.10526316000001, "per_margwork_0_3_m": 30.68181818, "per_margwork_0_3_f": 69.31818182, "marg_cl_0_3_p": 25, "marg_cl_0_3_m": 4, "marg_cl_0_3_f": 21, "per_marg_cl_0_3_p": 11.96172249, "per_marg_cl_0_3_m": 16.0, "per_marg_cl_0_3_f": 84.0, "marg_al_0_3_p": 52, "marg_al_0_3_m": 17, "marg_al_0_3_f": 35, "per_marg_al_0_3_p": 24.88038278, "per_marg_al_0_3_m": 32.69230769, "per_marg_al_0_3_f": 67.30769231, "marg_hh_0_3_p": 8, "marg_hh_0_3_m": 3, "marg_hh_0_3_f": 5, "per_marg_hh_0_3_p": 3.8277512, "per_marg_hh_0_3_m": 37.5, "per_marg_hh_0_3_f": 62.5, "marg_ot_0_3_p": 3, "marg_ot_0_3_m": 3, "marg_ot_0_3_f": 0, "per_marg_ot_0_3_p": 1.4354067, "per_marg_ot_0_3_m": 100.0, "per_marg_ot_0_3_f": 0.0, "non_work_p": 526, "non_work_m": 215, "non_work_f": 311, "per_non_work_p": 56.92640693, "per_non_work_m": 40.87452471, "per_non_work_f": 59.12547529, "per_hc_tot_tot": 100, "per_hc_tot_god": 30.5, "per_hc_tot_liv": 60.1, "per_hc_tot_dil": 9.4, "per_hc_res_tot": 100.0, "per_hc_res_god": 30.5, "per_hc_res_liv": 60.1, "per_hc_res_dil": 9.4, "per_hc_oth_tot": 0.0, "per_hc_oth_god": 0.0, "per_hc_oth_liv": 0.0, "per_hc_oth_dil": 0.0, "per_mt_grsbam": 0.0, "per_mt_plastic": 1.0, "per_mt_h_tiles": 1.5, "per_mt_m_tiles": 1.0, "per_mt_b_brick": 0.0, "per_mt_stone": 0.0, "per_mt_asbstos": 96.1, "per_mt_concrte": 0.5, "per_mt_oth": 0.0, "per_mw_grsbam": 67.5, "per_mw_plastic": 0.5, "per_mw_mud": 2.5, "per_mw_wood": 0.0, "per_mw_no_mrtr": 1.5, "per_mw_st_mrtr": 19.7, "per_mw_asbstos": 0.0, "per_mw_b_brick": 7.9, "per_mw_concrte": 0.5, "per_mw_oth": 0.0, "per_mf_mud": 74.4, "per_mf_wood": 0.0, "per_mf_b_brick": 0.0, "per_mf_stone": 0.0, "per_mf_cement": 25.6, "per_mf_fl_tile": 0.0, "per_mf_oth": 0.0, "per_dw_n_exrm": 2.5, "per_dw_1_room": 26.1, "per_dw_2_room": 32.5, "per_dw_3_room": 17.2, "per_dw_4_room": 11.3, "per_dw_5_room": 5.4, "per_dw_6_room": 4.9, "per_hhsize_1": 2.0, "per_hhsize_2": 8.9, "per_hhsize_3": 15.8, "per_hhsize_4": 29.1, "per_hhsize_5": 20.2, "per_hhsize_6_8": 21.7, "per_hhsize_9p": 2.5, "per_ow_owned": 96.6, "per_ow_rented": 3.4, "per_ow_oth": 0.0, "per_mc_none": 12.8, "per_mcouple_1": 77.3, "per_mcouple_2": 7.4, "per_mcouple_3": 2.5, "per_mcouple_4": 0.0, "per_mcouple_5p": 0.0, "per_dw_t_ts": 4.9, "per_dw_t_unts": 2.5, "per_dw_c_well": 3.0, "per_dw_unc_wel": 72.9, "per_dw_hpump": 11.3, "per_dw_tw_bore": 3.0, "per_dw_spring": 0.0, "per_dw_rivcan": 2.0, "per_dw_tank": 0.5, "per_dw_oth": 0.0, "per_loc_dw_wp": 72.4, "per_loc_dw_np": 16.3, "per_loc_dw_aw": 11.3, "per_light_elec": 78.3, "per_light_kero": 21.7, "per_light_solr": 0.0, "per_light_oil": 0.0, "per_light_oth": 0.0, "per_light_no": 0.0, "per_hh_latrine": 47.3, "per_fl_sewer": 9.9, "per_fl_septict": 20.2, "per_fl_othsys": 0.5, "per_pl_wslab": 2.5, "per_pl_without": 0.5, "per_ns_open": 0.0, "per_sl_ns_hum": 0.0, "per_sl_ns_anml": 13.8, "per_hh_no_lat": 52.7, "per_as_pub": 0.0, "per_as_open": 52.7, "per_hh_bathrm": 29.6, "per_hh_en_wrf": 25.1, "per_hh_no_btrm": 45.3, "per_wwoc_drain": 4.4, "per_wwoc_open": 36.5, "per_wwoc_nodrn": 59.1, "per_cook_fire": 60.1, "per_cook_resdu": 10.3, "per_cook_cwdng": 1.0, "per_cook_coal": 0.0, "per_cook_kero": 0.0, "per_cook_lpng": 28.1, "per_cook_elec": 0.0, "per_cook_biogs": 0.0, "per_cook_oth": 0.0, "per_cook_no": 0.5, "per_kf_inside": 83.7, "per_kf_in_has": 61.1, "per_kf_in_does": 22.7, "per_kf_outside": 15.8, "per_kf_out_has": 12.8, "per_kf_out_dos": 3.0, "per_kf_no_cook": 0.5, "per_hh_banking": 95.6, "per_hh_radio": 18.2, "per_hh_tv": 33.5, "per_hh_cmp_int": 12.3, "per_hh_cmp_wnt": 38.9, "per_hh_ph_ll": 30.5, "per_hh_ph_mob": 26.1, "per_hh_ph_bth": 0.0, "per_hh_bcycl": 71.4, "per_hh_2wheel": 15.3, "per_hh_4wheel": 2.5, "per_hh_tvcomp": 6.4, "per_hh_no_ast": 9.4, "per_hs_perma": 29.6, "per_hs_sperma": 69.5, "per_hs_temp": 1.0, "per_hs_servc": 0.0, "per_hs_nservc": 1.0, "per_hs_unclss": 0.0, "avghhsz_cy": 4.52941176, "st_areashape": 2735421.499768515, "st_lengthshape": 8862.298188835006}, "geometry": {"type": "Polygon", "coordinates": [[[90.59193616801345, 26.44827232965492], [90.59108052090869, 26.446548609330282], [90.58979705114989, 26.444952548754532], [90.58829966826741, 26.44373952795906], [90.58658837405791, 26.443547996768828], [90.58466316852133, 26.446293240834738], [90.5830231780875, 26.448080806805745], [90.57967189434248, 26.447697759347683], [90.57489453149066, 26.447697759347683], [90.57168585529702, 26.44801696498094], [90.5706177826787, 26.448700064074636], [90.57047368931384, 26.448080806805745], [90.56926152243241, 26.44578250294949], [90.56712240467051, 26.44303724671201], [90.56537149745193, 26.441168023485112], [90.56561512594688, 26.43955920448073], [90.56947543375944, 26.439653469287506], [90.57353975705786, 26.43984500614789], [90.57696234547687, 26.440355770356653], [90.58038493389589, 26.440547306853894], [90.58216753188108, 26.43933423967497], [90.58323709031286, 26.43671652445684], [90.5875866296123, 26.438121159724716], [90.59093791335734, 26.439142701161156], [90.59414658955102, 26.44067499713893], [90.59422155126654, 26.44071645402178], [90.59372286231633, 26.443331779593542], [90.59286721521157, 26.445289638715067], [90.59193616801345, 26.44827232965492]]]}}]}