{"type": "FeatureCollection", "features": [{"type": "Feature", "properties": {"premiumdata.sde.IN_Village_PCA.area": 6.73413319, "objectid": 227682, "id": "234163498529137", "name": "Sagor", "subdistrict": "Sitamau", "district": "Mandsaur", "state": "Madhya Pradesh", "country": "India", "censusname": "Sagor", "villagename_locallang": null, "lgd_villagename": "Sagor", "lgd_villagecode": 469837, "lgd_subdistrictcode": 3498, "lgd_districtcode": 416, "lgd_statecode": 23, "censuscode2001": "02405700", "censuscode2011": "469837", "censuscode2021": null, "level": "Village", "tru": "Rural", "no_hh": 297, "tot_p": 1297, "tot_m": 666, "tot_f": 631, "per_tot_m": 51.34926754000001, "per_tot_f": 48.65073246, "p_06": 152, "m_06": 74, "f_06": 78, "per_p_06": 11.71935235, "per_m_06": 48.68421053, "per_f_06": 51.31578947, "p_sc": 242, "m_sc": 118, "f_sc": 124, "per_p_sc": 18.65844256, "per_m_sc": 48.76033058, "per_f_sc": 51.23966942000001, "p_st": 0, "m_st": 0, "f_st": 0, "per_p_st": 0.0, "per_m_st": 0.0, "per_f_st": 0.0, "p_lit": 671, "m_lit": 411, "f_lit": 260, "per_p_lit": 51.73477255, "per_m_lit": 61.25186289000001, "per_f_lit": 38.74813711, "p_ill": 626, "m_ill": 255, "f_ill": 371, "per_p_ill": 48.26522745, "per_m_ill": 40.73482428, "per_f_ill": 59.26517572, "tot_work_p": 860, "tot_work_m": 448, "tot_work_f": 412, "per_tot_work_p": 66.30686199, "per_tot_work_m": 52.09302326, "per_tot_work_f": 47.90697674, "mainwork_p": 686, "mainwork_m": 397, "mainwork_f": 289, "per_mainwork_p": 52.89128759, "per_mainwork_m": 57.87172012, "per_mainwork_f": 42.12827988, "main_cl_p": 674, "main_cl_m": 388, "main_cl_f": 286, "per_main_cl_p": 98.25072886, "per_main_cl_m": 57.56676558, "per_main_cl_f": 42.43323442, "main_al_p": 3, "main_al_m": 3, "main_al_f": 0, "per_main_al_p": 0.43731778, "per_main_al_m": 100.0, "per_main_al_f": 0.0, "main_hh_p": 1, "main_hh_m": 1, "main_hh_f": 0, "per_main_hh_p": 0.14577259, "per_main_hh_m": 100.0, "per_main_hh_f": 0.0, "main_ot_p": 8, "main_ot_m": 5, "main_ot_f": 3, "per_main_ot_p": 1.16618076, "per_main_ot_m": 62.5, "per_main_ot_f": 37.5, "margwork_p": 174, "margwork_m": 51, "margwork_f": 123, "per_margwork_p": 13.4155744, "per_margwork_m": 29.31034483, "per_margwork_f": 70.68965517, "marg_cl_p": 99, "marg_cl_m": 8, "marg_cl_f": 91, "per_marg_cl_p": 56.89655172000001, "per_marg_cl_m": 8.08080808, "per_marg_cl_f": 91.91919192, "marg_al_p": 70, "marg_al_m": 39, "marg_al_f": 31, "per_marg_al_p": 40.22988506, "per_marg_al_m": 55.71428571, "per_marg_al_f": 44.28571429, "marg_hh_p": 4, "marg_hh_m": 3, "marg_hh_f": 1, "per_marg_hh_p": 2.29885057, "per_marg_hh_m": 75.0, "per_marg_hh_f": 25.0, "marg_ot_p": 1, "marg_ot_m": 1, "marg_ot_f": 0, "per_marg_ot_p": 0.57471264, "per_marg_ot_m": 100.0, "per_marg_ot_f": 0.0, "margwork_3_6_p": 171, "margwork_3_6_m": 49, "margwork_3_6_f": 122, "per_margwork_3_6_p": 98.27586207, "per_margwork_3_6_m": 28.65497076, "per_margwork_3_6_f": 71.34502924, "marg_cl_3_6_p": 99, "marg_cl_3_6_m": 8, "marg_cl_3_6_f": 91, "per_marg_cl_3_6_p": 56.89655172000001, "per_marg_cl_3_6_m": 8.08080808, "per_marg_cl_3_6_f": 91.91919192, "marg_al_3_6_p": 67, "marg_al_3_6_m": 37, "marg_al_3_6_f": 30, "per_marg_al_3_6_p": 38.50574713, "per_marg_al_3_6_m": 55.2238806, "per_marg_al_3_6_f": 44.7761194, "marg_hh_3_6_p": 4, "marg_hh_3_6_m": 3, "marg_hh_3_6_f": 1, "per_marg_hh_3_6_p": 2.29885057, "per_marg_hh_3_6_m": 75.0, "per_marg_hh_3_6_f": 25.0, "marg_ot_3_6_p": 1, "marg_ot_3_6_m": 1, "marg_ot_3_6_f": 0, "per_marg_ot_3_6_p": 0.57471264, "per_marg_ot_3_6_m": 100.0, "per_marg_ot_3_6_f": 0.0, "margwork_0_3_p": 3, "margwork_0_3_m": 2, "margwork_0_3_f": 1, "per_margwork_0_3_p": 1.72413793, "per_margwork_0_3_m": 66.66666667, "per_margwork_0_3_f": 33.33333333, "marg_cl_0_3_p": 0, "marg_cl_0_3_m": 0, "marg_cl_0_3_f": 0, "per_marg_cl_0_3_p": 0.0, "per_marg_cl_0_3_m": 0.0, "per_marg_cl_0_3_f": 0.0, "marg_al_0_3_p": 3, "marg_al_0_3_m": 2, "marg_al_0_3_f": 1, "per_marg_al_0_3_p": 1.72413793, "per_marg_al_0_3_m": 66.66666667, "per_marg_al_0_3_f": 33.33333333, "marg_hh_0_3_p": 0, "marg_hh_0_3_m": 0, "marg_hh_0_3_f": 0, "per_marg_hh_0_3_p": 0.0, "per_marg_hh_0_3_m": 0.0, "per_marg_hh_0_3_f": 0.0, "marg_ot_0_3_p": 0, "marg_ot_0_3_m": 0, "marg_ot_0_3_f": 0, "per_marg_ot_0_3_p": 0.0, "per_marg_ot_0_3_m": 0.0, "per_marg_ot_0_3_f": 0.0, "non_work_p": 437, "non_work_m": 218, "non_work_f": 219, "per_non_work_p": 33.69313801, "per_non_work_m": 49.88558352, "per_non_work_f": 50.11441648, "per_hc_tot_tot": 100, "per_hc_tot_god": 5.8, "per_hc_tot_liv": 94.2, "per_hc_tot_dil": 0.0, "per_hc_res_tot": 98.3, "per_hc_res_god": 5.8, "per_hc_res_liv": 92.5, "per_hc_res_dil": 0.0, "per_hc_oth_tot": 1.7, "per_hc_oth_god": 0.0, "per_hc_oth_liv": 1.7, "per_hc_oth_dil": 0.0, "per_mt_grsbam": 2.0, "per_mt_plastic": 0.7, "per_mt_h_tiles": 24.6, "per_mt_m_tiles": 51.5, "per_mt_b_brick": 0.0, "per_mt_stone": 5.5, "per_mt_asbstos": 9.9, "per_mt_concrte": 5.8, "per_mt_oth": 0.0, "per_mw_grsbam": 0.0, "per_mw_plastic": 0.7, "per_mw_mud": 81.9, "per_mw_wood": 0.0, "per_mw_no_mrtr": 1.0, "per_mw_st_mrtr": 0.0, "per_mw_asbstos": 0.0, "per_mw_b_brick": 16.4, "per_mw_concrte": 0.0, "per_mw_oth": 0.0, "per_mf_mud": 93.5, "per_mf_wood": 0.0, "per_mf_b_brick": 0.0, "per_mf_stone": 2.0, "per_mf_cement": 4.1, "per_mf_fl_tile": 0.3, "per_mf_oth": 0.0, "per_dw_n_exrm": 1.0, "per_dw_1_room": 71.7, "per_dw_2_room": 23.5, "per_dw_3_room": 2.4, "per_dw_4_room": 1.4, "per_dw_5_room": 0.0, "per_dw_6_room": 0.0, "per_hhsize_1": 6.1, "per_hhsize_2": 10.2, "per_hhsize_3": 13.3, "per_hhsize_4": 23.2, "per_hhsize_5": 19.8, "per_hhsize_6_8": 27.3, "per_hhsize_9p": 0.0, "per_ow_owned": 99.0, "per_ow_rented": 0.7, "per_ow_oth": 0.3, "per_mc_none": 11.3, "per_mcouple_1": 64.2, "per_mcouple_2": 22.5, "per_mcouple_3": 1.7, "per_mcouple_4": 0.3, "per_mcouple_5p": 0.0, "per_dw_t_ts": 0.0, "per_dw_t_unts": 0.3, "per_dw_c_well": 1.0, "per_dw_unc_wel": 53.6, "per_dw_hpump": 45.1, "per_dw_tw_bore": 0.0, "per_dw_spring": 0.0, "per_dw_rivcan": 0.0, "per_dw_tank": 0.0, "per_dw_oth": 0.0, "per_loc_dw_wp": 0.7, "per_loc_dw_np": 62.5, "per_loc_dw_aw": 36.9, "per_light_elec": 88.1, "per_light_kero": 11.9, "per_light_solr": 0.0, "per_light_oil": 0.0, "per_light_oth": 0.0, "per_light_no": 0.0, "per_hh_latrine": 0.3, "per_fl_sewer": 0.0, "per_fl_septict": 0.3, "per_fl_othsys": 0.0, "per_pl_wslab": 0.0, "per_pl_without": 0.0, "per_ns_open": 0.0, "per_sl_ns_hum": 0.0, "per_sl_ns_anml": 0.0, "per_hh_no_lat": 99.7, "per_as_pub": 0.0, "per_as_open": 99.7, "per_hh_bathrm": 0.3, "per_hh_en_wrf": 3.8, "per_hh_no_btrm": 95.9, "per_wwoc_drain": 0.0, "per_wwoc_open": 45.4, "per_wwoc_nodrn": 54.6, "per_cook_fire": 96.9, "per_cook_resdu": 2.0, "per_cook_cwdng": 0.7, "per_cook_coal": 0.0, "per_cook_kero": 0.0, "per_cook_lpng": 0.0, "per_cook_elec": 0.3, "per_cook_biogs": 0.0, "per_cook_oth": 0.0, "per_cook_no": 0.0, "per_kf_inside": 98.3, "per_kf_in_has": 35.5, "per_kf_in_does": 62.8, "per_kf_outside": 1.7, "per_kf_out_has": 0.3, "per_kf_out_dos": 1.4, "per_kf_no_cook": 0.0, "per_hh_banking": 2.7, "per_hh_radio": 22.2, "per_hh_tv": 16.4, "per_hh_cmp_int": 0.0, "per_hh_cmp_wnt": 1.0, "per_hh_ph_ll": 0.7, "per_hh_ph_mob": 36.2, "per_hh_ph_bth": 0.3, "per_hh_bcycl": 31.7, "per_hh_2wheel": 10.2, "per_hh_4wheel": 0.0, "per_hh_tvcomp": 0.0, "per_hh_no_ast": 40.3, "per_hs_perma": 16.7, "per_hs_sperma": 81.2, "per_hs_temp": 2.0, "per_hs_servc": 2.0, "per_hs_nservc": 0.0, "per_hs_unclss": 0.0, "avghhsz_cy": 4.36700337, "st_areashape": 8093612.28966737, "st_lengthshape": 13505.767183722479}, "geometry": {"type": "Polygon", "coordinates": [[[75.37630000017045, 23.92181000024762], [75.37468999999236, 23.91674000012615], [75.37385999978896, 23.914300000028174], [75.37250000075446, 23.911699999536953], [75.3709400008051, 23.909899999315915], [75.36941000009466, 23.90680999996217], [75.36680999987964, 23.90369999956822], [75.36521999979304, 23.90254999953165], [75.3669899998047, 23.901279999466684], [75.3683200004986, 23.902219999660357], [75.37447000078267, 23.903590000135708], [75.37623999989599, 23.90360999959154], [75.37856000062686, 23.902509999467668], [75.38051999971097, 23.901239999831056], [75.38303000041265, 23.899650000185925], [75.38536000029094, 23.89805999905656], [75.38720000062278, 23.894199999344938], [75.38850000028113, 23.89033999941334], [75.38919999988988, 23.889279999814757], [75.39050999959397, 23.887289999804878], [75.39299999930583, 23.88650999997381], [75.39457999934666, 23.886519999380106], [75.3959800003608, 23.887509999201836], [75.39929000023028, 23.88997999971787], [75.40033000049596, 23.89111999914942], [75.40223000020394, 23.893730000108004], [75.40222000015821, 23.89402999971326], [75.4022000000667, 23.89519000034536], [75.39964000003467, 23.899690000313434], [75.39729000006488, 23.90240999966425], [75.39635000025665, 23.905470000336976], [75.39628999998217, 23.908379999880204], [75.39554000014475, 23.91095999987136], [75.39461999952965, 23.913219999341344], [75.39317000008346, 23.91726000022126], [75.3913699999346, 23.91689999911496], [75.38498999949675, 23.917950000290293], [75.37839999989497, 23.920460000086944], [75.37630000017045, 23.92181000024762]]]}}]}