{"type": "FeatureCollection", "features": [{"type": "Feature", "properties": {"premiumdata.sde.IN_Village_PCA.area": 1.32707187, "objectid": 596950, "id": "102061094309715", "name": "Pacharhi", "subdistrict": "Pandaul", "district": "Madhubani", "state": "Bihar", "country": "India", "censusname": "Pacharhi", "villagename_locallang": null, "lgd_villagename": "Pacharhi", "lgd_villagecode": 220527, "lgd_subdistrictcode": 1094, "lgd_districtcode": 206, "lgd_statecode": 10, "censuscode2001": "00455800", "censuscode2011": "220527", "censuscode2021": null, "level": "Village", "tru": "Rural", "no_hh": 387, "tot_p": 2050, "tot_m": 1040, "tot_f": 1010, "per_tot_m": 50.73170732000001, "per_tot_f": 49.26829268, "p_06": 272, "m_06": 156, "f_06": 116, "per_p_06": 13.26829268, "per_m_06": 57.35294118, "per_f_06": 42.64705882, "p_sc": 0, "m_sc": 0, "f_sc": 0, "per_p_sc": 0.0, "per_m_sc": 0.0, "per_f_sc": 0.0, "p_st": 0, "m_st": 0, "f_st": 0, "per_p_st": 0.0, "per_m_st": 0.0, "per_f_st": 0.0, "p_lit": 1422, "m_lit": 798, "f_lit": 624, "per_p_lit": 69.36585366, "per_m_lit": 56.11814346, "per_f_lit": 43.88185654, "p_ill": 628, "m_ill": 242, "f_ill": 386, "per_p_ill": 30.63414634, "per_m_ill": 38.53503185, "per_f_ill": 61.46496815, "tot_work_p": 934, "tot_work_m": 592, "tot_work_f": 342, "per_tot_work_p": 45.56097561, "per_tot_work_m": 63.38329764, "per_tot_work_f": 36.61670236000001, "mainwork_p": 692, "mainwork_m": 447, "mainwork_f": 245, "per_mainwork_p": 33.75609756, "per_mainwork_m": 64.59537572, "per_mainwork_f": 35.40462428, "main_cl_p": 111, "main_cl_m": 72, "main_cl_f": 39, "per_main_cl_p": 16.04046243, "per_main_cl_m": 64.86486486, "per_main_cl_f": 35.13513514, "main_al_p": 167, "main_al_m": 134, "main_al_f": 33, "per_main_al_p": 24.13294798, "per_main_al_m": 80.23952096000001, "per_main_al_f": 19.76047904, "main_hh_p": 58, "main_hh_m": 12, "main_hh_f": 46, "per_main_hh_p": 8.38150289, "per_main_hh_m": 20.68965517, "per_main_hh_f": 79.31034483, "main_ot_p": 356, "main_ot_m": 229, "main_ot_f": 127, "per_main_ot_p": 51.44508671, "per_main_ot_m": 64.3258427, "per_main_ot_f": 35.6741573, "margwork_p": 242, "margwork_m": 145, "margwork_f": 97, "per_margwork_p": 11.80487805, "per_margwork_m": 59.91735537, "per_margwork_f": 40.08264463, "marg_cl_p": 18, "marg_cl_m": 6, "marg_cl_f": 12, "per_marg_cl_p": 7.43801653, "per_marg_cl_m": 33.33333333, "per_marg_cl_f": 66.66666667, "marg_al_p": 85, "marg_al_m": 66, "marg_al_f": 19, "per_marg_al_p": 35.12396694, "per_marg_al_m": 77.64705882000001, "per_marg_al_f": 22.35294118, "marg_hh_p": 16, "marg_hh_m": 6, "marg_hh_f": 10, "per_marg_hh_p": 6.61157025, "per_marg_hh_m": 37.5, "per_marg_hh_f": 62.5, "marg_ot_p": 123, "marg_ot_m": 67, "marg_ot_f": 56, "per_marg_ot_p": 50.82644628, "per_marg_ot_m": 54.47154472, "per_marg_ot_f": 45.52845528, "margwork_3_6_p": 240, "margwork_3_6_m": 144, "margwork_3_6_f": 96, "per_margwork_3_6_p": 99.17355372, "per_margwork_3_6_m": 60.0, "per_margwork_3_6_f": 40.0, "marg_cl_3_6_p": 18, "marg_cl_3_6_m": 6, "marg_cl_3_6_f": 12, "per_marg_cl_3_6_p": 7.43801653, "per_marg_cl_3_6_m": 33.33333333, "per_marg_cl_3_6_f": 66.66666667, "marg_al_3_6_p": 84, "marg_al_3_6_m": 65, "marg_al_3_6_f": 19, "per_marg_al_3_6_p": 34.7107438, "per_marg_al_3_6_m": 77.38095238, "per_marg_al_3_6_f": 22.61904762, "marg_hh_3_6_p": 15, "marg_hh_3_6_m": 6, "marg_hh_3_6_f": 9, "per_marg_hh_3_6_p": 6.19834711, "per_marg_hh_3_6_m": 40.0, "per_marg_hh_3_6_f": 60.0, "marg_ot_3_6_p": 123, "marg_ot_3_6_m": 67, "marg_ot_3_6_f": 56, "per_marg_ot_3_6_p": 50.82644628, "per_marg_ot_3_6_m": 54.47154472, "per_marg_ot_3_6_f": 45.52845528, "margwork_0_3_p": 2, "margwork_0_3_m": 1, "margwork_0_3_f": 1, "per_margwork_0_3_p": 0.82644628, "per_margwork_0_3_m": 50.0, "per_margwork_0_3_f": 50.0, "marg_cl_0_3_p": 0, "marg_cl_0_3_m": 0, "marg_cl_0_3_f": 0, "per_marg_cl_0_3_p": 0.0, "per_marg_cl_0_3_m": 0.0, "per_marg_cl_0_3_f": 0.0, "marg_al_0_3_p": 1, "marg_al_0_3_m": 1, "marg_al_0_3_f": 0, "per_marg_al_0_3_p": 0.41322314, "per_marg_al_0_3_m": 100.0, "per_marg_al_0_3_f": 0.0, "marg_hh_0_3_p": 1, "marg_hh_0_3_m": 0, "marg_hh_0_3_f": 1, "per_marg_hh_0_3_p": 0.41322314, "per_marg_hh_0_3_m": 0.0, "per_marg_hh_0_3_f": 100.0, "marg_ot_0_3_p": 0, "marg_ot_0_3_m": 0, "marg_ot_0_3_f": 0, "per_marg_ot_0_3_p": 0.0, "per_marg_ot_0_3_m": 0.0, "per_marg_ot_0_3_f": 0.0, "non_work_p": 1116, "non_work_m": 448, "non_work_f": 668, "per_non_work_p": 54.43902439, "per_non_work_m": 40.14336918, "per_non_work_f": 59.85663082, "per_hc_tot_tot": 100, "per_hc_tot_god": 70.1, "per_hc_tot_liv": 29.5, "per_hc_tot_dil": 0.5, "per_hc_res_tot": 93.0, "per_hc_res_god": 65.0, "per_hc_res_liv": 27.6, "per_hc_res_dil": 0.5, "per_hc_oth_tot": 7.0, "per_hc_oth_god": 5.1, "per_hc_oth_liv": 1.9, "per_hc_oth_dil": 0.0, "per_mt_grsbam": 24.1, "per_mt_plastic": 0.5, "per_mt_h_tiles": 22.3, "per_mt_m_tiles": 0.0, "per_mt_b_brick": 10.7, "per_mt_stone": 14.8, "per_mt_asbstos": 19.0, "per_mt_concrte": 8.6, "per_mt_oth": 0.0, "per_mw_grsbam": 38.1, "per_mw_plastic": 0.5, "per_mw_mud": 2.3, "per_mw_wood": 0.2, "per_mw_no_mrtr": 3.2, "per_mw_st_mrtr": 0.7, "per_mw_asbstos": 0.0, "per_mw_b_brick": 54.5, "per_mw_concrte": 0.2, "per_mw_oth": 0.2, "per_mf_mud": 73.3, "per_mf_wood": 0.2, "per_mf_b_brick": 0.5, "per_mf_stone": 13.0, "per_mf_cement": 13.0, "per_mf_fl_tile": 0.0, "per_mf_oth": 0.0, "per_dw_n_exrm": 1.2, "per_dw_1_room": 36.0, "per_dw_2_room": 39.0, "per_dw_3_room": 10.7, "per_dw_4_room": 7.9, "per_dw_5_room": 2.6, "per_dw_6_room": 2.8, "per_hhsize_1": 2.6, "per_hhsize_2": 3.7, "per_hhsize_3": 9.0, "per_hhsize_4": 14.2, "per_hhsize_5": 20.0, "per_hhsize_6_8": 32.5, "per_hhsize_9p": 18.1, "per_ow_owned": 97.9, "per_ow_rented": 0.9, "per_ow_oth": 1.2, "per_mc_none": 7.9, "per_mcouple_1": 58.9, "per_mcouple_2": 20.2, "per_mcouple_3": 8.8, "per_mcouple_4": 3.5, "per_mcouple_5p": 0.7, "per_dw_t_ts": 0.2, "per_dw_t_unts": 0.7, "per_dw_c_well": 0.7, "per_dw_unc_wel": 0.0, "per_dw_hpump": 98.1, "per_dw_tw_bore": 0.0, "per_dw_spring": 0.0, "per_dw_rivcan": 0.0, "per_dw_tank": 0.2, "per_dw_oth": 0.0, "per_loc_dw_wp": 44.1, "per_loc_dw_np": 47.6, "per_loc_dw_aw": 8.4, "per_light_elec": 9.0, "per_light_kero": 90.5, "per_light_solr": 0.2, "per_light_oil": 0.0, "per_light_oth": 0.2, "per_light_no": 0.0, "per_hh_latrine": 25.8, "per_fl_sewer": 1.9, "per_fl_septict": 17.9, "per_fl_othsys": 5.6, "per_pl_wslab": 0.2, "per_pl_without": 0.0, "per_ns_open": 0.2, "per_sl_ns_hum": 0.0, "per_sl_ns_anml": 0.0, "per_hh_no_lat": 74.2, "per_as_pub": 1.6, "per_as_open": 72.6, "per_hh_bathrm": 22.3, "per_hh_en_wrf": 15.1, "per_hh_no_btrm": 62.6, "per_wwoc_drain": 12.1, "per_wwoc_open": 44.1, "per_wwoc_nodrn": 43.9, "per_cook_fire": 53.4, "per_cook_resdu": 6.3, "per_cook_cwdng": 19.7, "per_cook_coal": 0.0, "per_cook_kero": 0.2, "per_cook_lpng": 20.4, "per_cook_elec": 0.0, "per_cook_biogs": 0.0, "per_cook_oth": 0.0, "per_cook_no": 0.0, "per_kf_inside": 70.1, "per_kf_in_has": 65.7, "per_kf_in_does": 4.4, "per_kf_outside": 29.9, "per_kf_out_has": 22.0, "per_kf_out_dos": 7.9, "per_kf_no_cook": 0.0, "per_hh_banking": 84.9, "per_hh_radio": 49.0, "per_hh_tv": 26.2, "per_hh_cmp_int": 0.9, "per_hh_cmp_wnt": 16.0, "per_hh_ph_ll": 11.6, "per_hh_ph_mob": 59.2, "per_hh_ph_bth": 1.6, "per_hh_bcycl": 55.9, "per_hh_2wheel": 15.8, "per_hh_4wheel": 13.2, "per_hh_tvcomp": 5.6, "per_hh_no_ast": 12.8, "per_hs_perma": 56.1, "per_hs_sperma": 21.6, "per_hs_temp": 22.0, "per_hs_servc": 0.0, "per_hs_nservc": 22.0, "per_hs_unclss": 0.2, "avghhsz_cy": 5.29715762, "st_areashape": 1657304.877098105, "st_lengthshape": 6029.802545696821}, "geometry": {"type": "Polygon", "coordinates": [[[86.1161870377443, 26.280754143229167], [86.1153586185758, 26.28110208499339], [86.11387215920718, 26.28182857505081], [86.113208762353, 26.28148959133093], [86.11178707690625, 26.281498084864197], [86.11126250389947, 26.280968794389807], [86.11077606078321, 26.280845307698463], [86.11029408588719, 26.281349160796577], [86.1079213037435, 26.28204922162034], [86.10698929265308, 26.279884195249625], [86.10725832460594, 26.278352756891984], [86.1084861850554, 26.275813815624446], [86.10951693087702, 26.27439969780194], [86.11047994821782, 26.273297377200098], [86.11203666033322, 26.272602133737237], [86.11342573693514, 26.272264299929578], [86.11419641599043, 26.272228149795563], [86.11519654992213, 26.271409839790902], [86.1165733267912, 26.270088268639864], [86.1173299723651, 26.269519680268065], [86.11788669068602, 26.269669761769354], [86.11830826106572, 26.270483965354014], [86.11948793678167, 26.270255735247233], [86.12081033323668, 26.27037405685096], [86.12181776508173, 26.270552958377625], [86.12314566731114, 26.270734479214347], [86.12439734569203, 26.270758413138726], [86.1246404172315, 26.271131510902002], [86.12495395801176, 26.272230642880842], [86.1256826686753, 26.272600806244068], [86.12564923607536, 26.272822155854122], [86.1245443729546, 26.273013892709372], [86.12356306771127, 26.27331604657042], [86.12225698286515, 26.273718202137175], [86.12059556491687, 26.27379150835253], [86.12054397556842, 26.276260258177608], [86.12016888402152, 26.276984507075667], [86.11882021364107, 26.2780531993181], [86.11675046737871, 26.27910362407308], [86.11626243963431, 26.279449474147935], [86.1161870377443, 26.280754143229167]]]}}]}