{"type": "FeatureCollection", "features": [{"type": "Feature", "properties": {"premiumdata.sde.IN_Village_PCA.area": 1.58672116, "objectid": 118612, "id": "274684005630576", "name": "Najarpur", "subdistrict": "Chandurbazar", "district": "Amravati", "state": "Maharashtra", "country": "India", "censusname": "Najarpur", "villagename_locallang": null, "lgd_villagename": "Najarpur", "lgd_villagecode": 532103, "lgd_subdistrictcode": 4005, "lgd_districtcode": 468, "lgd_statecode": 27, "censuscode2001": "00708600", "censuscode2011": "532103", "censuscode2021": null, "level": "Village", "tru": "Rural", "no_hh": 44, "tot_p": 184, "tot_m": 86, "tot_f": 98, "per_tot_m": 46.73913043, "per_tot_f": 53.26086957, "p_06": 19, "m_06": 12, "f_06": 7, "per_p_06": 10.32608696, "per_m_06": 63.15789474, "per_f_06": 36.84210526, "p_sc": 86, "m_sc": 39, "f_sc": 47, "per_p_sc": 46.73913043, "per_m_sc": 45.34883721, "per_f_sc": 54.65116279, "p_st": 0, "m_st": 0, "f_st": 0, "per_p_st": 0.0, "per_m_st": 0.0, "per_f_st": 0.0, "p_lit": 146, "m_lit": 69, "f_lit": 77, "per_p_lit": 79.34782609000001, "per_m_lit": 47.26027397, "per_f_lit": 52.73972603, "p_ill": 38, "m_ill": 17, "f_ill": 21, "per_p_ill": 20.65217391, "per_m_ill": 44.73684211, "per_f_ill": 55.26315789, "tot_work_p": 77, "tot_work_m": 46, "tot_work_f": 31, "per_tot_work_p": 41.84782609, "per_tot_work_m": 59.74025974, "per_tot_work_f": 40.25974026, "mainwork_p": 76, "mainwork_m": 45, "mainwork_f": 31, "per_mainwork_p": 41.30434783, "per_mainwork_m": 59.21052632000001, "per_mainwork_f": 40.78947368, "main_cl_p": 0, "main_cl_m": 0, "main_cl_f": 0, "per_main_cl_p": 0.0, "per_main_cl_m": 0.0, "per_main_cl_f": 0.0, "main_al_p": 76, "main_al_m": 45, "main_al_f": 31, "per_main_al_p": 100.0, "per_main_al_m": 59.21052632000001, "per_main_al_f": 40.78947368, "main_hh_p": 0, "main_hh_m": 0, "main_hh_f": 0, "per_main_hh_p": 0.0, "per_main_hh_m": 0.0, "per_main_hh_f": 0.0, "main_ot_p": 0, "main_ot_m": 0, "main_ot_f": 0, "per_main_ot_p": 0.0, "per_main_ot_m": 0.0, "per_main_ot_f": 0.0, "margwork_p": 1, "margwork_m": 1, "margwork_f": 0, "per_margwork_p": 0.54347826, "per_margwork_m": 100.0, "per_margwork_f": 0.0, "marg_cl_p": 0, "marg_cl_m": 0, "marg_cl_f": 0, "per_marg_cl_p": 0.0, "per_marg_cl_m": 0.0, "per_marg_cl_f": 0.0, "marg_al_p": 1, "marg_al_m": 1, "marg_al_f": 0, "per_marg_al_p": 100.0, "per_marg_al_m": 100.0, "per_marg_al_f": 0.0, "marg_hh_p": 0, "marg_hh_m": 0, "marg_hh_f": 0, "per_marg_hh_p": 0.0, "per_marg_hh_m": 0.0, "per_marg_hh_f": 0.0, "marg_ot_p": 0, "marg_ot_m": 0, "marg_ot_f": 0, "per_marg_ot_p": 0.0, "per_marg_ot_m": 0.0, "per_marg_ot_f": 0.0, "margwork_3_6_p": 1, "margwork_3_6_m": 1, "margwork_3_6_f": 0, "per_margwork_3_6_p": 100.0, "per_margwork_3_6_m": 100.0, "per_margwork_3_6_f": 0.0, "marg_cl_3_6_p": 0, "marg_cl_3_6_m": 0, "marg_cl_3_6_f": 0, "per_marg_cl_3_6_p": 0.0, "per_marg_cl_3_6_m": 0.0, "per_marg_cl_3_6_f": 0.0, "marg_al_3_6_p": 1, "marg_al_3_6_m": 1, "marg_al_3_6_f": 0, "per_marg_al_3_6_p": 100.0, "per_marg_al_3_6_m": 100.0, "per_marg_al_3_6_f": 0.0, "marg_hh_3_6_p": 0, "marg_hh_3_6_m": 0, "marg_hh_3_6_f": 0, "per_marg_hh_3_6_p": 0.0, "per_marg_hh_3_6_m": 0.0, "per_marg_hh_3_6_f": 0.0, "marg_ot_3_6_p": 0, "marg_ot_3_6_m": 0, "marg_ot_3_6_f": 0, "per_marg_ot_3_6_p": 0.0, "per_marg_ot_3_6_m": 0.0, "per_marg_ot_3_6_f": 0.0, "margwork_0_3_p": 0, "margwork_0_3_m": 0, "margwork_0_3_f": 0, "per_margwork_0_3_p": 0.0, "per_margwork_0_3_m": 0.0, "per_margwork_0_3_f": 0.0, "marg_cl_0_3_p": 0, "marg_cl_0_3_m": 0, "marg_cl_0_3_f": 0, "per_marg_cl_0_3_p": 0.0, "per_marg_cl_0_3_m": 0.0, "per_marg_cl_0_3_f": 0.0, "marg_al_0_3_p": 0, "marg_al_0_3_m": 0, "marg_al_0_3_f": 0, "per_marg_al_0_3_p": 0.0, "per_marg_al_0_3_m": 0.0, "per_marg_al_0_3_f": 0.0, "marg_hh_0_3_p": 0, "marg_hh_0_3_m": 0, "marg_hh_0_3_f": 0, "per_marg_hh_0_3_p": 0.0, "per_marg_hh_0_3_m": 0.0, "per_marg_hh_0_3_f": 0.0, "marg_ot_0_3_p": 0, "marg_ot_0_3_m": 0, "marg_ot_0_3_f": 0, "per_marg_ot_0_3_p": 0.0, "per_marg_ot_0_3_m": 0.0, "per_marg_ot_0_3_f": 0.0, "non_work_p": 107, "non_work_m": 40, "non_work_f": 67, "per_non_work_p": 58.15217391, "per_non_work_m": 37.38317757, "per_non_work_f": 62.61682243, "per_hc_tot_tot": 100, "per_hc_tot_god": 63.6, "per_hc_tot_liv": 34.1, "per_hc_tot_dil": 2.3, "per_hc_res_tot": 97.7, "per_hc_res_god": 63.6, "per_hc_res_liv": 31.8, "per_hc_res_dil": 2.3, "per_hc_oth_tot": 2.3, "per_hc_oth_god": 0.0, "per_hc_oth_liv": 2.3, "per_hc_oth_dil": 0.0, "per_mt_grsbam": 0.0, "per_mt_plastic": 0.0, "per_mt_h_tiles": 31.8, "per_mt_m_tiles": 0.0, "per_mt_b_brick": 0.0, "per_mt_stone": 9.1, "per_mt_asbstos": 40.9, "per_mt_concrte": 18.2, "per_mt_oth": 0.0, "per_mw_grsbam": 2.3, "per_mw_plastic": 2.3, "per_mw_mud": 40.9, "per_mw_wood": 0.0, "per_mw_no_mrtr": 0.0, "per_mw_st_mrtr": 0.0, "per_mw_asbstos": 0.0, "per_mw_b_brick": 54.5, "per_mw_concrte": 0.0, "per_mw_oth": 0.0, "per_mf_mud": 63.6, "per_mf_wood": 0.0, "per_mf_b_brick": 0.0, "per_mf_stone": 4.5, "per_mf_cement": 25.0, "per_mf_fl_tile": 6.8, "per_mf_oth": 0.0, "per_dw_n_exrm": 0.0, "per_dw_1_room": 47.7, "per_dw_2_room": 29.5, "per_dw_3_room": 18.2, "per_dw_4_room": 2.3, "per_dw_5_room": 0.0, "per_dw_6_room": 2.3, "per_hhsize_1": 9.1, "per_hhsize_2": 13.6, "per_hhsize_3": 9.1, "per_hhsize_4": 18.2, "per_hhsize_5": 31.8, "per_hhsize_6_8": 18.2, "per_hhsize_9p": 0.0, "per_ow_owned": 97.7, "per_ow_rented": 0.0, "per_ow_oth": 2.3, "per_mc_none": 15.9, "per_mcouple_1": 65.9, "per_mcouple_2": 18.2, "per_mcouple_3": 0.0, "per_mcouple_4": 0.0, "per_mcouple_5p": 0.0, "per_dw_t_ts": 75.0, "per_dw_t_unts": 0.0, "per_dw_c_well": 0.0, "per_dw_unc_wel": 0.0, "per_dw_hpump": 22.7, "per_dw_tw_bore": 0.0, "per_dw_spring": 0.0, "per_dw_rivcan": 0.0, "per_dw_tank": 0.0, "per_dw_oth": 2.3, "per_loc_dw_wp": 40.9, "per_loc_dw_np": 40.9, "per_loc_dw_aw": 18.2, "per_light_elec": 88.6, "per_light_kero": 0.0, "per_light_solr": 0.0, "per_light_oil": 0.0, "per_light_oth": 0.0, "per_light_no": 11.4, "per_hh_latrine": 27.3, "per_fl_sewer": 0.0, "per_fl_septict": 6.8, "per_fl_othsys": 20.5, "per_pl_wslab": 0.0, "per_pl_without": 0.0, "per_ns_open": 0.0, "per_sl_ns_hum": 0.0, "per_sl_ns_anml": 0.0, "per_hh_no_lat": 72.7, "per_as_pub": 0.0, "per_as_open": 72.7, "per_hh_bathrm": 25.0, "per_hh_en_wrf": 45.5, "per_hh_no_btrm": 29.5, "per_wwoc_drain": 13.6, "per_wwoc_open": 34.1, "per_wwoc_nodrn": 52.3, "per_cook_fire": 88.6, "per_cook_resdu": 2.3, "per_cook_cwdng": 0.0, "per_cook_coal": 0.0, "per_cook_kero": 0.0, "per_cook_lpng": 6.8, "per_cook_elec": 0.0, "per_cook_biogs": 2.3, "per_cook_oth": 0.0, "per_cook_no": 0.0, "per_kf_inside": 68.2, "per_kf_in_has": 68.2, "per_kf_in_does": 0.0, "per_kf_outside": 31.8, "per_kf_out_has": 9.1, "per_kf_out_dos": 22.7, "per_kf_no_cook": 0.0, "per_hh_banking": 31.8, "per_hh_radio": 4.5, "per_hh_tv": 45.5, "per_hh_cmp_int": 0.0, "per_hh_cmp_wnt": 4.5, "per_hh_ph_ll": 25.0, "per_hh_ph_mob": 25.0, "per_hh_ph_bth": 6.8, "per_hh_bcycl": 59.1, "per_hh_2wheel": 11.4, "per_hh_4wheel": 0.0, "per_hh_tvcomp": 2.3, "per_hh_no_ast": 18.2, "per_hs_perma": 54.5, "per_hs_sperma": 45.5, "per_hs_temp": 0.0, "per_hs_servc": 0.0, "per_hs_nservc": 0.0, "per_hs_unclss": 0.0, "avghhsz_cy": 4.18181818, "st_areashape": 1835247.608078335, "st_lengthshape": 6341.741531049336}, "geometry": {"type": "Polygon", "coordinates": [[[77.79111253106142, 21.22970167343995], [77.78996741712773, 21.229635259672097], [77.78904779919493, 21.229781752759155], [77.78561159950274, 21.22968269401361], [77.78249780067445, 21.230802362947045], [77.78006179060948, 21.23246218095638], [77.77865922131198, 21.23398218594507], [77.77771228830635, 21.23562881388976], [77.77449635911508, 21.236146196301828], [77.77358144655778, 21.236094178060164], [77.77277906685443, 21.2361486839665], [77.77124372745627, 21.232324734612376], [77.77036093056867, 21.230572265959825], [77.77026522854985, 21.229565627089496], [77.77132550109657, 21.227924849083994], [77.77250178387568, 21.226191183262117], [77.7734255313638, 21.225744300523022], [77.77445818520708, 21.22560403517454], [77.77651645279676, 21.225723449892232], [77.7778888369041, 21.225803125244642], [77.77960637081155, 21.22580289580406], [77.78351969359895, 21.22473104773152], [77.78709063429554, 21.223640626174138], [77.78800455062121, 21.223794071329415], [77.78785796353316, 21.22558385609912], [77.7885233276978, 21.22682157324351], [77.7902299443796, 21.22752036234804], [77.79124976039918, 21.228179027677214], [77.79111253106142, 21.22970167343995]]]}}]}