{"type": "FeatureCollection", "features": [{"type": "Feature", "properties": {"premiumdata.sde.IN_Village_PCA.area": 6.38374709, "objectid": 45874, "id": "274804292635663", "name": "Ite", "subdistrict": "Ajra", "district": "Kolhapur", "state": "Maharashtra", "country": "India", "censusname": "Ite", "villagename_locallang": "\u0907\u0924\u0947", "lgd_villagename": "Ite", "lgd_villagecode": 567916, "lgd_subdistrictcode": 4292, "lgd_districtcode": 480, "lgd_statecode": 27, "censuscode2001": "04269000", "censuscode2011": "567916", "censuscode2021": null, "level": "Village", "tru": "Rural", "no_hh": 152, "tot_p": 615, "tot_m": 275, "tot_f": 340, "per_tot_m": 44.71544715, "per_tot_f": 55.28455285, "p_06": 60, "m_06": 28, "f_06": 32, "per_p_06": 9.75609756, "per_m_06": 46.66666667000001, "per_f_06": 53.33333333, "p_sc": 57, "m_sc": 29, "f_sc": 28, "per_p_sc": 9.26829268, "per_m_sc": 50.87719298, "per_f_sc": 49.12280702, "p_st": 2, "m_st": 1, "f_st": 1, "per_p_st": 0.32520325, "per_m_st": 50.0, "per_f_st": 50.0, "p_lit": 369, "m_lit": 187, "f_lit": 182, "per_p_lit": 60.0, "per_m_lit": 50.67750678, "per_f_lit": 49.32249322, "p_ill": 246, "m_ill": 88, "f_ill": 158, "per_p_ill": 40.0, "per_m_ill": 35.77235772, "per_f_ill": 64.22764228, "tot_work_p": 216, "tot_work_m": 158, "tot_work_f": 58, "per_tot_work_p": 35.12195122, "per_tot_work_m": 73.14814815, "per_tot_work_f": 26.85185185, "mainwork_p": 203, "mainwork_m": 150, "mainwork_f": 53, "per_mainwork_p": 33.00813008, "per_mainwork_m": 73.89162562, "per_mainwork_f": 26.10837438, "main_cl_p": 98, "main_cl_m": 88, "main_cl_f": 10, "per_main_cl_p": 48.27586207, "per_main_cl_m": 89.79591837000001, "per_main_cl_f": 10.20408163, "main_al_p": 57, "main_al_m": 25, "main_al_f": 32, "per_main_al_p": 28.07881773, "per_main_al_m": 43.85964912, "per_main_al_f": 56.14035088000001, "main_hh_p": 10, "main_hh_m": 6, "main_hh_f": 4, "per_main_hh_p": 4.92610837, "per_main_hh_m": 60.0, "per_main_hh_f": 40.0, "main_ot_p": 38, "main_ot_m": 31, "main_ot_f": 7, "per_main_ot_p": 18.71921182, "per_main_ot_m": 81.57894737000001, "per_main_ot_f": 18.42105263, "margwork_p": 13, "margwork_m": 8, "margwork_f": 5, "per_margwork_p": 2.11382114, "per_margwork_m": 61.53846154, "per_margwork_f": 38.46153846, "marg_cl_p": 3, "marg_cl_m": 2, "marg_cl_f": 1, "per_marg_cl_p": 23.07692308, "per_marg_cl_m": 66.66666667, "per_marg_cl_f": 33.33333333, "marg_al_p": 6, "marg_al_m": 4, "marg_al_f": 2, "per_marg_al_p": 46.15384615, "per_marg_al_m": 66.66666667, "per_marg_al_f": 33.33333333, "marg_hh_p": 1, "marg_hh_m": 1, "marg_hh_f": 0, "per_marg_hh_p": 7.69230769, "per_marg_hh_m": 100.0, "per_marg_hh_f": 0.0, "marg_ot_p": 3, "marg_ot_m": 1, "marg_ot_f": 2, "per_marg_ot_p": 23.07692308, "per_marg_ot_m": 33.33333333, "per_marg_ot_f": 66.66666667, "margwork_3_6_p": 11, "margwork_3_6_m": 7, "margwork_3_6_f": 4, "per_margwork_3_6_p": 84.61538462, "per_margwork_3_6_m": 63.63636364, "per_margwork_3_6_f": 36.36363636, "marg_cl_3_6_p": 3, "marg_cl_3_6_m": 2, "marg_cl_3_6_f": 1, "per_marg_cl_3_6_p": 23.07692308, "per_marg_cl_3_6_m": 66.66666667, "per_marg_cl_3_6_f": 33.33333333, "marg_al_3_6_p": 5, "marg_al_3_6_m": 3, "marg_al_3_6_f": 2, "per_marg_al_3_6_p": 38.46153846, "per_marg_al_3_6_m": 60.0, "per_marg_al_3_6_f": 40.0, "marg_hh_3_6_p": 1, "marg_hh_3_6_m": 1, "marg_hh_3_6_f": 0, "per_marg_hh_3_6_p": 7.69230769, "per_marg_hh_3_6_m": 100.0, "per_marg_hh_3_6_f": 0.0, "marg_ot_3_6_p": 2, "marg_ot_3_6_m": 1, "marg_ot_3_6_f": 1, "per_marg_ot_3_6_p": 15.38461538, "per_marg_ot_3_6_m": 50.0, "per_marg_ot_3_6_f": 50.0, "margwork_0_3_p": 2, "margwork_0_3_m": 1, "margwork_0_3_f": 1, "per_margwork_0_3_p": 15.38461538, "per_margwork_0_3_m": 50.0, "per_margwork_0_3_f": 50.0, "marg_cl_0_3_p": 0, "marg_cl_0_3_m": 0, "marg_cl_0_3_f": 0, "per_marg_cl_0_3_p": 0.0, "per_marg_cl_0_3_m": 0.0, "per_marg_cl_0_3_f": 0.0, "marg_al_0_3_p": 1, "marg_al_0_3_m": 1, "marg_al_0_3_f": 0, "per_marg_al_0_3_p": 7.69230769, "per_marg_al_0_3_m": 100.0, "per_marg_al_0_3_f": 0.0, "marg_hh_0_3_p": 0, "marg_hh_0_3_m": 0, "marg_hh_0_3_f": 0, "per_marg_hh_0_3_p": 0.0, "per_marg_hh_0_3_m": 0.0, "per_marg_hh_0_3_f": 0.0, "marg_ot_0_3_p": 1, "marg_ot_0_3_m": 0, "marg_ot_0_3_f": 1, "per_marg_ot_0_3_p": 7.69230769, "per_marg_ot_0_3_m": 0.0, "per_marg_ot_0_3_f": 100.0, "non_work_p": 399, "non_work_m": 117, "non_work_f": 282, "per_non_work_p": 64.87804878, "per_non_work_m": 29.32330827, "per_non_work_f": 70.67669172999999, "per_hc_tot_tot": 100, "per_hc_tot_god": 75.2, "per_hc_tot_liv": 24.8, "per_hc_tot_dil": 0.0, "per_hc_res_tot": 68.6, "per_hc_res_god": 48.4, "per_hc_res_liv": 20.3, "per_hc_res_dil": 0.0, "per_hc_oth_tot": 31.4, "per_hc_oth_god": 26.8, "per_hc_oth_liv": 4.6, "per_hc_oth_dil": 0.0, "per_mt_grsbam": 2.0, "per_mt_plastic": 0.7, "per_mt_h_tiles": 2.6, "per_mt_m_tiles": 93.5, "per_mt_b_brick": 0.0, "per_mt_stone": 0.7, "per_mt_asbstos": 0.7, "per_mt_concrte": 0.0, "per_mt_oth": 0.0, "per_mw_grsbam": 0.0, "per_mw_plastic": 0.7, "per_mw_mud": 91.5, "per_mw_wood": 0.0, "per_mw_no_mrtr": 0.0, "per_mw_st_mrtr": 0.0, "per_mw_asbstos": 0.7, "per_mw_b_brick": 6.5, "per_mw_concrte": 0.7, "per_mw_oth": 0.0, "per_mf_mud": 84.3, "per_mf_wood": 0.0, "per_mf_b_brick": 0.0, "per_mf_stone": 7.8, "per_mf_cement": 1.3, "per_mf_fl_tile": 4.6, "per_mf_oth": 2.0, "per_dw_n_exrm": 0.0, "per_dw_1_room": 5.9, "per_dw_2_room": 30.7, "per_dw_3_room": 30.1, "per_dw_4_room": 25.5, "per_dw_5_room": 5.9, "per_dw_6_room": 2.0, "per_hhsize_1": 11.1, "per_hhsize_2": 17.0, "per_hhsize_3": 11.1, "per_hhsize_4": 13.7, "per_hhsize_5": 17.6, "per_hhsize_6_8": 24.2, "per_hhsize_9p": 5.2, "per_ow_owned": 99.3, "per_ow_rented": 0.7, "per_ow_oth": 0.0, "per_mc_none": 17.0, "per_mcouple_1": 54.2, "per_mcouple_2": 22.9, "per_mcouple_3": 5.2, "per_mcouple_4": 0.7, "per_mcouple_5p": 0.0, "per_dw_t_ts": 0.0, "per_dw_t_unts": 95.4, "per_dw_c_well": 0.0, "per_dw_unc_wel": 0.0, "per_dw_hpump": 4.6, "per_dw_tw_bore": 0.0, "per_dw_spring": 0.0, "per_dw_rivcan": 0.0, "per_dw_tank": 0.0, "per_dw_oth": 0.0, "per_loc_dw_wp": 7.8, "per_loc_dw_np": 9.2, "per_loc_dw_aw": 83.0, "per_light_elec": 96.1, "per_light_kero": 2.6, "per_light_solr": 0.0, "per_light_oil": 1.3, "per_light_oth": 0.0, "per_light_no": 0.0, "per_hh_latrine": 74.5, "per_fl_sewer": 1.3, "per_fl_septict": 32.7, "per_fl_othsys": 30.1, "per_pl_wslab": 10.5, "per_pl_without": 0.0, "per_ns_open": 0.0, "per_sl_ns_hum": 0.0, "per_sl_ns_anml": 0.0, "per_hh_no_lat": 25.5, "per_as_pub": 22.2, "per_as_open": 3.3, "per_hh_bathrm": 100.0, "per_hh_en_wrf": 0.0, "per_hh_no_btrm": 0.0, "per_wwoc_drain": 0.0, "per_wwoc_open": 54.9, "per_wwoc_nodrn": 45.1, "per_cook_fire": 100.0, "per_cook_resdu": 0.0, "per_cook_cwdng": 0.0, "per_cook_coal": 0.0, "per_cook_kero": 0.0, "per_cook_lpng": 0.0, "per_cook_elec": 0.0, "per_cook_biogs": 0.0, "per_cook_oth": 0.0, "per_cook_no": 0.0, "per_kf_inside": 98.7, "per_kf_in_has": 98.7, "per_kf_in_does": 0.0, "per_kf_outside": 1.3, "per_kf_out_has": 0.0, "per_kf_out_dos": 1.3, "per_kf_no_cook": 0.0, "per_hh_banking": 80.4, "per_hh_radio": 0.7, "per_hh_tv": 46.4, "per_hh_cmp_int": 0.0, "per_hh_cmp_wnt": 0.0, "per_hh_ph_ll": 15.0, "per_hh_ph_mob": 37.3, "per_hh_ph_bth": 0.7, "per_hh_bcycl": 5.9, "per_hh_2wheel": 15.0, "per_hh_4wheel": 0.0, "per_hh_tvcomp": 0.0, "per_hh_no_ast": 35.3, "per_hs_perma": 7.2, "per_hs_sperma": 90.8, "per_hs_temp": 2.0, "per_hs_servc": 2.0, "per_hs_nservc": 0.0, "per_hs_unclss": 0.0, "avghhsz_cy": 4.04605263, "st_areashape": 6952923.896968985, "st_lengthshape": 10819.551092873733}, "geometry": {"type": "Polygon", "coordinates": [[[74.1777936573076, 16.060216162153818], [74.17832032788057, 16.0623090110587], [74.17833055699673, 16.06347796740736], [74.177976609995, 16.065654403286683], [74.17787164544731, 16.06784973460018], [74.17789010223315, 16.069924443926833], [74.1781622836794, 16.072537165224446], [74.17792399207555, 16.07368249187886], [74.17706243136126, 16.07464605211165], [74.17557768957148, 16.075427617230133], [74.17458958857304, 16.076120819225462], [74.17361021021598, 16.077719004914673], [74.17251440121497, 16.080080944089698], [74.17175011457122, 16.081909758054746], [74.17067285488253, 16.081025482817257], [74.17021447423744, 16.08098657823826], [74.16822667499021, 16.080659345128797], [74.16639327368246, 16.080503685048512], [74.16395659796584, 16.08108837128656], [74.16014696232182, 16.08171298223306], [74.15587530875416, 16.081821765655185], [74.1558512491759, 16.081742208898433], [74.15582718959764, 16.081662652109863], [74.15580312912108, 16.081583094426257], [74.15577906954282, 16.081503537574], [74.15575500996455, 16.08142398068986], [74.1557309503863, 16.0813444237739], [74.15570688990974, 16.081264865962932], [74.15568283033147, 16.08118530898325], [74.15565877075322, 16.08110575197176], [74.15563471117495, 16.081026194928413], [74.15561065159673, 16.08094663699006], [74.15558659201847, 16.080867079883], [74.15556253244021, 16.08078752274412], [74.15553847286193, 16.080707965573364], [74.15551441328368, 16.08062840750766], [74.15549035370545, 16.080548850273225], [74.15547487124151, 16.080464291814614], [74.15545938787928, 16.08037973332], [74.15544390541537, 16.08029517478942], [74.15542842205312, 16.080210616222885], [74.15541293958918, 16.080126057620348], [74.15539745622695, 16.080041498981846], [74.15538197376304, 16.0799569403074], [74.15536649129913, 16.07987238159694], [74.15535100793689, 16.07978782285055], [74.15533552547295, 16.07970326406816], [74.15532004300904, 16.079618705249793], [74.15530455964681, 16.07953414639548], [74.15528907718287, 16.079449587505167], [74.15527359471896, 16.079365028578913], [74.15525811225505, 16.079280469616656], [74.1552426297911, 16.07919591061843], [74.1552271473272, 16.079111351584267], [74.15517908476457, 16.07903988513282], [74.15513102220189, 16.078968419518834], [74.15508295874096, 16.078896953015988], [74.1550348961783, 16.078825486487467], [74.15498683361565, 16.078754020796428], [74.15493877015467, 16.07868255421651], [74.15489070759203, 16.078611088474094], [74.1548426450294, 16.07853962184278], [74.15479458156844, 16.078468155185792], [74.1547465190058, 16.078396689366258], [74.15469845644316, 16.078325223521073], [74.15465039388049, 16.07825375678699], [74.15460233131785, 16.07818229002723], [74.1545542687552, 16.078110823241758], [74.15450620619256, 16.0780393564306], [74.1544581436299, 16.077967889593758], [74.15441008106727, 16.077896423594407], [74.15436201850461, 16.07782495670618], [74.15431395504365, 16.077753489792254], [74.154265892481, 16.07768202371583], [74.15421782991838, 16.077610556750507], [74.15416390315356, 16.077544741000136], [74.15410997638872, 16.077478925227968], [74.1540560496239, 16.077413109434012], [74.15400212285908, 16.07734729361826], [74.15394819609425, 16.077281477780726], [74.15389427022775, 16.077215662784592], [74.15384034346293, 16.077149846903485], [74.15378641669811, 16.077084031000588], [74.15373248993329, 16.077018215075896], [74.15367856316847, 16.07695239912941], [74.15362463640365, 16.076886583161134], [74.15357070963881, 16.076820767171085], [74.153516782874, 16.076754951159234], [74.15346285610917, 16.0766891351256], [74.15340892934438, 16.076623319070176], [74.15335500257956, 16.07655750385616], [74.15330107581474, 16.076491687757162], [74.1532471490499, 16.07642587163638], [74.15319322228508, 16.07636005549381], [74.15313929552026, 16.07629423932943], [74.15308536875543, 16.07622842314331], [74.15300800224992, 16.076185154219928], [74.15293063484607, 16.076141885287168], [74.15285326834054, 16.076098617208157], [74.15277590093669, 16.076055348256556], [74.15269853443117, 16.076012079295527], [74.15262116702732, 16.075968810325072], [74.1525438005218, 16.075925542208427], [74.15246643401623, 16.075882273219133], [74.15238906661243, 16.075839004220445], [74.15231170010688, 16.07579573607552], [74.15223433270303, 16.075752467058006], [74.1521569661975, 16.075709198031078], [74.15207959879365, 16.075665928994695], [74.15200223228813, 16.075622659948923], [74.1519248657826, 16.075579391756914], [74.15184749837876, 16.075536122692327], [74.15177013187323, 16.07549285361831], [74.15169276446939, 16.075449584534844], [74.15161539796385, 16.0754063163052], [74.15153803056, 16.07536304720292], [74.15146066405448, 16.075319778091234], [74.15137875656521, 16.075284767108833], [74.15129684907589, 16.07524975698345], [74.15121494068828, 16.075214745988692], [74.15113303319899, 16.075179734987792], [74.15105112570971, 16.075144723980706], [74.15096921822044, 16.075109713830656], [74.15088730983283, 16.075074702811268], [74.15080540234354, 16.075039691785676], [74.15072349485422, 16.075004681617138], [74.15064158736493, 16.074969670579215], [74.15055967897732, 16.074934659535174], [74.15047777148804, 16.074899648484934], [74.15039586399877, 16.07486463829173], [74.15031395650945, 16.074829627229178], [74.15023204812188, 16.074794616160442], [74.15015014063255, 16.07475960594875], [74.15006823314327, 16.07472459486771], [74.149986325654, 16.07468958378048], [74.14990441726637, 16.074654572687123], [74.1498225097771, 16.074619562450764], [74.14974060228782, 16.074584551345033], [74.14965869479849, 16.074549540233168], [74.14957678641088, 16.07451452911512], [74.1494948789216, 16.07447951885411], [74.14941297143233, 16.074444507723758], [74.14933106394304, 16.074409497450414], [74.14924915555544, 16.0743744863077], [74.14916724806615, 16.07433947515885], [74.14908534057683, 16.07430446400381], [74.14900343308754, 16.07426945370581], [74.14892152469993, 16.074234442538426], [74.14883961721065, 16.07419943136492], [74.148773670089, 16.074146552051204], [74.14870772206906, 16.07409367272344], [74.14864177494744, 16.07404079338163], [74.14857582692748, 16.07398791402571], [74.14850987980584, 16.073935034655776], [74.14844393178589, 16.073882155271725], [74.14837798466424, 16.07382927587366], [74.14831203754261, 16.073776396461497], [74.14824608952267, 16.0737235170353], [74.14818014240102, 16.073670638458225], [74.14811419438107, 16.073617759003888], [74.14804824725942, 16.073564879535503], [74.1479823001378, 16.073512000053064], [74.14791635211786, 16.073459120556528], [74.1478504049962, 16.07340624104596], [74.14778445697625, 16.073353361521303], [74.1477185098546, 16.073300481982617], [74.14765256183465, 16.073247602429838], [74.14758661471299, 16.073194722863008], [74.14756095703187, 16.073115466499953], [74.1475352984524, 16.07303620924214], [74.14750964077128, 16.07295695281589], [74.14748398219182, 16.072877695494864], [74.14745832361234, 16.072798439005474], [74.14743266593118, 16.072719182484494], [74.14740700735173, 16.072639925068714], [74.1473813496706, 16.072560668484517], [74.14735569109114, 16.07248141100556], [74.14733003340997, 16.072402154358223], [74.14735183821688, 16.072322169999314], [74.14737364302377, 16.072242185608204], [74.14739544783069, 16.072162202048162], [74.14741725263755, 16.072082217592705], [74.14743905744443, 16.072002233105124], [74.14746086225135, 16.071922248585356], [74.14748266705823, 16.071842264033428], [74.14750447186512, 16.0717622794493], [74.14752627667201, 16.07168229569625], [74.1475480814789, 16.07160231104778], [74.14756988628578, 16.07152232636718], [74.14758091041095, 16.071437507697045], [74.14759193363781, 16.07135268985396], [74.14760295776298, 16.071267871111477], [74.14761398188814, 16.07118305319605], [74.14762500601331, 16.071098234381253], [74.14763603013846, 16.071013416393477], [74.14764705426364, 16.070928597506303], [74.14765807838882, 16.07084377944619], [74.14766910251397, 16.070758960486664], [74.14768012663916, 16.070674142354196], [74.14769115076429, 16.07058932332232], [74.14770217488947, 16.070504505117515], [74.14771319901466, 16.070419686013338], [74.1477242231398, 16.070334867736197], [74.14773524726499, 16.070250048559643], [74.14774627139012, 16.070165230210147], [74.14775729551532, 16.070080410961253], [74.14776831964049, 16.06999559253942], [74.14777934376563, 16.06991077321818], [74.14779036789082, 16.069825954724006], [74.14780139201596, 16.06974113533045], [74.14991632263884, 16.06991610528672], [74.15078595920752, 16.069859338646808], [74.15140202562598, 16.069266430919363], [74.15188790460023, 16.06801831320173], [74.15262735821625, 16.067305848593627], [74.15398651013942, 16.06638578801199], [74.1548492162057, 16.06555331018785], [74.15532630696151, 16.06326866237877], [74.15594262939985, 16.062672909609173], [74.15742743317342, 16.061888742612346], [74.15817039381228, 16.061561085299633], [74.15926779732295, 16.05906240506328], [74.16026537734427, 16.05613466965168], [74.16065770127324, 16.05628599532002], [74.16356581285096, 16.057155999355246], [74.16677700522575, 16.057732659380836], [74.16998709985924, 16.05815049442858], [74.17274182500049, 16.058850957092503], [74.1753426345976, 16.059379932692668], [74.1777936573076, 16.060216162153818]]]}}]}