{"type": "FeatureCollection", "features": [{"type": "Feature", "properties": {"premiumdata.sde.IN_Village_PCA.area": 1.09441413, "objectid": 426863, "id": "333216347985", "name": "Hargarh", "subdistrict": "Hoshiarpur", "district": "Hoshiarpur", "state": "Punjab", "country": "India", "censusname": "Hargarh (217)", "villagename_locallang": null, "lgd_villagename": "Hargarh (217)", "lgd_villagecode": 31626, "lgd_subdistrictcode": 216, "lgd_districtcode": 33, "lgd_statecode": 3, "censuscode2001": "00547700", "censuscode2011": "031626", "censuscode2021": null, "level": "Village", "tru": "Rural", "no_hh": 140, "tot_p": 612, "tot_m": 311, "tot_f": 301, "per_tot_m": 50.81699346, "per_tot_f": 49.18300654, "p_06": 38, "m_06": 22, "f_06": 16, "per_p_06": 6.20915033, "per_m_06": 57.89473684, "per_f_06": 42.10526316000001, "p_sc": 222, "m_sc": 116, "f_sc": 106, "per_p_sc": 36.2745098, "per_m_sc": 52.25225225000001, "per_f_sc": 47.74774775, "p_st": 0, "m_st": 0, "f_st": 0, "per_p_st": 0.0, "per_m_st": 0.0, "per_f_st": 0.0, "p_lit": 568, "m_lit": 285, "f_lit": 283, "per_p_lit": 92.81045752, "per_m_lit": 50.17605634, "per_f_lit": 49.82394366, "p_ill": 44, "m_ill": 26, "f_ill": 18, "per_p_ill": 7.18954248, "per_m_ill": 59.09090909, "per_f_ill": 40.90909091, "tot_work_p": 413, "tot_work_m": 211, "tot_work_f": 202, "per_tot_work_p": 67.48366013, "per_tot_work_m": 51.08958838, "per_tot_work_f": 48.91041162, "mainwork_p": 230, "mainwork_m": 155, "mainwork_f": 75, "per_mainwork_p": 37.58169935, "per_mainwork_m": 67.39130435, "per_mainwork_f": 32.60869565, "main_cl_p": 95, "main_cl_m": 78, "main_cl_f": 17, "per_main_cl_p": 41.30434783, "per_main_cl_m": 82.10526316, "per_main_cl_f": 17.89473684, "main_al_p": 106, "main_al_m": 53, "main_al_f": 53, "per_main_al_p": 46.08695652, "per_main_al_m": 50.0, "per_main_al_f": 50.0, "main_hh_p": 11, "main_hh_m": 11, "main_hh_f": 0, "per_main_hh_p": 4.7826087, "per_main_hh_m": 100.0, "per_main_hh_f": 0.0, "main_ot_p": 18, "main_ot_m": 13, "main_ot_f": 5, "per_main_ot_p": 7.82608696, "per_main_ot_m": 72.22222222, "per_main_ot_f": 27.77777778, "margwork_p": 183, "margwork_m": 56, "margwork_f": 127, "per_margwork_p": 29.90196078, "per_margwork_m": 30.6010929, "per_margwork_f": 69.3989071, "marg_cl_p": 6, "marg_cl_m": 3, "marg_cl_f": 3, "per_marg_cl_p": 3.27868852, "per_marg_cl_m": 50.0, "per_marg_cl_f": 50.0, "marg_al_p": 169, "marg_al_m": 46, "marg_al_f": 123, "per_marg_al_p": 92.34972678, "per_marg_al_m": 27.21893491, "per_marg_al_f": 72.78106509000001, "marg_hh_p": 3, "marg_hh_m": 2, "marg_hh_f": 1, "per_marg_hh_p": 1.63934426, "per_marg_hh_m": 66.66666667, "per_marg_hh_f": 33.33333333, "marg_ot_p": 5, "marg_ot_m": 5, "marg_ot_f": 0, "per_marg_ot_p": 2.73224044, "per_marg_ot_m": 100.0, "per_marg_ot_f": 0.0, "margwork_3_6_p": 147, "margwork_3_6_m": 42, "margwork_3_6_f": 105, "per_margwork_3_6_p": 80.32786885, "per_margwork_3_6_m": 28.57142857, "per_margwork_3_6_f": 71.42857143, "marg_cl_3_6_p": 5, "marg_cl_3_6_m": 3, "marg_cl_3_6_f": 2, "per_marg_cl_3_6_p": 2.73224044, "per_marg_cl_3_6_m": 60.0, "per_marg_cl_3_6_f": 40.0, "marg_al_3_6_p": 135, "marg_al_3_6_m": 32, "marg_al_3_6_f": 103, "per_marg_al_3_6_p": 73.7704918, "per_marg_al_3_6_m": 23.7037037, "per_marg_al_3_6_f": 76.2962963, "marg_hh_3_6_p": 2, "marg_hh_3_6_m": 2, "marg_hh_3_6_f": 0, "per_marg_hh_3_6_p": 1.09289617, "per_marg_hh_3_6_m": 100.0, "per_marg_hh_3_6_f": 0.0, "marg_ot_3_6_p": 5, "marg_ot_3_6_m": 5, "marg_ot_3_6_f": 0, "per_marg_ot_3_6_p": 2.73224044, "per_marg_ot_3_6_m": 100.0, "per_marg_ot_3_6_f": 0.0, "margwork_0_3_p": 36, "margwork_0_3_m": 14, "margwork_0_3_f": 22, "per_margwork_0_3_p": 19.67213115, "per_margwork_0_3_m": 38.88888889, "per_margwork_0_3_f": 61.11111111, "marg_cl_0_3_p": 1, "marg_cl_0_3_m": 0, "marg_cl_0_3_f": 1, "per_marg_cl_0_3_p": 0.54644809, "per_marg_cl_0_3_m": 0.0, "per_marg_cl_0_3_f": 100.0, "marg_al_0_3_p": 34, "marg_al_0_3_m": 14, "marg_al_0_3_f": 20, "per_marg_al_0_3_p": 18.57923497, "per_marg_al_0_3_m": 41.17647059, "per_marg_al_0_3_f": 58.82352941000001, "marg_hh_0_3_p": 1, "marg_hh_0_3_m": 0, "marg_hh_0_3_f": 1, "per_marg_hh_0_3_p": 0.54644809, "per_marg_hh_0_3_m": 0.0, "per_marg_hh_0_3_f": 100.0, "marg_ot_0_3_p": 0, "marg_ot_0_3_m": 0, "marg_ot_0_3_f": 0, "per_marg_ot_0_3_p": 0.0, "per_marg_ot_0_3_m": 0.0, "per_marg_ot_0_3_f": 0.0, "non_work_p": 199, "non_work_m": 100, "non_work_f": 99, "per_non_work_p": 32.51633987, "per_non_work_m": 50.25125628, "per_non_work_f": 49.74874372, "per_hc_tot_tot": 100, "per_hc_tot_god": 81.8, "per_hc_tot_liv": 18.2, "per_hc_tot_dil": 0.0, "per_hc_res_tot": 98.6, "per_hc_res_god": 80.4, "per_hc_res_liv": 18.2, "per_hc_res_dil": 0.0, "per_hc_oth_tot": 1.4, "per_hc_oth_god": 1.4, "per_hc_oth_liv": 0.0, "per_hc_oth_dil": 0.0, "per_mt_grsbam": 2.1, "per_mt_plastic": 0.0, "per_mt_h_tiles": 50.3, "per_mt_m_tiles": 0.0, "per_mt_b_brick": 0.0, "per_mt_stone": 0.0, "per_mt_asbstos": 0.7, "per_mt_concrte": 46.9, "per_mt_oth": 0.0, "per_mw_grsbam": 0.0, "per_mw_plastic": 0.0, "per_mw_mud": 3.5, "per_mw_wood": 0.0, "per_mw_no_mrtr": 0.0, "per_mw_st_mrtr": 1.4, "per_mw_asbstos": 0.0, "per_mw_b_brick": 95.1, "per_mw_concrte": 0.0, "per_mw_oth": 0.0, "per_mf_mud": 3.5, "per_mf_wood": 0.0, "per_mf_b_brick": 4.9, "per_mf_stone": 1.4, "per_mf_cement": 81.1, "per_mf_fl_tile": 9.1, "per_mf_oth": 0.0, "per_dw_n_exrm": 0.0, "per_dw_1_room": 7.7, "per_dw_2_room": 28.0, "per_dw_3_room": 47.6, "per_dw_4_room": 9.8, "per_dw_5_room": 4.2, "per_dw_6_room": 2.8, "per_hhsize_1": 4.2, "per_hhsize_2": 7.7, "per_hhsize_3": 17.5, "per_hhsize_4": 20.3, "per_hhsize_5": 26.6, "per_hhsize_6_8": 20.3, "per_hhsize_9p": 3.5, "per_ow_owned": 95.1, "per_ow_rented": 2.8, "per_ow_oth": 2.1, "per_mc_none": 18.9, "per_mcouple_1": 64.3, "per_mcouple_2": 15.4, "per_mcouple_3": 1.4, "per_mcouple_4": 0.0, "per_mcouple_5p": 0.0, "per_dw_t_ts": 89.5, "per_dw_t_unts": 0.0, "per_dw_c_well": 0.0, "per_dw_unc_wel": 0.0, "per_dw_hpump": 3.5, "per_dw_tw_bore": 7.0, "per_dw_spring": 0.0, "per_dw_rivcan": 0.0, "per_dw_tank": 0.0, "per_dw_oth": 0.0, "per_loc_dw_wp": 97.9, "per_loc_dw_np": 2.1, "per_loc_dw_aw": 0.0, "per_light_elec": 98.6, "per_light_kero": 1.4, "per_light_solr": 0.0, "per_light_oil": 0.0, "per_light_oth": 0.0, "per_light_no": 0.0, "per_hh_latrine": 69.9, "per_fl_sewer": 13.3, "per_fl_septict": 0.7, "per_fl_othsys": 0.7, "per_pl_wslab": 55.2, "per_pl_without": 0.0, "per_ns_open": 0.0, "per_sl_ns_hum": 0.0, "per_sl_ns_anml": 0.0, "per_hh_no_lat": 30.1, "per_as_pub": 0.7, "per_as_open": 29.4, "per_hh_bathrm": 62.9, "per_hh_en_wrf": 30.1, "per_hh_no_btrm": 7.0, "per_wwoc_drain": 0.0, "per_wwoc_open": 85.3, "per_wwoc_nodrn": 14.7, "per_cook_fire": 10.5, "per_cook_resdu": 2.1, "per_cook_cwdng": 0.0, "per_cook_coal": 0.0, "per_cook_kero": 0.7, "per_cook_lpng": 86.0, "per_cook_elec": 0.0, "per_cook_biogs": 0.0, "per_cook_oth": 0.0, "per_cook_no": 0.7, "per_kf_inside": 97.9, "per_kf_in_has": 86.7, "per_kf_in_does": 11.2, "per_kf_outside": 1.4, "per_kf_out_has": 0.7, "per_kf_out_dos": 0.7, "per_kf_no_cook": 0.7, "per_hh_banking": 74.1, "per_hh_radio": 31.5, "per_hh_tv": 91.6, "per_hh_cmp_int": 3.5, "per_hh_cmp_wnt": 14.0, "per_hh_ph_ll": 12.6, "per_hh_ph_mob": 62.2, "per_hh_ph_bth": 11.2, "per_hh_bcycl": 81.1, "per_hh_2wheel": 47.6, "per_hh_4wheel": 9.8, "per_hh_tvcomp": 9.1, "per_hh_no_ast": 0.7, "per_hs_perma": 94.4, "per_hs_sperma": 5.6, "per_hs_temp": 0.0, "per_hs_servc": 0.0, "per_hs_nservc": 0.0, "per_hs_unclss": 0.0, "avghhsz_cy": 4.37142857, "st_areashape": 1511150.644877395, "st_lengthshape": 4793.810121755534}, "geometry": {"type": "Polygon", "coordinates": [[[75.8491435689373, 31.54081060361772], [75.84801193602105, 31.539473033559965], [75.84658706335169, 31.537490424998815], [75.8456707880501, 31.53630903677008], [75.84482366326245, 31.53557364536248], [75.84338117013874, 31.53437842194329], [75.84509474337415, 31.533082941186265], [75.84663599009363, 31.532465041561377], [75.8481060893443, 31.531956916198325], [75.84956494438255, 31.531673190037324], [75.85095264386716, 31.531499241137272], [75.8528591006654, 31.53145670369002], [75.85450057960766, 31.531460652311416], [75.85497128963002, 31.531335147783707], [75.85518470149376, 31.531806514756468], [75.8555333538252, 31.532085242174823], [75.85593590866696, 31.53232162925198], [75.85659253581713, 31.53265594753412], [75.85724253968874, 31.53312302009783], [75.85814001325144, 31.53382076251646], [75.85928496369176, 31.534749196416804], [75.85971935842042, 31.535385659417653], [75.86010206139271, 31.536020227703755], [75.86013388780493, 31.536420312063036], [75.86000179503397, 31.536991706030758], [75.85949894508737, 31.53772683667351], [75.85869027807534, 31.53836209801646], [75.85794437635224, 31.538778046744877], [75.85725456813037, 31.539107376869513], [75.8562824050417, 31.539463415889443], [75.85244906106071, 31.540093686647058], [75.84987528446545, 31.540525180978253], [75.84929942484244, 31.54072427700061], [75.8491435689373, 31.54081060361772]]]}}]}