{"type": "FeatureCollection", "features": [{"type": "Feature", "properties": {"premiumdata.sde.IN_Village_PCA.area": 1.78175301, "objectid": 219258, "id": "234233504548776", "name": "Kalidevi", "subdistrict": "Sailana", "district": "Ratlam", "state": "Madhya Pradesh", "country": "India", "censusname": "Kalidevi", "villagename_locallang": null, "lgd_villagename": "Kalidevi", "lgd_villagecode": 470585, "lgd_subdistrictcode": 3504, "lgd_districtcode": 423, "lgd_statecode": 23, "censuscode2001": "02480700", "censuscode2011": "470585", "censuscode2021": null, "level": "Village", "tru": "Rural", "no_hh": 64, "tot_p": 340, "tot_m": 174, "tot_f": 166, "per_tot_m": 51.17647059, "per_tot_f": 48.82352941000001, "p_06": 83, "m_06": 44, "f_06": 39, "per_p_06": 24.41176471, "per_m_06": 53.01204819, "per_f_06": 46.98795181000001, "p_sc": 0, "m_sc": 0, "f_sc": 0, "per_p_sc": 0.0, "per_m_sc": 0.0, "per_f_sc": 0.0, "p_st": 340, "m_st": 174, "f_st": 166, "per_p_st": 100.0, "per_m_st": 51.17647059, "per_f_st": 48.82352941000001, "p_lit": 127, "m_lit": 76, "f_lit": 51, "per_p_lit": 37.35294118, "per_m_lit": 59.84251969, "per_f_lit": 40.15748031, "p_ill": 213, "m_ill": 98, "f_ill": 115, "per_p_ill": 62.64705882, "per_m_ill": 46.00938967, "per_f_ill": 53.99061033, "tot_work_p": 174, "tot_work_m": 88, "tot_work_f": 86, "per_tot_work_p": 51.17647059, "per_tot_work_m": 50.57471264, "per_tot_work_f": 49.42528736, "mainwork_p": 7, "mainwork_m": 4, "mainwork_f": 3, "per_mainwork_p": 2.05882353, "per_mainwork_m": 57.14285714, "per_mainwork_f": 42.85714286, "main_cl_p": 1, "main_cl_m": 1, "main_cl_f": 0, "per_main_cl_p": 14.28571429, "per_main_cl_m": 100.0, "per_main_cl_f": 0.0, "main_al_p": 4, "main_al_m": 2, "main_al_f": 2, "per_main_al_p": 57.14285714, "per_main_al_m": 50.0, "per_main_al_f": 50.0, "main_hh_p": 0, "main_hh_m": 0, "main_hh_f": 0, "per_main_hh_p": 0.0, "per_main_hh_m": 0.0, "per_main_hh_f": 0.0, "main_ot_p": 2, "main_ot_m": 1, "main_ot_f": 1, "per_main_ot_p": 28.57142857, "per_main_ot_m": 50.0, "per_main_ot_f": 50.0, "margwork_p": 167, "margwork_m": 84, "margwork_f": 83, "per_margwork_p": 49.11764706, "per_margwork_m": 50.2994012, "per_margwork_f": 49.7005988, "marg_cl_p": 1, "marg_cl_m": 1, "marg_cl_f": 0, "per_marg_cl_p": 0.5988024, "per_marg_cl_m": 100.0, "per_marg_cl_f": 0.0, "marg_al_p": 164, "marg_al_m": 82, "marg_al_f": 82, "per_marg_al_p": 98.20359281, "per_marg_al_m": 50.0, "per_marg_al_f": 50.0, "marg_hh_p": 0, "marg_hh_m": 0, "marg_hh_f": 0, "per_marg_hh_p": 0.0, "per_marg_hh_m": 0.0, "per_marg_hh_f": 0.0, "marg_ot_p": 2, "marg_ot_m": 1, "marg_ot_f": 1, "per_marg_ot_p": 1.19760479, "per_marg_ot_m": 50.0, "per_marg_ot_f": 50.0, "margwork_3_6_p": 163, "margwork_3_6_m": 82, "margwork_3_6_f": 81, "per_margwork_3_6_p": 97.60479042, "per_margwork_3_6_m": 50.30674847, "per_margwork_3_6_f": 49.69325153, "marg_cl_3_6_p": 1, "marg_cl_3_6_m": 1, "marg_cl_3_6_f": 0, "per_marg_cl_3_6_p": 0.5988024, "per_marg_cl_3_6_m": 100.0, "per_marg_cl_3_6_f": 0.0, "marg_al_3_6_p": 160, "marg_al_3_6_m": 80, "marg_al_3_6_f": 80, "per_marg_al_3_6_p": 95.80838323, "per_marg_al_3_6_m": 50.0, "per_marg_al_3_6_f": 50.0, "marg_hh_3_6_p": 0, "marg_hh_3_6_m": 0, "marg_hh_3_6_f": 0, "per_marg_hh_3_6_p": 0.0, "per_marg_hh_3_6_m": 0.0, "per_marg_hh_3_6_f": 0.0, "marg_ot_3_6_p": 2, "marg_ot_3_6_m": 1, "marg_ot_3_6_f": 1, "per_marg_ot_3_6_p": 1.19760479, "per_marg_ot_3_6_m": 50.0, "per_marg_ot_3_6_f": 50.0, "margwork_0_3_p": 4, "margwork_0_3_m": 2, "margwork_0_3_f": 2, "per_margwork_0_3_p": 2.39520958, "per_margwork_0_3_m": 50.0, "per_margwork_0_3_f": 50.0, "marg_cl_0_3_p": 0, "marg_cl_0_3_m": 0, "marg_cl_0_3_f": 0, "per_marg_cl_0_3_p": 0.0, "per_marg_cl_0_3_m": 0.0, "per_marg_cl_0_3_f": 0.0, "marg_al_0_3_p": 4, "marg_al_0_3_m": 2, "marg_al_0_3_f": 2, "per_marg_al_0_3_p": 2.39520958, "per_marg_al_0_3_m": 50.0, "per_marg_al_0_3_f": 50.0, "marg_hh_0_3_p": 0, "marg_hh_0_3_m": 0, "marg_hh_0_3_f": 0, "per_marg_hh_0_3_p": 0.0, "per_marg_hh_0_3_m": 0.0, "per_marg_hh_0_3_f": 0.0, "marg_ot_0_3_p": 0, "marg_ot_0_3_m": 0, "marg_ot_0_3_f": 0, "per_marg_ot_0_3_p": 0.0, "per_marg_ot_0_3_m": 0.0, "per_marg_ot_0_3_f": 0.0, "non_work_p": 166, "non_work_m": 86, "non_work_f": 80, "per_non_work_p": 48.82352941000001, "per_non_work_m": 51.80722892, "per_non_work_f": 48.19277108, "per_hc_tot_tot": 100, "per_hc_tot_god": 4.8, "per_hc_tot_liv": 92.1, "per_hc_tot_dil": 3.2, "per_hc_res_tot": 100.0, "per_hc_res_god": 4.8, "per_hc_res_liv": 92.1, "per_hc_res_dil": 3.2, "per_hc_oth_tot": 0.0, "per_hc_oth_god": 0.0, "per_hc_oth_liv": 0.0, "per_hc_oth_dil": 0.0, "per_mt_grsbam": 85.7, "per_mt_plastic": 1.6, "per_mt_h_tiles": 3.2, "per_mt_m_tiles": 0.0, "per_mt_b_brick": 0.0, "per_mt_stone": 4.8, "per_mt_asbstos": 4.8, "per_mt_concrte": 0.0, "per_mt_oth": 0.0, "per_mw_grsbam": 12.7, "per_mw_plastic": 4.8, "per_mw_mud": 76.2, "per_mw_wood": 0.0, "per_mw_no_mrtr": 0.0, "per_mw_st_mrtr": 1.6, "per_mw_asbstos": 0.0, "per_mw_b_brick": 4.8, "per_mw_concrte": 0.0, "per_mw_oth": 0.0, "per_mf_mud": 95.2, "per_mf_wood": 0.0, "per_mf_b_brick": 0.0, "per_mf_stone": 3.2, "per_mf_cement": 1.6, "per_mf_fl_tile": 0.0, "per_mf_oth": 0.0, "per_dw_n_exrm": 0.0, "per_dw_1_room": 87.3, "per_dw_2_room": 11.1, "per_dw_3_room": 0.0, "per_dw_4_room": 1.6, "per_dw_5_room": 0.0, "per_dw_6_room": 0.0, "per_hhsize_1": 1.6, "per_hhsize_2": 4.8, "per_hhsize_3": 14.3, "per_hhsize_4": 14.3, "per_hhsize_5": 20.6, "per_hhsize_6_8": 38.1, "per_hhsize_9p": 6.3, "per_ow_owned": 100.0, "per_ow_rented": 0.0, "per_ow_oth": 0.0, "per_mc_none": 6.3, "per_mcouple_1": 82.5, "per_mcouple_2": 7.9, "per_mcouple_3": 3.2, "per_mcouple_4": 0.0, "per_mcouple_5p": 0.0, "per_dw_t_ts": 3.2, "per_dw_t_unts": 0.0, "per_dw_c_well": 0.0, "per_dw_unc_wel": 25.4, "per_dw_hpump": 63.5, "per_dw_tw_bore": 7.9, "per_dw_spring": 0.0, "per_dw_rivcan": 0.0, "per_dw_tank": 0.0, "per_dw_oth": 0.0, "per_loc_dw_wp": 0.0, "per_loc_dw_np": 36.5, "per_loc_dw_aw": 63.5, "per_light_elec": 68.3, "per_light_kero": 31.7, "per_light_solr": 0.0, "per_light_oil": 0.0, "per_light_oth": 0.0, "per_light_no": 0.0, "per_hh_latrine": 1.6, "per_fl_sewer": 0.0, "per_fl_septict": 0.0, "per_fl_othsys": 1.6, "per_pl_wslab": 0.0, "per_pl_without": 0.0, "per_ns_open": 0.0, "per_sl_ns_hum": 0.0, "per_sl_ns_anml": 0.0, "per_hh_no_lat": 98.4, "per_as_pub": 0.0, "per_as_open": 98.4, "per_hh_bathrm": 4.8, "per_hh_en_wrf": 0.0, "per_hh_no_btrm": 95.2, "per_wwoc_drain": 0.0, "per_wwoc_open": 0.0, "per_wwoc_nodrn": 100.0, "per_cook_fire": 85.7, "per_cook_resdu": 14.3, "per_cook_cwdng": 0.0, "per_cook_coal": 0.0, "per_cook_kero": 0.0, "per_cook_lpng": 0.0, "per_cook_elec": 0.0, "per_cook_biogs": 0.0, "per_cook_oth": 0.0, "per_cook_no": 0.0, "per_kf_inside": 95.2, "per_kf_in_has": 95.2, "per_kf_in_does": 0.0, "per_kf_outside": 4.8, "per_kf_out_has": 0.0, "per_kf_out_dos": 4.8, "per_kf_no_cook": 0.0, "per_hh_banking": 9.5, "per_hh_radio": 7.9, "per_hh_tv": 0.0, "per_hh_cmp_int": 11.1, "per_hh_cmp_wnt": 14.3, "per_hh_ph_ll": 4.8, "per_hh_ph_mob": 33.3, "per_hh_ph_bth": 1.6, "per_hh_bcycl": 30.2, "per_hh_2wheel": 7.9, "per_hh_4wheel": 7.9, "per_hh_tvcomp": 0.0, "per_hh_no_ast": 34.9, "per_hs_perma": 6.3, "per_hs_sperma": 6.3, "per_hs_temp": 87.3, "per_hs_servc": 69.8, "per_hs_nservc": 17.5, "per_hs_unclss": 0.0, "avghhsz_cy": 5.3125, "st_areashape": 2124953.45366775, "st_lengthshape": 6762.518102469478}, "geometry": {"type": "Polygon", "coordinates": [[[74.905550000089, 23.398739999202977], [74.9055299999975, 23.39867999968186], [74.90532999998098, 23.398199999236567], [74.90477000011433, 23.39691999971074], [74.90368999966566, 23.394540000049727], [74.90229000044819, 23.392619999534034], [74.90164000016988, 23.391529999244263], [74.9006799993718, 23.390819999692535], [74.89964000000444, 23.390379999895114], [74.89837000048331, 23.390129999396574], [74.89698000041327, 23.389609999618568], [74.89638000036366, 23.38885000020343], [74.89625000066731, 23.388599999290932], [74.8968699999101, 23.388339999952148], [74.89934000042881, 23.38782999938651], [74.901790000856, 23.38750999972671], [74.90285000031484, 23.38748999956769], [74.90379000012311, 23.3874699994057], [74.90575000010556, 23.387909999799092], [74.90791000010451, 23.388289999449995], [74.9099500004529, 23.38866999965994], [74.91195999976576, 23.389530000232607], [74.91344000024746, 23.39049000039374], [74.91501000024256, 23.391210000277404], [74.9170899998756, 23.3919599991894], [74.91969000009064, 23.392479999635817], [74.92137000058892, 23.39279999965689], [74.92123999999426, 23.393099999592838], [74.92015000039817, 23.39517000017], [74.91959000053151, 23.39573999973789], [74.91826999988338, 23.39712000011732], [74.91665000055785, 23.39815999967054], [74.91524999954376, 23.398569999389984], [74.9135699999438, 23.398689999329125], [74.91141999999057, 23.398600000003302], [74.90850000010839, 23.398119999268005], [74.90693000011329, 23.39814999998328], [74.90593000003058, 23.398479999982598], [74.905550000089, 23.398739999202977]]]}}]}