{"type": "FeatureCollection", "features": [{"type": "Feature", "properties": {"premiumdata.sde.IN_Village_PCA.area": 9.57540608, "objectid": 56979, "id": "246763852274347", "name": "Mota Umarda", "subdistrict": "Gadhada", "district": "Botad", "state": "Gujarat", "country": "India", "censusname": "Mota Umarda", "villagename_locallang": null, "lgd_villagename": "Mota Umarda", "lgd_villagecode": 516181, "lgd_subdistrictcode": 3852, "lgd_districtcode": 676, "lgd_statecode": 24, "censuscode2001": "00982200", "censuscode2011": "516181", "censuscode2021": null, "level": "Village", "tru": "Rural", "no_hh": 269, "tot_p": 1403, "tot_m": 710, "tot_f": 693, "per_tot_m": 50.60584462, "per_tot_f": 49.39415538, "p_06": 173, "m_06": 94, "f_06": 79, "per_p_06": 12.33071989, "per_m_06": 54.33526012, "per_f_06": 45.66473988000001, "p_sc": 84, "m_sc": 46, "f_sc": 38, "per_p_sc": 5.98717035, "per_m_sc": 54.76190476, "per_f_sc": 45.23809524, "p_st": 8, "m_st": 5, "f_st": 3, "per_p_st": 0.5702067, "per_m_st": 62.5, "per_f_st": 37.5, "p_lit": 926, "m_lit": 542, "f_lit": 384, "per_p_lit": 66.00142552, "per_m_lit": 58.53131749, "per_f_lit": 41.46868251, "p_ill": 477, "m_ill": 168, "f_ill": 309, "per_p_ill": 33.99857448, "per_m_ill": 35.22012579, "per_f_ill": 64.77987420999999, "tot_work_p": 562, "tot_work_m": 391, "tot_work_f": 171, "per_tot_work_p": 40.05702067, "per_tot_work_m": 69.57295374, "per_tot_work_f": 30.42704626, "mainwork_p": 521, "mainwork_m": 378, "mainwork_f": 143, "per_mainwork_p": 37.13471133, "per_mainwork_m": 72.55278311000001, "per_mainwork_f": 27.44721689, "main_cl_p": 191, "main_cl_m": 154, "main_cl_f": 37, "per_main_cl_p": 36.66026871, "per_main_cl_m": 80.62827225000001, "per_main_cl_f": 19.37172775, "main_al_p": 167, "main_al_m": 95, "main_al_f": 72, "per_main_al_p": 32.0537428, "per_main_al_m": 56.88622754, "per_main_al_f": 43.11377246, "main_hh_p": 1, "main_hh_m": 1, "main_hh_f": 0, "per_main_hh_p": 0.19193858, "per_main_hh_m": 100.0, "per_main_hh_f": 0.0, "main_ot_p": 162, "main_ot_m": 128, "main_ot_f": 34, "per_main_ot_p": 31.0940499, "per_main_ot_m": 79.01234568, "per_main_ot_f": 20.98765432, "margwork_p": 41, "margwork_m": 13, "margwork_f": 28, "per_margwork_p": 2.92230934, "per_margwork_m": 31.70731707, "per_margwork_f": 68.29268293, "marg_cl_p": 0, "marg_cl_m": 0, "marg_cl_f": 0, "per_marg_cl_p": 0.0, "per_marg_cl_m": 0.0, "per_marg_cl_f": 0.0, "marg_al_p": 17, "marg_al_m": 4, "marg_al_f": 13, "per_marg_al_p": 41.46341463, "per_marg_al_m": 23.52941176, "per_marg_al_f": 76.47058824, "marg_hh_p": 1, "marg_hh_m": 0, "marg_hh_f": 1, "per_marg_hh_p": 2.43902439, "per_marg_hh_m": 0.0, "per_marg_hh_f": 100.0, "marg_ot_p": 23, "marg_ot_m": 9, "marg_ot_f": 14, "per_marg_ot_p": 56.09756098, "per_marg_ot_m": 39.13043478, "per_marg_ot_f": 60.86956522000001, "margwork_3_6_p": 40, "margwork_3_6_m": 12, "margwork_3_6_f": 28, "per_margwork_3_6_p": 97.56097561, "per_margwork_3_6_m": 30.0, "per_margwork_3_6_f": 70.0, "marg_cl_3_6_p": 0, "marg_cl_3_6_m": 0, "marg_cl_3_6_f": 0, "per_marg_cl_3_6_p": 0.0, "per_marg_cl_3_6_m": 0.0, "per_marg_cl_3_6_f": 0.0, "marg_al_3_6_p": 16, "marg_al_3_6_m": 3, "marg_al_3_6_f": 13, "per_marg_al_3_6_p": 39.02439024, "per_marg_al_3_6_m": 18.75, "per_marg_al_3_6_f": 81.25, "marg_hh_3_6_p": 1, "marg_hh_3_6_m": 0, "marg_hh_3_6_f": 1, "per_marg_hh_3_6_p": 2.43902439, "per_marg_hh_3_6_m": 0.0, "per_marg_hh_3_6_f": 100.0, "marg_ot_3_6_p": 23, "marg_ot_3_6_m": 9, "marg_ot_3_6_f": 14, "per_marg_ot_3_6_p": 56.09756098, "per_marg_ot_3_6_m": 39.13043478, "per_marg_ot_3_6_f": 60.86956522000001, "margwork_0_3_p": 1, "margwork_0_3_m": 1, "margwork_0_3_f": 0, "per_margwork_0_3_p": 2.43902439, "per_margwork_0_3_m": 100.0, "per_margwork_0_3_f": 0.0, "marg_cl_0_3_p": 0, "marg_cl_0_3_m": 0, "marg_cl_0_3_f": 0, "per_marg_cl_0_3_p": 0.0, "per_marg_cl_0_3_m": 0.0, "per_marg_cl_0_3_f": 0.0, "marg_al_0_3_p": 1, "marg_al_0_3_m": 1, "marg_al_0_3_f": 0, "per_marg_al_0_3_p": 2.43902439, "per_marg_al_0_3_m": 100.0, "per_marg_al_0_3_f": 0.0, "marg_hh_0_3_p": 0, "marg_hh_0_3_m": 0, "marg_hh_0_3_f": 0, "per_marg_hh_0_3_p": 0.0, "per_marg_hh_0_3_m": 0.0, "per_marg_hh_0_3_f": 0.0, "marg_ot_0_3_p": 0, "marg_ot_0_3_m": 0, "marg_ot_0_3_f": 0, "per_marg_ot_0_3_p": 0.0, "per_marg_ot_0_3_m": 0.0, "per_marg_ot_0_3_f": 0.0, "non_work_p": 841, "non_work_m": 319, "non_work_f": 522, "per_non_work_p": 59.94297933, "per_non_work_m": 37.93103448, "per_non_work_f": 62.06896552, "per_hc_tot_tot": 100, "per_hc_tot_god": 51.7, "per_hc_tot_liv": 48.3, "per_hc_tot_dil": 0.0, "per_hc_res_tot": 99.2, "per_hc_res_god": 51.4, "per_hc_res_liv": 47.9, "per_hc_res_dil": 0.0, "per_hc_oth_tot": 0.8, "per_hc_oth_god": 0.4, "per_hc_oth_liv": 0.4, "per_hc_oth_dil": 0.0, "per_mt_grsbam": 0.4, "per_mt_plastic": 0.0, "per_mt_h_tiles": 8.1, "per_mt_m_tiles": 35.5, "per_mt_b_brick": 0.0, "per_mt_stone": 1.2, "per_mt_asbstos": 1.2, "per_mt_concrte": 53.7, "per_mt_oth": 0.0, "per_mw_grsbam": 0.0, "per_mw_plastic": 0.0, "per_mw_mud": 35.5, "per_mw_wood": 0.4, "per_mw_no_mrtr": 1.2, "per_mw_st_mrtr": 1.2, "per_mw_asbstos": 0.0, "per_mw_b_brick": 61.4, "per_mw_concrte": 0.4, "per_mw_oth": 0.0, "per_mf_mud": 43.6, "per_mf_wood": 0.4, "per_mf_b_brick": 0.0, "per_mf_stone": 3.1, "per_mf_cement": 10.4, "per_mf_fl_tile": 42.5, "per_mf_oth": 0.0, "per_dw_n_exrm": 1.9, "per_dw_1_room": 32.8, "per_dw_2_room": 51.0, "per_dw_3_room": 6.6, "per_dw_4_room": 7.7, "per_dw_5_room": 0.0, "per_dw_6_room": 0.0, "per_hhsize_1": 3.9, "per_hhsize_2": 8.9, "per_hhsize_3": 7.3, "per_hhsize_4": 17.4, "per_hhsize_5": 18.9, "per_hhsize_6_8": 37.5, "per_hhsize_9p": 6.2, "per_ow_owned": 93.4, "per_ow_rented": 5.8, "per_ow_oth": 0.8, "per_mc_none": 8.9, "per_mcouple_1": 62.5, "per_mcouple_2": 22.4, "per_mcouple_3": 5.8, "per_mcouple_4": 0.4, "per_mcouple_5p": 0.0, "per_dw_t_ts": 98.1, "per_dw_t_unts": 0.8, "per_dw_c_well": 0.4, "per_dw_unc_wel": 0.0, "per_dw_hpump": 0.0, "per_dw_tw_bore": 0.0, "per_dw_spring": 0.8, "per_dw_rivcan": 0.0, "per_dw_tank": 0.0, "per_dw_oth": 0.0, "per_loc_dw_wp": 71.4, "per_loc_dw_np": 23.2, "per_loc_dw_aw": 5.4, "per_light_elec": 97.7, "per_light_kero": 2.3, "per_light_solr": 0.0, "per_light_oil": 0.0, "per_light_oth": 0.0, "per_light_no": 0.0, "per_hh_latrine": 34.0, "per_fl_sewer": 0.0, "per_fl_septict": 34.0, "per_fl_othsys": 0.0, "per_pl_wslab": 0.0, "per_pl_without": 0.0, "per_ns_open": 0.0, "per_sl_ns_hum": 0.0, "per_sl_ns_anml": 0.0, "per_hh_no_lat": 66.0, "per_as_pub": 0.0, "per_as_open": 66.0, "per_hh_bathrm": 45.6, "per_hh_en_wrf": 21.6, "per_hh_no_btrm": 32.8, "per_wwoc_drain": 15.8, "per_wwoc_open": 29.3, "per_wwoc_nodrn": 54.8, "per_cook_fire": 5.8, "per_cook_resdu": 65.3, "per_cook_cwdng": 0.8, "per_cook_coal": 0.0, "per_cook_kero": 12.7, "per_cook_lpng": 15.1, "per_cook_elec": 0.0, "per_cook_biogs": 0.0, "per_cook_oth": 0.0, "per_cook_no": 0.4, "per_kf_inside": 14.7, "per_kf_in_has": 6.9, "per_kf_in_does": 7.7, "per_kf_outside": 84.9, "per_kf_out_has": 82.6, "per_kf_out_dos": 2.3, "per_kf_no_cook": 0.4, "per_hh_banking": 19.3, "per_hh_radio": 1.2, "per_hh_tv": 44.0, "per_hh_cmp_int": 0.0, "per_hh_cmp_wnt": 2.3, "per_hh_ph_ll": 1.5, "per_hh_ph_mob": 62.2, "per_hh_ph_bth": 1.2, "per_hh_bcycl": 9.7, "per_hh_2wheel": 40.9, "per_hh_4wheel": 2.3, "per_hh_tvcomp": 0.4, "per_hh_no_ast": 22.8, "per_hs_perma": 63.7, "per_hs_sperma": 36.3, "per_hs_temp": 0.0, "per_hs_servc": 0.0, "per_hs_nservc": 0.0, "per_hs_unclss": 0.0, "avghhsz_cy": 5.21561338, "st_areashape": 11154836.688427916, "st_lengthshape": 14234.879802671085}, "geometry": {"type": "Polygon", "coordinates": [[[71.60069420099806, 21.7399509380085], [71.60125883617158, 21.7404791538183], [71.60179340113926, 21.741033942166233], [71.60229585133557, 21.741614357355004], [71.60276461111543, 21.742218500793488], [71.60319950171416, 21.74284537923986], [71.60359828363171, 21.74349207365956], [71.60396004597642, 21.74415762839945], [71.60428385719528, 21.744840176658386], [71.60456896629681, 21.745537564634095], [71.60481483339345, 21.746248098307568], [71.60506821130416, 21.747163907024706], [71.60470720264598, 21.758831932678632], [71.6042385237145, 21.770496982786558], [71.60420434910613, 21.77112574828736], [71.60415873085938, 21.771753874509276], [71.60410161777025, 21.77238090847167], [71.60403243940856, 21.77300689273451], [71.60395112211239, 21.773631746391455], [71.60385894867602, 21.774255618783094], [71.6037547117637, 21.774877155984342], [71.60363897372085, 21.77549767525186], [71.60351108776035, 21.776115931954557], [71.60337234116808, 21.77673199702922], [71.6032220799705, 21.777345984790152], [71.60304225521693, 21.778021399657018], [71.60247371147362, 21.780103518334965], [71.60183520693596, 21.780203437435407], [71.60050214747851, 21.780673122175497], [71.59965070089605, 21.78094375338283], [71.59908194425199, 21.781193259244127], [71.59895260212245, 21.781313071153455], [71.5988143747564, 21.781441114661227], [71.59886532719933, 21.782342923242613], [71.59899433874885, 21.78301082287574], [71.59644485888708, 21.781808588449618], [71.5964046170573, 21.781198331073476], [71.5962278591521, 21.780598135553564], [71.59592055537489, 21.78004625459873], [71.59549730155237, 21.779566088686657], [71.59497551601787, 21.779178701942566], [71.59300969046083, 21.77727678914975], [71.59146388928286, 21.775622717441827], [71.58847791443128, 21.772585413215488], [71.5880303845365, 21.77209616419714], [71.58764040970198, 21.77156563623106], [71.58731193892173, 21.77100039434208], [71.58704877206935, 21.770405484469283], [71.58685385741565, 21.769787873055687], [71.58672965005623, 21.7691547210316], [71.58667544840694, 21.7684575679058], [71.58693276992176, 21.767810671413184], [71.58706605026552, 21.76713199655088], [71.58707120210367, 21.76644246548327], [71.58694818052048, 21.765762999933763], [71.58670005056764, 21.765114014780252], [71.58633522856108, 21.764515619075503], [71.58586420772164, 21.763985848139193], [71.58530145182368, 21.76354001269863], [71.58466135906461, 21.763191981057858], [71.58410143555476, 21.762660335591015], [71.58357173406601, 21.762102578942525], [71.58307472316876, 21.761519299821675], [71.58261077476557, 21.760912259959813], [71.58218193521859, 21.76028361239431], [71.5817887758564, 21.759634522369502], [71.5814324447259, 21.758967244752657], [71.58111413119657, 21.758283432903987], [71.5808351737581, 21.757584900398424], [71.58059547449425, 21.756873150472902], [71.58039565144578, 21.756151165653865], [71.58023692991488, 21.75541999621144], [71.5801199000946, 21.754681790422232], [71.58004399963961, 21.75393901031801], [71.58000973070817, 21.75319387268333], [71.58001727475992, 21.752447372026353], [71.58006700369742, 21.75170247278553], [71.58015857616084, 21.75096074608251], [71.58029119175131, 21.750224559887457], [71.58046490526598, 21.74949558135047], [71.58067917232587, 21.748775970767856], [71.58093395879496, 21.748067538040072], [71.58122027613054, 21.74738942148465], [71.58149555856114, 21.746718165361447], [71.58172008977145, 21.746031307239523], [71.58189264984934, 21.745331498589596], [71.58201263422859, 21.744621878216794], [71.58207944103792, 21.74390679319583], [71.58209297056445, 21.74318910962083], [71.58205211788025, 21.742472163414455], [71.58195808493127, 21.741759949751074], [71.58154268957082, 21.73965435902427], [71.58267494052797, 21.739805872803515], [71.58275011514422, 21.739556522787513], [71.58467653610136, 21.73944748516187], [71.58474817764356, 21.7392532567319], [71.58632475689983, 21.739290614824196], [71.58648746335733, 21.738290112845295], [71.5865253533977, 21.738006409080043], [71.58705544206033, 21.737510476036658], [71.58719096639567, 21.736780445838082], [71.58927743839034, 21.735942692572213], [71.59065848135869, 21.735418447082004], [71.59293424724832, 21.736323706540883], [71.59374676174471, 21.736428955663932], [71.59451947278916, 21.73662186865931], [71.59528071504242, 21.736852585713027], [71.59602691949779, 21.737120001846268], [71.59675755794592, 21.737423559450317], [71.59747002527247, 21.73776228117288], [71.59816263893296, 21.738135923945322], [71.59883294203502, 21.738542461498376], [71.5994796832255, 21.73898122016956], [71.60010042986663, 21.73945108236848], [71.60069420099806, 21.7399509380085]]]}}]}