{"type": "FeatureCollection", "features": [{"type": "Feature", "properties": {"premiumdata.sde.IN_Village_PCA.area": 4.49106284, "objectid": 5622, "id": "335945864179488", "name": "Pattithevanpatti", "subdistrict": "Vilathikulam", "district": "Tuticorin", "state": "Tamil Nadu", "country": "India", "censusname": "Pattithevanpatti", "villagename_locallang": null, "lgd_villagename": "Pattithevanpatti", "lgd_villagecode": 642307, "lgd_subdistrictcode": 5864, "lgd_districtcode": 594, "lgd_statecode": 33, "censuscode2001": "01545400", "censuscode2011": "642307", "censuscode2021": null, "level": "Village", "tru": "Rural", "no_hh": 270, "tot_p": 974, "tot_m": 492, "tot_f": 482, "per_tot_m": 50.51334702, "per_tot_f": 49.48665298, "p_06": 103, "m_06": 57, "f_06": 46, "per_p_06": 10.57494867, "per_m_06": 55.33980583, "per_f_06": 44.66019417, "p_sc": 83, "m_sc": 41, "f_sc": 42, "per_p_sc": 8.52156057, "per_m_sc": 49.39759036, "per_f_sc": 50.60240964, "p_st": 0, "m_st": 0, "f_st": 0, "per_p_st": 0.0, "per_m_st": 0.0, "per_f_st": 0.0, "p_lit": 689, "m_lit": 391, "f_lit": 298, "per_p_lit": 70.73921971, "per_m_lit": 56.74891147, "per_f_lit": 43.25108853, "p_ill": 285, "m_ill": 101, "f_ill": 184, "per_p_ill": 29.26078029, "per_m_ill": 35.43859649, "per_f_ill": 64.56140351, "tot_work_p": 498, "tot_work_m": 279, "tot_work_f": 219, "per_tot_work_p": 51.12936345, "per_tot_work_m": 56.02409639, "per_tot_work_f": 43.97590361, "mainwork_p": 472, "mainwork_m": 269, "mainwork_f": 203, "per_mainwork_p": 48.45995893, "per_mainwork_m": 56.99152542, "per_mainwork_f": 43.00847458000001, "main_cl_p": 78, "main_cl_m": 51, "main_cl_f": 27, "per_main_cl_p": 16.52542373, "per_main_cl_m": 65.38461538, "per_main_cl_f": 34.61538462, "main_al_p": 257, "main_al_m": 144, "main_al_f": 113, "per_main_al_p": 54.44915254, "per_main_al_m": 56.0311284, "per_main_al_f": 43.9688716, "main_hh_p": 23, "main_hh_m": 10, "main_hh_f": 13, "per_main_hh_p": 4.87288136, "per_main_hh_m": 43.47826087, "per_main_hh_f": 56.52173913, "main_ot_p": 114, "main_ot_m": 64, "main_ot_f": 50, "per_main_ot_p": 24.15254237, "per_main_ot_m": 56.14035088000001, "per_main_ot_f": 43.85964912, "margwork_p": 26, "margwork_m": 10, "margwork_f": 16, "per_margwork_p": 2.66940452, "per_margwork_m": 38.46153846, "per_margwork_f": 61.53846154, "marg_cl_p": 0, "marg_cl_m": 0, "marg_cl_f": 0, "per_marg_cl_p": 0.0, "per_marg_cl_m": 0.0, "per_marg_cl_f": 0.0, "marg_al_p": 15, "marg_al_m": 6, "marg_al_f": 9, "per_marg_al_p": 57.69230769, "per_marg_al_m": 40.0, "per_marg_al_f": 60.0, "marg_hh_p": 4, "marg_hh_m": 0, "marg_hh_f": 4, "per_marg_hh_p": 15.38461538, "per_marg_hh_m": 0.0, "per_marg_hh_f": 100.0, "marg_ot_p": 7, "marg_ot_m": 4, "marg_ot_f": 3, "per_marg_ot_p": 26.92307692, "per_marg_ot_m": 57.14285714, "per_marg_ot_f": 42.85714286, "margwork_3_6_p": 22, "margwork_3_6_m": 10, "margwork_3_6_f": 12, "per_margwork_3_6_p": 84.61538462, "per_margwork_3_6_m": 45.45454545, "per_margwork_3_6_f": 54.54545455, "marg_cl_3_6_p": 0, "marg_cl_3_6_m": 0, "marg_cl_3_6_f": 0, "per_marg_cl_3_6_p": 0.0, "per_marg_cl_3_6_m": 0.0, "per_marg_cl_3_6_f": 0.0, "marg_al_3_6_p": 15, "marg_al_3_6_m": 6, "marg_al_3_6_f": 9, "per_marg_al_3_6_p": 57.69230769, "per_marg_al_3_6_m": 40.0, "per_marg_al_3_6_f": 60.0, "marg_hh_3_6_p": 0, "marg_hh_3_6_m": 0, "marg_hh_3_6_f": 0, "per_marg_hh_3_6_p": 0.0, "per_marg_hh_3_6_m": 0.0, "per_marg_hh_3_6_f": 0.0, "marg_ot_3_6_p": 7, "marg_ot_3_6_m": 4, "marg_ot_3_6_f": 3, "per_marg_ot_3_6_p": 26.92307692, "per_marg_ot_3_6_m": 57.14285714, "per_marg_ot_3_6_f": 42.85714286, "margwork_0_3_p": 4, "margwork_0_3_m": 0, "margwork_0_3_f": 4, "per_margwork_0_3_p": 15.38461538, "per_margwork_0_3_m": 0.0, "per_margwork_0_3_f": 100.0, "marg_cl_0_3_p": 0, "marg_cl_0_3_m": 0, "marg_cl_0_3_f": 0, "per_marg_cl_0_3_p": 0.0, "per_marg_cl_0_3_m": 0.0, "per_marg_cl_0_3_f": 0.0, "marg_al_0_3_p": 0, "marg_al_0_3_m": 0, "marg_al_0_3_f": 0, "per_marg_al_0_3_p": 0.0, "per_marg_al_0_3_m": 0.0, "per_marg_al_0_3_f": 0.0, "marg_hh_0_3_p": 4, "marg_hh_0_3_m": 0, "marg_hh_0_3_f": 4, "per_marg_hh_0_3_p": 15.38461538, "per_marg_hh_0_3_m": 0.0, "per_marg_hh_0_3_f": 100.0, "marg_ot_0_3_p": 0, "marg_ot_0_3_m": 0, "marg_ot_0_3_f": 0, "per_marg_ot_0_3_p": 0.0, "per_marg_ot_0_3_m": 0.0, "per_marg_ot_0_3_f": 0.0, "non_work_p": 476, "non_work_m": 213, "non_work_f": 263, "per_non_work_p": 48.87063655, "per_non_work_m": 44.74789916, "per_non_work_f": 55.25210084, "per_hc_tot_tot": 100, "per_hc_tot_god": 90.1, "per_hc_tot_liv": 9.2, "per_hc_tot_dil": 0.7, "per_hc_res_tot": 98.5, "per_hc_res_god": 89.0, "per_hc_res_liv": 8.8, "per_hc_res_dil": 0.7, "per_hc_oth_tot": 1.5, "per_hc_oth_god": 1.1, "per_hc_oth_liv": 0.4, "per_hc_oth_dil": 0.0, "per_mt_grsbam": 0.4, "per_mt_plastic": 0.0, "per_mt_h_tiles": 27.6, "per_mt_m_tiles": 41.5, "per_mt_b_brick": 0.0, "per_mt_stone": 0.0, "per_mt_asbstos": 0.7, "per_mt_concrte": 29.8, "per_mt_oth": 0.0, "per_mw_grsbam": 0.0, "per_mw_plastic": 0.0, "per_mw_mud": 38.6, "per_mw_wood": 0.0, "per_mw_no_mrtr": 0.7, "per_mw_st_mrtr": 4.0, "per_mw_asbstos": 0.0, "per_mw_b_brick": 53.3, "per_mw_concrte": 3.3, "per_mw_oth": 0.0, "per_mf_mud": 1.1, "per_mf_wood": 0.0, "per_mf_b_brick": 0.0, "per_mf_stone": 0.0, "per_mf_cement": 93.8, "per_mf_fl_tile": 5.1, "per_mf_oth": 0.0, "per_dw_n_exrm": 0.4, "per_dw_1_room": 67.6, "per_dw_2_room": 27.9, "per_dw_3_room": 2.9, "per_dw_4_room": 0.4, "per_dw_5_room": 0.4, "per_dw_6_room": 0.4, "per_hhsize_1": 9.6, "per_hhsize_2": 16.5, "per_hhsize_3": 18.0, "per_hhsize_4": 25.7, "per_hhsize_5": 18.8, "per_hhsize_6_8": 11.0, "per_hhsize_9p": 0.4, "per_ow_owned": 87.5, "per_ow_rented": 12.5, "per_ow_oth": 0.0, "per_mc_none": 16.2, "per_mcouple_1": 79.4, "per_mcouple_2": 4.4, "per_mcouple_3": 0.0, "per_mcouple_4": 0.0, "per_mcouple_5p": 0.0, "per_dw_t_ts": 39.3, "per_dw_t_unts": 56.2, "per_dw_c_well": 0.0, "per_dw_unc_wel": 0.7, "per_dw_hpump": 1.5, "per_dw_tw_bore": 2.2, "per_dw_spring": 0.0, "per_dw_rivcan": 0.0, "per_dw_tank": 0.0, "per_dw_oth": 0.0, "per_loc_dw_wp": 8.5, "per_loc_dw_np": 91.5, "per_loc_dw_aw": 0.0, "per_light_elec": 98.5, "per_light_kero": 1.5, "per_light_solr": 0.0, "per_light_oil": 0.0, "per_light_oth": 0.0, "per_light_no": 0.0, "per_hh_latrine": 12.9, "per_fl_sewer": 0.0, "per_fl_septict": 5.1, "per_fl_othsys": 7.7, "per_pl_wslab": 0.0, "per_pl_without": 0.0, "per_ns_open": 0.0, "per_sl_ns_hum": 0.0, "per_sl_ns_anml": 0.0, "per_hh_no_lat": 87.1, "per_as_pub": 7.0, "per_as_open": 80.1, "per_hh_bathrm": 30.9, "per_hh_en_wrf": 13.2, "per_hh_no_btrm": 55.9, "per_wwoc_drain": 22.8, "per_wwoc_open": 46.0, "per_wwoc_nodrn": 31.2, "per_cook_fire": 82.0, "per_cook_resdu": 0.0, "per_cook_cwdng": 0.0, "per_cook_coal": 0.0, "per_cook_kero": 1.8, "per_cook_lpng": 15.8, "per_cook_elec": 0.0, "per_cook_biogs": 0.0, "per_cook_oth": 0.0, "per_cook_no": 0.4, "per_kf_inside": 98.9, "per_kf_in_has": 98.5, "per_kf_in_does": 0.4, "per_kf_outside": 0.7, "per_kf_out_has": 0.4, "per_kf_out_dos": 0.4, "per_kf_no_cook": 0.4, "per_hh_banking": 37.9, "per_hh_radio": 23.9, "per_hh_tv": 80.9, "per_hh_cmp_int": 0.0, "per_hh_cmp_wnt": 0.7, "per_hh_ph_ll": 1.8, "per_hh_ph_mob": 64.7, "per_hh_ph_bth": 2.2, "per_hh_bcycl": 47.8, "per_hh_2wheel": 22.8, "per_hh_4wheel": 0.4, "per_hh_tvcomp": 0.0, "per_hh_no_ast": 9.9, "per_hs_perma": 61.0, "per_hs_sperma": 39.0, "per_hs_temp": 0.0, "per_hs_servc": 0.0, "per_hs_nservc": 0.0, "per_hs_unclss": 0.0, "avghhsz_cy": 3.60740741, "st_areashape": 4640631.91522589, "st_lengthshape": 9978.921685676118}, "geometry": {"type": "Polygon", "coordinates": [[[78.10174548000488, 9.301857030510714], [78.10184483996353, 9.300750750308417], [78.10144055945811, 9.300054510224307], [78.10092180034783, 9.299125709832676], [78.10062407979807, 9.29911895994708], [78.09871680014302, 9.299135250450892], [78.09741215978791, 9.299162880299638], [78.09699996063327, 9.298638360488777], [78.09635160067862, 9.298394189559028], [78.09587856042641, 9.298727009806832], [78.09527592022818, 9.299115179869267], [78.09309396001379, 9.298493369807904], [78.0926817599608, 9.298369439926152], [78.09262847998299, 9.297738090543184], [78.09245315938223, 9.29704661923492], [78.09234624010051, 9.296241749517904], [78.09175872034514, 9.295769700123614], [78.09111036039049, 9.295755389945104], [78.09111036039049, 9.29558276971378], [78.0911179197136, 9.295068779942167], [78.09117875991285, 9.29461094965338], [78.091918920503, 9.293561910673862], [78.09192647982613, 9.293104169726666], [78.09146136001978, 9.292347900108513], [78.09125507988108, 9.290280329638254], [78.09065999990428, 9.28590965968185], [78.09021755986392, 9.283664700693643], [78.08995835997182, 9.280276289888926], [78.09009552013931, 9.278903969785633], [78.09053796017967, 9.277022340158874], [78.09076692008435, 9.273414600215855], [78.09121692034611, 9.272138579989045], [78.0948561599538, 9.272834819688919], [78.09887700030089, 9.274128929680378], [78.10016615998872, 9.275188410338728], [78.10069284044317, 9.276002910444669], [78.10079184017735, 9.277380899956043], [78.1007767197345, 9.279426600631], [78.1007691604114, 9.28017234012067], [78.10140996014458, 9.280701630660655], [78.10247807947528, 9.281184210470961], [78.10330212025508, 9.281546549826484], [78.10417944011438, 9.282311460048442], [78.1046524803666, 9.28283786961443], [78.10535448052347, 9.28314017983484], [78.10636140032881, 9.283193550155987], [78.10632323989554, 9.283567409914445], [78.10619364084778, 9.286541910726484], [78.10623179948442, 9.290310839642148], [78.10668179974623, 9.291283649479347], [78.10720811997628, 9.292346909857889], [78.10755911960553, 9.293055569534141], [78.10754400006097, 9.294282000479683], [78.10639200054064, 9.295366319885334], [78.10573572014015, 9.297016109817964], [78.10618607972805, 9.297638910080257], [78.10726932039992, 9.297663659764813], [78.107711759542, 9.298636469560753], [78.1082305204489, 9.30048938972238], [78.10839827992989, 9.30136779051201], [78.10865784004638, 9.30188654928193], [78.10601796002264, 9.301992389720866], [78.10174548000488, 9.301857030510714]]]}}]}