{"type": "FeatureCollection", "features": [{"type": "Feature", "properties": {"premiumdata.sde.IN_Village_PCA.area": 1.08532711, "objectid": 367767, "id": "9131939418323", "name": "Amooli", "subdistrict": "Basti", "district": "Basti", "state": "Uttar Pradesh", "country": "India", "censusname": "Amooli", "villagename_locallang": null, "lgd_villagename": "Amooli", "lgd_villagecode": 180506, "lgd_subdistrictcode": 939, "lgd_districtcode": 131, "lgd_statecode": 9, "censuscode2001": "07385800", "censuscode2011": "180506", "censuscode2021": null, "level": "Village", "tru": "Rural", "no_hh": 322, "tot_p": 2101, "tot_m": 1068, "tot_f": 1033, "per_tot_m": 50.8329367, "per_tot_f": 49.1670633, "p_06": 379, "m_06": 188, "f_06": 191, "per_p_06": 18.03902903, "per_m_06": 49.60422164, "per_f_06": 50.39577836, "p_sc": 676, "m_sc": 347, "f_sc": 329, "per_p_sc": 32.17515469, "per_m_sc": 51.33136095, "per_f_sc": 48.66863905, "p_st": 0, "m_st": 0, "f_st": 0, "per_p_st": 0.0, "per_m_st": 0.0, "per_f_st": 0.0, "p_lit": 1214, "m_lit": 742, "f_lit": 472, "per_p_lit": 57.78200857, "per_m_lit": 61.12026359, "per_f_lit": 38.87973641, "p_ill": 887, "m_ill": 326, "f_ill": 561, "per_p_ill": 42.21799143, "per_m_ill": 36.75310034, "per_f_ill": 63.24689966, "tot_work_p": 540, "tot_work_m": 469, "tot_work_f": 71, "per_tot_work_p": 25.70204664, "per_tot_work_m": 86.85185185, "per_tot_work_f": 13.14814815, "mainwork_p": 303, "mainwork_m": 290, "mainwork_f": 13, "per_mainwork_p": 14.42170395, "per_mainwork_m": 95.70957096000001, "per_mainwork_f": 4.29042904, "main_cl_p": 4, "main_cl_m": 4, "main_cl_f": 0, "per_main_cl_p": 1.32013201, "per_main_cl_m": 100.0, "per_main_cl_f": 0.0, "main_al_p": 3, "main_al_m": 2, "main_al_f": 1, "per_main_al_p": 0.99009901, "per_main_al_m": 66.66666667, "per_main_al_f": 33.33333333, "main_hh_p": 38, "main_hh_m": 36, "main_hh_f": 2, "per_main_hh_p": 12.54125413, "per_main_hh_m": 94.73684211, "per_main_hh_f": 5.26315789, "main_ot_p": 258, "main_ot_m": 248, "main_ot_f": 10, "per_main_ot_p": 85.14851485, "per_main_ot_m": 96.12403101, "per_main_ot_f": 3.87596899, "margwork_p": 237, "margwork_m": 179, "margwork_f": 58, "per_margwork_p": 11.28034269, "per_margwork_m": 75.52742616, "per_margwork_f": 24.47257384, "marg_cl_p": 4, "marg_cl_m": 3, "marg_cl_f": 1, "per_marg_cl_p": 1.68776371, "per_marg_cl_m": 75.0, "per_marg_cl_f": 25.0, "marg_al_p": 156, "marg_al_m": 106, "marg_al_f": 50, "per_marg_al_p": 65.82278481, "per_marg_al_m": 67.94871795, "per_marg_al_f": 32.05128205, "marg_hh_p": 14, "marg_hh_m": 14, "marg_hh_f": 0, "per_marg_hh_p": 5.907173, "per_marg_hh_m": 100.0, "per_marg_hh_f": 0.0, "marg_ot_p": 63, "marg_ot_m": 56, "marg_ot_f": 7, "per_marg_ot_p": 26.58227848, "per_marg_ot_m": 88.88888889, "per_marg_ot_f": 11.11111111, "margwork_3_6_p": 117, "margwork_3_6_m": 100, "margwork_3_6_f": 17, "per_margwork_3_6_p": 49.36708861, "per_margwork_3_6_m": 85.47008547, "per_margwork_3_6_f": 14.52991453, "marg_cl_3_6_p": 3, "marg_cl_3_6_m": 2, "marg_cl_3_6_f": 1, "per_marg_cl_3_6_p": 1.26582278, "per_marg_cl_3_6_m": 66.66666667, "per_marg_cl_3_6_f": 33.33333333, "marg_al_3_6_p": 54, "marg_al_3_6_m": 45, "marg_al_3_6_f": 9, "per_marg_al_3_6_p": 22.78481013, "per_marg_al_3_6_m": 83.33333332999999, "per_marg_al_3_6_f": 16.66666667, "marg_hh_3_6_p": 12, "marg_hh_3_6_m": 12, "marg_hh_3_6_f": 0, "per_marg_hh_3_6_p": 5.06329114, "per_marg_hh_3_6_m": 100.0, "per_marg_hh_3_6_f": 0.0, "marg_ot_3_6_p": 48, "marg_ot_3_6_m": 41, "marg_ot_3_6_f": 7, "per_marg_ot_3_6_p": 20.25316456, "per_marg_ot_3_6_m": 85.41666667, "per_marg_ot_3_6_f": 14.58333333, "margwork_0_3_p": 120, "margwork_0_3_m": 79, "margwork_0_3_f": 41, "per_margwork_0_3_p": 50.63291139, "per_margwork_0_3_m": 65.83333332999999, "per_margwork_0_3_f": 34.16666667000001, "marg_cl_0_3_p": 1, "marg_cl_0_3_m": 1, "marg_cl_0_3_f": 0, "per_marg_cl_0_3_p": 0.42194093, "per_marg_cl_0_3_m": 100.0, "per_marg_cl_0_3_f": 0.0, "marg_al_0_3_p": 102, "marg_al_0_3_m": 61, "marg_al_0_3_f": 41, "per_marg_al_0_3_p": 43.03797468, "per_marg_al_0_3_m": 59.80392157, "per_marg_al_0_3_f": 40.19607843, "marg_hh_0_3_p": 2, "marg_hh_0_3_m": 2, "marg_hh_0_3_f": 0, "per_marg_hh_0_3_p": 0.84388186, "per_marg_hh_0_3_m": 100.0, "per_marg_hh_0_3_f": 0.0, "marg_ot_0_3_p": 15, "marg_ot_0_3_m": 15, "marg_ot_0_3_f": 0, "per_marg_ot_0_3_p": 6.32911392, "per_marg_ot_0_3_m": 100.0, "per_marg_ot_0_3_f": 0.0, "non_work_p": 1561, "non_work_m": 599, "non_work_f": 962, "per_non_work_p": 74.29795336, "per_non_work_m": 38.37283792, "per_non_work_f": 61.62716208, "per_hc_tot_tot": 100, "per_hc_tot_god": 15.2, "per_hc_tot_liv": 77.7, "per_hc_tot_dil": 7.2, "per_hc_res_tot": 98.9, "per_hc_res_god": 14.6, "per_hc_res_liv": 77.1, "per_hc_res_dil": 7.2, "per_hc_oth_tot": 1.1, "per_hc_oth_god": 0.5, "per_hc_oth_liv": 0.5, "per_hc_oth_dil": 0.0, "per_mt_grsbam": 10.1, "per_mt_plastic": 0.0, "per_mt_h_tiles": 0.5, "per_mt_m_tiles": 0.0, "per_mt_b_brick": 85.4, "per_mt_stone": 0.0, "per_mt_asbstos": 0.8, "per_mt_concrte": 2.1, "per_mt_oth": 1.1, "per_mw_grsbam": 9.6, "per_mw_plastic": 0.3, "per_mw_mud": 7.2, "per_mw_wood": 0.0, "per_mw_no_mrtr": 0.3, "per_mw_st_mrtr": 0.5, "per_mw_asbstos": 0.3, "per_mw_b_brick": 52.9, "per_mw_concrte": 0.5, "per_mw_oth": 28.5, "per_mf_mud": 84.6, "per_mf_wood": 0.0, "per_mf_b_brick": 8.5, "per_mf_stone": 0.0, "per_mf_cement": 6.1, "per_mf_fl_tile": 0.3, "per_mf_oth": 0.5, "per_dw_n_exrm": 3.7, "per_dw_1_room": 34.3, "per_dw_2_room": 25.8, "per_dw_3_room": 15.2, "per_dw_4_room": 13.0, "per_dw_5_room": 2.9, "per_dw_6_room": 5.1, "per_hhsize_1": 2.1, "per_hhsize_2": 6.9, "per_hhsize_3": 10.4, "per_hhsize_4": 10.6, "per_hhsize_5": 12.5, "per_hhsize_6_8": 36.2, "per_hhsize_9p": 21.3, "per_ow_owned": 98.9, "per_ow_rented": 0.3, "per_ow_oth": 0.8, "per_mc_none": 11.7, "per_mcouple_1": 68.1, "per_mcouple_2": 11.4, "per_mcouple_3": 5.3, "per_mcouple_4": 2.7, "per_mcouple_5p": 0.8, "per_dw_t_ts": 4.8, "per_dw_t_unts": 28.2, "per_dw_c_well": 0.5, "per_dw_unc_wel": 0.0, "per_dw_hpump": 65.7, "per_dw_tw_bore": 0.0, "per_dw_spring": 0.0, "per_dw_rivcan": 0.0, "per_dw_tank": 0.3, "per_dw_oth": 0.5, "per_loc_dw_wp": 30.6, "per_loc_dw_np": 66.8, "per_loc_dw_aw": 2.7, "per_light_elec": 34.0, "per_light_kero": 63.6, "per_light_solr": 0.3, "per_light_oil": 0.0, "per_light_oth": 1.9, "per_light_no": 0.3, "per_hh_latrine": 21.8, "per_fl_sewer": 5.3, "per_fl_septict": 15.7, "per_fl_othsys": 0.5, "per_pl_wslab": 0.0, "per_pl_without": 0.3, "per_ns_open": 0.0, "per_sl_ns_hum": 0.0, "per_sl_ns_anml": 0.0, "per_hh_no_lat": 78.2, "per_as_pub": 0.0, "per_as_open": 78.2, "per_hh_bathrm": 4.8, "per_hh_en_wrf": 17.6, "per_hh_no_btrm": 77.7, "per_wwoc_drain": 2.9, "per_wwoc_open": 72.1, "per_wwoc_nodrn": 25.0, "per_cook_fire": 83.0, "per_cook_resdu": 8.8, "per_cook_cwdng": 0.0, "per_cook_coal": 0.5, "per_cook_kero": 0.5, "per_cook_lpng": 5.3, "per_cook_elec": 0.0, "per_cook_biogs": 0.3, "per_cook_oth": 0.3, "per_cook_no": 1.3, "per_kf_inside": 89.6, "per_kf_in_has": 7.2, "per_kf_in_does": 82.4, "per_kf_outside": 9.0, "per_kf_out_has": 3.7, "per_kf_out_dos": 5.3, "per_kf_no_cook": 1.3, "per_hh_banking": 70.7, "per_hh_radio": 9.6, "per_hh_tv": 16.8, "per_hh_cmp_int": 2.9, "per_hh_cmp_wnt": 20.7, "per_hh_ph_ll": 1.3, "per_hh_ph_mob": 42.8, "per_hh_ph_bth": 5.3, "per_hh_bcycl": 55.1, "per_hh_2wheel": 14.4, "per_hh_4wheel": 2.9, "per_hh_tvcomp": 2.1, "per_hh_no_ast": 19.9, "per_hs_perma": 53.7, "per_hs_sperma": 8.2, "per_hs_temp": 9.3, "per_hs_servc": 0.3, "per_hs_nservc": 9.0, "per_hs_unclss": 28.7, "avghhsz_cy": 6.52484472, "st_areashape": 1368447.152991075, "st_lengthshape": 5827.876293798878}, "geometry": {"type": "Polygon", "coordinates": [[[82.77470199097225, 26.834016439789327], [82.77278782303561, 26.834140644987844], [82.77236013512885, 26.834262498211096], [82.77150495424974, 26.83460720723283], [82.77099257317798, 26.834866777354588], [82.77041385062417, 26.833738375959445], [82.76990550568297, 26.832943803799097], [82.76860501823943, 26.83200843524299], [82.76738278663353, 26.831162295856874], [82.76753294991474, 26.830600184734823], [82.76742873186704, 26.830334637658424], [82.7681749003898, 26.830070680355398], [82.76873148396342, 26.82961533163991], [82.7693387046713, 26.829137167065028], [82.77019954493673, 26.828772222938756], [82.77146513462813, 26.828065770676265], [82.77247766890399, 26.82754151714297], [82.77379414276632, 26.826948585314632], [82.77437645678465, 26.826697692379188], [82.77451165772649, 26.826687368125874], [82.77498449675608, 26.82665128734211], [82.77622636822903, 26.82678565090728], [82.777189608352, 26.82696592302948], [82.77810171367405, 26.826919005057047], [82.77888708287917, 26.826849565973273], [82.77924962585985, 26.82671340201271], [82.77985808534449, 26.82726528036715], [82.78079667659436, 26.82778644170034], [82.78148221332704, 26.828467068243665], [82.78247136625268, 26.828919959802967], [82.78358795687949, 26.829736226192534], [82.78495813562282, 26.83064298012246], [82.78612478756374, 26.83114099806278], [82.787342538373, 26.83184345281522], [82.78820525611738, 26.832410137275637], [82.78886494292942, 26.832818080677256], [82.78947438517099, 26.83311643499214], [82.7891153456199, 26.833320639668358], [82.78830455588889, 26.833367432346503], [82.78762046274886, 26.833414024608572], [82.78655665083996, 26.833643036219584], [82.78627513859284, 26.833811999098675], [82.78620998198868, 26.833553457399283], [82.78609662897286, 26.83319008739283], [82.78575800722989, 26.832806884850246], [82.78528438307274, 26.832484501950812], [82.78463086409343, 26.832303797733285], [82.78411290178882, 26.83232485162391], [82.78373018983336, 26.832406266376946], [82.78319019904136, 26.832669730067682], [82.78244717013052, 26.8327719186248], [82.78143363962302, 26.83275337860924], [82.78042037771176, 26.83287620325005], [82.77997030109317, 26.83305870932951], [82.77976801486422, 26.833261018353635], [82.77909290757202, 26.83354487561761], [82.77832739113464, 26.833667288186845], [82.7778097836646, 26.83387010112181], [82.77735686387813, 26.833961112922537], [82.77720191437308, 26.833992255229823], [82.77670658602034, 26.834073833910264], [82.77598576256503, 26.834014401364048], [82.77470199097225, 26.834016439789327]]]}}]}