{"type": "FeatureCollection", "features": [{"type": "Feature", "properties": {"premiumdata.sde.IN_Village_PCA.area": 0.89380833, "objectid": 179851, "id": "21344302154111", "name": "Matiasahi", "subdistrict": "Bantala", "district": "Anugul", "state": "Odisha", "country": "India", "censusname": "Matiasahi", "villagename_locallang": null, "lgd_villagename": "Matiasahi", "lgd_villagecode": 405196, "lgd_subdistrictcode": 3021, "lgd_districtcode": 344, "lgd_statecode": 21, "censuscode2001": "02456200", "censuscode2011": "405196", "censuscode2021": null, "level": "Village", "tru": "Rural", "no_hh": 252, "tot_p": 1043, "tot_m": 520, "tot_f": 523, "per_tot_m": 49.85618408, "per_tot_f": 50.14381592, "p_06": 109, "m_06": 48, "f_06": 61, "per_p_06": 10.4506232, "per_m_06": 44.03669725, "per_f_06": 55.96330275, "p_sc": 489, "m_sc": 250, "f_sc": 239, "per_p_sc": 46.88398849, "per_m_sc": 51.12474438, "per_f_sc": 48.87525562, "p_st": 0, "m_st": 0, "f_st": 0, "per_p_st": 0.0, "per_m_st": 0.0, "per_f_st": 0.0, "p_lit": 652, "m_lit": 361, "f_lit": 291, "per_p_lit": 62.51198466, "per_m_lit": 55.36809816, "per_f_lit": 44.63190184, "p_ill": 391, "m_ill": 159, "f_ill": 232, "per_p_ill": 37.48801534, "per_m_ill": 40.66496164, "per_f_ill": 59.33503836, "tot_work_p": 280, "tot_work_m": 238, "tot_work_f": 42, "per_tot_work_p": 26.84563758, "per_tot_work_m": 85.0, "per_tot_work_f": 15.0, "mainwork_p": 279, "mainwork_m": 237, "mainwork_f": 42, "per_mainwork_p": 26.74976031, "per_mainwork_m": 84.94623656, "per_mainwork_f": 15.05376344, "main_cl_p": 25, "main_cl_m": 24, "main_cl_f": 1, "per_main_cl_p": 8.96057348, "per_main_cl_m": 96.0, "per_main_cl_f": 4.0, "main_al_p": 171, "main_al_m": 145, "main_al_f": 26, "per_main_al_p": 61.29032258, "per_main_al_m": 84.79532164, "per_main_al_f": 15.20467836, "main_hh_p": 14, "main_hh_m": 10, "main_hh_f": 4, "per_main_hh_p": 5.01792115, "per_main_hh_m": 71.42857143, "per_main_hh_f": 28.57142857, "main_ot_p": 69, "main_ot_m": 58, "main_ot_f": 11, "per_main_ot_p": 24.7311828, "per_main_ot_m": 84.05797101, "per_main_ot_f": 15.94202899, "margwork_p": 1, "margwork_m": 1, "margwork_f": 0, "per_margwork_p": 0.09587728, "per_margwork_m": 100.0, "per_margwork_f": 0.0, "marg_cl_p": 0, "marg_cl_m": 0, "marg_cl_f": 0, "per_marg_cl_p": 0.0, "per_marg_cl_m": 0.0, "per_marg_cl_f": 0.0, "marg_al_p": 1, "marg_al_m": 1, "marg_al_f": 0, "per_marg_al_p": 100.0, "per_marg_al_m": 100.0, "per_marg_al_f": 0.0, "marg_hh_p": 0, "marg_hh_m": 0, "marg_hh_f": 0, "per_marg_hh_p": 0.0, "per_marg_hh_m": 0.0, "per_marg_hh_f": 0.0, "marg_ot_p": 0, "marg_ot_m": 0, "marg_ot_f": 0, "per_marg_ot_p": 0.0, "per_marg_ot_m": 0.0, "per_marg_ot_f": 0.0, "margwork_3_6_p": 1, "margwork_3_6_m": 1, "margwork_3_6_f": 0, "per_margwork_3_6_p": 100.0, "per_margwork_3_6_m": 100.0, "per_margwork_3_6_f": 0.0, "marg_cl_3_6_p": 0, "marg_cl_3_6_m": 0, "marg_cl_3_6_f": 0, "per_marg_cl_3_6_p": 0.0, "per_marg_cl_3_6_m": 0.0, "per_marg_cl_3_6_f": 0.0, "marg_al_3_6_p": 1, "marg_al_3_6_m": 1, "marg_al_3_6_f": 0, "per_marg_al_3_6_p": 100.0, "per_marg_al_3_6_m": 100.0, "per_marg_al_3_6_f": 0.0, "marg_hh_3_6_p": 0, "marg_hh_3_6_m": 0, "marg_hh_3_6_f": 0, "per_marg_hh_3_6_p": 0.0, "per_marg_hh_3_6_m": 0.0, "per_marg_hh_3_6_f": 0.0, "marg_ot_3_6_p": 0, "marg_ot_3_6_m": 0, "marg_ot_3_6_f": 0, "per_marg_ot_3_6_p": 0.0, "per_marg_ot_3_6_m": 0.0, "per_marg_ot_3_6_f": 0.0, "margwork_0_3_p": 0, "margwork_0_3_m": 0, "margwork_0_3_f": 0, "per_margwork_0_3_p": 0.0, "per_margwork_0_3_m": 0.0, "per_margwork_0_3_f": 0.0, "marg_cl_0_3_p": 0, "marg_cl_0_3_m": 0, "marg_cl_0_3_f": 0, "per_marg_cl_0_3_p": 0.0, "per_marg_cl_0_3_m": 0.0, "per_marg_cl_0_3_f": 0.0, "marg_al_0_3_p": 0, "marg_al_0_3_m": 0, "marg_al_0_3_f": 0, "per_marg_al_0_3_p": 0.0, "per_marg_al_0_3_m": 0.0, "per_marg_al_0_3_f": 0.0, "marg_hh_0_3_p": 0, "marg_hh_0_3_m": 0, "marg_hh_0_3_f": 0, "per_marg_hh_0_3_p": 0.0, "per_marg_hh_0_3_m": 0.0, "per_marg_hh_0_3_f": 0.0, "marg_ot_0_3_p": 0, "marg_ot_0_3_m": 0, "marg_ot_0_3_f": 0, "per_marg_ot_0_3_p": 0.0, "per_marg_ot_0_3_m": 0.0, "per_marg_ot_0_3_f": 0.0, "non_work_p": 763, "non_work_m": 282, "non_work_f": 481, "per_non_work_p": 73.15436242000001, "per_non_work_m": 36.9593709, "per_non_work_f": 63.0406291, "per_hc_tot_tot": 100, "per_hc_tot_god": 21.7, "per_hc_tot_liv": 61.5, "per_hc_tot_dil": 16.8, "per_hc_res_tot": 100.0, "per_hc_res_god": 21.7, "per_hc_res_liv": 61.5, "per_hc_res_dil": 16.8, "per_hc_oth_tot": 0.0, "per_hc_oth_god": 0.0, "per_hc_oth_liv": 0.0, "per_hc_oth_dil": 0.0, "per_mt_grsbam": 67.6, "per_mt_plastic": 0.0, "per_mt_h_tiles": 0.4, "per_mt_m_tiles": 11.5, "per_mt_b_brick": 0.0, "per_mt_stone": 0.0, "per_mt_asbstos": 1.6, "per_mt_concrte": 18.9, "per_mt_oth": 0.0, "per_mw_grsbam": 25.8, "per_mw_plastic": 0.0, "per_mw_mud": 40.2, "per_mw_wood": 0.0, "per_mw_no_mrtr": 0.0, "per_mw_st_mrtr": 0.0, "per_mw_asbstos": 0.0, "per_mw_b_brick": 34.0, "per_mw_concrte": 0.0, "per_mw_oth": 0.0, "per_mf_mud": 72.5, "per_mf_wood": 0.0, "per_mf_b_brick": 0.0, "per_mf_stone": 0.0, "per_mf_cement": 27.0, "per_mf_fl_tile": 0.4, "per_mf_oth": 0.0, "per_dw_n_exrm": 0.0, "per_dw_1_room": 58.2, "per_dw_2_room": 29.5, "per_dw_3_room": 6.6, "per_dw_4_room": 2.9, "per_dw_5_room": 2.0, "per_dw_6_room": 0.8, "per_hhsize_1": 7.8, "per_hhsize_2": 11.1, "per_hhsize_3": 16.8, "per_hhsize_4": 26.2, "per_hhsize_5": 16.4, "per_hhsize_6_8": 18.9, "per_hhsize_9p": 2.9, "per_ow_owned": 98.8, "per_ow_rented": 1.2, "per_ow_oth": 0.0, "per_mc_none": 9.0, "per_mcouple_1": 69.7, "per_mcouple_2": 18.4, "per_mcouple_3": 2.5, "per_mcouple_4": 0.4, "per_mcouple_5p": 0.0, "per_dw_t_ts": 0.0, "per_dw_t_unts": 0.0, "per_dw_c_well": 2.0, "per_dw_unc_wel": 25.4, "per_dw_hpump": 0.4, "per_dw_tw_bore": 72.1, "per_dw_spring": 0.0, "per_dw_rivcan": 0.0, "per_dw_tank": 0.0, "per_dw_oth": 0.0, "per_loc_dw_wp": 25.8, "per_loc_dw_np": 56.6, "per_loc_dw_aw": 17.6, "per_light_elec": 32.4, "per_light_kero": 67.6, "per_light_solr": 0.0, "per_light_oil": 0.0, "per_light_oth": 0.0, "per_light_no": 0.0, "per_hh_latrine": 54.1, "per_fl_sewer": 0.0, "per_fl_septict": 9.0, "per_fl_othsys": 0.0, "per_pl_wslab": 0.0, "per_pl_without": 0.0, "per_ns_open": 0.0, "per_sl_ns_hum": 45.1, "per_sl_ns_anml": 0.0, "per_hh_no_lat": 45.9, "per_as_pub": 0.0, "per_as_open": 45.9, "per_hh_bathrm": 11.5, "per_hh_en_wrf": 16.4, "per_hh_no_btrm": 72.1, "per_wwoc_drain": 1.2, "per_wwoc_open": 2.5, "per_wwoc_nodrn": 96.3, "per_cook_fire": 93.0, "per_cook_resdu": 0.4, "per_cook_cwdng": 0.0, "per_cook_coal": 0.0, "per_cook_kero": 0.0, "per_cook_lpng": 6.6, "per_cook_elec": 0.0, "per_cook_biogs": 0.0, "per_cook_oth": 0.0, "per_cook_no": 0.0, "per_kf_inside": 81.6, "per_kf_in_has": 77.9, "per_kf_in_does": 3.7, "per_kf_outside": 18.4, "per_kf_out_has": 12.3, "per_kf_out_dos": 6.1, "per_kf_no_cook": 0.0, "per_hh_banking": 21.3, "per_hh_radio": 3.7, "per_hh_tv": 23.8, "per_hh_cmp_int": 0.0, "per_hh_cmp_wnt": 1.2, "per_hh_ph_ll": 1.2, "per_hh_ph_mob": 29.5, "per_hh_ph_bth": 0.8, "per_hh_bcycl": 54.1, "per_hh_2wheel": 14.8, "per_hh_4wheel": 3.7, "per_hh_tvcomp": 0.0, "per_hh_no_ast": 35.7, "per_hs_perma": 30.7, "per_hs_sperma": 4.9, "per_hs_temp": 64.3, "per_hs_servc": 38.5, "per_hs_nservc": 25.8, "per_hs_unclss": 0.0, "avghhsz_cy": 4.13888889, "st_areashape": 1027920.425136945, "st_lengthshape": 5647.94406939094}, "geometry": {"type": "Polygon", "coordinates": [[[84.98256789431551, 20.804123285093176], [84.98243825304696, 20.803898159304797], [84.98223985203163, 20.803512974656577], [84.98200337502466, 20.80312767481844], [84.98175928659226, 20.80277677279095], [84.9815685652743, 20.802395290277047], [84.9813244930116, 20.80208635422599], [84.98101176969827, 20.80173727289139], [84.9807676336552, 20.801390145711164], [84.9805768826928, 20.800968719736588], [84.98041669061976, 20.800545267070945], [84.98026417465083, 20.80016195997671], [84.98006587694174, 20.79989107599829], [84.97969962841053, 20.799771000768892], [84.97941741996908, 20.799652732629273], [84.97925725843878, 20.799534457678757], [84.97902073471941, 20.79930367925302], [84.97889864738409, 20.799185426702632], [84.9786622116996, 20.79910530312559], [84.97821214765744, 20.799137746918916], [84.97758662377562, 20.799168197924363], [84.97748744168344, 20.79905001077012], [84.97732719840643, 20.798781078951144], [84.97725099162594, 20.798550310289848], [84.97721279436175, 20.798281371701552], [84.9772128392775, 20.798014385120517], [84.97734253175003, 20.797863743764292], [84.97750266183928, 20.797791238813776], [84.97786888342105, 20.797720720749997], [84.9783952216174, 20.797728352678494], [84.97883771376003, 20.79781221233008], [84.97932591757423, 20.797896207979377], [84.97964625590625, 20.797938108791946], [84.97992852812807, 20.79798007761502], [84.98017269381558, 20.79794573231163], [84.98041679841762, 20.79787328534532], [84.98074478500592, 20.797764639604207], [84.98098888781138, 20.797577705158147], [84.9814007824371, 20.797316441293656], [84.98181280103039, 20.797016976850525], [84.98217892110252, 20.796717568078602], [84.98250700021732, 20.796494428251442], [84.98295698880105, 20.796194988210036], [84.98340708428424, 20.79585937273095], [84.98373511938159, 20.79559619872133], [84.9840250479446, 20.79525670793777], [84.98431488398114, 20.794766562703565], [84.9844445557924, 20.794423295155614], [84.98452849616918, 20.79408191469966], [84.98453615700193, 20.793700463103804], [84.98449797590739, 20.793278938384518], [84.98450566189295, 20.792924174685773], [84.98483367183749, 20.792826933334542], [84.9853218810416, 20.79268009029334], [84.98581010192378, 20.792460816859503], [84.98626020189856, 20.79223765813954], [84.98671023719464, 20.791976397624847], [84.98674841739086, 20.792169038813842], [84.9867788927369, 20.792474121971285], [84.98681701094931, 20.79274305915455], [84.98681705406848, 20.793048236049593], [84.98680942916836, 20.793391494128866], [84.98684757343194, 20.793658498129], [84.986839889243, 20.794078144832305], [84.98687040411487, 20.79442326240346], [84.98690858161615, 20.794652162948903], [84.98703063481547, 20.794844773008382], [84.98731291512215, 20.795079351612177], [84.98751117959355, 20.79531019360648], [84.98754169626208, 20.795540915157158], [84.98754170434692, 20.79576979805089], [84.9876637296985, 20.79600060203796], [84.98781635256695, 20.796155104087944], [84.98802225810815, 20.796349614349626], [84.9883427329841, 20.796467879200506], [84.98866308299418, 20.79658798897112], [84.98890715885014, 20.796782514630607], [84.98910549967835, 20.797015193147587], [84.98950223613198, 20.79732611811439], [84.98986073489728, 20.797598832384132], [84.99022686485088, 20.79775717059502], [84.99058538966732, 20.7978772927756], [84.99095158160468, 20.79795933422168], [84.99139408722202, 20.798043248330483], [84.99176020998912, 20.798087094869796], [84.99212642168945, 20.79805280333664], [84.99242387184633, 20.798058533148883], [84.99244675013996, 20.798211098242337], [84.99256115957456, 20.79855627270121], [84.99275954801348, 20.798865241176088], [84.99291976434101, 20.799210452767642], [84.99307225066555, 20.79955573914849], [84.99327064269775, 20.799864706415903], [84.99355287898695, 20.800211741373516], [84.99394951213436, 20.800524590371825], [84.99435386181005, 20.800759136630028], [84.99475817824808, 20.800917481600674], [84.99512427496401, 20.801071945024106], [84.99507086832374, 20.801350377170145], [84.99398000724332, 20.801211150664358], [84.99285100279758, 20.80104143561963], [84.9919661712259, 20.800837348026782], [84.9912414948963, 20.800558800725618], [84.99059304780509, 20.800396709182404], [84.98994464383303, 20.800425304891004], [84.98933431764921, 20.800568315263714], [84.98888425540365, 20.800715186736696], [84.98835787139325, 20.800896352320205], [84.9874577334274, 20.80122625965162], [84.98668731488355, 20.801596296684384], [84.98586338998643, 20.802042564273183], [84.98508528994859, 20.802601332387844], [84.9841088598623, 20.803198260053577], [84.98336889420656, 20.803644574126643], [84.98256789431551, 20.804123285093176]]]}}]}