{"type": "FeatureCollection", "features": [{"type": "Feature", "properties": {"premiumdata.sde.IN_Village_PCA.area": 0.4670382, "objectid": 569961, "id": "9146990446725", "name": "Palia T Bara Chawar", "subdistrict": "Mohammadabad", "district": "Ghazipur", "state": "Uttar Pradesh", "country": "India", "censusname": "Palia T. Bara Chawar", "villagename_locallang": null, "lgd_villagename": "Palia T. Bara Chawar", "lgd_villagecode": 205740, "lgd_subdistrictcode": 990, "lgd_districtcode": 146, "lgd_statecode": 9, "censuscode2001": "09879900", "censuscode2011": "205740", "censuscode2021": null, "level": "Village", "tru": "Rural", "no_hh": 155, "tot_p": 928, "tot_m": 480, "tot_f": 448, "per_tot_m": 51.72413793, "per_tot_f": 48.27586207, "p_06": 169, "m_06": 88, "f_06": 81, "per_p_06": 18.2112069, "per_m_06": 52.07100592, "per_f_06": 47.92899408, "p_sc": 356, "m_sc": 182, "f_sc": 174, "per_p_sc": 38.36206897, "per_m_sc": 51.12359551, "per_f_sc": 48.87640449, "p_st": 0, "m_st": 0, "f_st": 0, "per_p_st": 0.0, "per_m_st": 0.0, "per_f_st": 0.0, "p_lit": 534, "m_lit": 318, "f_lit": 216, "per_p_lit": 57.54310345, "per_m_lit": 59.5505618, "per_f_lit": 40.4494382, "p_ill": 394, "m_ill": 162, "f_ill": 232, "per_p_ill": 42.45689655, "per_m_ill": 41.11675127, "per_f_ill": 58.88324873000001, "tot_work_p": 321, "tot_work_m": 233, "tot_work_f": 88, "per_tot_work_p": 34.59051724, "per_tot_work_m": 72.58566978, "per_tot_work_f": 27.41433022, "mainwork_p": 152, "mainwork_m": 83, "mainwork_f": 69, "per_mainwork_p": 16.37931034, "per_mainwork_m": 54.60526316000001, "per_mainwork_f": 45.39473684, "main_cl_p": 0, "main_cl_m": 0, "main_cl_f": 0, "per_main_cl_p": 0.0, "per_main_cl_m": 0.0, "per_main_cl_f": 0.0, "main_al_p": 141, "main_al_m": 76, "main_al_f": 65, "per_main_al_p": 92.76315788999999, "per_main_al_m": 53.90070922, "per_main_al_f": 46.09929078, "main_hh_p": 0, "main_hh_m": 0, "main_hh_f": 0, "per_main_hh_p": 0.0, "per_main_hh_m": 0.0, "per_main_hh_f": 0.0, "main_ot_p": 11, "main_ot_m": 7, "main_ot_f": 4, "per_main_ot_p": 7.23684211, "per_main_ot_m": 63.63636364, "per_main_ot_f": 36.36363636, "margwork_p": 169, "margwork_m": 150, "margwork_f": 19, "per_margwork_p": 18.2112069, "per_margwork_m": 88.75739645, "per_margwork_f": 11.24260355, "marg_cl_p": 4, "marg_cl_m": 4, "marg_cl_f": 0, "per_marg_cl_p": 2.36686391, "per_marg_cl_m": 100.0, "per_marg_cl_f": 0.0, "marg_al_p": 153, "marg_al_m": 136, "marg_al_f": 17, "per_marg_al_p": 90.53254438, "per_marg_al_m": 88.88888889, "per_marg_al_f": 11.11111111, "marg_hh_p": 0, "marg_hh_m": 0, "marg_hh_f": 0, "per_marg_hh_p": 0.0, "per_marg_hh_m": 0.0, "per_marg_hh_f": 0.0, "marg_ot_p": 12, "marg_ot_m": 10, "marg_ot_f": 2, "per_marg_ot_p": 7.10059172, "per_marg_ot_m": 83.33333332999999, "per_marg_ot_f": 16.66666667, "margwork_3_6_p": 87, "margwork_3_6_m": 69, "margwork_3_6_f": 18, "per_margwork_3_6_p": 51.47928994, "per_margwork_3_6_m": 79.31034483, "per_margwork_3_6_f": 20.68965517, "marg_cl_3_6_p": 1, "marg_cl_3_6_m": 1, "marg_cl_3_6_f": 0, "per_marg_cl_3_6_p": 0.59171598, "per_marg_cl_3_6_m": 100.0, "per_marg_cl_3_6_f": 0.0, "marg_al_3_6_p": 77, "marg_al_3_6_m": 61, "marg_al_3_6_f": 16, "per_marg_al_3_6_p": 45.56213018, "per_marg_al_3_6_m": 79.22077922, "per_marg_al_3_6_f": 20.77922078, "marg_hh_3_6_p": 0, "marg_hh_3_6_m": 0, "marg_hh_3_6_f": 0, "per_marg_hh_3_6_p": 0.0, "per_marg_hh_3_6_m": 0.0, "per_marg_hh_3_6_f": 0.0, "marg_ot_3_6_p": 9, "marg_ot_3_6_m": 7, "marg_ot_3_6_f": 2, "per_marg_ot_3_6_p": 5.32544379, "per_marg_ot_3_6_m": 77.77777778, "per_marg_ot_3_6_f": 22.22222222, "margwork_0_3_p": 82, "margwork_0_3_m": 81, "margwork_0_3_f": 1, "per_margwork_0_3_p": 48.52071006, "per_margwork_0_3_m": 98.7804878, "per_margwork_0_3_f": 1.2195122, "marg_cl_0_3_p": 3, "marg_cl_0_3_m": 3, "marg_cl_0_3_f": 0, "per_marg_cl_0_3_p": 1.77514793, "per_marg_cl_0_3_m": 100.0, "per_marg_cl_0_3_f": 0.0, "marg_al_0_3_p": 76, "marg_al_0_3_m": 75, "marg_al_0_3_f": 1, "per_marg_al_0_3_p": 44.9704142, "per_marg_al_0_3_m": 98.68421053, "per_marg_al_0_3_f": 1.31578947, "marg_hh_0_3_p": 0, "marg_hh_0_3_m": 0, "marg_hh_0_3_f": 0, "per_marg_hh_0_3_p": 0.0, "per_marg_hh_0_3_m": 0.0, "per_marg_hh_0_3_f": 0.0, "marg_ot_0_3_p": 3, "marg_ot_0_3_m": 3, "marg_ot_0_3_f": 0, "per_marg_ot_0_3_p": 1.77514793, "per_marg_ot_0_3_m": 100.0, "per_marg_ot_0_3_f": 0.0, "non_work_p": 607, "non_work_m": 247, "non_work_f": 360, "per_non_work_p": 65.40948276, "per_non_work_m": 40.69192751, "per_non_work_f": 59.30807249, "per_hc_tot_tot": 100, "per_hc_tot_god": 0.7, "per_hc_tot_liv": 75.2, "per_hc_tot_dil": 24.2, "per_hc_res_tot": 99.3, "per_hc_res_god": 0.7, "per_hc_res_liv": 74.5, "per_hc_res_dil": 24.2, "per_hc_oth_tot": 0.7, "per_hc_oth_god": 0.0, "per_hc_oth_liv": 0.7, "per_hc_oth_dil": 0.0, "per_mt_grsbam": 38.3, "per_mt_plastic": 2.0, "per_mt_h_tiles": 3.4, "per_mt_m_tiles": 0.0, "per_mt_b_brick": 39.6, "per_mt_stone": 8.7, "per_mt_asbstos": 2.0, "per_mt_concrte": 4.7, "per_mt_oth": 1.3, "per_mw_grsbam": 9.4, "per_mw_plastic": 0.7, "per_mw_mud": 22.1, "per_mw_wood": 0.0, "per_mw_no_mrtr": 0.7, "per_mw_st_mrtr": 0.7, "per_mw_asbstos": 0.0, "per_mw_b_brick": 63.8, "per_mw_concrte": 0.0, "per_mw_oth": 2.7, "per_mf_mud": 98.0, "per_mf_wood": 0.0, "per_mf_b_brick": 0.0, "per_mf_stone": 0.0, "per_mf_cement": 2.0, "per_mf_fl_tile": 0.0, "per_mf_oth": 0.0, "per_dw_n_exrm": 10.1, "per_dw_1_room": 65.1, "per_dw_2_room": 11.4, "per_dw_3_room": 6.0, "per_dw_4_room": 2.7, "per_dw_5_room": 2.7, "per_dw_6_room": 2.0, "per_hhsize_1": 1.3, "per_hhsize_2": 4.0, "per_hhsize_3": 11.4, "per_hhsize_4": 12.1, "per_hhsize_5": 22.1, "per_hhsize_6_8": 34.2, "per_hhsize_9p": 14.8, "per_ow_owned": 99.3, "per_ow_rented": 0.0, "per_ow_oth": 0.7, "per_mc_none": 5.4, "per_mcouple_1": 65.8, "per_mcouple_2": 21.5, "per_mcouple_3": 7.4, "per_mcouple_4": 0.0, "per_mcouple_5p": 0.0, "per_dw_t_ts": 0.7, "per_dw_t_unts": 0.7, "per_dw_c_well": 2.7, "per_dw_unc_wel": 0.0, "per_dw_hpump": 96.0, "per_dw_tw_bore": 0.0, "per_dw_spring": 0.0, "per_dw_rivcan": 0.0, "per_dw_tank": 0.0, "per_dw_oth": 0.0, "per_loc_dw_wp": 11.4, "per_loc_dw_np": 63.8, "per_loc_dw_aw": 24.8, "per_light_elec": 0.7, "per_light_kero": 99.3, "per_light_solr": 0.0, "per_light_oil": 0.0, "per_light_oth": 0.0, "per_light_no": 0.0, "per_hh_latrine": 2.7, "per_fl_sewer": 0.0, "per_fl_septict": 2.7, "per_fl_othsys": 0.0, "per_pl_wslab": 0.0, "per_pl_without": 0.0, "per_ns_open": 0.0, "per_sl_ns_hum": 0.0, "per_sl_ns_anml": 0.0, "per_hh_no_lat": 97.3, "per_as_pub": 0.0, "per_as_open": 97.3, "per_hh_bathrm": 2.7, "per_hh_en_wrf": 3.4, "per_hh_no_btrm": 94.0, "per_wwoc_drain": 2.7, "per_wwoc_open": 71.8, "per_wwoc_nodrn": 25.5, "per_cook_fire": 3.4, "per_cook_resdu": 12.1, "per_cook_cwdng": 79.9, "per_cook_coal": 0.0, "per_cook_kero": 2.7, "per_cook_lpng": 2.0, "per_cook_elec": 0.0, "per_cook_biogs": 0.0, "per_cook_oth": 0.0, "per_cook_no": 0.0, "per_kf_inside": 98.7, "per_kf_in_has": 5.4, "per_kf_in_does": 93.3, "per_kf_outside": 1.3, "per_kf_out_has": 0.7, "per_kf_out_dos": 0.7, "per_kf_no_cook": 0.0, "per_hh_banking": 83.2, "per_hh_radio": 4.7, "per_hh_tv": 5.4, "per_hh_cmp_int": 0.0, "per_hh_cmp_wnt": 0.7, "per_hh_ph_ll": 0.0, "per_hh_ph_mob": 40.3, "per_hh_ph_bth": 0.0, "per_hh_bcycl": 61.7, "per_hh_2wheel": 10.1, "per_hh_4wheel": 2.7, "per_hh_tvcomp": 0.0, "per_hh_no_ast": 28.2, "per_hs_perma": 55.0, "per_hs_sperma": 12.1, "per_hs_temp": 29.5, "per_hs_servc": 20.1, "per_hs_nservc": 9.4, "per_hs_unclss": 3.4, "avghhsz_cy": 5.98709677, "st_areashape": 577769.749244585, "st_lengthshape": 3063.332648443769}, "geometry": {"type": "Polygon", "coordinates": [[[83.82516333216864, 25.717567204253264], [83.82496344893309, 25.71781992592653], [83.82330668246134, 25.717007401092946], [83.82262067590976, 25.716874884456516], [83.82056612824367, 25.716844781991256], [83.81847596237658, 25.717081515167074], [83.81867838065783, 25.716744896042407], [83.81877271903406, 25.715986309795806], [83.81867578003511, 25.713759404819772], [83.81876540225606, 25.71249561279187], [83.81898845933101, 25.711942718831704], [83.81924017446013, 25.711710888316514], [83.81949133353211, 25.71147955349535], [83.81999720091973, 25.711337857255486], [83.82070747096711, 25.71135536239845], [83.82154558744911, 25.711486701069784], [83.82163151310264, 25.711482802319306], [83.8221539795601, 25.71145905854561], [83.82319238890942, 25.7113132482317], [83.8239277803437, 25.711307576136278], [83.82443560336371, 25.711372568070484], [83.82593629743634, 25.711843248021296], [83.82598252384255, 25.71185125836304], [83.8264268979557, 25.715743168481477], [83.826581004841, 25.715948662412455], [83.82683558379927, 25.716061484744117], [83.82516333216864, 25.717567204253264]]]}}]}