{"type": "FeatureCollection", "features": [{"type": "Feature", "properties": {"premiumdata.sde.IN_Village_PCA.area": 0.69971297, "objectid": 412291, "id": "9177704391121", "name": "Isharpur", "subdistrict": "Deoband", "district": "Saharanpur", "state": "Uttar Pradesh", "country": "India", "censusname": "Isharpur", "villagename_locallang": null, "lgd_villagename": "Isharpur", "lgd_villagecode": 110244, "lgd_subdistrictcode": 704, "lgd_districtcode": 177, "lgd_statecode": 9, "censuscode2001": "00157800", "censuscode2011": "110244", "censuscode2021": null, "level": "Village", "tru": "Rural", "no_hh": 142, "tot_p": 728, "tot_m": 373, "tot_f": 355, "per_tot_m": 51.23626374, "per_tot_f": 48.76373626, "p_06": 99, "m_06": 48, "f_06": 51, "per_p_06": 13.5989011, "per_m_06": 48.48484848, "per_f_06": 51.51515152, "p_sc": 728, "m_sc": 373, "f_sc": 355, "per_p_sc": 100.0, "per_m_sc": 51.23626374, "per_f_sc": 48.76373626, "p_st": 0, "m_st": 0, "f_st": 0, "per_p_st": 0.0, "per_m_st": 0.0, "per_f_st": 0.0, "p_lit": 428, "m_lit": 274, "f_lit": 154, "per_p_lit": 58.79120879000001, "per_m_lit": 64.01869159, "per_f_lit": 35.98130841, "p_ill": 300, "m_ill": 99, "f_ill": 201, "per_p_ill": 41.20879121, "per_m_ill": 33.0, "per_f_ill": 67.0, "tot_work_p": 288, "tot_work_m": 194, "tot_work_f": 94, "per_tot_work_p": 39.56043956, "per_tot_work_m": 67.36111111, "per_tot_work_f": 32.63888889, "mainwork_p": 193, "mainwork_m": 184, "mainwork_f": 9, "per_mainwork_p": 26.51098901, "per_mainwork_m": 95.33678756, "per_mainwork_f": 4.66321244, "main_cl_p": 7, "main_cl_m": 5, "main_cl_f": 2, "per_main_cl_p": 3.62694301, "per_main_cl_m": 71.42857143, "per_main_cl_f": 28.57142857, "main_al_p": 78, "main_al_m": 77, "main_al_f": 1, "per_main_al_p": 40.41450777, "per_main_al_m": 98.71794872, "per_main_al_f": 1.28205128, "main_hh_p": 0, "main_hh_m": 0, "main_hh_f": 0, "per_main_hh_p": 0.0, "per_main_hh_m": 0.0, "per_main_hh_f": 0.0, "main_ot_p": 108, "main_ot_m": 102, "main_ot_f": 6, "per_main_ot_p": 55.95854922, "per_main_ot_m": 94.44444444, "per_main_ot_f": 5.55555556, "margwork_p": 95, "margwork_m": 10, "margwork_f": 85, "per_margwork_p": 13.04945055, "per_margwork_m": 10.52631579, "per_margwork_f": 89.47368421, "marg_cl_p": 0, "marg_cl_m": 0, "marg_cl_f": 0, "per_marg_cl_p": 0.0, "per_marg_cl_m": 0.0, "per_marg_cl_f": 0.0, "marg_al_p": 90, "marg_al_m": 7, "marg_al_f": 83, "per_marg_al_p": 94.73684211, "per_marg_al_m": 7.77777778, "per_marg_al_f": 92.22222222, "marg_hh_p": 1, "marg_hh_m": 0, "marg_hh_f": 1, "per_marg_hh_p": 1.05263158, "per_marg_hh_m": 0.0, "per_marg_hh_f": 100.0, "marg_ot_p": 4, "marg_ot_m": 3, "marg_ot_f": 1, "per_marg_ot_p": 4.21052632, "per_marg_ot_m": 75.0, "per_marg_ot_f": 25.0, "margwork_3_6_p": 37, "margwork_3_6_m": 4, "margwork_3_6_f": 33, "per_margwork_3_6_p": 38.94736842, "per_margwork_3_6_m": 10.81081081, "per_margwork_3_6_f": 89.18918919, "marg_cl_3_6_p": 0, "marg_cl_3_6_m": 0, "marg_cl_3_6_f": 0, "per_marg_cl_3_6_p": 0.0, "per_marg_cl_3_6_m": 0.0, "per_marg_cl_3_6_f": 0.0, "marg_al_3_6_p": 35, "marg_al_3_6_m": 3, "marg_al_3_6_f": 32, "per_marg_al_3_6_p": 36.84210526, "per_marg_al_3_6_m": 8.57142857, "per_marg_al_3_6_f": 91.42857143, "marg_hh_3_6_p": 1, "marg_hh_3_6_m": 0, "marg_hh_3_6_f": 1, "per_marg_hh_3_6_p": 1.05263158, "per_marg_hh_3_6_m": 0.0, "per_marg_hh_3_6_f": 100.0, "marg_ot_3_6_p": 1, "marg_ot_3_6_m": 1, "marg_ot_3_6_f": 0, "per_marg_ot_3_6_p": 1.05263158, "per_marg_ot_3_6_m": 100.0, "per_marg_ot_3_6_f": 0.0, "margwork_0_3_p": 58, "margwork_0_3_m": 6, "margwork_0_3_f": 52, "per_margwork_0_3_p": 61.05263158, "per_margwork_0_3_m": 10.34482759, "per_margwork_0_3_f": 89.65517241, "marg_cl_0_3_p": 0, "marg_cl_0_3_m": 0, "marg_cl_0_3_f": 0, "per_marg_cl_0_3_p": 0.0, "per_marg_cl_0_3_m": 0.0, "per_marg_cl_0_3_f": 0.0, "marg_al_0_3_p": 55, "marg_al_0_3_m": 4, "marg_al_0_3_f": 51, "per_marg_al_0_3_p": 57.89473684, "per_marg_al_0_3_m": 7.27272727, "per_marg_al_0_3_f": 92.72727273, "marg_hh_0_3_p": 0, "marg_hh_0_3_m": 0, "marg_hh_0_3_f": 0, "per_marg_hh_0_3_p": 0.0, "per_marg_hh_0_3_m": 0.0, "per_marg_hh_0_3_f": 0.0, "marg_ot_0_3_p": 3, "marg_ot_0_3_m": 2, "marg_ot_0_3_f": 1, "per_marg_ot_0_3_p": 3.15789474, "per_marg_ot_0_3_m": 66.66666667, "per_marg_ot_0_3_f": 33.33333333, "non_work_p": 440, "non_work_m": 179, "non_work_f": 261, "per_non_work_p": 60.43956044, "per_non_work_m": 40.68181818, "per_non_work_f": 59.31818182, "per_hc_tot_tot": 100, "per_hc_tot_god": 7.3, "per_hc_tot_liv": 85.4, "per_hc_tot_dil": 7.3, "per_hc_res_tot": 98.7, "per_hc_res_god": 7.3, "per_hc_res_liv": 84.1, "per_hc_res_dil": 7.3, "per_hc_oth_tot": 1.3, "per_hc_oth_god": 0.0, "per_hc_oth_liv": 1.3, "per_hc_oth_dil": 0.0, "per_mt_grsbam": 30.5, "per_mt_plastic": 0.0, "per_mt_h_tiles": 0.0, "per_mt_m_tiles": 0.0, "per_mt_b_brick": 44.4, "per_mt_stone": 0.0, "per_mt_asbstos": 0.0, "per_mt_concrte": 25.2, "per_mt_oth": 0.0, "per_mw_grsbam": 6.0, "per_mw_plastic": 0.0, "per_mw_mud": 0.0, "per_mw_wood": 0.0, "per_mw_no_mrtr": 0.0, "per_mw_st_mrtr": 0.0, "per_mw_asbstos": 0.0, "per_mw_b_brick": 93.4, "per_mw_concrte": 0.7, "per_mw_oth": 0.0, "per_mf_mud": 96.7, "per_mf_wood": 0.0, "per_mf_b_brick": 0.0, "per_mf_stone": 0.0, "per_mf_cement": 3.3, "per_mf_fl_tile": 0.0, "per_mf_oth": 0.0, "per_dw_n_exrm": 2.0, "per_dw_1_room": 31.1, "per_dw_2_room": 41.1, "per_dw_3_room": 19.9, "per_dw_4_room": 4.0, "per_dw_5_room": 1.3, "per_dw_6_room": 0.7, "per_hhsize_1": 0.7, "per_hhsize_2": 8.6, "per_hhsize_3": 13.2, "per_hhsize_4": 11.9, "per_hhsize_5": 20.5, "per_hhsize_6_8": 42.4, "per_hhsize_9p": 2.6, "per_ow_owned": 100.0, "per_ow_rented": 0.0, "per_ow_oth": 0.0, "per_mc_none": 9.3, "per_mcouple_1": 80.8, "per_mcouple_2": 8.6, "per_mcouple_3": 0.7, "per_mcouple_4": 0.7, "per_mcouple_5p": 0.0, "per_dw_t_ts": 0.0, "per_dw_t_unts": 0.0, "per_dw_c_well": 0.0, "per_dw_unc_wel": 0.0, "per_dw_hpump": 100.0, "per_dw_tw_bore": 0.0, "per_dw_spring": 0.0, "per_dw_rivcan": 0.0, "per_dw_tank": 0.0, "per_dw_oth": 0.0, "per_loc_dw_wp": 87.4, "per_loc_dw_np": 5.3, "per_loc_dw_aw": 7.3, "per_light_elec": 73.5, "per_light_kero": 26.5, "per_light_solr": 0.0, "per_light_oil": 0.0, "per_light_oth": 0.0, "per_light_no": 0.0, "per_hh_latrine": 20.5, "per_fl_sewer": 0.0, "per_fl_septict": 5.3, "per_fl_othsys": 0.0, "per_pl_wslab": 11.9, "per_pl_without": 0.0, "per_ns_open": 3.3, "per_sl_ns_hum": 0.0, "per_sl_ns_anml": 0.0, "per_hh_no_lat": 79.5, "per_as_pub": 0.0, "per_as_open": 79.5, "per_hh_bathrm": 22.5, "per_hh_en_wrf": 15.2, "per_hh_no_btrm": 62.3, "per_wwoc_drain": 0.0, "per_wwoc_open": 100.0, "per_wwoc_nodrn": 0.0, "per_cook_fire": 45.7, "per_cook_resdu": 4.0, "per_cook_cwdng": 44.4, "per_cook_coal": 0.7, "per_cook_kero": 0.0, "per_cook_lpng": 4.0, "per_cook_elec": 0.0, "per_cook_biogs": 0.0, "per_cook_oth": 0.0, "per_cook_no": 1.3, "per_kf_inside": 3.3, "per_kf_in_has": 3.3, "per_kf_in_does": 0.0, "per_kf_outside": 95.4, "per_kf_out_has": 14.6, "per_kf_out_dos": 80.8, "per_kf_no_cook": 1.3, "per_hh_banking": 54.3, "per_hh_radio": 9.9, "per_hh_tv": 40.4, "per_hh_cmp_int": 0.0, "per_hh_cmp_wnt": 1.3, "per_hh_ph_ll": 0.0, "per_hh_ph_mob": 65.6, "per_hh_ph_bth": 1.3, "per_hh_bcycl": 60.9, "per_hh_2wheel": 8.6, "per_hh_4wheel": 0.0, "per_hh_tvcomp": 0.0, "per_hh_no_ast": 14.6, "per_hs_perma": 69.5, "per_hs_sperma": 24.5, "per_hs_temp": 6.0, "per_hs_servc": 0.0, "per_hs_nservc": 6.0, "per_hs_unclss": 0.0, "avghhsz_cy": 5.12676056, "st_areashape": 929974.491803065, "st_lengthshape": 3865.7472942027166}, "geometry": {"type": "Polygon", "coordinates": [[[77.65871872118161, 29.67240565856113], [77.65799268839598, 29.668924289749224], [77.65782812422243, 29.668384923039138], [77.6573058239533, 29.667568360156025], [77.65689061454415, 29.66632678249972], [77.65655576572537, 29.66540833264944], [77.65668200687054, 29.665304787175064], [77.65760681706566, 29.665142742934343], [77.65803909177028, 29.665047523594712], [77.65861771910266, 29.66514350087321], [77.65883100520226, 29.66517605243121], [77.65945357272844, 29.664898793250682], [77.65973664804413, 29.66469253012141], [77.66011151770715, 29.664488762866267], [77.6604519765049, 29.664391041144135], [77.66097319969397, 29.66437846675713], [77.66262680948583, 29.664396694114714], [77.66305336551535, 29.66446177350537], [77.66338810833292, 29.664524370608333], [77.66399735294516, 29.664621161750024], [77.66428660597505, 29.664696554787135], [77.66428184670066, 29.664830141437157], [77.66447895054874, 29.665316921982996], [77.66483287329594, 29.665700967680614], [77.66532461287912, 29.66651668085768], [77.66554470820857, 29.667218030055444], [77.66558020873026, 29.66794111201019], [77.66561667853419, 29.668637469815433], [77.66569136267027, 29.66912090369346], [77.66574652282198, 29.6696075955674], [77.66576128753198, 29.66973793645448], [77.66564853459079, 29.670323256965183], [77.66576825576367, 29.67126258009104], [77.66569181092959, 29.671688422833455], [77.66538400050256, 29.672589379351265], [77.66473380349318, 29.67364149233454], [77.66413423463487, 29.674587804304284], [77.66364886859864, 29.674400312649205], [77.66328826058911, 29.674203303163615], [77.6624225676245, 29.67356464566772], [77.66164679601988, 29.672981910355094], [77.66067596333613, 29.672714819411436], [77.65994714397645, 29.672534521422925], [77.65888068832568, 29.672371799631225], [77.65871872118161, 29.67240565856113]]]}}]}