{"type": "FeatureCollection", "features": [{"type": "Feature", "properties": {"premiumdata.sde.IN_Village_PCA.area": 5.46562572, "objectid": 339345, "id": "9149867440590", "name": "Bahdeena Achhpura Danda", "subdistrict": "Maudaha", "district": "Hamirpur", "state": "Uttar Pradesh", "country": "India", "censusname": "Bahdeena Achhpura Danda", "villagename_locallang": null, "lgd_villagename": "Bahdeena Achhpura Danda", "lgd_villagecode": 154079, "lgd_subdistrictcode": 867, "lgd_districtcode": 149, "lgd_statecode": 9, "censuscode2001": "04710700", "censuscode2011": "154079", "censuscode2021": null, "level": "Village", "tru": "Rural", "no_hh": 440, "tot_p": 2364, "tot_m": 1267, "tot_f": 1097, "per_tot_m": 53.59560068, "per_tot_f": 46.40439932, "p_06": 380, "m_06": 204, "f_06": 176, "per_p_06": 16.07445008, "per_m_06": 53.68421053, "per_f_06": 46.31578947, "p_sc": 76, "m_sc": 45, "f_sc": 31, "per_p_sc": 3.21489002, "per_m_sc": 59.21052632000001, "per_f_sc": 40.78947368, "p_st": 0, "m_st": 0, "f_st": 0, "per_p_st": 0.0, "per_m_st": 0.0, "per_f_st": 0.0, "p_lit": 1184, "m_lit": 761, "f_lit": 423, "per_p_lit": 50.08460237, "per_m_lit": 64.27364865, "per_f_lit": 35.72635135, "p_ill": 1180, "m_ill": 506, "f_ill": 674, "per_p_ill": 49.91539763, "per_m_ill": 42.88135593000001, "per_f_ill": 57.11864407, "tot_work_p": 896, "tot_work_m": 617, "tot_work_f": 279, "per_tot_work_p": 37.90186125, "per_tot_work_m": 68.86160714, "per_tot_work_f": 31.13839286, "mainwork_p": 500, "mainwork_m": 418, "mainwork_f": 82, "per_mainwork_p": 21.15059222, "per_mainwork_m": 83.6, "per_mainwork_f": 16.4, "main_cl_p": 424, "main_cl_m": 360, "main_cl_f": 64, "per_main_cl_p": 84.8, "per_main_cl_m": 84.90566038, "per_main_cl_f": 15.09433962, "main_al_p": 42, "main_al_m": 30, "main_al_f": 12, "per_main_al_p": 8.4, "per_main_al_m": 71.42857143, "per_main_al_f": 28.57142857, "main_hh_p": 1, "main_hh_m": 1, "main_hh_f": 0, "per_main_hh_p": 0.2, "per_main_hh_m": 100.0, "per_main_hh_f": 0.0, "main_ot_p": 33, "main_ot_m": 27, "main_ot_f": 6, "per_main_ot_p": 6.6, "per_main_ot_m": 81.81818182, "per_main_ot_f": 18.18181818, "margwork_p": 396, "margwork_m": 199, "margwork_f": 197, "per_margwork_p": 16.75126904, "per_margwork_m": 50.25252525, "per_margwork_f": 49.74747475, "marg_cl_p": 155, "marg_cl_m": 37, "marg_cl_f": 118, "per_marg_cl_p": 39.14141414, "per_marg_cl_m": 23.87096774, "per_marg_cl_f": 76.12903226, "marg_al_p": 179, "marg_al_m": 104, "marg_al_f": 75, "per_marg_al_p": 45.2020202, "per_marg_al_m": 58.10055866, "per_marg_al_f": 41.89944134, "marg_hh_p": 0, "marg_hh_m": 0, "marg_hh_f": 0, "per_marg_hh_p": 0.0, "per_marg_hh_m": 0.0, "per_marg_hh_f": 0.0, "marg_ot_p": 62, "marg_ot_m": 58, "marg_ot_f": 4, "per_marg_ot_p": 15.65656566, "per_marg_ot_m": 93.5483871, "per_marg_ot_f": 6.4516129, "margwork_3_6_p": 231, "margwork_3_6_m": 147, "margwork_3_6_f": 84, "per_margwork_3_6_p": 58.33333333, "per_margwork_3_6_m": 63.63636364, "per_margwork_3_6_f": 36.36363636, "marg_cl_3_6_p": 42, "marg_cl_3_6_m": 10, "marg_cl_3_6_f": 32, "per_marg_cl_3_6_p": 10.60606061, "per_marg_cl_3_6_m": 23.80952381, "per_marg_cl_3_6_f": 76.19047619, "marg_al_3_6_p": 130, "marg_al_3_6_m": 79, "marg_al_3_6_f": 51, "per_marg_al_3_6_p": 32.82828283, "per_marg_al_3_6_m": 60.76923077, "per_marg_al_3_6_f": 39.23076923, "marg_hh_3_6_p": 0, "marg_hh_3_6_m": 0, "marg_hh_3_6_f": 0, "per_marg_hh_3_6_p": 0.0, "per_marg_hh_3_6_m": 0.0, "per_marg_hh_3_6_f": 0.0, "marg_ot_3_6_p": 59, "marg_ot_3_6_m": 58, "marg_ot_3_6_f": 1, "per_marg_ot_3_6_p": 14.8989899, "per_marg_ot_3_6_m": 98.30508475, "per_marg_ot_3_6_f": 1.69491525, "margwork_0_3_p": 165, "margwork_0_3_m": 52, "margwork_0_3_f": 113, "per_margwork_0_3_p": 41.66666667000001, "per_margwork_0_3_m": 31.51515152, "per_margwork_0_3_f": 68.48484848000001, "marg_cl_0_3_p": 113, "marg_cl_0_3_m": 27, "marg_cl_0_3_f": 86, "per_marg_cl_0_3_p": 28.53535354, "per_marg_cl_0_3_m": 23.89380531, "per_marg_cl_0_3_f": 76.10619469, "marg_al_0_3_p": 49, "marg_al_0_3_m": 25, "marg_al_0_3_f": 24, "per_marg_al_0_3_p": 12.37373737, "per_marg_al_0_3_m": 51.02040816, "per_marg_al_0_3_f": 48.97959184, "marg_hh_0_3_p": 0, "marg_hh_0_3_m": 0, "marg_hh_0_3_f": 0, "per_marg_hh_0_3_p": 0.0, "per_marg_hh_0_3_m": 0.0, "per_marg_hh_0_3_f": 0.0, "marg_ot_0_3_p": 3, "marg_ot_0_3_m": 0, "marg_ot_0_3_f": 3, "per_marg_ot_0_3_p": 0.75757576, "per_marg_ot_0_3_m": 0.0, "per_marg_ot_0_3_f": 100.0, "non_work_p": 1468, "non_work_m": 650, "non_work_f": 818, "per_non_work_p": 62.09813875, "per_non_work_m": 44.27792916, "per_non_work_f": 55.72207084, "per_hc_tot_tot": 100, "per_hc_tot_god": 42.9, "per_hc_tot_liv": 47.2, "per_hc_tot_dil": 9.9, "per_hc_res_tot": 87.4, "per_hc_res_god": 40.2, "per_hc_res_liv": 37.9, "per_hc_res_dil": 9.3, "per_hc_oth_tot": 12.6, "per_hc_oth_god": 2.7, "per_hc_oth_liv": 9.3, "per_hc_oth_dil": 0.7, "per_mt_grsbam": 17.6, "per_mt_plastic": 0.7, "per_mt_h_tiles": 65.0, "per_mt_m_tiles": 0.0, "per_mt_b_brick": 3.8, "per_mt_stone": 1.8, "per_mt_asbstos": 0.2, "per_mt_concrte": 10.8, "per_mt_oth": 0.0, "per_mw_grsbam": 0.9, "per_mw_plastic": 0.0, "per_mw_mud": 65.9, "per_mw_wood": 0.0, "per_mw_no_mrtr": 6.1, "per_mw_st_mrtr": 3.6, "per_mw_asbstos": 0.0, "per_mw_b_brick": 23.0, "per_mw_concrte": 0.5, "per_mw_oth": 0.0, "per_mf_mud": 96.8, "per_mf_wood": 0.2, "per_mf_b_brick": 0.7, "per_mf_stone": 0.5, "per_mf_cement": 1.8, "per_mf_fl_tile": 0.0, "per_mf_oth": 0.0, "per_dw_n_exrm": 0.0, "per_dw_1_room": 29.3, "per_dw_2_room": 33.0, "per_dw_3_room": 16.0, "per_dw_4_room": 11.7, "per_dw_5_room": 6.1, "per_dw_6_room": 3.8, "per_hhsize_1": 3.6, "per_hhsize_2": 10.2, "per_hhsize_3": 6.8, "per_hhsize_4": 15.6, "per_hhsize_5": 19.9, "per_hhsize_6_8": 35.4, "per_hhsize_9p": 8.6, "per_ow_owned": 98.4, "per_ow_rented": 0.0, "per_ow_oth": 1.6, "per_mc_none": 8.1, "per_mcouple_1": 76.5, "per_mcouple_2": 12.2, "per_mcouple_3": 2.5, "per_mcouple_4": 0.7, "per_mcouple_5p": 0.0, "per_dw_t_ts": 0.5, "per_dw_t_unts": 0.0, "per_dw_c_well": 0.2, "per_dw_unc_wel": 0.0, "per_dw_hpump": 99.1, "per_dw_tw_bore": 0.0, "per_dw_spring": 0.0, "per_dw_rivcan": 0.2, "per_dw_tank": 0.0, "per_dw_oth": 0.0, "per_loc_dw_wp": 7.9, "per_loc_dw_np": 64.6, "per_loc_dw_aw": 27.5, "per_light_elec": 0.9, "per_light_kero": 98.2, "per_light_solr": 0.7, "per_light_oil": 0.0, "per_light_oth": 0.2, "per_light_no": 0.0, "per_hh_latrine": 4.5, "per_fl_sewer": 0.0, "per_fl_septict": 2.7, "per_fl_othsys": 0.2, "per_pl_wslab": 1.4, "per_pl_without": 0.2, "per_ns_open": 0.0, "per_sl_ns_hum": 0.0, "per_sl_ns_anml": 0.0, "per_hh_no_lat": 95.5, "per_as_pub": 0.0, "per_as_open": 95.5, "per_hh_bathrm": 6.1, "per_hh_en_wrf": 46.7, "per_hh_no_btrm": 47.2, "per_wwoc_drain": 0.2, "per_wwoc_open": 0.9, "per_wwoc_nodrn": 98.9, "per_cook_fire": 72.2, "per_cook_resdu": 12.2, "per_cook_cwdng": 15.6, "per_cook_coal": 0.0, "per_cook_kero": 0.0, "per_cook_lpng": 0.0, "per_cook_elec": 0.0, "per_cook_biogs": 0.0, "per_cook_oth": 0.0, "per_cook_no": 0.0, "per_kf_inside": 98.4, "per_kf_in_has": 13.3, "per_kf_in_does": 85.1, "per_kf_outside": 1.6, "per_kf_out_has": 1.6, "per_kf_out_dos": 0.0, "per_kf_no_cook": 0.0, "per_hh_banking": 97.1, "per_hh_radio": 36.6, "per_hh_tv": 2.5, "per_hh_cmp_int": 0.0, "per_hh_cmp_wnt": 0.5, "per_hh_ph_ll": 1.1, "per_hh_ph_mob": 46.7, "per_hh_ph_bth": 1.4, "per_hh_bcycl": 52.8, "per_hh_2wheel": 5.2, "per_hh_4wheel": 0.0, "per_hh_tvcomp": 0.0, "per_hh_no_ast": 28.4, "per_hs_perma": 30.0, "per_hs_sperma": 54.9, "per_hs_temp": 15.1, "per_hs_servc": 14.9, "per_hs_nservc": 0.2, "per_hs_unclss": 0.0, "avghhsz_cy": 5.37272727, "st_areashape": 6780289.036059745, "st_lengthshape": 11388.006594111042}, "geometry": {"type": "Polygon", "coordinates": [[[79.98566860887956, 25.88359596772881], [79.98556892822238, 25.883735672892517], [79.98433931336315, 25.8854589919161], [79.98268454564291, 25.88664159737956], [79.9819067249811, 25.887801022381588], [79.98148104391068, 25.888209077229334], [79.98091657851876, 25.8885790669236], [79.98058852904835, 25.88909661284741], [79.98007285115949, 25.890079730337373], [79.97977398256279, 25.89119213188657], [79.9795840778134, 25.891783746400126], [79.97801197396393, 25.89390415253647], [79.97716396613235, 25.89563889535293], [79.97634446543798, 25.896896722581918], [79.97587597335607, 25.897466252116917], [79.97536516613269, 25.898281091126798], [79.97495715133063, 25.898114810244156], [79.97490906990339, 25.8981075720975], [79.97419119471881, 25.897415461162616], [79.9737811542158, 25.89695013768422], [79.97301243708107, 25.89648851674982], [79.97094299265261, 25.895233237210434], [79.96900818682063, 25.894250111730752], [79.96704038047838, 25.892888200044347], [79.96609795432056, 25.892117785272927], [79.96449794879834, 25.89024789988061], [79.96376218635982, 25.88906622355947], [79.96363087961475, 25.88861397640085], [79.96359979610929, 25.8881271767253], [79.96385212748271, 25.887392389088053], [79.96434283490159, 25.88669713373983], [79.96473974562844, 25.88567628870174], [79.96540775982315, 25.883983934040188], [79.96547727774802, 25.883444569364997], [79.96508207831182, 25.882159860831493], [79.9647705605376, 25.881758967652438], [79.96437677325304, 25.881500984680716], [79.96358595396909, 25.881165092434852], [79.9611107360352, 25.880335972008915], [79.96012597227804, 25.87970899280944], [79.95977527178775, 25.87927149311751], [79.95964369464976, 25.87883724736096], [79.95963320322555, 25.878314713303855], [79.95994445330183, 25.87762583082133], [79.96023530263801, 25.876963654370037], [79.96168898877013, 25.874787561289015], [79.96440706444442, 25.870981934118635], [79.9664517548969, 25.868057955593144], [79.967773450666, 25.86656434134552], [79.96861391085255, 25.86524375362065], [79.97028090374553, 25.86337694039891], [79.97201581107056, 25.86155529495006], [79.97269823514078, 25.86247390795549], [79.97284457429382, 25.862789272173757], [79.97605569031181, 25.867570304102685], [79.97655166006165, 25.8690561686039], [79.97737052115554, 25.871233906230316], [79.97858591478547, 25.873798858262194], [79.97988411871157, 25.875496220526095], [79.9800452028117, 25.875725926966044], [79.980137096872, 25.87610288894305], [79.98018216714641, 25.87658508187945], [79.98018181500684, 25.876898172831613], [79.98177465915961, 25.87843767002339], [79.98225758716816, 25.8789044194517], [79.98313444259844, 25.879901711577112], [79.983520035451, 25.881861226553415], [79.98407138094821, 25.88276103074993], [79.98414488290138, 25.88283586642421], [79.98462977822041, 25.8828801592286], [79.98493102914922, 25.88294398386653], [79.98502282798812, 25.883131850567857], [79.98511522869826, 25.883383778981464], [79.98539196280637, 25.883447765795353], [79.98566860887956, 25.88359596772881]]]}}]}