{"type": "FeatureCollection", "features": [{"type": "Feature", "properties": {"premiumdata.sde.IN_Village_PCA.area": 5.51993271, "objectid": 339148, "id": "9149867441706", "name": "Chilli", "subdistrict": "Maudaha", "district": "Hamirpur", "state": "Uttar Pradesh", "country": "India", "censusname": "Chilli", "villagename_locallang": null, "lgd_villagename": "Chilli", "lgd_villagecode": 154111, "lgd_subdistrictcode": 867, "lgd_districtcode": 149, "lgd_statecode": 9, "censuscode2001": "04713900", "censuscode2011": "154111", "censuscode2021": null, "level": "Village", "tru": "Rural", "no_hh": 301, "tot_p": 1600, "tot_m": 882, "tot_f": 718, "per_tot_m": 55.125, "per_tot_f": 44.875, "p_06": 202, "m_06": 118, "f_06": 84, "per_p_06": 12.625, "per_m_06": 58.41584158, "per_f_06": 41.58415842, "p_sc": 453, "m_sc": 252, "f_sc": 201, "per_p_sc": 28.3125, "per_m_sc": 55.62913907, "per_f_sc": 44.37086093, "p_st": 0, "m_st": 0, "f_st": 0, "per_p_st": 0.0, "per_m_st": 0.0, "per_f_st": 0.0, "p_lit": 1057, "m_lit": 657, "f_lit": 400, "per_p_lit": 66.0625, "per_m_lit": 62.15704825, "per_f_lit": 37.84295175, "p_ill": 543, "m_ill": 225, "f_ill": 318, "per_p_ill": 33.9375, "per_m_ill": 41.43646409, "per_f_ill": 58.56353591, "tot_work_p": 554, "tot_work_m": 421, "tot_work_f": 133, "per_tot_work_p": 34.625, "per_tot_work_m": 75.99277978, "per_tot_work_f": 24.00722022, "mainwork_p": 306, "mainwork_m": 239, "mainwork_f": 67, "per_mainwork_p": 19.125, "per_mainwork_m": 78.10457516, "per_mainwork_f": 21.89542484, "main_cl_p": 103, "main_cl_m": 97, "main_cl_f": 6, "per_main_cl_p": 33.66013072, "per_main_cl_m": 94.17475728, "per_main_cl_f": 5.82524272, "main_al_p": 144, "main_al_m": 87, "main_al_f": 57, "per_main_al_p": 47.05882353, "per_main_al_m": 60.41666667000001, "per_main_al_f": 39.58333333, "main_hh_p": 1, "main_hh_m": 0, "main_hh_f": 1, "per_main_hh_p": 0.32679739, "per_main_hh_m": 0.0, "per_main_hh_f": 100.0, "main_ot_p": 58, "main_ot_m": 55, "main_ot_f": 3, "per_main_ot_p": 18.95424837, "per_main_ot_m": 94.82758621, "per_main_ot_f": 5.17241379, "margwork_p": 248, "margwork_m": 182, "margwork_f": 66, "per_margwork_p": 15.5, "per_margwork_m": 73.38709677, "per_margwork_f": 26.61290323, "marg_cl_p": 16, "marg_cl_m": 7, "marg_cl_f": 9, "per_marg_cl_p": 6.4516129, "per_marg_cl_m": 43.75, "per_marg_cl_f": 56.25, "marg_al_p": 180, "marg_al_m": 141, "marg_al_f": 39, "per_marg_al_p": 72.58064516, "per_marg_al_m": 78.33333332999999, "per_marg_al_f": 21.66666667, "marg_hh_p": 0, "marg_hh_m": 0, "marg_hh_f": 0, "per_marg_hh_p": 0.0, "per_marg_hh_m": 0.0, "per_marg_hh_f": 0.0, "marg_ot_p": 52, "marg_ot_m": 34, "marg_ot_f": 18, "per_marg_ot_p": 20.96774194, "per_marg_ot_m": 65.38461538, "per_marg_ot_f": 34.61538462, "margwork_3_6_p": 207, "margwork_3_6_m": 164, "margwork_3_6_f": 43, "per_margwork_3_6_p": 83.46774194, "per_margwork_3_6_m": 79.22705314000001, "per_margwork_3_6_f": 20.77294686, "marg_cl_3_6_p": 5, "marg_cl_3_6_m": 2, "marg_cl_3_6_f": 3, "per_marg_cl_3_6_p": 2.01612903, "per_marg_cl_3_6_m": 40.0, "per_marg_cl_3_6_f": 60.0, "marg_al_3_6_p": 151, "marg_al_3_6_m": 129, "marg_al_3_6_f": 22, "per_marg_al_3_6_p": 60.88709677, "per_marg_al_3_6_m": 85.43046358000001, "per_marg_al_3_6_f": 14.56953642, "marg_hh_3_6_p": 0, "marg_hh_3_6_m": 0, "marg_hh_3_6_f": 0, "per_marg_hh_3_6_p": 0.0, "per_marg_hh_3_6_m": 0.0, "per_marg_hh_3_6_f": 0.0, "marg_ot_3_6_p": 51, "marg_ot_3_6_m": 33, "marg_ot_3_6_f": 18, "per_marg_ot_3_6_p": 20.56451613, "per_marg_ot_3_6_m": 64.70588235, "per_marg_ot_3_6_f": 35.29411765, "margwork_0_3_p": 41, "margwork_0_3_m": 18, "margwork_0_3_f": 23, "per_margwork_0_3_p": 16.53225806, "per_margwork_0_3_m": 43.90243902, "per_margwork_0_3_f": 56.09756098, "marg_cl_0_3_p": 11, "marg_cl_0_3_m": 5, "marg_cl_0_3_f": 6, "per_marg_cl_0_3_p": 4.43548387, "per_marg_cl_0_3_m": 45.45454545, "per_marg_cl_0_3_f": 54.54545455, "marg_al_0_3_p": 29, "marg_al_0_3_m": 12, "marg_al_0_3_f": 17, "per_marg_al_0_3_p": 11.69354839, "per_marg_al_0_3_m": 41.37931034, "per_marg_al_0_3_f": 58.62068966, "marg_hh_0_3_p": 0, "marg_hh_0_3_m": 0, "marg_hh_0_3_f": 0, "per_marg_hh_0_3_p": 0.0, "per_marg_hh_0_3_m": 0.0, "per_marg_hh_0_3_f": 0.0, "marg_ot_0_3_p": 1, "marg_ot_0_3_m": 1, "marg_ot_0_3_f": 0, "per_marg_ot_0_3_p": 0.40322581, "per_marg_ot_0_3_m": 100.0, "per_marg_ot_0_3_f": 0.0, "non_work_p": 1046, "non_work_m": 461, "non_work_f": 585, "per_non_work_p": 65.375, "per_non_work_m": 44.07265774, "per_non_work_f": 55.92734226, "per_hc_tot_tot": 100, "per_hc_tot_god": 14.1, "per_hc_tot_liv": 81.2, "per_hc_tot_dil": 4.6, "per_hc_res_tot": 88.8, "per_hc_res_god": 12.2, "per_hc_res_liv": 72.0, "per_hc_res_dil": 4.6, "per_hc_oth_tot": 11.2, "per_hc_oth_god": 2.0, "per_hc_oth_liv": 9.2, "per_hc_oth_dil": 0.0, "per_mt_grsbam": 26.0, "per_mt_plastic": 0.0, "per_mt_h_tiles": 35.5, "per_mt_m_tiles": 0.0, "per_mt_b_brick": 0.3, "per_mt_stone": 0.3, "per_mt_asbstos": 0.0, "per_mt_concrte": 37.8, "per_mt_oth": 0.0, "per_mw_grsbam": 0.0, "per_mw_plastic": 0.0, "per_mw_mud": 57.6, "per_mw_wood": 0.0, "per_mw_no_mrtr": 0.3, "per_mw_st_mrtr": 0.3, "per_mw_asbstos": 0.0, "per_mw_b_brick": 26.3, "per_mw_concrte": 0.0, "per_mw_oth": 15.5, "per_mf_mud": 65.8, "per_mf_wood": 0.0, "per_mf_b_brick": 0.7, "per_mf_stone": 0.0, "per_mf_cement": 33.2, "per_mf_fl_tile": 0.3, "per_mf_oth": 0.0, "per_dw_n_exrm": 0.0, "per_dw_1_room": 13.5, "per_dw_2_room": 32.2, "per_dw_3_room": 24.7, "per_dw_4_room": 17.1, "per_dw_5_room": 3.3, "per_dw_6_room": 9.2, "per_hhsize_1": 2.3, "per_hhsize_2": 5.6, "per_hhsize_3": 9.5, "per_hhsize_4": 13.2, "per_hhsize_5": 24.0, "per_hhsize_6_8": 36.5, "per_hhsize_9p": 8.9, "per_ow_owned": 97.0, "per_ow_rented": 1.3, "per_ow_oth": 1.6, "per_mc_none": 9.5, "per_mcouple_1": 64.5, "per_mcouple_2": 23.0, "per_mcouple_3": 2.6, "per_mcouple_4": 0.3, "per_mcouple_5p": 0.0, "per_dw_t_ts": 35.9, "per_dw_t_unts": 4.3, "per_dw_c_well": 0.0, "per_dw_unc_wel": 0.3, "per_dw_hpump": 58.9, "per_dw_tw_bore": 0.7, "per_dw_spring": 0.0, "per_dw_rivcan": 0.0, "per_dw_tank": 0.0, "per_dw_oth": 0.0, "per_loc_dw_wp": 30.6, "per_loc_dw_np": 46.4, "per_loc_dw_aw": 23.0, "per_light_elec": 24.7, "per_light_kero": 75.0, "per_light_solr": 0.3, "per_light_oil": 0.0, "per_light_oth": 0.0, "per_light_no": 0.0, "per_hh_latrine": 39.1, "per_fl_sewer": 7.9, "per_fl_septict": 25.3, "per_fl_othsys": 0.3, "per_pl_wslab": 5.6, "per_pl_without": 0.0, "per_ns_open": 0.0, "per_sl_ns_hum": 0.0, "per_sl_ns_anml": 0.0, "per_hh_no_lat": 60.9, "per_as_pub": 0.0, "per_as_open": 60.9, "per_hh_bathrm": 27.0, "per_hh_en_wrf": 49.0, "per_hh_no_btrm": 24.0, "per_wwoc_drain": 2.0, "per_wwoc_open": 90.1, "per_wwoc_nodrn": 7.9, "per_cook_fire": 87.5, "per_cook_resdu": 6.6, "per_cook_cwdng": 0.0, "per_cook_coal": 0.0, "per_cook_kero": 0.0, "per_cook_lpng": 5.9, "per_cook_elec": 0.0, "per_cook_biogs": 0.0, "per_cook_oth": 0.0, "per_cook_no": 0.0, "per_kf_inside": 97.0, "per_kf_in_has": 50.3, "per_kf_in_does": 46.7, "per_kf_outside": 3.0, "per_kf_out_has": 0.3, "per_kf_out_dos": 2.6, "per_kf_no_cook": 0.0, "per_hh_banking": 81.6, "per_hh_radio": 33.2, "per_hh_tv": 18.4, "per_hh_cmp_int": 1.0, "per_hh_cmp_wnt": 3.3, "per_hh_ph_ll": 1.0, "per_hh_ph_mob": 62.2, "per_hh_ph_bth": 3.0, "per_hh_bcycl": 30.6, "per_hh_2wheel": 13.8, "per_hh_4wheel": 2.6, "per_hh_tvcomp": 1.0, "per_hh_no_ast": 17.8, "per_hs_perma": 26.6, "per_hs_sperma": 32.6, "per_hs_temp": 25.3, "per_hs_servc": 25.3, "per_hs_nservc": 0.0, "per_hs_unclss": 15.5, "avghhsz_cy": 5.31561462, "st_areashape": 6826770.327525245, "st_lengthshape": 10952.741229532226}, "geometry": {"type": "Polygon", "coordinates": [[[79.89177563447305, 25.704225540462502], [79.88995585791321, 25.704720364517534], [79.887319184875, 25.70527481292468], [79.88514031306855, 25.705818162524647], [79.88427932188617, 25.70611133755575], [79.88330028938047, 25.70633064205652], [79.88162438969148, 25.706575347761618], [79.88020873283861, 25.706733910398803], [79.87848757153402, 25.706565668068308], [79.87842997694791, 25.706504492291288], [79.8780361833751, 25.706282276668382], [79.87793974383948, 25.70611863600282], [79.87793260313128, 25.70543386294308], [79.87778350255705, 25.704891066040116], [79.87724033172894, 25.704144052631033], [79.8769641779325, 25.704013703875905], [79.87670629766556, 25.70397372075341], [79.87574916698485, 25.704085210796094], [79.87371035151433, 25.704585523302732], [79.87191276154536, 25.704954399744274], [79.86975742110779, 25.705299737250275], [79.86829999079757, 25.705565667896547], [79.86803839060704, 25.705723793177373], [79.86785664974697, 25.70586516667146], [79.8678441451982, 25.70590428227928], [79.86649190670943, 25.70381658631245], [79.86513559166592, 25.70186790159416], [79.86486959781534, 25.701197167345793], [79.86399978248194, 25.6987694454058], [79.86382076980537, 25.697703667236702], [79.8637668502271, 25.69739653568178], [79.86364598999043, 25.696412727326347], [79.8637437814906, 25.695441271636895], [79.86391029949986, 25.695047453821974], [79.86403098187006, 25.69497722612664], [79.86495028269754, 25.693694063418917], [79.86570509480997, 25.692696682333573], [79.86618814858264, 25.692397793984934], [79.86752038877654, 25.691373211418203], [79.86842852803662, 25.6906844452086], [79.86905433129444, 25.690198565466897], [79.86929435305355, 25.69013017899496], [79.86971135100842, 25.69017259936825], [79.87057808332378, 25.69063634141355], [79.8708757356016, 25.690676929674943], [79.87129475296925, 25.690611283686245], [79.87177208986346, 25.69061859684529], [79.87264855991648, 25.69055995475219], [79.87328737706787, 25.690443607899187], [79.87386484916676, 25.69041640734142], [79.87468706726486, 25.690589193636562], [79.87469716971856, 25.690591316994997], [79.87666786144953, 25.6905313602351], [79.87873870096159, 25.690436884866735], [79.8825878732579, 25.689928095518557], [79.88671729566832, 25.689324405175036], [79.88971267677925, 25.688721355346438], [79.89276519613215, 25.688254260862678], [79.89437587902984, 25.68829675314275], [79.89479087913153, 25.688447205968888], [79.89542278105182, 25.688759318152663], [79.89512731078186, 25.688924595255145], [79.89502320053201, 25.689175273791943], [79.895019203029, 25.689391430491295], [79.89514977046059, 25.689861858976922], [79.89589382434917, 25.691584840595397], [79.89682322134213, 25.69296828172175], [79.8975856646429, 25.694772604229446], [79.89810073796554, 25.695969571772213], [79.89872742606394, 25.698663696743704], [79.89885403821336, 25.699350285505066], [79.89915476093283, 25.701381817367242], [79.89951836212889, 25.7021620665827], [79.89962916662424, 25.70247458072434], [79.89758658541605, 25.703088595866973], [79.8953478004717, 25.70364920270683], [79.89177563447305, 25.704225540462502]]]}}]}