{"type": "FeatureCollection", "features": [{"type": "Feature", "properties": {"premiumdata.sde.IN_Village_PCA.area": 3.76512014, "objectid": 261103, "id": "234226993529072", "name": "Hirapura", "subdistrict": "Khujner", "district": "Rajgarh", "state": "Madhya Pradesh", "country": "India", "censusname": "Hirapura", "villagename_locallang": null, "lgd_villagename": "Hirapura", "lgd_villagecode": 479508, "lgd_subdistrictcode": 6993, "lgd_districtcode": 422, "lgd_statecode": 23, "censuscode2001": "03620200", "censuscode2011": "479508", "censuscode2021": null, "level": "Village", "tru": "Rural", "no_hh": 88, "tot_p": 383, "tot_m": 200, "tot_f": 183, "per_tot_m": 52.21932115, "per_tot_f": 47.78067885, "p_06": 52, "m_06": 28, "f_06": 24, "per_p_06": 13.5770235, "per_m_06": 53.84615385, "per_f_06": 46.15384615, "p_sc": 236, "m_sc": 122, "f_sc": 114, "per_p_sc": 61.61879896, "per_m_sc": 51.69491525, "per_f_sc": 48.30508475, "p_st": 0, "m_st": 0, "f_st": 0, "per_p_st": 0.0, "per_m_st": 0.0, "per_f_st": 0.0, "p_lit": 148, "m_lit": 83, "f_lit": 65, "per_p_lit": 38.64229765, "per_m_lit": 56.08108108, "per_f_lit": 43.91891892, "p_ill": 235, "m_ill": 117, "f_ill": 118, "per_p_ill": 61.35770235, "per_m_ill": 49.78723404, "per_f_ill": 50.21276596, "tot_work_p": 216, "tot_work_m": 119, "tot_work_f": 97, "per_tot_work_p": 56.39686684, "per_tot_work_m": 55.09259259, "per_tot_work_f": 44.90740741, "mainwork_p": 102, "mainwork_m": 84, "mainwork_f": 18, "per_mainwork_p": 26.63185379, "per_mainwork_m": 82.35294118, "per_mainwork_f": 17.64705882, "main_cl_p": 64, "main_cl_m": 59, "main_cl_f": 5, "per_main_cl_p": 62.74509804, "per_main_cl_m": 92.1875, "per_main_cl_f": 7.8125, "main_al_p": 36, "main_al_m": 24, "main_al_f": 12, "per_main_al_p": 35.29411765, "per_main_al_m": 66.66666667, "per_main_al_f": 33.33333333, "main_hh_p": 0, "main_hh_m": 0, "main_hh_f": 0, "per_main_hh_p": 0.0, "per_main_hh_m": 0.0, "per_main_hh_f": 0.0, "main_ot_p": 2, "main_ot_m": 1, "main_ot_f": 1, "per_main_ot_p": 1.96078431, "per_main_ot_m": 50.0, "per_main_ot_f": 50.0, "margwork_p": 114, "margwork_m": 35, "margwork_f": 79, "per_margwork_p": 29.76501305, "per_margwork_m": 30.70175439, "per_margwork_f": 69.29824561, "marg_cl_p": 9, "marg_cl_m": 5, "marg_cl_f": 4, "per_marg_cl_p": 7.89473684, "per_marg_cl_m": 55.55555556, "per_marg_cl_f": 44.44444444000001, "marg_al_p": 104, "marg_al_m": 30, "marg_al_f": 74, "per_marg_al_p": 91.22807017999999, "per_marg_al_m": 28.84615385, "per_marg_al_f": 71.15384615, "marg_hh_p": 0, "marg_hh_m": 0, "marg_hh_f": 0, "per_marg_hh_p": 0.0, "per_marg_hh_m": 0.0, "per_marg_hh_f": 0.0, "marg_ot_p": 1, "marg_ot_m": 0, "marg_ot_f": 1, "per_marg_ot_p": 0.87719298, "per_marg_ot_m": 0.0, "per_marg_ot_f": 100.0, "margwork_3_6_p": 103, "margwork_3_6_m": 31, "margwork_3_6_f": 72, "per_margwork_3_6_p": 90.35087719, "per_margwork_3_6_m": 30.09708738, "per_margwork_3_6_f": 69.90291262000001, "marg_cl_3_6_p": 5, "marg_cl_3_6_m": 4, "marg_cl_3_6_f": 1, "per_marg_cl_3_6_p": 4.38596491, "per_marg_cl_3_6_m": 80.0, "per_marg_cl_3_6_f": 20.0, "marg_al_3_6_p": 97, "marg_al_3_6_m": 27, "marg_al_3_6_f": 70, "per_marg_al_3_6_p": 85.0877193, "per_marg_al_3_6_m": 27.83505155, "per_marg_al_3_6_f": 72.16494845, "marg_hh_3_6_p": 0, "marg_hh_3_6_m": 0, "marg_hh_3_6_f": 0, "per_marg_hh_3_6_p": 0.0, "per_marg_hh_3_6_m": 0.0, "per_marg_hh_3_6_f": 0.0, "marg_ot_3_6_p": 1, "marg_ot_3_6_m": 0, "marg_ot_3_6_f": 1, "per_marg_ot_3_6_p": 0.87719298, "per_marg_ot_3_6_m": 0.0, "per_marg_ot_3_6_f": 100.0, "margwork_0_3_p": 11, "margwork_0_3_m": 4, "margwork_0_3_f": 7, "per_margwork_0_3_p": 9.64912281, "per_margwork_0_3_m": 36.36363636, "per_margwork_0_3_f": 63.63636364, "marg_cl_0_3_p": 4, "marg_cl_0_3_m": 1, "marg_cl_0_3_f": 3, "per_marg_cl_0_3_p": 3.50877193, "per_marg_cl_0_3_m": 25.0, "per_marg_cl_0_3_f": 75.0, "marg_al_0_3_p": 7, "marg_al_0_3_m": 3, "marg_al_0_3_f": 4, "per_marg_al_0_3_p": 6.14035088, "per_marg_al_0_3_m": 42.85714286, "per_marg_al_0_3_f": 57.14285714, "marg_hh_0_3_p": 0, "marg_hh_0_3_m": 0, "marg_hh_0_3_f": 0, "per_marg_hh_0_3_p": 0.0, "per_marg_hh_0_3_m": 0.0, "per_marg_hh_0_3_f": 0.0, "marg_ot_0_3_p": 0, "marg_ot_0_3_m": 0, "marg_ot_0_3_f": 0, "per_marg_ot_0_3_p": 0.0, "per_marg_ot_0_3_m": 0.0, "per_marg_ot_0_3_f": 0.0, "non_work_p": 167, "non_work_m": 81, "non_work_f": 86, "per_non_work_p": 43.60313316, "per_non_work_m": 48.50299401, "per_non_work_f": 51.49700599, "per_hc_tot_tot": 100, "per_hc_tot_god": 0.0, "per_hc_tot_liv": 95.4, "per_hc_tot_dil": 4.6, "per_hc_res_tot": 97.7, "per_hc_res_god": 0.0, "per_hc_res_liv": 93.1, "per_hc_res_dil": 4.6, "per_hc_oth_tot": 2.3, "per_hc_oth_god": 0.0, "per_hc_oth_liv": 2.3, "per_hc_oth_dil": 0.0, "per_mt_grsbam": 14.9, "per_mt_plastic": 0.0, "per_mt_h_tiles": 70.1, "per_mt_m_tiles": 11.5, "per_mt_b_brick": 0.0, "per_mt_stone": 2.3, "per_mt_asbstos": 1.1, "per_mt_concrte": 0.0, "per_mt_oth": 0.0, "per_mw_grsbam": 1.1, "per_mw_plastic": 0.0, "per_mw_mud": 24.1, "per_mw_wood": 0.0, "per_mw_no_mrtr": 0.0, "per_mw_st_mrtr": 59.8, "per_mw_asbstos": 0.0, "per_mw_b_brick": 14.9, "per_mw_concrte": 0.0, "per_mw_oth": 0.0, "per_mf_mud": 98.9, "per_mf_wood": 0.0, "per_mf_b_brick": 0.0, "per_mf_stone": 0.0, "per_mf_cement": 0.0, "per_mf_fl_tile": 1.1, "per_mf_oth": 0.0, "per_dw_n_exrm": 1.1, "per_dw_1_room": 89.7, "per_dw_2_room": 8.0, "per_dw_3_room": 1.1, "per_dw_4_room": 0.0, "per_dw_5_room": 0.0, "per_dw_6_room": 0.0, "per_hhsize_1": 5.7, "per_hhsize_2": 23.0, "per_hhsize_3": 12.6, "per_hhsize_4": 18.4, "per_hhsize_5": 9.2, "per_hhsize_6_8": 28.7, "per_hhsize_9p": 2.3, "per_ow_owned": 98.9, "per_ow_rented": 0.0, "per_ow_oth": 1.1, "per_mc_none": 19.5, "per_mcouple_1": 71.3, "per_mcouple_2": 8.0, "per_mcouple_3": 0.0, "per_mcouple_4": 1.1, "per_mcouple_5p": 0.0, "per_dw_t_ts": 0.0, "per_dw_t_unts": 0.0, "per_dw_c_well": 0.0, "per_dw_unc_wel": 0.0, "per_dw_hpump": 97.7, "per_dw_tw_bore": 2.3, "per_dw_spring": 0.0, "per_dw_rivcan": 0.0, "per_dw_tank": 0.0, "per_dw_oth": 0.0, "per_loc_dw_wp": 0.0, "per_loc_dw_np": 6.9, "per_loc_dw_aw": 93.1, "per_light_elec": 41.4, "per_light_kero": 58.6, "per_light_solr": 0.0, "per_light_oil": 0.0, "per_light_oth": 0.0, "per_light_no": 0.0, "per_hh_latrine": 0.0, "per_fl_sewer": 0.0, "per_fl_septict": 0.0, "per_fl_othsys": 0.0, "per_pl_wslab": 0.0, "per_pl_without": 0.0, "per_ns_open": 0.0, "per_sl_ns_hum": 0.0, "per_sl_ns_anml": 0.0, "per_hh_no_lat": 100.0, "per_as_pub": 0.0, "per_as_open": 100.0, "per_hh_bathrm": 1.1, "per_hh_en_wrf": 0.0, "per_hh_no_btrm": 98.9, "per_wwoc_drain": 0.0, "per_wwoc_open": 0.0, "per_wwoc_nodrn": 100.0, "per_cook_fire": 0.0, "per_cook_resdu": 0.0, "per_cook_cwdng": 98.9, "per_cook_coal": 0.0, "per_cook_kero": 1.1, "per_cook_lpng": 0.0, "per_cook_elec": 0.0, "per_cook_biogs": 0.0, "per_cook_oth": 0.0, "per_cook_no": 0.0, "per_kf_inside": 100.0, "per_kf_in_has": 0.0, "per_kf_in_does": 100.0, "per_kf_outside": 0.0, "per_kf_out_has": 0.0, "per_kf_out_dos": 0.0, "per_kf_no_cook": 0.0, "per_hh_banking": 46.0, "per_hh_radio": 2.3, "per_hh_tv": 2.3, "per_hh_cmp_int": 0.0, "per_hh_cmp_wnt": 1.1, "per_hh_ph_ll": 0.0, "per_hh_ph_mob": 16.1, "per_hh_ph_bth": 0.0, "per_hh_bcycl": 9.2, "per_hh_2wheel": 3.4, "per_hh_4wheel": 0.0, "per_hh_tvcomp": 0.0, "per_hh_no_ast": 71.3, "per_hs_perma": 64.4, "per_hs_sperma": 31.0, "per_hs_temp": 4.6, "per_hs_servc": 4.6, "per_hs_nservc": 0.0, "per_hs_unclss": 0.0, "avghhsz_cy": 4.35227273, "st_areashape": 4526835.45964786, "st_lengthshape": 8708.681007669293}, "geometry": {"type": "Polygon", "coordinates": [[[76.73656000065141, 23.935749999949646], [76.73303000067386, 23.93470000063149], [76.72864999950315, 23.930520000278154], [76.72809999968221, 23.924139999727956], [76.72903000034306, 23.923450000699674], [76.73293000021644, 23.920549999824942], [76.7429199992011, 23.920979999988646], [76.74728000028037, 23.92118999952929], [76.75189999985399, 23.921409999542078], [76.75553000028897, 23.921550000176275], [76.75455000029774, 23.923979999853174], [76.75298000030263, 23.926250000266396], [76.75072000074455, 23.92914000020546], [76.74799999998059, 23.93244000011761], [76.74776999982683, 23.93616000024229], [76.74615999964874, 23.939240000050045], [76.74549000017724, 23.93893999949309], [76.74032999993015, 23.936879999987625], [76.73656000065141, 23.935749999949646]]]}}]}