{"type": "FeatureCollection", "features": [{"type": "Feature", "properties": {"premiumdata.sde.IN_Village_PCA.area": 0.721759, "objectid": 520549, "id": "193052360138640", "name": "Raghunathpur", "subdistrict": "Indpur", "district": "Bankura", "state": "West Bengal", "country": "India", "censusname": "Raghunathpur", "villagename_locallang": null, "lgd_villagename": "Raghunathpur", "lgd_villagecode": 326799, "lgd_subdistrictcode": 2360, "lgd_districtcode": 305, "lgd_statecode": 19, "censuscode2001": "02050800", "censuscode2011": "326799", "censuscode2021": null, "level": "Village", "tru": "Rural", "no_hh": 29, "tot_p": 137, "tot_m": 71, "tot_f": 66, "per_tot_m": 51.82481752, "per_tot_f": 48.17518248, "p_06": 10, "m_06": 6, "f_06": 4, "per_p_06": 7.29927007, "per_m_06": 60.0, "per_f_06": 40.0, "p_sc": 0, "m_sc": 0, "f_sc": 0, "per_p_sc": 0.0, "per_m_sc": 0.0, "per_f_sc": 0.0, "p_st": 0, "m_st": 0, "f_st": 0, "per_p_st": 0.0, "per_m_st": 0.0, "per_f_st": 0.0, "p_lit": 119, "m_lit": 63, "f_lit": 56, "per_p_lit": 86.86131387, "per_m_lit": 52.94117647, "per_f_lit": 47.05882353, "p_ill": 18, "m_ill": 8, "f_ill": 10, "per_p_ill": 13.13868613, "per_m_ill": 44.44444444000001, "per_f_ill": 55.55555556, "tot_work_p": 37, "tot_work_m": 36, "tot_work_f": 1, "per_tot_work_p": 27.00729927, "per_tot_work_m": 97.2972973, "per_tot_work_f": 2.7027027, "mainwork_p": 31, "mainwork_m": 30, "mainwork_f": 1, "per_mainwork_p": 22.62773723, "per_mainwork_m": 96.77419355, "per_mainwork_f": 3.22580645, "main_cl_p": 19, "main_cl_m": 18, "main_cl_f": 1, "per_main_cl_p": 61.29032258, "per_main_cl_m": 94.73684211, "per_main_cl_f": 5.26315789, "main_al_p": 0, "main_al_m": 0, "main_al_f": 0, "per_main_al_p": 0.0, "per_main_al_m": 0.0, "per_main_al_f": 0.0, "main_hh_p": 0, "main_hh_m": 0, "main_hh_f": 0, "per_main_hh_p": 0.0, "per_main_hh_m": 0.0, "per_main_hh_f": 0.0, "main_ot_p": 12, "main_ot_m": 12, "main_ot_f": 0, "per_main_ot_p": 38.70967742, "per_main_ot_m": 100.0, "per_main_ot_f": 0.0, "margwork_p": 6, "margwork_m": 6, "margwork_f": 0, "per_margwork_p": 4.37956204, "per_margwork_m": 100.0, "per_margwork_f": 0.0, "marg_cl_p": 5, "marg_cl_m": 5, "marg_cl_f": 0, "per_marg_cl_p": 83.33333332999999, "per_marg_cl_m": 100.0, "per_marg_cl_f": 0.0, "marg_al_p": 0, "marg_al_m": 0, "marg_al_f": 0, "per_marg_al_p": 0.0, "per_marg_al_m": 0.0, "per_marg_al_f": 0.0, "marg_hh_p": 0, "marg_hh_m": 0, "marg_hh_f": 0, "per_marg_hh_p": 0.0, "per_marg_hh_m": 0.0, "per_marg_hh_f": 0.0, "marg_ot_p": 1, "marg_ot_m": 1, "marg_ot_f": 0, "per_marg_ot_p": 16.66666667, "per_marg_ot_m": 100.0, "per_marg_ot_f": 0.0, "margwork_3_6_p": 6, "margwork_3_6_m": 6, "margwork_3_6_f": 0, "per_margwork_3_6_p": 100.0, "per_margwork_3_6_m": 100.0, "per_margwork_3_6_f": 0.0, "marg_cl_3_6_p": 5, "marg_cl_3_6_m": 5, "marg_cl_3_6_f": 0, "per_marg_cl_3_6_p": 83.33333332999999, "per_marg_cl_3_6_m": 100.0, "per_marg_cl_3_6_f": 0.0, "marg_al_3_6_p": 0, "marg_al_3_6_m": 0, "marg_al_3_6_f": 0, "per_marg_al_3_6_p": 0.0, "per_marg_al_3_6_m": 0.0, "per_marg_al_3_6_f": 0.0, "marg_hh_3_6_p": 0, "marg_hh_3_6_m": 0, "marg_hh_3_6_f": 0, "per_marg_hh_3_6_p": 0.0, "per_marg_hh_3_6_m": 0.0, "per_marg_hh_3_6_f": 0.0, "marg_ot_3_6_p": 1, "marg_ot_3_6_m": 1, "marg_ot_3_6_f": 0, "per_marg_ot_3_6_p": 16.66666667, "per_marg_ot_3_6_m": 100.0, "per_marg_ot_3_6_f": 0.0, "margwork_0_3_p": 0, "margwork_0_3_m": 0, "margwork_0_3_f": 0, "per_margwork_0_3_p": 0.0, "per_margwork_0_3_m": 0.0, "per_margwork_0_3_f": 0.0, "marg_cl_0_3_p": 0, "marg_cl_0_3_m": 0, "marg_cl_0_3_f": 0, "per_marg_cl_0_3_p": 0.0, "per_marg_cl_0_3_m": 0.0, "per_marg_cl_0_3_f": 0.0, "marg_al_0_3_p": 0, "marg_al_0_3_m": 0, "marg_al_0_3_f": 0, "per_marg_al_0_3_p": 0.0, "per_marg_al_0_3_m": 0.0, "per_marg_al_0_3_f": 0.0, "marg_hh_0_3_p": 0, "marg_hh_0_3_m": 0, "marg_hh_0_3_f": 0, "per_marg_hh_0_3_p": 0.0, "per_marg_hh_0_3_m": 0.0, "per_marg_hh_0_3_f": 0.0, "marg_ot_0_3_p": 0, "marg_ot_0_3_m": 0, "marg_ot_0_3_f": 0, "per_marg_ot_0_3_p": 0.0, "per_marg_ot_0_3_m": 0.0, "per_marg_ot_0_3_f": 0.0, "non_work_p": 100, "non_work_m": 35, "non_work_f": 65, "per_non_work_p": 72.99270073, "per_non_work_m": 35.0, "per_non_work_f": 65.0, "per_hc_tot_tot": 100, "per_hc_tot_god": 58.6, "per_hc_tot_liv": 41.4, "per_hc_tot_dil": 0.0, "per_hc_res_tot": 100.0, "per_hc_res_god": 58.6, "per_hc_res_liv": 41.4, "per_hc_res_dil": 0.0, "per_hc_oth_tot": 0.0, "per_hc_oth_god": 0.0, "per_hc_oth_liv": 0.0, "per_hc_oth_dil": 0.0, "per_mt_grsbam": 37.9, "per_mt_plastic": 0.0, "per_mt_h_tiles": 0.0, "per_mt_m_tiles": 0.0, "per_mt_b_brick": 0.0, "per_mt_stone": 0.0, "per_mt_asbstos": 10.3, "per_mt_concrte": 51.7, "per_mt_oth": 0.0, "per_mw_grsbam": 3.4, "per_mw_plastic": 0.0, "per_mw_mud": 37.9, "per_mw_wood": 0.0, "per_mw_no_mrtr": 0.0, "per_mw_st_mrtr": 0.0, "per_mw_asbstos": 0.0, "per_mw_b_brick": 58.6, "per_mw_concrte": 0.0, "per_mw_oth": 0.0, "per_mf_mud": 41.4, "per_mf_wood": 0.0, "per_mf_b_brick": 0.0, "per_mf_stone": 0.0, "per_mf_cement": 58.6, "per_mf_fl_tile": 0.0, "per_mf_oth": 0.0, "per_dw_n_exrm": 0.0, "per_dw_1_room": 34.5, "per_dw_2_room": 31.0, "per_dw_3_room": 10.3, "per_dw_4_room": 20.7, "per_dw_5_room": 0.0, "per_dw_6_room": 3.4, "per_hhsize_1": 3.4, "per_hhsize_2": 17.2, "per_hhsize_3": 13.8, "per_hhsize_4": 34.5, "per_hhsize_5": 6.9, "per_hhsize_6_8": 6.9, "per_hhsize_9p": 17.2, "per_ow_owned": 100.0, "per_ow_rented": 0.0, "per_ow_oth": 0.0, "per_mc_none": 13.8, "per_mcouple_1": 62.1, "per_mcouple_2": 10.3, "per_mcouple_3": 13.8, "per_mcouple_4": 0.0, "per_mcouple_5p": 0.0, "per_dw_t_ts": 0.0, "per_dw_t_unts": 0.0, "per_dw_c_well": 0.0, "per_dw_unc_wel": 0.0, "per_dw_hpump": 100.0, "per_dw_tw_bore": 0.0, "per_dw_spring": 0.0, "per_dw_rivcan": 0.0, "per_dw_tank": 0.0, "per_dw_oth": 0.0, "per_loc_dw_wp": 0.0, "per_loc_dw_np": 100.0, "per_loc_dw_aw": 0.0, "per_light_elec": 100.0, "per_light_kero": 0.0, "per_light_solr": 0.0, "per_light_oil": 0.0, "per_light_oth": 0.0, "per_light_no": 0.0, "per_hh_latrine": 51.7, "per_fl_sewer": 0.0, "per_fl_septict": 51.7, "per_fl_othsys": 0.0, "per_pl_wslab": 0.0, "per_pl_without": 0.0, "per_ns_open": 0.0, "per_sl_ns_hum": 0.0, "per_sl_ns_anml": 0.0, "per_hh_no_lat": 48.3, "per_as_pub": 0.0, "per_as_open": 48.3, "per_hh_bathrm": 51.7, "per_hh_en_wrf": 0.0, "per_hh_no_btrm": 48.3, "per_wwoc_drain": 0.0, "per_wwoc_open": 0.0, "per_wwoc_nodrn": 100.0, "per_cook_fire": 75.9, "per_cook_resdu": 0.0, "per_cook_cwdng": 0.0, "per_cook_coal": 10.3, "per_cook_kero": 0.0, "per_cook_lpng": 10.3, "per_cook_elec": 0.0, "per_cook_biogs": 3.4, "per_cook_oth": 0.0, "per_cook_no": 0.0, "per_kf_inside": 0.0, "per_kf_in_has": 0.0, "per_kf_in_does": 0.0, "per_kf_outside": 100.0, "per_kf_out_has": 100.0, "per_kf_out_dos": 0.0, "per_kf_no_cook": 0.0, "per_hh_banking": 96.6, "per_hh_radio": 86.2, "per_hh_tv": 48.3, "per_hh_cmp_int": 0.0, "per_hh_cmp_wnt": 0.0, "per_hh_ph_ll": 0.0, "per_hh_ph_mob": 44.8, "per_hh_ph_bth": 6.9, "per_hh_bcycl": 96.6, "per_hh_2wheel": 20.7, "per_hh_4wheel": 0.0, "per_hh_tvcomp": 0.0, "per_hh_no_ast": 3.4, "per_hs_perma": 55.2, "per_hs_sperma": 10.3, "per_hs_temp": 34.5, "per_hs_servc": 31.0, "per_hs_nservc": 3.4, "per_hs_unclss": 0.0, "avghhsz_cy": 4.72413793, "st_areashape": 856671.79224063, "st_lengthshape": 4095.3415489186787}, "geometry": {"type": "Polygon", "coordinates": [[[86.91871999997196, 23.07489000017437], [86.9187099999262, 23.07487999937409], [86.91839999940646, 23.07460999979913], [86.9181600001053, 23.073999999590185], [86.9176699996605, 23.073369999748948], [86.91746000049656, 23.073009999459288], [86.91740999936953, 23.07273999943615], [86.91746000049656, 23.072340000119798], [86.9177399990824, 23.072069999578225], [86.91825999966439, 23.071699999731198], [86.91825999966439, 23.070999999693548], [86.9184299995437, 23.070709999201117], [86.9185900002756, 23.0703100004599], [86.91853000000116, 23.069029999636015], [86.91837000016757, 23.068759999889036], [86.91814999916124, 23.068429999370558], [86.91809999983084, 23.068030000461917], [86.91828999980163, 23.06764999973595], [86.91845999968095, 23.06719999992415], [86.9184299995437, 23.066099999925143], [86.91853000000116, 23.06580999961458], [86.91887999980551, 23.065519999505472], [86.91929999993009, 23.06514999982681], [86.91941999958068, 23.064839999335042], [86.91945999976363, 23.063480000256018], [86.91962999964295, 23.063629999273072], [86.91982000051208, 23.063600000144234], [86.92021000049941, 23.06315999920441], [86.92056999945122, 23.062889999249116], [86.92136000036994, 23.06282999982831], [86.92212999940057, 23.062779999601798], [86.92195999952125, 23.06319000008437], [86.92197999961273, 23.06391000018669], [86.92216999958356, 23.064179999748422], [86.92235999955435, 23.064560000356597], [86.92253000033195, 23.065430000057006], [86.9229400004108, 23.06596999915075], [86.92312999948327, 23.066239999537874], [86.9232099998492, 23.067159999390498], [86.9232799992711, 23.06758999995821], [86.92364000001953, 23.067949999876276], [86.9240099999154, 23.068239999706652], [86.92407999933725, 23.06855999942098], [86.92409000028134, 23.06965000043251], [86.9241799997947, 23.069969999272377], [86.92444999923312, 23.070259999707158], [86.92538999993967, 23.071159999669103], [86.92546999940733, 23.071679999308426], [86.92513999969442, 23.072300000288056], [86.92487000025602, 23.073060000016262], [86.92471999956985, 23.07356999967717], [86.92454999969053, 23.073849999738226], [86.92440999994845, 23.07405999981469], [86.92370999944143, 23.074569999815992], [86.9224199998288, 23.075009999802578], [86.92199999970424, 23.075229999669283], [86.92177999959621, 23.075259999510525], [86.92173999941322, 23.075259999510525], [86.92146999997479, 23.07524999956417], [86.92113000021617, 23.074979999905562], [86.92099000047409, 23.074979999905562], [86.92073000018311, 23.07495999914406], [86.92033000015002, 23.075070000402974], [86.91989999997972, 23.075259999510525], [86.91948999990088, 23.075199999821358], [86.91905999973058, 23.07496999993842], [86.91871999997196, 23.07489000017437]]]}}]}