{"type": "FeatureCollection", "features": [{"type": "Feature", "properties": {"premiumdata.sde.IN_Village_PCA.area": 8.26152119, "objectid": 27727, "id": "29548553385004", "name": "Bejjihalli", "subdistrict": "Sira", "district": "Tumakuru", "state": "Karnataka", "country": "India", "censusname": "Bejjihalli", "villagename_locallang": null, "lgd_villagename": "Bejjihalli", "lgd_villagecode": 610269, "lgd_subdistrictcode": 5533, "lgd_districtcode": 548, "lgd_statecode": 29, "censuscode2001": "01451600", "censuscode2011": "610269", "censuscode2021": null, "level": "Village", "tru": "Rural", "no_hh": 210, "tot_p": 1003, "tot_m": 528, "tot_f": 475, "per_tot_m": 52.64207378, "per_tot_f": 47.35792622, "p_06": 90, "m_06": 42, "f_06": 48, "per_p_06": 8.97308076, "per_m_06": 46.66666667000001, "per_f_06": 53.33333333, "p_sc": 351, "m_sc": 182, "f_sc": 169, "per_p_sc": 34.99501496, "per_m_sc": 51.85185185, "per_f_sc": 48.14814815, "p_st": 4, "m_st": 3, "f_st": 1, "per_p_st": 0.39880359, "per_m_st": 75.0, "per_f_st": 25.0, "p_lit": 602, "m_lit": 376, "f_lit": 226, "per_p_lit": 60.01994018, "per_m_lit": 62.45847176, "per_f_lit": 37.54152824, "p_ill": 401, "m_ill": 152, "f_ill": 249, "per_p_ill": 39.98005982, "per_m_ill": 37.90523691, "per_f_ill": 62.09476309, "tot_work_p": 615, "tot_work_m": 328, "tot_work_f": 287, "per_tot_work_p": 61.31605184, "per_tot_work_m": 53.33333333, "per_tot_work_f": 46.66666667000001, "mainwork_p": 349, "mainwork_m": 251, "mainwork_f": 98, "per_mainwork_p": 34.79561316, "per_mainwork_m": 71.91977077, "per_mainwork_f": 28.08022923, "main_cl_p": 134, "main_cl_m": 103, "main_cl_f": 31, "per_main_cl_p": 38.39541547, "per_main_cl_m": 76.86567164, "per_main_cl_f": 23.13432836, "main_al_p": 105, "main_al_m": 66, "main_al_f": 39, "per_main_al_p": 30.08595989, "per_main_al_m": 62.85714286, "per_main_al_f": 37.14285714, "main_hh_p": 10, "main_hh_m": 6, "main_hh_f": 4, "per_main_hh_p": 2.86532951, "per_main_hh_m": 60.0, "per_main_hh_f": 40.0, "main_ot_p": 100, "main_ot_m": 76, "main_ot_f": 24, "per_main_ot_p": 28.65329513, "per_main_ot_m": 76.0, "per_main_ot_f": 24.0, "margwork_p": 266, "margwork_m": 77, "margwork_f": 189, "per_margwork_p": 26.52043868, "per_margwork_m": 28.94736842, "per_margwork_f": 71.05263158, "marg_cl_p": 2, "marg_cl_m": 2, "marg_cl_f": 0, "per_marg_cl_p": 0.7518797, "per_marg_cl_m": 100.0, "per_marg_cl_f": 0.0, "marg_al_p": 252, "marg_al_m": 68, "marg_al_f": 184, "per_marg_al_p": 94.73684211, "per_marg_al_m": 26.98412698, "per_marg_al_f": 73.01587302, "marg_hh_p": 1, "marg_hh_m": 1, "marg_hh_f": 0, "per_marg_hh_p": 0.37593985, "per_marg_hh_m": 100.0, "per_marg_hh_f": 0.0, "marg_ot_p": 11, "marg_ot_m": 6, "marg_ot_f": 5, "per_marg_ot_p": 4.13533835, "per_marg_ot_m": 54.54545455, "per_marg_ot_f": 45.45454545, "margwork_3_6_p": 239, "margwork_3_6_m": 72, "margwork_3_6_f": 167, "per_margwork_3_6_p": 89.84962406, "per_margwork_3_6_m": 30.12552301, "per_margwork_3_6_f": 69.87447699, "marg_cl_3_6_p": 2, "marg_cl_3_6_m": 2, "marg_cl_3_6_f": 0, "per_marg_cl_3_6_p": 0.7518797, "per_marg_cl_3_6_m": 100.0, "per_marg_cl_3_6_f": 0.0, "marg_al_3_6_p": 227, "marg_al_3_6_m": 63, "marg_al_3_6_f": 164, "per_marg_al_3_6_p": 85.33834586, "per_marg_al_3_6_m": 27.75330396, "per_marg_al_3_6_f": 72.24669604, "marg_hh_3_6_p": 1, "marg_hh_3_6_m": 1, "marg_hh_3_6_f": 0, "per_marg_hh_3_6_p": 0.37593985, "per_marg_hh_3_6_m": 100.0, "per_marg_hh_3_6_f": 0.0, "marg_ot_3_6_p": 9, "marg_ot_3_6_m": 6, "marg_ot_3_6_f": 3, "per_marg_ot_3_6_p": 3.38345865, "per_marg_ot_3_6_m": 66.66666667, "per_marg_ot_3_6_f": 33.33333333, "margwork_0_3_p": 27, "margwork_0_3_m": 5, "margwork_0_3_f": 22, "per_margwork_0_3_p": 10.15037594, "per_margwork_0_3_m": 18.51851852, "per_margwork_0_3_f": 81.48148148, "marg_cl_0_3_p": 0, "marg_cl_0_3_m": 0, "marg_cl_0_3_f": 0, "per_marg_cl_0_3_p": 0.0, "per_marg_cl_0_3_m": 0.0, "per_marg_cl_0_3_f": 0.0, "marg_al_0_3_p": 25, "marg_al_0_3_m": 5, "marg_al_0_3_f": 20, "per_marg_al_0_3_p": 9.39849624, "per_marg_al_0_3_m": 20.0, "per_marg_al_0_3_f": 80.0, "marg_hh_0_3_p": 0, "marg_hh_0_3_m": 0, "marg_hh_0_3_f": 0, "per_marg_hh_0_3_p": 0.0, "per_marg_hh_0_3_m": 0.0, "per_marg_hh_0_3_f": 0.0, "marg_ot_0_3_p": 2, "marg_ot_0_3_m": 0, "marg_ot_0_3_f": 2, "per_marg_ot_0_3_p": 0.7518797, "per_marg_ot_0_3_m": 0.0, "per_marg_ot_0_3_f": 100.0, "non_work_p": 388, "non_work_m": 200, "non_work_f": 188, "per_non_work_p": 38.68394816, "per_non_work_m": 51.54639175000001, "per_non_work_f": 48.45360825, "per_hc_tot_tot": 100, "per_hc_tot_god": 94.9, "per_hc_tot_liv": 4.1, "per_hc_tot_dil": 0.9, "per_hc_res_tot": 99.5, "per_hc_res_god": 94.5, "per_hc_res_liv": 4.1, "per_hc_res_dil": 0.9, "per_hc_oth_tot": 0.5, "per_hc_oth_god": 0.5, "per_hc_oth_liv": 0.0, "per_hc_oth_dil": 0.0, "per_mt_grsbam": 26.7, "per_mt_plastic": 0.0, "per_mt_h_tiles": 2.8, "per_mt_m_tiles": 5.5, "per_mt_b_brick": 0.9, "per_mt_stone": 39.6, "per_mt_asbstos": 23.5, "per_mt_concrte": 0.9, "per_mt_oth": 0.0, "per_mw_grsbam": 8.8, "per_mw_plastic": 0.0, "per_mw_mud": 15.2, "per_mw_wood": 0.5, "per_mw_no_mrtr": 10.1, "per_mw_st_mrtr": 3.7, "per_mw_asbstos": 0.0, "per_mw_b_brick": 60.8, "per_mw_concrte": 0.0, "per_mw_oth": 0.9, "per_mf_mud": 18.0, "per_mf_wood": 0.0, "per_mf_b_brick": 0.0, "per_mf_stone": 69.1, "per_mf_cement": 11.5, "per_mf_fl_tile": 0.5, "per_mf_oth": 0.9, "per_dw_n_exrm": 13.8, "per_dw_1_room": 40.6, "per_dw_2_room": 34.1, "per_dw_3_room": 8.8, "per_dw_4_room": 1.8, "per_dw_5_room": 0.9, "per_dw_6_room": 0.0, "per_hhsize_1": 1.8, "per_hhsize_2": 6.0, "per_hhsize_3": 12.0, "per_hhsize_4": 26.7, "per_hhsize_5": 15.2, "per_hhsize_6_8": 31.3, "per_hhsize_9p": 6.9, "per_ow_owned": 95.4, "per_ow_rented": 2.8, "per_ow_oth": 1.8, "per_mc_none": 8.3, "per_mcouple_1": 64.1, "per_mcouple_2": 23.0, "per_mcouple_3": 3.2, "per_mcouple_4": 1.4, "per_mcouple_5p": 0.0, "per_dw_t_ts": 0.0, "per_dw_t_unts": 71.0, "per_dw_c_well": 0.0, "per_dw_unc_wel": 0.0, "per_dw_hpump": 0.0, "per_dw_tw_bore": 28.6, "per_dw_spring": 0.0, "per_dw_rivcan": 0.0, "per_dw_tank": 0.0, "per_dw_oth": 0.5, "per_loc_dw_wp": 0.5, "per_loc_dw_np": 51.2, "per_loc_dw_aw": 48.4, "per_light_elec": 85.3, "per_light_kero": 12.4, "per_light_solr": 0.5, "per_light_oil": 0.0, "per_light_oth": 0.0, "per_light_no": 1.8, "per_hh_latrine": 2.8, "per_fl_sewer": 0.5, "per_fl_septict": 0.0, "per_fl_othsys": 0.0, "per_pl_wslab": 2.3, "per_pl_without": 0.0, "per_ns_open": 0.0, "per_sl_ns_hum": 0.0, "per_sl_ns_anml": 0.0, "per_hh_no_lat": 97.2, "per_as_pub": 0.0, "per_as_open": 97.2, "per_hh_bathrm": 31.8, "per_hh_en_wrf": 16.6, "per_hh_no_btrm": 51.6, "per_wwoc_drain": 0.5, "per_wwoc_open": 40.1, "per_wwoc_nodrn": 59.4, "per_cook_fire": 99.5, "per_cook_resdu": 0.0, "per_cook_cwdng": 0.0, "per_cook_coal": 0.0, "per_cook_kero": 0.0, "per_cook_lpng": 0.0, "per_cook_elec": 0.0, "per_cook_biogs": 0.5, "per_cook_oth": 0.0, "per_cook_no": 0.0, "per_kf_inside": 69.6, "per_kf_in_has": 65.0, "per_kf_in_does": 4.6, "per_kf_outside": 30.4, "per_kf_out_has": 20.7, "per_kf_out_dos": 9.7, "per_kf_no_cook": 0.0, "per_hh_banking": 71.4, "per_hh_radio": 9.2, "per_hh_tv": 13.8, "per_hh_cmp_int": 0.0, "per_hh_cmp_wnt": 0.9, "per_hh_ph_ll": 0.9, "per_hh_ph_mob": 52.1, "per_hh_ph_bth": 1.4, "per_hh_bcycl": 43.8, "per_hh_2wheel": 15.2, "per_hh_4wheel": 0.9, "per_hh_tvcomp": 0.0, "per_hh_no_ast": 29.0, "per_hs_perma": 65.0, "per_hs_sperma": 17.1, "per_hs_temp": 17.1, "per_hs_servc": 9.2, "per_hs_nservc": 7.8, "per_hs_unclss": 0.9, "avghhsz_cy": 4.77619048, "st_areashape": 8830811.28291361, "st_lengthshape": 12172.74079913992}, "geometry": {"type": "Polygon", "coordinates": [[[76.91668966758671, 14.059175386085025], [76.91654211031815, 14.059239437072774], [76.91631471258377, 14.059338096803724], [76.91631471168543, 14.059338143859662], [76.91646298131802, 14.06002503814999], [76.91661121052644, 14.060504049801022], [76.91570566380426, 14.061083523224678], [76.91498645821476, 14.061543700016445], [76.91319038819526, 14.062533747521485], [76.91194984712725, 14.063238916616312], [76.91194980580474, 14.063238941015289], [76.91082036567612, 14.063926009198207], [76.9108203180654, 14.063926034468478], [76.91004729350892, 14.064310242392105], [76.9097600733665, 14.063338697845003], [76.9092031286701, 14.06314755037134], [76.90920312417855, 14.063147496345078], [76.90854879312224, 14.062923111197952], [76.90832481976568, 14.062846305797315], [76.90717826403595, 14.062515164177126], [76.90658873295264, 14.06234489898519], [76.90625690696481, 14.062258664898646], [76.90552854933917, 14.062069375209123], [76.90455630540212, 14.06146395405633], [76.90309319594267, 14.060415660043798], [76.90249008772219, 14.059991530946728], [76.90232999895538, 14.05987894994954], [76.9016024605933, 14.059367308071968], [76.90039407112762, 14.058450017396636], [76.89909775725688, 14.057519217887538], [76.89859607512012, 14.057076161526332], [76.89807450697796, 14.05661553742652], [76.89626892649454, 14.054893847596958], [76.89626889954509, 14.054893819711406], [76.89625582636278, 14.05487973228887], [76.89511151192967, 14.053646623702543], [76.89431351600491, 14.052922631778173], [76.89379665413651, 14.052453681499], [76.89254662596079, 14.051364642295681], [76.89162072700756, 14.050551254403352], [76.89046328100164, 14.049580369507336], [76.89040319538721, 14.049529968718803], [76.88918103654487, 14.048504198368757], [76.88887694154982, 14.048179758348983], [76.88858381139113, 14.047867018823824], [76.8885486207882, 14.047800064468438], [76.88840330481626, 14.047523503584175], [76.88812684199938, 14.04645973752657], [76.88799578318931, 14.045955448636132], [76.88788721010913, 14.04536517700696], [76.88780128086229, 14.044897962885479], [76.8876808796648, 14.043609950487571], [76.88760207495649, 14.04189714948173], [76.88754182225544, 14.04036519360372], [76.8873936316746, 14.039687312442629], [76.88708004957184, 14.038915922582913], [76.88680574091498, 14.038241134396229], [76.88631965712487, 14.037115865987468], [76.88587092708087, 14.035963946969835], [76.8856436775685, 14.035380576257268], [76.8851843015901, 14.034252762963199], [76.88470858256171, 14.033084797335185], [76.88420394137444, 14.031733589774046], [76.89010694627787, 14.031157074947785], [76.89638169111386, 14.031618251367089], [76.89875848782856, 14.03226389574979], [76.9007549980391, 14.031157074947785], [76.90379729815731, 14.030050247930953], [76.90550859236683, 14.030880368476634], [76.90674452687406, 14.034016352398176], [76.90940654048809, 14.037890155245616], [76.91244884060633, 14.041948354575867], [76.91634678782928, 14.0489578018694], [76.91796301063735, 14.053015805094867], [76.91668966758671, 14.059175386085025]]]}}]}