{"type": "FeatureCollection", "features": [{"type": "Feature", "properties": {"premiumdata.sde.IN_Village_PCA.area": 8.32596401, "objectid": 70980, "id": "274694133626323", "name": "Chivali", "subdistrict": "Kannad", "district": "Aurangabad", "state": "Maharashtra", "country": "India", "censusname": "Chivali", "villagename_locallang": null, "lgd_villagename": "Chivali", "lgd_villagecode": 548345, "lgd_subdistrictcode": 4133, "lgd_districtcode": 469, "lgd_statecode": 27, "censuscode2001": "02327600", "censuscode2011": "548345", "censuscode2021": null, "level": "Village", "tru": "Rural", "no_hh": 168, "tot_p": 784, "tot_m": 408, "tot_f": 376, "per_tot_m": 52.04081633, "per_tot_f": 47.95918367, "p_06": 147, "m_06": 82, "f_06": 65, "per_p_06": 18.75, "per_m_06": 55.78231293, "per_f_06": 44.21768707, "p_sc": 0, "m_sc": 0, "f_sc": 0, "per_p_sc": 0.0, "per_m_sc": 0.0, "per_f_sc": 0.0, "p_st": 410, "m_st": 201, "f_st": 209, "per_p_st": 52.29591837, "per_m_st": 49.02439024, "per_f_st": 50.97560976, "p_lit": 380, "m_lit": 247, "f_lit": 133, "per_p_lit": 48.46938776, "per_m_lit": 65.0, "per_f_lit": 35.0, "p_ill": 404, "m_ill": 161, "f_ill": 243, "per_p_ill": 51.53061224, "per_m_ill": 39.85148515, "per_f_ill": 60.14851485, "tot_work_p": 365, "tot_work_m": 205, "tot_work_f": 160, "per_tot_work_p": 46.55612245, "per_tot_work_m": 56.16438356, "per_tot_work_f": 43.83561644, "mainwork_p": 361, "mainwork_m": 202, "mainwork_f": 159, "per_mainwork_p": 46.04591837, "per_mainwork_m": 55.95567867, "per_mainwork_f": 44.04432133, "main_cl_p": 219, "main_cl_m": 130, "main_cl_f": 89, "per_main_cl_p": 60.66481994, "per_main_cl_m": 59.36073059, "per_main_cl_f": 40.63926941, "main_al_p": 132, "main_al_m": 66, "main_al_f": 66, "per_main_al_p": 36.56509695, "per_main_al_m": 50.0, "per_main_al_f": 50.0, "main_hh_p": 0, "main_hh_m": 0, "main_hh_f": 0, "per_main_hh_p": 0.0, "per_main_hh_m": 0.0, "per_main_hh_f": 0.0, "main_ot_p": 10, "main_ot_m": 6, "main_ot_f": 4, "per_main_ot_p": 2.7700831, "per_main_ot_m": 60.0, "per_main_ot_f": 40.0, "margwork_p": 4, "margwork_m": 3, "margwork_f": 1, "per_margwork_p": 0.51020408, "per_margwork_m": 75.0, "per_margwork_f": 25.0, "marg_cl_p": 4, "marg_cl_m": 3, "marg_cl_f": 1, "per_marg_cl_p": 100.0, "per_marg_cl_m": 75.0, "per_marg_cl_f": 25.0, "marg_al_p": 0, "marg_al_m": 0, "marg_al_f": 0, "per_marg_al_p": 0.0, "per_marg_al_m": 0.0, "per_marg_al_f": 0.0, "marg_hh_p": 0, "marg_hh_m": 0, "marg_hh_f": 0, "per_marg_hh_p": 0.0, "per_marg_hh_m": 0.0, "per_marg_hh_f": 0.0, "marg_ot_p": 0, "marg_ot_m": 0, "marg_ot_f": 0, "per_marg_ot_p": 0.0, "per_marg_ot_m": 0.0, "per_marg_ot_f": 0.0, "margwork_3_6_p": 4, "margwork_3_6_m": 3, "margwork_3_6_f": 1, "per_margwork_3_6_p": 100.0, "per_margwork_3_6_m": 75.0, "per_margwork_3_6_f": 25.0, "marg_cl_3_6_p": 4, "marg_cl_3_6_m": 3, "marg_cl_3_6_f": 1, "per_marg_cl_3_6_p": 100.0, "per_marg_cl_3_6_m": 75.0, "per_marg_cl_3_6_f": 25.0, "marg_al_3_6_p": 0, "marg_al_3_6_m": 0, "marg_al_3_6_f": 0, "per_marg_al_3_6_p": 0.0, "per_marg_al_3_6_m": 0.0, "per_marg_al_3_6_f": 0.0, "marg_hh_3_6_p": 0, "marg_hh_3_6_m": 0, "marg_hh_3_6_f": 0, "per_marg_hh_3_6_p": 0.0, "per_marg_hh_3_6_m": 0.0, "per_marg_hh_3_6_f": 0.0, "marg_ot_3_6_p": 0, "marg_ot_3_6_m": 0, "marg_ot_3_6_f": 0, "per_marg_ot_3_6_p": 0.0, "per_marg_ot_3_6_m": 0.0, "per_marg_ot_3_6_f": 0.0, "margwork_0_3_p": 0, "margwork_0_3_m": 0, "margwork_0_3_f": 0, "per_margwork_0_3_p": 0.0, "per_margwork_0_3_m": 0.0, "per_margwork_0_3_f": 0.0, "marg_cl_0_3_p": 0, "marg_cl_0_3_m": 0, "marg_cl_0_3_f": 0, "per_marg_cl_0_3_p": 0.0, "per_marg_cl_0_3_m": 0.0, "per_marg_cl_0_3_f": 0.0, "marg_al_0_3_p": 0, "marg_al_0_3_m": 0, "marg_al_0_3_f": 0, "per_marg_al_0_3_p": 0.0, "per_marg_al_0_3_m": 0.0, "per_marg_al_0_3_f": 0.0, "marg_hh_0_3_p": 0, "marg_hh_0_3_m": 0, "marg_hh_0_3_f": 0, "per_marg_hh_0_3_p": 0.0, "per_marg_hh_0_3_m": 0.0, "per_marg_hh_0_3_f": 0.0, "marg_ot_0_3_p": 0, "marg_ot_0_3_m": 0, "marg_ot_0_3_f": 0, "per_marg_ot_0_3_p": 0.0, "per_marg_ot_0_3_m": 0.0, "per_marg_ot_0_3_f": 0.0, "non_work_p": 419, "non_work_m": 203, "non_work_f": 216, "per_non_work_p": 53.44387755, "per_non_work_m": 48.44868735, "per_non_work_f": 51.55131265, "per_hc_tot_tot": 100, "per_hc_tot_god": 36.1, "per_hc_tot_liv": 61.9, "per_hc_tot_dil": 2.0, "per_hc_res_tot": 98.0, "per_hc_res_god": 35.1, "per_hc_res_liv": 60.9, "per_hc_res_dil": 2.0, "per_hc_oth_tot": 2.0, "per_hc_oth_god": 1.0, "per_hc_oth_liv": 1.0, "per_hc_oth_dil": 0.0, "per_mt_grsbam": 30.7, "per_mt_plastic": 0.0, "per_mt_h_tiles": 7.4, "per_mt_m_tiles": 0.0, "per_mt_b_brick": 0.0, "per_mt_stone": 1.5, "per_mt_asbstos": 41.1, "per_mt_concrte": 6.4, "per_mt_oth": 12.9, "per_mw_grsbam": 11.4, "per_mw_plastic": 0.0, "per_mw_mud": 52.5, "per_mw_wood": 1.0, "per_mw_no_mrtr": 0.5, "per_mw_st_mrtr": 3.5, "per_mw_asbstos": 0.5, "per_mw_b_brick": 28.7, "per_mw_concrte": 2.0, "per_mw_oth": 0.0, "per_mf_mud": 82.7, "per_mf_wood": 0.0, "per_mf_b_brick": 0.0, "per_mf_stone": 7.9, "per_mf_cement": 6.9, "per_mf_fl_tile": 2.0, "per_mf_oth": 0.5, "per_dw_n_exrm": 0.0, "per_dw_1_room": 74.3, "per_dw_2_room": 22.3, "per_dw_3_room": 1.0, "per_dw_4_room": 1.5, "per_dw_5_room": 0.5, "per_dw_6_room": 0.5, "per_hhsize_1": 2.5, "per_hhsize_2": 7.4, "per_hhsize_3": 9.4, "per_hhsize_4": 17.8, "per_hhsize_5": 23.8, "per_hhsize_6_8": 35.1, "per_hhsize_9p": 4.0, "per_ow_owned": 95.0, "per_ow_rented": 5.0, "per_ow_oth": 0.0, "per_mc_none": 2.5, "per_mcouple_1": 80.2, "per_mcouple_2": 16.3, "per_mcouple_3": 1.0, "per_mcouple_4": 0.0, "per_mcouple_5p": 0.0, "per_dw_t_ts": 0.0, "per_dw_t_unts": 16.3, "per_dw_c_well": 0.0, "per_dw_unc_wel": 14.4, "per_dw_hpump": 16.8, "per_dw_tw_bore": 0.0, "per_dw_spring": 52.5, "per_dw_rivcan": 0.0, "per_dw_tank": 0.0, "per_dw_oth": 0.0, "per_loc_dw_wp": 14.9, "per_loc_dw_np": 72.8, "per_loc_dw_aw": 12.4, "per_light_elec": 34.7, "per_light_kero": 65.3, "per_light_solr": 0.0, "per_light_oil": 0.0, "per_light_oth": 0.0, "per_light_no": 0.0, "per_hh_latrine": 8.9, "per_fl_sewer": 0.0, "per_fl_septict": 8.9, "per_fl_othsys": 0.0, "per_pl_wslab": 0.0, "per_pl_without": 0.0, "per_ns_open": 0.0, "per_sl_ns_hum": 0.0, "per_sl_ns_anml": 0.0, "per_hh_no_lat": 91.1, "per_as_pub": 0.5, "per_as_open": 90.6, "per_hh_bathrm": 12.9, "per_hh_en_wrf": 38.1, "per_hh_no_btrm": 49.0, "per_wwoc_drain": 1.5, "per_wwoc_open": 33.2, "per_wwoc_nodrn": 65.3, "per_cook_fire": 88.1, "per_cook_resdu": 1.0, "per_cook_cwdng": 0.0, "per_cook_coal": 0.0, "per_cook_kero": 2.5, "per_cook_lpng": 6.4, "per_cook_elec": 0.0, "per_cook_biogs": 0.0, "per_cook_oth": 0.0, "per_cook_no": 2.0, "per_kf_inside": 84.2, "per_kf_in_has": 11.9, "per_kf_in_does": 72.3, "per_kf_outside": 13.9, "per_kf_out_has": 13.9, "per_kf_out_dos": 0.0, "per_kf_no_cook": 2.0, "per_hh_banking": 38.6, "per_hh_radio": 5.4, "per_hh_tv": 9.4, "per_hh_cmp_int": 0.0, "per_hh_cmp_wnt": 0.0, "per_hh_ph_ll": 1.0, "per_hh_ph_mob": 30.2, "per_hh_ph_bth": 0.5, "per_hh_bcycl": 14.9, "per_hh_2wheel": 12.4, "per_hh_4wheel": 0.5, "per_hh_tvcomp": 0.0, "per_hh_no_ast": 58.9, "per_hs_perma": 29.2, "per_hs_sperma": 27.2, "per_hs_temp": 30.7, "per_hs_servc": 20.8, "per_hs_nservc": 9.9, "per_hs_unclss": 12.9, "avghhsz_cy": 4.66666667, "st_areashape": 9509057.110253945, "st_lengthshape": 13161.549717024525}, "geometry": {"type": "Polygon", "coordinates": [[[74.9695853433088, 20.25559019822908], [74.96977226924469, 20.259529533020476], [74.96921911633714, 20.264740637217553], [74.96741470366358, 20.26792027853151], [74.96379906818834, 20.270037710549495], [74.96159228123442, 20.27104319728407], [74.9579719296039, 20.27258367211771], [74.95366379006263, 20.273530771878715], [74.94857437404069, 20.275737338894984], [74.9435900636019, 20.27784879606107], [74.94383025873583, 20.27760673140932], [74.94426619407521, 20.277167417847565], [74.9453329785094, 20.276064925360025], [74.94642377760607, 20.274890137766853], [74.94642384587806, 20.274890021480253], [74.94710764077739, 20.27375167015181], [74.94565194780891, 20.27255071870038], [74.94372788223446, 20.27206370065564], [74.94372760465505, 20.27206363071389], [74.94191348658319, 20.271739058468203], [74.93990778301401, 20.271378360889667], [74.93952336336122, 20.271310685601843], [74.93785917141533, 20.271017701235603], [74.93727066351315, 20.270866536615095], [74.93727038683204, 20.270866464987414], [74.93726854708231, 20.27086599308756], [74.93703039651398, 20.270804821370266], [74.93495593140142, 20.270271945019587], [74.93473396667787, 20.270214924961653], [74.93473335312852, 20.27021477917767], [74.93473485690829, 20.270208630127975], [74.93488346969734, 20.269595083178555], [74.93477551555638, 20.268100818102166], [74.93436341521642, 20.266989820697393], [74.934109724692, 20.265735091862503], [74.93385925822108, 20.26334032484889], [74.93362872626467, 20.261474958058855], [74.93354668223147, 20.259830787800013], [74.93335137142071, 20.257636045056326], [74.93326791613416, 20.25699877545223], [74.93295608394959, 20.255318588673468], [74.93298891737322, 20.253606697172213], [74.93288497780327, 20.252605489185513], [74.94019121496088, 20.252837313498507], [74.95090075191173, 20.251264390137088], [74.9655691050309, 20.250937378351676], [74.96892842600276, 20.251461723848166], [74.9695853433088, 20.25559019822908]]]}}]}