{"type": "FeatureCollection", "features": [{"type": "Feature", "properties": {"premiumdata.sde.IN_Village_PCA.area": 0.85625292, "objectid": 647041, "id": "182862068235369", "name": "Joonktoli Barbam", "subdistrict": "Tingkhong", "district": "Dibrugarh", "state": "Assam", "country": "India", "censusname": "Joonktoli Barbam 24/170 Np", "villagename_locallang": null, "lgd_villagename": "Joonktoli Barbam", "lgd_villagecode": 292190, "lgd_subdistrictcode": 2068, "lgd_districtcode": 286, "lgd_statecode": 18, "censuscode2001": "01736800", "censuscode2011": "292190", "censuscode2021": null, "level": "Village", "tru": "Rural", "no_hh": 447, "tot_p": 2096, "tot_m": 1041, "tot_f": 1055, "per_tot_m": 49.66603053, "per_tot_f": 50.33396947, "p_06": 294, "m_06": 150, "f_06": 144, "per_p_06": 14.02671756, "per_m_06": 51.02040816, "per_f_06": 48.97959184, "p_sc": 0, "m_sc": 0, "f_sc": 0, "per_p_sc": 0.0, "per_m_sc": 0.0, "per_f_sc": 0.0, "p_st": 0, "m_st": 0, "f_st": 0, "per_p_st": 0.0, "per_m_st": 0.0, "per_f_st": 0.0, "p_lit": 920, "m_lit": 565, "f_lit": 355, "per_p_lit": 43.89312977, "per_m_lit": 61.41304348, "per_f_lit": 38.58695652, "p_ill": 1176, "m_ill": 476, "f_ill": 700, "per_p_ill": 56.10687023, "per_m_ill": 40.47619048, "per_f_ill": 59.52380952, "tot_work_p": 1005, "tot_work_m": 504, "tot_work_f": 501, "per_tot_work_p": 47.94847328, "per_tot_work_m": 50.14925373, "per_tot_work_f": 49.85074627, "mainwork_p": 786, "mainwork_m": 404, "mainwork_f": 382, "per_mainwork_p": 37.5, "per_mainwork_m": 51.39949109, "per_mainwork_f": 48.60050891, "main_cl_p": 2, "main_cl_m": 1, "main_cl_f": 1, "per_main_cl_p": 0.25445293, "per_main_cl_m": 50.0, "per_main_cl_f": 50.0, "main_al_p": 0, "main_al_m": 0, "main_al_f": 0, "per_main_al_p": 0.0, "per_main_al_m": 0.0, "per_main_al_f": 0.0, "main_hh_p": 0, "main_hh_m": 0, "main_hh_f": 0, "per_main_hh_p": 0.0, "per_main_hh_m": 0.0, "per_main_hh_f": 0.0, "main_ot_p": 784, "main_ot_m": 403, "main_ot_f": 381, "per_main_ot_p": 99.74554707, "per_main_ot_m": 51.40306122, "per_main_ot_f": 48.59693878, "margwork_p": 219, "margwork_m": 100, "margwork_f": 119, "per_margwork_p": 10.44847328, "per_margwork_m": 45.66210046, "per_margwork_f": 54.33789954, "marg_cl_p": 5, "marg_cl_m": 2, "marg_cl_f": 3, "per_marg_cl_p": 2.28310502, "per_marg_cl_m": 40.0, "per_marg_cl_f": 60.0, "marg_al_p": 2, "marg_al_m": 0, "marg_al_f": 2, "per_marg_al_p": 0.91324201, "per_marg_al_m": 0.0, "per_marg_al_f": 100.0, "marg_hh_p": 1, "marg_hh_m": 0, "marg_hh_f": 1, "per_marg_hh_p": 0.456621, "per_marg_hh_m": 0.0, "per_marg_hh_f": 100.0, "marg_ot_p": 211, "marg_ot_m": 98, "marg_ot_f": 113, "per_marg_ot_p": 96.34703196, "per_marg_ot_m": 46.44549763, "per_marg_ot_f": 53.55450237, "margwork_3_6_p": 216, "margwork_3_6_m": 99, "margwork_3_6_f": 117, "per_margwork_3_6_p": 98.63013699, "per_margwork_3_6_m": 45.83333333, "per_margwork_3_6_f": 54.16666667000001, "marg_cl_3_6_p": 5, "marg_cl_3_6_m": 2, "marg_cl_3_6_f": 3, "per_marg_cl_3_6_p": 2.28310502, "per_marg_cl_3_6_m": 40.0, "per_marg_cl_3_6_f": 60.0, "marg_al_3_6_p": 1, "marg_al_3_6_m": 0, "marg_al_3_6_f": 1, "per_marg_al_3_6_p": 0.456621, "per_marg_al_3_6_m": 0.0, "per_marg_al_3_6_f": 100.0, "marg_hh_3_6_p": 1, "marg_hh_3_6_m": 0, "marg_hh_3_6_f": 1, "per_marg_hh_3_6_p": 0.456621, "per_marg_hh_3_6_m": 0.0, "per_marg_hh_3_6_f": 100.0, "marg_ot_3_6_p": 209, "marg_ot_3_6_m": 97, "marg_ot_3_6_f": 112, "per_marg_ot_3_6_p": 95.43378995, "per_marg_ot_3_6_m": 46.41148325, "per_marg_ot_3_6_f": 53.58851675, "margwork_0_3_p": 3, "margwork_0_3_m": 1, "margwork_0_3_f": 2, "per_margwork_0_3_p": 1.36986301, "per_margwork_0_3_m": 33.33333333, "per_margwork_0_3_f": 66.66666667, "marg_cl_0_3_p": 0, "marg_cl_0_3_m": 0, "marg_cl_0_3_f": 0, "per_marg_cl_0_3_p": 0.0, "per_marg_cl_0_3_m": 0.0, "per_marg_cl_0_3_f": 0.0, "marg_al_0_3_p": 1, "marg_al_0_3_m": 0, "marg_al_0_3_f": 1, "per_marg_al_0_3_p": 0.456621, "per_marg_al_0_3_m": 0.0, "per_marg_al_0_3_f": 100.0, "marg_hh_0_3_p": 0, "marg_hh_0_3_m": 0, "marg_hh_0_3_f": 0, "per_marg_hh_0_3_p": 0.0, "per_marg_hh_0_3_m": 0.0, "per_marg_hh_0_3_f": 0.0, "marg_ot_0_3_p": 2, "marg_ot_0_3_m": 1, "marg_ot_0_3_f": 1, "per_marg_ot_0_3_p": 0.91324201, "per_marg_ot_0_3_m": 50.0, "per_marg_ot_0_3_f": 50.0, "non_work_p": 1091, "non_work_m": 537, "non_work_f": 554, "per_non_work_p": 52.05152672, "per_non_work_m": 49.22089826, "per_non_work_f": 50.77910174, "per_hc_tot_tot": 100, "per_hc_tot_god": 1.5, "per_hc_tot_liv": 94.5, "per_hc_tot_dil": 3.9, "per_hc_res_tot": 99.6, "per_hc_res_god": 1.5, "per_hc_res_liv": 94.1, "per_hc_res_dil": 3.9, "per_hc_oth_tot": 0.4, "per_hc_oth_god": 0.0, "per_hc_oth_liv": 0.4, "per_hc_oth_dil": 0.0, "per_mt_grsbam": 3.3, "per_mt_plastic": 0.0, "per_mt_h_tiles": 0.2, "per_mt_m_tiles": 0.0, "per_mt_b_brick": 0.0, "per_mt_stone": 0.0, "per_mt_asbstos": 96.5, "per_mt_concrte": 0.0, "per_mt_oth": 0.0, "per_mw_grsbam": 25.2, "per_mw_plastic": 0.4, "per_mw_mud": 32.2, "per_mw_wood": 0.0, "per_mw_no_mrtr": 0.0, "per_mw_st_mrtr": 0.0, "per_mw_asbstos": 0.2, "per_mw_b_brick": 42.0, "per_mw_concrte": 0.0, "per_mw_oth": 0.0, "per_mf_mud": 90.6, "per_mf_wood": 0.0, "per_mf_b_brick": 9.4, "per_mf_stone": 0.0, "per_mf_cement": 0.0, "per_mf_fl_tile": 0.0, "per_mf_oth": 0.0, "per_dw_n_exrm": 0.2, "per_dw_1_room": 42.9, "per_dw_2_room": 12.0, "per_dw_3_room": 25.2, "per_dw_4_room": 16.6, "per_dw_5_room": 2.6, "per_dw_6_room": 0.4, "per_hhsize_1": 2.6, "per_hhsize_2": 8.8, "per_hhsize_3": 15.5, "per_hhsize_4": 19.0, "per_hhsize_5": 22.3, "per_hhsize_6_8": 30.2, "per_hhsize_9p": 1.5, "per_ow_owned": 21.2, "per_ow_rented": 0.7, "per_ow_oth": 78.1, "per_mc_none": 11.2, "per_mcouple_1": 84.7, "per_mcouple_2": 3.9, "per_mcouple_3": 0.2, "per_mcouple_4": 0.0, "per_mcouple_5p": 0.0, "per_dw_t_ts": 0.7, "per_dw_t_unts": 7.2, "per_dw_c_well": 0.0, "per_dw_unc_wel": 0.0, "per_dw_hpump": 91.9, "per_dw_tw_bore": 0.0, "per_dw_spring": 0.0, "per_dw_rivcan": 0.0, "per_dw_tank": 0.2, "per_dw_oth": 0.0, "per_loc_dw_wp": 24.1, "per_loc_dw_np": 54.9, "per_loc_dw_aw": 21.0, "per_light_elec": 70.9, "per_light_kero": 28.9, "per_light_solr": 0.0, "per_light_oil": 0.0, "per_light_oth": 0.0, "per_light_no": 0.2, "per_hh_latrine": 93.9, "per_fl_sewer": 27.1, "per_fl_septict": 45.1, "per_fl_othsys": 21.7, "per_pl_wslab": 0.0, "per_pl_without": 0.0, "per_ns_open": 0.0, "per_sl_ns_hum": 0.0, "per_sl_ns_anml": 0.0, "per_hh_no_lat": 6.1, "per_as_pub": 3.5, "per_as_open": 2.6, "per_hh_bathrm": 14.2, "per_hh_en_wrf": 25.8, "per_hh_no_btrm": 60.0, "per_wwoc_drain": 0.2, "per_wwoc_open": 57.8, "per_wwoc_nodrn": 42.0, "per_cook_fire": 91.5, "per_cook_resdu": 0.0, "per_cook_cwdng": 0.0, "per_cook_coal": 0.0, "per_cook_kero": 0.0, "per_cook_lpng": 8.1, "per_cook_elec": 0.0, "per_cook_biogs": 0.0, "per_cook_oth": 0.0, "per_cook_no": 0.4, "per_kf_inside": 99.1, "per_kf_in_has": 91.5, "per_kf_in_does": 7.7, "per_kf_outside": 0.4, "per_kf_out_has": 0.0, "per_kf_out_dos": 0.4, "per_kf_no_cook": 0.4, "per_hh_banking": 42.2, "per_hh_radio": 11.2, "per_hh_tv": 47.7, "per_hh_cmp_int": 0.2, "per_hh_cmp_wnt": 18.4, "per_hh_ph_ll": 21.0, "per_hh_ph_mob": 25.6, "per_hh_ph_bth": 1.1, "per_hh_bcycl": 67.2, "per_hh_2wheel": 5.5, "per_hh_4wheel": 2.0, "per_hh_tvcomp": 1.3, "per_hh_no_ast": 11.6, "per_hs_perma": 42.2, "per_hs_sperma": 54.5, "per_hs_temp": 3.3, "per_hs_servc": 1.3, "per_hs_nservc": 2.0, "per_hs_unclss": 0.0, "avghhsz_cy": 4.68903803, "st_areashape": 1085687.666487695, "st_lengthshape": 4121.665988010334}, "geometry": {"type": "Polygon", "coordinates": [[[95.07495294471393, 27.150945706228708], [95.0736219379069, 27.15170706475636], [95.07095992519118, 27.15272220165503], [95.0684880561767, 27.15432948201317], [95.06687183426696, 27.153821922419375], [95.06373446184898, 27.152806795513968], [95.06173795163843, 27.152468418095342], [95.06344924584793, 27.150015149959728], [95.06420982065295, 27.147900221032707], [95.06487532405643, 27.145277652863264], [95.06810776877421, 27.145023852393532], [95.07029442178768, 27.145531452756593], [95.07210078829696, 27.146123648933727], [95.07248107569944, 27.146292847379254], [95.07495294471393, 27.150945706228708]]]}}]}