{"type": "FeatureCollection", "features": [{"type": "Feature", "properties": {"premiumdata.sde.IN_Village_PCA.area": 0.75413555, "objectid": 338694, "id": "9176723461498", "name": "Alinagar North", "subdistrict": "Suar", "district": "Rampur", "state": "Uttar Pradesh", "country": "India", "censusname": "Alinagar North", "villagename_locallang": null, "lgd_villagename": "Alinagar North", "lgd_villagecode": 116329, "lgd_subdistrictcode": 723, "lgd_districtcode": 176, "lgd_statecode": 9, "censuscode2001": "00749100", "censuscode2011": "116329", "censuscode2021": null, "level": "Village", "tru": "Rural", "no_hh": 273, "tot_p": 1697, "tot_m": 908, "tot_f": 789, "per_tot_m": 53.50618739, "per_tot_f": 46.49381261, "p_06": 253, "m_06": 137, "f_06": 116, "per_p_06": 14.90866235, "per_m_06": 54.15019763, "per_f_06": 45.84980237, "p_sc": 0, "m_sc": 0, "f_sc": 0, "per_p_sc": 0.0, "per_m_sc": 0.0, "per_f_sc": 0.0, "p_st": 0, "m_st": 0, "f_st": 0, "per_p_st": 0.0, "per_m_st": 0.0, "per_f_st": 0.0, "p_lit": 898, "m_lit": 541, "f_lit": 357, "per_p_lit": 52.9169122, "per_m_lit": 60.24498886, "per_f_lit": 39.75501114, "p_ill": 799, "m_ill": 367, "f_ill": 432, "per_p_ill": 47.0830878, "per_m_ill": 45.93241552, "per_f_ill": 54.06758448, "tot_work_p": 380, "tot_work_m": 337, "tot_work_f": 43, "per_tot_work_p": 22.39245728, "per_tot_work_m": 88.68421053, "per_tot_work_f": 11.31578947, "mainwork_p": 362, "mainwork_m": 327, "mainwork_f": 35, "per_mainwork_p": 21.33176193, "per_mainwork_m": 90.33149171000001, "per_mainwork_f": 9.66850829, "main_cl_p": 193, "main_cl_m": 180, "main_cl_f": 13, "per_main_cl_p": 53.31491713, "per_main_cl_m": 93.2642487, "per_main_cl_f": 6.7357513, "main_al_p": 88, "main_al_m": 83, "main_al_f": 5, "per_main_al_p": 24.30939227, "per_main_al_m": 94.31818182, "per_main_al_f": 5.68181818, "main_hh_p": 1, "main_hh_m": 0, "main_hh_f": 1, "per_main_hh_p": 0.27624309, "per_main_hh_m": 0.0, "per_main_hh_f": 100.0, "main_ot_p": 80, "main_ot_m": 64, "main_ot_f": 16, "per_main_ot_p": 22.09944751, "per_main_ot_m": 80.0, "per_main_ot_f": 20.0, "margwork_p": 18, "margwork_m": 10, "margwork_f": 8, "per_margwork_p": 1.06069534, "per_margwork_m": 55.55555556, "per_margwork_f": 44.44444444000001, "marg_cl_p": 1, "marg_cl_m": 0, "marg_cl_f": 1, "per_marg_cl_p": 5.55555556, "per_marg_cl_m": 0.0, "per_marg_cl_f": 100.0, "marg_al_p": 1, "marg_al_m": 1, "marg_al_f": 0, "per_marg_al_p": 5.55555556, "per_marg_al_m": 100.0, "per_marg_al_f": 0.0, "marg_hh_p": 1, "marg_hh_m": 0, "marg_hh_f": 1, "per_marg_hh_p": 5.55555556, "per_marg_hh_m": 0.0, "per_marg_hh_f": 100.0, "marg_ot_p": 15, "marg_ot_m": 9, "marg_ot_f": 6, "per_marg_ot_p": 83.33333332999999, "per_marg_ot_m": 60.0, "per_marg_ot_f": 40.0, "margwork_3_6_p": 16, "margwork_3_6_m": 9, "margwork_3_6_f": 7, "per_margwork_3_6_p": 88.88888889, "per_margwork_3_6_m": 56.25, "per_margwork_3_6_f": 43.75, "marg_cl_3_6_p": 1, "marg_cl_3_6_m": 0, "marg_cl_3_6_f": 1, "per_marg_cl_3_6_p": 5.55555556, "per_marg_cl_3_6_m": 0.0, "per_marg_cl_3_6_f": 100.0, "marg_al_3_6_p": 1, "marg_al_3_6_m": 1, "marg_al_3_6_f": 0, "per_marg_al_3_6_p": 5.55555556, "per_marg_al_3_6_m": 100.0, "per_marg_al_3_6_f": 0.0, "marg_hh_3_6_p": 0, "marg_hh_3_6_m": 0, "marg_hh_3_6_f": 0, "per_marg_hh_3_6_p": 0.0, "per_marg_hh_3_6_m": 0.0, "per_marg_hh_3_6_f": 0.0, "marg_ot_3_6_p": 14, "marg_ot_3_6_m": 8, "marg_ot_3_6_f": 6, "per_marg_ot_3_6_p": 77.77777778, "per_marg_ot_3_6_m": 57.14285714, "per_marg_ot_3_6_f": 42.85714286, "margwork_0_3_p": 2, "margwork_0_3_m": 1, "margwork_0_3_f": 1, "per_margwork_0_3_p": 11.11111111, "per_margwork_0_3_m": 50.0, "per_margwork_0_3_f": 50.0, "marg_cl_0_3_p": 0, "marg_cl_0_3_m": 0, "marg_cl_0_3_f": 0, "per_marg_cl_0_3_p": 0.0, "per_marg_cl_0_3_m": 0.0, "per_marg_cl_0_3_f": 0.0, "marg_al_0_3_p": 0, "marg_al_0_3_m": 0, "marg_al_0_3_f": 0, "per_marg_al_0_3_p": 0.0, "per_marg_al_0_3_m": 0.0, "per_marg_al_0_3_f": 0.0, "marg_hh_0_3_p": 1, "marg_hh_0_3_m": 0, "marg_hh_0_3_f": 1, "per_marg_hh_0_3_p": 5.55555556, "per_marg_hh_0_3_m": 0.0, "per_marg_hh_0_3_f": 100.0, "marg_ot_0_3_p": 1, "marg_ot_0_3_m": 1, "marg_ot_0_3_f": 0, "per_marg_ot_0_3_p": 5.55555556, "per_marg_ot_0_3_m": 100.0, "per_marg_ot_0_3_f": 0.0, "non_work_p": 1317, "non_work_m": 571, "non_work_f": 746, "per_non_work_p": 77.60754272, "per_non_work_m": 43.35611238, "per_non_work_f": 56.64388762, "per_hc_tot_tot": 100, "per_hc_tot_god": 47.2, "per_hc_tot_liv": 39.7, "per_hc_tot_dil": 13.1, "per_hc_res_tot": 96.8, "per_hc_res_god": 46.5, "per_hc_res_liv": 37.6, "per_hc_res_dil": 12.8, "per_hc_oth_tot": 3.2, "per_hc_oth_god": 0.7, "per_hc_oth_liv": 2.1, "per_hc_oth_dil": 0.4, "per_mt_grsbam": 40.4, "per_mt_plastic": 0.0, "per_mt_h_tiles": 1.8, "per_mt_m_tiles": 0.0, "per_mt_b_brick": 50.0, "per_mt_stone": 0.7, "per_mt_asbstos": 1.4, "per_mt_concrte": 5.7, "per_mt_oth": 0.0, "per_mw_grsbam": 6.0, "per_mw_plastic": 0.4, "per_mw_mud": 25.5, "per_mw_wood": 0.0, "per_mw_no_mrtr": 3.2, "per_mw_st_mrtr": 0.0, "per_mw_asbstos": 0.7, "per_mw_b_brick": 63.5, "per_mw_concrte": 0.4, "per_mw_oth": 0.4, "per_mf_mud": 65.2, "per_mf_wood": 0.4, "per_mf_b_brick": 28.0, "per_mf_stone": 0.0, "per_mf_cement": 6.0, "per_mf_fl_tile": 0.0, "per_mf_oth": 0.4, "per_dw_n_exrm": 2.1, "per_dw_1_room": 42.9, "per_dw_2_room": 41.1, "per_dw_3_room": 10.3, "per_dw_4_room": 1.8, "per_dw_5_room": 0.0, "per_dw_6_room": 1.8, "per_hhsize_1": 5.7, "per_hhsize_2": 5.7, "per_hhsize_3": 6.4, "per_hhsize_4": 8.5, "per_hhsize_5": 8.9, "per_hhsize_6_8": 46.1, "per_hhsize_9p": 18.8, "per_ow_owned": 96.1, "per_ow_rented": 3.2, "per_ow_oth": 0.7, "per_mc_none": 17.4, "per_mcouple_1": 65.6, "per_mcouple_2": 14.2, "per_mcouple_3": 1.8, "per_mcouple_4": 0.4, "per_mcouple_5p": 0.7, "per_dw_t_ts": 29.4, "per_dw_t_unts": 2.8, "per_dw_c_well": 1.1, "per_dw_unc_wel": 0.0, "per_dw_hpump": 64.5, "per_dw_tw_bore": 0.4, "per_dw_spring": 0.0, "per_dw_rivcan": 0.0, "per_dw_tank": 0.0, "per_dw_oth": 1.8, "per_loc_dw_wp": 85.5, "per_loc_dw_np": 13.8, "per_loc_dw_aw": 0.7, "per_light_elec": 10.3, "per_light_kero": 86.9, "per_light_solr": 1.8, "per_light_oil": 0.7, "per_light_oth": 0.4, "per_light_no": 0.0, "per_hh_latrine": 80.5, "per_fl_sewer": 8.2, "per_fl_septict": 42.2, "per_fl_othsys": 26.6, "per_pl_wslab": 0.0, "per_pl_without": 2.1, "per_ns_open": 1.4, "per_sl_ns_hum": 0.0, "per_sl_ns_anml": 0.0, "per_hh_no_lat": 19.5, "per_as_pub": 0.0, "per_as_open": 19.5, "per_hh_bathrm": 52.1, "per_hh_en_wrf": 34.8, "per_hh_no_btrm": 13.1, "per_wwoc_drain": 12.1, "per_wwoc_open": 81.2, "per_wwoc_nodrn": 6.7, "per_cook_fire": 59.2, "per_cook_resdu": 11.0, "per_cook_cwdng": 11.7, "per_cook_coal": 1.1, "per_cook_kero": 12.8, "per_cook_lpng": 0.7, "per_cook_elec": 0.0, "per_cook_biogs": 0.0, "per_cook_oth": 0.0, "per_cook_no": 3.5, "per_kf_inside": 85.8, "per_kf_in_has": 55.3, "per_kf_in_does": 30.5, "per_kf_outside": 10.6, "per_kf_out_has": 5.3, "per_kf_out_dos": 5.3, "per_kf_no_cook": 3.5, "per_hh_banking": 78.0, "per_hh_radio": 48.6, "per_hh_tv": 23.8, "per_hh_cmp_int": 13.8, "per_hh_cmp_wnt": 11.0, "per_hh_ph_ll": 14.5, "per_hh_ph_mob": 29.4, "per_hh_ph_bth": 3.9, "per_hh_bcycl": 72.0, "per_hh_2wheel": 21.3, "per_hh_4wheel": 10.6, "per_hh_tvcomp": 6.7, "per_hh_no_ast": 9.6, "per_hs_perma": 46.1, "per_hs_sperma": 34.8, "per_hs_temp": 18.8, "per_hs_servc": 13.5, "per_hs_nservc": 5.3, "per_hs_unclss": 0.4, "avghhsz_cy": 6.21611722, "st_areashape": 990171.810057265, "st_lengthshape": 4111.711869568682}, "geometry": {"type": "Polygon", "coordinates": [[[79.0713035666515, 29.04596355055351], [79.0710119887816, 29.04615378512532], [79.06975505615463, 29.046717089723607], [79.06856885597476, 29.047001912411357], [79.06783418768428, 29.047071602280948], [79.06734815330147, 29.04706660289428], [79.0670466176067, 29.04706075064307], [79.06554936587824, 29.046619619368027], [79.06461869507423, 29.04630721869507], [79.06346460247924, 29.045548951939242], [79.06341825569879, 29.045525149919072], [79.06356824470683, 29.04409399820841], [79.06339684525231, 29.0429133215458], [79.06296780717767, 29.04131556226162], [79.06238551112567, 29.040480100334822], [79.06167958982257, 29.039230142725366], [79.06132145756996, 29.038811105524804], [79.06073819582902, 29.038469010687567], [79.0611926607178, 29.038184389067606], [79.061672784186, 29.037752207927824], [79.06208366641043, 29.037406982904137], [79.06342512062422, 29.0356677287808], [79.06543776906881, 29.037310261665237], [79.06751353494191, 29.038733966153], [79.06893042069011, 29.03970334762475], [79.07052543157933, 29.04158861541585], [79.07155981108627, 29.043109785690977], [79.07170811754979, 29.04387793673209], [79.07165910906117, 29.044495097863848], [79.0713645119536, 29.045548988850154], [79.0713035666515, 29.04596355055351]]]}}]}