{"type": "FeatureCollection", "features": [{"type": "Feature", "properties": {"premiumdata.sde.IN_Village_PCA.area": 3.10784259, "objectid": 129910, "id": "226433355262915", "name": "Kawagaon", "subdistrict": "Keskal", "district": "Kondagaon", "state": "Chhattisgarh", "country": "India", "censusname": "Kawagaon", "villagename_locallang": "\u0915\u093e\u0935\u093e\u0917\u093e\u0901\u0935", "lgd_villagename": "Kawagaon", "lgd_villagecode": 448500, "lgd_subdistrictcode": 3355, "lgd_districtcode": 643, "lgd_statecode": 22, "censuscode2001": "01744000", "censuscode2011": "448500", "censuscode2021": null, "level": "Village", "tru": "Rural", "no_hh": 93, "tot_p": 443, "tot_m": 218, "tot_f": 225, "per_tot_m": 49.20993228, "per_tot_f": 50.79006772, "p_06": 74, "m_06": 34, "f_06": 40, "per_p_06": 16.70428894, "per_m_06": 45.94594595, "per_f_06": 54.05405405, "p_sc": 15, "m_sc": 8, "f_sc": 7, "per_p_sc": 3.38600451, "per_m_sc": 53.33333333, "per_f_sc": 46.66666667000001, "p_st": 380, "m_st": 182, "f_st": 198, "per_p_st": 85.77878104, "per_m_st": 47.89473684, "per_f_st": 52.10526316000001, "p_lit": 133, "m_lit": 78, "f_lit": 55, "per_p_lit": 30.02257336, "per_m_lit": 58.64661654, "per_f_lit": 41.35338346, "p_ill": 310, "m_ill": 140, "f_ill": 170, "per_p_ill": 69.97742664, "per_m_ill": 45.16129032, "per_f_ill": 54.83870968, "tot_work_p": 279, "tot_work_m": 144, "tot_work_f": 135, "per_tot_work_p": 62.97968397, "per_tot_work_m": 51.61290323, "per_tot_work_f": 48.38709677, "mainwork_p": 198, "mainwork_m": 138, "mainwork_f": 60, "per_mainwork_p": 44.69525959, "per_mainwork_m": 69.6969697, "per_mainwork_f": 30.3030303, "main_cl_p": 55, "main_cl_m": 53, "main_cl_f": 2, "per_main_cl_p": 27.77777778, "per_main_cl_m": 96.36363636, "per_main_cl_f": 3.63636364, "main_al_p": 143, "main_al_m": 85, "main_al_f": 58, "per_main_al_p": 72.22222222, "per_main_al_m": 59.44055944, "per_main_al_f": 40.55944056, "main_hh_p": 0, "main_hh_m": 0, "main_hh_f": 0, "per_main_hh_p": 0.0, "per_main_hh_m": 0.0, "per_main_hh_f": 0.0, "main_ot_p": 0, "main_ot_m": 0, "main_ot_f": 0, "per_main_ot_p": 0.0, "per_main_ot_m": 0.0, "per_main_ot_f": 0.0, "margwork_p": 81, "margwork_m": 6, "margwork_f": 75, "per_margwork_p": 18.28442438, "per_margwork_m": 7.40740741, "per_margwork_f": 92.59259259, "marg_cl_p": 0, "marg_cl_m": 0, "marg_cl_f": 0, "per_marg_cl_p": 0.0, "per_marg_cl_m": 0.0, "per_marg_cl_f": 0.0, "marg_al_p": 81, "marg_al_m": 6, "marg_al_f": 75, "per_marg_al_p": 100.0, "per_marg_al_m": 7.40740741, "per_marg_al_f": 92.59259259, "marg_hh_p": 0, "marg_hh_m": 0, "marg_hh_f": 0, "per_marg_hh_p": 0.0, "per_marg_hh_m": 0.0, "per_marg_hh_f": 0.0, "marg_ot_p": 0, "marg_ot_m": 0, "marg_ot_f": 0, "per_marg_ot_p": 0.0, "per_marg_ot_m": 0.0, "per_marg_ot_f": 0.0, "margwork_3_6_p": 80, "margwork_3_6_m": 6, "margwork_3_6_f": 74, "per_margwork_3_6_p": 98.7654321, "per_margwork_3_6_m": 7.5, "per_margwork_3_6_f": 92.5, "marg_cl_3_6_p": 0, "marg_cl_3_6_m": 0, "marg_cl_3_6_f": 0, "per_marg_cl_3_6_p": 0.0, "per_marg_cl_3_6_m": 0.0, "per_marg_cl_3_6_f": 0.0, "marg_al_3_6_p": 80, "marg_al_3_6_m": 6, "marg_al_3_6_f": 74, "per_marg_al_3_6_p": 98.7654321, "per_marg_al_3_6_m": 7.5, "per_marg_al_3_6_f": 92.5, "marg_hh_3_6_p": 0, "marg_hh_3_6_m": 0, "marg_hh_3_6_f": 0, "per_marg_hh_3_6_p": 0.0, "per_marg_hh_3_6_m": 0.0, "per_marg_hh_3_6_f": 0.0, "marg_ot_3_6_p": 0, "marg_ot_3_6_m": 0, "marg_ot_3_6_f": 0, "per_marg_ot_3_6_p": 0.0, "per_marg_ot_3_6_m": 0.0, "per_marg_ot_3_6_f": 0.0, "margwork_0_3_p": 1, "margwork_0_3_m": 0, "margwork_0_3_f": 1, "per_margwork_0_3_p": 1.2345679, "per_margwork_0_3_m": 0.0, "per_margwork_0_3_f": 100.0, "marg_cl_0_3_p": 0, "marg_cl_0_3_m": 0, "marg_cl_0_3_f": 0, "per_marg_cl_0_3_p": 0.0, "per_marg_cl_0_3_m": 0.0, "per_marg_cl_0_3_f": 0.0, "marg_al_0_3_p": 1, "marg_al_0_3_m": 0, "marg_al_0_3_f": 1, "per_marg_al_0_3_p": 1.2345679, "per_marg_al_0_3_m": 0.0, "per_marg_al_0_3_f": 100.0, "marg_hh_0_3_p": 0, "marg_hh_0_3_m": 0, "marg_hh_0_3_f": 0, "per_marg_hh_0_3_p": 0.0, "per_marg_hh_0_3_m": 0.0, "per_marg_hh_0_3_f": 0.0, "marg_ot_0_3_p": 0, "marg_ot_0_3_m": 0, "marg_ot_0_3_f": 0, "per_marg_ot_0_3_p": 0.0, "per_marg_ot_0_3_m": 0.0, "per_marg_ot_0_3_f": 0.0, "non_work_p": 164, "non_work_m": 74, "non_work_f": 90, "per_non_work_p": 37.02031603, "per_non_work_m": 45.12195122, "per_non_work_f": 54.87804878, "per_hc_tot_tot": 100, "per_hc_tot_god": 0.0, "per_hc_tot_liv": 98.9, "per_hc_tot_dil": 1.1, "per_hc_res_tot": 100.0, "per_hc_res_god": 0.0, "per_hc_res_liv": 98.9, "per_hc_res_dil": 1.1, "per_hc_oth_tot": 0.0, "per_hc_oth_god": 0.0, "per_hc_oth_liv": 0.0, "per_hc_oth_dil": 0.0, "per_mt_grsbam": 0.0, "per_mt_plastic": 0.0, "per_mt_h_tiles": 100.0, "per_mt_m_tiles": 0.0, "per_mt_b_brick": 0.0, "per_mt_stone": 0.0, "per_mt_asbstos": 0.0, "per_mt_concrte": 0.0, "per_mt_oth": 0.0, "per_mw_grsbam": 0.0, "per_mw_plastic": 0.0, "per_mw_mud": 100.0, "per_mw_wood": 0.0, "per_mw_no_mrtr": 0.0, "per_mw_st_mrtr": 0.0, "per_mw_asbstos": 0.0, "per_mw_b_brick": 0.0, "per_mw_concrte": 0.0, "per_mw_oth": 0.0, "per_mf_mud": 100.0, "per_mf_wood": 0.0, "per_mf_b_brick": 0.0, "per_mf_stone": 0.0, "per_mf_cement": 0.0, "per_mf_fl_tile": 0.0, "per_mf_oth": 0.0, "per_dw_n_exrm": 0.0, "per_dw_1_room": 31.0, "per_dw_2_room": 46.0, "per_dw_3_room": 20.7, "per_dw_4_room": 0.0, "per_dw_5_room": 2.3, "per_dw_6_room": 0.0, "per_hhsize_1": 5.7, "per_hhsize_2": 4.6, "per_hhsize_3": 16.1, "per_hhsize_4": 11.5, "per_hhsize_5": 23.0, "per_hhsize_6_8": 35.6, "per_hhsize_9p": 3.4, "per_ow_owned": 100.0, "per_ow_rented": 0.0, "per_ow_oth": 0.0, "per_mc_none": 16.1, "per_mcouple_1": 62.1, "per_mcouple_2": 17.2, "per_mcouple_3": 4.6, "per_mcouple_4": 0.0, "per_mcouple_5p": 0.0, "per_dw_t_ts": 0.0, "per_dw_t_unts": 0.0, "per_dw_c_well": 0.0, "per_dw_unc_wel": 17.2, "per_dw_hpump": 20.7, "per_dw_tw_bore": 0.0, "per_dw_spring": 62.1, "per_dw_rivcan": 0.0, "per_dw_tank": 0.0, "per_dw_oth": 0.0, "per_loc_dw_wp": 0.0, "per_loc_dw_np": 47.1, "per_loc_dw_aw": 52.9, "per_light_elec": 13.8, "per_light_kero": 86.2, "per_light_solr": 0.0, "per_light_oil": 0.0, "per_light_oth": 0.0, "per_light_no": 0.0, "per_hh_latrine": 0.0, "per_fl_sewer": 0.0, "per_fl_septict": 0.0, "per_fl_othsys": 0.0, "per_pl_wslab": 0.0, "per_pl_without": 0.0, "per_ns_open": 0.0, "per_sl_ns_hum": 0.0, "per_sl_ns_anml": 0.0, "per_hh_no_lat": 100.0, "per_as_pub": 0.0, "per_as_open": 100.0, "per_hh_bathrm": 0.0, "per_hh_en_wrf": 0.0, "per_hh_no_btrm": 100.0, "per_wwoc_drain": 0.0, "per_wwoc_open": 0.0, "per_wwoc_nodrn": 100.0, "per_cook_fire": 100.0, "per_cook_resdu": 0.0, "per_cook_cwdng": 0.0, "per_cook_coal": 0.0, "per_cook_kero": 0.0, "per_cook_lpng": 0.0, "per_cook_elec": 0.0, "per_cook_biogs": 0.0, "per_cook_oth": 0.0, "per_cook_no": 0.0, "per_kf_inside": 100.0, "per_kf_in_has": 33.3, "per_kf_in_does": 66.7, "per_kf_outside": 0.0, "per_kf_out_has": 0.0, "per_kf_out_dos": 0.0, "per_kf_no_cook": 0.0, "per_hh_banking": 0.0, "per_hh_radio": 18.4, "per_hh_tv": 1.1, "per_hh_cmp_int": 0.0, "per_hh_cmp_wnt": 6.9, "per_hh_ph_ll": 0.0, "per_hh_ph_mob": 0.0, "per_hh_ph_bth": 0.0, "per_hh_bcycl": 35.6, "per_hh_2wheel": 0.0, "per_hh_4wheel": 0.0, "per_hh_tvcomp": 0.0, "per_hh_no_ast": 58.6, "per_hs_perma": 0.0, "per_hs_sperma": 100.0, "per_hs_temp": 0.0, "per_hs_servc": 0.0, "per_hs_nservc": 0.0, "per_hs_unclss": 0.0, "avghhsz_cy": 4.76344086, "st_areashape": 3538295.252667335, "st_lengthshape": 7782.531647964317}, "geometry": {"type": "Polygon", "coordinates": [[[81.31050979481242, 20.004763727965617], [81.31039008980923, 20.008363131987362], [81.30871421706968, 20.016911388004722], [81.30660241078736, 20.021871899376855], [81.30379592921102, 20.021701588124415], [81.29727995078864, 20.02128499852012], [81.29672137654835, 20.02124927342556], [81.29175407121792, 20.021393846613545], [81.2917541062522, 20.021393755458796], [81.291652832882, 20.021396699419583], [81.29168238026831, 20.021317290953345], [81.29171192855299, 20.02123788244704], [81.2917414759393, 20.0211584739006], [81.29177102332564, 20.02107906531406], [81.29180057161027, 20.020999655843397], [81.2918301198949, 20.020920247176655], [81.29185966728123, 20.020840838469823], [81.29188921466755, 20.020761429722867], [81.29191876205388, 20.020682020935812], [81.29194685596607, 20.02060651912214], [81.29197494987827, 20.02053101727222], [81.29200304379046, 20.020455515386043], [81.29203113770265, 20.020380013463623], [81.29205923161484, 20.02030451150494], [81.29208732552706, 20.02022900951], [81.29211541943926, 20.020153507478817], [81.29214351335146, 20.020078006255403], [81.29217160726365, 20.020002504151705], [81.29219970117583, 20.01992700201177], [81.29222779508802, 20.01985149983558], [81.29225588900023, 20.019775997623128], [81.29228398291241, 20.019700495374405], [81.2923120768246, 20.01962499308945], [81.29234017073681, 20.01954949076825], [81.29234019858458, 20.01954940636474], [81.29236397160027, 20.01946871740735], [81.29238774551425, 20.019388027564542], [81.29241151852993, 20.019307338524357], [81.29243529244391, 20.019226648598718], [81.2924590654596, 20.019145960319765], [81.2924828384753, 20.019065271155384], [81.29250661238927, 20.01898458110555], [81.29253038540497, 20.01890389185836], [81.29255415842064, 20.01882320256976], [81.29257793143633, 20.01874251239572], [81.292601704452, 20.018661823024324], [81.292625478366, 20.018581132767487], [81.29264925138166, 20.01850044331328], [81.29267302439735, 20.018419753817664], [81.29269679741304, 20.01833906343663], [81.29272057042873, 20.018258373858206], [81.29274434344438, 20.018177684238395], [81.29276811646007, 20.018096993733156], [81.29279188947575, 20.01801630403054], [81.29281566249144, 20.017935613442503], [81.29283943550709, 20.017854923657087], [81.29286320852277, 20.017774233830263], [81.29288698153847, 20.01769354311802], [81.29291075455416, 20.017612853208398], [81.2929345275698, 20.017532163257375], [81.2929583005855, 20.01745147242094], [81.29298207360118, 20.017370782387122], [81.29300584661686, 20.01729009146784], [81.29302961963256, 20.017209401351252], [81.2930533926482, 20.01712871119324], [81.29307716566389, 20.017048020149762], [81.29310093867959, 20.016967329908983], [81.29312471169527, 20.016886639626776], [81.29314848471093, 20.016805948459105], [81.29317225772661, 20.016725258094116], [81.2931960307423, 20.01664456684366], [81.29321980375798, 20.01656387639585], [81.29324357677363, 20.016483185906665], [81.29326734978932, 20.016402494532002], [81.29329112280502, 20.01632180396001], [81.2933148958207, 20.016241113346645], [81.29333866883636, 20.016160421847776], [81.29336244185204, 20.01607973115159], [81.29338621486772, 20.015999039569962], [81.29340998788341, 20.01591834879098], [81.29343376089906, 20.0158376579706], [81.29345753391475, 20.01575696626479], [81.29348130693045, 20.0156762753616], [81.29350507994613, 20.015595583572996], [81.29352885296177, 20.01551489258702], [81.29355262597747, 20.01543420155965], [81.29357639899315, 20.01535350964685], [81.29360017200884, 20.015272818536697], [81.29362394502449, 20.015192127385145], [81.29364771804018, 20.01511143534815], [81.29367149105586, 20.01503074326977], [81.29369526407156, 20.014950051149956], [81.29371903708724, 20.014869359832822], [81.2937428101029, 20.01478866847433], [81.29376658311858, 20.01470797623032], [81.29379035613427, 20.014627284789007], [81.29381412914995, 20.01454659330632], [81.2938379021656, 20.014465900938127], [81.29386167518129, 20.01438520937262], [81.29388544819699, 20.014304516921683], [81.29390922121267, 20.01422382527339], [81.29393299422833, 20.0141431335837], [81.29395676724401, 20.01406244100857], [81.2939805402597, 20.013981749236095], [81.29400431327538, 20.01390105742224], [81.29402808629104, 20.013820364722925], [81.29405185930672, 20.01373967282627], [81.29407563232242, 20.013658980044173], [81.2940994053381, 20.01357828806472], [81.29412317835376, 20.013497596043898], [81.29414695136944, 20.01341690313762], [81.29417072438513, 20.013336211034], [81.29419449740081, 20.013255518888997], [81.29421827041648, 20.013174825858535], [81.29424204343215, 20.013094133630734], [81.29426581644783, 20.013013440517494], [81.29428958946353, 20.012932748206907], [81.29431336247919, 20.012852055854935], [81.29433713549489, 20.012771362617524], [81.29436090851055, 20.01269067018277], [81.29438468152624, 20.012609977706617], [81.29440845454191, 20.012529284345025], [81.29443222755759, 20.012448591786104], [81.29445600057326, 20.01236789834171], [81.29447977358896, 20.012287205700005], [81.29447980323337, 20.01228711453998], [81.29441350217549, 20.012230747245727], [81.29434720111765, 20.012174379931288], [81.29428090005977, 20.012118012596606], [81.29421459900193, 20.01206164608585], [81.29414829704572, 20.012005278710813], [81.29408199598788, 20.011948911315535], [81.29401569493001, 20.011892543900107], [81.29394939387217, 20.011836176464485], [81.2938830928143, 20.01177980900865], [81.29381679175646, 20.011723442376706], [81.29375049069859, 20.011667074880474], [81.29368418964074, 20.01161070736407], [81.29361788858287, 20.01155433982745], [81.29355158752499, 20.01149797227065], [81.29348528556882, 20.01144160469361], [81.29341898451098, 20.011385237096402], [81.29335268345311, 20.011328870323116], [81.29328638239527, 20.011272502685514], [81.29322008133738, 20.011216135027702], [81.29315378027954, 20.01115976734971], [81.29308747922167, 20.011103399651518], [81.29302117816383, 20.011047031933145], [81.29295487710596, 20.010990665038637], [81.29288857604809, 20.010934297279874], [81.29282227409192, 20.010877929500907], [81.29275597303406, 20.01082156170175], [81.29268967197619, 20.01076519388239], [81.29262337091835, 20.010708826042812], [81.29255706986048, 20.01065245818307], [81.29249076880264, 20.010596091147235], [81.29242446774477, 20.01053972324705], [81.29235816668688, 20.010483355326713], [81.29229186562904, 20.010426987386186], [81.29222556457117, 20.010370619425455], [81.292159262615, 20.010314251444548], [81.29209296155716, 20.010257884287494], [81.29202666049927, 20.010201516266182], [81.29196035944143, 20.010145148224677], [81.29189405838358, 20.010088780162985], [81.2918940188577, 20.01008874639954], [81.29553825309834, 20.006944584464712], [81.30002742293229, 20.002951731643442], [81.30057349891206, 20.00235724070781], [81.30284866293043, 20.003526413027824], [81.30775657614588, 20.0052136581817], [81.31050979481242, 20.004763727965617]]]}}]}