{"type": "FeatureCollection", "features": [{"type": "Feature", "properties": {"premiumdata.sde.IN_Village_PCA.area": 0.48446269, "objectid": 437445, "id": "226149602809", "name": "Hathlaun", "subdistrict": "Bangana", "district": "Una", "state": "Himachal Pradesh", "country": "India", "censusname": "Hathlaun (15/18)", "villagename_locallang": null, "lgd_villagename": "Hathlaun", "lgd_villagecode": 18420, "lgd_subdistrictcode": 149, "lgd_districtcode": 26, "lgd_statecode": 2, "censuscode2001": "01153500", "censuscode2011": "018420", "censuscode2021": null, "level": "Village", "tru": "Rural", "no_hh": 57, "tot_p": 285, "tot_m": 144, "tot_f": 141, "per_tot_m": 50.52631579, "per_tot_f": 49.47368421, "p_06": 35, "m_06": 19, "f_06": 16, "per_p_06": 12.28070175, "per_m_06": 54.28571429, "per_f_06": 45.71428571, "p_sc": 97, "m_sc": 52, "f_sc": 45, "per_p_sc": 34.03508772, "per_m_sc": 53.60824742, "per_f_sc": 46.39175258, "p_st": 0, "m_st": 0, "f_st": 0, "per_p_st": 0.0, "per_m_st": 0.0, "per_f_st": 0.0, "p_lit": 228, "m_lit": 120, "f_lit": 108, "per_p_lit": 80.0, "per_m_lit": 52.63157895000001, "per_f_lit": 47.36842105, "p_ill": 57, "m_ill": 24, "f_ill": 33, "per_p_ill": 20.0, "per_m_ill": 42.10526316000001, "per_f_ill": 57.89473684, "tot_work_p": 162, "tot_work_m": 77, "tot_work_f": 85, "per_tot_work_p": 56.84210526, "per_tot_work_m": 47.5308642, "per_tot_work_f": 52.4691358, "mainwork_p": 43, "mainwork_m": 37, "mainwork_f": 6, "per_mainwork_p": 15.0877193, "per_mainwork_m": 86.04651163, "per_mainwork_f": 13.95348837, "main_cl_p": 1, "main_cl_m": 1, "main_cl_f": 0, "per_main_cl_p": 2.3255814, "per_main_cl_m": 100.0, "per_main_cl_f": 0.0, "main_al_p": 0, "main_al_m": 0, "main_al_f": 0, "per_main_al_p": 0.0, "per_main_al_m": 0.0, "per_main_al_f": 0.0, "main_hh_p": 0, "main_hh_m": 0, "main_hh_f": 0, "per_main_hh_p": 0.0, "per_main_hh_m": 0.0, "per_main_hh_f": 0.0, "main_ot_p": 42, "main_ot_m": 36, "main_ot_f": 6, "per_main_ot_p": 97.6744186, "per_main_ot_m": 85.71428571, "per_main_ot_f": 14.28571429, "margwork_p": 119, "margwork_m": 40, "margwork_f": 79, "per_margwork_p": 41.75438596, "per_margwork_m": 33.61344538, "per_margwork_f": 66.38655462, "marg_cl_p": 109, "marg_cl_m": 33, "marg_cl_f": 76, "per_marg_cl_p": 91.59663866, "per_marg_cl_m": 30.27522936, "per_marg_cl_f": 69.72477064, "marg_al_p": 5, "marg_al_m": 5, "marg_al_f": 0, "per_marg_al_p": 4.20168067, "per_marg_al_m": 100.0, "per_marg_al_f": 0.0, "marg_hh_p": 0, "marg_hh_m": 0, "marg_hh_f": 0, "per_marg_hh_p": 0.0, "per_marg_hh_m": 0.0, "per_marg_hh_f": 0.0, "marg_ot_p": 5, "marg_ot_m": 2, "marg_ot_f": 3, "per_marg_ot_p": 4.20168067, "per_marg_ot_m": 40.0, "per_marg_ot_f": 60.0, "margwork_3_6_p": 29, "margwork_3_6_m": 24, "margwork_3_6_f": 5, "per_margwork_3_6_p": 24.3697479, "per_margwork_3_6_m": 82.75862069, "per_margwork_3_6_f": 17.24137931, "marg_cl_3_6_p": 19, "marg_cl_3_6_m": 17, "marg_cl_3_6_f": 2, "per_marg_cl_3_6_p": 15.96638655, "per_marg_cl_3_6_m": 89.47368421, "per_marg_cl_3_6_f": 10.52631579, "marg_al_3_6_p": 5, "marg_al_3_6_m": 5, "marg_al_3_6_f": 0, "per_marg_al_3_6_p": 4.20168067, "per_marg_al_3_6_m": 100.0, "per_marg_al_3_6_f": 0.0, "marg_hh_3_6_p": 0, "marg_hh_3_6_m": 0, "marg_hh_3_6_f": 0, "per_marg_hh_3_6_p": 0.0, "per_marg_hh_3_6_m": 0.0, "per_marg_hh_3_6_f": 0.0, "marg_ot_3_6_p": 5, "marg_ot_3_6_m": 2, "marg_ot_3_6_f": 3, "per_marg_ot_3_6_p": 4.20168067, "per_marg_ot_3_6_m": 40.0, "per_marg_ot_3_6_f": 60.0, "margwork_0_3_p": 90, "margwork_0_3_m": 16, "margwork_0_3_f": 74, "per_margwork_0_3_p": 75.6302521, "per_margwork_0_3_m": 17.77777778, "per_margwork_0_3_f": 82.22222222, "marg_cl_0_3_p": 90, "marg_cl_0_3_m": 16, "marg_cl_0_3_f": 74, "per_marg_cl_0_3_p": 75.6302521, "per_marg_cl_0_3_m": 17.77777778, "per_marg_cl_0_3_f": 82.22222222, "marg_al_0_3_p": 0, "marg_al_0_3_m": 0, "marg_al_0_3_f": 0, "per_marg_al_0_3_p": 0.0, "per_marg_al_0_3_m": 0.0, "per_marg_al_0_3_f": 0.0, "marg_hh_0_3_p": 0, "marg_hh_0_3_m": 0, "marg_hh_0_3_f": 0, "per_marg_hh_0_3_p": 0.0, "per_marg_hh_0_3_m": 0.0, "per_marg_hh_0_3_f": 0.0, "marg_ot_0_3_p": 0, "marg_ot_0_3_m": 0, "marg_ot_0_3_f": 0, "per_marg_ot_0_3_p": 0.0, "per_marg_ot_0_3_m": 0.0, "per_marg_ot_0_3_f": 0.0, "non_work_p": 123, "non_work_m": 67, "non_work_f": 56, "per_non_work_p": 43.15789474, "per_non_work_m": 54.47154472, "per_non_work_f": 45.52845528, "per_hc_tot_tot": 100, "per_hc_tot_god": 41.4, "per_hc_tot_liv": 58.6, "per_hc_tot_dil": 0.0, "per_hc_res_tot": 94.8, "per_hc_res_god": 39.7, "per_hc_res_liv": 55.2, "per_hc_res_dil": 0.0, "per_hc_oth_tot": 5.2, "per_hc_oth_god": 1.7, "per_hc_oth_liv": 3.4, "per_hc_oth_dil": 0.0, "per_mt_grsbam": 0.0, "per_mt_plastic": 0.0, "per_mt_h_tiles": 0.0, "per_mt_m_tiles": 0.0, "per_mt_b_brick": 0.0, "per_mt_stone": 53.4, "per_mt_asbstos": 0.0, "per_mt_concrte": 46.6, "per_mt_oth": 0.0, "per_mw_grsbam": 0.0, "per_mw_plastic": 0.0, "per_mw_mud": 12.1, "per_mw_wood": 0.0, "per_mw_no_mrtr": 0.0, "per_mw_st_mrtr": 20.7, "per_mw_asbstos": 0.0, "per_mw_b_brick": 67.2, "per_mw_concrte": 0.0, "per_mw_oth": 0.0, "per_mf_mud": 25.9, "per_mf_wood": 0.0, "per_mf_b_brick": 0.0, "per_mf_stone": 1.7, "per_mf_cement": 62.1, "per_mf_fl_tile": 6.9, "per_mf_oth": 3.4, "per_dw_n_exrm": 0.0, "per_dw_1_room": 17.2, "per_dw_2_room": 39.7, "per_dw_3_room": 15.5, "per_dw_4_room": 19.0, "per_dw_5_room": 3.4, "per_dw_6_room": 5.2, "per_hhsize_1": 1.7, "per_hhsize_2": 3.4, "per_hhsize_3": 8.6, "per_hhsize_4": 32.8, "per_hhsize_5": 22.4, "per_hhsize_6_8": 31.0, "per_hhsize_9p": 0.0, "per_ow_owned": 96.6, "per_ow_rented": 0.0, "per_ow_oth": 3.4, "per_mc_none": 1.7, "per_mcouple_1": 70.7, "per_mcouple_2": 24.1, "per_mcouple_3": 3.4, "per_mcouple_4": 0.0, "per_mcouple_5p": 0.0, "per_dw_t_ts": 29.3, "per_dw_t_unts": 0.0, "per_dw_c_well": 22.4, "per_dw_unc_wel": 34.5, "per_dw_hpump": 10.3, "per_dw_tw_bore": 0.0, "per_dw_spring": 0.0, "per_dw_rivcan": 0.0, "per_dw_tank": 0.0, "per_dw_oth": 3.4, "per_loc_dw_wp": 24.1, "per_loc_dw_np": 67.2, "per_loc_dw_aw": 8.6, "per_light_elec": 100.0, "per_light_kero": 0.0, "per_light_solr": 0.0, "per_light_oil": 0.0, "per_light_oth": 0.0, "per_light_no": 0.0, "per_hh_latrine": 70.7, "per_fl_sewer": 0.0, "per_fl_septict": 67.2, "per_fl_othsys": 0.0, "per_pl_wslab": 3.4, "per_pl_without": 0.0, "per_ns_open": 0.0, "per_sl_ns_hum": 0.0, "per_sl_ns_anml": 0.0, "per_hh_no_lat": 29.3, "per_as_pub": 0.0, "per_as_open": 29.3, "per_hh_bathrm": 65.5, "per_hh_en_wrf": 0.0, "per_hh_no_btrm": 34.5, "per_wwoc_drain": 6.9, "per_wwoc_open": 43.1, "per_wwoc_nodrn": 50.0, "per_cook_fire": 81.0, "per_cook_resdu": 0.0, "per_cook_cwdng": 0.0, "per_cook_coal": 0.0, "per_cook_kero": 0.0, "per_cook_lpng": 19.0, "per_cook_elec": 0.0, "per_cook_biogs": 0.0, "per_cook_oth": 0.0, "per_cook_no": 0.0, "per_kf_inside": 74.1, "per_kf_in_has": 56.9, "per_kf_in_does": 17.2, "per_kf_outside": 25.9, "per_kf_out_has": 20.7, "per_kf_out_dos": 5.2, "per_kf_no_cook": 0.0, "per_hh_banking": 100.0, "per_hh_radio": 15.5, "per_hh_tv": 86.2, "per_hh_cmp_int": 1.7, "per_hh_cmp_wnt": 0.0, "per_hh_ph_ll": 5.2, "per_hh_ph_mob": 77.6, "per_hh_ph_bth": 12.1, "per_hh_bcycl": 6.9, "per_hh_2wheel": 22.4, "per_hh_4wheel": 10.3, "per_hh_tvcomp": null, "per_hh_no_ast": 1.7, "per_hs_perma": 87.9, "per_hs_sperma": 12.1, "per_hs_temp": 0.0, "per_hs_servc": 0.0, "per_hs_nservc": 0.0, "per_hs_unclss": 0.0, "avghhsz_cy": 5.0, "st_areashape": 670693.710250515, "st_lengthshape": 4223.116872071667}, "geometry": {"type": "Polygon", "coordinates": [[[76.34103677568658, 31.656798927792725], [76.3408880595913, 31.658583523539857], [76.3408880595913, 31.65992197003219], [76.34148292487075, 31.660219403196184], [76.3373188679145, 31.664680892675566], [76.3352368398856, 31.663491161738804], [76.33434454151723, 31.662152715433663], [76.33479069070141, 31.6611117007985], [76.33568298906977, 31.660070686733228], [76.3365752865398, 31.65828609125638], [76.3373188679145, 31.656055346311554], [76.3373188679145, 31.65486561580072], [76.3365752865398, 31.653378452654547], [76.33642657044447, 31.650998991981016], [76.33880603156233, 31.65352716912245], [76.33969832903236, 31.65397331786293], [76.33984704512764, 31.65575791358247], [76.34103677568658, 31.656798927792725]]]}}]}