{"type": "FeatureCollection", "features": [{"type": "Feature", "properties": {"premiumdata.sde.IN_Village_PCA.area": 3.50021401, "objectid": 388475, "id": "8101469510466", "name": "25 Jrk", "subdistrict": "Pilibanga", "district": "Hanumangarh", "state": "Rajasthan", "country": "India", "censusname": "25 JRK", "villagename_locallang": null, "lgd_villagename": "25 Jrk", "lgd_villagecode": 68022, "lgd_subdistrictcode": 469, "lgd_districtcode": 101, "lgd_statecode": 8, "censuscode2001": "00392500", "censuscode2011": "068022", "censuscode2021": null, "level": "Village", "tru": "Rural", "no_hh": 14, "tot_p": 73, "tot_m": 36, "tot_f": 37, "per_tot_m": 49.31506849, "per_tot_f": 50.68493151, "p_06": 7, "m_06": 3, "f_06": 4, "per_p_06": 9.5890411, "per_m_06": 42.85714286, "per_f_06": 57.14285714, "p_sc": 0, "m_sc": 0, "f_sc": 0, "per_p_sc": 0.0, "per_m_sc": 0.0, "per_f_sc": 0.0, "p_st": 0, "m_st": 0, "f_st": 0, "per_p_st": 0.0, "per_m_st": 0.0, "per_f_st": 0.0, "p_lit": 39, "m_lit": 22, "f_lit": 17, "per_p_lit": 53.42465753, "per_m_lit": 56.41025641, "per_f_lit": 43.58974359, "p_ill": 34, "m_ill": 14, "f_ill": 20, "per_p_ill": 46.57534247, "per_m_ill": 41.17647059, "per_f_ill": 58.82352941000001, "tot_work_p": 46, "tot_work_m": 23, "tot_work_f": 23, "per_tot_work_p": 63.01369863, "per_tot_work_m": 50.0, "per_tot_work_f": 50.0, "mainwork_p": 23, "mainwork_m": 20, "mainwork_f": 3, "per_mainwork_p": 31.50684932, "per_mainwork_m": 86.95652174, "per_mainwork_f": 13.04347826, "main_cl_p": 12, "main_cl_m": 10, "main_cl_f": 2, "per_main_cl_p": 52.17391304, "per_main_cl_m": 83.33333332999999, "per_main_cl_f": 16.66666667, "main_al_p": 11, "main_al_m": 10, "main_al_f": 1, "per_main_al_p": 47.82608696, "per_main_al_m": 90.90909091, "per_main_al_f": 9.09090909, "main_hh_p": 0, "main_hh_m": 0, "main_hh_f": 0, "per_main_hh_p": 0.0, "per_main_hh_m": 0.0, "per_main_hh_f": 0.0, "main_ot_p": 0, "main_ot_m": 0, "main_ot_f": 0, "per_main_ot_p": 0.0, "per_main_ot_m": 0.0, "per_main_ot_f": 0.0, "margwork_p": 23, "margwork_m": 3, "margwork_f": 20, "per_margwork_p": 31.50684932, "per_margwork_m": 13.04347826, "per_margwork_f": 86.95652174, "marg_cl_p": 6, "marg_cl_m": 2, "marg_cl_f": 4, "per_marg_cl_p": 26.08695652, "per_marg_cl_m": 33.33333333, "per_marg_cl_f": 66.66666667, "marg_al_p": 17, "marg_al_m": 1, "marg_al_f": 16, "per_marg_al_p": 73.91304348, "per_marg_al_m": 5.88235294, "per_marg_al_f": 94.11764706, "marg_hh_p": 0, "marg_hh_m": 0, "marg_hh_f": 0, "per_marg_hh_p": 0.0, "per_marg_hh_m": 0.0, "per_marg_hh_f": 0.0, "marg_ot_p": 0, "marg_ot_m": 0, "marg_ot_f": 0, "per_marg_ot_p": 0.0, "per_marg_ot_m": 0.0, "per_marg_ot_f": 0.0, "margwork_3_6_p": 22, "margwork_3_6_m": 3, "margwork_3_6_f": 19, "per_margwork_3_6_p": 95.65217391, "per_margwork_3_6_m": 13.63636364, "per_margwork_3_6_f": 86.36363636, "marg_cl_3_6_p": 5, "marg_cl_3_6_m": 2, "marg_cl_3_6_f": 3, "per_marg_cl_3_6_p": 21.73913043, "per_marg_cl_3_6_m": 40.0, "per_marg_cl_3_6_f": 60.0, "marg_al_3_6_p": 17, "marg_al_3_6_m": 1, "marg_al_3_6_f": 16, "per_marg_al_3_6_p": 73.91304348, "per_marg_al_3_6_m": 5.88235294, "per_marg_al_3_6_f": 94.11764706, "marg_hh_3_6_p": 0, "marg_hh_3_6_m": 0, "marg_hh_3_6_f": 0, "per_marg_hh_3_6_p": 0.0, "per_marg_hh_3_6_m": 0.0, "per_marg_hh_3_6_f": 0.0, "marg_ot_3_6_p": 0, "marg_ot_3_6_m": 0, "marg_ot_3_6_f": 0, "per_marg_ot_3_6_p": 0.0, "per_marg_ot_3_6_m": 0.0, "per_marg_ot_3_6_f": 0.0, "margwork_0_3_p": 1, "margwork_0_3_m": 0, "margwork_0_3_f": 1, "per_margwork_0_3_p": 4.34782609, "per_margwork_0_3_m": 0.0, "per_margwork_0_3_f": 100.0, "marg_cl_0_3_p": 1, "marg_cl_0_3_m": 0, "marg_cl_0_3_f": 1, "per_marg_cl_0_3_p": 4.34782609, "per_marg_cl_0_3_m": 0.0, "per_marg_cl_0_3_f": 100.0, "marg_al_0_3_p": 0, "marg_al_0_3_m": 0, "marg_al_0_3_f": 0, "per_marg_al_0_3_p": 0.0, "per_marg_al_0_3_m": 0.0, "per_marg_al_0_3_f": 0.0, "marg_hh_0_3_p": 0, "marg_hh_0_3_m": 0, "marg_hh_0_3_f": 0, "per_marg_hh_0_3_p": 0.0, "per_marg_hh_0_3_m": 0.0, "per_marg_hh_0_3_f": 0.0, "marg_ot_0_3_p": 0, "marg_ot_0_3_m": 0, "marg_ot_0_3_f": 0, "per_marg_ot_0_3_p": 0.0, "per_marg_ot_0_3_m": 0.0, "per_marg_ot_0_3_f": 0.0, "non_work_p": 27, "non_work_m": 13, "non_work_f": 14, "per_non_work_p": 36.98630137, "per_non_work_m": 48.14814815, "per_non_work_f": 51.85185185, "per_hc_tot_tot": 100, "per_hc_tot_god": 80.0, "per_hc_tot_liv": 20.0, "per_hc_tot_dil": 0.0, "per_hc_res_tot": 100.0, "per_hc_res_god": 80.0, "per_hc_res_liv": 20.0, "per_hc_res_dil": 0.0, "per_hc_oth_tot": 0.0, "per_hc_oth_god": 0.0, "per_hc_oth_liv": 0.0, "per_hc_oth_dil": 0.0, "per_mt_grsbam": 26.7, "per_mt_plastic": 0.0, "per_mt_h_tiles": 0.0, "per_mt_m_tiles": 0.0, "per_mt_b_brick": 73.3, "per_mt_stone": 0.0, "per_mt_asbstos": 0.0, "per_mt_concrte": 0.0, "per_mt_oth": 0.0, "per_mw_grsbam": 0.0, "per_mw_plastic": 0.0, "per_mw_mud": 26.7, "per_mw_wood": 0.0, "per_mw_no_mrtr": 0.0, "per_mw_st_mrtr": 0.0, "per_mw_asbstos": 0.0, "per_mw_b_brick": 73.3, "per_mw_concrte": 0.0, "per_mw_oth": 0.0, "per_mf_mud": 53.3, "per_mf_wood": 0.0, "per_mf_b_brick": 46.7, "per_mf_stone": 0.0, "per_mf_cement": 0.0, "per_mf_fl_tile": 0.0, "per_mf_oth": 0.0, "per_dw_n_exrm": 0.0, "per_dw_1_room": 13.3, "per_dw_2_room": 40.0, "per_dw_3_room": 20.0, "per_dw_4_room": 13.3, "per_dw_5_room": 13.3, "per_dw_6_room": 0.0, "per_hhsize_1": 0.0, "per_hhsize_2": 6.7, "per_hhsize_3": 13.3, "per_hhsize_4": 26.7, "per_hhsize_5": 20.0, "per_hhsize_6_8": 26.7, "per_hhsize_9p": 6.7, "per_ow_owned": 73.3, "per_ow_rented": 0.0, "per_ow_oth": 26.7, "per_mc_none": 0.0, "per_mcouple_1": 73.3, "per_mcouple_2": 13.3, "per_mcouple_3": 13.3, "per_mcouple_4": 0.0, "per_mcouple_5p": 0.0, "per_dw_t_ts": 0.0, "per_dw_t_unts": 0.0, "per_dw_c_well": 0.0, "per_dw_unc_wel": 0.0, "per_dw_hpump": 0.0, "per_dw_tw_bore": 0.0, "per_dw_spring": 0.0, "per_dw_rivcan": 0.0, "per_dw_tank": 100.0, "per_dw_oth": 0.0, "per_loc_dw_wp": 0.0, "per_loc_dw_np": 80.0, "per_loc_dw_aw": 20.0, "per_light_elec": 46.7, "per_light_kero": 53.3, "per_light_solr": 0.0, "per_light_oil": 0.0, "per_light_oth": 0.0, "per_light_no": 0.0, "per_hh_latrine": 26.7, "per_fl_sewer": 0.0, "per_fl_septict": 0.0, "per_fl_othsys": 0.0, "per_pl_wslab": 0.0, "per_pl_without": 26.7, "per_ns_open": 0.0, "per_sl_ns_hum": 0.0, "per_sl_ns_anml": 0.0, "per_hh_no_lat": 73.3, "per_as_pub": 0.0, "per_as_open": 73.3, "per_hh_bathrm": 53.3, "per_hh_en_wrf": 20.0, "per_hh_no_btrm": 26.7, "per_wwoc_drain": 0.0, "per_wwoc_open": 33.3, "per_wwoc_nodrn": 66.7, "per_cook_fire": 80.0, "per_cook_resdu": 6.7, "per_cook_cwdng": 13.3, "per_cook_coal": 0.0, "per_cook_kero": 0.0, "per_cook_lpng": 0.0, "per_cook_elec": 0.0, "per_cook_biogs": 0.0, "per_cook_oth": 0.0, "per_cook_no": 0.0, "per_kf_inside": 73.3, "per_kf_in_has": 66.7, "per_kf_in_does": 6.7, "per_kf_outside": 26.7, "per_kf_out_has": 13.3, "per_kf_out_dos": 13.3, "per_kf_no_cook": 0.0, "per_hh_banking": 60.0, "per_hh_radio": 33.3, "per_hh_tv": 33.3, "per_hh_cmp_int": 0.0, "per_hh_cmp_wnt": 6.7, "per_hh_ph_ll": 0.0, "per_hh_ph_mob": 93.3, "per_hh_ph_bth": 0.0, "per_hh_bcycl": 73.3, "per_hh_2wheel": 20.0, "per_hh_4wheel": 6.7, "per_hh_tvcomp": 0.0, "per_hh_no_ast": 6.7, "per_hs_perma": 66.7, "per_hs_sperma": 13.3, "per_hs_temp": 20.0, "per_hs_servc": 20.0, "per_hs_nservc": 0.0, "per_hs_unclss": 0.0, "avghhsz_cy": 5.21428571, "st_areashape": 4641508.28480524, "st_lengthshape": 10293.855506094545}, "geometry": {"type": "Polygon", "coordinates": [[[74.0115388633976, 29.544470379512585], [74.01296605551705, 29.54598757728811], [74.01259404698821, 29.550323256872332], [74.01176192496412, 29.557597493338772], [74.01091990440393, 29.561545338561746], [74.01017101129092, 29.56335192275027], [74.00647580484441, 29.562562250304637], [74.00022441890077, 29.561150095591124], [73.99020503422649, 29.559422188187998], [73.9890269943427, 29.559314855763862], [73.9890709569944, 29.555833576624416], [73.99393104749734, 29.555995426263152], [73.9950319131151, 29.551138895955248], [73.99480539483137, 29.547047425183774], [73.99454278134121, 29.546330644399244], [73.99661489196943, 29.546780951477803], [73.99706011858379, 29.54245204348188], [73.999786909713, 29.54259007804789], [74.00018571858, 29.545649844321016], [74.00382400238021, 29.546043656825237], [74.00409567538001, 29.54305512565027], [74.00566533671024, 29.54307420727003], [74.00649315490581, 29.54321945832331], [74.00792193614497, 29.54347064164168], [74.01062665836257, 29.544068208845943], [74.0115388633976, 29.544470379512585]]]}}]}