{"type": "FeatureCollection", "features": [{"type": "Feature", "properties": {"premiumdata.sde.IN_Village_PCA.area": 6.35863443, "objectid": 89424, "id": "285175103659370", "name": "Bodanampadu", "subdistrict": "Kurichedu", "district": "Prakasam", "state": "Andhra Pradesh", "country": "India", "censusname": "Bodanampadu", "villagename_locallang": null, "lgd_villagename": "Bodanampadu", "lgd_villagecode": 590667, "lgd_subdistrictcode": 5103, "lgd_districtcode": 517, "lgd_statecode": 28, "censuscode2001": "02166500", "censuscode2011": "590667", "censuscode2021": null, "level": "Village", "tru": "Rural", "no_hh": 482, "tot_p": 1991, "tot_m": 1021, "tot_f": 970, "per_tot_m": 51.28076344, "per_tot_f": 48.71923656, "p_06": 290, "m_06": 163, "f_06": 127, "per_p_06": 14.56554495, "per_m_06": 56.20689655, "per_f_06": 43.79310345, "p_sc": 425, "m_sc": 223, "f_sc": 202, "per_p_sc": 21.34605726, "per_m_sc": 52.47058824, "per_f_sc": 47.52941176, "p_st": 0, "m_st": 0, "f_st": 0, "per_p_st": 21.34605726, "per_m_st": 0.0, "per_f_st": 0.0, "p_lit": 894, "m_lit": 570, "f_lit": 324, "per_p_lit": 44.90205927, "per_m_lit": 63.75838926, "per_f_lit": 36.24161074, "p_ill": 1097, "m_ill": 451, "f_ill": 646, "per_p_ill": 55.09794073, "per_m_ill": 41.11212397, "per_f_ill": 58.88787603, "tot_work_p": 1173, "tot_work_m": 609, "tot_work_f": 564, "per_tot_work_p": 58.91511803, "per_tot_work_m": 51.91815857, "per_tot_work_f": 48.08184143, "mainwork_p": 913, "mainwork_m": 548, "mainwork_f": 365, "per_mainwork_p": 45.85635359, "per_mainwork_m": 60.02190581, "per_mainwork_f": 39.97809419, "main_cl_p": 594, "main_cl_m": 346, "main_cl_f": 248, "per_main_cl_p": 65.06024096, "per_main_cl_m": 58.24915825, "per_main_cl_f": 41.75084175, "main_al_p": 172, "main_al_m": 73, "main_al_f": 99, "per_main_al_p": 18.83899233, "per_main_al_m": 42.44186047, "per_main_al_f": 57.55813953000001, "main_hh_p": 7, "main_hh_m": 4, "main_hh_f": 3, "per_main_hh_p": 0.76670318, "per_main_hh_m": 57.14285714, "per_main_hh_f": 42.85714286, "main_ot_p": 140, "main_ot_m": 125, "main_ot_f": 15, "per_main_ot_p": 15.33406353, "per_main_ot_m": 89.28571429, "per_main_ot_f": 10.71428571, "margwork_p": 260, "margwork_m": 61, "margwork_f": 199, "per_margwork_p": 13.05876444, "per_margwork_m": 23.46153846, "per_margwork_f": 76.53846154, "marg_cl_p": 8, "marg_cl_m": 1, "marg_cl_f": 7, "per_marg_cl_p": 3.07692308, "per_marg_cl_m": 12.5, "per_marg_cl_f": 87.5, "marg_al_p": 249, "marg_al_m": 58, "marg_al_f": 191, "per_marg_al_p": 95.76923077, "per_marg_al_m": 23.29317269, "per_marg_al_f": 76.70682731, "marg_hh_p": 0, "marg_hh_m": 0, "marg_hh_f": 0, "per_marg_hh_p": 0.0, "per_marg_hh_m": 0.0, "per_marg_hh_f": 0.0, "marg_ot_p": 3, "marg_ot_m": 2, "marg_ot_f": 1, "per_marg_ot_p": 1.15384615, "per_marg_ot_m": 66.66666667, "per_marg_ot_f": 33.33333333, "margwork_3_6_p": 259, "margwork_3_6_m": 61, "margwork_3_6_f": 198, "per_margwork_3_6_p": 99.61538462, "per_margwork_3_6_m": 23.55212355, "per_margwork_3_6_f": 76.44787645, "marg_cl_3_6_p": 8, "marg_cl_3_6_m": 1, "marg_cl_3_6_f": 7, "per_marg_cl_3_6_p": 3.07692308, "per_marg_cl_3_6_m": 12.5, "per_marg_cl_3_6_f": 87.5, "marg_al_3_6_p": 249, "marg_al_3_6_m": 58, "marg_al_3_6_f": 191, "per_marg_al_3_6_p": 95.76923077, "per_marg_al_3_6_m": 23.29317269, "per_marg_al_3_6_f": 76.70682731, "marg_hh_3_6_p": 0, "marg_hh_3_6_m": 0, "marg_hh_3_6_f": 0, "per_marg_hh_3_6_p": 0.0, "per_marg_hh_3_6_m": 0.0, "per_marg_hh_3_6_f": 0.0, "marg_ot_3_6_p": 2, "marg_ot_3_6_m": 2, "marg_ot_3_6_f": 0, "per_marg_ot_3_6_p": 0.76923077, "per_marg_ot_3_6_m": 100.0, "per_marg_ot_3_6_f": 0.0, "margwork_0_3_p": 1, "margwork_0_3_m": 0, "margwork_0_3_f": 1, "per_margwork_0_3_p": 0.38461538, "per_margwork_0_3_m": 0.0, "per_margwork_0_3_f": 100.0, "marg_cl_0_3_p": 0, "marg_cl_0_3_m": 0, "marg_cl_0_3_f": 0, "per_marg_cl_0_3_p": 0.0, "per_marg_cl_0_3_m": 0.0, "per_marg_cl_0_3_f": 0.0, "marg_al_0_3_p": 0, "marg_al_0_3_m": 0, "marg_al_0_3_f": 0, "per_marg_al_0_3_p": 0.0, "per_marg_al_0_3_m": 0.0, "per_marg_al_0_3_f": 0.0, "marg_hh_0_3_p": 0, "marg_hh_0_3_m": 0, "marg_hh_0_3_f": 0, "per_marg_hh_0_3_p": 0.0, "per_marg_hh_0_3_m": 0.0, "per_marg_hh_0_3_f": 0.0, "marg_ot_0_3_p": 1, "marg_ot_0_3_m": 0, "marg_ot_0_3_f": 1, "per_marg_ot_0_3_p": 0.38461538, "per_marg_ot_0_3_m": 0.0, "per_marg_ot_0_3_f": 100.0, "non_work_p": 818, "non_work_m": 412, "non_work_f": 406, "per_non_work_p": 41.08488197, "per_non_work_m": 50.36674817, "per_non_work_f": 49.63325183, "per_hc_tot_tot": 100, "per_hc_tot_god": 37.9, "per_hc_tot_liv": 54.6, "per_hc_tot_dil": 7.5, "per_hc_res_tot": 99.6, "per_hc_res_god": 37.7, "per_hc_res_liv": 54.4, "per_hc_res_dil": 7.5, "per_hc_oth_tot": 0.4, "per_hc_oth_god": 0.2, "per_hc_oth_liv": 0.2, "per_hc_oth_dil": 0.0, "per_mt_grsbam": 17.5, "per_mt_plastic": 0.0, "per_mt_h_tiles": 0.6, "per_mt_m_tiles": 3.8, "per_mt_b_brick": 0.0, "per_mt_stone": 0.6, "per_mt_asbstos": 21.7, "per_mt_concrte": 55.8, "per_mt_oth": 0.0, "per_mw_grsbam": 7.3, "per_mw_plastic": 0.0, "per_mw_mud": 5.0, "per_mw_wood": 0.0, "per_mw_no_mrtr": 8.3, "per_mw_st_mrtr": 7.3, "per_mw_asbstos": 0.2, "per_mw_b_brick": 71.9, "per_mw_concrte": 0.0, "per_mw_oth": 0.0, "per_mf_mud": 39.8, "per_mf_wood": 0.0, "per_mf_b_brick": 0.0, "per_mf_stone": 45.2, "per_mf_cement": 15.0, "per_mf_fl_tile": 0.0, "per_mf_oth": 0.0, "per_dw_n_exrm": 7.1, "per_dw_1_room": 69.2, "per_dw_2_room": 21.7, "per_dw_3_room": 1.9, "per_dw_4_room": 0.2, "per_dw_5_room": 0.0, "per_dw_6_room": 0.0, "per_hhsize_1": 7.9, "per_hhsize_2": 12.7, "per_hhsize_3": 16.7, "per_hhsize_4": 22.7, "per_hhsize_5": 20.2, "per_hhsize_6_8": 18.8, "per_hhsize_9p": 1.0, "per_ow_owned": 94.0, "per_ow_rented": 4.0, "per_ow_oth": 2.1, "per_mc_none": 15.0, "per_mcouple_1": 71.7, "per_mcouple_2": 12.5, "per_mcouple_3": 0.8, "per_mcouple_4": 0.0, "per_mcouple_5p": 0.0, "per_dw_t_ts": 83.5, "per_dw_t_unts": 12.9, "per_dw_c_well": 0.0, "per_dw_unc_wel": 0.0, "per_dw_hpump": 0.8, "per_dw_tw_bore": 2.7, "per_dw_spring": 0.0, "per_dw_rivcan": 0.0, "per_dw_tank": 0.0, "per_dw_oth": 0.0, "per_loc_dw_wp": 3.1, "per_loc_dw_np": 71.9, "per_loc_dw_aw": 25.0, "per_light_elec": 90.8, "per_light_kero": 9.2, "per_light_solr": 0.0, "per_light_oil": 0.0, "per_light_oth": 0.0, "per_light_no": 0.0, "per_hh_latrine": 10.4, "per_fl_sewer": 0.6, "per_fl_septict": 8.8, "per_fl_othsys": 0.2, "per_pl_wslab": 0.6, "per_pl_without": 0.0, "per_ns_open": 0.2, "per_sl_ns_hum": 0.0, "per_sl_ns_anml": 0.0, "per_hh_no_lat": 89.6, "per_as_pub": 0.0, "per_as_open": 89.6, "per_hh_bathrm": 15.0, "per_hh_en_wrf": 40.0, "per_hh_no_btrm": 45.0, "per_wwoc_drain": 6.9, "per_wwoc_open": 21.9, "per_wwoc_nodrn": 71.2, "per_cook_fire": 92.5, "per_cook_resdu": 0.8, "per_cook_cwdng": 0.0, "per_cook_coal": 0.2, "per_cook_kero": 0.0, "per_cook_lpng": 6.2, "per_cook_elec": 0.0, "per_cook_biogs": 0.0, "per_cook_oth": 0.0, "per_cook_no": 0.2, "per_kf_inside": 40.6, "per_kf_in_has": 28.5, "per_kf_in_does": 12.1, "per_kf_outside": 59.2, "per_kf_out_has": 3.8, "per_kf_out_dos": 55.4, "per_kf_no_cook": 0.2, "per_hh_banking": 69.4, "per_hh_radio": 5.6, "per_hh_tv": 41.5, "per_hh_cmp_int": 0.2, "per_hh_cmp_wnt": 3.8, "per_hh_ph_ll": 1.0, "per_hh_ph_mob": 48.1, "per_hh_ph_bth": 1.0, "per_hh_bcycl": 30.8, "per_hh_2wheel": 5.2, "per_hh_4wheel": 0.8, "per_hh_tvcomp": 0.0, "per_hh_no_ast": 28.5, "per_hs_perma": 77.1, "per_hs_sperma": 16.0, "per_hs_temp": 6.9, "per_hs_servc": 1.5, "per_hs_nservc": 5.4, "per_hs_unclss": 0.0, "avghhsz_cy": 4.13070539, "st_areashape": 6909871.07079068, "st_lengthshape": 11877.126622661968}, "geometry": {"type": "Polygon", "coordinates": [[[79.63426999915502, 15.829120000214917], [79.63473999950831, 15.830230000153966], [79.63475999959978, 15.833559999683496], [79.63686000022264, 15.837649999690369], [79.63885999948974, 15.83989999998325], [79.63727999944888, 15.84049999991822], [79.63508000016526, 15.84158999943022], [79.63289000002904, 15.842210000451962], [79.63075000012154, 15.842620000792719], [79.62822999937416, 15.843369999619936], [79.62613000054792, 15.844570000417376], [79.62426000007888, 15.847009999657864], [79.62016000018893, 15.851900000366387], [79.61812000073887, 15.856300000208066], [79.61735999995734, 15.858479999829434], [79.61659000002842, 15.860659999219651], [79.61652000060653, 15.86086999996192], [79.61233000030491, 15.85884000004501], [79.61346000008396, 15.857260000225308], [79.61350000026692, 15.857200000196064], [79.61381999993407, 15.854430000442571], [79.61313000037106, 15.851509999865497], [79.61219999971026, 15.84804000015645], [79.60854000003638, 15.840000000528335], [79.60827000059794, 15.838179999969032], [79.60850999989914, 15.836849999326212], [79.60921000040621, 15.835950000206378], [79.61046999988159, 15.834340000141884], [79.61084999982317, 15.833840000194549], [79.61397999976762, 15.829800000169186], [79.61486000019976, 15.829049999352597], [79.61626000031555, 15.82787000030365], [79.6200100004011, 15.827909999798264], [79.62537999981218, 15.826620000439465], [79.62997000014686, 15.82643999977389], [79.63224999979646, 15.826579999825269], [79.63358000049035, 15.827469999736271], [79.63426999915502, 15.829120000214917]]]}}]}