{"type": "FeatureCollection", "features": [{"type": "Feature", "properties": {"premiumdata.sde.IN_Village_PCA.area": 7.49415138, "objectid": 314808, "id": "9139840394798", "name": "Bindwa Khurd", "subdistrict": "Chakarnagar", "district": "Etawah", "state": "Uttar Pradesh", "country": "India", "censusname": "Bindwa Khurd", "villagename_locallang": null, "lgd_villagename": "Bindwa Khurd", "lgd_villagecode": 147984, "lgd_subdistrictcode": 840, "lgd_districtcode": 139, "lgd_statecode": 9, "censuscode2001": "04087200", "censuscode2011": "147984", "censuscode2021": null, "level": "Village", "tru": "Rural", "no_hh": 206, "tot_p": 1305, "tot_m": 718, "tot_f": 587, "per_tot_m": 55.01915709, "per_tot_f": 44.98084291, "p_06": 211, "m_06": 120, "f_06": 91, "per_p_06": 16.16858238, "per_m_06": 56.87203791, "per_f_06": 43.12796209, "p_sc": 94, "m_sc": 52, "f_sc": 42, "per_p_sc": 7.20306513, "per_m_sc": 55.31914894, "per_f_sc": 44.68085106, "p_st": 0, "m_st": 0, "f_st": 0, "per_p_st": 0.0, "per_m_st": 0.0, "per_f_st": 0.0, "p_lit": 838, "m_lit": 516, "f_lit": 322, "per_p_lit": 64.21455939, "per_m_lit": 61.575179, "per_f_lit": 38.424821, "p_ill": 467, "m_ill": 202, "f_ill": 265, "per_p_ill": 35.78544061, "per_m_ill": 43.25481799000001, "per_f_ill": 56.74518201, "tot_work_p": 352, "tot_work_m": 338, "tot_work_f": 14, "per_tot_work_p": 26.97318008, "per_tot_work_m": 96.02272727, "per_tot_work_f": 3.97727273, "mainwork_p": 267, "mainwork_m": 253, "mainwork_f": 14, "per_mainwork_p": 20.45977011, "per_mainwork_m": 94.75655431, "per_mainwork_f": 5.24344569, "main_cl_p": 221, "main_cl_m": 216, "main_cl_f": 5, "per_main_cl_p": 82.77153558, "per_main_cl_m": 97.73755656, "per_main_cl_f": 2.26244344, "main_al_p": 13, "main_al_m": 12, "main_al_f": 1, "per_main_al_p": 4.86891386, "per_main_al_m": 92.30769231, "per_main_al_f": 7.69230769, "main_hh_p": 1, "main_hh_m": 1, "main_hh_f": 0, "per_main_hh_p": 0.37453184, "per_main_hh_m": 100.0, "per_main_hh_f": 0.0, "main_ot_p": 32, "main_ot_m": 24, "main_ot_f": 8, "per_main_ot_p": 11.98501873, "per_main_ot_m": 75.0, "per_main_ot_f": 25.0, "margwork_p": 85, "margwork_m": 85, "margwork_f": 0, "per_margwork_p": 6.51340996, "per_margwork_m": 100.0, "per_margwork_f": 0.0, "marg_cl_p": 9, "marg_cl_m": 9, "marg_cl_f": 0, "per_marg_cl_p": 10.58823529, "per_marg_cl_m": 100.0, "per_marg_cl_f": 0.0, "marg_al_p": 70, "marg_al_m": 70, "marg_al_f": 0, "per_marg_al_p": 82.35294118, "per_marg_al_m": 100.0, "per_marg_al_f": 0.0, "marg_hh_p": 0, "marg_hh_m": 0, "marg_hh_f": 0, "per_marg_hh_p": 0.0, "per_marg_hh_m": 0.0, "per_marg_hh_f": 0.0, "marg_ot_p": 6, "marg_ot_m": 6, "marg_ot_f": 0, "per_marg_ot_p": 7.05882353, "per_marg_ot_m": 100.0, "per_marg_ot_f": 0.0, "margwork_3_6_p": 84, "margwork_3_6_m": 84, "margwork_3_6_f": 0, "per_margwork_3_6_p": 98.82352941, "per_margwork_3_6_m": 100.0, "per_margwork_3_6_f": 0.0, "marg_cl_3_6_p": 9, "marg_cl_3_6_m": 9, "marg_cl_3_6_f": 0, "per_marg_cl_3_6_p": 10.58823529, "per_marg_cl_3_6_m": 100.0, "per_marg_cl_3_6_f": 0.0, "marg_al_3_6_p": 70, "marg_al_3_6_m": 70, "marg_al_3_6_f": 0, "per_marg_al_3_6_p": 82.35294118, "per_marg_al_3_6_m": 100.0, "per_marg_al_3_6_f": 0.0, "marg_hh_3_6_p": 0, "marg_hh_3_6_m": 0, "marg_hh_3_6_f": 0, "per_marg_hh_3_6_p": 0.0, "per_marg_hh_3_6_m": 0.0, "per_marg_hh_3_6_f": 0.0, "marg_ot_3_6_p": 5, "marg_ot_3_6_m": 5, "marg_ot_3_6_f": 0, "per_marg_ot_3_6_p": 5.88235294, "per_marg_ot_3_6_m": 100.0, "per_marg_ot_3_6_f": 0.0, "margwork_0_3_p": 1, "margwork_0_3_m": 1, "margwork_0_3_f": 0, "per_margwork_0_3_p": 1.17647059, "per_margwork_0_3_m": 100.0, "per_margwork_0_3_f": 0.0, "marg_cl_0_3_p": 0, "marg_cl_0_3_m": 0, "marg_cl_0_3_f": 0, "per_marg_cl_0_3_p": 0.0, "per_marg_cl_0_3_m": 0.0, "per_marg_cl_0_3_f": 0.0, "marg_al_0_3_p": 0, "marg_al_0_3_m": 0, "marg_al_0_3_f": 0, "per_marg_al_0_3_p": 0.0, "per_marg_al_0_3_m": 0.0, "per_marg_al_0_3_f": 0.0, "marg_hh_0_3_p": 0, "marg_hh_0_3_m": 0, "marg_hh_0_3_f": 0, "per_marg_hh_0_3_p": 0.0, "per_marg_hh_0_3_m": 0.0, "per_marg_hh_0_3_f": 0.0, "marg_ot_0_3_p": 1, "marg_ot_0_3_m": 1, "marg_ot_0_3_f": 0, "per_marg_ot_0_3_p": 1.17647059, "per_marg_ot_0_3_m": 100.0, "per_marg_ot_0_3_f": 0.0, "non_work_p": 953, "non_work_m": 380, "non_work_f": 573, "per_non_work_p": 73.02681992, "per_non_work_m": 39.87408185, "per_non_work_f": 60.12591815, "per_hc_tot_tot": 100, "per_hc_tot_god": 8.9, "per_hc_tot_liv": 89.6, "per_hc_tot_dil": 1.5, "per_hc_res_tot": 100.0, "per_hc_res_god": 8.9, "per_hc_res_liv": 89.6, "per_hc_res_dil": 1.5, "per_hc_oth_tot": 0.0, "per_hc_oth_god": 0.0, "per_hc_oth_liv": 0.0, "per_hc_oth_dil": 0.0, "per_mt_grsbam": 16.8, "per_mt_plastic": 0.0, "per_mt_h_tiles": 0.0, "per_mt_m_tiles": 0.0, "per_mt_b_brick": 5.4, "per_mt_stone": 71.8, "per_mt_asbstos": 1.0, "per_mt_concrte": 4.5, "per_mt_oth": 0.5, "per_mw_grsbam": 13.4, "per_mw_plastic": 0.0, "per_mw_mud": 0.0, "per_mw_wood": 0.0, "per_mw_no_mrtr": 0.0, "per_mw_st_mrtr": 0.0, "per_mw_asbstos": 0.0, "per_mw_b_brick": 72.8, "per_mw_concrte": 1.0, "per_mw_oth": 12.9, "per_mf_mud": 95.0, "per_mf_wood": 0.0, "per_mf_b_brick": 0.0, "per_mf_stone": 0.0, "per_mf_cement": 5.0, "per_mf_fl_tile": 0.0, "per_mf_oth": 0.0, "per_dw_n_exrm": 0.5, "per_dw_1_room": 44.1, "per_dw_2_room": 31.2, "per_dw_3_room": 10.9, "per_dw_4_room": 11.9, "per_dw_5_room": 0.5, "per_dw_6_room": 1.0, "per_hhsize_1": 5.0, "per_hhsize_2": 9.9, "per_hhsize_3": 6.9, "per_hhsize_4": 9.9, "per_hhsize_5": 14.9, "per_hhsize_6_8": 33.7, "per_hhsize_9p": 19.8, "per_ow_owned": 99.5, "per_ow_rented": 0.0, "per_ow_oth": 0.5, "per_mc_none": 11.4, "per_mcouple_1": 58.4, "per_mcouple_2": 19.3, "per_mcouple_3": 7.4, "per_mcouple_4": 3.0, "per_mcouple_5p": 0.5, "per_dw_t_ts": 0.0, "per_dw_t_unts": 0.0, "per_dw_c_well": 0.0, "per_dw_unc_wel": 0.0, "per_dw_hpump": 99.5, "per_dw_tw_bore": 0.5, "per_dw_spring": 0.0, "per_dw_rivcan": 0.0, "per_dw_tank": 0.0, "per_dw_oth": 0.0, "per_loc_dw_wp": 5.4, "per_loc_dw_np": 92.6, "per_loc_dw_aw": 2.0, "per_light_elec": 4.0, "per_light_kero": 94.1, "per_light_solr": 2.0, "per_light_oil": 0.0, "per_light_oth": 0.0, "per_light_no": 0.0, "per_hh_latrine": 1.5, "per_fl_sewer": 0.0, "per_fl_septict": 1.0, "per_fl_othsys": 0.5, "per_pl_wslab": 0.0, "per_pl_without": 0.0, "per_ns_open": 0.0, "per_sl_ns_hum": 0.0, "per_sl_ns_anml": 0.0, "per_hh_no_lat": 98.5, "per_as_pub": 0.0, "per_as_open": 98.5, "per_hh_bathrm": 18.3, "per_hh_en_wrf": 0.5, "per_hh_no_btrm": 81.2, "per_wwoc_drain": 0.0, "per_wwoc_open": 30.7, "per_wwoc_nodrn": 69.3, "per_cook_fire": 99.0, "per_cook_resdu": 1.0, "per_cook_cwdng": 0.0, "per_cook_coal": 0.0, "per_cook_kero": 0.0, "per_cook_lpng": 0.0, "per_cook_elec": 0.0, "per_cook_biogs": 0.0, "per_cook_oth": 0.0, "per_cook_no": 0.0, "per_kf_inside": 97.0, "per_kf_in_has": 69.3, "per_kf_in_does": 27.7, "per_kf_outside": 3.0, "per_kf_out_has": 0.5, "per_kf_out_dos": 2.5, "per_kf_no_cook": 0.0, "per_hh_banking": 63.9, "per_hh_radio": 13.9, "per_hh_tv": 5.4, "per_hh_cmp_int": 0.0, "per_hh_cmp_wnt": 0.0, "per_hh_ph_ll": 0.5, "per_hh_ph_mob": 58.4, "per_hh_ph_bth": 0.0, "per_hh_bcycl": 54.5, "per_hh_2wheel": 10.4, "per_hh_4wheel": 1.5, "per_hh_tvcomp": 0.0, "per_hh_no_ast": 28.7, "per_hs_perma": 70.3, "per_hs_sperma": 3.0, "per_hs_temp": 13.4, "per_hs_servc": 0.0, "per_hs_nservc": 13.4, "per_hs_unclss": 13.4, "avghhsz_cy": 6.33495146, "st_areashape": 9391107.7365734, "st_lengthshape": 18136.489812842778}, "geometry": {"type": "Polygon", "coordinates": [[[79.09600098199546, 26.497008893090932], [79.09475880599362, 26.49639023504857], [79.09381803453255, 26.496157977644522], [79.09275009935645, 26.496041922730896], [79.09189714270597, 26.49627288438708], [79.09113126873916, 26.49685194827253], [79.09014882083879, 26.4970060197588], [79.08912288459719, 26.49685103095962], [79.08843925858116, 26.496774023276874], [79.08775487079373, 26.496464200007633], [79.08681419096081, 26.496348044104426], [79.08617192158381, 26.49592289304173], [79.0854858000479, 26.495419938303257], [79.08514110569361, 26.494647048531927], [79.08466721024526, 26.493834946056143], [79.08411122854285, 26.493526080442795], [79.0835111844758, 26.493101230886975], [79.08252672345088, 26.492714207222768], [79.08243918981294, 26.49228916492545], [79.08260827071572, 26.49182479467686], [79.08299084163566, 26.491478238917082], [79.0832019214729, 26.49097495680044], [79.08324279302171, 26.49054987591247], [79.08341320522773, 26.490318867381195], [79.08371190224625, 26.490357826043706], [79.0844817503599, 26.490744222482608], [79.08482325569491, 26.490589908639404], [79.08486312202895, 26.489893785675402], [79.08494689801402, 26.489585185247012], [79.08533072657536, 26.489546818071364], [79.08562977124186, 26.489547052037217], [79.08567201361976, 26.489353784833664], [79.08541314520603, 26.488812822269924], [79.08545479649251, 26.48862004990805], [79.08618197283354, 26.48873612357089], [79.08652315118182, 26.48862000568735], [79.0865217713695, 26.488388190871962], [79.08583581961518, 26.487807807569332], [79.08579118322704, 26.48730617129866], [79.08429382998898, 26.48684189911474], [79.08237121339708, 26.486647971278252], [79.08002082445678, 26.486492000464274], [79.07818072531028, 26.485873245621082], [79.0771520168677, 26.484829161083994], [79.07633386005301, 26.48359205310217], [79.07564483875538, 26.482277984372097], [79.07440426983958, 26.481697906327135], [79.07290822993846, 26.48154278914589], [79.0705882768183, 26.48156959979595], [79.07133618178452, 26.480040067304977], [79.07169158765026, 26.478891179834985], [79.0716977033807, 26.478871409093777], [79.07167530658403, 26.47881800765187], [79.07102009248379, 26.477255697545747], [79.07080612815618, 26.476745506304827], [79.07028703127936, 26.47615116939712], [79.06785919318853, 26.47337132275965], [79.06570424172145, 26.470903790739023], [79.06683514520564, 26.469925057371853], [79.06703795155913, 26.469863192987408], [79.06715006310321, 26.469766638580673], [79.06717282371757, 26.469586021126794], [79.0674143941722, 26.46794434964305], [79.06738269891405, 26.46774619706172], [79.06725873050654, 26.467579054157227], [79.0671140208974, 26.467510296857334], [79.06691273539168, 26.467506296159403], [79.06621407427272, 26.467640618209835], [79.06597342099799, 26.467751083130036], [79.06575271930575, 26.467796063737737], [79.06544092125714, 26.46782284060029], [79.06527760394523, 26.467770163401752], [79.06515352145168, 26.467603076019106], [79.06469724915254, 26.46606278701568], [79.0646333816308, 26.465682847194586], [79.0646549340111, 26.46555157389553], [79.06474884029765, 26.465454643538315], [79.0650451424076, 26.465312309346466], [79.06530237948077, 26.465268070826664], [79.06557672407024, 26.465273527160978], [79.0657032113538, 26.465341923114057], [79.0658096814779, 26.465475742669025], [79.06600601636809, 26.465677244520155], [79.06616864107893, 26.465762750614687], [79.06635241213154, 26.465733486770553], [79.06653810378222, 26.465621928650208], [79.06674492470673, 26.465395539092306], [79.06685876550773, 26.46523312293887], [79.06691845227014, 26.465036786347564], [79.0669220877521, 26.46488864546893], [79.06685296418765, 26.464722651608255], [79.06676794493417, 26.464457542155518], [79.0667719837597, 26.464292942930353], [79.06685039590424, 26.46408046716917], [79.0670569257746, 26.463870523396917], [79.0674080637444, 26.463729334016403], [79.06770072408418, 26.463735151503528], [79.06793691093533, 26.46380574138675], [79.06808163581582, 26.46387443817336], [79.06824575891652, 26.4638941519819], [79.06844744237591, 26.463881708012575], [79.06861359836411, 26.463819188184434], [79.06876437788961, 26.463641037489264], [79.0689354764085, 26.463381032951123], [79.06899435558549, 26.46321752266862], [79.06900000598864, 26.462987133155615], [79.0689707469615, 26.462690229114674], [79.06901170924016, 26.462509910974223], [79.06916166231561, 26.46236472146064], [79.06938196785082, 26.462336134690215], [79.06960104449072, 26.462356997958835], [79.06992953413564, 26.462396441372054], [79.07025669786714, 26.46248527203555], [79.07058638227136, 26.462475308053055], [79.07071480452608, 26.462461392252305], [79.07093549543853, 26.46241641921], [79.07102858874974, 26.46235237222116], [79.07106714354343, 26.462270864473098], [79.07110658856755, 26.462156396625826], [79.07107400128231, 26.4619910695267], [79.07082645253948, 26.461640401262013], [79.07048569819601, 26.461353702305672], [79.07034300799965, 26.46120271462825], [79.07027509356753, 26.46098731550351], [79.07024785035992, 26.46060811729711], [79.07033028875352, 26.46023108277828], [79.07053951536635, 26.45990595097594], [79.07072932938588, 26.45962978774783], [79.07081218549612, 26.459236309393624], [79.07096939426411, 26.458794876402997], [79.07114562665485, 26.458320918078158], [79.071317925323, 26.458011502710704], [79.07152474355256, 26.457785105422744], [79.07182302195612, 26.457560524444933], [79.07210057712439, 26.457434315774858], [79.07235951021684, 26.45732420366183], [79.07254760486092, 26.457113900138722], [79.07275519204835, 26.457137809983628], [79.07282754325963, 26.457172164392855], [79.07293401428205, 26.45730598138213], [79.07300031803486, 26.4575872305038], [79.07305233587971, 26.45770351482216], [79.07323367788777, 26.457772935034924], [79.07347148709633, 26.457777654247092], [79.07376129798003, 26.457898655971928], [79.0739036001042, 26.458066161163877], [79.07406048008876, 26.45838205038904], [79.0742865869441, 26.458864068363205], [79.07451632389149, 26.459197853282074], [79.0746594336011, 26.459332454441583], [79.07484025907789, 26.459418329559746], [79.07491383828618, 26.459403322871186], [79.07506176655897, 26.459340434691683], [79.0761142183728, 26.458208731911682], [79.07622441650534, 26.45819446495289], [79.07633411247963, 26.458196639578503], [79.07640565880043, 26.458263939556904], [79.07647317977046, 26.458495781299693], [79.07651150908697, 26.459171597959266], [79.0765600226039, 26.459435966035294], [79.07662996004201, 26.459569070270685], [79.07675515644655, 26.459686803391204], [79.0769917439463, 26.459740922225187], [79.07717460051397, 26.45974454682059], [79.07739609182538, 26.45966658944446], [79.07754482588696, 26.459570737410154], [79.07765824447976, 26.459424830849066], [79.07805797411996, 26.45879061403022], [79.07818687697333, 26.458760249846897], [79.0782770480649, 26.458811407169968], [79.07838040372992, 26.459076935757345], [79.07844591606698, 26.45939100950377], [79.07851666019222, 26.459491210890143], [79.0786069300985, 26.459542429008827], [79.07875245986948, 26.459578215813046], [79.07893571888238, 26.459565395004134], [79.07910317203785, 26.45945346096599], [79.07927143008382, 26.459308624670005], [79.07965172646949, 26.458723389152325], [79.07980287071099, 26.458528858197393], [79.08006290783291, 26.458369326758035], [79.0803579720644, 26.458276370461682], [79.08074288579057, 26.458251089649494], [79.0809615743583, 26.45828832285138], [79.08114442912934, 26.458291943471387], [79.08129235380886, 26.458229049859447], [79.08140496391793, 26.458116028012633], [79.0814861644331, 26.457788332790965], [79.08156374653429, 26.457608735604058], [79.08167545293819, 26.457528613402722], [79.08182217118026, 26.45751505086529], [79.08200391743026, 26.457568078576045], [79.08205513846941, 26.457717262310002], [79.08214098686787, 26.457949464643253], [79.0823170063579, 26.458232881188323], [79.08246050863126, 26.458350971946732], [79.08267678522245, 26.458486955752242], [79.08282189727682, 26.458539197289458], [79.08304138983671, 26.458543540093856], [79.08328038931297, 26.45849889927363], [79.0834466324378, 26.45843630735863], [79.08365262960716, 26.45824278361271], [79.08384070628493, 26.458032527608438], [79.08399023894881, 26.457903708129137], [79.08413615230043, 26.457923120570733], [79.08420731953217, 26.458006802005297], [79.08431227599502, 26.458206477667993], [79.0845074233124, 26.45845729196763], [79.08461480792147, 26.458558215554657], [79.08485059412398, 26.45864521153203], [79.08499692788713, 26.458648105928088], [79.08518137357454, 26.458585871973362], [79.08536673823848, 26.45849073801492], [79.08640706998249, 26.457852716073642], [79.08683414074665, 26.457597736960178], [79.08711088114296, 26.457504406878], [79.08733115703377, 26.457475856699425], [79.08753232935177, 26.457479832010637], [79.08773199519503, 26.457549659298603], [79.08791282696004, 26.457635505990112], [79.0880941905277, 26.457704985756806], [79.08831366512129, 26.45770932215885], [79.08916739791616, 26.457215751378996], [79.08889342073765, 26.458325762726922], [79.08877479730606, 26.458685625304607], [79.08878348670981, 26.459080919859677], [79.0889917296674, 26.459546023050276], [79.08909350160256, 26.45987733464321], [79.08914113566881, 26.46017465930425], [79.0891143919245, 26.460519883516692], [79.08903441132148, 26.460798174954586], [79.0888649405499, 26.460992426232213], [79.08867808558091, 26.461153415276677], [79.08849312156558, 26.461232034310214], [79.08834638445887, 26.46124558675932], [79.08823710350623, 26.461226976669625], [79.08812850886648, 26.46117546094051], [79.08802523135492, 26.460910016005688], [79.08794338584937, 26.460513216622083], [79.08789296071754, 26.46033107353452], [79.0877331387504, 26.460130391466613], [79.08755509805096, 26.459929289249533], [79.08746482544974, 26.459878076128238], [79.0873550279658, 26.45987590635965], [79.08726244399939, 26.459923506151227], [79.08713272188247, 26.459986823461932], [79.08703895213985, 26.460083694890976], [79.08699910197554, 26.46021468410584], [79.08699468675592, 26.460395669315055], [79.08704551163805, 26.46056135416592], [79.08713297610568, 26.460727703858133], [79.08727610108666, 26.4608622348713], [79.0873647701951, 26.460979238058663], [79.08745263441303, 26.461129203080496], [79.0874494238342, 26.46126084170675], [79.08740797017708, 26.461457546630207], [79.08732758353558, 26.461752340411525], [79.0873000313075, 26.46213046606957], [79.0872936074549, 26.4623938028046], [79.08734455091466, 26.46255943009422], [79.08739818752365, 26.462609919051623], [79.08748886436673, 26.462644628890192], [79.08767092323042, 26.462681129658606], [79.08803592490003, 26.462721259742292], [79.08834690368509, 26.46272740378302], [79.088583500168, 26.46278150671204], [79.08874362756234, 26.46296580115717], [79.08879216533379, 26.463230164540544], [79.08876822882472, 26.46346019248633], [79.08869065391004, 26.463639731488897], [79.08844681341267, 26.46388194122643], [79.08819937875589, 26.46427215801838], [79.08815683544236, 26.46451828439633], [79.08815242022271, 26.464699327977577], [79.088200037221, 26.464996649029437], [79.08852587593748, 26.465892108940114], [79.08860893057539, 26.4662394985202], [79.08863593752609, 26.46663521103457], [79.08874855571997, 26.46802043094407], [79.0887013420653, 26.469204954263237], [79.0885967350471, 26.471244468360126], [79.08859071543637, 26.471491298720963], [79.08855086437374, 26.47162221142649], [79.08847458842295, 26.47175240509019], [79.0883440533307, 26.471848624116618], [79.08810472956262, 26.47190977577891], [79.08793887451002, 26.471955867675966], [79.08786370079211, 26.472036714004112], [79.08784257061997, 26.47215154513963], [79.08782144044785, 26.472266376160512], [79.08787319059473, 26.472399114154804], [79.08817042874924, 26.472964763285297], [79.08923611993372, 26.47504383154434], [79.08971234920517, 26.475777686058088], [79.0901552518779, 26.476379137145912], [79.0911010134804, 26.47736914204293], [79.09176024125333, 26.47810661458489], [79.09182940164872, 26.478272595570868], [79.09187903716145, 26.47848760372039], [79.09190886212718, 26.478768115197738], [79.09192157059353, 26.478998860681532], [79.09191395377823, 26.47931147533459], [79.09169189832481, 26.48016325199619], [79.09158035810924, 26.48098423144294], [79.09158705055812, 26.481461817632056], [79.09161716298476, 26.481725807247763], [79.09172055997227, 26.481991318341517], [79.0918421819803, 26.482257113458616], [79.0919093391326, 26.482505383571702], [79.09192004166088, 26.482818432531445], [79.09209397077127, 26.48394141302172], [79.09217704517212, 26.484288790717766], [79.09235191571689, 26.48462152899914], [79.09267403361147, 26.484924195276005], [79.0935178004966, 26.485599397617893], [79.09396994952857, 26.485822356011305], [79.09415123853603, 26.485891749612446], [79.09431630756275, 26.48587855303633], [79.09451832160215, 26.48584961913782], [79.09477288169582, 26.485920516261775], [79.09500781988869, 26.486040394107757], [79.09525997878559, 26.486209978561362], [79.09570774314061, 26.486613968988294], [79.09606361523203, 26.487032538166392], [79.0965538240859, 26.48794771313372], [79.09737870119726, 26.490153686075363], [79.09781869153183, 26.49162756199502], [79.097955036029, 26.49204185901577], [79.09792950770527, 26.492337723327125], [79.09780979461728, 26.492746917314424], [79.09763789569942, 26.493039898340076], [79.09740835727973, 26.493446928732226], [79.09717479530585, 26.494018610284364], [79.09701803210223, 26.49444352317924], [79.09600098199546, 26.497008893090932]]]}}]}