{"type": "FeatureCollection", "features": [{"type": "Feature", "properties": {"premiumdata.sde.IN_Village_PCA.area": 5.53270296, "objectid": 474034, "id": "203382626189370", "name": "Hisra Alias Barwadih", "subdistrict": "Patan", "district": "Palamu", "state": "Jharkhand", "country": "India", "censusname": "Hisra Alias Barwadih", "villagename_locallang": null, "lgd_villagename": "Hisra Alias Barwadih", "lgd_villagecode": 365883, "lgd_subdistrictcode": 2626, "lgd_districtcode": 338, "lgd_statecode": 20, "censuscode2001": "00188200", "censuscode2011": "365883", "censuscode2021": null, "level": "Village", "tru": "Rural", "no_hh": 476, "tot_p": 2502, "tot_m": 1290, "tot_f": 1212, "per_tot_m": 51.558753, "per_tot_f": 48.441247, "p_06": 336, "m_06": 161, "f_06": 175, "per_p_06": 13.42925659, "per_m_06": 47.91666667000001, "per_f_06": 52.08333333, "p_sc": 1237, "m_sc": 634, "f_sc": 603, "per_p_sc": 49.44044764, "per_m_sc": 51.25303153, "per_f_sc": 48.74696847, "p_st": 0, "m_st": 0, "f_st": 0, "per_p_st": 0.0, "per_m_st": 0.0, "per_f_st": 0.0, "p_lit": 1718, "m_lit": 979, "f_lit": 739, "per_p_lit": 68.66506795000001, "per_m_lit": 56.98486612, "per_f_lit": 43.01513388, "p_ill": 784, "m_ill": 311, "f_ill": 473, "per_p_ill": 31.33493205, "per_m_ill": 39.66836735, "per_f_ill": 60.33163265, "tot_work_p": 800, "tot_work_m": 590, "tot_work_f": 210, "per_tot_work_p": 31.97442046, "per_tot_work_m": 73.75, "per_tot_work_f": 26.25, "mainwork_p": 518, "mainwork_m": 448, "mainwork_f": 70, "per_mainwork_p": 20.70343725, "per_mainwork_m": 86.48648649, "per_mainwork_f": 13.51351351, "main_cl_p": 72, "main_cl_m": 70, "main_cl_f": 2, "per_main_cl_p": 13.8996139, "per_main_cl_m": 97.22222222, "per_main_cl_f": 2.77777778, "main_al_p": 376, "main_al_m": 343, "main_al_f": 33, "per_main_al_p": 72.58687259, "per_main_al_m": 91.22340426, "per_main_al_f": 8.77659574, "main_hh_p": 1, "main_hh_m": 1, "main_hh_f": 0, "per_main_hh_p": 0.19305019, "per_main_hh_m": 100.0, "per_main_hh_f": 0.0, "main_ot_p": 69, "main_ot_m": 34, "main_ot_f": 35, "per_main_ot_p": 13.32046332, "per_main_ot_m": 49.27536232, "per_main_ot_f": 50.72463768, "margwork_p": 282, "margwork_m": 142, "margwork_f": 140, "per_margwork_p": 11.27098321, "per_margwork_m": 50.35460993, "per_margwork_f": 49.64539007, "marg_cl_p": 28, "marg_cl_m": 9, "marg_cl_f": 19, "per_marg_cl_p": 9.92907801, "per_marg_cl_m": 32.14285714, "per_marg_cl_f": 67.85714286, "marg_al_p": 224, "marg_al_m": 124, "marg_al_f": 100, "per_marg_al_p": 79.43262411, "per_marg_al_m": 55.35714286, "per_marg_al_f": 44.64285714, "marg_hh_p": 4, "marg_hh_m": 0, "marg_hh_f": 4, "per_marg_hh_p": 1.41843972, "per_marg_hh_m": 0.0, "per_marg_hh_f": 100.0, "marg_ot_p": 26, "marg_ot_m": 9, "marg_ot_f": 17, "per_marg_ot_p": 9.21985816, "per_marg_ot_m": 34.61538462, "per_marg_ot_f": 65.38461538, "margwork_3_6_p": 251, "margwork_3_6_m": 128, "margwork_3_6_f": 123, "per_margwork_3_6_p": 89.0070922, "per_margwork_3_6_m": 50.99601594, "per_margwork_3_6_f": 49.00398406, "marg_cl_3_6_p": 24, "marg_cl_3_6_m": 8, "marg_cl_3_6_f": 16, "per_marg_cl_3_6_p": 8.5106383, "per_marg_cl_3_6_m": 33.33333333, "per_marg_cl_3_6_f": 66.66666667, "marg_al_3_6_p": 203, "marg_al_3_6_m": 113, "marg_al_3_6_f": 90, "per_marg_al_3_6_p": 71.9858156, "per_marg_al_3_6_m": 55.66502463, "per_marg_al_3_6_f": 44.33497537, "marg_hh_3_6_p": 4, "marg_hh_3_6_m": 0, "marg_hh_3_6_f": 4, "per_marg_hh_3_6_p": 1.41843972, "per_marg_hh_3_6_m": 0.0, "per_marg_hh_3_6_f": 100.0, "marg_ot_3_6_p": 20, "marg_ot_3_6_m": 7, "marg_ot_3_6_f": 13, "per_marg_ot_3_6_p": 7.09219858, "per_marg_ot_3_6_m": 35.0, "per_marg_ot_3_6_f": 65.0, "margwork_0_3_p": 31, "margwork_0_3_m": 14, "margwork_0_3_f": 17, "per_margwork_0_3_p": 10.9929078, "per_margwork_0_3_m": 45.16129032, "per_margwork_0_3_f": 54.83870968, "marg_cl_0_3_p": 4, "marg_cl_0_3_m": 1, "marg_cl_0_3_f": 3, "per_marg_cl_0_3_p": 1.41843972, "per_marg_cl_0_3_m": 25.0, "per_marg_cl_0_3_f": 75.0, "marg_al_0_3_p": 21, "marg_al_0_3_m": 11, "marg_al_0_3_f": 10, "per_marg_al_0_3_p": 7.44680851, "per_marg_al_0_3_m": 52.38095238, "per_marg_al_0_3_f": 47.61904762, "marg_hh_0_3_p": 0, "marg_hh_0_3_m": 0, "marg_hh_0_3_f": 0, "per_marg_hh_0_3_p": 0.0, "per_marg_hh_0_3_m": 0.0, "per_marg_hh_0_3_f": 0.0, "marg_ot_0_3_p": 6, "marg_ot_0_3_m": 2, "marg_ot_0_3_f": 4, "per_marg_ot_0_3_p": 2.12765957, "per_marg_ot_0_3_m": 33.33333333, "per_marg_ot_0_3_f": 66.66666667, "non_work_p": 1702, "non_work_m": 700, "non_work_f": 1002, "per_non_work_p": 68.02557954, "per_non_work_m": 41.12808461, "per_non_work_f": 58.87191539, "per_hc_tot_tot": 100, "per_hc_tot_god": 37.0, "per_hc_tot_liv": 62.5, "per_hc_tot_dil": 0.5, "per_hc_res_tot": 100.0, "per_hc_res_god": 37.0, "per_hc_res_liv": 62.5, "per_hc_res_dil": 0.5, "per_hc_oth_tot": 0.0, "per_hc_oth_god": 0.0, "per_hc_oth_liv": 0.0, "per_hc_oth_dil": 0.0, "per_mt_grsbam": 0.5, "per_mt_plastic": 1.4, "per_mt_h_tiles": 91.4, "per_mt_m_tiles": 0.0, "per_mt_b_brick": 0.2, "per_mt_stone": 0.2, "per_mt_asbstos": 0.0, "per_mt_concrte": 6.2, "per_mt_oth": 0.0, "per_mw_grsbam": 1.7, "per_mw_plastic": 0.5, "per_mw_mud": 89.5, "per_mw_wood": 0.0, "per_mw_no_mrtr": 0.0, "per_mw_st_mrtr": 0.0, "per_mw_asbstos": 0.0, "per_mw_b_brick": 7.9, "per_mw_concrte": 0.0, "per_mw_oth": 0.5, "per_mf_mud": 92.4, "per_mf_wood": 0.0, "per_mf_b_brick": 3.1, "per_mf_stone": 0.5, "per_mf_cement": 3.8, "per_mf_fl_tile": 0.0, "per_mf_oth": 0.2, "per_dw_n_exrm": 2.6, "per_dw_1_room": 6.2, "per_dw_2_room": 37.7, "per_dw_3_room": 27.0, "per_dw_4_room": 16.2, "per_dw_5_room": 5.5, "per_dw_6_room": 4.8, "per_hhsize_1": 1.4, "per_hhsize_2": 6.9, "per_hhsize_3": 6.2, "per_hhsize_4": 16.2, "per_hhsize_5": 18.9, "per_hhsize_6_8": 41.1, "per_hhsize_9p": 9.3, "per_ow_owned": 99.3, "per_ow_rented": 0.7, "per_ow_oth": 0.0, "per_mc_none": 5.7, "per_mcouple_1": 68.7, "per_mcouple_2": 18.1, "per_mcouple_3": 6.0, "per_mcouple_4": 1.2, "per_mcouple_5p": 0.2, "per_dw_t_ts": 0.5, "per_dw_t_unts": 0.5, "per_dw_c_well": 3.3, "per_dw_unc_wel": 15.5, "per_dw_hpump": 80.2, "per_dw_tw_bore": 0.0, "per_dw_spring": 0.0, "per_dw_rivcan": 0.0, "per_dw_tank": 0.0, "per_dw_oth": 0.0, "per_loc_dw_wp": 27.4, "per_loc_dw_np": 35.6, "per_loc_dw_aw": 37.0, "per_light_elec": 0.2, "per_light_kero": 98.6, "per_light_solr": 1.2, "per_light_oil": 0.0, "per_light_oth": 0.0, "per_light_no": 0.0, "per_hh_latrine": 1.7, "per_fl_sewer": 0.0, "per_fl_septict": 1.0, "per_fl_othsys": 0.0, "per_pl_wslab": 0.5, "per_pl_without": 0.0, "per_ns_open": 0.2, "per_sl_ns_hum": 0.0, "per_sl_ns_anml": 0.0, "per_hh_no_lat": 98.3, "per_as_pub": 0.0, "per_as_open": 98.3, "per_hh_bathrm": 3.1, "per_hh_en_wrf": 9.8, "per_hh_no_btrm": 87.1, "per_wwoc_drain": 1.9, "per_wwoc_open": 13.4, "per_wwoc_nodrn": 84.7, "per_cook_fire": 96.2, "per_cook_resdu": 3.3, "per_cook_cwdng": 0.0, "per_cook_coal": 0.2, "per_cook_kero": 0.0, "per_cook_lpng": 0.0, "per_cook_elec": 0.2, "per_cook_biogs": 0.0, "per_cook_oth": 0.0, "per_cook_no": 0.0, "per_kf_inside": 98.3, "per_kf_in_has": 96.9, "per_kf_in_does": 1.4, "per_kf_outside": 1.7, "per_kf_out_has": 1.0, "per_kf_out_dos": 0.7, "per_kf_no_cook": 0.0, "per_hh_banking": 31.7, "per_hh_radio": 14.1, "per_hh_tv": 6.9, "per_hh_cmp_int": 0.0, "per_hh_cmp_wnt": 11.0, "per_hh_ph_ll": 0.5, "per_hh_ph_mob": 41.8, "per_hh_ph_bth": 2.4, "per_hh_bcycl": 63.5, "per_hh_2wheel": 6.4, "per_hh_4wheel": 2.4, "per_hh_tvcomp": 0.2, "per_hh_no_ast": 24.8, "per_hs_perma": 7.6, "per_hs_sperma": 90.2, "per_hs_temp": 1.7, "per_hs_servc": 1.7, "per_hs_nservc": 0.0, "per_hs_unclss": 0.5, "avghhsz_cy": 5.25630252, "st_areashape": 6672055.51550488, "st_lengthshape": 14724.613027033309}, "geometry": {"type": "Polygon", "coordinates": [[[84.14994999928645, 24.13833999927786], [84.14894000005633, 24.137280000572318], [84.14634000073961, 24.134770000762718], [84.14372999958051, 24.132310000026678], [84.14190000019273, 24.131100000125667], [84.14062999977327, 24.130390000166383], [84.13924000060156, 24.130080000287496], [84.1377800002113, 24.130039999613683], [84.13744000045268, 24.1300300002631], [84.13639000014126, 24.12964000038589], [84.13569999967996, 24.129040000018595], [84.13448999953496, 24.127279999976484], [84.13335000060847, 24.12640999952737], [84.13267000019293, 24.12613000045191], [84.1322800002056, 24.12597999978742], [84.13111000024358, 24.125079999485717], [84.13087000004404, 24.124169999602863], [84.13090000018127, 24.12332000071303], [84.13110000019782, 24.12268999962836], [84.13155999960705, 24.12214000012744], [84.13192999950292, 24.12119999971114], [84.1314500000022, 24.119860000297617], [84.13091000022703, 24.119249999783797], [84.1296699999448, 24.118919999530377], [84.12841000046942, 24.118870000063747], [84.12684999962174, 24.118950000184874], [84.12499000009674, 24.118270000020743], [84.12489999968504, 24.1169900000383], [84.12455999992642, 24.115309999799376], [84.12360000002667, 24.113840000462115], [84.12268000030993, 24.112469999714445], [84.12114999959948, 24.11127999994383], [84.1199300003071, 24.11035999943657], [84.1186099996589, 24.11039000045752], [84.11872000016209, 24.109779999907786], [84.11979999971243, 24.109849999863126], [84.12001999982044, 24.109880000183654], [84.1202700000657, 24.10983999975472], [84.12067999924619, 24.109610000325535], [84.12092000034403, 24.109310000270852], [84.12124000001117, 24.109090000057318], [84.12141999993621, 24.10901999968648], [84.12174999964911, 24.10901999968648], [84.12205000012308, 24.1091600003899], [84.1226300000812, 24.1096700002521], [84.12293999970261, 24.109779999907786], [84.12346999943202, 24.10980999942479], [84.12434999986415, 24.109789999200952], [84.12537000003833, 24.109519999972953], [84.12613999996728, 24.109149999407627], [84.12635000002956, 24.10906000037164], [84.12668999978817, 24.109120000555954], [84.12729999988353, 24.10941999941592], [84.12781999956722, 24.109740000267553], [84.12820000040715, 24.110030000041007], [84.1283600002407, 24.110800000040566], [84.12846999984555, 24.111270000767046], [84.12865000066894, 24.111600000246014], [84.12926999991174, 24.112120000158495], [84.1296699999448, 24.11260000003201], [84.1298299997784, 24.112779999623015], [84.12992000019005, 24.112860000271045], [84.1299999996577, 24.11292999936218], [84.13013000025235, 24.112959999780887], [84.13025999994868, 24.112969999645575], [84.13036999955357, 24.112969999645575], [84.13038999964503, 24.112959999780887], [84.13068000007326, 24.112779999623015], [84.13127000007714, 24.112510000141576], [84.13204000000609, 24.112430000094733], [84.13339000079147, 24.11318000072334], [84.13389999953108, 24.113289999822875], [84.13389999953108, 24.11345999943795], [84.13396999985129, 24.113800000450595], [84.13411000049167, 24.113920000447663], [84.13423000014228, 24.11405999989214], [84.13431999965565, 24.114250000474513], [84.13433999974713, 24.114609999682603], [84.13437999993012, 24.114770000281055], [84.13444000020458, 24.11501999968837], [84.13458999999239, 24.115300000117482], [84.13489000046636, 24.115560000611712], [84.13514999985902, 24.115830000219027], [84.1356399994055, 24.116169999855714], [84.13614999994176, 24.116419999808155], [84.13688999973346, 24.116860000079832], [84.13738000017824, 24.11704000023946], [84.13795000009061, 24.117130000224343], [84.13852000000303, 24.117089999601152], [84.1388999999446, 24.116939999817614], [84.13943999971977, 24.116340000565216], [84.13998000039325, 24.115839999859496], [84.14062999977327, 24.11532999998072], [84.14091999930318, 24.115159999569542], [84.14119999968568, 24.11507000065911], [84.14162000070857, 24.11506000013858], [84.14184999996402, 24.11503000021206], [84.1419900006044, 24.11493999957039], [84.14212999944819, 24.114780000004348], [84.14218999972265, 24.11437000004976], [84.14223999995136, 24.113820000047955], [84.1422700000886, 24.113410000298053], [84.14236999964768, 24.113149999536276], [84.14251000028808, 24.112969999645575], [84.14273999954354, 24.112779999623015], [84.14310000029198, 24.112670000085238], [84.1432999994102, 24.11260999992483], [84.14353000046226, 24.112570000348853], [84.14365000011287, 24.112549999736252], [84.1438400000837, 24.112570000348853], [84.1441999999338, 24.11263999959857], [84.14468999948024, 24.112679999972585], [84.14491000048659, 24.11265999937717], [84.14530999962135, 24.112490000339545], [84.14537999994157, 24.11244000000083], [84.14565000027831, 24.112070000495244], [84.14583000020335, 24.11183999933281], [84.1460299993216, 24.11163000015648], [84.14618000000773, 24.111549999559696], [84.14641999930893, 24.111489999694275], [84.14671000063548, 24.111520000450437], [84.14700000016535, 24.11168000081154], [84.14715999999895, 24.11185000010491], [84.14708999967873, 24.11265999937717], [84.1468699995707, 24.112860000271045], [84.14760999936242, 24.113299999661788], [84.14760999936242, 24.113789999830807], [84.14764999954541, 24.11402000076927], [84.14773999995708, 24.11425999941852], [84.1480799997157, 24.11456000017201], [84.14825000049335, 24.11470000055629], [84.14834000000671, 24.114849999685358], [84.14847999974879, 24.11524999923659], [84.14850999988603, 24.115609999731685], [84.14847999974879, 24.115990000112333], [84.14834999915414, 24.116579999783827], [84.14808999976145, 24.117120000684633], [84.14769999977412, 24.117599999845947], [84.1475300007931, 24.117820000192214], [84.14743000033569, 24.117959999470337], [84.14741999939163, 24.11809999941518], [84.14745000042716, 24.11831999972184], [84.14753999994052, 24.118560000146797], [84.14766999963689, 24.11870000025518], [84.14799000020233, 24.118870000063747], [84.14827000058483, 24.118939999967477], [84.14885000054295, 24.118879999466685], [84.14938000027237, 24.11873999955521], [84.14979999949864, 24.118600000310536], [84.14996000023052, 24.118580000640165], [84.15018000033855, 24.118609999734588], [84.15035000021787, 24.118720000726643], [84.15072999926115, 24.11911999966133], [84.15102000058766, 24.11953999932884], [84.15115999943144, 24.119800000228185], [84.15137000039203, 24.11996999939536], [84.15160000054581, 24.120080000038307], [84.15187999913165, 24.120150000100057], [84.15223000073267, 24.120100000294126], [84.15251000021682, 24.120040000337195], [84.15256000044553, 24.12004999964872], [84.15295000043291, 24.121179999627273], [84.15371000031607, 24.122649999923244], [84.15405000007469, 24.124089999465795], [84.1545900007482, 24.125380000289763], [84.15574000061874, 24.127029999925547], [84.15622999926687, 24.12793999996062], [84.15643000018171, 24.129199999790533], [84.15676999994034, 24.12975999946576], [84.1581900001476, 24.131450000237137], [84.15845000043862, 24.13204000076318], [84.15845000043862, 24.132780000451536], [84.1587099998313, 24.134590000133997], [84.15921999946924, 24.135720000384513], [84.15936999925704, 24.13638000026428], [84.15812999987317, 24.136859999304097], [84.15656000077637, 24.137480000691347], [84.15630000048539, 24.13775999951262], [84.15613000060607, 24.13851999954634], [84.1557899999491, 24.138390000152075], [84.15092000013024, 24.138399999668785], [84.14994999928645, 24.13833999927786]]]}}]}