{"type": "FeatureCollection", "features": [{"type": "Feature", "properties": {"premiumdata.sde.IN_Village_PCA.area": 2.89545749, "objectid": 255704, "id": "234213595547992", "name": "Samnapur Kachhi", "subdistrict": "Badi", "district": "Raisen", "state": "Madhya Pradesh", "country": "India", "censusname": "Samnapur Kachhi", "villagename_locallang": null, "lgd_villagename": "Samnapur Kachhi", "lgd_villagecode": 484682, "lgd_subdistrictcode": 3595, "lgd_districtcode": 421, "lgd_statecode": 23, "censuscode2001": "04130300", "censuscode2011": "484682", "censuscode2021": null, "level": "Village", "tru": "Rural", "no_hh": 279, "tot_p": 1462, "tot_m": 790, "tot_f": 672, "per_tot_m": 54.03556772, "per_tot_f": 45.96443228, "p_06": 252, "m_06": 147, "f_06": 105, "per_p_06": 17.23666211, "per_m_06": 58.33333333, "per_f_06": 41.66666667000001, "p_sc": 118, "m_sc": 65, "f_sc": 53, "per_p_sc": 8.07113543, "per_m_sc": 55.08474576, "per_f_sc": 44.91525424, "p_st": 7, "m_st": 5, "f_st": 2, "per_p_st": 0.47879617, "per_m_st": 71.42857143, "per_f_st": 28.57142857, "p_lit": 815, "m_lit": 516, "f_lit": 299, "per_p_lit": 55.74555404, "per_m_lit": 63.31288344, "per_f_lit": 36.68711656, "p_ill": 647, "m_ill": 274, "f_ill": 373, "per_p_ill": 44.25444596, "per_m_ill": 42.34930448, "per_f_ill": 57.65069552, "tot_work_p": 481, "tot_work_m": 420, "tot_work_f": 61, "per_tot_work_p": 32.9001368, "per_tot_work_m": 87.31808732, "per_tot_work_f": 12.68191268, "mainwork_p": 479, "mainwork_m": 419, "mainwork_f": 60, "per_mainwork_p": 32.76333789, "per_mainwork_m": 87.47390397, "per_mainwork_f": 12.52609603, "main_cl_p": 348, "main_cl_m": 324, "main_cl_f": 24, "per_main_cl_p": 72.65135699000001, "per_main_cl_m": 93.10344828, "per_main_cl_f": 6.89655172, "main_al_p": 114, "main_al_m": 83, "main_al_f": 31, "per_main_al_p": 23.79958246, "per_main_al_m": 72.80701754, "per_main_al_f": 27.19298246, "main_hh_p": 5, "main_hh_m": 5, "main_hh_f": 0, "per_main_hh_p": 1.04384134, "per_main_hh_m": 100.0, "per_main_hh_f": 0.0, "main_ot_p": 12, "main_ot_m": 7, "main_ot_f": 5, "per_main_ot_p": 2.50521921, "per_main_ot_m": 58.33333333, "per_main_ot_f": 41.66666667000001, "margwork_p": 2, "margwork_m": 1, "margwork_f": 1, "per_margwork_p": 0.13679891, "per_margwork_m": 50.0, "per_margwork_f": 50.0, "marg_cl_p": 0, "marg_cl_m": 0, "marg_cl_f": 0, "per_marg_cl_p": 0.0, "per_marg_cl_m": 0.0, "per_marg_cl_f": 0.0, "marg_al_p": 0, "marg_al_m": 0, "marg_al_f": 0, "per_marg_al_p": 0.0, "per_marg_al_m": 0.0, "per_marg_al_f": 0.0, "marg_hh_p": 2, "marg_hh_m": 1, "marg_hh_f": 1, "per_marg_hh_p": 100.0, "per_marg_hh_m": 50.0, "per_marg_hh_f": 50.0, "marg_ot_p": 0, "marg_ot_m": 0, "marg_ot_f": 0, "per_marg_ot_p": 0.0, "per_marg_ot_m": 0.0, "per_marg_ot_f": 0.0, "margwork_3_6_p": 2, "margwork_3_6_m": 1, "margwork_3_6_f": 1, "per_margwork_3_6_p": 100.0, "per_margwork_3_6_m": 50.0, "per_margwork_3_6_f": 50.0, "marg_cl_3_6_p": 0, "marg_cl_3_6_m": 0, "marg_cl_3_6_f": 0, "per_marg_cl_3_6_p": 0.0, "per_marg_cl_3_6_m": 0.0, "per_marg_cl_3_6_f": 0.0, "marg_al_3_6_p": 0, "marg_al_3_6_m": 0, "marg_al_3_6_f": 0, "per_marg_al_3_6_p": 0.0, "per_marg_al_3_6_m": 0.0, "per_marg_al_3_6_f": 0.0, "marg_hh_3_6_p": 2, "marg_hh_3_6_m": 1, "marg_hh_3_6_f": 1, "per_marg_hh_3_6_p": 100.0, "per_marg_hh_3_6_m": 50.0, "per_marg_hh_3_6_f": 50.0, "marg_ot_3_6_p": 0, "marg_ot_3_6_m": 0, "marg_ot_3_6_f": 0, "per_marg_ot_3_6_p": 0.0, "per_marg_ot_3_6_m": 0.0, "per_marg_ot_3_6_f": 0.0, "margwork_0_3_p": 0, "margwork_0_3_m": 0, "margwork_0_3_f": 0, "per_margwork_0_3_p": 0.0, "per_margwork_0_3_m": 0.0, "per_margwork_0_3_f": 0.0, "marg_cl_0_3_p": 0, "marg_cl_0_3_m": 0, "marg_cl_0_3_f": 0, "per_marg_cl_0_3_p": 0.0, "per_marg_cl_0_3_m": 0.0, "per_marg_cl_0_3_f": 0.0, "marg_al_0_3_p": 0, "marg_al_0_3_m": 0, "marg_al_0_3_f": 0, "per_marg_al_0_3_p": 0.0, "per_marg_al_0_3_m": 0.0, "per_marg_al_0_3_f": 0.0, "marg_hh_0_3_p": 0, "marg_hh_0_3_m": 0, "marg_hh_0_3_f": 0, "per_marg_hh_0_3_p": 0.0, "per_marg_hh_0_3_m": 0.0, "per_marg_hh_0_3_f": 0.0, "marg_ot_0_3_p": 0, "marg_ot_0_3_m": 0, "marg_ot_0_3_f": 0, "per_marg_ot_0_3_p": 0.0, "per_marg_ot_0_3_m": 0.0, "per_marg_ot_0_3_f": 0.0, "non_work_p": 981, "non_work_m": 370, "non_work_f": 611, "per_non_work_p": 67.0998632, "per_non_work_m": 37.7166157, "per_non_work_f": 62.2833843, "per_hc_tot_tot": 100, "per_hc_tot_god": 86.4, "per_hc_tot_liv": 10.9, "per_hc_tot_dil": 2.7, "per_hc_res_tot": 99.7, "per_hc_res_god": 86.4, "per_hc_res_liv": 10.5, "per_hc_res_dil": 2.7, "per_hc_oth_tot": 0.3, "per_hc_oth_god": 0.0, "per_hc_oth_liv": 0.3, "per_hc_oth_dil": 0.0, "per_mt_grsbam": 5.4, "per_mt_plastic": 0.3, "per_mt_h_tiles": 31.6, "per_mt_m_tiles": 30.3, "per_mt_b_brick": 0.0, "per_mt_stone": 0.0, "per_mt_asbstos": 9.9, "per_mt_concrte": 22.4, "per_mt_oth": 0.0, "per_mw_grsbam": 2.4, "per_mw_plastic": 0.0, "per_mw_mud": 31.6, "per_mw_wood": 0.0, "per_mw_no_mrtr": 0.0, "per_mw_st_mrtr": 0.0, "per_mw_asbstos": 0.0, "per_mw_b_brick": 66.0, "per_mw_concrte": 0.0, "per_mw_oth": 0.0, "per_mf_mud": 83.0, "per_mf_wood": 0.0, "per_mf_b_brick": 0.0, "per_mf_stone": 0.0, "per_mf_cement": 17.0, "per_mf_fl_tile": 0.0, "per_mf_oth": 0.0, "per_dw_n_exrm": 0.0, "per_dw_1_room": 55.8, "per_dw_2_room": 32.3, "per_dw_3_room": 7.1, "per_dw_4_room": 3.4, "per_dw_5_room": 0.0, "per_dw_6_room": 1.4, "per_hhsize_1": 2.7, "per_hhsize_2": 10.9, "per_hhsize_3": 9.2, "per_hhsize_4": 20.1, "per_hhsize_5": 19.0, "per_hhsize_6_8": 30.6, "per_hhsize_9p": 7.5, "per_ow_owned": 99.3, "per_ow_rented": 0.3, "per_ow_oth": 0.3, "per_mc_none": 6.8, "per_mcouple_1": 72.8, "per_mcouple_2": 15.6, "per_mcouple_3": 3.7, "per_mcouple_4": 1.0, "per_mcouple_5p": 0.0, "per_dw_t_ts": 0.0, "per_dw_t_unts": 0.0, "per_dw_c_well": 3.1, "per_dw_unc_wel": 28.6, "per_dw_hpump": 59.2, "per_dw_tw_bore": 8.8, "per_dw_spring": 0.0, "per_dw_rivcan": 0.0, "per_dw_tank": 0.3, "per_dw_oth": 0.0, "per_loc_dw_wp": 67.0, "per_loc_dw_np": 33.0, "per_loc_dw_aw": 0.0, "per_light_elec": 99.7, "per_light_kero": 0.3, "per_light_solr": 0.0, "per_light_oil": 0.0, "per_light_oth": 0.0, "per_light_no": 0.0, "per_hh_latrine": 55.4, "per_fl_sewer": 0.3, "per_fl_septict": 23.8, "per_fl_othsys": 31.3, "per_pl_wslab": 0.0, "per_pl_without": 0.0, "per_ns_open": 0.0, "per_sl_ns_hum": 0.0, "per_sl_ns_anml": 0.0, "per_hh_no_lat": 44.6, "per_as_pub": 0.0, "per_as_open": 44.6, "per_hh_bathrm": 10.5, "per_hh_en_wrf": 8.5, "per_hh_no_btrm": 81.0, "per_wwoc_drain": 0.0, "per_wwoc_open": 7.8, "per_wwoc_nodrn": 92.2, "per_cook_fire": 81.0, "per_cook_resdu": 0.0, "per_cook_cwdng": 0.0, "per_cook_coal": 0.0, "per_cook_kero": 0.0, "per_cook_lpng": 17.0, "per_cook_elec": 0.0, "per_cook_biogs": 2.0, "per_cook_oth": 0.0, "per_cook_no": 0.0, "per_kf_inside": 99.7, "per_kf_in_has": 59.5, "per_kf_in_does": 40.1, "per_kf_outside": 0.3, "per_kf_out_has": 0.3, "per_kf_out_dos": 0.0, "per_kf_no_cook": 0.0, "per_hh_banking": 39.1, "per_hh_radio": 3.1, "per_hh_tv": 41.8, "per_hh_cmp_int": 0.7, "per_hh_cmp_wnt": 0.0, "per_hh_ph_ll": 1.0, "per_hh_ph_mob": 71.8, "per_hh_ph_bth": 0.0, "per_hh_bcycl": 49.3, "per_hh_2wheel": 43.5, "per_hh_4wheel": 0.7, "per_hh_tvcomp": 0.7, "per_hh_no_ast": 15.3, "per_hs_perma": 65.3, "per_hs_sperma": 29.6, "per_hs_temp": 5.1, "per_hs_servc": 2.7, "per_hs_nservc": 2.4, "per_hs_unclss": 0.0, "avghhsz_cy": 5.24014337, "st_areashape": 3432006.538886215, "st_lengthshape": 7977.537743106242}, "geometry": {"type": "Polygon", "coordinates": [[[78.11329999926143, 22.985369999817888], [78.10937999929654, 22.975349999720258], [78.11300999973152, 22.973059999534172], [78.11549000029595, 22.9709700002361], [78.11690000045749, 22.96978999982982], [78.11981000029394, 22.969340000059876], [78.12515000046608, 22.968960000704943], [78.13063999952774, 22.975840000509724], [78.13693999959965, 22.97942999983024], [78.13717999979914, 22.97985999992264], [78.13672000038991, 22.980129999954404], [78.12448000009626, 22.98173999929545], [78.11454999958939, 22.985500000601775], [78.1134800000848, 22.985340000637056], [78.11329999926143, 22.985369999817888]]]}}]}