{"type": "FeatureCollection", "features": [{"type": "Feature", "properties": {"premiumdata.sde.IN_Village_PCA.area": 4.40023215, "objectid": 7959, "id": "335855831182170", "name": "Sirumarudhur", "subdistrict": "Devakottai", "district": "Sivaganga", "state": "Tamil Nadu", "country": "India", "censusname": "Sirumarudhur", "villagename_locallang": null, "lgd_villagename": "Sirumarudhur", "lgd_villagecode": 640134, "lgd_subdistrictcode": 5831, "lgd_districtcode": 585, "lgd_statecode": 33, "censuscode2001": "01330500", "censuscode2011": "640134", "censuscode2021": null, "level": "Village", "tru": "Rural", "no_hh": 51, "tot_p": 215, "tot_m": 111, "tot_f": 104, "per_tot_m": 51.62790698, "per_tot_f": 48.37209302, "p_06": 22, "m_06": 10, "f_06": 12, "per_p_06": 10.23255814, "per_m_06": 45.45454545, "per_f_06": 54.54545455, "p_sc": 141, "m_sc": 69, "f_sc": 72, "per_p_sc": 65.58139535, "per_m_sc": 48.93617021, "per_f_sc": 51.06382979, "p_st": 0, "m_st": 0, "f_st": 0, "per_p_st": 0.0, "per_m_st": 0.0, "per_f_st": 0.0, "p_lit": 153, "m_lit": 88, "f_lit": 65, "per_p_lit": 71.1627907, "per_m_lit": 57.51633987, "per_f_lit": 42.48366013, "p_ill": 62, "m_ill": 23, "f_ill": 39, "per_p_ill": 28.8372093, "per_m_ill": 37.09677419, "per_f_ill": 62.90322581, "tot_work_p": 123, "tot_work_m": 77, "tot_work_f": 46, "per_tot_work_p": 57.20930233, "per_tot_work_m": 62.60162602, "per_tot_work_f": 37.39837398, "mainwork_p": 122, "mainwork_m": 77, "mainwork_f": 45, "per_mainwork_p": 56.74418605, "per_mainwork_m": 63.1147541, "per_mainwork_f": 36.8852459, "main_cl_p": 73, "main_cl_m": 41, "main_cl_f": 32, "per_main_cl_p": 59.83606557, "per_main_cl_m": 56.16438356, "per_main_cl_f": 43.83561644, "main_al_p": 18, "main_al_m": 9, "main_al_f": 9, "per_main_al_p": 14.75409836, "per_main_al_m": 50.0, "per_main_al_f": 50.0, "main_hh_p": 0, "main_hh_m": 0, "main_hh_f": 0, "per_main_hh_p": 0.0, "per_main_hh_m": 0.0, "per_main_hh_f": 0.0, "main_ot_p": 31, "main_ot_m": 27, "main_ot_f": 4, "per_main_ot_p": 25.40983607, "per_main_ot_m": 87.09677419, "per_main_ot_f": 12.90322581, "margwork_p": 1, "margwork_m": 0, "margwork_f": 1, "per_margwork_p": 0.46511628, "per_margwork_m": 0.0, "per_margwork_f": 100.0, "marg_cl_p": 0, "marg_cl_m": 0, "marg_cl_f": 0, "per_marg_cl_p": 0.0, "per_marg_cl_m": 0.0, "per_marg_cl_f": 0.0, "marg_al_p": 0, "marg_al_m": 0, "marg_al_f": 0, "per_marg_al_p": 0.0, "per_marg_al_m": 0.0, "per_marg_al_f": 0.0, "marg_hh_p": 0, "marg_hh_m": 0, "marg_hh_f": 0, "per_marg_hh_p": 0.0, "per_marg_hh_m": 0.0, "per_marg_hh_f": 0.0, "marg_ot_p": 1, "marg_ot_m": 0, "marg_ot_f": 1, "per_marg_ot_p": 100.0, "per_marg_ot_m": 0.0, "per_marg_ot_f": 100.0, "margwork_3_6_p": 0, "margwork_3_6_m": 0, "margwork_3_6_f": 0, "per_margwork_3_6_p": 0.0, "per_margwork_3_6_m": 0.0, "per_margwork_3_6_f": 0.0, "marg_cl_3_6_p": 0, "marg_cl_3_6_m": 0, "marg_cl_3_6_f": 0, "per_marg_cl_3_6_p": 0.0, "per_marg_cl_3_6_m": 0.0, "per_marg_cl_3_6_f": 0.0, "marg_al_3_6_p": 0, "marg_al_3_6_m": 0, "marg_al_3_6_f": 0, "per_marg_al_3_6_p": 0.0, "per_marg_al_3_6_m": 0.0, "per_marg_al_3_6_f": 0.0, "marg_hh_3_6_p": 0, "marg_hh_3_6_m": 0, "marg_hh_3_6_f": 0, "per_marg_hh_3_6_p": 0.0, "per_marg_hh_3_6_m": 0.0, "per_marg_hh_3_6_f": 0.0, "marg_ot_3_6_p": 0, "marg_ot_3_6_m": 0, "marg_ot_3_6_f": 0, "per_marg_ot_3_6_p": 0.0, "per_marg_ot_3_6_m": 0.0, "per_marg_ot_3_6_f": 0.0, "margwork_0_3_p": 1, "margwork_0_3_m": 0, "margwork_0_3_f": 1, "per_margwork_0_3_p": 100.0, "per_margwork_0_3_m": 0.0, "per_margwork_0_3_f": 100.0, "marg_cl_0_3_p": 0, "marg_cl_0_3_m": 0, "marg_cl_0_3_f": 0, "per_marg_cl_0_3_p": 0.0, "per_marg_cl_0_3_m": 0.0, "per_marg_cl_0_3_f": 0.0, "marg_al_0_3_p": 0, "marg_al_0_3_m": 0, "marg_al_0_3_f": 0, "per_marg_al_0_3_p": 0.0, "per_marg_al_0_3_m": 0.0, "per_marg_al_0_3_f": 0.0, "marg_hh_0_3_p": 0, "marg_hh_0_3_m": 0, "marg_hh_0_3_f": 0, "per_marg_hh_0_3_p": 0.0, "per_marg_hh_0_3_m": 0.0, "per_marg_hh_0_3_f": 0.0, "marg_ot_0_3_p": 1, "marg_ot_0_3_m": 0, "marg_ot_0_3_f": 1, "per_marg_ot_0_3_p": 100.0, "per_marg_ot_0_3_m": 0.0, "per_marg_ot_0_3_f": 100.0, "non_work_p": 92, "non_work_m": 34, "non_work_f": 58, "per_non_work_p": 42.79069767, "per_non_work_m": 36.95652174, "per_non_work_f": 63.04347826, "per_hc_tot_tot": 100, "per_hc_tot_god": 43.4, "per_hc_tot_liv": 54.7, "per_hc_tot_dil": 1.9, "per_hc_res_tot": 100.0, "per_hc_res_god": 43.4, "per_hc_res_liv": 54.7, "per_hc_res_dil": 1.9, "per_hc_oth_tot": 0.0, "per_hc_oth_god": 0.0, "per_hc_oth_liv": 0.0, "per_hc_oth_dil": 0.0, "per_mt_grsbam": 5.7, "per_mt_plastic": 0.0, "per_mt_h_tiles": 0.0, "per_mt_m_tiles": 62.3, "per_mt_b_brick": 0.0, "per_mt_stone": 0.0, "per_mt_asbstos": 0.0, "per_mt_concrte": 32.1, "per_mt_oth": 0.0, "per_mw_grsbam": 1.9, "per_mw_plastic": 0.0, "per_mw_mud": 37.7, "per_mw_wood": 0.0, "per_mw_no_mrtr": 0.0, "per_mw_st_mrtr": 47.2, "per_mw_asbstos": 0.0, "per_mw_b_brick": 1.9, "per_mw_concrte": 11.3, "per_mw_oth": 0.0, "per_mf_mud": 3.8, "per_mf_wood": 0.0, "per_mf_b_brick": 0.0, "per_mf_stone": 0.0, "per_mf_cement": 79.2, "per_mf_fl_tile": 17.0, "per_mf_oth": 0.0, "per_dw_n_exrm": 1.9, "per_dw_1_room": 15.1, "per_dw_2_room": 54.7, "per_dw_3_room": 13.2, "per_dw_4_room": 11.3, "per_dw_5_room": 1.9, "per_dw_6_room": 1.9, "per_hhsize_1": 1.9, "per_hhsize_2": 9.4, "per_hhsize_3": 17.0, "per_hhsize_4": 26.4, "per_hhsize_5": 18.9, "per_hhsize_6_8": 22.6, "per_hhsize_9p": 3.8, "per_ow_owned": 88.7, "per_ow_rented": 9.4, "per_ow_oth": 1.9, "per_mc_none": 5.7, "per_mcouple_1": 69.8, "per_mcouple_2": 17.0, "per_mcouple_3": 7.5, "per_mcouple_4": 0.0, "per_mcouple_5p": 0.0, "per_dw_t_ts": 35.8, "per_dw_t_unts": 64.2, "per_dw_c_well": 0.0, "per_dw_unc_wel": 0.0, "per_dw_hpump": 0.0, "per_dw_tw_bore": 0.0, "per_dw_spring": 0.0, "per_dw_rivcan": 0.0, "per_dw_tank": 0.0, "per_dw_oth": 0.0, "per_loc_dw_wp": 15.1, "per_loc_dw_np": 84.9, "per_loc_dw_aw": 0.0, "per_light_elec": 98.1, "per_light_kero": 1.9, "per_light_solr": 0.0, "per_light_oil": 0.0, "per_light_oth": 0.0, "per_light_no": 0.0, "per_hh_latrine": 20.8, "per_fl_sewer": 0.0, "per_fl_septict": 20.8, "per_fl_othsys": 0.0, "per_pl_wslab": 0.0, "per_pl_without": 0.0, "per_ns_open": 0.0, "per_sl_ns_hum": 0.0, "per_sl_ns_anml": 0.0, "per_hh_no_lat": 79.2, "per_as_pub": 0.0, "per_as_open": 79.2, "per_hh_bathrm": 13.2, "per_hh_en_wrf": 15.1, "per_hh_no_btrm": 71.7, "per_wwoc_drain": 1.9, "per_wwoc_open": 0.0, "per_wwoc_nodrn": 98.1, "per_cook_fire": 62.3, "per_cook_resdu": 0.0, "per_cook_cwdng": 1.9, "per_cook_coal": 0.0, "per_cook_kero": 0.0, "per_cook_lpng": 35.8, "per_cook_elec": 0.0, "per_cook_biogs": 0.0, "per_cook_oth": 0.0, "per_cook_no": 0.0, "per_kf_inside": 75.5, "per_kf_in_has": 75.5, "per_kf_in_does": 0.0, "per_kf_outside": 24.5, "per_kf_out_has": 22.6, "per_kf_out_dos": 1.9, "per_kf_no_cook": 0.0, "per_hh_banking": 56.6, "per_hh_radio": 43.4, "per_hh_tv": 100.0, "per_hh_cmp_int": 0.0, "per_hh_cmp_wnt": 9.4, "per_hh_ph_ll": 3.8, "per_hh_ph_mob": 75.5, "per_hh_ph_bth": 3.8, "per_hh_bcycl": 56.6, "per_hh_2wheel": 30.2, "per_hh_4wheel": 11.3, "per_hh_tvcomp": 9.4, "per_hh_no_ast": 0.0, "per_hs_perma": 58.5, "per_hs_sperma": 37.7, "per_hs_temp": 3.8, "per_hs_servc": 1.9, "per_hs_nservc": 1.9, "per_hs_unclss": 0.0, "avghhsz_cy": 4.21568627, "st_areashape": 4565098.81285232, "st_lengthshape": 13866.721133817715}, "geometry": {"type": "Polygon", "coordinates": [[[78.84016415955716, 9.990169560510102], [78.84027863995867, 9.989645040579028], [78.84024047952538, 9.985935239472445], [78.83921052062793, 9.983466179875398], [78.83667755988596, 9.980360009958], [78.83358012027726, 9.97865676045245], [78.82911683988979, 9.97660827027042], [78.82295219976157, 9.974555999994736], [78.82027452042729, 9.973939860573525], [78.81794747959952, 9.973624229884075], [78.81617736011196, 9.974331899563918], [78.81292727966853, 9.97190855962262], [78.8109742802571, 9.97146512993629], [78.80673995977432, 9.971183789614173], [78.80505371957807, 9.971894249769136], [78.80348952000475, 9.972039239858274], [78.80239872000976, 9.971777880219367], [78.80233751958609, 9.97178552972095], [78.80259708060092, 9.97105221013299], [78.80268095989226, 9.970862400090702], [78.80271156010409, 9.970541010250335], [78.8027648400819, 9.969900120328884], [78.80278788007232, 9.968934059833776], [78.8030244001984, 9.967784849500031], [78.80394743981411, 9.967181220129333], [78.80564124023176, 9.966095010037558], [78.80580899971275, 9.965716380310624], [78.80583203970318, 9.965523689916962], [78.80607612005069, 9.964310669829915], [78.80618303933245, 9.963700290337675], [78.80619815977529, 9.96367265996327], [78.80766300028831, 9.96367166990946], [78.80819687984143, 9.963694529622904], [78.80850215971434, 9.964030229333613], [78.80852519970473, 9.964068390156983], [78.80885316024192, 9.964562400373874], [78.8094176400069, 9.965036430127624], [78.81022655944554, 9.965587590044848], [78.81111144042455, 9.966205619176185], [78.81311051981679, 9.966938040136343], [78.81482700000045, 9.96720695948079], [78.8156204396701, 9.967241250005742], [78.81763463950521, 9.967908870067985], [78.82044983923139, 9.968482980060704], [78.8228377202584, 9.969297390243382], [78.82559208068362, 9.97051140038956], [78.82933823957303, 9.971963910101758], [78.83049780021314, 9.972336779972567], [78.83164980063182, 9.972257580417754], [78.83264916021572, 9.97223661023177], [78.83347320009719, 9.971998199241513], [78.83361036026467, 9.971957249748227], [78.8342360404533, 9.971624339838336], [78.83615879987735, 9.971772209891252], [78.83849340002823, 9.972518940556682], [78.84086615971403, 9.972944280271207], [78.84288791977056, 9.972710639443134], [78.84447480000819, 9.97213553979118], [78.84564983951896, 9.972444509809709], [78.84588635964502, 9.972777330407526], [78.84628307992902, 9.974279430193317], [78.8468932803487, 9.975658409679967], [78.8475571200723, 9.977167169699637], [78.84859464008947, 9.978306749426144], [78.84952560015101, 9.979830719716476], [78.84957131990741, 9.980862659539005], [78.84944135973693, 9.98227404041943], [78.84801467965721, 9.984788909576011], [78.84785448039763, 9.985748310746981], [78.847747920442, 9.986968080032893], [78.8462600399386, 9.988707510031603], [78.84465804015645, 9.989411309995752], [78.84147636013371, 9.989914860371712], [78.84016415955716, 9.990169560510102]]]}}]}