{"type": "FeatureCollection", "features": [{"type": "Feature", "properties": {"premiumdata.sde.IN_Village_PCA.area": 0.87186032, "objectid": 260843, "id": "8105678500802", "name": "Bhatwasi", "subdistrict": "Khanpur", "district": "Jhalawar", "state": "Rajasthan", "country": "India", "censusname": "Bhatwasi", "villagename_locallang": null, "lgd_villagename": "Bhatwasi", "lgd_villagecode": 103891, "lgd_subdistrictcode": 678, "lgd_districtcode": 105, "lgd_statecode": 8, "censuscode2001": "03986700", "censuscode2011": "103891", "censuscode2021": null, "level": "Village", "tru": "Rural", "no_hh": 85, "tot_p": 450, "tot_m": 232, "tot_f": 218, "per_tot_m": 51.55555556, "per_tot_f": 48.44444444000001, "p_06": 63, "m_06": 31, "f_06": 32, "per_p_06": 14.0, "per_m_06": 49.20634921, "per_f_06": 50.79365079, "p_sc": 96, "m_sc": 44, "f_sc": 52, "per_p_sc": 21.33333333, "per_m_sc": 45.83333333, "per_f_sc": 54.16666667000001, "p_st": 96, "m_st": 50, "f_st": 46, "per_p_st": 21.33333333, "per_m_st": 52.08333333, "per_f_st": 47.91666667000001, "p_lit": 295, "m_lit": 182, "f_lit": 113, "per_p_lit": 65.55555556, "per_m_lit": 61.69491525, "per_f_lit": 38.30508475, "p_ill": 155, "m_ill": 50, "f_ill": 105, "per_p_ill": 34.44444444000001, "per_m_ill": 32.25806452, "per_f_ill": 67.74193548, "tot_work_p": 255, "tot_work_m": 125, "tot_work_f": 130, "per_tot_work_p": 56.66666667000001, "per_tot_work_m": 49.01960784, "per_tot_work_f": 50.98039216, "mainwork_p": 155, "mainwork_m": 114, "mainwork_f": 41, "per_mainwork_p": 34.44444444000001, "per_mainwork_m": 73.5483871, "per_mainwork_f": 26.4516129, "main_cl_p": 131, "main_cl_m": 100, "main_cl_f": 31, "per_main_cl_p": 84.51612902999999, "per_main_cl_m": 76.33587786000001, "per_main_cl_f": 23.66412214, "main_al_p": 12, "main_al_m": 6, "main_al_f": 6, "per_main_al_p": 7.74193548, "per_main_al_m": 50.0, "per_main_al_f": 50.0, "main_hh_p": 0, "main_hh_m": 0, "main_hh_f": 0, "per_main_hh_p": 0.0, "per_main_hh_m": 0.0, "per_main_hh_f": 0.0, "main_ot_p": 12, "main_ot_m": 8, "main_ot_f": 4, "per_main_ot_p": 7.74193548, "per_main_ot_m": 66.66666667, "per_main_ot_f": 33.33333333, "margwork_p": 100, "margwork_m": 11, "margwork_f": 89, "per_margwork_p": 22.22222222, "per_margwork_m": 11.0, "per_margwork_f": 89.0, "marg_cl_p": 82, "marg_cl_m": 9, "marg_cl_f": 73, "per_marg_cl_p": 82.0, "per_marg_cl_m": 10.97560976, "per_marg_cl_f": 89.02439024, "marg_al_p": 18, "marg_al_m": 2, "marg_al_f": 16, "per_marg_al_p": 18.0, "per_marg_al_m": 11.11111111, "per_marg_al_f": 88.88888889, "marg_hh_p": 0, "marg_hh_m": 0, "marg_hh_f": 0, "per_marg_hh_p": 0.0, "per_marg_hh_m": 0.0, "per_marg_hh_f": 0.0, "marg_ot_p": 0, "marg_ot_m": 0, "marg_ot_f": 0, "per_marg_ot_p": 0.0, "per_marg_ot_m": 0.0, "per_marg_ot_f": 0.0, "margwork_3_6_p": 99, "margwork_3_6_m": 11, "margwork_3_6_f": 88, "per_margwork_3_6_p": 99.0, "per_margwork_3_6_m": 11.11111111, "per_margwork_3_6_f": 88.88888889, "marg_cl_3_6_p": 81, "marg_cl_3_6_m": 9, "marg_cl_3_6_f": 72, "per_marg_cl_3_6_p": 81.0, "per_marg_cl_3_6_m": 11.11111111, "per_marg_cl_3_6_f": 88.88888889, "marg_al_3_6_p": 18, "marg_al_3_6_m": 2, "marg_al_3_6_f": 16, "per_marg_al_3_6_p": 18.0, "per_marg_al_3_6_m": 11.11111111, "per_marg_al_3_6_f": 88.88888889, "marg_hh_3_6_p": 0, "marg_hh_3_6_m": 0, "marg_hh_3_6_f": 0, "per_marg_hh_3_6_p": 0.0, "per_marg_hh_3_6_m": 0.0, "per_marg_hh_3_6_f": 0.0, "marg_ot_3_6_p": 0, "marg_ot_3_6_m": 0, "marg_ot_3_6_f": 0, "per_marg_ot_3_6_p": 0.0, "per_marg_ot_3_6_m": 0.0, "per_marg_ot_3_6_f": 0.0, "margwork_0_3_p": 1, "margwork_0_3_m": 0, "margwork_0_3_f": 1, "per_margwork_0_3_p": 1.0, "per_margwork_0_3_m": 0.0, "per_margwork_0_3_f": 100.0, "marg_cl_0_3_p": 1, "marg_cl_0_3_m": 0, "marg_cl_0_3_f": 1, "per_marg_cl_0_3_p": 1.0, "per_marg_cl_0_3_m": 0.0, "per_marg_cl_0_3_f": 100.0, "marg_al_0_3_p": 0, "marg_al_0_3_m": 0, "marg_al_0_3_f": 0, "per_marg_al_0_3_p": 0.0, "per_marg_al_0_3_m": 0.0, "per_marg_al_0_3_f": 0.0, "marg_hh_0_3_p": 0, "marg_hh_0_3_m": 0, "marg_hh_0_3_f": 0, "per_marg_hh_0_3_p": 0.0, "per_marg_hh_0_3_m": 0.0, "per_marg_hh_0_3_f": 0.0, "marg_ot_0_3_p": 0, "marg_ot_0_3_m": 0, "marg_ot_0_3_f": 0, "per_marg_ot_0_3_p": 0.0, "per_marg_ot_0_3_m": 0.0, "per_marg_ot_0_3_f": 0.0, "non_work_p": 195, "non_work_m": 107, "non_work_f": 88, "per_non_work_p": 43.33333333, "per_non_work_m": 54.87179487, "per_non_work_f": 45.12820513, "per_hc_tot_tot": 100, "per_hc_tot_god": 33.7, "per_hc_tot_liv": 66.3, "per_hc_tot_dil": 0.0, "per_hc_res_tot": 94.0, "per_hc_res_god": 32.5, "per_hc_res_liv": 61.4, "per_hc_res_dil": 0.0, "per_hc_oth_tot": 6.0, "per_hc_oth_god": 1.2, "per_hc_oth_liv": 4.8, "per_hc_oth_dil": 0.0, "per_mt_grsbam": 0.0, "per_mt_plastic": 1.2, "per_mt_h_tiles": 55.4, "per_mt_m_tiles": 4.8, "per_mt_b_brick": 1.2, "per_mt_stone": 22.9, "per_mt_asbstos": 12.0, "per_mt_concrte": 2.4, "per_mt_oth": 0.0, "per_mw_grsbam": 1.2, "per_mw_plastic": 0.0, "per_mw_mud": 6.0, "per_mw_wood": 0.0, "per_mw_no_mrtr": 0.0, "per_mw_st_mrtr": 92.8, "per_mw_asbstos": 0.0, "per_mw_b_brick": 0.0, "per_mw_concrte": 0.0, "per_mw_oth": 0.0, "per_mf_mud": 81.9, "per_mf_wood": 0.0, "per_mf_b_brick": 0.0, "per_mf_stone": 7.2, "per_mf_cement": 10.8, "per_mf_fl_tile": 0.0, "per_mf_oth": 0.0, "per_dw_n_exrm": 3.6, "per_dw_1_room": 10.8, "per_dw_2_room": 60.2, "per_dw_3_room": 13.3, "per_dw_4_room": 10.8, "per_dw_5_room": 1.2, "per_dw_6_room": 0.0, "per_hhsize_1": 3.6, "per_hhsize_2": 8.4, "per_hhsize_3": 10.8, "per_hhsize_4": 13.3, "per_hhsize_5": 10.8, "per_hhsize_6_8": 47.0, "per_hhsize_9p": 6.0, "per_ow_owned": 98.8, "per_ow_rented": 0.0, "per_ow_oth": 1.2, "per_mc_none": 10.8, "per_mcouple_1": 60.2, "per_mcouple_2": 28.9, "per_mcouple_3": 0.0, "per_mcouple_4": 0.0, "per_mcouple_5p": 0.0, "per_dw_t_ts": 0.0, "per_dw_t_unts": 1.2, "per_dw_c_well": 0.0, "per_dw_unc_wel": 80.7, "per_dw_hpump": 18.1, "per_dw_tw_bore": 0.0, "per_dw_spring": 0.0, "per_dw_rivcan": 0.0, "per_dw_tank": 0.0, "per_dw_oth": 0.0, "per_loc_dw_wp": 9.6, "per_loc_dw_np": 89.2, "per_loc_dw_aw": 1.2, "per_light_elec": 92.8, "per_light_kero": 7.2, "per_light_solr": 0.0, "per_light_oil": 0.0, "per_light_oth": 0.0, "per_light_no": 0.0, "per_hh_latrine": 1.2, "per_fl_sewer": 0.0, "per_fl_septict": 1.2, "per_fl_othsys": 0.0, "per_pl_wslab": 0.0, "per_pl_without": 0.0, "per_ns_open": 0.0, "per_sl_ns_hum": 0.0, "per_sl_ns_anml": 0.0, "per_hh_no_lat": 98.8, "per_as_pub": 0.0, "per_as_open": 98.8, "per_hh_bathrm": 1.2, "per_hh_en_wrf": 0.0, "per_hh_no_btrm": 98.8, "per_wwoc_drain": 0.0, "per_wwoc_open": 0.0, "per_wwoc_nodrn": 100.0, "per_cook_fire": 97.6, "per_cook_resdu": 0.0, "per_cook_cwdng": 0.0, "per_cook_coal": 0.0, "per_cook_kero": 0.0, "per_cook_lpng": 1.2, "per_cook_elec": 0.0, "per_cook_biogs": 0.0, "per_cook_oth": 0.0, "per_cook_no": 1.2, "per_kf_inside": 97.6, "per_kf_in_has": 1.2, "per_kf_in_does": 96.4, "per_kf_outside": 1.2, "per_kf_out_has": 0.0, "per_kf_out_dos": 1.2, "per_kf_no_cook": 1.2, "per_hh_banking": 48.2, "per_hh_radio": 48.2, "per_hh_tv": 45.8, "per_hh_cmp_int": 0.0, "per_hh_cmp_wnt": 0.0, "per_hh_ph_ll": 0.0, "per_hh_ph_mob": 68.7, "per_hh_ph_bth": 0.0, "per_hh_bcycl": 45.8, "per_hh_2wheel": 21.7, "per_hh_4wheel": 0.0, "per_hh_tvcomp": 0.0, "per_hh_no_ast": 16.9, "per_hs_perma": 92.8, "per_hs_sperma": 6.0, "per_hs_temp": 1.2, "per_hs_servc": 0.0, "per_hs_nservc": 1.2, "per_hs_unclss": 0.0, "avghhsz_cy": 5.29411765, "st_areashape": 1059444.561955195, "st_lengthshape": 5208.391339323172}, "geometry": {"type": "Polygon", "coordinates": [[[76.34964324157295, 24.608382079589344], [76.3528561901541, 24.608849396253284], [76.35407299324075, 24.608580226138585], [76.35633736400099, 24.609049241660035], [76.3612473909523, 24.608838787022027], [76.36509642131477, 24.6089186976246], [76.36526789532948, 24.609253081326536], [76.36689256140289, 24.60888688954707], [76.36700124497585, 24.608802454277548], [76.3671347184574, 24.611560726090843], [76.3662676887997, 24.6140005315632], [76.36624062615343, 24.61407625333808], [76.3644968344902, 24.613660415128148], [76.3616860472887, 24.613285162782095], [76.35864416848034, 24.612854747988774], [76.35721850888676, 24.612955131415788], [76.35225274416706, 24.613014968275998], [76.3489419367121, 24.613390259000624], [76.34933451216936, 24.609301266997697], [76.34940147438725, 24.60910229670207], [76.34964324157295, 24.608382079589344]]]}}]}