{"type": "FeatureCollection", "features": [{"type": "Feature", "properties": {"premiumdata.sde.IN_Village_PCA.area": 0.02182041, "objectid": 653054, "id": "122291683167600", "name": "Kumung Pothar Iii", "subdistrict": "Bordumsa ADC", "district": "Changlang", "state": "Arunachal Pradesh", "country": "India", "censusname": "Kumung Pothar - III", "villagename_locallang": null, "lgd_villagename": "Kumung Pothar - Iii", "lgd_villagecode": 264397, "lgd_subdistrictcode": 1683, "lgd_districtcode": 229, "lgd_statecode": 12, "censuscode2001": "00389400", "censuscode2011": "264397", "censuscode2021": null, "level": "Village", "tru": "Rural", "no_hh": 33, "tot_p": 177, "tot_m": 95, "tot_f": 82, "per_tot_m": 53.67231638, "per_tot_f": 46.32768362, "p_06": 36, "m_06": 19, "f_06": 17, "per_p_06": 20.33898305, "per_m_06": 52.77777778, "per_f_06": 47.22222222, "p_sc": 0, "m_sc": 0, "f_sc": 0, "per_p_sc": 0.0, "per_m_sc": 0.0, "per_f_sc": 0.0, "p_st": 0, "m_st": 0, "f_st": 0, "per_p_st": 0.0, "per_m_st": 0.0, "per_f_st": 0.0, "p_lit": 67, "m_lit": 45, "f_lit": 22, "per_p_lit": 37.85310734, "per_m_lit": 67.1641791, "per_f_lit": 32.8358209, "p_ill": 110, "m_ill": 50, "f_ill": 60, "per_p_ill": 62.14689266, "per_m_ill": 45.45454545, "per_f_ill": 54.54545455, "tot_work_p": 76, "tot_work_m": 43, "tot_work_f": 33, "per_tot_work_p": 42.93785311000001, "per_tot_work_m": 56.57894737, "per_tot_work_f": 43.42105263, "mainwork_p": 49, "mainwork_m": 42, "mainwork_f": 7, "per_mainwork_p": 27.68361582, "per_mainwork_m": 85.71428571, "per_mainwork_f": 14.28571429, "main_cl_p": 29, "main_cl_m": 29, "main_cl_f": 0, "per_main_cl_p": 59.18367347, "per_main_cl_m": 100.0, "per_main_cl_f": 0.0, "main_al_p": 1, "main_al_m": 1, "main_al_f": 0, "per_main_al_p": 2.04081633, "per_main_al_m": 100.0, "per_main_al_f": 0.0, "main_hh_p": 0, "main_hh_m": 0, "main_hh_f": 0, "per_main_hh_p": 0.0, "per_main_hh_m": 0.0, "per_main_hh_f": 0.0, "main_ot_p": 19, "main_ot_m": 12, "main_ot_f": 7, "per_main_ot_p": 38.7755102, "per_main_ot_m": 63.15789474, "per_main_ot_f": 36.84210526, "margwork_p": 27, "margwork_m": 1, "margwork_f": 26, "per_margwork_p": 15.25423729, "per_margwork_m": 3.7037037, "per_margwork_f": 96.2962963, "marg_cl_p": 1, "marg_cl_m": 0, "marg_cl_f": 1, "per_marg_cl_p": 3.7037037, "per_marg_cl_m": 0.0, "per_marg_cl_f": 100.0, "marg_al_p": 18, "marg_al_m": 1, "marg_al_f": 17, "per_marg_al_p": 66.66666667, "per_marg_al_m": 5.55555556, "per_marg_al_f": 94.44444444, "marg_hh_p": 0, "marg_hh_m": 0, "marg_hh_f": 0, "per_marg_hh_p": 0.0, "per_marg_hh_m": 0.0, "per_marg_hh_f": 0.0, "marg_ot_p": 8, "marg_ot_m": 0, "marg_ot_f": 8, "per_marg_ot_p": 29.62962963, "per_marg_ot_m": 0.0, "per_marg_ot_f": 100.0, "margwork_3_6_p": 27, "margwork_3_6_m": 1, "margwork_3_6_f": 26, "per_margwork_3_6_p": 100.0, "per_margwork_3_6_m": 3.7037037, "per_margwork_3_6_f": 96.2962963, "marg_cl_3_6_p": 1, "marg_cl_3_6_m": 0, "marg_cl_3_6_f": 1, "per_marg_cl_3_6_p": 3.7037037, "per_marg_cl_3_6_m": 0.0, "per_marg_cl_3_6_f": 100.0, "marg_al_3_6_p": 18, "marg_al_3_6_m": 1, "marg_al_3_6_f": 17, "per_marg_al_3_6_p": 66.66666667, "per_marg_al_3_6_m": 5.55555556, "per_marg_al_3_6_f": 94.44444444, "marg_hh_3_6_p": 0, "marg_hh_3_6_m": 0, "marg_hh_3_6_f": 0, "per_marg_hh_3_6_p": 0.0, "per_marg_hh_3_6_m": 0.0, "per_marg_hh_3_6_f": 0.0, "marg_ot_3_6_p": 8, "marg_ot_3_6_m": 0, "marg_ot_3_6_f": 8, "per_marg_ot_3_6_p": 29.62962963, "per_marg_ot_3_6_m": 0.0, "per_marg_ot_3_6_f": 100.0, "margwork_0_3_p": 0, "margwork_0_3_m": 0, "margwork_0_3_f": 0, "per_margwork_0_3_p": 0.0, "per_margwork_0_3_m": 0.0, "per_margwork_0_3_f": 0.0, "marg_cl_0_3_p": 0, "marg_cl_0_3_m": 0, "marg_cl_0_3_f": 0, "per_marg_cl_0_3_p": 0.0, "per_marg_cl_0_3_m": 0.0, "per_marg_cl_0_3_f": 0.0, "marg_al_0_3_p": 0, "marg_al_0_3_m": 0, "marg_al_0_3_f": 0, "per_marg_al_0_3_p": 0.0, "per_marg_al_0_3_m": 0.0, "per_marg_al_0_3_f": 0.0, "marg_hh_0_3_p": 0, "marg_hh_0_3_m": 0, "marg_hh_0_3_f": 0, "per_marg_hh_0_3_p": 0.0, "per_marg_hh_0_3_m": 0.0, "per_marg_hh_0_3_f": 0.0, "marg_ot_0_3_p": 0, "marg_ot_0_3_m": 0, "marg_ot_0_3_f": 0, "per_marg_ot_0_3_p": 0.0, "per_marg_ot_0_3_m": 0.0, "per_marg_ot_0_3_f": 0.0, "non_work_p": 101, "non_work_m": 52, "non_work_f": 49, "per_non_work_p": 57.06214689, "per_non_work_m": 51.48514851, "per_non_work_f": 48.51485149, "per_hc_tot_tot": 100, "per_hc_tot_god": 2.9, "per_hc_tot_liv": 97.1, "per_hc_tot_dil": 0.0, "per_hc_res_tot": 100.0, "per_hc_res_god": 2.9, "per_hc_res_liv": 97.1, "per_hc_res_dil": 0.0, "per_hc_oth_tot": 0.0, "per_hc_oth_god": 0.0, "per_hc_oth_liv": 0.0, "per_hc_oth_dil": 0.0, "per_mt_grsbam": 94.3, "per_mt_plastic": 0.0, "per_mt_h_tiles": 0.0, "per_mt_m_tiles": 0.0, "per_mt_b_brick": 0.0, "per_mt_stone": 0.0, "per_mt_asbstos": 5.7, "per_mt_concrte": 0.0, "per_mt_oth": 0.0, "per_mw_grsbam": 97.1, "per_mw_plastic": 0.0, "per_mw_mud": 0.0, "per_mw_wood": 0.0, "per_mw_no_mrtr": 0.0, "per_mw_st_mrtr": 0.0, "per_mw_asbstos": 0.0, "per_mw_b_brick": 0.0, "per_mw_concrte": 2.9, "per_mw_oth": 0.0, "per_mf_mud": 97.1, "per_mf_wood": 0.0, "per_mf_b_brick": 0.0, "per_mf_stone": 0.0, "per_mf_cement": 2.9, "per_mf_fl_tile": 0.0, "per_mf_oth": 0.0, "per_dw_n_exrm": 0.0, "per_dw_1_room": 11.4, "per_dw_2_room": 40.0, "per_dw_3_room": 42.9, "per_dw_4_room": 5.7, "per_dw_5_room": 0.0, "per_dw_6_room": 0.0, "per_hhsize_1": 2.9, "per_hhsize_2": 2.9, "per_hhsize_3": 8.6, "per_hhsize_4": 14.3, "per_hhsize_5": 25.7, "per_hhsize_6_8": 37.1, "per_hhsize_9p": 8.6, "per_ow_owned": 85.7, "per_ow_rented": 0.0, "per_ow_oth": 14.3, "per_mc_none": 5.7, "per_mcouple_1": 82.9, "per_mcouple_2": 11.4, "per_mcouple_3": 0.0, "per_mcouple_4": 0.0, "per_mcouple_5p": 0.0, "per_dw_t_ts": 0.0, "per_dw_t_unts": 0.0, "per_dw_c_well": 0.0, "per_dw_unc_wel": 2.9, "per_dw_hpump": 97.1, "per_dw_tw_bore": 0.0, "per_dw_spring": 0.0, "per_dw_rivcan": 0.0, "per_dw_tank": 0.0, "per_dw_oth": 0.0, "per_loc_dw_wp": 34.3, "per_loc_dw_np": 42.9, "per_loc_dw_aw": 22.9, "per_light_elec": 8.6, "per_light_kero": 91.4, "per_light_solr": 0.0, "per_light_oil": 0.0, "per_light_oth": 0.0, "per_light_no": 0.0, "per_hh_latrine": 62.9, "per_fl_sewer": 0.0, "per_fl_septict": 0.0, "per_fl_othsys": 0.0, "per_pl_wslab": 0.0, "per_pl_without": 62.9, "per_ns_open": 0.0, "per_sl_ns_hum": 0.0, "per_sl_ns_anml": 0.0, "per_hh_no_lat": 37.1, "per_as_pub": 0.0, "per_as_open": 37.1, "per_hh_bathrm": 0.0, "per_hh_en_wrf": 0.0, "per_hh_no_btrm": 100.0, "per_wwoc_drain": 0.0, "per_wwoc_open": 0.0, "per_wwoc_nodrn": 100.0, "per_cook_fire": 97.1, "per_cook_resdu": 0.0, "per_cook_cwdng": 0.0, "per_cook_coal": 0.0, "per_cook_kero": 0.0, "per_cook_lpng": 2.9, "per_cook_elec": 0.0, "per_cook_biogs": 0.0, "per_cook_oth": 0.0, "per_cook_no": 0.0, "per_kf_inside": 80.0, "per_kf_in_has": 80.0, "per_kf_in_does": 0.0, "per_kf_outside": 20.0, "per_kf_out_has": 20.0, "per_kf_out_dos": 0.0, "per_kf_no_cook": 0.0, "per_hh_banking": 68.6, "per_hh_radio": 22.9, "per_hh_tv": 25.7, "per_hh_cmp_int": 0.0, "per_hh_cmp_wnt": 2.9, "per_hh_ph_ll": 0.0, "per_hh_ph_mob": 37.1, "per_hh_ph_bth": 0.0, "per_hh_bcycl": 88.6, "per_hh_2wheel": 8.6, "per_hh_4wheel": 0.0, "per_hh_tvcomp": 0.0, "per_hh_no_ast": 8.6, "per_hs_perma": 2.9, "per_hs_sperma": 2.9, "per_hs_temp": 94.3, "per_hs_servc": 0.0, "per_hs_nservc": 94.3, "per_hs_unclss": 0.0, "avghhsz_cy": 5.36363636, "st_areashape": 31363.87350204, "st_lengthshape": 628.0581775956349}, "geometry": {"type": "Polygon", "coordinates": [[[95.92387706596682, 27.528359264408063], [95.92378762251063, 27.528355306052998], [95.92369906838653, 27.528343469224207], [95.92361228304527, 27.528323873410685], [95.92352812886945, 27.52829671138801], [95.92344744308892, 27.528262254794797], [95.92337102700095, 27.528220844573728], [95.92329963968199, 27.528172892565003], [95.92323399169933, 27.528118876727053], [95.92317473522994, 27.52805933237434], [95.92312245777198, 27.52799485138108], [95.92307768034833, 27.527926075808733], [95.92304084762503, 27.527853687550532], [95.92301232611476, 27.52777840673859], [95.92299239788852, 27.527700982184808], [95.92298126237223, 27.527622182618448], [95.92297903005877, 27.527542791109994], [95.92298572250762, 27.527463597105083], [95.92300127324351, 27.527385387661813], [95.92302552865449, 27.527308939484413], [95.92305824619545, 27.527235013346854], [95.9230991024729, 27.527164342940026], [95.92314768965166, 27.527097630888278], [95.92320352623477, 27.52703554078293], [95.92326605616508, 27.526978689215667], [95.92333465960499, 27.526927640998434], [95.92340865293666, 27.526882904383374], [95.9234873013381, 27.526844923096018], [95.92356982417336, 27.52681407474178], [95.92365540038226, 27.526790666822546], [95.92374317926026, 27.52677493036328], [95.92383228854318, 27.52676702309834], [95.92392184339049, 27.52676702309834], [95.92401095267338, 27.52677493036328], [95.92409873155137, 27.526790666822546], [95.92418430776031, 27.52681407474178], [95.92426683059557, 27.526844923096018], [95.92434547899701, 27.526882904383374], [95.92441947232864, 27.526927640998434], [95.92448807576856, 27.526978689215667], [95.92455060569885, 27.52703554078293], [95.92460644228197, 27.527097630888278], [95.92465502946075, 27.527164342940026], [95.9246958857382, 27.527235013346854], [95.92472860327915, 27.527308939484413], [95.92475285869016, 27.527385387661813], [95.92476840942601, 27.527463597105083], [95.92477510187489, 27.527542791109994], [95.9247728695614, 27.527622182618448], [95.92476173404515, 27.527700982184808], [95.9247418058189, 27.52777840673859], [95.92471328430862, 27.527853687550532], [95.92467645158533, 27.527926075808733], [95.92463167416169, 27.52799485138108], [95.92457939670373, 27.52805933237434], [95.92452014023434, 27.528118876727053], [95.92445449225168, 27.528172892565003], [95.92438310493267, 27.528220844573728], [95.92430668884471, 27.528262254794797], [95.92422600306422, 27.52829671138801], [95.92414184888838, 27.528323873410685], [95.9240550635471, 27.528343469224207], [95.92396650942302, 27.528355306052998], [95.92387706596682, 27.528359264408063]]]}}]}