{"type": "FeatureCollection", "features": [{"type": "Feature", "properties": {"premiumdata.sde.IN_Village_PCA.area": 0.4605281, "objectid": 600836, "id": "102051163330005", "name": "Mangarwarakhas Mahal", "subdistrict": "Kumarkhand", "district": "Madhepura", "state": "Bihar", "country": "India", "censusname": "Mangarwarakhas Mahal", "villagename_locallang": null, "lgd_villagename": "Mangarwarakhas Mahal", "lgd_villagecode": 225951, "lgd_subdistrictcode": 1163, "lgd_districtcode": 205, "lgd_statecode": 10, "censuscode2001": "00998700", "censuscode2011": "225951", "censuscode2021": null, "level": "Village", "tru": "Rural", "no_hh": 585, "tot_p": 3629, "tot_m": 1901, "tot_f": 1728, "per_tot_m": 52.38357674, "per_tot_f": 47.61642326, "p_06": 744, "m_06": 359, "f_06": 385, "per_p_06": 20.50151557, "per_m_06": 48.25268817, "per_f_06": 51.74731183, "p_sc": 9, "m_sc": 4, "f_sc": 5, "per_p_sc": 0.2480022, "per_m_sc": 44.44444444000001, "per_f_sc": 55.55555556, "p_st": 0, "m_st": 0, "f_st": 0, "per_p_st": 0.0, "per_m_st": 0.0, "per_f_st": 0.0, "p_lit": 1832, "m_lit": 1142, "f_lit": 690, "per_p_lit": 50.48222651, "per_m_lit": 62.33624454, "per_f_lit": 37.66375546, "p_ill": 1797, "m_ill": 759, "f_ill": 1038, "per_p_ill": 49.51777349, "per_m_ill": 42.23706177, "per_f_ill": 57.76293823, "tot_work_p": 1612, "tot_work_m": 913, "tot_work_f": 699, "per_tot_work_p": 44.4199504, "per_tot_work_m": 56.63771712, "per_tot_work_f": 43.36228288, "mainwork_p": 589, "mainwork_m": 479, "mainwork_f": 110, "per_mainwork_p": 16.23036649, "per_mainwork_m": 81.32427844, "per_mainwork_f": 18.67572156, "main_cl_p": 204, "main_cl_m": 183, "main_cl_f": 21, "per_main_cl_p": 34.63497453, "per_main_cl_m": 89.70588235, "per_main_cl_f": 10.29411765, "main_al_p": 346, "main_al_m": 269, "main_al_f": 77, "per_main_al_p": 58.74363328, "per_main_al_m": 77.74566474, "per_main_al_f": 22.25433526, "main_hh_p": 1, "main_hh_m": 1, "main_hh_f": 0, "per_main_hh_p": 0.16977929, "per_main_hh_m": 100.0, "per_main_hh_f": 0.0, "main_ot_p": 38, "main_ot_m": 26, "main_ot_f": 12, "per_main_ot_p": 6.4516129, "per_main_ot_m": 68.42105263, "per_main_ot_f": 31.57894737, "margwork_p": 1023, "margwork_m": 434, "margwork_f": 589, "per_margwork_p": 28.18958391, "per_margwork_m": 42.42424242, "per_margwork_f": 57.57575758, "marg_cl_p": 129, "marg_cl_m": 28, "marg_cl_f": 101, "per_marg_cl_p": 12.60997067, "per_marg_cl_m": 21.70542636, "per_marg_cl_f": 78.29457364, "marg_al_p": 869, "marg_al_m": 397, "marg_al_f": 472, "per_marg_al_p": 84.94623656, "per_marg_al_m": 45.68469505, "per_marg_al_f": 54.31530495, "marg_hh_p": 5, "marg_hh_m": 1, "marg_hh_f": 4, "per_marg_hh_p": 0.48875855, "per_marg_hh_m": 20.0, "per_marg_hh_f": 80.0, "marg_ot_p": 20, "marg_ot_m": 8, "marg_ot_f": 12, "per_marg_ot_p": 1.95503421, "per_marg_ot_m": 40.0, "per_marg_ot_f": 60.0, "margwork_3_6_p": 951, "margwork_3_6_m": 420, "margwork_3_6_f": 531, "per_margwork_3_6_p": 92.96187683, "per_margwork_3_6_m": 44.16403785, "per_margwork_3_6_f": 55.83596215, "marg_cl_3_6_p": 114, "marg_cl_3_6_m": 22, "marg_cl_3_6_f": 92, "per_marg_cl_3_6_p": 11.14369501, "per_marg_cl_3_6_m": 19.29824561, "per_marg_cl_3_6_f": 80.70175439, "marg_al_3_6_p": 812, "marg_al_3_6_m": 389, "marg_al_3_6_f": 423, "per_marg_al_3_6_p": 79.37438905, "per_marg_al_3_6_m": 47.90640394, "per_marg_al_3_6_f": 52.09359606, "marg_hh_3_6_p": 5, "marg_hh_3_6_m": 1, "marg_hh_3_6_f": 4, "per_marg_hh_3_6_p": 0.48875855, "per_marg_hh_3_6_m": 20.0, "per_marg_hh_3_6_f": 80.0, "marg_ot_3_6_p": 20, "marg_ot_3_6_m": 8, "marg_ot_3_6_f": 12, "per_marg_ot_3_6_p": 1.95503421, "per_marg_ot_3_6_m": 40.0, "per_marg_ot_3_6_f": 60.0, "margwork_0_3_p": 72, "margwork_0_3_m": 14, "margwork_0_3_f": 58, "per_margwork_0_3_p": 7.03812317, "per_margwork_0_3_m": 19.44444444, "per_margwork_0_3_f": 80.55555556, "marg_cl_0_3_p": 15, "marg_cl_0_3_m": 6, "marg_cl_0_3_f": 9, "per_marg_cl_0_3_p": 1.46627566, "per_marg_cl_0_3_m": 40.0, "per_marg_cl_0_3_f": 60.0, "marg_al_0_3_p": 57, "marg_al_0_3_m": 8, "marg_al_0_3_f": 49, "per_marg_al_0_3_p": 5.57184751, "per_marg_al_0_3_m": 14.03508772, "per_marg_al_0_3_f": 85.96491228000001, "marg_hh_0_3_p": 0, "marg_hh_0_3_m": 0, "marg_hh_0_3_f": 0, "per_marg_hh_0_3_p": 0.0, "per_marg_hh_0_3_m": 0.0, "per_marg_hh_0_3_f": 0.0, "marg_ot_0_3_p": 0, "marg_ot_0_3_m": 0, "marg_ot_0_3_f": 0, "per_marg_ot_0_3_p": 0.0, "per_marg_ot_0_3_m": 0.0, "per_marg_ot_0_3_f": 0.0, "non_work_p": 2017, "non_work_m": 988, "non_work_f": 1029, "per_non_work_p": 55.5800496, "per_non_work_m": 48.98363907, "per_non_work_f": 51.01636093, "per_hc_tot_tot": 100, "per_hc_tot_god": 20.8, "per_hc_tot_liv": 79.2, "per_hc_tot_dil": 0.0, "per_hc_res_tot": 100.0, "per_hc_res_god": 20.8, "per_hc_res_liv": 79.2, "per_hc_res_dil": 0.0, "per_hc_oth_tot": 0.0, "per_hc_oth_god": 0.0, "per_hc_oth_liv": 0.0, "per_hc_oth_dil": 0.0, "per_mt_grsbam": 49.2, "per_mt_plastic": 0.0, "per_mt_h_tiles": 5.0, "per_mt_m_tiles": 0.0, "per_mt_b_brick": 1.7, "per_mt_stone": 0.8, "per_mt_asbstos": 35.8, "per_mt_concrte": 7.5, "per_mt_oth": 0.0, "per_mw_grsbam": 75.0, "per_mw_plastic": 0.8, "per_mw_mud": 0.0, "per_mw_wood": 0.0, "per_mw_no_mrtr": 0.0, "per_mw_st_mrtr": 0.0, "per_mw_asbstos": 0.0, "per_mw_b_brick": 24.2, "per_mw_concrte": 0.0, "per_mw_oth": 0.0, "per_mf_mud": 100.0, "per_mf_wood": 0.0, "per_mf_b_brick": 0.0, "per_mf_stone": 0.0, "per_mf_cement": 0.0, "per_mf_fl_tile": 0.0, "per_mf_oth": 0.0, "per_dw_n_exrm": 1.7, "per_dw_1_room": 86.7, "per_dw_2_room": 9.2, "per_dw_3_room": 1.7, "per_dw_4_room": 0.0, "per_dw_5_room": 0.0, "per_dw_6_room": 0.8, "per_hhsize_1": 0.8, "per_hhsize_2": 15.8, "per_hhsize_3": 19.2, "per_hhsize_4": 10.0, "per_hhsize_5": 12.5, "per_hhsize_6_8": 35.8, "per_hhsize_9p": 5.8, "per_ow_owned": 100.0, "per_ow_rented": 0.0, "per_ow_oth": 0.0, "per_mc_none": 5.0, "per_mcouple_1": 87.5, "per_mcouple_2": 5.8, "per_mcouple_3": 1.7, "per_mcouple_4": 0.0, "per_mcouple_5p": 0.0, "per_dw_t_ts": 0.0, "per_dw_t_unts": 0.0, "per_dw_c_well": 0.0, "per_dw_unc_wel": 0.0, "per_dw_hpump": 99.2, "per_dw_tw_bore": 0.8, "per_dw_spring": 0.0, "per_dw_rivcan": 0.0, "per_dw_tank": 0.0, "per_dw_oth": 0.0, "per_loc_dw_wp": 52.5, "per_loc_dw_np": 43.3, "per_loc_dw_aw": 4.2, "per_light_elec": 0.0, "per_light_kero": 100.0, "per_light_solr": 0.0, "per_light_oil": 0.0, "per_light_oth": 0.0, "per_light_no": 0.0, "per_hh_latrine": 3.3, "per_fl_sewer": 0.0, "per_fl_septict": 2.5, "per_fl_othsys": 0.8, "per_pl_wslab": 0.0, "per_pl_without": 0.0, "per_ns_open": 0.0, "per_sl_ns_hum": 0.0, "per_sl_ns_anml": 0.0, "per_hh_no_lat": 96.7, "per_as_pub": 1.7, "per_as_open": 95.0, "per_hh_bathrm": 1.7, "per_hh_en_wrf": 0.0, "per_hh_no_btrm": 98.3, "per_wwoc_drain": 0.0, "per_wwoc_open": 0.8, "per_wwoc_nodrn": 99.2, "per_cook_fire": 7.5, "per_cook_resdu": 92.5, "per_cook_cwdng": 0.0, "per_cook_coal": 0.0, "per_cook_kero": 0.0, "per_cook_lpng": 0.0, "per_cook_elec": 0.0, "per_cook_biogs": 0.0, "per_cook_oth": 0.0, "per_cook_no": 0.0, "per_kf_inside": 96.7, "per_kf_in_has": 4.2, "per_kf_in_does": 92.5, "per_kf_outside": 3.3, "per_kf_out_has": 0.8, "per_kf_out_dos": 2.5, "per_kf_no_cook": 0.0, "per_hh_banking": 15.8, "per_hh_radio": 3.3, "per_hh_tv": 0.8, "per_hh_cmp_int": 0.0, "per_hh_cmp_wnt": 2.5, "per_hh_ph_ll": 0.0, "per_hh_ph_mob": 71.7, "per_hh_ph_bth": 0.0, "per_hh_bcycl": 21.7, "per_hh_2wheel": 6.7, "per_hh_4wheel": 0.0, "per_hh_tvcomp": 0.0, "per_hh_no_ast": 22.5, "per_hs_perma": 23.3, "per_hs_sperma": 28.3, "per_hs_temp": 48.3, "per_hs_servc": 0.0, "per_hs_nservc": 48.3, "per_hs_unclss": 0.0, "avghhsz_cy": 6.2034188, "st_areashape": 572383.373105485, "st_lengthshape": 2909.1384678349746}, "geometry": {"type": "Polygon", "coordinates": [[[87.05947842590743, 25.99093327186062], [87.06097580789158, 25.989907787290882], [87.06358147467944, 25.98896604523972], [87.06382244056789, 25.989519996866576], [87.06458094475612, 25.990598998769723], [87.06564374606033, 25.992251245518954], [87.06629240605228, 25.993379804380293], [87.06676600146331, 25.995131080174158], [87.06664575387771, 25.995938953760966], [87.06644586435394, 25.996272819252695], [87.06573147014109, 25.996669728232618], [87.06454773942994, 25.99704379474844], [87.06448486185162, 25.997071474743187], [87.0635336555602, 25.99749020875663], [87.0616175436693, 25.997085988934202], [87.06012016168516, 25.994522396174208], [87.06012016168516, 25.993176486898292], [87.05983494568412, 25.99195874667462], [87.05947842590743, 25.99093327186062]]]}}]}