{"type": "FeatureCollection", "features": [{"type": "Feature", "properties": {"premiumdata.sde.IN_Village_PCA.area": 23.29829294, "objectid": 344686, "id": "9155835393463", "name": "Ouser", "subdistrict": "Tirwa", "district": "Kannauj", "state": "Uttar Pradesh", "country": "India", "censusname": "Ouser", "villagename_locallang": null, "lgd_villagename": "Ouser", "lgd_villagecode": 147319, "lgd_subdistrictcode": 835, "lgd_districtcode": 155, "lgd_statecode": 9, "censuscode2001": "04020700", "censuscode2011": "147319", "censuscode2021": null, "level": "Village", "tru": "Rural", "no_hh": 1505, "tot_p": 8624, "tot_m": 4625, "tot_f": 3999, "per_tot_m": 53.62940631, "per_tot_f": 46.37059369, "p_06": 1377, "m_06": 700, "f_06": 677, "per_p_06": 15.96706865, "per_m_06": 50.83514887, "per_f_06": 49.16485113, "p_sc": 1697, "m_sc": 899, "f_sc": 798, "per_p_sc": 19.67764378, "per_m_sc": 52.97583972, "per_f_sc": 47.02416028, "p_st": 0, "m_st": 0, "f_st": 0, "per_p_st": 0.0, "per_m_st": 0.0, "per_f_st": 0.0, "p_lit": 5375, "m_lit": 3198, "f_lit": 2177, "per_p_lit": 62.32606679, "per_m_lit": 59.49767442, "per_f_lit": 40.50232558, "p_ill": 3249, "m_ill": 1427, "f_ill": 1822, "per_p_ill": 37.67393321, "per_m_ill": 43.92120653, "per_f_ill": 56.07879347, "tot_work_p": 2948, "tot_work_m": 2362, "tot_work_f": 586, "per_tot_work_p": 34.18367347, "per_tot_work_m": 80.12211669, "per_tot_work_f": 19.87788331, "mainwork_p": 2453, "mainwork_m": 2116, "mainwork_f": 337, "per_mainwork_p": 28.44387755, "per_mainwork_m": 86.26172034000001, "per_mainwork_f": 13.73827966, "main_cl_p": 1312, "main_cl_m": 1258, "main_cl_f": 54, "per_main_cl_p": 53.48552792, "per_main_cl_m": 95.88414634, "per_main_cl_f": 4.11585366, "main_al_p": 622, "main_al_m": 577, "main_al_f": 45, "per_main_al_p": 25.35670607, "per_main_al_m": 92.76527331, "per_main_al_f": 7.23472669, "main_hh_p": 33, "main_hh_m": 21, "main_hh_f": 12, "per_main_hh_p": 1.34529148, "per_main_hh_m": 63.63636364, "per_main_hh_f": 36.36363636, "main_ot_p": 486, "main_ot_m": 260, "main_ot_f": 226, "per_main_ot_p": 19.81247452, "per_main_ot_m": 53.49794239, "per_main_ot_f": 46.50205761, "margwork_p": 495, "margwork_m": 246, "margwork_f": 249, "per_margwork_p": 5.73979592, "per_margwork_m": 49.6969697, "per_margwork_f": 50.3030303, "marg_cl_p": 175, "marg_cl_m": 86, "marg_cl_f": 89, "per_marg_cl_p": 35.35353535, "per_marg_cl_m": 49.14285714, "per_marg_cl_f": 50.85714286, "marg_al_p": 79, "marg_al_m": 61, "marg_al_f": 18, "per_marg_al_p": 15.95959596, "per_marg_al_m": 77.21518987, "per_marg_al_f": 22.78481013, "marg_hh_p": 29, "marg_hh_m": 7, "marg_hh_f": 22, "per_marg_hh_p": 5.85858586, "per_marg_hh_m": 24.13793103, "per_marg_hh_f": 75.86206897, "marg_ot_p": 212, "marg_ot_m": 92, "marg_ot_f": 120, "per_marg_ot_p": 42.82828283, "per_marg_ot_m": 43.39622642, "per_marg_ot_f": 56.60377358, "margwork_3_6_p": 399, "margwork_3_6_m": 182, "margwork_3_6_f": 217, "per_margwork_3_6_p": 80.60606061, "per_margwork_3_6_m": 45.61403509, "per_margwork_3_6_f": 54.38596491, "marg_cl_3_6_p": 139, "marg_cl_3_6_m": 64, "marg_cl_3_6_f": 75, "per_marg_cl_3_6_p": 28.08080808, "per_marg_cl_3_6_m": 46.04316547000001, "per_marg_cl_3_6_f": 53.95683453, "marg_al_3_6_p": 72, "marg_al_3_6_m": 55, "marg_al_3_6_f": 17, "per_marg_al_3_6_p": 14.54545455, "per_marg_al_3_6_m": 76.38888889, "per_marg_al_3_6_f": 23.61111111, "marg_hh_3_6_p": 29, "marg_hh_3_6_m": 7, "marg_hh_3_6_f": 22, "per_marg_hh_3_6_p": 5.85858586, "per_marg_hh_3_6_m": 24.13793103, "per_marg_hh_3_6_f": 75.86206897, "marg_ot_3_6_p": 159, "marg_ot_3_6_m": 56, "marg_ot_3_6_f": 103, "per_marg_ot_3_6_p": 32.12121212, "per_marg_ot_3_6_m": 35.22012579, "per_marg_ot_3_6_f": 64.77987420999999, "margwork_0_3_p": 96, "margwork_0_3_m": 64, "margwork_0_3_f": 32, "per_margwork_0_3_p": 19.39393939, "per_margwork_0_3_m": 66.66666667, "per_margwork_0_3_f": 33.33333333, "marg_cl_0_3_p": 36, "marg_cl_0_3_m": 22, "marg_cl_0_3_f": 14, "per_marg_cl_0_3_p": 7.27272727, "per_marg_cl_0_3_m": 61.11111111, "per_marg_cl_0_3_f": 38.88888889, "marg_al_0_3_p": 7, "marg_al_0_3_m": 6, "marg_al_0_3_f": 1, "per_marg_al_0_3_p": 1.41414141, "per_marg_al_0_3_m": 85.71428571, "per_marg_al_0_3_f": 14.28571429, "marg_hh_0_3_p": 0, "marg_hh_0_3_m": 0, "marg_hh_0_3_f": 0, "per_marg_hh_0_3_p": 0.0, "per_marg_hh_0_3_m": 0.0, "per_marg_hh_0_3_f": 0.0, "marg_ot_0_3_p": 53, "marg_ot_0_3_m": 36, "marg_ot_0_3_f": 17, "per_marg_ot_0_3_p": 10.70707071, "per_marg_ot_0_3_m": 67.9245283, "per_marg_ot_0_3_f": 32.0754717, "non_work_p": 5676, "non_work_m": 2263, "non_work_f": 3413, "per_non_work_p": 65.81632653, "per_non_work_m": 39.8696265, "per_non_work_f": 60.1303735, "per_hc_tot_tot": 100, "per_hc_tot_god": 47.1, "per_hc_tot_liv": 47.5, "per_hc_tot_dil": 5.4, "per_hc_res_tot": 92.0, "per_hc_res_god": 46.1, "per_hc_res_liv": 40.5, "per_hc_res_dil": 5.4, "per_hc_oth_tot": 8.0, "per_hc_oth_god": 1.0, "per_hc_oth_liv": 7.0, "per_hc_oth_dil": 0.0, "per_mt_grsbam": 48.9, "per_mt_plastic": 0.5, "per_mt_h_tiles": 5.5, "per_mt_m_tiles": 1.3, "per_mt_b_brick": 4.1, "per_mt_stone": 2.4, "per_mt_asbstos": 0.6, "per_mt_concrte": 36.2, "per_mt_oth": 0.5, "per_mw_grsbam": 5.5, "per_mw_plastic": 0.2, "per_mw_mud": 27.9, "per_mw_wood": 0.1, "per_mw_no_mrtr": 0.9, "per_mw_st_mrtr": 2.7, "per_mw_asbstos": 0.1, "per_mw_b_brick": 49.7, "per_mw_concrte": 1.6, "per_mw_oth": 11.4, "per_mf_mud": 96.1, "per_mf_wood": 0.1, "per_mf_b_brick": 0.1, "per_mf_stone": 0.3, "per_mf_cement": 3.3, "per_mf_fl_tile": 0.0, "per_mf_oth": 0.1, "per_dw_n_exrm": 3.1, "per_dw_1_room": 37.8, "per_dw_2_room": 39.0, "per_dw_3_room": 11.1, "per_dw_4_room": 6.1, "per_dw_5_room": 1.5, "per_dw_6_room": 1.5, "per_hhsize_1": 3.5, "per_hhsize_2": 6.6, "per_hhsize_3": 9.1, "per_hhsize_4": 14.8, "per_hhsize_5": 15.8, "per_hhsize_6_8": 38.5, "per_hhsize_9p": 11.8, "per_ow_owned": 99.3, "per_ow_rented": 0.3, "per_ow_oth": 0.4, "per_mc_none": 13.8, "per_mcouple_1": 68.0, "per_mcouple_2": 13.7, "per_mcouple_3": 3.5, "per_mcouple_4": 0.8, "per_mcouple_5p": 0.2, "per_dw_t_ts": 1.5, "per_dw_t_unts": 0.1, "per_dw_c_well": 0.8, "per_dw_unc_wel": 5.3, "per_dw_hpump": 91.9, "per_dw_tw_bore": 0.0, "per_dw_spring": 0.1, "per_dw_rivcan": 0.0, "per_dw_tank": 0.0, "per_dw_oth": 0.4, "per_loc_dw_wp": 26.9, "per_loc_dw_np": 48.8, "per_loc_dw_aw": 24.3, "per_light_elec": 2.8, "per_light_kero": 90.2, "per_light_solr": 6.7, "per_light_oil": 0.0, "per_light_oth": 0.3, "per_light_no": 0.1, "per_hh_latrine": 12.0, "per_fl_sewer": 3.6, "per_fl_septict": 3.5, "per_fl_othsys": 0.4, "per_pl_wslab": 3.2, "per_pl_without": 0.6, "per_ns_open": 0.5, "per_sl_ns_hum": 0.0, "per_sl_ns_anml": 0.2, "per_hh_no_lat": 88.0, "per_as_pub": 0.3, "per_as_open": 87.7, "per_hh_bathrm": 12.3, "per_hh_en_wrf": 58.3, "per_hh_no_btrm": 29.4, "per_wwoc_drain": 2.2, "per_wwoc_open": 83.6, "per_wwoc_nodrn": 14.2, "per_cook_fire": 93.7, "per_cook_resdu": 2.4, "per_cook_cwdng": 0.2, "per_cook_coal": 0.0, "per_cook_kero": 0.3, "per_cook_lpng": 2.5, "per_cook_elec": 0.1, "per_cook_biogs": 0.0, "per_cook_oth": 0.1, "per_cook_no": 0.7, "per_kf_inside": 92.3, "per_kf_in_has": 12.9, "per_kf_in_does": 79.4, "per_kf_outside": 6.9, "per_kf_out_has": 1.0, "per_kf_out_dos": 5.9, "per_kf_no_cook": 0.7, "per_hh_banking": 72.8, "per_hh_radio": 43.5, "per_hh_tv": 16.3, "per_hh_cmp_int": 0.1, "per_hh_cmp_wnt": 3.1, "per_hh_ph_ll": 1.3, "per_hh_ph_mob": 71.6, "per_hh_ph_bth": 3.2, "per_hh_bcycl": 71.0, "per_hh_2wheel": 9.1, "per_hh_4wheel": 1.5, "per_hh_tvcomp": 0.1, "per_hh_no_ast": 8.3, "per_hs_perma": 40.7, "per_hs_sperma": 15.0, "per_hs_temp": 32.4, "per_hs_servc": 27.2, "per_hs_nservc": 5.2, "per_hs_unclss": 11.9, "avghhsz_cy": 5.73023256, "st_areashape": 29364217.34026244, "st_lengthshape": 24773.711432351327}, "geometry": {"type": "Polygon", "coordinates": [[[79.81406221934377, 26.83099905408269], [79.81374881690407, 26.831567951176122], [79.81354658367573, 26.83197866953445], [79.81327024392802, 26.83245356604024], [79.81292021537756, 26.83297089033931], [79.8123060255397, 26.833331646269883], [79.81188650242055, 26.833673634337885], [79.81149210967148, 26.833972454523646], [79.81111989273352, 26.834380530971632], [79.81071960164626, 26.83498418185133], [79.81029462485505, 26.835609248310384], [79.81001152528479, 26.83591819041761], [79.8097239305449, 26.83623203567027], [79.80964940091906, 26.83631800612396], [79.80930649241553, 26.836465150408152], [79.80894266753894, 26.836437714419365], [79.80853112774774, 26.836365980675538], [79.80812083302148, 26.83622892398638], [79.80759290301047, 26.83589401187518], [79.80726178309843, 26.83543145878781], [79.80631821967347, 26.833979224695035], [79.80601222653823, 26.8334735015571], [79.80561624826268, 26.83259609576525], [79.80538394932009, 26.832047944353338], [79.80517424570186, 26.8315872721442], [79.80505745842672, 26.831345857201036], [79.80486656193726, 26.83116864695787], [79.80448142183562, 26.83098839915876], [79.80373120909744, 26.83084604135909], [79.80327026106727, 26.83081708176025], [79.80283655354978, 26.830636074280065], [79.80244762615088, 26.830651805812423], [79.80164379207508, 26.830769973799], [79.80106102350923, 26.830760897215583], [79.80060091899715, 26.830688387127683], [79.80031164261102, 26.83057498060305], [79.79987709696539, 26.830437509689162], [79.79934247809875, 26.83045096307886], [79.79829834288783, 26.830434684821814], [79.79796136057026, 26.83027695867467], [79.79767504053974, 26.83001112306214], [79.79729200519081, 26.829721992748237], [79.7969089896048, 26.829432846465675], [79.79647867143088, 26.82907763332953], [79.79609479795377, 26.82883204301294], [79.79410705170714, 26.82773383010891], [79.79321540461738, 26.827371401786316], [79.79263983784516, 26.826992122790248], [79.7921575880647, 26.826810328407046], [79.79155521286944, 26.82656131179448], [79.78983674022248, 26.826251281194462], [79.78928080702913, 26.82611189793504], [79.78869975155055, 26.8260156771876], [79.78826692528035, 26.825791088041438], [79.78795254727028, 26.825720824178834], [79.78761218189733, 26.825737281879253], [79.7871504074171, 26.825751822852805], [79.786641775015, 26.825678515131663], [79.7859878805399, 26.825581143659083], [79.78552824135512, 26.825486828768504], [79.78472611856995, 26.825517817085153], [79.78423879600304, 26.825597307978637], [79.78402269368503, 26.82573428614505], [79.78393471627936, 26.825326447901247], [79.78359901855262, 26.82510336929313], [79.78333531540605, 26.824924976475035], [79.78309632940446, 26.824725199401037], [79.78285819231084, 26.824481862708392], [79.78273975303391, 26.824327532085473], [79.78262640450967, 26.823911907920916], [79.78239574678912, 26.823132389349475], [79.7823062682986, 26.822738909941336], [79.78212432441929, 26.82210437692505], [79.7821311147845, 26.82175597905449], [79.78221116994771, 26.821386944269545], [79.782147664447, 26.820906756010157], [79.78201047014356, 26.82046895368542], [79.7818247281872, 26.82003040410521], [79.78140424027741, 26.819174321715472], [79.78109877894485, 26.818646760951154], [79.78083763869176, 26.81833771402034], [79.78043126241677, 26.818004600132138], [79.77970669298672, 26.817797192325294], [79.7792756058549, 26.817485473417463], [79.778745265664, 26.81728111112554], [79.77821367052663, 26.817142057555845], [79.7778051625495, 26.816917819606214], [79.77735065813484, 26.816562170391276], [79.77674961244625, 26.816247772785243], [79.7763415509318, 26.816001767434628], [79.77594155539029, 26.815342004409178], [79.77560802080679, 26.81501003779299], [79.77529920336826, 26.814656657071236], [79.77513561925673, 26.814327362191435], [79.77502061693404, 26.81399881516574], [79.77493157322816, 26.813583560398666], [79.774674302019, 26.813078527911106], [79.77453458614453, 26.81277137793173], [79.77446898397595, 26.812400048988696], [79.77445490647715, 26.811877054670276], [79.77448593788031, 26.81158003625177], [79.77459072186664, 26.811189601046852], [79.77462478149063, 26.81068914870298], [79.77458600571137, 26.81018753561921], [79.77454554469269, 26.809773042188027], [79.77480831898127, 26.80875341207675], [79.77486581565103, 26.808296884898507], [79.77504383838414, 26.807885827346247], [79.77521731294699, 26.807561472549025], [79.7753211105831, 26.807367411164762], [79.77564522453427, 26.80693686391867], [79.7759910732237, 26.80663734705094], [79.77643402530377, 26.806339356780466], [79.77665720095634, 26.80610325596951], [79.77688207711971, 26.805780049036716], [79.77705966686486, 26.805390767673043], [79.77733352636406, 26.805046543051294], [79.7776601780559, 26.804485338306097], [79.77798896773807, 26.80381524686979], [79.7782466072565, 26.803056902788917], [79.77849831160586, 26.802603437220814], [79.77910189773011, 26.801816587086748], [79.77952266411761, 26.801409333100203], [79.77987061306818, 26.801000934261168], [79.78034630245216, 26.800267795870667], [79.78096638793322, 26.799602266763824], [79.78151701747316, 26.798761379591642], [79.78198761520609, 26.79828955325871], [79.78261275820219, 26.797362695704546], [79.78315955193585, 26.796717793899496], [79.7835866676158, 26.79598387889623], [79.78380939141576, 26.795769545292195], [79.78417904096865, 26.79549216782965], [79.78452441894086, 26.79521440880671], [79.78482039047078, 26.794979434702775], [79.78518834130949, 26.794789146994532], [79.7853131146075, 26.794616849533874], [79.7853198959896, 26.794268420917806], [79.78527896694861, 26.793875698525458], [79.78506726817214, 26.793523844453425], [79.78490200690594, 26.793281654018983], [79.78466517596277, 26.792972978982206], [79.78447607071398, 26.79270861152037], [79.78426310441463, 26.792422098006398], [79.78407695102987, 26.79200530961854], [79.78391676524502, 26.791501793621375], [79.78358455747319, 26.791104486891296], [79.7833528469271, 26.79080247203082], [79.78438261178846, 26.790862314547454], [79.78499228669368, 26.790728564350196], [79.7856030593402, 26.790537494084663], [79.78624466486221, 26.79040423987524], [79.78701234803601, 26.790358945837706], [79.78739732015269, 26.790278987591762], [79.7882394682737, 26.78969027530924], [79.78847196215068, 26.78923532251214], [79.78854252840951, 26.78889248988249], [79.7884875560057, 26.788433036802502], [79.78839898122037, 26.788059044424713], [79.78843815405497, 26.787687052383063], [79.7887648048485, 26.787319560260364], [79.78919060898811, 26.78678165732789], [79.78957945014872, 26.786501110361947], [79.79019298062315, 26.78616677224372], [79.79112368915642, 26.78595203356868], [79.79198662069982, 26.78593687562356], [79.79297731423618, 26.78592369521844], [79.79381051962851, 26.785793406719414], [79.79448571226067, 26.785574657710864], [79.79500396831439, 26.78521014593001], [79.79539668211218, 26.784729030608002], [79.79588300126092, 26.784364017308445], [79.79653012154046, 26.783944176022747], [79.79704725649668, 26.783636976014957], [79.79785295188177, 26.783276940063317], [79.79846951866185, 26.783013278980007], [79.79848342727742, 26.783034313154868], [79.79853333767457, 26.78303103962194], [79.80557456643348, 26.78256909201554], [79.80579828107521, 26.782554409173038], [79.80661439062938, 26.783079451331], [79.80771369587347, 26.78396060931359], [79.80775668205645, 26.78399506532644], [79.80884576087936, 26.784206005729786], [79.80954569221615, 26.784416468590617], [79.81009039287517, 26.784382190734963], [79.81055786716588, 26.783998462329798], [79.81106426455952, 26.78354490534697], [79.81238824115115, 26.782777902696623], [79.8143357644326, 26.781208007943135], [79.81527122056215, 26.77998635409789], [79.8159333310288, 26.77949793556424], [79.81724626912221, 26.778665784477898], [79.81698759564291, 26.77677416170003], [79.81872853605343, 26.778522350492235], [79.81923183695427, 26.77893142049117], [79.81957380222676, 26.779423965186197], [79.81991411819234, 26.780002472789526], [79.8202224882698, 26.780580499476322], [79.82049727932196, 26.781243979686494], [79.82061293202491, 26.781876329075253], [79.82083488507037, 26.783628158693947], [79.82117525762982, 26.787531441542637], [79.8211659043711, 26.788018541654402], [79.82102823485886, 26.78853232385382], [79.82092141349348, 26.789103918361846], [79.8209720901536, 26.789792573180588], [79.82112023581865, 26.790396763040437], [79.82106596050754, 26.79153201741022], [79.82098556847612, 26.79239063154489], [79.82081872797167, 26.79442301297419], [79.82065960309718, 26.79605425580945], [79.82065796726503, 26.797802583036255], [79.82080061613888, 26.798693289581117], [79.82134642621732, 26.800220769826485], [79.8216856992389, 26.800856570332435], [79.82208666406257, 26.801607959775115], [79.8226181451139, 26.802218060982256], [79.82324327463527, 26.80294424475906], [79.82521617532355, 26.805038310293778], [79.82631276136725, 26.806249352278975], [79.82649729508955, 26.806624792031137], [79.82671047159468, 26.80717264308658], [79.82683221487525, 26.807489779854446], [79.8273422324795, 26.80755498302229], [79.8278555451042, 26.807448250538677], [79.82868831391531, 26.807346457669198], [79.82967859153169, 26.80736172580368], [79.83079557202731, 26.807436258451848], [79.8315616903359, 26.80747672783123], [79.83216974827364, 26.80742876029004], [79.8328411329473, 26.807410447038027], [79.8334508168357, 26.80727653034069], [79.83441081673543, 26.807205320133008], [79.83536915654854, 26.80722006472907], [79.83645473194183, 26.80726541136551], [79.83725061682568, 26.807420949437073], [79.83826902249024, 26.807637237385617], [79.83916294411429, 26.807679622119874], [79.83980184480897, 26.807689434170758], [79.84003198509994, 26.807744821169727], [79.84035458089825, 26.807873315760137], [79.84057327755079, 26.808134612392777], [79.8405628975177, 26.80867901258518], [79.84055251748457, 26.809223397335543], [79.84038241340069, 26.809765343742185], [79.83995509739647, 26.81038932505598], [79.83969078159882, 26.81084382420881], [79.83947834979708, 26.811929674425304], [79.8393682900051, 26.812673159160664], [79.83935954490582, 26.8131315960776], [79.83950945126885, 26.813649786272517], [79.83963230486711, 26.813909609650704], [79.83978494480354, 26.81428453979675], [79.83997169466964, 26.81454535906052], [79.840316551619, 26.814894573600046], [79.84072694515994, 26.81515880917676], [79.84088175812106, 26.815419136581376], [79.8409429226121, 26.81556337614397], [79.84100586307251, 26.815879937863468], [79.84087938567039, 26.815883952833044], [79.84050149317645, 26.815886580842236], [79.83986689720861, 26.816051098264147], [79.8391343561287, 26.81625766586886], [79.83817997159781, 26.816635083157013], [79.8370062157796, 26.817052679743245], [79.83583743123816, 26.817513812701513], [79.83514640040922, 26.817786450378193], [79.83441051400317, 26.818167191213462], [79.83370014693774, 26.818482992871147], [79.8328683869347, 26.818796923304816], [79.83198639224268, 26.819197189860326], [79.8311512743371, 26.819685304401105], [79.83009556074047, 26.820278930012257], [79.82733142754324, 26.82175107684458], [79.82661979026001, 26.8221321570939], [79.82443082408469, 26.823557746885015], [79.82386609189312, 26.82387574047627], [79.82352197515557, 26.824088239680563], [79.82285719489583, 26.82455717132007], [79.82159586321889, 26.82573566496839], [79.82112783376934, 26.826076929643047], [79.82080714599269, 26.826333342424064], [79.82038977254203, 26.826566487955656], [79.81999833075865, 26.826712904999265], [79.81963034398736, 26.82690324094103], [79.81891487538944, 26.827480270289104], [79.81842004470339, 26.827951811610802], [79.81807465325642, 26.828229621903454], [79.81782974915376, 26.828334745200184], [79.81744081277172, 26.8283504946878], [79.8171251573573, 26.828345607192446], [79.81695477210073, 26.82836475475797], [79.81665960456299, 26.828556226227064], [79.81641176566431, 26.828813758069202], [79.81623635163879, 26.829094197157474], [79.81593868408962, 26.829416313950254], [79.81552043837478, 26.829692989574884], [79.81515243723042, 26.829883314898545], [79.81478275803312, 26.830160756523526], [79.81441098037133, 26.830547049397257], [79.81406221934377, 26.83099905408269]]]}}]}