{"type": "FeatureCollection", "features": [{"type": "Feature", "properties": {"premiumdata.sde.IN_Village_PCA.area": 7.3078879, "objectid": 212888, "id": "244453896290010", "name": "Gumli Dho", "subdistrict": "Dhanpur", "district": "Dohad", "state": "Gujarat", "country": "India", "censusname": "Gumli (Dho)", "villagename_locallang": null, "lgd_villagename": "Gumli (Dho)", "lgd_villagecode": 519682, "lgd_subdistrictcode": 3896, "lgd_districtcode": 445, "lgd_statecode": 24, "censuscode2001": "01330500", "censuscode2011": "519682", "censuscode2021": null, "level": "Village", "tru": "Rural", "no_hh": 136, "tot_p": 850, "tot_m": 416, "tot_f": 434, "per_tot_m": 48.94117647, "per_tot_f": 51.05882353, "p_06": 143, "m_06": 75, "f_06": 68, "per_p_06": 16.82352941, "per_m_06": 52.44755245, "per_f_06": 47.55244755, "p_sc": 0, "m_sc": 0, "f_sc": 0, "per_p_sc": 0.0, "per_m_sc": 0.0, "per_f_sc": 0.0, "p_st": 621, "m_st": 299, "f_st": 322, "per_p_st": 73.05882353000001, "per_m_st": 48.14814815, "per_f_st": 51.85185185, "p_lit": 379, "m_lit": 207, "f_lit": 172, "per_p_lit": 44.58823529, "per_m_lit": 54.61741425, "per_f_lit": 45.38258575, "p_ill": 471, "m_ill": 209, "f_ill": 262, "per_p_ill": 55.41176471, "per_m_ill": 44.37367304, "per_f_ill": 55.62632696, "tot_work_p": 483, "tot_work_m": 247, "tot_work_f": 236, "per_tot_work_p": 56.82352941000001, "per_tot_work_m": 51.13871636, "per_tot_work_f": 48.86128364, "mainwork_p": 465, "mainwork_m": 239, "mainwork_f": 226, "per_mainwork_p": 54.70588235, "per_mainwork_m": 51.39784946, "per_mainwork_f": 48.60215054, "main_cl_p": 262, "main_cl_m": 143, "main_cl_f": 119, "per_main_cl_p": 56.34408602, "per_main_cl_m": 54.58015267, "per_main_cl_f": 45.41984733, "main_al_p": 196, "main_al_m": 90, "main_al_f": 106, "per_main_al_p": 42.15053763, "per_main_al_m": 45.91836735, "per_main_al_f": 54.08163265, "main_hh_p": 0, "main_hh_m": 0, "main_hh_f": 0, "per_main_hh_p": 0.0, "per_main_hh_m": 0.0, "per_main_hh_f": 0.0, "main_ot_p": 7, "main_ot_m": 6, "main_ot_f": 1, "per_main_ot_p": 1.50537634, "per_main_ot_m": 85.71428571, "per_main_ot_f": 14.28571429, "margwork_p": 18, "margwork_m": 8, "margwork_f": 10, "per_margwork_p": 2.11764706, "per_margwork_m": 44.44444444000001, "per_margwork_f": 55.55555556, "marg_cl_p": 0, "marg_cl_m": 0, "marg_cl_f": 0, "per_marg_cl_p": 0.0, "per_marg_cl_m": 0.0, "per_marg_cl_f": 0.0, "marg_al_p": 18, "marg_al_m": 8, "marg_al_f": 10, "per_marg_al_p": 100.0, "per_marg_al_m": 44.44444444000001, "per_marg_al_f": 55.55555556, "marg_hh_p": 0, "marg_hh_m": 0, "marg_hh_f": 0, "per_marg_hh_p": 0.0, "per_marg_hh_m": 0.0, "per_marg_hh_f": 0.0, "marg_ot_p": 0, "marg_ot_m": 0, "marg_ot_f": 0, "per_marg_ot_p": 0.0, "per_marg_ot_m": 0.0, "per_marg_ot_f": 0.0, "margwork_3_6_p": 18, "margwork_3_6_m": 8, "margwork_3_6_f": 10, "per_margwork_3_6_p": 100.0, "per_margwork_3_6_m": 44.44444444000001, "per_margwork_3_6_f": 55.55555556, "marg_cl_3_6_p": 0, "marg_cl_3_6_m": 0, "marg_cl_3_6_f": 0, "per_marg_cl_3_6_p": 0.0, "per_marg_cl_3_6_m": 0.0, "per_marg_cl_3_6_f": 0.0, "marg_al_3_6_p": 18, "marg_al_3_6_m": 8, "marg_al_3_6_f": 10, "per_marg_al_3_6_p": 100.0, "per_marg_al_3_6_m": 44.44444444000001, "per_marg_al_3_6_f": 55.55555556, "marg_hh_3_6_p": 0, "marg_hh_3_6_m": 0, "marg_hh_3_6_f": 0, "per_marg_hh_3_6_p": 0.0, "per_marg_hh_3_6_m": 0.0, "per_marg_hh_3_6_f": 0.0, "marg_ot_3_6_p": 0, "marg_ot_3_6_m": 0, "marg_ot_3_6_f": 0, "per_marg_ot_3_6_p": 0.0, "per_marg_ot_3_6_m": 0.0, "per_marg_ot_3_6_f": 0.0, "margwork_0_3_p": 0, "margwork_0_3_m": 0, "margwork_0_3_f": 0, "per_margwork_0_3_p": 0.0, "per_margwork_0_3_m": 0.0, "per_margwork_0_3_f": 0.0, "marg_cl_0_3_p": 0, "marg_cl_0_3_m": 0, "marg_cl_0_3_f": 0, "per_marg_cl_0_3_p": 0.0, "per_marg_cl_0_3_m": 0.0, "per_marg_cl_0_3_f": 0.0, "marg_al_0_3_p": 0, "marg_al_0_3_m": 0, "marg_al_0_3_f": 0, "per_marg_al_0_3_p": 0.0, "per_marg_al_0_3_m": 0.0, "per_marg_al_0_3_f": 0.0, "marg_hh_0_3_p": 0, "marg_hh_0_3_m": 0, "marg_hh_0_3_f": 0, "per_marg_hh_0_3_p": 0.0, "per_marg_hh_0_3_m": 0.0, "per_marg_hh_0_3_f": 0.0, "marg_ot_0_3_p": 0, "marg_ot_0_3_m": 0, "marg_ot_0_3_f": 0, "per_marg_ot_0_3_p": 0.0, "per_marg_ot_0_3_m": 0.0, "per_marg_ot_0_3_f": 0.0, "non_work_p": 367, "non_work_m": 169, "non_work_f": 198, "per_non_work_p": 43.17647059, "per_non_work_m": 46.04904632, "per_non_work_f": 53.95095368, "per_hc_tot_tot": 100, "per_hc_tot_god": 61.9, "per_hc_tot_liv": 35.8, "per_hc_tot_dil": 2.2, "per_hc_res_tot": 59.7, "per_hc_res_god": 48.5, "per_hc_res_liv": 10.4, "per_hc_res_dil": 0.7, "per_hc_oth_tot": 40.3, "per_hc_oth_god": 13.4, "per_hc_oth_liv": 25.4, "per_hc_oth_dil": 1.5, "per_mt_grsbam": 0.0, "per_mt_plastic": 0.0, "per_mt_h_tiles": 59.7, "per_mt_m_tiles": 36.6, "per_mt_b_brick": 0.0, "per_mt_stone": 0.0, "per_mt_asbstos": 1.5, "per_mt_concrte": 2.2, "per_mt_oth": 0.0, "per_mw_grsbam": 1.5, "per_mw_plastic": 0.0, "per_mw_mud": 17.9, "per_mw_wood": 11.2, "per_mw_no_mrtr": 0.0, "per_mw_st_mrtr": 0.0, "per_mw_asbstos": 0.0, "per_mw_b_brick": 69.4, "per_mw_concrte": 0.0, "per_mw_oth": 0.0, "per_mf_mud": 93.3, "per_mf_wood": 0.0, "per_mf_b_brick": 0.0, "per_mf_stone": 0.0, "per_mf_cement": 6.7, "per_mf_fl_tile": 0.0, "per_mf_oth": 0.0, "per_dw_n_exrm": 0.7, "per_dw_1_room": 59.7, "per_dw_2_room": 36.6, "per_dw_3_room": 3.0, "per_dw_4_room": 0.0, "per_dw_5_room": 0.0, "per_dw_6_room": 0.0, "per_hhsize_1": 2.2, "per_hhsize_2": 7.5, "per_hhsize_3": 6.7, "per_hhsize_4": 14.2, "per_hhsize_5": 14.2, "per_hhsize_6_8": 38.1, "per_hhsize_9p": 17.2, "per_ow_owned": 100.0, "per_ow_rented": 0.0, "per_ow_oth": 0.0, "per_mc_none": 6.0, "per_mcouple_1": 52.2, "per_mcouple_2": 35.8, "per_mcouple_3": 5.2, "per_mcouple_4": 0.7, "per_mcouple_5p": 0.0, "per_dw_t_ts": 0.0, "per_dw_t_unts": 0.0, "per_dw_c_well": 0.0, "per_dw_unc_wel": 59.0, "per_dw_hpump": 40.3, "per_dw_tw_bore": 0.0, "per_dw_spring": 0.7, "per_dw_rivcan": 0.0, "per_dw_tank": 0.0, "per_dw_oth": 0.0, "per_loc_dw_wp": 0.0, "per_loc_dw_np": 32.8, "per_loc_dw_aw": 67.2, "per_light_elec": 14.9, "per_light_kero": 85.1, "per_light_solr": 0.0, "per_light_oil": 0.0, "per_light_oth": 0.0, "per_light_no": 0.0, "per_hh_latrine": 5.2, "per_fl_sewer": 0.0, "per_fl_septict": 5.2, "per_fl_othsys": 0.0, "per_pl_wslab": 0.0, "per_pl_without": 0.0, "per_ns_open": 0.0, "per_sl_ns_hum": 0.0, "per_sl_ns_anml": 0.0, "per_hh_no_lat": 94.8, "per_as_pub": 0.0, "per_as_open": 94.8, "per_hh_bathrm": 6.0, "per_hh_en_wrf": 6.0, "per_hh_no_btrm": 88.1, "per_wwoc_drain": 0.0, "per_wwoc_open": 0.0, "per_wwoc_nodrn": 100.0, "per_cook_fire": 98.5, "per_cook_resdu": 0.0, "per_cook_cwdng": 0.0, "per_cook_coal": 0.0, "per_cook_kero": 0.0, "per_cook_lpng": 0.7, "per_cook_elec": 0.7, "per_cook_biogs": 0.0, "per_cook_oth": 0.0, "per_cook_no": 0.0, "per_kf_inside": 100.0, "per_kf_in_has": 100.0, "per_kf_in_does": 0.0, "per_kf_outside": 0.0, "per_kf_out_has": 0.0, "per_kf_out_dos": 0.0, "per_kf_no_cook": 0.0, "per_hh_banking": 37.3, "per_hh_radio": 0.0, "per_hh_tv": 3.0, "per_hh_cmp_int": 0.0, "per_hh_cmp_wnt": 0.7, "per_hh_ph_ll": 0.0, "per_hh_ph_mob": 35.1, "per_hh_ph_bth": 0.7, "per_hh_bcycl": 0.7, "per_hh_2wheel": 4.5, "per_hh_4wheel": 0.0, "per_hh_tvcomp": 0.0, "per_hh_no_ast": 62.7, "per_hs_perma": 69.4, "per_hs_sperma": 30.6, "per_hs_temp": 0.0, "per_hs_servc": 0.0, "per_hs_nservc": 0.0, "per_hs_unclss": 0.0, "avghhsz_cy": 6.25, "st_areashape": 8610715.74864919, "st_lengthshape": 16168.129882025563}, "geometry": {"type": "Polygon", "coordinates": [[[74.08989363341895, 22.566532789578332], [74.08911818520781, 22.56710728391998], [74.08838753418328, 22.567730028699152], [74.08770650250177, 22.568398643357177], [74.08707608639494, 22.56910909161249], [74.08650142512452, 22.569859158012232], [74.08598454798478, 22.57064356290409], [74.08552791635957, 22.57145998640372], [74.08434267737705, 22.572825833775866], [74.08354222276337, 22.5737881354257], [74.08276159666292, 22.574762909971408], [74.08199810502825, 22.575750428387877], [74.08125435297359, 22.576750568468153], [74.0805291241801, 22.577761544092816], [74.0798223575623, 22.578784639029614], [74.0791353062701, 22.57981914548267], [74.0784678355561, 22.58086445603778], [74.07782012059182, 22.58192027516695], [74.07719332020405, 22.58298619371598], [74.07627474162204, 22.584667262604267], [74.07581299768455, 22.5859529808476], [74.07427543495604, 22.58657720805999], [74.07340599062684, 22.586968353671537], [74.07247646876807, 22.587214002995008], [74.07151574931778, 22.58730667801635], [74.07055309399806, 22.58724299256055], [74.06961772500513, 22.587025824470356], [74.06873784943883, 22.58666073424211], [74.06806270172244, 22.586252535781007], [74.06745723452599, 22.58579949604671], [74.06689572279473, 22.5852987987078], [74.06638461912729, 22.58475515189425], [74.06592622141422, 22.584171664627636], [74.06552421634144, 22.583553087393536], [74.06495382476356, 22.582367125106828], [74.06472557273133, 22.58167675388071], [74.06456284381592, 22.580970374158483], [74.06446800867138, 22.580253063604086], [74.06443997225138, 22.579531043804963], [74.06448007035071, 22.578808823639903], [74.06458841346218, 22.57809297413391], [74.06744643408133, 22.56496063857662], [74.06897780472258, 22.565656536156833], [74.06983741339774, 22.565929409957448], [74.07071999918124, 22.56613130466658], [74.07161934662962, 22.566261145516172], [74.0725257422597, 22.5663180251966], [74.07343554969125, 22.566301423678723], [74.07434008491042, 22.566211001655187], [74.07523351605435, 22.566048041446958], [74.0761071770755, 22.565813638618717], [74.07695634103882, 22.56550979780793], [74.07777369386135, 22.565138273870165], [74.0785543873354, 22.56470197215922], [74.07929005095924, 22.5642044168155], [74.07977766458032, 22.563594573082923], [74.08029984357685, 22.56300933130277], [74.08085414453137, 22.56245063212892], [74.0814382704516, 22.5619189163822], [74.08205214048918, 22.561415990340194], [74.08269337590532, 22.560944102449916], [74.08336089243338, 22.56050388931146], [74.08405214694282, 22.560095854779657], [74.08476475171163, 22.559722472936755], [74.08549749401413, 22.55938362128665], [74.0862480939262, 22.559081171616725], [74.08701523182265, 22.558815601176033], [74.08788514956402, 22.55863542004398], [74.08881626952567, 22.558424705006455], [74.08970865682724, 22.558096134547295], [74.090541541521, 22.55765599693667], [74.09130302182778, 22.557112208733063], [74.0919737390532, 22.556475871192426], [74.09254417105525, 22.555759825244955], [74.0930002340469, 22.554977188191913], [74.09326944476452, 22.554161752228445], [74.09349286026723, 22.553433391091865], [74.0937849672448, 22.55272635311172], [74.0941420682315, 22.55204510032583], [74.09456179167493, 22.551395350901608], [74.09504076440129, 22.550781581138644], [74.09557517126551, 22.55020907462366], [74.09622704003962, 22.549603695512303], [74.09679152429618, 22.548893973928422], [74.09721454096346, 22.54810407668749], [74.09962426093333, 22.54773796827119], [74.10086272689306, 22.54774222768596], [74.10210081017044, 22.54772615407757], [74.10333848112114, 22.54769035059348], [74.1045757693895, 22.547634137735795], [74.105811425419, 22.5475582231706], [74.10704544831133, 22.547462605206057], [74.10827663881555, 22.547346786840425], [74.10950734063627, 22.547211084120047], [74.1107340754967, 22.54705513525785], [74.11195787556107, 22.54687943382903], [74.11146814371259, 22.548021377530336], [74.11110917692504, 22.54896297767886], [74.1107857915076, 22.549915698471363], [74.11049909687961, 22.550878375706922], [74.11024786773905, 22.551849377307068], [74.11003321081033, 22.55282761214826], [74.10985645739673, 22.553812377395005], [74.10971630494105, 22.554801962259717], [74.1096126896629, 22.55579598751107], [74.10880923377785, 22.556066372947146], [74.10802116064369, 22.5563759305737], [74.10725212460707, 22.556722914660376], [74.10650453135628, 22.557106211612204], [74.10577836561993, 22.557526198589724], [74.10507715508221, 22.557980295242785], [74.10440224272439, 22.558467572930123], [74.10375594799659, 22.558987064838455], [74.10313948452279, 22.559537083243242], [74.10255527056763, 22.56011628635812], [74.10200321719798, 22.560723012185957], [74.10133658012059, 22.56143716252552], [74.1007512522545, 22.561964978695837], [74.10012867484686, 22.5624535214861], [74.09947104248185, 22.5629009861972], [74.09878228349228, 22.563304958395086], [74.09806444603694, 22.56366332973921], [74.09732143778734, 22.563974136208945], [74.0965566391039, 22.56423637686006], [74.09577385075859, 22.56444869068156], [74.09497776285546, 22.564609824458692], [74.09417083588016, 22.56471934534771], [74.09335922958051, 22.564775832459446], [74.0924502755485, 22.565128468662767], [74.09156332125777, 22.56554099437193], [74.0907102361482, 22.566009797238795], [74.08989363341895, 22.566532789578332]]]}}]}