{"type": "FeatureCollection", "features": [{"type": "Feature", "properties": {"premiumdata.sde.IN_Village_PCA.area": 0.67770761, "objectid": 584459, "id": "101971215298048", "name": "Karmaini", "subdistrict": "Katiya", "district": "Gopalganj", "state": "Bihar", "country": "India", "censusname": "Karmaini", "villagename_locallang": null, "lgd_villagename": "Karmaini", "lgd_villagecode": 229779, "lgd_subdistrictcode": 1215, "lgd_districtcode": 197, "lgd_statecode": 10, "censuscode2001": "01383900", "censuscode2011": "229779", "censuscode2021": null, "level": "Village", "tru": "Rural", "no_hh": 91, "tot_p": 478, "tot_m": 213, "tot_f": 265, "per_tot_m": 44.56066946, "per_tot_f": 55.43933054, "p_06": 63, "m_06": 27, "f_06": 36, "per_p_06": 13.17991632, "per_m_06": 42.85714286, "per_f_06": 57.14285714, "p_sc": 7, "m_sc": 5, "f_sc": 2, "per_p_sc": 1.46443515, "per_m_sc": 71.42857143, "per_f_sc": 28.57142857, "p_st": 0, "m_st": 0, "f_st": 0, "per_p_st": 0.0, "per_m_st": 0.0, "per_f_st": 0.0, "p_lit": 300, "m_lit": 153, "f_lit": 147, "per_p_lit": 62.76150628, "per_m_lit": 51.0, "per_f_lit": 49.0, "p_ill": 178, "m_ill": 60, "f_ill": 118, "per_p_ill": 37.23849372, "per_m_ill": 33.70786517, "per_f_ill": 66.29213483000001, "tot_work_p": 78, "tot_work_m": 66, "tot_work_f": 12, "per_tot_work_p": 16.31799163, "per_tot_work_m": 84.61538462, "per_tot_work_f": 15.38461538, "mainwork_p": 28, "mainwork_m": 20, "mainwork_f": 8, "per_mainwork_p": 5.85774059, "per_mainwork_m": 71.42857143, "per_mainwork_f": 28.57142857, "main_cl_p": 5, "main_cl_m": 1, "main_cl_f": 4, "per_main_cl_p": 17.85714286, "per_main_cl_m": 20.0, "per_main_cl_f": 80.0, "main_al_p": 1, "main_al_m": 0, "main_al_f": 1, "per_main_al_p": 3.57142857, "per_main_al_m": 0.0, "per_main_al_f": 100.0, "main_hh_p": 14, "main_hh_m": 12, "main_hh_f": 2, "per_main_hh_p": 50.0, "per_main_hh_m": 85.71428571, "per_main_hh_f": 14.28571429, "main_ot_p": 8, "main_ot_m": 7, "main_ot_f": 1, "per_main_ot_p": 28.57142857, "per_main_ot_m": 87.5, "per_main_ot_f": 12.5, "margwork_p": 50, "margwork_m": 46, "margwork_f": 4, "per_margwork_p": 10.46025105, "per_margwork_m": 92.0, "per_margwork_f": 8.0, "marg_cl_p": 3, "marg_cl_m": 2, "marg_cl_f": 1, "per_marg_cl_p": 6.0, "per_marg_cl_m": 66.66666667, "per_marg_cl_f": 33.33333333, "marg_al_p": 22, "marg_al_m": 20, "marg_al_f": 2, "per_marg_al_p": 44.0, "per_marg_al_m": 90.90909091, "per_marg_al_f": 9.09090909, "marg_hh_p": 9, "marg_hh_m": 8, "marg_hh_f": 1, "per_marg_hh_p": 18.0, "per_marg_hh_m": 88.88888889, "per_marg_hh_f": 11.11111111, "marg_ot_p": 16, "marg_ot_m": 16, "marg_ot_f": 0, "per_marg_ot_p": 32.0, "per_marg_ot_m": 100.0, "per_marg_ot_f": 0.0, "margwork_3_6_p": 37, "margwork_3_6_m": 35, "margwork_3_6_f": 2, "per_margwork_3_6_p": 74.0, "per_margwork_3_6_m": 94.59459459, "per_margwork_3_6_f": 5.40540541, "marg_cl_3_6_p": 3, "marg_cl_3_6_m": 2, "marg_cl_3_6_f": 1, "per_marg_cl_3_6_p": 6.0, "per_marg_cl_3_6_m": 66.66666667, "per_marg_cl_3_6_f": 33.33333333, "marg_al_3_6_p": 13, "marg_al_3_6_m": 13, "marg_al_3_6_f": 0, "per_marg_al_3_6_p": 26.0, "per_marg_al_3_6_m": 100.0, "per_marg_al_3_6_f": 0.0, "marg_hh_3_6_p": 9, "marg_hh_3_6_m": 8, "marg_hh_3_6_f": 1, "per_marg_hh_3_6_p": 18.0, "per_marg_hh_3_6_m": 88.88888889, "per_marg_hh_3_6_f": 11.11111111, "marg_ot_3_6_p": 12, "marg_ot_3_6_m": 12, "marg_ot_3_6_f": 0, "per_marg_ot_3_6_p": 24.0, "per_marg_ot_3_6_m": 100.0, "per_marg_ot_3_6_f": 0.0, "margwork_0_3_p": 13, "margwork_0_3_m": 11, "margwork_0_3_f": 2, "per_margwork_0_3_p": 26.0, "per_margwork_0_3_m": 84.61538462, "per_margwork_0_3_f": 15.38461538, "marg_cl_0_3_p": 0, "marg_cl_0_3_m": 0, "marg_cl_0_3_f": 0, "per_marg_cl_0_3_p": 0.0, "per_marg_cl_0_3_m": 0.0, "per_marg_cl_0_3_f": 0.0, "marg_al_0_3_p": 9, "marg_al_0_3_m": 7, "marg_al_0_3_f": 2, "per_marg_al_0_3_p": 18.0, "per_marg_al_0_3_m": 77.77777778, "per_marg_al_0_3_f": 22.22222222, "marg_hh_0_3_p": 0, "marg_hh_0_3_m": 0, "marg_hh_0_3_f": 0, "per_marg_hh_0_3_p": 0.0, "per_marg_hh_0_3_m": 0.0, "per_marg_hh_0_3_f": 0.0, "marg_ot_0_3_p": 4, "marg_ot_0_3_m": 4, "marg_ot_0_3_f": 0, "per_marg_ot_0_3_p": 8.0, "per_marg_ot_0_3_m": 100.0, "per_marg_ot_0_3_f": 0.0, "non_work_p": 400, "non_work_m": 147, "non_work_f": 253, "per_non_work_p": 83.68200837, "per_non_work_m": 36.75, "per_non_work_f": 63.25, "per_hc_tot_tot": 100, "per_hc_tot_god": 5.3, "per_hc_tot_liv": 85.1, "per_hc_tot_dil": 9.6, "per_hc_res_tot": 95.7, "per_hc_res_god": 4.3, "per_hc_res_liv": 83.0, "per_hc_res_dil": 8.5, "per_hc_oth_tot": 4.3, "per_hc_oth_god": 1.1, "per_hc_oth_liv": 2.1, "per_hc_oth_dil": 1.1, "per_mt_grsbam": 11.7, "per_mt_plastic": 0.0, "per_mt_h_tiles": 4.3, "per_mt_m_tiles": 2.1, "per_mt_b_brick": 22.3, "per_mt_stone": 2.1, "per_mt_asbstos": 11.7, "per_mt_concrte": 45.7, "per_mt_oth": 0.0, "per_mw_grsbam": 3.2, "per_mw_plastic": 0.0, "per_mw_mud": 4.3, "per_mw_wood": 0.0, "per_mw_no_mrtr": 3.2, "per_mw_st_mrtr": 0.0, "per_mw_asbstos": 0.0, "per_mw_b_brick": 83.0, "per_mw_concrte": 3.2, "per_mw_oth": 3.2, "per_mf_mud": 86.2, "per_mf_wood": 0.0, "per_mf_b_brick": 3.2, "per_mf_stone": 0.0, "per_mf_cement": 10.6, "per_mf_fl_tile": 0.0, "per_mf_oth": 0.0, "per_dw_n_exrm": 1.1, "per_dw_1_room": 23.4, "per_dw_2_room": 44.7, "per_dw_3_room": 16.0, "per_dw_4_room": 7.4, "per_dw_5_room": 3.2, "per_dw_6_room": 4.3, "per_hhsize_1": 1.1, "per_hhsize_2": 3.2, "per_hhsize_3": 3.2, "per_hhsize_4": 8.5, "per_hhsize_5": 14.9, "per_hhsize_6_8": 48.9, "per_hhsize_9p": 20.2, "per_ow_owned": 98.9, "per_ow_rented": 1.1, "per_ow_oth": 0.0, "per_mc_none": 5.3, "per_mcouple_1": 56.4, "per_mcouple_2": 22.3, "per_mcouple_3": 9.6, "per_mcouple_4": 4.3, "per_mcouple_5p": 2.1, "per_dw_t_ts": 0.0, "per_dw_t_unts": 0.0, "per_dw_c_well": 0.0, "per_dw_unc_wel": 0.0, "per_dw_hpump": 100.0, "per_dw_tw_bore": 0.0, "per_dw_spring": 0.0, "per_dw_rivcan": 0.0, "per_dw_tank": 0.0, "per_dw_oth": 0.0, "per_loc_dw_wp": 86.2, "per_loc_dw_np": 13.8, "per_loc_dw_aw": 0.0, "per_light_elec": 1.1, "per_light_kero": 98.9, "per_light_solr": 0.0, "per_light_oil": 0.0, "per_light_oth": 0.0, "per_light_no": 0.0, "per_hh_latrine": 8.5, "per_fl_sewer": 0.0, "per_fl_septict": 7.4, "per_fl_othsys": 1.1, "per_pl_wslab": 0.0, "per_pl_without": 0.0, "per_ns_open": 0.0, "per_sl_ns_hum": 0.0, "per_sl_ns_anml": 0.0, "per_hh_no_lat": 91.5, "per_as_pub": 1.1, "per_as_open": 90.4, "per_hh_bathrm": 1.1, "per_hh_en_wrf": 64.9, "per_hh_no_btrm": 34.0, "per_wwoc_drain": 2.1, "per_wwoc_open": 12.8, "per_wwoc_nodrn": 85.1, "per_cook_fire": 10.6, "per_cook_resdu": 84.0, "per_cook_cwdng": 2.1, "per_cook_coal": 0.0, "per_cook_kero": 0.0, "per_cook_lpng": 3.2, "per_cook_elec": 0.0, "per_cook_biogs": 0.0, "per_cook_oth": 0.0, "per_cook_no": 0.0, "per_kf_inside": 97.9, "per_kf_in_has": 7.4, "per_kf_in_does": 90.4, "per_kf_outside": 2.1, "per_kf_out_has": 0.0, "per_kf_out_dos": 2.1, "per_kf_no_cook": 0.0, "per_hh_banking": 75.5, "per_hh_radio": 33.0, "per_hh_tv": 6.4, "per_hh_cmp_int": 1.1, "per_hh_cmp_wnt": 0.0, "per_hh_ph_ll": 1.1, "per_hh_ph_mob": 91.5, "per_hh_ph_bth": 0.0, "per_hh_bcycl": 81.9, "per_hh_2wheel": 12.8, "per_hh_4wheel": 3.2, "per_hh_tvcomp": 0.0, "per_hh_no_ast": 1.1, "per_hs_perma": 80.9, "per_hs_sperma": 12.8, "per_hs_temp": 3.2, "per_hs_servc": 1.1, "per_hs_nservc": 2.1, "per_hs_unclss": 3.2, "avghhsz_cy": 5.25274725, "st_areashape": 850223.13874402, "st_lengthshape": 5260.890819736029}, "geometry": {"type": "Polygon", "coordinates": [[[84.08337577183367, 26.5465506456863], [84.08322983422755, 26.54439070171673], [84.08303642155698, 26.54312490904534], [84.08368013003506, 26.5429707772808], [84.08462999873504, 26.542842974749053], [84.08533675996293, 26.542274957309427], [84.08585060618691, 26.541643337675925], [84.08634673224361, 26.540462683932127], [84.08699153037814, 26.540342825105252], [84.08820166167715, 26.54000213613533], [84.08906740943895, 26.539636020899806], [84.08837166694633, 26.538177360385824], [84.08815006424386, 26.537221410212098], [84.08981535662596, 26.536800104141303], [84.09143433456698, 26.537307411190625], [84.09196153424769, 26.53708756568651], [84.09340465978532, 26.53687809761761], [84.09507447338827, 26.53659406323026], [84.09563706669113, 26.537472273945912], [84.09611344687957, 26.538043721910494], [84.09624555761684, 26.538589857270534], [84.09679151861222, 26.538953317335782], [84.0965391216618, 26.53940647087389], [84.09589756644543, 26.539629321625334], [84.09395755936795, 26.53981739219471], [84.09285857482243, 26.540052183625868], [84.09084342906132, 26.540276587384522], [84.08961623336515, 26.541270272940864], [84.08928600997176, 26.542858840879646], [84.08944468928186, 26.544228573188104], [84.08975695804769, 26.545628606275482], [84.0897791167908, 26.546314870278355], [84.08931004170225, 26.54715140163909], [84.08874432316048, 26.54854003704044], [84.08741678834205, 26.547578597046606], [84.08632346228447, 26.547110833337438], [84.08489738317766, 26.54668559136174], [84.08337577183367, 26.5465506456863]]]}}]}