{"type": "FeatureCollection", "features": [{"type": "Feature", "properties": {"premiumdata.sde.IN_Village_PCA.area": 5.55174528, "objectid": 616715, "id": "182932103243082", "name": "Mahamadpur Pt I", "subdistrict": "Nilambazar", "district": "Karimganj", "state": "Assam", "country": "India", "censusname": "Mahamadpur Pt I", "villagename_locallang": null, "lgd_villagename": "Mahamadpur Pt I", "lgd_villagecode": 300357, "lgd_subdistrictcode": 2103, "lgd_districtcode": 293, "lgd_statecode": 18, "censuscode2001": "02543000", "censuscode2011": "300357", "censuscode2021": null, "level": "Village", "tru": "Rural", "no_hh": 910, "tot_p": 5146, "tot_m": 2603, "tot_f": 2543, "per_tot_m": 50.58297707000001, "per_tot_f": 49.41702293, "p_06": 1211, "m_06": 635, "f_06": 576, "per_p_06": 23.53284104, "per_m_06": 52.4360033, "per_f_06": 47.5639967, "p_sc": 773, "m_sc": 405, "f_sc": 368, "per_p_sc": 15.02137583, "per_m_sc": 52.39327296, "per_f_sc": 47.60672704, "p_st": 7, "m_st": 6, "f_st": 1, "per_p_st": 0.13602798, "per_m_st": 85.71428571, "per_f_st": 14.28571429, "p_lit": 2280, "m_lit": 1297, "f_lit": 983, "per_p_lit": 44.30625729, "per_m_lit": 56.88596491, "per_f_lit": 43.11403509, "p_ill": 2866, "m_ill": 1306, "f_ill": 1560, "per_p_ill": 55.69374271, "per_m_ill": 45.56873692, "per_f_ill": 54.43126308, "tot_work_p": 1435, "tot_work_m": 1221, "tot_work_f": 214, "per_tot_work_p": 27.88573649, "per_tot_work_m": 85.08710801000001, "per_tot_work_f": 14.91289199, "mainwork_p": 1130, "mainwork_m": 1082, "mainwork_f": 48, "per_mainwork_p": 21.95880295, "per_mainwork_m": 95.75221239, "per_mainwork_f": 4.24778761, "main_cl_p": 824, "main_cl_m": 801, "main_cl_f": 23, "per_main_cl_p": 72.92035398, "per_main_cl_m": 97.20873786, "per_main_cl_f": 2.79126214, "main_al_p": 215, "main_al_m": 206, "main_al_f": 9, "per_main_al_p": 19.02654867, "per_main_al_m": 95.81395349, "per_main_al_f": 4.18604651, "main_hh_p": 8, "main_hh_m": 4, "main_hh_f": 4, "per_main_hh_p": 0.7079646, "per_main_hh_m": 50.0, "per_main_hh_f": 50.0, "main_ot_p": 83, "main_ot_m": 71, "main_ot_f": 12, "per_main_ot_p": 7.34513274, "per_main_ot_m": 85.54216867000001, "per_main_ot_f": 14.45783133, "margwork_p": 305, "margwork_m": 139, "margwork_f": 166, "per_margwork_p": 5.92693354, "per_margwork_m": 45.57377049, "per_margwork_f": 54.42622951, "marg_cl_p": 12, "marg_cl_m": 10, "marg_cl_f": 2, "per_marg_cl_p": 3.93442623, "per_marg_cl_m": 83.33333332999999, "per_marg_cl_f": 16.66666667, "marg_al_p": 16, "marg_al_m": 15, "marg_al_f": 1, "per_marg_al_p": 5.24590164, "per_marg_al_m": 93.75, "per_marg_al_f": 6.25, "marg_hh_p": 9, "marg_hh_m": 0, "marg_hh_f": 9, "per_marg_hh_p": 2.95081967, "per_marg_hh_m": 0.0, "per_marg_hh_f": 100.0, "marg_ot_p": 268, "marg_ot_m": 114, "marg_ot_f": 154, "per_marg_ot_p": 87.86885246, "per_marg_ot_m": 42.53731343, "per_marg_ot_f": 57.46268657, "margwork_3_6_p": 145, "margwork_3_6_m": 130, "margwork_3_6_f": 15, "per_margwork_3_6_p": 47.54098361, "per_margwork_3_6_m": 89.65517241, "per_margwork_3_6_f": 10.34482759, "marg_cl_3_6_p": 12, "marg_cl_3_6_m": 10, "marg_cl_3_6_f": 2, "per_marg_cl_3_6_p": 3.93442623, "per_marg_cl_3_6_m": 83.33333332999999, "per_marg_cl_3_6_f": 16.66666667, "marg_al_3_6_p": 16, "marg_al_3_6_m": 15, "marg_al_3_6_f": 1, "per_marg_al_3_6_p": 5.24590164, "per_marg_al_3_6_m": 93.75, "per_marg_al_3_6_f": 6.25, "marg_hh_3_6_p": 0, "marg_hh_3_6_m": 0, "marg_hh_3_6_f": 0, "per_marg_hh_3_6_p": 0.0, "per_marg_hh_3_6_m": 0.0, "per_marg_hh_3_6_f": 0.0, "marg_ot_3_6_p": 117, "marg_ot_3_6_m": 105, "marg_ot_3_6_f": 12, "per_marg_ot_3_6_p": 38.36065574, "per_marg_ot_3_6_m": 89.74358974, "per_marg_ot_3_6_f": 10.25641026, "margwork_0_3_p": 160, "margwork_0_3_m": 9, "margwork_0_3_f": 151, "per_margwork_0_3_p": 52.45901639, "per_margwork_0_3_m": 5.625, "per_margwork_0_3_f": 94.375, "marg_cl_0_3_p": 0, "marg_cl_0_3_m": 0, "marg_cl_0_3_f": 0, "per_marg_cl_0_3_p": 0.0, "per_marg_cl_0_3_m": 0.0, "per_marg_cl_0_3_f": 0.0, "marg_al_0_3_p": 0, "marg_al_0_3_m": 0, "marg_al_0_3_f": 0, "per_marg_al_0_3_p": 0.0, "per_marg_al_0_3_m": 0.0, "per_marg_al_0_3_f": 0.0, "marg_hh_0_3_p": 9, "marg_hh_0_3_m": 0, "marg_hh_0_3_f": 9, "per_marg_hh_0_3_p": 2.95081967, "per_marg_hh_0_3_m": 0.0, "per_marg_hh_0_3_f": 100.0, "marg_ot_0_3_p": 151, "marg_ot_0_3_m": 9, "marg_ot_0_3_f": 142, "per_marg_ot_0_3_p": 49.50819672, "per_marg_ot_0_3_m": 5.9602649, "per_marg_ot_0_3_f": 94.0397351, "non_work_p": 3711, "non_work_m": 1382, "non_work_f": 2329, "per_non_work_p": 72.11426351, "per_non_work_m": 37.24063595, "per_non_work_f": 62.75936405, "per_hc_tot_tot": 100, "per_hc_tot_god": 18.6, "per_hc_tot_liv": 62.7, "per_hc_tot_dil": 18.7, "per_hc_res_tot": 98.9, "per_hc_res_god": 18.6, "per_hc_res_liv": 61.7, "per_hc_res_dil": 18.6, "per_hc_oth_tot": 1.1, "per_hc_oth_god": 0.0, "per_hc_oth_liv": 1.0, "per_hc_oth_dil": 0.1, "per_mt_grsbam": 75.3, "per_mt_plastic": 0.2, "per_mt_h_tiles": 0.2, "per_mt_m_tiles": 10.3, "per_mt_b_brick": 0.0, "per_mt_stone": 0.2, "per_mt_asbstos": 13.5, "per_mt_concrte": 0.0, "per_mt_oth": 0.2, "per_mw_grsbam": 59.8, "per_mw_plastic": 0.1, "per_mw_mud": 33.5, "per_mw_wood": 0.6, "per_mw_no_mrtr": 0.9, "per_mw_st_mrtr": 0.0, "per_mw_asbstos": 0.1, "per_mw_b_brick": 4.8, "per_mw_concrte": 0.0, "per_mw_oth": 0.2, "per_mf_mud": 98.8, "per_mf_wood": 0.3, "per_mf_b_brick": 0.0, "per_mf_stone": 0.1, "per_mf_cement": 0.8, "per_mf_fl_tile": 0.0, "per_mf_oth": 0.0, "per_dw_n_exrm": 17.1, "per_dw_1_room": 80.4, "per_dw_2_room": 1.8, "per_dw_3_room": 0.4, "per_dw_4_room": 0.1, "per_dw_5_room": 0.0, "per_dw_6_room": 0.1, "per_hhsize_1": 2.3, "per_hhsize_2": 6.9, "per_hhsize_3": 12.6, "per_hhsize_4": 12.7, "per_hhsize_5": 15.6, "per_hhsize_6_8": 39.0, "per_hhsize_9p": 10.9, "per_ow_owned": 99.4, "per_ow_rented": 0.4, "per_ow_oth": 0.1, "per_mc_none": 6.9, "per_mcouple_1": 78.8, "per_mcouple_2": 12.7, "per_mcouple_3": 1.3, "per_mcouple_4": 0.3, "per_mcouple_5p": 0.0, "per_dw_t_ts": 0.6, "per_dw_t_unts": 7.7, "per_dw_c_well": 6.9, "per_dw_unc_wel": 34.3, "per_dw_hpump": 8.1, "per_dw_tw_bore": 4.3, "per_dw_spring": 2.8, "per_dw_rivcan": 14.2, "per_dw_tank": 15.1, "per_dw_oth": 6.0, "per_loc_dw_wp": 7.9, "per_loc_dw_np": 30.1, "per_loc_dw_aw": 62.0, "per_light_elec": 1.7, "per_light_kero": 98.0, "per_light_solr": 0.3, "per_light_oil": 0.0, "per_light_oth": 0.0, "per_light_no": 0.0, "per_hh_latrine": 79.2, "per_fl_sewer": 0.0, "per_fl_septict": 1.3, "per_fl_othsys": 1.3, "per_pl_wslab": 15.0, "per_pl_without": 61.2, "per_ns_open": 0.3, "per_sl_ns_hum": 0.0, "per_sl_ns_anml": 0.0, "per_hh_no_lat": 20.8, "per_as_pub": 0.4, "per_as_open": 20.4, "per_hh_bathrm": 3.0, "per_hh_en_wrf": 10.7, "per_hh_no_btrm": 86.3, "per_wwoc_drain": 0.1, "per_wwoc_open": 23.7, "per_wwoc_nodrn": 76.2, "per_cook_fire": 99.1, "per_cook_resdu": 0.6, "per_cook_cwdng": 0.1, "per_cook_coal": 0.0, "per_cook_kero": 0.0, "per_cook_lpng": 0.2, "per_cook_elec": 0.0, "per_cook_biogs": 0.0, "per_cook_oth": 0.0, "per_cook_no": 0.0, "per_kf_inside": 97.9, "per_kf_in_has": 76.2, "per_kf_in_does": 21.7, "per_kf_outside": 2.1, "per_kf_out_has": 0.1, "per_kf_out_dos": 2.0, "per_kf_no_cook": 0.0, "per_hh_banking": 5.9, "per_hh_radio": 6.3, "per_hh_tv": 0.6, "per_hh_cmp_int": 1.2, "per_hh_cmp_wnt": 3.9, "per_hh_ph_ll": 0.7, "per_hh_ph_mob": 10.3, "per_hh_ph_bth": 2.2, "per_hh_bcycl": 5.6, "per_hh_2wheel": 0.8, "per_hh_4wheel": 0.3, "per_hh_tvcomp": 0.0, "per_hh_no_ast": 74.3, "per_hs_perma": 5.8, "per_hs_sperma": 18.4, "per_hs_temp": 75.5, "per_hs_servc": 23.0, "per_hs_nservc": 52.5, "per_hs_unclss": 0.3, "avghhsz_cy": 5.65494505, "st_areashape": 6759886.36463942, "st_lengthshape": 10650.470038606092}, "geometry": {"type": "Polygon", "coordinates": [[[92.46299301722951, 24.733709908779783], [92.46384866343597, 24.732932754456872], [92.46541735009411, 24.73137843124374], [92.46598778119787, 24.730601262353726], [92.46826950651108, 24.730083147334906], [92.47097905537672, 24.729565030158106], [92.47425903624438, 24.728528788514904], [92.47597032955558, 24.728010664864456], [92.47768162376508, 24.727103943079968], [92.47982074152695, 24.726197214687353], [92.48110421218409, 24.725420013429734], [92.48195985928884, 24.7247723417346], [92.48355307175088, 24.72722577809467], [92.4852643659604, 24.729730039438156], [92.48745101897384, 24.732061547870767], [92.4893524568846, 24.734911109668978], [92.4914440384966, 24.737933300765384], [92.49191939819886, 24.739314848816456], [92.49382083610962, 24.74147348814054], [92.4898277366368, 24.743861282268693], [92.48602486171363, 24.74558813259834], [92.48388574395175, 24.7467753294067], [92.48091474760919, 24.74839421505651], [92.47758723148996, 24.74882591373715], [92.47259595641279, 24.749797232121942], [92.4708133584276, 24.750444772678776], [92.46950612014469, 24.75076854209992], [92.46855540163845, 24.75076854209992], [92.46724816335553, 24.752603218738056], [92.466297443951, 24.750121003229964], [92.46617860402546, 24.74699118215367], [92.46570324432317, 24.74580398740686], [92.46617860402546, 24.742458197387666], [92.46546556537035, 24.74008371160977], [92.46415832618912, 24.737601246101974], [92.46299301722951, 24.733709908779783]]]}}]}