{"type": "FeatureCollection", "features": [{"type": "Feature", "properties": {"premiumdata.sde.IN_Village_PCA.area": 8.18510821, "objectid": 202211, "id": "244573802281611", "name": "Rampar Mota", "subdistrict": "Paddhari", "district": "Rajkot", "state": "Gujarat", "country": "India", "censusname": "Rampar Mota", "villagename_locallang": null, "lgd_villagename": "Rampar Mota", "lgd_villagecode": 512885, "lgd_subdistrictcode": 3802, "lgd_districtcode": 457, "lgd_statecode": 24, "censuscode2001": "00649200", "censuscode2011": "512885", "censuscode2021": null, "level": "Village", "tru": "Rural", "no_hh": 289, "tot_p": 1531, "tot_m": 773, "tot_f": 758, "per_tot_m": 50.4898759, "per_tot_f": 49.5101241, "p_06": 140, "m_06": 69, "f_06": 71, "per_p_06": 9.1443501, "per_m_06": 49.28571429, "per_f_06": 50.71428571, "p_sc": 8, "m_sc": 3, "f_sc": 5, "per_p_sc": 0.52253429, "per_m_sc": 37.5, "per_f_sc": 62.5, "p_st": 35, "m_st": 17, "f_st": 18, "per_p_st": 2.28608752, "per_m_st": 48.57142857, "per_f_st": 51.42857143, "p_lit": 1048, "m_lit": 597, "f_lit": 451, "per_p_lit": 68.45199215999999, "per_m_lit": 56.96564885, "per_f_lit": 43.03435115, "p_ill": 483, "m_ill": 176, "f_ill": 307, "per_p_ill": 31.54800784, "per_m_ill": 36.4389234, "per_f_ill": 63.5610766, "tot_work_p": 705, "tot_work_m": 446, "tot_work_f": 259, "per_tot_work_p": 46.04833442, "per_tot_work_m": 63.26241135, "per_tot_work_f": 36.73758865, "mainwork_p": 635, "mainwork_m": 438, "mainwork_f": 197, "per_mainwork_p": 41.47615937, "per_mainwork_m": 68.97637795, "per_mainwork_f": 31.02362205, "main_cl_p": 318, "main_cl_m": 268, "main_cl_f": 50, "per_main_cl_p": 50.07874016, "per_main_cl_m": 84.27672956, "per_main_cl_f": 15.72327044, "main_al_p": 39, "main_al_m": 23, "main_al_f": 16, "per_main_al_p": 6.14173228, "per_main_al_m": 58.97435897, "per_main_al_f": 41.02564103, "main_hh_p": 1, "main_hh_m": 1, "main_hh_f": 0, "per_main_hh_p": 0.15748031, "per_main_hh_m": 100.0, "per_main_hh_f": 0.0, "main_ot_p": 277, "main_ot_m": 146, "main_ot_f": 131, "per_main_ot_p": 43.62204724, "per_main_ot_m": 52.70758123, "per_main_ot_f": 47.29241877, "margwork_p": 70, "margwork_m": 8, "margwork_f": 62, "per_margwork_p": 4.57217505, "per_margwork_m": 11.42857143, "per_margwork_f": 88.57142857, "marg_cl_p": 61, "marg_cl_m": 5, "marg_cl_f": 56, "per_marg_cl_p": 87.14285714, "per_marg_cl_m": 8.19672131, "per_marg_cl_f": 91.80327869, "marg_al_p": 1, "marg_al_m": 0, "marg_al_f": 1, "per_marg_al_p": 1.42857143, "per_marg_al_m": 0.0, "per_marg_al_f": 100.0, "marg_hh_p": 0, "marg_hh_m": 0, "marg_hh_f": 0, "per_marg_hh_p": 0.0, "per_marg_hh_m": 0.0, "per_marg_hh_f": 0.0, "marg_ot_p": 8, "marg_ot_m": 3, "marg_ot_f": 5, "per_marg_ot_p": 11.42857143, "per_marg_ot_m": 37.5, "per_marg_ot_f": 62.5, "margwork_3_6_p": 70, "margwork_3_6_m": 8, "margwork_3_6_f": 62, "per_margwork_3_6_p": 100.0, "per_margwork_3_6_m": 11.42857143, "per_margwork_3_6_f": 88.57142857, "marg_cl_3_6_p": 61, "marg_cl_3_6_m": 5, "marg_cl_3_6_f": 56, "per_marg_cl_3_6_p": 87.14285714, "per_marg_cl_3_6_m": 8.19672131, "per_marg_cl_3_6_f": 91.80327869, "marg_al_3_6_p": 1, "marg_al_3_6_m": 0, "marg_al_3_6_f": 1, "per_marg_al_3_6_p": 1.42857143, "per_marg_al_3_6_m": 0.0, "per_marg_al_3_6_f": 100.0, "marg_hh_3_6_p": 0, "marg_hh_3_6_m": 0, "marg_hh_3_6_f": 0, "per_marg_hh_3_6_p": 0.0, "per_marg_hh_3_6_m": 0.0, "per_marg_hh_3_6_f": 0.0, "marg_ot_3_6_p": 8, "marg_ot_3_6_m": 3, "marg_ot_3_6_f": 5, "per_marg_ot_3_6_p": 11.42857143, "per_marg_ot_3_6_m": 37.5, "per_marg_ot_3_6_f": 62.5, "margwork_0_3_p": 0, "margwork_0_3_m": 0, "margwork_0_3_f": 0, "per_margwork_0_3_p": 0.0, "per_margwork_0_3_m": 0.0, "per_margwork_0_3_f": 0.0, "marg_cl_0_3_p": 0, "marg_cl_0_3_m": 0, "marg_cl_0_3_f": 0, "per_marg_cl_0_3_p": 0.0, "per_marg_cl_0_3_m": 0.0, "per_marg_cl_0_3_f": 0.0, "marg_al_0_3_p": 0, "marg_al_0_3_m": 0, "marg_al_0_3_f": 0, "per_marg_al_0_3_p": 0.0, "per_marg_al_0_3_m": 0.0, "per_marg_al_0_3_f": 0.0, "marg_hh_0_3_p": 0, "marg_hh_0_3_m": 0, "marg_hh_0_3_f": 0, "per_marg_hh_0_3_p": 0.0, "per_marg_hh_0_3_m": 0.0, "per_marg_hh_0_3_f": 0.0, "marg_ot_0_3_p": 0, "marg_ot_0_3_m": 0, "marg_ot_0_3_f": 0, "per_marg_ot_0_3_p": 0.0, "per_marg_ot_0_3_m": 0.0, "per_marg_ot_0_3_f": 0.0, "non_work_p": 826, "non_work_m": 327, "non_work_f": 499, "per_non_work_p": 53.95166558, "per_non_work_m": 39.58837772, "per_non_work_f": 60.41162228, "per_hc_tot_tot": 100, "per_hc_tot_god": 66.6, "per_hc_tot_liv": 29.7, "per_hc_tot_dil": 3.8, "per_hc_res_tot": 64.8, "per_hc_res_god": 37.9, "per_hc_res_liv": 23.1, "per_hc_res_dil": 3.8, "per_hc_oth_tot": 35.2, "per_hc_oth_god": 28.6, "per_hc_oth_liv": 6.6, "per_hc_oth_dil": 0.0, "per_mt_grsbam": 3.8, "per_mt_plastic": 0.0, "per_mt_h_tiles": 1.4, "per_mt_m_tiles": 12.1, "per_mt_b_brick": 1.4, "per_mt_stone": 3.8, "per_mt_asbstos": 0.7, "per_mt_concrte": 76.9, "per_mt_oth": 0.0, "per_mw_grsbam": 2.4, "per_mw_plastic": 0.0, "per_mw_mud": 10.3, "per_mw_wood": 0.0, "per_mw_no_mrtr": 0.3, "per_mw_st_mrtr": 2.4, "per_mw_asbstos": 0.7, "per_mw_b_brick": 80.7, "per_mw_concrte": 3.1, "per_mw_oth": 0.0, "per_mf_mud": 4.8, "per_mf_wood": 0.0, "per_mf_b_brick": 0.3, "per_mf_stone": 0.0, "per_mf_cement": 47.2, "per_mf_fl_tile": 47.6, "per_mf_oth": 0.0, "per_dw_n_exrm": 3.1, "per_dw_1_room": 17.2, "per_dw_2_room": 61.0, "per_dw_3_room": 9.7, "per_dw_4_room": 5.9, "per_dw_5_room": 1.0, "per_dw_6_room": 2.1, "per_hhsize_1": 0.3, "per_hhsize_2": 8.6, "per_hhsize_3": 8.3, "per_hhsize_4": 20.3, "per_hhsize_5": 23.1, "per_hhsize_6_8": 33.1, "per_hhsize_9p": 6.2, "per_ow_owned": 93.8, "per_ow_rented": 3.8, "per_ow_oth": 2.4, "per_mc_none": 3.1, "per_mcouple_1": 63.1, "per_mcouple_2": 27.2, "per_mcouple_3": 6.2, "per_mcouple_4": 0.3, "per_mcouple_5p": 0.0, "per_dw_t_ts": 1.0, "per_dw_t_unts": 63.1, "per_dw_c_well": 0.0, "per_dw_unc_wel": 0.0, "per_dw_hpump": 23.8, "per_dw_tw_bore": 10.3, "per_dw_spring": 0.0, "per_dw_rivcan": 0.3, "per_dw_tank": 0.0, "per_dw_oth": 1.4, "per_loc_dw_wp": 85.5, "per_loc_dw_np": 12.8, "per_loc_dw_aw": 1.7, "per_light_elec": 95.2, "per_light_kero": 4.5, "per_light_solr": 0.0, "per_light_oil": 0.3, "per_light_oth": 0.0, "per_light_no": 0.0, "per_hh_latrine": 47.2, "per_fl_sewer": 0.7, "per_fl_septict": 44.1, "per_fl_othsys": 0.7, "per_pl_wslab": 1.0, "per_pl_without": 0.3, "per_ns_open": 0.3, "per_sl_ns_hum": 0.0, "per_sl_ns_anml": 0.0, "per_hh_no_lat": 52.8, "per_as_pub": 0.0, "per_as_open": 52.8, "per_hh_bathrm": 73.1, "per_hh_en_wrf": 3.4, "per_hh_no_btrm": 23.4, "per_wwoc_drain": 5.2, "per_wwoc_open": 0.0, "per_wwoc_nodrn": 94.8, "per_cook_fire": 86.6, "per_cook_resdu": 1.0, "per_cook_cwdng": 0.3, "per_cook_coal": 0.0, "per_cook_kero": 0.0, "per_cook_lpng": 10.7, "per_cook_elec": 0.0, "per_cook_biogs": 1.4, "per_cook_oth": 0.0, "per_cook_no": 0.0, "per_kf_inside": 68.6, "per_kf_in_has": 64.8, "per_kf_in_does": 3.8, "per_kf_outside": 31.4, "per_kf_out_has": 24.1, "per_kf_out_dos": 7.2, "per_kf_no_cook": 0.0, "per_hh_banking": 89.0, "per_hh_radio": 6.6, "per_hh_tv": 70.7, "per_hh_cmp_int": 0.3, "per_hh_cmp_wnt": 6.2, "per_hh_ph_ll": 8.6, "per_hh_ph_mob": 77.2, "per_hh_ph_bth": 6.2, "per_hh_bcycl": 20.7, "per_hh_2wheel": 62.1, "per_hh_4wheel": 3.1, "per_hh_tvcomp": 2.4, "per_hh_no_ast": 4.8, "per_hs_perma": 86.2, "per_hs_sperma": 11.0, "per_hs_temp": 2.8, "per_hs_servc": 0.3, "per_hs_nservc": 2.4, "per_hs_unclss": 0.0, "avghhsz_cy": 5.29757785, "st_areashape": 9622985.74656019, "st_lengthshape": 16570.6736079453}, "geometry": {"type": "Polygon", "coordinates": [[[70.65802251024378, 22.423136615093107], [70.65600563342913, 22.423193209028287], [70.65436880955667, 22.423399638476873], [70.65272854154344, 22.423579079021984], [70.6510846847606, 22.42373242676118], [70.649438611834, 22.42385871022326], [70.64759945771516, 22.423967522984476], [70.64686862253596, 22.423940798522423], [70.6461436057449, 22.423855466715107], [70.64542937233045, 22.42371145770161], [70.64473185746179, 22.423509893991046], [70.64404394378693, 22.423319655738062], [70.64297202548084, 22.42292243266904], [70.64209779762278, 22.42208046919709], [70.64156645221706, 22.421614613809066], [70.64108097568807, 22.42110774967289], [70.64064544548887, 22.42056421108458], [70.64026244876747, 22.419986502143416], [70.63993541708828, 22.419380050865435], [70.63945376289082, 22.418747253471544], [70.63892627574926, 22.418147146214558], [70.63835475229413, 22.41758301718575], [70.63774241118912, 22.41705763382266], [70.63709154942644, 22.41657295223895], [70.63640581236947, 22.41613146417305], [70.6356887959743, 22.41573626674689], [70.63494355630955, 22.415387847824935], [70.63417379982408, 22.415088934936257], [70.63338301198112, 22.414840797320604], [70.6325755028975, 22.414644536421903], [70.6317556168259, 22.414500797717555], [70.6309262508331, 22.41441112268148], [70.63009231241551, 22.4143750555025], [70.62925672738601, 22.414392628609832], [70.628424534395, 22.414464986339645], [70.62769539882832, 22.41438233188698], [70.62697255057034, 22.414264155781947], [70.62625651693207, 22.414111020978634], [70.62555108071926, 22.41392346466303], [70.62485677463279, 22.413702047250727], [70.62417602951385, 22.413446845811997], [70.623510676129, 22.41315842653107], [70.62286255512625, 22.41283834049501], [70.62223340474563, 22.41248730084937], [70.62162517792464, 22.412106409381888], [70.62103946198636, 22.411696221427437], [70.6204777616089, 22.41125728151265], [70.61994108200699, 22.41079260147731], [70.61928356462636, 22.40961181605669], [70.61934517917338, 22.408968028434053], [70.61954750223325, 22.408359648835145], [70.61988127936192, 22.40780349010907], [70.62033257050274, 22.40732385800745], [70.62088097940732, 22.406941033947557], [70.62151204948766, 22.40666953991753], [70.62242294118575, 22.40632550653032], [70.62332061956432, 22.405952527768868], [70.62420331763724, 22.405550268708428], [70.62507092311506, 22.40512030954243], [70.6259217732162, 22.404662019659714], [70.62675509089794, 22.40417602913638], [70.62756920798877, 22.40366405185845], [70.62836404364037, 22.40312608172522], [70.62913825936295, 22.4025626416616], [70.62989076011014, 22.401974267044586], [70.63062097275686, 22.40136213441258], [70.63132763696669, 22.400726845585627], [70.63201006552845, 22.400068887769496], [70.63266768711364, 22.39938943502237], [70.63329880210978, 22.398688381550418], [70.63418970449615, 22.397609421511703], [70.6346631813296, 22.397036638638156], [70.63523653375464, 22.396549407183656], [70.63589180804202, 22.39616120632354], [70.63660959609001, 22.39588421287436], [70.63736811105802, 22.395727584417973], [70.63818870769704, 22.395633756926344], [70.63891371370833, 22.39578860393939], [70.63965358863419, 22.39600491704673], [70.64034166580248, 22.396337382252078], [70.64095688600798, 22.39677585185544], [70.64149861953165, 22.397329134495713], [70.64415061064206, 22.400267231467023], [70.64674719097081, 22.40324743405504], [70.65156197134914, 22.409071835934075], [70.65214004262438, 22.40954681631505], [70.65276028261569, 22.409973298707467], [70.65341845307152, 22.410347997380196], [70.65410923327049, 22.41066801358116], [70.65482761869815, 22.41093054236558], [70.65556828683644, 22.411133819316376], [70.65632567082552, 22.411276139746004], [70.65709308989463, 22.411356484029533], [70.65784815263703, 22.41137536301104], [70.65851211722645, 22.41148136446253], [70.65918510269798, 22.411522532278287], [70.65985898558645, 22.41149761085267], [70.66052660542077, 22.411407820104188], [70.6611805313369, 22.411253607528536], [70.66181368281377, 22.411037335592344], [70.66241908173826, 22.41075993247071], [70.66299021173128, 22.4104261372986], [70.66352099748656, 22.410037920383964], [70.66400524422194, 22.409601171840336], [70.66475804500642, 22.40916058178858], [70.66535970424441, 22.408908033697926], [70.66596970972965, 22.40867519913119], [70.66658820788763, 22.408462312383755], [70.66721441179406, 22.40826902308287], [70.66784781300258, 22.408096737322186], [70.6684866328489, 22.407944208619853], [70.66913132408389, 22.407813055660327], [70.66977951874851, 22.40770343131396], [70.67043244663637, 22.40761405335767], [70.67108781524684, 22.407546289645516], [70.67182379417935, 22.407494984533177], [70.67243485698168, 22.407293785958828], [70.67385874779244, 22.407427441673143], [70.67433573254709, 22.4078422813304], [70.67467051668717, 22.408363404283175], [70.67483737875119, 22.408950147362823], [70.67482368034142, 22.409557434790816], [70.67470261618723, 22.410227044894953], [70.67394956387442, 22.410511949064478], [70.67324575271392, 22.410891804325985], [70.67260641633635, 22.411358175688708], [70.67204199945344, 22.411903697738328], [70.67156520424335, 22.41251554642502], [70.67118428891847, 22.413182817828446], [70.67117428617777, 22.413862297809082], [70.6710880541987, 22.414509411945744], [70.67082466456415, 22.415114384710108], [70.67040128318087, 22.415635942110878], [70.66984799372936, 22.416038746634577], [70.66920128577654, 22.41629450883872], [70.66850633200477, 22.416386584279525], [70.66780930761627, 22.416308221835074], [70.66715875846728, 22.416065059889746], [70.66373975881783, 22.414298313788922], [70.66316079192225, 22.413987662633435], [70.66249118950611, 22.413987767270175], [70.66191042957324, 22.41429904624438], [70.66157440845302, 22.414837763704483], [70.66157334484772, 22.41545966857118], [70.66190684439695, 22.415998356616903], [70.66248995252596, 22.41634676238136], [70.66307318462249, 22.416768648209345], [70.66354898449927, 22.41729351115525], [70.66389668641311, 22.417898836351], [70.66410139899165, 22.418558532519942], [70.66415334946284, 22.419244333094674], [70.66405047529483, 22.419924739230456], [70.66379764176315, 22.420571400782126], [70.66340611913141, 22.421155155147193], [70.66289295922031, 22.421651200602042], [70.6622794601869, 22.422036809982664], [70.66159388572498, 22.422296494748334], [70.6608896092372, 22.42241608317217], [70.65926625829738, 22.422701709699044], [70.65802251024378, 22.423136615093107]]]}}]}