{"type": "FeatureCollection", "features": [{"type": "Feature", "properties": {"premiumdata.sde.IN_Village_PCA.area": 0.46224709, "objectid": 528105, "id": "193042429127901", "name": "Badeballabhpur K", "subdistrict": "Mandirbazar", "district": "24 Paraganas South", "state": "West Bengal", "country": "India", "censusname": "Badeballabhpur (K)", "villagename_locallang": null, "lgd_villagename": "Badeballabhpur (K)", "lgd_villagecode": 334702, "lgd_subdistrictcode": 2429, "lgd_districtcode": 304, "lgd_statecode": 19, "censuscode2001": "04007100", "censuscode2011": "334702", "censuscode2021": null, "level": "Village", "tru": "Rural", "no_hh": 71, "tot_p": 329, "tot_m": 175, "tot_f": 154, "per_tot_m": 53.19148936, "per_tot_f": 46.80851064, "p_06": 39, "m_06": 19, "f_06": 20, "per_p_06": 11.85410334, "per_m_06": 48.71794872, "per_f_06": 51.28205128, "p_sc": 329, "m_sc": 175, "f_sc": 154, "per_p_sc": 100.0, "per_m_sc": 53.19148936, "per_f_sc": 46.80851064, "p_st": 0, "m_st": 0, "f_st": 0, "per_p_st": 0.0, "per_m_st": 0.0, "per_f_st": 0.0, "p_lit": 178, "m_lit": 106, "f_lit": 72, "per_p_lit": 54.10334347, "per_m_lit": 59.5505618, "per_f_lit": 40.4494382, "p_ill": 151, "m_ill": 69, "f_ill": 82, "per_p_ill": 45.89665653, "per_m_ill": 45.69536424, "per_f_ill": 54.30463576, "tot_work_p": 76, "tot_work_m": 72, "tot_work_f": 4, "per_tot_work_p": 23.10030395, "per_tot_work_m": 94.73684211, "per_tot_work_f": 5.26315789, "mainwork_p": 5, "mainwork_m": 4, "mainwork_f": 1, "per_mainwork_p": 1.51975684, "per_mainwork_m": 80.0, "per_mainwork_f": 20.0, "main_cl_p": 0, "main_cl_m": 0, "main_cl_f": 0, "per_main_cl_p": 0.0, "per_main_cl_m": 0.0, "per_main_cl_f": 0.0, "main_al_p": 2, "main_al_m": 1, "main_al_f": 1, "per_main_al_p": 40.0, "per_main_al_m": 50.0, "per_main_al_f": 50.0, "main_hh_p": 0, "main_hh_m": 0, "main_hh_f": 0, "per_main_hh_p": 0.0, "per_main_hh_m": 0.0, "per_main_hh_f": 0.0, "main_ot_p": 3, "main_ot_m": 3, "main_ot_f": 0, "per_main_ot_p": 60.0, "per_main_ot_m": 100.0, "per_main_ot_f": 0.0, "margwork_p": 71, "margwork_m": 68, "margwork_f": 3, "per_margwork_p": 21.58054711, "per_margwork_m": 95.77464789000001, "per_margwork_f": 4.22535211, "marg_cl_p": 1, "marg_cl_m": 1, "marg_cl_f": 0, "per_marg_cl_p": 1.4084507, "per_marg_cl_m": 100.0, "per_marg_cl_f": 0.0, "marg_al_p": 66, "marg_al_m": 66, "marg_al_f": 0, "per_marg_al_p": 92.95774648, "per_marg_al_m": 100.0, "per_marg_al_f": 0.0, "marg_hh_p": 0, "marg_hh_m": 0, "marg_hh_f": 0, "per_marg_hh_p": 0.0, "per_marg_hh_m": 0.0, "per_marg_hh_f": 0.0, "marg_ot_p": 4, "marg_ot_m": 1, "marg_ot_f": 3, "per_marg_ot_p": 5.63380282, "per_marg_ot_m": 25.0, "per_marg_ot_f": 75.0, "margwork_3_6_p": 6, "margwork_3_6_m": 3, "margwork_3_6_f": 3, "per_margwork_3_6_p": 8.45070423, "per_margwork_3_6_m": 50.0, "per_margwork_3_6_f": 50.0, "marg_cl_3_6_p": 0, "marg_cl_3_6_m": 0, "marg_cl_3_6_f": 0, "per_marg_cl_3_6_p": 0.0, "per_marg_cl_3_6_m": 0.0, "per_marg_cl_3_6_f": 0.0, "marg_al_3_6_p": 2, "marg_al_3_6_m": 2, "marg_al_3_6_f": 0, "per_marg_al_3_6_p": 2.81690141, "per_marg_al_3_6_m": 100.0, "per_marg_al_3_6_f": 0.0, "marg_hh_3_6_p": 0, "marg_hh_3_6_m": 0, "marg_hh_3_6_f": 0, "per_marg_hh_3_6_p": 0.0, "per_marg_hh_3_6_m": 0.0, "per_marg_hh_3_6_f": 0.0, "marg_ot_3_6_p": 4, "marg_ot_3_6_m": 1, "marg_ot_3_6_f": 3, "per_marg_ot_3_6_p": 5.63380282, "per_marg_ot_3_6_m": 25.0, "per_marg_ot_3_6_f": 75.0, "margwork_0_3_p": 65, "margwork_0_3_m": 65, "margwork_0_3_f": 0, "per_margwork_0_3_p": 91.54929577, "per_margwork_0_3_m": 100.0, "per_margwork_0_3_f": 0.0, "marg_cl_0_3_p": 1, "marg_cl_0_3_m": 1, "marg_cl_0_3_f": 0, "per_marg_cl_0_3_p": 1.4084507, "per_marg_cl_0_3_m": 100.0, "per_marg_cl_0_3_f": 0.0, "marg_al_0_3_p": 64, "marg_al_0_3_m": 64, "marg_al_0_3_f": 0, "per_marg_al_0_3_p": 90.14084507, "per_marg_al_0_3_m": 100.0, "per_marg_al_0_3_f": 0.0, "marg_hh_0_3_p": 0, "marg_hh_0_3_m": 0, "marg_hh_0_3_f": 0, "per_marg_hh_0_3_p": 0.0, "per_marg_hh_0_3_m": 0.0, "per_marg_hh_0_3_f": 0.0, "marg_ot_0_3_p": 0, "marg_ot_0_3_m": 0, "marg_ot_0_3_f": 0, "per_marg_ot_0_3_p": 0.0, "per_marg_ot_0_3_m": 0.0, "per_marg_ot_0_3_f": 0.0, "non_work_p": 253, "non_work_m": 103, "non_work_f": 150, "per_non_work_p": 76.89969605, "per_non_work_m": 40.71146245, "per_non_work_f": 59.28853755, "per_hc_tot_tot": 100, "per_hc_tot_god": 0.0, "per_hc_tot_liv": 100.0, "per_hc_tot_dil": 0.0, "per_hc_res_tot": 98.6, "per_hc_res_god": 0.0, "per_hc_res_liv": 98.6, "per_hc_res_dil": 0.0, "per_hc_oth_tot": 1.4, "per_hc_oth_god": 0.0, "per_hc_oth_liv": 1.4, "per_hc_oth_dil": 0.0, "per_mt_grsbam": 64.3, "per_mt_plastic": 0.0, "per_mt_h_tiles": 17.1, "per_mt_m_tiles": 0.0, "per_mt_b_brick": 0.0, "per_mt_stone": 0.0, "per_mt_asbstos": 12.9, "per_mt_concrte": 5.7, "per_mt_oth": 0.0, "per_mw_grsbam": 0.0, "per_mw_plastic": 0.0, "per_mw_mud": 84.3, "per_mw_wood": 0.0, "per_mw_no_mrtr": 0.0, "per_mw_st_mrtr": 0.0, "per_mw_asbstos": 0.0, "per_mw_b_brick": 15.7, "per_mw_concrte": 0.0, "per_mw_oth": 0.0, "per_mf_mud": 100.0, "per_mf_wood": 0.0, "per_mf_b_brick": 0.0, "per_mf_stone": 0.0, "per_mf_cement": 0.0, "per_mf_fl_tile": 0.0, "per_mf_oth": 0.0, "per_dw_n_exrm": 4.3, "per_dw_1_room": 82.9, "per_dw_2_room": 12.9, "per_dw_3_room": 0.0, "per_dw_4_room": 0.0, "per_dw_5_room": 0.0, "per_dw_6_room": 0.0, "per_hhsize_1": 2.9, "per_hhsize_2": 15.7, "per_hhsize_3": 7.1, "per_hhsize_4": 22.9, "per_hhsize_5": 18.6, "per_hhsize_6_8": 27.1, "per_hhsize_9p": 5.7, "per_ow_owned": 100.0, "per_ow_rented": 0.0, "per_ow_oth": 0.0, "per_mc_none": 14.3, "per_mcouple_1": 71.4, "per_mcouple_2": 10.0, "per_mcouple_3": 4.3, "per_mcouple_4": 0.0, "per_mcouple_5p": 0.0, "per_dw_t_ts": 0.0, "per_dw_t_unts": 0.0, "per_dw_c_well": 0.0, "per_dw_unc_wel": 0.0, "per_dw_hpump": 100.0, "per_dw_tw_bore": 0.0, "per_dw_spring": 0.0, "per_dw_rivcan": 0.0, "per_dw_tank": 0.0, "per_dw_oth": 0.0, "per_loc_dw_wp": 0.0, "per_loc_dw_np": 100.0, "per_loc_dw_aw": 0.0, "per_light_elec": 8.6, "per_light_kero": 91.4, "per_light_solr": 0.0, "per_light_oil": 0.0, "per_light_oth": 0.0, "per_light_no": 0.0, "per_hh_latrine": 2.9, "per_fl_sewer": 0.0, "per_fl_septict": 2.9, "per_fl_othsys": 0.0, "per_pl_wslab": 0.0, "per_pl_without": 0.0, "per_ns_open": 0.0, "per_sl_ns_hum": 0.0, "per_sl_ns_anml": 0.0, "per_hh_no_lat": 97.1, "per_as_pub": 0.0, "per_as_open": 97.1, "per_hh_bathrm": 0.0, "per_hh_en_wrf": 0.0, "per_hh_no_btrm": 100.0, "per_wwoc_drain": 0.0, "per_wwoc_open": 0.0, "per_wwoc_nodrn": 100.0, "per_cook_fire": 0.0, "per_cook_resdu": 100.0, "per_cook_cwdng": 0.0, "per_cook_coal": 0.0, "per_cook_kero": 0.0, "per_cook_lpng": 0.0, "per_cook_elec": 0.0, "per_cook_biogs": 0.0, "per_cook_oth": 0.0, "per_cook_no": 0.0, "per_kf_inside": 100.0, "per_kf_in_has": 15.7, "per_kf_in_does": 84.3, "per_kf_outside": 0.0, "per_kf_out_has": 0.0, "per_kf_out_dos": 0.0, "per_kf_no_cook": 0.0, "per_hh_banking": 2.9, "per_hh_radio": 0.0, "per_hh_tv": 0.0, "per_hh_cmp_int": 0.0, "per_hh_cmp_wnt": 0.0, "per_hh_ph_ll": 0.0, "per_hh_ph_mob": 1.4, "per_hh_ph_bth": 0.0, "per_hh_bcycl": 17.1, "per_hh_2wheel": 0.0, "per_hh_4wheel": 0.0, "per_hh_tvcomp": 0.0, "per_hh_no_ast": 82.9, "per_hs_perma": 12.9, "per_hs_sperma": 25.7, "per_hs_temp": 61.4, "per_hs_servc": 61.4, "per_hs_nservc": 0.0, "per_hs_unclss": 0.0, "avghhsz_cy": 4.63380282, "st_areashape": 541413.03435905, "st_lengthshape": 3397.683501175851}, "geometry": {"type": "Polygon", "coordinates": [[[88.34315999938289, 22.14811999944964], [88.3421599984019, 22.148229998856547], [88.34192999914643, 22.148399999132337], [88.34157999934207, 22.149979999264165], [88.34118999935474, 22.15018999838346], [88.340919999018, 22.1501399990574], [88.34006999872311, 22.149239998998702], [88.33977999829489, 22.14912999954905], [88.33890999880686, 22.14917999923393], [88.33836999903168, 22.149029999294047], [88.33793999975967, 22.14872999893477], [88.33767999857037, 22.148319998685533], [88.33745999846235, 22.147739998870563], [88.3372599993441, 22.147409999243315], [88.33691999868718, 22.14732999906588], [88.33668999943173, 22.14708999909286], [88.3366199991115, 22.146779998487453], [88.3366199991115, 22.14629999958501], [88.33676999889934, 22.145959998748225], [88.33730999867451, 22.145749999142623], [88.3376399992857, 22.14556999863703], [88.33828999956403, 22.145019998670843], [88.33855999900247, 22.144709998499458], [88.3388299993392, 22.14416999895965], [88.33896999908127, 22.141729998483836], [88.3391099997217, 22.14127999850095], [88.33928999874843, 22.14098999895181], [88.33982999942191, 22.140639998729313], [88.34036999919708, 22.140399999001115], [88.34123999868511, 22.14099999963483], [88.34132999909681, 22.14129999899297], [88.34130999900535, 22.14233999903063], [88.34144999964572, 22.142559999302357], [88.34175999926711, 22.142719998376354], [88.34202999870556, 22.142909999744795], [88.34211999911724, 22.14368999947893], [88.34232999917953, 22.14429999902273], [88.34262999875519, 22.14453999875987], [88.3431099991542, 22.144479998655925], [88.34385999899163, 22.1442599988881], [88.34406999905394, 22.144389998868082], [88.34466999910353, 22.145689998722297], [88.34466999910353, 22.145949999249552], [88.34418999870454, 22.14693999942199], [88.34417999955711, 22.147189999062007], [88.34395999944908, 22.147139999502343], [88.34359999870065, 22.14723999943597], [88.34311999919994, 22.147839999210007], [88.34311999919994, 22.14808999891575], [88.34315999938289, 22.14811999944964]]]}}]}