{"type": "FeatureCollection", "features": [{"type": "Feature", "properties": {"premiumdata.sde.IN_Village_PCA.area": 2.30365051, "objectid": 395000, "id": "327256336687", "name": "Gill", "subdistrict": "Amritsar -I", "district": "Amritsar", "state": "Punjab", "country": "India", "censusname": "Gill (168)", "villagename_locallang": null, "lgd_villagename": "Gill (168)", "lgd_villagecode": 37524, "lgd_subdistrictcode": 256, "lgd_districtcode": 27, "lgd_statecode": 3, "censuscode2001": "00205700", "censuscode2011": "037524", "censuscode2021": null, "level": "Village", "tru": "Rural", "no_hh": 136, "tot_p": 724, "tot_m": 385, "tot_f": 339, "per_tot_m": 53.17679558, "per_tot_f": 46.82320442, "p_06": 68, "m_06": 37, "f_06": 31, "per_p_06": 9.39226519, "per_m_06": 54.41176471, "per_f_06": 45.58823529, "p_sc": 139, "m_sc": 71, "f_sc": 68, "per_p_sc": 19.19889503, "per_m_sc": 51.07913669, "per_f_sc": 48.92086331, "p_st": 0, "m_st": 0, "f_st": 0, "per_p_st": 0.0, "per_m_st": 0.0, "per_f_st": 0.0, "p_lit": 518, "m_lit": 295, "f_lit": 223, "per_p_lit": 71.54696132999999, "per_m_lit": 56.94980695, "per_f_lit": 43.05019305, "p_ill": 206, "m_ill": 90, "f_ill": 116, "per_p_ill": 28.45303867, "per_m_ill": 43.68932039000001, "per_f_ill": 56.31067961, "tot_work_p": 475, "tot_work_m": 240, "tot_work_f": 235, "per_tot_work_p": 65.60773481, "per_tot_work_m": 50.52631579, "per_tot_work_f": 49.47368421, "mainwork_p": 426, "mainwork_m": 235, "mainwork_f": 191, "per_mainwork_p": 58.83977901, "per_mainwork_m": 55.16431925, "per_mainwork_f": 44.83568075, "main_cl_p": 120, "main_cl_m": 106, "main_cl_f": 14, "per_main_cl_p": 28.16901408, "per_main_cl_m": 88.33333332999999, "per_main_cl_f": 11.66666667, "main_al_p": 49, "main_al_m": 43, "main_al_f": 6, "per_main_al_p": 11.50234742, "per_main_al_m": 87.75510204, "per_main_al_f": 12.24489796, "main_hh_p": 180, "main_hh_m": 27, "main_hh_f": 153, "per_main_hh_p": 42.25352113, "per_main_hh_m": 15.0, "per_main_hh_f": 85.0, "main_ot_p": 77, "main_ot_m": 59, "main_ot_f": 18, "per_main_ot_p": 18.07511737, "per_main_ot_m": 76.62337662, "per_main_ot_f": 23.37662338, "margwork_p": 49, "margwork_m": 5, "margwork_f": 44, "per_margwork_p": 6.7679558, "per_margwork_m": 10.20408163, "per_margwork_f": 89.79591837000001, "marg_cl_p": 4, "marg_cl_m": 1, "marg_cl_f": 3, "per_marg_cl_p": 8.16326531, "per_marg_cl_m": 25.0, "per_marg_cl_f": 75.0, "marg_al_p": 2, "marg_al_m": 2, "marg_al_f": 0, "per_marg_al_p": 4.08163265, "per_marg_al_m": 100.0, "per_marg_al_f": 0.0, "marg_hh_p": 38, "marg_hh_m": 1, "marg_hh_f": 37, "per_marg_hh_p": 77.55102041, "per_marg_hh_m": 2.63157895, "per_marg_hh_f": 97.36842105, "marg_ot_p": 5, "marg_ot_m": 1, "marg_ot_f": 4, "per_marg_ot_p": 10.20408163, "per_marg_ot_m": 20.0, "per_marg_ot_f": 80.0, "margwork_3_6_p": 49, "margwork_3_6_m": 5, "margwork_3_6_f": 44, "per_margwork_3_6_p": 100.0, "per_margwork_3_6_m": 10.20408163, "per_margwork_3_6_f": 89.79591837000001, "marg_cl_3_6_p": 4, "marg_cl_3_6_m": 1, "marg_cl_3_6_f": 3, "per_marg_cl_3_6_p": 8.16326531, "per_marg_cl_3_6_m": 25.0, "per_marg_cl_3_6_f": 75.0, "marg_al_3_6_p": 2, "marg_al_3_6_m": 2, "marg_al_3_6_f": 0, "per_marg_al_3_6_p": 4.08163265, "per_marg_al_3_6_m": 100.0, "per_marg_al_3_6_f": 0.0, "marg_hh_3_6_p": 38, "marg_hh_3_6_m": 1, "marg_hh_3_6_f": 37, "per_marg_hh_3_6_p": 77.55102041, "per_marg_hh_3_6_m": 2.63157895, "per_marg_hh_3_6_f": 97.36842105, "marg_ot_3_6_p": 5, "marg_ot_3_6_m": 1, "marg_ot_3_6_f": 4, "per_marg_ot_3_6_p": 10.20408163, "per_marg_ot_3_6_m": 20.0, "per_marg_ot_3_6_f": 80.0, "margwork_0_3_p": 0, "margwork_0_3_m": 0, "margwork_0_3_f": 0, "per_margwork_0_3_p": 0.0, "per_margwork_0_3_m": 0.0, "per_margwork_0_3_f": 0.0, "marg_cl_0_3_p": 0, "marg_cl_0_3_m": 0, "marg_cl_0_3_f": 0, "per_marg_cl_0_3_p": 0.0, "per_marg_cl_0_3_m": 0.0, "per_marg_cl_0_3_f": 0.0, "marg_al_0_3_p": 0, "marg_al_0_3_m": 0, "marg_al_0_3_f": 0, "per_marg_al_0_3_p": 0.0, "per_marg_al_0_3_m": 0.0, "per_marg_al_0_3_f": 0.0, "marg_hh_0_3_p": 0, "marg_hh_0_3_m": 0, "marg_hh_0_3_f": 0, "per_marg_hh_0_3_p": 0.0, "per_marg_hh_0_3_m": 0.0, "per_marg_hh_0_3_f": 0.0, "marg_ot_0_3_p": 0, "marg_ot_0_3_m": 0, "marg_ot_0_3_f": 0, "per_marg_ot_0_3_p": 0.0, "per_marg_ot_0_3_m": 0.0, "per_marg_ot_0_3_f": 0.0, "non_work_p": 249, "non_work_m": 145, "non_work_f": 104, "per_non_work_p": 34.39226519, "per_non_work_m": 58.23293173, "per_non_work_f": 41.76706827, "per_hc_tot_tot": 100, "per_hc_tot_god": 8.5, "per_hc_tot_liv": 89.4, "per_hc_tot_dil": 2.1, "per_hc_res_tot": 98.6, "per_hc_res_god": 8.5, "per_hc_res_liv": 87.9, "per_hc_res_dil": 2.1, "per_hc_oth_tot": 1.4, "per_hc_oth_god": 0.0, "per_hc_oth_liv": 1.4, "per_hc_oth_dil": 0.0, "per_mt_grsbam": 46.1, "per_mt_plastic": 0.0, "per_mt_h_tiles": 0.7, "per_mt_m_tiles": 0.7, "per_mt_b_brick": 5.0, "per_mt_stone": 0.0, "per_mt_asbstos": 0.7, "per_mt_concrte": 46.8, "per_mt_oth": 0.0, "per_mw_grsbam": 0.0, "per_mw_plastic": 0.0, "per_mw_mud": 1.4, "per_mw_wood": 0.7, "per_mw_no_mrtr": 0.0, "per_mw_st_mrtr": 0.0, "per_mw_asbstos": 0.0, "per_mw_b_brick": 94.3, "per_mw_concrte": 3.5, "per_mw_oth": 0.0, "per_mf_mud": 60.3, "per_mf_wood": 0.7, "per_mf_b_brick": 7.1, "per_mf_stone": 2.1, "per_mf_cement": 12.1, "per_mf_fl_tile": 17.7, "per_mf_oth": 0.0, "per_dw_n_exrm": 0.0, "per_dw_1_room": 3.5, "per_dw_2_room": 31.2, "per_dw_3_room": 25.5, "per_dw_4_room": 31.2, "per_dw_5_room": 2.1, "per_dw_6_room": 6.4, "per_hhsize_1": 0.0, "per_hhsize_2": 7.1, "per_hhsize_3": 9.2, "per_hhsize_4": 19.1, "per_hhsize_5": 25.5, "per_hhsize_6_8": 35.5, "per_hhsize_9p": 3.5, "per_ow_owned": 98.6, "per_ow_rented": 1.4, "per_ow_oth": 0.0, "per_mc_none": 1.4, "per_mcouple_1": 66.0, "per_mcouple_2": 27.7, "per_mcouple_3": 3.5, "per_mcouple_4": 1.4, "per_mcouple_5p": 0.0, "per_dw_t_ts": 9.2, "per_dw_t_unts": 0.0, "per_dw_c_well": 0.7, "per_dw_unc_wel": 0.0, "per_dw_hpump": 36.9, "per_dw_tw_bore": 51.8, "per_dw_spring": 0.0, "per_dw_rivcan": 0.0, "per_dw_tank": 0.0, "per_dw_oth": 1.4, "per_loc_dw_wp": 96.5, "per_loc_dw_np": 3.5, "per_loc_dw_aw": 0.0, "per_light_elec": 96.5, "per_light_kero": 2.1, "per_light_solr": 1.4, "per_light_oil": 0.0, "per_light_oth": 0.0, "per_light_no": 0.0, "per_hh_latrine": 64.5, "per_fl_sewer": 0.0, "per_fl_septict": 0.0, "per_fl_othsys": 64.5, "per_pl_wslab": 0.0, "per_pl_without": 0.0, "per_ns_open": 0.0, "per_sl_ns_hum": 0.0, "per_sl_ns_anml": 0.0, "per_hh_no_lat": 35.5, "per_as_pub": 0.0, "per_as_open": 35.5, "per_hh_bathrm": 50.4, "per_hh_en_wrf": 29.1, "per_hh_no_btrm": 20.6, "per_wwoc_drain": 22.7, "per_wwoc_open": 66.0, "per_wwoc_nodrn": 11.3, "per_cook_fire": 0.7, "per_cook_resdu": 0.0, "per_cook_cwdng": 61.7, "per_cook_coal": 0.0, "per_cook_kero": 1.4, "per_cook_lpng": 36.2, "per_cook_elec": 0.0, "per_cook_biogs": 0.0, "per_cook_oth": 0.0, "per_cook_no": 0.0, "per_kf_inside": 95.0, "per_kf_in_has": 55.3, "per_kf_in_does": 39.7, "per_kf_outside": 5.0, "per_kf_out_has": 2.8, "per_kf_out_dos": 2.1, "per_kf_no_cook": 0.0, "per_hh_banking": 38.3, "per_hh_radio": 0.0, "per_hh_tv": 90.1, "per_hh_cmp_int": 0.0, "per_hh_cmp_wnt": 0.7, "per_hh_ph_ll": 2.1, "per_hh_ph_mob": 66.0, "per_hh_ph_bth": 0.0, "per_hh_bcycl": 91.5, "per_hh_2wheel": 48.2, "per_hh_4wheel": 21.3, "per_hh_tvcomp": 0.0, "per_hh_no_ast": 2.8, "per_hs_perma": 53.9, "per_hs_sperma": 44.0, "per_hs_temp": 2.1, "per_hs_servc": 2.1, "per_hs_nservc": 0.0, "per_hs_unclss": 0.0, "avghhsz_cy": 5.32352941, "st_areashape": 3188547.88036879, "st_lengthshape": 8035.87230650578}, "geometry": {"type": "Polygon", "coordinates": [[[75.05551725003808, 31.652505264513753], [75.05439191341367, 31.65337920586479], [75.05292329458658, 31.654369358557084], [75.05120357956962, 31.65545424101302], [75.05039493142222, 31.655631144954967], [75.04928564409866, 31.655690680749395], [75.04486083945315, 31.655392866815205], [75.04477415023159, 31.654834489975105], [75.04453256720053, 31.654490001594638], [75.04416392555741, 31.65408454903471], [75.04373021265002, 31.653676423685656], [75.04314317888323, 31.65309471447484], [75.04271259570628, 31.65263095155015], [75.04253295420902, 31.652344764083704], [75.04195037339106, 31.652265075811666], [75.04162185410178, 31.652307346315375], [75.04096167591128, 31.65244751681366], [75.04016822725849, 31.652637958373372], [75.03904937916536, 31.652815041259736], [75.03759888025589, 31.65308999944056], [75.03622282473398, 31.65320073309691], [75.03503576666304, 31.65343075143111], [75.03431050463188, 31.65356820791907], [75.03261216772205, 31.653609903556514], [75.03176300735193, 31.6536307456331], [75.0305946854429, 31.653526932071856], [75.03001834522122, 31.65333593870477], [75.02969920164854, 31.653211301000574], [75.02921923179223, 31.65246666077897], [75.02841072737529, 31.651764263165894], [75.02816606402112, 31.651475397359057], [75.0279338980292, 31.65096399624156], [75.02794949637581, 31.650686604605205], [75.02799333595829, 31.649906978607287], [75.02808657928814, 31.649408964341117], [75.02840631305399, 31.648362651187416], [75.02879112976211, 31.64731901275406], [75.02904892828236, 31.646214380009525], [75.02927406944875, 31.644794726818272], [75.0294530929051, 31.643665934363653], [75.02951236195089, 31.64261162362176], [75.0472812915957, 31.64641720856217], [75.04921091504683, 31.646999647823474], [75.05080800463763, 31.647680243125087], [75.05201668066587, 31.648288981689973], [75.05282130076758, 31.649104794609055], [75.05551725003808, 31.652505264513753]]]}}]}