{"type": "FeatureCollection", "features": [{"type": "Feature", "properties": {"premiumdata.sde.IN_Village_PCA.area": 3.45431741, "objectid": 280722, "id": "226473293261551", "name": "Motimpur", "subdistrict": "Pathariya", "district": "Mungeli", "state": "Chhattisgarh", "country": "India", "censusname": "Motimpur", "villagename_locallang": "\u092e\u094b\u0924\u093f\u092e\u092a\u0941\u0930", "lgd_villagename": "Motimpur", "lgd_villagecode": 438389, "lgd_subdistrictcode": 3293, "lgd_districtcode": 647, "lgd_statecode": 22, "censuscode2001": "00725600", "censuscode2011": "438389", "censuscode2021": null, "level": "Village", "tru": "Rural", "no_hh": 247, "tot_p": 1060, "tot_m": 553, "tot_f": 507, "per_tot_m": 52.16981132, "per_tot_f": 47.83018868, "p_06": 173, "m_06": 84, "f_06": 89, "per_p_06": 16.32075472, "per_m_06": 48.55491329, "per_f_06": 51.44508671, "p_sc": 580, "m_sc": 297, "f_sc": 283, "per_p_sc": 54.71698113, "per_m_sc": 51.20689655, "per_f_sc": 48.79310345, "p_st": 117, "m_st": 66, "f_st": 51, "per_p_st": 11.03773585, "per_m_st": 56.41025641, "per_f_st": 43.58974359, "p_lit": 604, "m_lit": 389, "f_lit": 215, "per_p_lit": 56.98113208, "per_m_lit": 64.40397351, "per_f_lit": 35.59602649, "p_ill": 456, "m_ill": 164, "f_ill": 292, "per_p_ill": 43.01886792, "per_m_ill": 35.96491228, "per_f_ill": 64.03508772, "tot_work_p": 541, "tot_work_m": 287, "tot_work_f": 254, "per_tot_work_p": 51.03773585, "per_tot_work_m": 53.04990758, "per_tot_work_f": 46.95009242, "mainwork_p": 176, "mainwork_m": 142, "mainwork_f": 34, "per_mainwork_p": 16.60377358, "per_mainwork_m": 80.68181818, "per_mainwork_f": 19.31818182, "main_cl_p": 47, "main_cl_m": 27, "main_cl_f": 20, "per_main_cl_p": 26.70454545, "per_main_cl_m": 57.44680851, "per_main_cl_f": 42.55319149, "main_al_p": 116, "main_al_m": 103, "main_al_f": 13, "per_main_al_p": 65.90909091, "per_main_al_m": 88.79310345, "per_main_al_f": 11.20689655, "main_hh_p": 5, "main_hh_m": 5, "main_hh_f": 0, "per_main_hh_p": 2.84090909, "per_main_hh_m": 100.0, "per_main_hh_f": 0.0, "main_ot_p": 8, "main_ot_m": 7, "main_ot_f": 1, "per_main_ot_p": 4.54545455, "per_main_ot_m": 87.5, "per_main_ot_f": 12.5, "margwork_p": 365, "margwork_m": 145, "margwork_f": 220, "per_margwork_p": 34.43396226, "per_margwork_m": 39.7260274, "per_margwork_f": 60.2739726, "marg_cl_p": 8, "marg_cl_m": 3, "marg_cl_f": 5, "per_marg_cl_p": 2.19178082, "per_marg_cl_m": 37.5, "per_marg_cl_f": 62.5, "marg_al_p": 350, "marg_al_m": 139, "marg_al_f": 211, "per_marg_al_p": 95.89041096, "per_marg_al_m": 39.71428571, "per_marg_al_f": 60.28571429, "marg_hh_p": 1, "marg_hh_m": 0, "marg_hh_f": 1, "per_marg_hh_p": 0.2739726, "per_marg_hh_m": 0.0, "per_marg_hh_f": 100.0, "marg_ot_p": 6, "marg_ot_m": 3, "marg_ot_f": 3, "per_marg_ot_p": 1.64383562, "per_marg_ot_m": 50.0, "per_marg_ot_f": 50.0, "margwork_3_6_p": 365, "margwork_3_6_m": 145, "margwork_3_6_f": 220, "per_margwork_3_6_p": 100.0, "per_margwork_3_6_m": 39.7260274, "per_margwork_3_6_f": 60.2739726, "marg_cl_3_6_p": 8, "marg_cl_3_6_m": 3, "marg_cl_3_6_f": 5, "per_marg_cl_3_6_p": 2.19178082, "per_marg_cl_3_6_m": 37.5, "per_marg_cl_3_6_f": 62.5, "marg_al_3_6_p": 350, "marg_al_3_6_m": 139, "marg_al_3_6_f": 211, "per_marg_al_3_6_p": 95.89041096, "per_marg_al_3_6_m": 39.71428571, "per_marg_al_3_6_f": 60.28571429, "marg_hh_3_6_p": 1, "marg_hh_3_6_m": 0, "marg_hh_3_6_f": 1, "per_marg_hh_3_6_p": 0.2739726, "per_marg_hh_3_6_m": 0.0, "per_marg_hh_3_6_f": 100.0, "marg_ot_3_6_p": 6, "marg_ot_3_6_m": 3, "marg_ot_3_6_f": 3, "per_marg_ot_3_6_p": 1.64383562, "per_marg_ot_3_6_m": 50.0, "per_marg_ot_3_6_f": 50.0, "margwork_0_3_p": 0, "margwork_0_3_m": 0, "margwork_0_3_f": 0, "per_margwork_0_3_p": 0.0, "per_margwork_0_3_m": 0.0, "per_margwork_0_3_f": 0.0, "marg_cl_0_3_p": 0, "marg_cl_0_3_m": 0, "marg_cl_0_3_f": 0, "per_marg_cl_0_3_p": 0.0, "per_marg_cl_0_3_m": 0.0, "per_marg_cl_0_3_f": 0.0, "marg_al_0_3_p": 0, "marg_al_0_3_m": 0, "marg_al_0_3_f": 0, "per_marg_al_0_3_p": 0.0, "per_marg_al_0_3_m": 0.0, "per_marg_al_0_3_f": 0.0, "marg_hh_0_3_p": 0, "marg_hh_0_3_m": 0, "marg_hh_0_3_f": 0, "per_marg_hh_0_3_p": 0.0, "per_marg_hh_0_3_m": 0.0, "per_marg_hh_0_3_f": 0.0, "marg_ot_0_3_p": 0, "marg_ot_0_3_m": 0, "marg_ot_0_3_f": 0, "per_marg_ot_0_3_p": 0.0, "per_marg_ot_0_3_m": 0.0, "per_marg_ot_0_3_f": 0.0, "non_work_p": 519, "non_work_m": 266, "non_work_f": 253, "per_non_work_p": 48.96226415, "per_non_work_m": 51.25240848, "per_non_work_f": 48.74759152, "per_hc_tot_tot": 100, "per_hc_tot_god": 1.2, "per_hc_tot_liv": 98.8, "per_hc_tot_dil": 0.0, "per_hc_res_tot": 98.4, "per_hc_res_god": 0.8, "per_hc_res_liv": 97.6, "per_hc_res_dil": 0.0, "per_hc_oth_tot": 1.6, "per_hc_oth_god": 0.4, "per_hc_oth_liv": 1.2, "per_hc_oth_dil": 0.0, "per_mt_grsbam": 0.4, "per_mt_plastic": 0.0, "per_mt_h_tiles": 96.8, "per_mt_m_tiles": 0.0, "per_mt_b_brick": 0.0, "per_mt_stone": 0.0, "per_mt_asbstos": 1.2, "per_mt_concrte": 1.6, "per_mt_oth": 0.0, "per_mw_grsbam": 0.0, "per_mw_plastic": 0.0, "per_mw_mud": 57.3, "per_mw_wood": 0.0, "per_mw_no_mrtr": 0.0, "per_mw_st_mrtr": 0.0, "per_mw_asbstos": 0.0, "per_mw_b_brick": 42.7, "per_mw_concrte": 0.0, "per_mw_oth": 0.0, "per_mf_mud": 98.8, "per_mf_wood": 0.0, "per_mf_b_brick": 0.0, "per_mf_stone": 0.0, "per_mf_cement": 1.2, "per_mf_fl_tile": 0.0, "per_mf_oth": 0.0, "per_dw_n_exrm": 0.0, "per_dw_1_room": 35.5, "per_dw_2_room": 55.2, "per_dw_3_room": 5.6, "per_dw_4_room": 3.2, "per_dw_5_room": 0.0, "per_dw_6_room": 0.4, "per_hhsize_1": 1.6, "per_hhsize_2": 19.0, "per_hhsize_3": 10.9, "per_hhsize_4": 22.6, "per_hhsize_5": 19.0, "per_hhsize_6_8": 26.2, "per_hhsize_9p": 0.8, "per_ow_owned": 100.0, "per_ow_rented": 0.0, "per_ow_oth": 0.0, "per_mc_none": 6.0, "per_mcouple_1": 91.1, "per_mcouple_2": 2.4, "per_mcouple_3": 0.4, "per_mcouple_4": 0.0, "per_mcouple_5p": 0.0, "per_dw_t_ts": 0.0, "per_dw_t_unts": 0.0, "per_dw_c_well": 0.0, "per_dw_unc_wel": 0.0, "per_dw_hpump": 95.6, "per_dw_tw_bore": 4.4, "per_dw_spring": 0.0, "per_dw_rivcan": 0.0, "per_dw_tank": 0.0, "per_dw_oth": 0.0, "per_loc_dw_wp": 0.0, "per_loc_dw_np": 67.7, "per_loc_dw_aw": 32.3, "per_light_elec": 82.7, "per_light_kero": 17.3, "per_light_solr": 0.0, "per_light_oil": 0.0, "per_light_oth": 0.0, "per_light_no": 0.0, "per_hh_latrine": 1.2, "per_fl_sewer": 0.0, "per_fl_septict": 1.2, "per_fl_othsys": 0.0, "per_pl_wslab": 0.0, "per_pl_without": 0.0, "per_ns_open": 0.0, "per_sl_ns_hum": 0.0, "per_sl_ns_anml": 0.0, "per_hh_no_lat": 98.8, "per_as_pub": 0.0, "per_as_open": 98.8, "per_hh_bathrm": 0.4, "per_hh_en_wrf": 0.0, "per_hh_no_btrm": 99.6, "per_wwoc_drain": 0.0, "per_wwoc_open": 0.4, "per_wwoc_nodrn": 99.6, "per_cook_fire": 99.2, "per_cook_resdu": 0.0, "per_cook_cwdng": 0.0, "per_cook_coal": 0.0, "per_cook_kero": 0.0, "per_cook_lpng": 0.8, "per_cook_elec": 0.0, "per_cook_biogs": 0.0, "per_cook_oth": 0.0, "per_cook_no": 0.0, "per_kf_inside": 100.0, "per_kf_in_has": 2.4, "per_kf_in_does": 97.6, "per_kf_outside": 0.0, "per_kf_out_has": 0.0, "per_kf_out_dos": 0.0, "per_kf_no_cook": 0.0, "per_hh_banking": 99.6, "per_hh_radio": 42.7, "per_hh_tv": 6.0, "per_hh_cmp_int": 0.0, "per_hh_cmp_wnt": 0.0, "per_hh_ph_ll": 0.0, "per_hh_ph_mob": 14.5, "per_hh_ph_bth": 0.0, "per_hh_bcycl": 87.9, "per_hh_2wheel": 0.8, "per_hh_4wheel": 0.0, "per_hh_tvcomp": 0.0, "per_hh_no_ast": 8.9, "per_hs_perma": 42.3, "per_hs_sperma": 57.7, "per_hs_temp": 0.0, "per_hs_servc": 0.0, "per_hs_nservc": 0.0, "per_hs_unclss": 0.0, "avghhsz_cy": 4.29149798, "st_areashape": 4040080.38869552, "st_lengthshape": 10825.66200973566}, "geometry": {"type": "Polygon", "coordinates": [[[81.93312417623021, 22.045560255618103], [81.93199910910039, 22.04572561111836], [81.93073962795293, 22.04627996399603], [81.92868879392222, 22.047992652150196], [81.92702572127716, 22.049713161934747], [81.9263242089055, 22.05073723495344], [81.92625253412558, 22.05149257228943], [81.92624788534401, 22.05149189205472], [81.92501445264482, 22.051309121936537], [81.92261421169783, 22.0511494621367], [81.92086845541908, 22.050831035381055], [81.918726693017, 22.0502273499976], [81.91682680919168, 22.04983450662944], [81.91509895633655, 22.04909646134287], [81.91410733034893, 22.04884380999538], [81.914103891598, 22.04884181421421], [81.91245327319606, 22.04787168971432], [81.91118314431753, 22.04747771576172], [81.90878938291868, 22.04598438872041], [81.90689945063008, 22.04433976729875], [81.9067075767736, 22.043767928745794], [81.9066353836658, 22.04367190130115], [81.90670903923089, 22.04376662065874], [81.9067758541251, 22.04385249475872], [81.90698904410496, 22.043974362385253], [81.90734745483533, 22.043992394974868], [81.90752185106965, 22.04389749591704], [81.90766221732437, 22.043513680023736], [81.90767661821667, 22.043233731960246], [81.90764269513662, 22.04297179691161], [81.90770563290202, 22.042872501602655], [81.90783637909837, 22.04279112489343], [81.90815610837262, 22.042858803653964], [81.90863566680052, 22.043228995018485], [81.90895536732867, 22.043355408610527], [81.90911040217367, 22.043341847262944], [81.90936217928656, 22.043034696172278], [81.90936675620293, 22.042086433207597], [81.90968147377617, 22.041734206784145], [81.9101173974375, 22.04177923609381], [81.91065028525055, 22.04194622135873], [81.91089240188089, 22.04194610395414], [81.91108127626262, 22.04166616278136], [81.91109083523556, 22.041183012700436], [81.91176392221672, 22.040514540611806], [81.91189455881859, 22.04031137430443], [81.91184115217831, 22.0396340393181], [81.91154078788665, 22.0392547807365], [81.91114351873205, 22.038907131972618], [81.9109545626036, 22.038591090761408], [81.91094966409032, 22.038491823187844], [81.91102711413919, 22.03836536778086], [81.911361264967, 22.038067292922847], [81.9113854269532, 22.037814380404615], [81.91105597072108, 22.037471298700805], [81.91083314630978, 22.0373448656972], [81.91064899616812, 22.037155252618202], [81.91052304428044, 22.03696113195504], [81.91049392628884, 22.036581847892123], [81.91058582933228, 22.03628831410108], [81.91079882168279, 22.035936077411446], [81.91110386979035, 22.035552205786338], [81.91141865833049, 22.035281170142063], [81.9116462860336, 22.035222410100165], [81.91199977938614, 22.035222361803772], [81.91220327923901, 22.03529002419891], [81.91257137740142, 22.035560898283553], [81.91260531126127, 22.035633103695293], [81.91263450111812, 22.036044048404488], [81.91274116617664, 22.03640522374688], [81.91285254918702, 22.036554237607398], [81.91368088301556, 22.036852058351446], [81.91410727914496, 22.037389345166844], [81.91430094244548, 22.03746606195626], [81.91468846757421, 22.037538212271837], [81.91518240533485, 22.03730328312182], [81.91555524929693, 22.037059297293673], [81.91608301042464, 22.03635481271916], [81.91628151384792, 22.036187696786303], [81.91668838509462, 22.03617857798992], [81.91697898020756, 22.036408726038637], [81.91735227871713, 22.037352373175157], [81.91761395167117, 22.037758709829927], [81.91791430069148, 22.03806117938862], [81.91830183839664, 22.038336584600607], [81.91875230578238, 22.038512494397008], [81.91893152327485, 22.03845829793581], [81.91915424707479, 22.038327329383463], [81.91943508738207, 22.038011132831794], [81.91949790028168, 22.03751892983549], [81.9196237183204, 22.037162172230627], [81.92004489164471, 22.036638261687443], [81.92012225276034, 22.03624989876947], [81.92019485190667, 22.036082814355], [81.92040309576258, 22.036055682770552], [81.92093103026514, 22.03614130591324], [81.92118288103988, 22.03609161840025], [81.92158961484435, 22.035843138938997], [81.9222654183309, 22.035885275683828], [81.9224565762301, 22.035675808399777], [81.92262596256006, 22.03535513018618], [81.92278704306693, 22.03521619402141], [81.92305691584289, 22.035183484036253], [81.92361875096768, 22.035278060854935], [81.92432581133455, 22.035047573725485], [81.92471329064921, 22.035002319111193], [81.92482464132024, 22.035033950794922], [81.92517834577683, 22.035264103202707], [81.9255565517828, 22.036424468031278], [81.92588599364191, 22.03693910823677], [81.92618155104847, 22.037182892762367], [81.926481872221, 22.037367966012443], [81.9266901573994, 22.0374175131866], [81.92700013007136, 22.0373451613], [81.92719380864322, 22.037132893358052], [81.92726752259883, 22.036773291153207], [81.92675249329359, 22.03567000618976], [81.92695104073434, 22.03548032008814], [81.92814729575716, 22.035380557377277], [81.92862686496485, 22.035561044837763], [81.92899482299008, 22.035443580752517], [81.92909646556782, 22.035231284978106], [81.92901399034328, 22.03471202540903], [81.92879590724006, 22.034364437100226], [81.92859239570909, 22.034283163750406], [81.92779820504786, 22.034315022922428], [81.92752689766239, 22.03425643401611], [81.92739612631323, 22.034139067107294], [81.92732331785943, 22.03380039482732], [81.92785583107501, 22.033000985172443], [81.927928346678, 22.032721031304316], [81.9280347988358, 22.032540348699268], [81.92862073036977, 22.03216537874329], [81.92915827864253, 22.032079442593197], [81.92979761412181, 22.03214695160555], [81.92995737590184, 22.03220106887709], [81.93038373340366, 22.032517002778846], [81.93047589606024, 22.03284216990146], [81.93039849272377, 22.033158272245146], [81.93007915331839, 22.03383566403314], [81.9300840859676, 22.034056909297234], [81.9301422545772, 22.03415172502154], [81.93052497461746, 22.03449481560363], [81.93112559989451, 22.0347293472209], [81.93146477320307, 22.034964090787625], [81.93174102581422, 22.035560045604463], [81.93213354557592, 22.0360114518567], [81.93229341605209, 22.036079134691942], [81.9322320269822, 22.038147791373763], [81.93279114380495, 22.041269613615846], [81.93285348688565, 22.043646871106848], [81.93312395344803, 22.04555831974037], [81.93312417623021, 22.045560255618103]]]}}]}