{"type": "FeatureCollection", "features": [{"type": "Feature", "properties": {"premiumdata.sde.IN_Village_PCA.area": 8.79023725, "objectid": 248685, "id": "234023531564097", "name": "Bachhkhal", "subdistrict": "Khategaon", "district": "Dewas", "state": "Madhya Pradesh", "country": "India", "censusname": "Bachhkhal", "villagename_locallang": null, "lgd_villagename": "Bachhkhal", "lgd_villagecode": 474268, "lgd_subdistrictcode": 3531, "lgd_districtcode": 402, "lgd_statecode": 23, "censuscode2001": "02851600", "censuscode2011": "474268", "censuscode2021": null, "level": "Village", "tru": "Rural", "no_hh": 275, "tot_p": 1411, "tot_m": 739, "tot_f": 672, "per_tot_m": 52.37420269, "per_tot_f": 47.62579731, "p_06": 212, "m_06": 105, "f_06": 107, "per_p_06": 15.0248051, "per_m_06": 49.52830189, "per_f_06": 50.47169811000001, "p_sc": 270, "m_sc": 141, "f_sc": 129, "per_p_sc": 19.13536499, "per_m_sc": 52.22222222, "per_f_sc": 47.77777778, "p_st": 203, "m_st": 101, "f_st": 102, "per_p_st": 14.3869596, "per_m_st": 49.75369458, "per_f_st": 50.24630542, "p_lit": 890, "m_lit": 554, "f_lit": 336, "per_p_lit": 63.07583274, "per_m_lit": 62.24719101, "per_f_lit": 37.75280899, "p_ill": 521, "m_ill": 185, "f_ill": 336, "per_p_ill": 36.92416726, "per_m_ill": 35.50863724, "per_f_ill": 64.49136276, "tot_work_p": 1002, "tot_work_m": 520, "tot_work_f": 482, "per_tot_work_p": 71.01346563, "per_tot_work_m": 51.89620758, "per_tot_work_f": 48.10379242, "mainwork_p": 375, "mainwork_m": 362, "mainwork_f": 13, "per_mainwork_p": 26.57689582, "per_mainwork_m": 96.53333333, "per_mainwork_f": 3.46666667, "main_cl_p": 287, "main_cl_m": 286, "main_cl_f": 1, "per_main_cl_p": 76.53333333, "per_main_cl_m": 99.65156794, "per_main_cl_f": 0.34843206, "main_al_p": 60, "main_al_m": 54, "main_al_f": 6, "per_main_al_p": 16.0, "per_main_al_m": 90.0, "per_main_al_f": 10.0, "main_hh_p": 0, "main_hh_m": 0, "main_hh_f": 0, "per_main_hh_p": 0.0, "per_main_hh_m": 0.0, "per_main_hh_f": 0.0, "main_ot_p": 28, "main_ot_m": 22, "main_ot_f": 6, "per_main_ot_p": 7.46666667, "per_main_ot_m": 78.57142857, "per_main_ot_f": 21.42857143, "margwork_p": 627, "margwork_m": 158, "margwork_f": 469, "per_margwork_p": 44.43656981, "per_margwork_m": 25.19936204, "per_margwork_f": 74.80063796, "marg_cl_p": 344, "marg_cl_m": 76, "marg_cl_f": 268, "per_marg_cl_p": 54.86443381, "per_marg_cl_m": 22.09302326, "per_marg_cl_f": 77.90697674, "marg_al_p": 275, "marg_al_m": 74, "marg_al_f": 201, "per_marg_al_p": 43.85964912, "per_marg_al_m": 26.90909091, "per_marg_al_f": 73.09090909000001, "marg_hh_p": 3, "marg_hh_m": 3, "marg_hh_f": 0, "per_marg_hh_p": 0.4784689, "per_marg_hh_m": 100.0, "per_marg_hh_f": 0.0, "marg_ot_p": 5, "marg_ot_m": 5, "marg_ot_f": 0, "per_marg_ot_p": 0.79744817, "per_marg_ot_m": 100.0, "per_marg_ot_f": 0.0, "margwork_3_6_p": 439, "margwork_3_6_m": 83, "margwork_3_6_f": 356, "per_margwork_3_6_p": 70.01594896, "per_margwork_3_6_m": 18.90660592, "per_margwork_3_6_f": 81.09339408, "marg_cl_3_6_p": 207, "marg_cl_3_6_m": 29, "marg_cl_3_6_f": 178, "per_marg_cl_3_6_p": 33.01435407, "per_marg_cl_3_6_m": 14.00966184, "per_marg_cl_3_6_f": 85.99033816000001, "marg_al_3_6_p": 226, "marg_al_3_6_m": 48, "marg_al_3_6_f": 178, "per_marg_al_3_6_p": 36.0446571, "per_marg_al_3_6_m": 21.23893805, "per_marg_al_3_6_f": 78.76106195, "marg_hh_3_6_p": 2, "marg_hh_3_6_m": 2, "marg_hh_3_6_f": 0, "per_marg_hh_3_6_p": 0.31897927, "per_marg_hh_3_6_m": 100.0, "per_marg_hh_3_6_f": 0.0, "marg_ot_3_6_p": 4, "marg_ot_3_6_m": 4, "marg_ot_3_6_f": 0, "per_marg_ot_3_6_p": 0.63795853, "per_marg_ot_3_6_m": 100.0, "per_marg_ot_3_6_f": 0.0, "margwork_0_3_p": 188, "margwork_0_3_m": 75, "margwork_0_3_f": 113, "per_margwork_0_3_p": 29.98405104, "per_margwork_0_3_m": 39.89361702, "per_margwork_0_3_f": 60.10638298, "marg_cl_0_3_p": 137, "marg_cl_0_3_m": 47, "marg_cl_0_3_f": 90, "per_marg_cl_0_3_p": 21.85007974, "per_marg_cl_0_3_m": 34.30656934, "per_marg_cl_0_3_f": 65.69343066, "marg_al_0_3_p": 49, "marg_al_0_3_m": 26, "marg_al_0_3_f": 23, "per_marg_al_0_3_p": 7.81499203, "per_marg_al_0_3_m": 53.06122449, "per_marg_al_0_3_f": 46.93877551, "marg_hh_0_3_p": 1, "marg_hh_0_3_m": 1, "marg_hh_0_3_f": 0, "per_marg_hh_0_3_p": 0.15948963, "per_marg_hh_0_3_m": 100.0, "per_marg_hh_0_3_f": 0.0, "marg_ot_0_3_p": 1, "marg_ot_0_3_m": 1, "marg_ot_0_3_f": 0, "per_marg_ot_0_3_p": 0.15948963, "per_marg_ot_0_3_m": 100.0, "per_marg_ot_0_3_f": 0.0, "non_work_p": 409, "non_work_m": 219, "non_work_f": 190, "per_non_work_p": 28.98653437, "per_non_work_m": 53.54523227, "per_non_work_f": 46.45476773, "per_hc_tot_tot": 100, "per_hc_tot_god": 16.9, "per_hc_tot_liv": 68.5, "per_hc_tot_dil": 14.6, "per_hc_res_tot": 98.5, "per_hc_res_god": 16.5, "per_hc_res_liv": 67.4, "per_hc_res_dil": 14.6, "per_hc_oth_tot": 1.5, "per_hc_oth_god": 0.4, "per_hc_oth_liv": 1.1, "per_hc_oth_dil": 0.0, "per_mt_grsbam": 7.9, "per_mt_plastic": 0.7, "per_mt_h_tiles": 22.1, "per_mt_m_tiles": 18.7, "per_mt_b_brick": 0.0, "per_mt_stone": 2.2, "per_mt_asbstos": 40.4, "per_mt_concrte": 6.4, "per_mt_oth": 1.5, "per_mw_grsbam": 16.9, "per_mw_plastic": 0.7, "per_mw_mud": 56.6, "per_mw_wood": 0.4, "per_mw_no_mrtr": 1.1, "per_mw_st_mrtr": 1.9, "per_mw_asbstos": 0.4, "per_mw_b_brick": 22.1, "per_mw_concrte": 0.0, "per_mw_oth": 0.0, "per_mf_mud": 86.1, "per_mf_wood": 0.4, "per_mf_b_brick": 1.1, "per_mf_stone": 1.9, "per_mf_cement": 8.2, "per_mf_fl_tile": 2.2, "per_mf_oth": 0.0, "per_dw_n_exrm": 0.7, "per_dw_1_room": 41.2, "per_dw_2_room": 37.8, "per_dw_3_room": 12.4, "per_dw_4_room": 6.4, "per_dw_5_room": 0.4, "per_dw_6_room": 1.1, "per_hhsize_1": 2.2, "per_hhsize_2": 7.9, "per_hhsize_3": 9.7, "per_hhsize_4": 25.5, "per_hhsize_5": 19.5, "per_hhsize_6_8": 30.0, "per_hhsize_9p": 5.2, "per_ow_owned": 96.6, "per_ow_rented": 1.1, "per_ow_oth": 2.2, "per_mc_none": 9.7, "per_mcouple_1": 64.0, "per_mcouple_2": 20.6, "per_mcouple_3": 5.6, "per_mcouple_4": 0.0, "per_mcouple_5p": 0.0, "per_dw_t_ts": 0.4, "per_dw_t_unts": 0.4, "per_dw_c_well": 0.0, "per_dw_unc_wel": 30.0, "per_dw_hpump": 47.9, "per_dw_tw_bore": 21.3, "per_dw_spring": 0.0, "per_dw_rivcan": 0.0, "per_dw_tank": 0.0, "per_dw_oth": 0.0, "per_loc_dw_wp": 27.0, "per_loc_dw_np": 73.0, "per_loc_dw_aw": 0.0, "per_light_elec": 62.5, "per_light_kero": 37.5, "per_light_solr": 0.0, "per_light_oil": 0.0, "per_light_oth": 0.0, "per_light_no": 0.0, "per_hh_latrine": 36.7, "per_fl_sewer": 3.0, "per_fl_septict": 32.6, "per_fl_othsys": 0.7, "per_pl_wslab": 0.0, "per_pl_without": 0.0, "per_ns_open": 0.0, "per_sl_ns_hum": 0.0, "per_sl_ns_anml": 0.4, "per_hh_no_lat": 63.3, "per_as_pub": 0.0, "per_as_open": 63.3, "per_hh_bathrm": 24.3, "per_hh_en_wrf": 23.2, "per_hh_no_btrm": 52.4, "per_wwoc_drain": 3.4, "per_wwoc_open": 9.4, "per_wwoc_nodrn": 87.3, "per_cook_fire": 92.1, "per_cook_resdu": 0.7, "per_cook_cwdng": 0.0, "per_cook_coal": 0.0, "per_cook_kero": 0.0, "per_cook_lpng": 2.2, "per_cook_elec": 0.0, "per_cook_biogs": 4.5, "per_cook_oth": 0.0, "per_cook_no": 0.4, "per_kf_inside": 97.8, "per_kf_in_has": 22.1, "per_kf_in_does": 75.7, "per_kf_outside": 1.9, "per_kf_out_has": 0.0, "per_kf_out_dos": 1.9, "per_kf_no_cook": 0.4, "per_hh_banking": 44.9, "per_hh_radio": 3.0, "per_hh_tv": 27.7, "per_hh_cmp_int": 0.4, "per_hh_cmp_wnt": 1.1, "per_hh_ph_ll": 3.0, "per_hh_ph_mob": 37.5, "per_hh_ph_bth": 4.5, "per_hh_bcycl": 26.6, "per_hh_2wheel": 26.6, "per_hh_4wheel": 2.2, "per_hh_tvcomp": 0.0, "per_hh_no_ast": 31.5, "per_hs_perma": 25.5, "per_hs_sperma": 64.4, "per_hs_temp": 8.6, "per_hs_servc": 1.9, "per_hs_nservc": 6.7, "per_hs_unclss": 1.5, "avghhsz_cy": 5.13090909, "st_areashape": 10371640.97660666, "st_lengthshape": 16638.751301940898}, "geometry": {"type": "Polygon", "coordinates": [[[77.06011101712963, 22.67536140609483], [77.06013515216638, 22.675907792138734], [77.06013515036972, 22.675911763282443], [77.06013509377586, 22.676020694917447], [77.0596970042764, 22.6763365581244], [77.0585143973577, 22.67691850957088], [77.05826877370453, 22.67703429017936], [77.05794017087192, 22.677189184148485], [77.05784271893492, 22.67723473375383], [77.05736107821218, 22.677459854047395], [77.0563342005362, 22.677956123632445], [77.05570147755571, 22.678294447840607], [77.05544359549216, 22.678407231784945], [77.05502509465579, 22.678434110075543], [77.05471362718723, 22.678537842755585], [77.05465533011856, 22.678438449989006], [77.05454351052693, 22.678217194627006], [77.05449012275126, 22.678032067389736], [77.05446097421694, 22.6778017336503], [77.05441732417896, 22.677594049106368], [77.0543152063924, 22.677417922519712], [77.05420829789044, 22.677291432439922], [77.05405265039442, 22.67719199318214], [77.05376561799991, 22.677079044951153], [77.0533812567376, 22.676929856795944], [77.05320127837211, 22.6768620842577], [77.05304077368535, 22.67675361580088], [77.05295329843793, 22.676663234057806], [77.05289003997393, 22.676563928621714], [77.05285118963452, 22.676473569133147], [77.05284638274946, 22.676374292570245], [77.0528756085389, 22.676283966111676], [77.05290483432836, 22.6761981511549], [77.0529243160919, 22.676139498359944], [77.05292435741441, 22.67606278684526], [77.05287576304912, 22.676008522886388], [77.05281743094618, 22.675976907097787], [77.05263260347476, 22.67588656960207], [77.05254015156069, 22.6758232575604], [77.05249154282235, 22.675791647531227], [77.05246724968211, 22.675755537523354], [77.05245259276992, 22.675705799111288], [77.05242835442691, 22.675570414422538], [77.05242841281742, 22.67546653610174], [77.05237015168137, 22.675308480498618], [77.05229230906873, 22.67520907544473], [77.05219022541816, 22.675154878287376], [77.0521172058603, 22.675123254013148], [77.0519809628727, 22.675109650425657], [77.0517377134668, 22.675150144551818], [77.05161603306833, 22.67518167101193], [77.05150408591595, 22.675195245581502], [77.0514214175536, 22.67520422981227], [77.05134352194038, 22.675195166008997], [77.05128518624414, 22.67517248287519], [77.05122686402262, 22.6751228188509], [77.05116844927466, 22.675059613382228], [77.05114417410073, 22.674996336600646], [77.05114906991902, 22.67493767666056], [77.05118318344195, 22.674806739825527], [77.05120268676507, 22.674711987757135], [77.05118328045998, 22.67463517597791], [77.05113469687448, 22.674562952856945], [77.05094016400473, 22.674445441108656], [77.05083915563758, 22.67437323860991], [77.05081369199256, 22.674355037122183], [77.05073583321023, 22.67428279893373], [77.05069210412051, 22.67422411547968], [77.05066296456934, 22.674165347454107], [77.05066300319687, 22.674097661411604], [77.05069222359646, 22.67402087166823], [77.05071657063559, 22.67395770962275], [77.05073483248698, 22.67391535180474], [77.05074578654359, 22.67388994473341], [77.05074096438715, 22.673817742771085], [77.05072155538709, 22.673749955432612], [77.05068266731844, 22.673727374013072], [77.05062918432138, 22.67371832337442], [77.05058044802229, 22.673740860035466], [77.05051221019667, 22.673797877630392], [77.05013754624785, 22.67411093603147], [77.05002554070498, 22.67422829555138], [77.04996717805929, 22.674250828813072], [77.04985039617402, 22.67421918195048], [77.04934937070578, 22.674029314712673], [77.04924233823628, 22.673961481889926], [77.04918400343837, 22.673934378094046], [77.04916943725604, 22.67389827174159], [77.04915004622232, 22.673798896334386], [77.04916826405629, 22.673088695362086], [77.0491698513794, 22.673026816013916], [77.04915529597686, 22.672972660267703], [77.04908727734018, 22.672877772651326], [77.04906847649958, 22.672860328574416], [77.0490094203545, 22.672805532855893], [77.04891704928876, 22.672778412253685], [77.04876134969048, 22.672782846011245], [77.04861813487798, 22.67279839856066], [77.04859591594774, 22.67280081147268], [77.048454786125, 22.672832326039465], [77.04831366618377, 22.672845882605873], [77.04819697502839, 22.672832286252547], [77.04808992279597, 22.67280055202868], [77.04802178378506, 22.67274185384918], [77.04794402112248, 22.672678640652023], [77.04790029203274, 22.672624377011893], [77.04787105546352, 22.67256118614082], [77.047822488946, 22.672466309015398], [77.04778851017038, 22.67236701794704], [77.04772304454575, 22.672212984729914], [77.04771557685078, 22.67219541457593], [77.04764268485367, 22.67212308655784], [77.04764114154801, 22.672122740078212], [77.0475015936585, 22.672091425941893], [77.04735069645373, 22.672195226416033], [77.04688360484532, 22.67219498189107], [77.04633891227111, 22.671869617409808], [77.04630514549793, 22.671264563713574], [77.0463007069221, 22.670569277423766], [77.04624253561755, 22.670280267560337], [77.04615017712824, 22.670076973972403], [77.04613083190861, 22.66990539923487], [77.04615038194414, 22.669742870210854], [77.04620393500977, 22.669630086601174], [77.04624300723306, 22.66934563959622], [77.04627720699425, 22.6690792391842], [77.04627726628306, 22.66898438617569], [77.0462627162704, 22.668921204403624], [77.04621907162233, 22.668731567731655], [77.04612669247176, 22.668559954009936], [77.04600514143065, 22.668388324324038], [77.04595659377776, 22.668266370895413], [77.04593719825246, 22.66818053268583], [77.04591295631623, 22.668067617650745], [77.04591788447387, 22.667959322115138], [77.04592281622476, 22.66784642181859], [77.04598125163402, 22.6677019617579], [77.0460689074428, 22.667480805953584], [77.04610302815225, 22.667340846584427], [77.04610308744105, 22.667245992373935], [77.04607883472501, 22.66715112649287], [77.04601568944875, 22.667047308109968], [77.04597672322666, 22.66699755742176], [77.04590383033124, 22.666929833856056], [77.04582109908685, 22.66688466379411], [77.04573360766975, 22.666839494546238], [77.0455390667152, 22.66676258800488], [77.04543201448277, 22.66673545708968], [77.04537371112588, 22.66666322732236], [77.04536888986776, 22.666599958272297], [77.0453835261187, 22.666518741976677], [77.0454175992174, 22.6664600071228], [77.04545653759173, 22.666392340488148], [77.04548089720728, 22.666315549746866], [77.04550038166579, 22.666256897699416], [77.04550040592031, 22.666216286554796], [77.04548101937814, 22.666116910555747], [77.0453545806036, 22.665990401764308], [77.04523298105349, 22.66590008836185], [77.04519411274778, 22.66585485247488], [77.0451601133109, 22.66579617204663], [77.04515527857802, 22.665751045545143], [77.04516990225254, 22.66569229958641], [77.04517481064725, 22.665615590518186], [77.04517971904198, 22.665543302135596], [77.04517489239394, 22.665484638981788], [77.04515549237706, 22.665407824522156], [77.04510195098949, 22.665340108461123], [77.0450387805604, 22.665276901800365], [77.04498533708922, 22.66521360807177], [77.04493178671852, 22.665159428517413], [77.04475671225613, 22.665059969687682], [77.04461549529685, 22.665240574328823], [77.04448409333035, 22.665439144328886], [77.04432336675971, 22.665719012923518], [77.04416265007055, 22.665980831701393], [77.04403119330682, 22.66610710757093], [77.04383161999003, 22.666301218310874], [77.04370501951871, 22.66643210192431], [77.04366214293023, 22.66648675015199], [77.04362716343138, 22.66653133428972], [77.0435736157556, 22.666630671028766], [77.04352977796974, 22.666752574517723], [77.04347609913992, 22.66690154661631], [77.04341281282818, 22.66702344157527], [77.04332510401876, 22.667163369768915], [77.04320347033267, 22.667285232995976], [77.04289184386231, 22.66766880225303], [77.04273114783437, 22.667890007489728], [77.04263378662725, 22.668070545407257], [77.04259960213743, 22.668305264736322], [77.04254588468007, 22.668512990700897], [77.04248740166013, 22.66872513449015], [77.04234618020926, 22.668905646441072], [77.04215629612114, 22.669144885252678], [77.04198106535192, 22.669280252245585], [77.0419177583789, 22.66942922159933], [77.0418056935472, 22.66979033956454], [77.04169847871972, 22.670011572878856], [77.04156213961244, 22.67015598574625], [77.04144048346846, 22.670304921821455], [77.04135275220116, 22.670476436377854], [77.04132347430944, 22.67063444781508], [77.04134283659707, 22.67076992358265], [77.04146421965321, 22.671194437603233], [77.0414738046773, 22.671411132067238], [77.04142988963629, 22.671645938517226], [77.04138216214527, 22.671802696967355], [77.04137628895992, 22.671821986311215], [77.04132940408864, 22.671925683376795], [77.04128854062468, 22.672016063268735], [77.04121552555837, 22.672137951196266], [77.04120662774548, 22.672211893900023], [77.04119108150117, 22.67234108921248], [77.04120061262634, 22.672639099854855], [77.0412004814723, 22.672837831555636], [77.0411469023555, 22.67298220083157], [77.04103968393476, 22.673203433971047], [77.04088881188281, 22.673411014093105], [77.0408302327431, 22.67360971234865], [77.0407571341335, 22.67385794799675], [77.0407470765956, 22.67436370477387], [77.04058158895394, 22.674462884155055], [77.04011944257118, 22.674322737121987], [77.04001918519559, 22.674343479147204], [77.03998297680145, 22.674350969782687], [77.03984525788186, 22.674379461878612], [77.0397935104299, 22.67439023986982], [77.03952424671171, 22.674435945406337], [77.03950152652153, 22.674439802206596], [77.03933119157062, 22.67451190437532], [77.03920945188332, 22.674629250289957], [77.03908766997522, 22.674809769390716], [77.03901784392816, 22.67498691056251], [77.038995123738, 22.675044548471245], [77.03891703858024, 22.67546894979567], [77.03886330225826, 22.67584363631092], [77.03883889862524, 22.675979088697673], [77.03878524045672, 22.676082935133003], [77.03868791248723, 22.676200203446943], [77.03855646201173, 22.67629046862406], [77.0383083203808, 22.676362616236624], [77.03822236957441, 22.676390553398665], [77.03837999965226, 22.675729999830413], [77.0365674689035, 22.67466811580238], [77.03540999954136, 22.67398999976225], [77.03317000007476, 22.6726400000354], [77.03120000004657, 22.671689999599305], [77.02889000025976, 22.671250000701537], [77.02505999980825, 22.67153000001272], [77.02527999991628, 22.669499999310005], [77.02624999986179, 22.66333000053385], [77.02633999937514, 22.66136999971674], [77.02566999990363, 22.657859999405684], [77.02491000002043, 22.6537099997608], [77.025550000253, 22.653729999622488], [77.02928000024711, 22.653149999963883], [77.03606999986543, 22.64930999998669], [77.03702000061776, 22.64862000034433], [77.03776000040948, 22.6503899997471], [77.03962999998022, 22.652389999961045], [77.04161000005413, 22.65262999958745], [77.04441000028572, 22.652669999622557], [77.05246000027776, 22.651220000437636], [77.06212999959529, 22.65063000038252], [77.06214000053937, 22.651039999944842], [77.06239999993205, 22.65824999972832], [77.06242000002354, 22.663299999937188], [77.06242000002354, 22.664081391028645], [77.06210609542559, 22.66413761850752], [77.06171203145992, 22.66420513787276], [77.06167303200016, 22.66420963242049], [77.06164352144475, 22.66509461031191], [77.06167232502605, 22.665844145930507], [77.0616622495218, 22.666557474671237], [77.06081561251935, 22.666782918365787], [77.05998362344592, 22.666881923350566], [77.0598423040787, 22.667500434936148], [77.05959864593935, 22.66837629336115], [77.05943283400588, 22.669148307849415], [77.05936903475607, 22.670299687257106], [77.05938299098234, 22.671536837626945], [77.059474883246, 22.67289144028502], [77.05983914739876, 22.674115116935535], [77.060043078443, 22.675086025669174], [77.06011101712963, 22.67536140609483]]]}}]}