{"type": "FeatureCollection", "features": [{"type": "Feature", "properties": {"premiumdata.sde.IN_Village_PCA.area": 3.08359192, "objectid": 110808, "id": "274723978643184", "name": "Dhadi", "subdistrict": "Nandura", "district": "Buldhana", "state": "Maharashtra", "country": "India", "censusname": "Dhadi", "villagename_locallang": null, "lgd_villagename": "Dhadi", "lgd_villagecode": 528525, "lgd_subdistrictcode": 3978, "lgd_districtcode": 472, "lgd_statecode": 27, "censuscode2001": "00352700", "censuscode2011": "528525", "censuscode2021": null, "level": "Village", "tru": "Rural", "no_hh": 116, "tot_p": 520, "tot_m": 270, "tot_f": 250, "per_tot_m": 51.92307692, "per_tot_f": 48.07692308, "p_06": 58, "m_06": 26, "f_06": 32, "per_p_06": 11.15384615, "per_m_06": 44.82758621, "per_f_06": 55.17241379, "p_sc": 206, "m_sc": 104, "f_sc": 102, "per_p_sc": 39.61538462, "per_m_sc": 50.48543689, "per_f_sc": 49.51456311, "p_st": 0, "m_st": 0, "f_st": 0, "per_p_st": 0.0, "per_m_st": 0.0, "per_f_st": 0.0, "p_lit": 380, "m_lit": 219, "f_lit": 161, "per_p_lit": 73.07692308, "per_m_lit": 57.63157895000001, "per_f_lit": 42.36842105, "p_ill": 140, "m_ill": 51, "f_ill": 89, "per_p_ill": 26.92307692, "per_m_ill": 36.42857143, "per_f_ill": 63.57142857, "tot_work_p": 256, "tot_work_m": 149, "tot_work_f": 107, "per_tot_work_p": 49.23076923, "per_tot_work_m": 58.203125, "per_tot_work_f": 41.796875, "mainwork_p": 255, "mainwork_m": 148, "mainwork_f": 107, "per_mainwork_p": 49.03846154, "per_mainwork_m": 58.03921569, "per_mainwork_f": 41.96078431, "main_cl_p": 106, "main_cl_m": 74, "main_cl_f": 32, "per_main_cl_p": 41.56862745, "per_main_cl_m": 69.81132075000001, "per_main_cl_f": 30.18867925, "main_al_p": 138, "main_al_m": 67, "main_al_f": 71, "per_main_al_p": 54.11764706, "per_main_al_m": 48.55072464, "per_main_al_f": 51.44927536, "main_hh_p": 1, "main_hh_m": 1, "main_hh_f": 0, "per_main_hh_p": 0.39215686, "per_main_hh_m": 100.0, "per_main_hh_f": 0.0, "main_ot_p": 10, "main_ot_m": 6, "main_ot_f": 4, "per_main_ot_p": 3.92156863, "per_main_ot_m": 60.0, "per_main_ot_f": 40.0, "margwork_p": 1, "margwork_m": 1, "margwork_f": 0, "per_margwork_p": 0.19230769, "per_margwork_m": 100.0, "per_margwork_f": 0.0, "marg_cl_p": 0, "marg_cl_m": 0, "marg_cl_f": 0, "per_marg_cl_p": 0.0, "per_marg_cl_m": 0.0, "per_marg_cl_f": 0.0, "marg_al_p": 0, "marg_al_m": 0, "marg_al_f": 0, "per_marg_al_p": 0.0, "per_marg_al_m": 0.0, "per_marg_al_f": 0.0, "marg_hh_p": 0, "marg_hh_m": 0, "marg_hh_f": 0, "per_marg_hh_p": 0.0, "per_marg_hh_m": 0.0, "per_marg_hh_f": 0.0, "marg_ot_p": 1, "marg_ot_m": 1, "marg_ot_f": 0, "per_marg_ot_p": 100.0, "per_marg_ot_m": 100.0, "per_marg_ot_f": 0.0, "margwork_3_6_p": 0, "margwork_3_6_m": 0, "margwork_3_6_f": 0, "per_margwork_3_6_p": 0.0, "per_margwork_3_6_m": 0.0, "per_margwork_3_6_f": 0.0, "marg_cl_3_6_p": 0, "marg_cl_3_6_m": 0, "marg_cl_3_6_f": 0, "per_marg_cl_3_6_p": 0.0, "per_marg_cl_3_6_m": 0.0, "per_marg_cl_3_6_f": 0.0, "marg_al_3_6_p": 0, "marg_al_3_6_m": 0, "marg_al_3_6_f": 0, "per_marg_al_3_6_p": 0.0, "per_marg_al_3_6_m": 0.0, "per_marg_al_3_6_f": 0.0, "marg_hh_3_6_p": 0, "marg_hh_3_6_m": 0, "marg_hh_3_6_f": 0, "per_marg_hh_3_6_p": 0.0, "per_marg_hh_3_6_m": 0.0, "per_marg_hh_3_6_f": 0.0, "marg_ot_3_6_p": 0, "marg_ot_3_6_m": 0, "marg_ot_3_6_f": 0, "per_marg_ot_3_6_p": 0.0, "per_marg_ot_3_6_m": 0.0, "per_marg_ot_3_6_f": 0.0, "margwork_0_3_p": 1, "margwork_0_3_m": 1, "margwork_0_3_f": 0, "per_margwork_0_3_p": 100.0, "per_margwork_0_3_m": 100.0, "per_margwork_0_3_f": 0.0, "marg_cl_0_3_p": 0, "marg_cl_0_3_m": 0, "marg_cl_0_3_f": 0, "per_marg_cl_0_3_p": 0.0, "per_marg_cl_0_3_m": 0.0, "per_marg_cl_0_3_f": 0.0, "marg_al_0_3_p": 0, "marg_al_0_3_m": 0, "marg_al_0_3_f": 0, "per_marg_al_0_3_p": 0.0, "per_marg_al_0_3_m": 0.0, "per_marg_al_0_3_f": 0.0, "marg_hh_0_3_p": 0, "marg_hh_0_3_m": 0, "marg_hh_0_3_f": 0, "per_marg_hh_0_3_p": 0.0, "per_marg_hh_0_3_m": 0.0, "per_marg_hh_0_3_f": 0.0, "marg_ot_0_3_p": 1, "marg_ot_0_3_m": 1, "marg_ot_0_3_f": 0, "per_marg_ot_0_3_p": 100.0, "per_marg_ot_0_3_m": 100.0, "per_marg_ot_0_3_f": 0.0, "non_work_p": 264, "non_work_m": 121, "non_work_f": 143, "per_non_work_p": 50.76923077, "per_non_work_m": 45.83333333, "per_non_work_f": 54.16666667000001, "per_hc_tot_tot": 100, "per_hc_tot_god": 72.7, "per_hc_tot_liv": 20.7, "per_hc_tot_dil": 6.6, "per_hc_res_tot": 98.3, "per_hc_res_god": 71.1, "per_hc_res_liv": 20.7, "per_hc_res_dil": 6.6, "per_hc_oth_tot": 1.7, "per_hc_oth_god": 1.7, "per_hc_oth_liv": 0.0, "per_hc_oth_dil": 0.0, "per_mt_grsbam": 5.8, "per_mt_plastic": 0.0, "per_mt_h_tiles": 0.8, "per_mt_m_tiles": 0.0, "per_mt_b_brick": 9.1, "per_mt_stone": 0.0, "per_mt_asbstos": 69.4, "per_mt_concrte": 14.9, "per_mt_oth": 0.0, "per_mw_grsbam": 21.5, "per_mw_plastic": 0.8, "per_mw_mud": 30.6, "per_mw_wood": 0.0, "per_mw_no_mrtr": 2.5, "per_mw_st_mrtr": 0.8, "per_mw_asbstos": 0.0, "per_mw_b_brick": 43.8, "per_mw_concrte": 0.0, "per_mw_oth": 0.0, "per_mf_mud": 62.0, "per_mf_wood": 0.0, "per_mf_b_brick": 0.0, "per_mf_stone": 0.8, "per_mf_cement": 33.9, "per_mf_fl_tile": 3.3, "per_mf_oth": 0.0, "per_dw_n_exrm": 9.1, "per_dw_1_room": 35.5, "per_dw_2_room": 44.6, "per_dw_3_room": 8.3, "per_dw_4_room": 1.7, "per_dw_5_room": 0.0, "per_dw_6_room": 0.8, "per_hhsize_1": 5.0, "per_hhsize_2": 9.9, "per_hhsize_3": 14.0, "per_hhsize_4": 19.8, "per_hhsize_5": 23.1, "per_hhsize_6_8": 27.3, "per_hhsize_9p": 0.8, "per_ow_owned": 82.6, "per_ow_rented": 3.3, "per_ow_oth": 14.0, "per_mc_none": 19.0, "per_mcouple_1": 75.2, "per_mcouple_2": 5.8, "per_mcouple_3": 0.0, "per_mcouple_4": 0.0, "per_mcouple_5p": 0.0, "per_dw_t_ts": 1.7, "per_dw_t_unts": 0.0, "per_dw_c_well": 0.0, "per_dw_unc_wel": 7.4, "per_dw_hpump": 73.6, "per_dw_tw_bore": 17.4, "per_dw_spring": 0.0, "per_dw_rivcan": 0.0, "per_dw_tank": 0.0, "per_dw_oth": 0.0, "per_loc_dw_wp": 58.7, "per_loc_dw_np": 39.7, "per_loc_dw_aw": 1.7, "per_light_elec": 80.2, "per_light_kero": 19.8, "per_light_solr": 0.0, "per_light_oil": 0.0, "per_light_oth": 0.0, "per_light_no": 0.0, "per_hh_latrine": 25.6, "per_fl_sewer": 0.0, "per_fl_septict": 5.0, "per_fl_othsys": 19.0, "per_pl_wslab": 1.7, "per_pl_without": 0.0, "per_ns_open": 0.0, "per_sl_ns_hum": 0.0, "per_sl_ns_anml": 0.0, "per_hh_no_lat": 74.4, "per_as_pub": 0.0, "per_as_open": 74.4, "per_hh_bathrm": 51.2, "per_hh_en_wrf": 34.7, "per_hh_no_btrm": 14.0, "per_wwoc_drain": 3.3, "per_wwoc_open": 19.8, "per_wwoc_nodrn": 76.9, "per_cook_fire": 86.0, "per_cook_resdu": 6.6, "per_cook_cwdng": 0.0, "per_cook_coal": 0.0, "per_cook_kero": 0.0, "per_cook_lpng": 6.6, "per_cook_elec": 0.8, "per_cook_biogs": 0.0, "per_cook_oth": 0.0, "per_cook_no": 0.0, "per_kf_inside": 96.7, "per_kf_in_has": 81.8, "per_kf_in_does": 14.9, "per_kf_outside": 3.3, "per_kf_out_has": 1.7, "per_kf_out_dos": 1.7, "per_kf_no_cook": 0.0, "per_hh_banking": 67.8, "per_hh_radio": 7.4, "per_hh_tv": 46.3, "per_hh_cmp_int": 0.0, "per_hh_cmp_wnt": 14.0, "per_hh_ph_ll": 5.0, "per_hh_ph_mob": 58.7, "per_hh_ph_bth": 0.8, "per_hh_bcycl": 19.8, "per_hh_2wheel": 8.3, "per_hh_4wheel": 0.0, "per_hh_tvcomp": 0.0, "per_hh_no_ast": 26.4, "per_hs_perma": 47.1, "per_hs_sperma": 47.1, "per_hs_temp": 5.8, "per_hs_servc": 4.1, "per_hs_nservc": 1.7, "per_hs_unclss": 0.0, "avghhsz_cy": 4.48275862, "st_areashape": 3550068.57789886, "st_lengthshape": 9069.627809334863}, "geometry": {"type": "Polygon", "coordinates": [[[76.3737838568493, 20.87270043234454], [76.37350255480797, 20.874288309425754], [76.3738328868975, 20.875504038939145], [76.37565975026662, 20.876757024480042], [76.37779349340816, 20.877825038141527], [76.37990752751237, 20.878246483999952], [76.38367613799566, 20.87861578196978], [76.38648442698238, 20.87824652428786], [76.38972880132714, 20.878580170045538], [76.39021756389343, 20.88181508136243], [76.39041673476495, 20.883987988566417], [76.38834993677335, 20.88420407870367], [76.3845235071251, 20.8840763441359], [76.37984370490638, 20.88512069307415], [76.37427159892941, 20.885828190523917], [76.37014434954368, 20.885676829640616], [76.36145904930459, 20.88642452040282], [76.3607726232398, 20.88283262180447], [76.36178707182555, 20.880250565754363], [76.36262623125158, 20.877863054097133], [76.36300602458066, 20.876503300149988], [76.36434224790452, 20.875126874493283], [76.36606167186734, 20.87389385287225], [76.3676150656061, 20.872336176167273], [76.37051869998044, 20.869524945127775], [76.37174604120368, 20.870998963065723], [76.37195055525451, 20.871861450838313], [76.3737838568493, 20.87270043234454]]]}}]}