{"type": "FeatureCollection", "features": [{"type": "Feature", "properties": {"premiumdata.sde.IN_Village_PCA.area": 2.12529947, "objectid": 384477, "id": "9127927422890", "name": "Vaibheet", "subdistrict": "Utraula", "district": "Balrampur", "state": "Uttar Pradesh", "country": "India", "censusname": "Vaibheet", "villagename_locallang": null, "lgd_villagename": "Vaibheet", "lgd_villagecode": 173819, "lgd_subdistrictcode": 927, "lgd_districtcode": 127, "lgd_statecode": 9, "censuscode2001": "06685600", "censuscode2011": "173819", "censuscode2021": null, "level": "Village", "tru": "Rural", "no_hh": 421, "tot_p": 3039, "tot_m": 1562, "tot_f": 1477, "per_tot_m": 51.39848634000001, "per_tot_f": 48.60151366, "p_06": 484, "m_06": 262, "f_06": 222, "per_p_06": 15.92629154, "per_m_06": 54.1322314, "per_f_06": 45.8677686, "p_sc": 193, "m_sc": 94, "f_sc": 99, "per_p_sc": 6.35077328, "per_m_sc": 48.70466321, "per_f_sc": 51.29533679, "p_st": 0, "m_st": 0, "f_st": 0, "per_p_st": 0.0, "per_m_st": 0.0, "per_f_st": 0.0, "p_lit": 1804, "m_lit": 1054, "f_lit": 750, "per_p_lit": 59.36163212, "per_m_lit": 58.42572062, "per_f_lit": 41.57427938, "p_ill": 1235, "m_ill": 508, "f_ill": 727, "per_p_ill": 40.63836788, "per_m_ill": 41.13360324, "per_f_ill": 58.86639676, "tot_work_p": 814, "tot_work_m": 729, "tot_work_f": 85, "per_tot_work_p": 26.78512669, "per_tot_work_m": 89.55773956, "per_tot_work_f": 10.44226044, "mainwork_p": 672, "mainwork_m": 615, "mainwork_f": 57, "per_mainwork_p": 22.11253702, "per_mainwork_m": 91.51785714, "per_mainwork_f": 8.48214286, "main_cl_p": 189, "main_cl_m": 185, "main_cl_f": 4, "per_main_cl_p": 28.125, "per_main_cl_m": 97.88359788, "per_main_cl_f": 2.11640212, "main_al_p": 424, "main_al_m": 379, "main_al_f": 45, "per_main_al_p": 63.0952381, "per_main_al_m": 89.38679245, "per_main_al_f": 10.61320755, "main_hh_p": 14, "main_hh_m": 14, "main_hh_f": 0, "per_main_hh_p": 2.08333333, "per_main_hh_m": 100.0, "per_main_hh_f": 0.0, "main_ot_p": 45, "main_ot_m": 37, "main_ot_f": 8, "per_main_ot_p": 6.69642857, "per_main_ot_m": 82.22222222, "per_main_ot_f": 17.77777778, "margwork_p": 142, "margwork_m": 114, "margwork_f": 28, "per_margwork_p": 4.67258967, "per_margwork_m": 80.28169014, "per_margwork_f": 19.71830986, "marg_cl_p": 1, "marg_cl_m": 0, "marg_cl_f": 1, "per_marg_cl_p": 0.70422535, "per_marg_cl_m": 0.0, "per_marg_cl_f": 100.0, "marg_al_p": 134, "marg_al_m": 108, "marg_al_f": 26, "per_marg_al_p": 94.36619718, "per_marg_al_m": 80.59701493, "per_marg_al_f": 19.40298507, "marg_hh_p": 2, "marg_hh_m": 2, "marg_hh_f": 0, "per_marg_hh_p": 1.4084507, "per_marg_hh_m": 100.0, "per_marg_hh_f": 0.0, "marg_ot_p": 5, "marg_ot_m": 4, "marg_ot_f": 1, "per_marg_ot_p": 3.52112676, "per_marg_ot_m": 80.0, "per_marg_ot_f": 20.0, "margwork_3_6_p": 135, "margwork_3_6_m": 111, "margwork_3_6_f": 24, "per_margwork_3_6_p": 95.07042254000001, "per_margwork_3_6_m": 82.22222222, "per_margwork_3_6_f": 17.77777778, "marg_cl_3_6_p": 1, "marg_cl_3_6_m": 0, "marg_cl_3_6_f": 1, "per_marg_cl_3_6_p": 0.70422535, "per_marg_cl_3_6_m": 0.0, "per_marg_cl_3_6_f": 100.0, "marg_al_3_6_p": 127, "marg_al_3_6_m": 105, "marg_al_3_6_f": 22, "per_marg_al_3_6_p": 89.43661972, "per_marg_al_3_6_m": 82.67716535, "per_marg_al_3_6_f": 17.32283465, "marg_hh_3_6_p": 2, "marg_hh_3_6_m": 2, "marg_hh_3_6_f": 0, "per_marg_hh_3_6_p": 1.4084507, "per_marg_hh_3_6_m": 100.0, "per_marg_hh_3_6_f": 0.0, "marg_ot_3_6_p": 5, "marg_ot_3_6_m": 4, "marg_ot_3_6_f": 1, "per_marg_ot_3_6_p": 3.52112676, "per_marg_ot_3_6_m": 80.0, "per_marg_ot_3_6_f": 20.0, "margwork_0_3_p": 7, "margwork_0_3_m": 3, "margwork_0_3_f": 4, "per_margwork_0_3_p": 4.92957746, "per_margwork_0_3_m": 42.85714286, "per_margwork_0_3_f": 57.14285714, "marg_cl_0_3_p": 0, "marg_cl_0_3_m": 0, "marg_cl_0_3_f": 0, "per_marg_cl_0_3_p": 0.0, "per_marg_cl_0_3_m": 0.0, "per_marg_cl_0_3_f": 0.0, "marg_al_0_3_p": 7, "marg_al_0_3_m": 3, "marg_al_0_3_f": 4, "per_marg_al_0_3_p": 4.92957746, "per_marg_al_0_3_m": 42.85714286, "per_marg_al_0_3_f": 57.14285714, "marg_hh_0_3_p": 0, "marg_hh_0_3_m": 0, "marg_hh_0_3_f": 0, "per_marg_hh_0_3_p": 0.0, "per_marg_hh_0_3_m": 0.0, "per_marg_hh_0_3_f": 0.0, "marg_ot_0_3_p": 0, "marg_ot_0_3_m": 0, "marg_ot_0_3_f": 0, "per_marg_ot_0_3_p": 0.0, "per_marg_ot_0_3_m": 0.0, "per_marg_ot_0_3_f": 0.0, "non_work_p": 2225, "non_work_m": 833, "non_work_f": 1392, "per_non_work_p": 73.21487331, "per_non_work_m": 37.43820225, "per_non_work_f": 62.56179775, "per_hc_tot_tot": 100, "per_hc_tot_god": 26.2, "per_hc_tot_liv": 69.4, "per_hc_tot_dil": 4.4, "per_hc_res_tot": 96.8, "per_hc_res_god": 26.2, "per_hc_res_liv": 66.2, "per_hc_res_dil": 4.4, "per_hc_oth_tot": 3.2, "per_hc_oth_god": 0.0, "per_hc_oth_liv": 3.2, "per_hc_oth_dil": 0.0, "per_mt_grsbam": 11.6, "per_mt_plastic": 0.2, "per_mt_h_tiles": 2.5, "per_mt_m_tiles": 0.0, "per_mt_b_brick": 79.8, "per_mt_stone": 0.0, "per_mt_asbstos": 5.7, "per_mt_concrte": 0.0, "per_mt_oth": 0.2, "per_mw_grsbam": 4.7, "per_mw_plastic": 1.0, "per_mw_mud": 6.7, "per_mw_wood": 0.0, "per_mw_no_mrtr": 5.2, "per_mw_st_mrtr": 0.0, "per_mw_asbstos": 0.0, "per_mw_b_brick": 81.2, "per_mw_concrte": 0.0, "per_mw_oth": 1.2, "per_mf_mud": 91.6, "per_mf_wood": 0.0, "per_mf_b_brick": 2.7, "per_mf_stone": 0.2, "per_mf_cement": 5.2, "per_mf_fl_tile": 0.0, "per_mf_oth": 0.2, "per_dw_n_exrm": 1.0, "per_dw_1_room": 21.7, "per_dw_2_room": 40.7, "per_dw_3_room": 19.5, "per_dw_4_room": 9.6, "per_dw_5_room": 3.5, "per_dw_6_room": 4.0, "per_hhsize_1": 4.0, "per_hhsize_2": 4.7, "per_hhsize_3": 4.4, "per_hhsize_4": 8.6, "per_hhsize_5": 14.1, "per_hhsize_6_8": 42.0, "per_hhsize_9p": 22.2, "per_ow_owned": 99.0, "per_ow_rented": 0.2, "per_ow_oth": 0.7, "per_mc_none": 9.6, "per_mcouple_1": 52.6, "per_mcouple_2": 22.2, "per_mcouple_3": 10.1, "per_mcouple_4": 3.7, "per_mcouple_5p": 1.7, "per_dw_t_ts": 0.2, "per_dw_t_unts": 1.5, "per_dw_c_well": 2.0, "per_dw_unc_wel": 0.7, "per_dw_hpump": 95.6, "per_dw_tw_bore": 0.0, "per_dw_spring": 0.0, "per_dw_rivcan": 0.0, "per_dw_tank": 0.0, "per_dw_oth": 0.0, "per_loc_dw_wp": 80.7, "per_loc_dw_np": 16.5, "per_loc_dw_aw": 2.7, "per_light_elec": 13.3, "per_light_kero": 86.7, "per_light_solr": 0.0, "per_light_oil": 0.0, "per_light_oth": 0.0, "per_light_no": 0.0, "per_hh_latrine": 3.5, "per_fl_sewer": 0.0, "per_fl_septict": 3.5, "per_fl_othsys": 0.0, "per_pl_wslab": 0.0, "per_pl_without": 0.0, "per_ns_open": 0.0, "per_sl_ns_hum": 0.0, "per_sl_ns_anml": 0.0, "per_hh_no_lat": 96.5, "per_as_pub": 0.2, "per_as_open": 96.3, "per_hh_bathrm": 1.7, "per_hh_en_wrf": 9.6, "per_hh_no_btrm": 88.6, "per_wwoc_drain": 1.0, "per_wwoc_open": 76.3, "per_wwoc_nodrn": 22.7, "per_cook_fire": 92.1, "per_cook_resdu": 0.7, "per_cook_cwdng": 6.9, "per_cook_coal": 0.0, "per_cook_kero": 0.0, "per_cook_lpng": 0.0, "per_cook_elec": 0.2, "per_cook_biogs": 0.0, "per_cook_oth": 0.0, "per_cook_no": 0.0, "per_kf_inside": 97.3, "per_kf_in_has": 53.3, "per_kf_in_does": 44.0, "per_kf_outside": 2.7, "per_kf_out_has": 1.7, "per_kf_out_dos": 1.0, "per_kf_no_cook": 0.0, "per_hh_banking": 63.0, "per_hh_radio": 9.6, "per_hh_tv": 7.4, "per_hh_cmp_int": 0.7, "per_hh_cmp_wnt": 1.5, "per_hh_ph_ll": 2.0, "per_hh_ph_mob": 46.4, "per_hh_ph_bth": 0.7, "per_hh_bcycl": 77.8, "per_hh_2wheel": 4.0, "per_hh_4wheel": 0.5, "per_hh_tvcomp": 0.0, "per_hh_no_ast": 8.6, "per_hs_perma": 82.2, "per_hs_sperma": 8.6, "per_hs_temp": 7.7, "per_hs_servc": 3.5, "per_hs_nservc": 4.2, "per_hs_unclss": 1.5, "avghhsz_cy": 7.21852732, "st_areashape": 2705868.488016395, "st_lengthshape": 6436.974716052237}, "geometry": {"type": "Polygon", "coordinates": [[[82.32544930086723, 27.372028031391213], [82.3260223254072, 27.372540349114164], [82.32682478056903, 27.37308702838183], [82.327665370113, 27.37373607418148], [82.32892636582001, 27.374624346622195], [82.3294994972595, 27.375068437889585], [82.33033969334137, 27.376058648717954], [82.33121836426685, 27.376878302307546], [82.33190596981962, 27.377561295130004], [82.33247912281867, 27.378005358655898], [82.33318634308564, 27.378639147663208], [82.3328061527012, 27.379556577634112], [82.3323464057186, 27.380204340304598], [82.33161256297984, 27.381281334317137], [82.3309998140397, 27.381928956868595], [82.3306935002059, 27.382201594832264], [82.3296602166436, 27.382678214701922], [82.32862673365533, 27.383325402328037], [82.32801364066043, 27.38424594575505], [82.32759222299434, 27.384791381083186], [82.32732377135316, 27.385371073319575], [82.32697850477201, 27.38618952925573], [82.32662792106272, 27.38657952636873], [82.32621246012529, 27.38704166870659], [82.32556165136319, 27.387518641807688], [82.32510244606469, 27.387688751836112], [82.32376354216798, 27.387823868959657], [82.32299827995386, 27.388027784242748], [82.32188854886257, 27.388436049979937], [82.3194786222802, 27.388604139820202], [82.31748935338915, 27.388840878068944], [82.31673706464439, 27.388810920306742], [82.31693303302193, 27.387487385945896], [82.31704940797033, 27.38625932732292], [82.317012877081, 27.384962879223238], [82.3167467233303, 27.38376853338999], [82.31651827187208, 27.382983610755797], [82.3162518656948, 27.38195986173176], [82.31613880373311, 27.380697428055367], [82.31625557124534, 27.37916231205714], [82.31630010612388, 27.378634616771414], [82.31633329977191, 27.37824125169737], [82.31683211897784, 27.377013588986383], [82.31782831289867, 27.375649959978027], [82.3193980901116, 27.37435515928337], [82.32016364697314, 27.373844194131806], [82.3212733870476, 27.373367714896084], [82.32196232659852, 27.372959010633306], [82.32235112374173, 27.37229783785137], [82.32250456677203, 27.37192270574733], [82.3231167192308, 27.371752736607224], [82.32349928026927, 27.37165077637733], [82.32407304681767, 27.371583129381392], [82.32499109359702, 27.371447583976096], [82.32544930086723, 27.372028031391213]]]}}]}