{"type": "FeatureCollection", "features": [{"type": "Feature", "properties": {"premiumdata.sde.IN_Village_PCA.area": 0.37886173, "objectid": 149905, "id": "21363320478262", "name": "Samana", "subdistrict": "Narayanpatana", "district": "Koraput", "state": "Odisha", "country": "India", "censusname": "Samana", "villagename_locallang": null, "lgd_villagename": "Samana", "lgd_villagecode": 428605, "lgd_subdistrictcode": 3204, "lgd_districtcode": 363, "lgd_statecode": 21, "censuscode2001": "04893200", "censuscode2011": "428605", "censuscode2021": null, "level": "Village", "tru": "Rural", "no_hh": 56, "tot_p": 294, "tot_m": 149, "tot_f": 145, "per_tot_m": 50.68027211, "per_tot_f": 49.31972789, "p_06": 65, "m_06": 34, "f_06": 31, "per_p_06": 22.10884354, "per_m_06": 52.30769231, "per_f_06": 47.69230769, "p_sc": 0, "m_sc": 0, "f_sc": 0, "per_p_sc": 0.0, "per_m_sc": 0.0, "per_f_sc": 0.0, "p_st": 294, "m_st": 149, "f_st": 145, "per_p_st": 100.0, "per_m_st": 50.68027211, "per_f_st": 49.31972789, "p_lit": 42, "m_lit": 18, "f_lit": 24, "per_p_lit": 14.28571429, "per_m_lit": 42.85714286, "per_f_lit": 57.14285714, "p_ill": 252, "m_ill": 131, "f_ill": 121, "per_p_ill": 85.71428571, "per_m_ill": 51.98412698, "per_f_ill": 48.01587302, "tot_work_p": 149, "tot_work_m": 80, "tot_work_f": 69, "per_tot_work_p": 50.68027211, "per_tot_work_m": 53.69127517, "per_tot_work_f": 46.30872483, "mainwork_p": 51, "mainwork_m": 51, "mainwork_f": 0, "per_mainwork_p": 17.34693878, "per_mainwork_m": 100.0, "per_mainwork_f": 0.0, "main_cl_p": 51, "main_cl_m": 51, "main_cl_f": 0, "per_main_cl_p": 100.0, "per_main_cl_m": 100.0, "per_main_cl_f": 0.0, "main_al_p": 0, "main_al_m": 0, "main_al_f": 0, "per_main_al_p": 0.0, "per_main_al_m": 0.0, "per_main_al_f": 0.0, "main_hh_p": 0, "main_hh_m": 0, "main_hh_f": 0, "per_main_hh_p": 0.0, "per_main_hh_m": 0.0, "per_main_hh_f": 0.0, "main_ot_p": 0, "main_ot_m": 0, "main_ot_f": 0, "per_main_ot_p": 0.0, "per_main_ot_m": 0.0, "per_main_ot_f": 0.0, "margwork_p": 98, "margwork_m": 29, "margwork_f": 69, "per_margwork_p": 33.33333333, "per_margwork_m": 29.59183673, "per_margwork_f": 70.40816327, "marg_cl_p": 0, "marg_cl_m": 0, "marg_cl_f": 0, "per_marg_cl_p": 0.0, "per_marg_cl_m": 0.0, "per_marg_cl_f": 0.0, "marg_al_p": 98, "marg_al_m": 29, "marg_al_f": 69, "per_marg_al_p": 100.0, "per_marg_al_m": 29.59183673, "per_marg_al_f": 70.40816327, "marg_hh_p": 0, "marg_hh_m": 0, "marg_hh_f": 0, "per_marg_hh_p": 0.0, "per_marg_hh_m": 0.0, "per_marg_hh_f": 0.0, "marg_ot_p": 0, "marg_ot_m": 0, "marg_ot_f": 0, "per_marg_ot_p": 0.0, "per_marg_ot_m": 0.0, "per_marg_ot_f": 0.0, "margwork_3_6_p": 97, "margwork_3_6_m": 28, "margwork_3_6_f": 69, "per_margwork_3_6_p": 98.97959184, "per_margwork_3_6_m": 28.86597938, "per_margwork_3_6_f": 71.13402062, "marg_cl_3_6_p": 0, "marg_cl_3_6_m": 0, "marg_cl_3_6_f": 0, "per_marg_cl_3_6_p": 0.0, "per_marg_cl_3_6_m": 0.0, "per_marg_cl_3_6_f": 0.0, "marg_al_3_6_p": 97, "marg_al_3_6_m": 28, "marg_al_3_6_f": 69, "per_marg_al_3_6_p": 98.97959184, "per_marg_al_3_6_m": 28.86597938, "per_marg_al_3_6_f": 71.13402062, "marg_hh_3_6_p": 0, "marg_hh_3_6_m": 0, "marg_hh_3_6_f": 0, "per_marg_hh_3_6_p": 0.0, "per_marg_hh_3_6_m": 0.0, "per_marg_hh_3_6_f": 0.0, "marg_ot_3_6_p": 0, "marg_ot_3_6_m": 0, "marg_ot_3_6_f": 0, "per_marg_ot_3_6_p": 0.0, "per_marg_ot_3_6_m": 0.0, "per_marg_ot_3_6_f": 0.0, "margwork_0_3_p": 1, "margwork_0_3_m": 1, "margwork_0_3_f": 0, "per_margwork_0_3_p": 1.02040816, "per_margwork_0_3_m": 100.0, "per_margwork_0_3_f": 0.0, "marg_cl_0_3_p": 0, "marg_cl_0_3_m": 0, "marg_cl_0_3_f": 0, "per_marg_cl_0_3_p": 0.0, "per_marg_cl_0_3_m": 0.0, "per_marg_cl_0_3_f": 0.0, "marg_al_0_3_p": 1, "marg_al_0_3_m": 1, "marg_al_0_3_f": 0, "per_marg_al_0_3_p": 1.02040816, "per_marg_al_0_3_m": 100.0, "per_marg_al_0_3_f": 0.0, "marg_hh_0_3_p": 0, "marg_hh_0_3_m": 0, "marg_hh_0_3_f": 0, "per_marg_hh_0_3_p": 0.0, "per_marg_hh_0_3_m": 0.0, "per_marg_hh_0_3_f": 0.0, "marg_ot_0_3_p": 0, "marg_ot_0_3_m": 0, "marg_ot_0_3_f": 0, "per_marg_ot_0_3_p": 0.0, "per_marg_ot_0_3_m": 0.0, "per_marg_ot_0_3_f": 0.0, "non_work_p": 145, "non_work_m": 69, "non_work_f": 76, "per_non_work_p": 49.31972789, "per_non_work_m": 47.5862069, "per_non_work_f": 52.4137931, "per_hc_tot_tot": 100, "per_hc_tot_god": 75.4, "per_hc_tot_liv": 24.6, "per_hc_tot_dil": 0.0, "per_hc_res_tot": 100.0, "per_hc_res_god": 75.4, "per_hc_res_liv": 24.6, "per_hc_res_dil": 0.0, "per_hc_oth_tot": 0.0, "per_hc_oth_god": 0.0, "per_hc_oth_liv": 0.0, "per_hc_oth_dil": 0.0, "per_mt_grsbam": 19.3, "per_mt_plastic": 0.0, "per_mt_h_tiles": 0.0, "per_mt_m_tiles": 80.7, "per_mt_b_brick": 0.0, "per_mt_stone": 0.0, "per_mt_asbstos": 0.0, "per_mt_concrte": 0.0, "per_mt_oth": 0.0, "per_mw_grsbam": 0.0, "per_mw_plastic": 0.0, "per_mw_mud": 100.0, "per_mw_wood": 0.0, "per_mw_no_mrtr": 0.0, "per_mw_st_mrtr": 0.0, "per_mw_asbstos": 0.0, "per_mw_b_brick": 0.0, "per_mw_concrte": 0.0, "per_mw_oth": 0.0, "per_mf_mud": 100.0, "per_mf_wood": 0.0, "per_mf_b_brick": 0.0, "per_mf_stone": 0.0, "per_mf_cement": 0.0, "per_mf_fl_tile": 0.0, "per_mf_oth": 0.0, "per_dw_n_exrm": 0.0, "per_dw_1_room": 0.0, "per_dw_2_room": 100.0, "per_dw_3_room": 0.0, "per_dw_4_room": 0.0, "per_dw_5_room": 0.0, "per_dw_6_room": 0.0, "per_hhsize_1": 0.0, "per_hhsize_2": 3.5, "per_hhsize_3": 8.8, "per_hhsize_4": 26.3, "per_hhsize_5": 26.3, "per_hhsize_6_8": 31.6, "per_hhsize_9p": 3.5, "per_ow_owned": 100.0, "per_ow_rented": 0.0, "per_ow_oth": 0.0, "per_mc_none": 3.5, "per_mcouple_1": 75.4, "per_mcouple_2": 15.8, "per_mcouple_3": 3.5, "per_mcouple_4": 1.8, "per_mcouple_5p": 0.0, "per_dw_t_ts": 0.0, "per_dw_t_unts": 0.0, "per_dw_c_well": 0.0, "per_dw_unc_wel": 0.0, "per_dw_hpump": 0.0, "per_dw_tw_bore": 0.0, "per_dw_spring": 100.0, "per_dw_rivcan": 0.0, "per_dw_tank": 0.0, "per_dw_oth": 0.0, "per_loc_dw_wp": 0.0, "per_loc_dw_np": 100.0, "per_loc_dw_aw": 0.0, "per_light_elec": 0.0, "per_light_kero": 100.0, "per_light_solr": 0.0, "per_light_oil": 0.0, "per_light_oth": 0.0, "per_light_no": 0.0, "per_hh_latrine": 0.0, "per_fl_sewer": 0.0, "per_fl_septict": 0.0, "per_fl_othsys": 0.0, "per_pl_wslab": 0.0, "per_pl_without": 0.0, "per_ns_open": 0.0, "per_sl_ns_hum": 0.0, "per_sl_ns_anml": 0.0, "per_hh_no_lat": 100.0, "per_as_pub": 0.0, "per_as_open": 100.0, "per_hh_bathrm": 0.0, "per_hh_en_wrf": 0.0, "per_hh_no_btrm": 100.0, "per_wwoc_drain": 0.0, "per_wwoc_open": 0.0, "per_wwoc_nodrn": 100.0, "per_cook_fire": 100.0, "per_cook_resdu": 0.0, "per_cook_cwdng": 0.0, "per_cook_coal": 0.0, "per_cook_kero": 0.0, "per_cook_lpng": 0.0, "per_cook_elec": 0.0, "per_cook_biogs": 0.0, "per_cook_oth": 0.0, "per_cook_no": 0.0, "per_kf_inside": 100.0, "per_kf_in_has": 100.0, "per_kf_in_does": 0.0, "per_kf_outside": 0.0, "per_kf_out_has": 0.0, "per_kf_out_dos": 0.0, "per_kf_no_cook": 0.0, "per_hh_banking": 0.0, "per_hh_radio": 0.0, "per_hh_tv": 0.0, "per_hh_cmp_int": 0.0, "per_hh_cmp_wnt": 0.0, "per_hh_ph_ll": 1.8, "per_hh_ph_mob": 0.0, "per_hh_ph_bth": 0.0, "per_hh_bcycl": 1.8, "per_hh_2wheel": 0.0, "per_hh_4wheel": 0.0, "per_hh_tvcomp": 0.0, "per_hh_no_ast": 96.5, "per_hs_perma": 0.0, "per_hs_sperma": 80.7, "per_hs_temp": 19.3, "per_hs_servc": 19.3, "per_hs_nservc": 0.0, "per_hs_unclss": 0.0, "avghhsz_cy": 5.25, "st_areashape": 425150.869563935, "st_lengthshape": 3153.4494235006905}, "geometry": {"type": "Polygon", "coordinates": [[[83.12974741400063, 18.826828723606443], [83.12891793212513, 18.82649488810597], [83.12835198990288, 18.826379446321088], [83.12755987614662, 18.826370397044933], [83.12690530164686, 18.826368807916143], [83.12650621879366, 18.826319227770675], [83.12604521776291, 18.82624764041557], [83.12562320900535, 18.826252515787907], [83.12488495284363, 18.826382845645032], [83.12417017415183, 18.82649487025059], [83.12368155172271, 18.826491415662293], [83.12337796337751, 18.826485799724285], [83.12268117973748, 18.827279628772636], [83.12224052105633, 18.827311691756194], [83.12128282623361, 18.82734970224099], [83.12088248214575, 18.827196225024885], [83.12013187414888, 18.82672152101615], [83.1199343067701, 18.82647078165921], [83.11984021992221, 18.82615571912892], [83.1199144099849, 18.82564453008594], [83.12064753496972, 18.824349046242563], [83.12113591036213, 18.823580185994903], [83.12211702875591, 18.822015384643514], [83.12305390512189, 18.822591795749783], [83.1235479937995, 18.823033344825493], [83.12378341618435, 18.823274558614134], [83.12404083831049, 18.823380007592917], [83.12434475274414, 18.823408195784605], [83.12468356492997, 18.823196533401504], [83.12492363609637, 18.82305377688563], [83.12522628839707, 18.82297808387028], [83.12544975959536, 18.823020727623224], [83.12587138297565, 18.823363656024824], [83.12635558928683, 18.823773647031086], [83.12677100081692, 18.82399471520464], [83.12715199968511, 18.82411232510943], [83.12738906958018, 18.8241096093547], [83.12763822361244, 18.82393067639366], [83.12792893460806, 18.823665404312557], [83.12821158142737, 18.823513114960942], [83.12853322411314, 18.823441693913935], [83.12889376025747, 18.823446646742347], [83.1293277031336, 18.823631333996083], [83.12973955913178, 18.823951786008646], [83.12998153023501, 18.82432842728125], [83.13039186179219, 18.824897297969972], [83.13026733373425, 18.82517879281075], [83.13007731759379, 18.825533180020305], [83.12988923822105, 18.826036685621894], [83.129812693674, 18.826362788102294], [83.12974741400063, 18.826828723606443]]]}}]}