{"type": "FeatureCollection", "features": [{"type": "Feature", "properties": {"premiumdata.sde.IN_Village_PCA.area": 0.02293715, "objectid": 621486, "id": "172781965158666", "name": "Rongjigre", "subdistrict": "Rongram", "district": "West Garo Hills", "state": "Meghalaya", "country": "India", "censusname": "Rongjigre", "villagename_locallang": null, "lgd_villagename": "Rongjigre", "lgd_villagecode": 273505, "lgd_subdistrictcode": 1965, "lgd_districtcode": 278, "lgd_statecode": 17, "censuscode2001": "00069300", "censuscode2011": "273505", "censuscode2021": null, "level": "Village", "tru": "Rural", "no_hh": 12, "tot_p": 75, "tot_m": 35, "tot_f": 40, "per_tot_m": 46.66666667000001, "per_tot_f": 53.33333333, "p_06": 18, "m_06": 7, "f_06": 11, "per_p_06": 24.0, "per_m_06": 38.88888889, "per_f_06": 61.11111111, "p_sc": 0, "m_sc": 0, "f_sc": 0, "per_p_sc": 0.0, "per_m_sc": 0.0, "per_f_sc": 0.0, "p_st": 75, "m_st": 35, "f_st": 40, "per_p_st": 100.0, "per_m_st": 46.66666667000001, "per_f_st": 53.33333333, "p_lit": 45, "m_lit": 23, "f_lit": 22, "per_p_lit": 60.0, "per_m_lit": 51.11111111, "per_f_lit": 48.88888889, "p_ill": 30, "m_ill": 12, "f_ill": 18, "per_p_ill": 40.0, "per_m_ill": 40.0, "per_f_ill": 60.0, "tot_work_p": 25, "tot_work_m": 13, "tot_work_f": 12, "per_tot_work_p": 33.33333333, "per_tot_work_m": 52.0, "per_tot_work_f": 48.0, "mainwork_p": 16, "mainwork_m": 11, "mainwork_f": 5, "per_mainwork_p": 21.33333333, "per_mainwork_m": 68.75, "per_mainwork_f": 31.25, "main_cl_p": 10, "main_cl_m": 8, "main_cl_f": 2, "per_main_cl_p": 62.5, "per_main_cl_m": 80.0, "per_main_cl_f": 20.0, "main_al_p": 0, "main_al_m": 0, "main_al_f": 0, "per_main_al_p": 0.0, "per_main_al_m": 0.0, "per_main_al_f": 0.0, "main_hh_p": 3, "main_hh_m": 3, "main_hh_f": 0, "per_main_hh_p": 18.75, "per_main_hh_m": 100.0, "per_main_hh_f": 0.0, "main_ot_p": 3, "main_ot_m": 0, "main_ot_f": 3, "per_main_ot_p": 18.75, "per_main_ot_m": 0.0, "per_main_ot_f": 100.0, "margwork_p": 9, "margwork_m": 2, "margwork_f": 7, "per_margwork_p": 12.0, "per_margwork_m": 22.22222222, "per_margwork_f": 77.77777778, "marg_cl_p": 2, "marg_cl_m": 1, "marg_cl_f": 1, "per_marg_cl_p": 22.22222222, "per_marg_cl_m": 50.0, "per_marg_cl_f": 50.0, "marg_al_p": 3, "marg_al_m": 0, "marg_al_f": 3, "per_marg_al_p": 33.33333333, "per_marg_al_m": 0.0, "per_marg_al_f": 100.0, "marg_hh_p": 0, "marg_hh_m": 0, "marg_hh_f": 0, "per_marg_hh_p": 0.0, "per_marg_hh_m": 0.0, "per_marg_hh_f": 0.0, "marg_ot_p": 4, "marg_ot_m": 1, "marg_ot_f": 3, "per_marg_ot_p": 44.44444444000001, "per_marg_ot_m": 25.0, "per_marg_ot_f": 75.0, "margwork_3_6_p": 7, "margwork_3_6_m": 2, "margwork_3_6_f": 5, "per_margwork_3_6_p": 77.77777778, "per_margwork_3_6_m": 28.57142857, "per_margwork_3_6_f": 71.42857143, "marg_cl_3_6_p": 2, "marg_cl_3_6_m": 1, "marg_cl_3_6_f": 1, "per_marg_cl_3_6_p": 22.22222222, "per_marg_cl_3_6_m": 50.0, "per_marg_cl_3_6_f": 50.0, "marg_al_3_6_p": 2, "marg_al_3_6_m": 0, "marg_al_3_6_f": 2, "per_marg_al_3_6_p": 22.22222222, "per_marg_al_3_6_m": 0.0, "per_marg_al_3_6_f": 100.0, "marg_hh_3_6_p": 0, "marg_hh_3_6_m": 0, "marg_hh_3_6_f": 0, "per_marg_hh_3_6_p": 0.0, "per_marg_hh_3_6_m": 0.0, "per_marg_hh_3_6_f": 0.0, "marg_ot_3_6_p": 3, "marg_ot_3_6_m": 1, "marg_ot_3_6_f": 2, "per_marg_ot_3_6_p": 33.33333333, "per_marg_ot_3_6_m": 33.33333333, "per_marg_ot_3_6_f": 66.66666667, "margwork_0_3_p": 2, "margwork_0_3_m": 0, "margwork_0_3_f": 2, "per_margwork_0_3_p": 22.22222222, "per_margwork_0_3_m": 0.0, "per_margwork_0_3_f": 100.0, "marg_cl_0_3_p": 0, "marg_cl_0_3_m": 0, "marg_cl_0_3_f": 0, "per_marg_cl_0_3_p": 0.0, "per_marg_cl_0_3_m": 0.0, "per_marg_cl_0_3_f": 0.0, "marg_al_0_3_p": 1, "marg_al_0_3_m": 0, "marg_al_0_3_f": 1, "per_marg_al_0_3_p": 11.11111111, "per_marg_al_0_3_m": 0.0, "per_marg_al_0_3_f": 100.0, "marg_hh_0_3_p": 0, "marg_hh_0_3_m": 0, "marg_hh_0_3_f": 0, "per_marg_hh_0_3_p": 0.0, "per_marg_hh_0_3_m": 0.0, "per_marg_hh_0_3_f": 0.0, "marg_ot_0_3_p": 1, "marg_ot_0_3_m": 0, "marg_ot_0_3_f": 1, "per_marg_ot_0_3_p": 11.11111111, "per_marg_ot_0_3_m": 0.0, "per_marg_ot_0_3_f": 100.0, "non_work_p": 50, "non_work_m": 22, "non_work_f": 28, "per_non_work_p": 66.66666667, "per_non_work_m": 44.0, "per_non_work_f": 56.0, "per_hc_tot_tot": 100, "per_hc_tot_god": 0.0, "per_hc_tot_liv": 100.0, "per_hc_tot_dil": 0.0, "per_hc_res_tot": 100.0, "per_hc_res_god": 0.0, "per_hc_res_liv": 100.0, "per_hc_res_dil": 0.0, "per_hc_oth_tot": 0.0, "per_hc_oth_god": 0.0, "per_hc_oth_liv": 0.0, "per_hc_oth_dil": 0.0, "per_mt_grsbam": 9.1, "per_mt_plastic": 0.0, "per_mt_h_tiles": 0.0, "per_mt_m_tiles": 0.0, "per_mt_b_brick": 0.0, "per_mt_stone": 0.0, "per_mt_asbstos": 90.9, "per_mt_concrte": 0.0, "per_mt_oth": 0.0, "per_mw_grsbam": 72.7, "per_mw_plastic": 0.0, "per_mw_mud": 0.0, "per_mw_wood": 0.0, "per_mw_no_mrtr": 27.3, "per_mw_st_mrtr": 0.0, "per_mw_asbstos": 0.0, "per_mw_b_brick": 0.0, "per_mw_concrte": 0.0, "per_mw_oth": 0.0, "per_mf_mud": 63.6, "per_mf_wood": 36.4, "per_mf_b_brick": 0.0, "per_mf_stone": 0.0, "per_mf_cement": 0.0, "per_mf_fl_tile": 0.0, "per_mf_oth": 0.0, "per_dw_n_exrm": 0.0, "per_dw_1_room": 0.0, "per_dw_2_room": 18.2, "per_dw_3_room": 54.5, "per_dw_4_room": 27.3, "per_dw_5_room": 0.0, "per_dw_6_room": 0.0, "per_hhsize_1": 0.0, "per_hhsize_2": 9.1, "per_hhsize_3": 0.0, "per_hhsize_4": 9.1, "per_hhsize_5": 9.1, "per_hhsize_6_8": 63.6, "per_hhsize_9p": 9.1, "per_ow_owned": 100.0, "per_ow_rented": 0.0, "per_ow_oth": 0.0, "per_mc_none": 0.0, "per_mcouple_1": 100.0, "per_mcouple_2": 0.0, "per_mcouple_3": 0.0, "per_mcouple_4": 0.0, "per_mcouple_5p": 0.0, "per_dw_t_ts": 100.0, "per_dw_t_unts": 0.0, "per_dw_c_well": 0.0, "per_dw_unc_wel": 0.0, "per_dw_hpump": 0.0, "per_dw_tw_bore": 0.0, "per_dw_spring": 0.0, "per_dw_rivcan": 0.0, "per_dw_tank": 0.0, "per_dw_oth": 0.0, "per_loc_dw_wp": 100.0, "per_loc_dw_np": 0.0, "per_loc_dw_aw": 0.0, "per_light_elec": 0.0, "per_light_kero": 100.0, "per_light_solr": 0.0, "per_light_oil": 0.0, "per_light_oth": 0.0, "per_light_no": 0.0, "per_hh_latrine": 100.0, "per_fl_sewer": 0.0, "per_fl_septict": 0.0, "per_fl_othsys": 100.0, "per_pl_wslab": 0.0, "per_pl_without": 0.0, "per_ns_open": 0.0, "per_sl_ns_hum": 0.0, "per_sl_ns_anml": 0.0, "per_hh_no_lat": 0.0, "per_as_pub": 0.0, "per_as_open": 0.0, "per_hh_bathrm": 0.0, "per_hh_en_wrf": 0.0, "per_hh_no_btrm": 100.0, "per_wwoc_drain": 90.9, "per_wwoc_open": 0.0, "per_wwoc_nodrn": 9.1, "per_cook_fire": 100.0, "per_cook_resdu": 0.0, "per_cook_cwdng": 0.0, "per_cook_coal": 0.0, "per_cook_kero": 0.0, "per_cook_lpng": 0.0, "per_cook_elec": 0.0, "per_cook_biogs": 0.0, "per_cook_oth": 0.0, "per_cook_no": 0.0, "per_kf_inside": 18.2, "per_kf_in_has": 9.1, "per_kf_in_does": 9.1, "per_kf_outside": 81.8, "per_kf_out_has": 81.8, "per_kf_out_dos": 0.0, "per_kf_no_cook": 0.0, "per_hh_banking": 27.3, "per_hh_radio": 72.7, "per_hh_tv": 27.3, "per_hh_cmp_int": 0.0, "per_hh_cmp_wnt": 0.0, "per_hh_ph_ll": 36.4, "per_hh_ph_mob": 0.0, "per_hh_ph_bth": 0.0, "per_hh_bcycl": 9.1, "per_hh_2wheel": 9.1, "per_hh_4wheel": 0.0, "per_hh_tvcomp": 0.0, "per_hh_no_ast": 27.3, "per_hs_perma": 27.3, "per_hs_sperma": 63.6, "per_hs_temp": 9.1, "per_hs_servc": 0.0, "per_hs_nservc": 9.1, "per_hs_unclss": 0.0, "avghhsz_cy": 6.25, "st_areashape": 31363.87350204, "st_lengthshape": 628.0581775956349}, "geometry": {"type": "Polygon", "coordinates": [[[90.1727320406189, 25.608606572877672], [90.17264259716269, 25.608602547631687], [90.17255404303863, 25.608590510776363], [90.17246725769733, 25.608570583820025], [90.17238310352151, 25.608542962796225], [90.17230241774102, 25.608507923934262], [90.17222600165306, 25.608465813938658], [90.17215461433405, 25.608417051609624], [90.1720889663514, 25.60836212298305], [90.172029709882, 25.60830157241993], [90.17197743242404, 25.60823600179679], [90.17193265500039, 25.608166064025504], [90.1718958222771, 25.60809245252278], [90.17186730076683, 25.608015899590093], [90.17184737254058, 25.607937166693464], [90.17183623702434, 25.60785703555259], [90.17183400471083, 25.60777630247062], [90.17184069715968, 25.607695770233416], [90.17185624789558, 25.607616239198776], [90.17188050330657, 25.60753849919562], [90.17191322084751, 25.607463323853267], [90.17195407712497, 25.60739145926006], [90.17200266430375, 25.607323619912826], [90.17205850088686, 25.607260480615707], [90.17212103081717, 25.60720266837895], [90.1721896342571, 25.60715075755805], [90.17226362758872, 25.6071052649929], [90.17234227599016, 25.607066641906528], [90.17242479882542, 25.60703527228459], [90.17251037503432, 25.607011468824634], [90.17259815391233, 25.60699546645512], [90.17268726319524, 25.606987425575497], [90.17277681804254, 25.606987425575497], [90.17286592732546, 25.60699546645512], [90.17295370620347, 25.607011468824634], [90.17303928241236, 25.60703527228459], [90.17312180524763, 25.607066641906528], [90.17320045364907, 25.6071052649929], [90.17327444698073, 25.60715075755805], [90.17334305042063, 25.60720266837895], [90.17340558035096, 25.607260480615707], [90.17346141693403, 25.607323619912826], [90.17351000411281, 25.60739145926006], [90.17355086039028, 25.607463323853267], [90.17358357793123, 25.60753849919562], [90.17360783334222, 25.607616239198776], [90.17362338407811, 25.607695770233416], [90.17363007652695, 25.60777630247062], [90.1736278442135, 25.60785703555259], [90.17361670869721, 25.607937166693464], [90.17359678047096, 25.608015899590093], [90.17356825896069, 25.60809245252278], [90.1735314262374, 25.608166064025504], [90.17348664881375, 25.60823600179679], [90.1734343713558, 25.60830157241993], [90.1733751148864, 25.60836212298305], [90.17330946690375, 25.608417051609624], [90.17323807958473, 25.608465813938658], [90.17316166349677, 25.608507923934262], [90.17308097771628, 25.608542962796225], [90.17299682354046, 25.608570583820025], [90.1729100381992, 25.608590510776363], [90.17282148407509, 25.608602547631687], [90.1727320406189, 25.608606572877672]]]}}]}