{"type": "FeatureCollection", "features": [{"type": "Feature", "properties": {"premiumdata.sde.IN_Village_PCA.area": 12.03646955, "objectid": 123915, "id": "274754062652414", "name": "Dinacherapalli", "subdistrict": "Aheri", "district": "Gadchiroli", "state": "Maharashtra", "country": "India", "censusname": "Cherapallidina", "villagename_locallang": "\u0926\u093f\u0928\u091a\u0947\u0930\u093e\u092a\u0932\u094d\u0932\u0940", "lgd_villagename": "Dinacherapalli", "lgd_villagecode": 539837, "lgd_subdistrictcode": 4062, "lgd_districtcode": 475, "lgd_statecode": 27, "censuscode2001": "01479800", "censuscode2011": "539837", "censuscode2021": null, "level": "Village", "tru": "Rural", "no_hh": 190, "tot_p": 907, "tot_m": 462, "tot_f": 445, "per_tot_m": 50.93715546, "per_tot_f": 49.06284454, "p_06": 83, "m_06": 48, "f_06": 35, "per_p_06": 9.15104741, "per_m_06": 57.8313253, "per_f_06": 42.1686747, "p_sc": 0, "m_sc": 0, "f_sc": 0, "per_p_sc": 0.0, "per_m_sc": 0.0, "per_f_sc": 0.0, "p_st": 714, "m_st": 354, "f_st": 360, "per_p_st": 78.72105843, "per_m_st": 49.57983193, "per_f_st": 50.42016807, "p_lit": 555, "m_lit": 310, "f_lit": 245, "per_p_lit": 61.1907387, "per_m_lit": 55.85585586000001, "per_f_lit": 44.14414414, "p_ill": 352, "m_ill": 152, "f_ill": 200, "per_p_ill": 38.8092613, "per_m_ill": 43.18181818, "per_f_ill": 56.81818182, "tot_work_p": 277, "tot_work_m": 240, "tot_work_f": 37, "per_tot_work_p": 30.54024256, "per_tot_work_m": 86.64259928, "per_tot_work_f": 13.35740072, "mainwork_p": 272, "mainwork_m": 239, "mainwork_f": 33, "per_mainwork_p": 29.98897464, "per_mainwork_m": 87.86764706, "per_mainwork_f": 12.13235294, "main_cl_p": 191, "main_cl_m": 179, "main_cl_f": 12, "per_main_cl_p": 70.22058824, "per_main_cl_m": 93.71727749, "per_main_cl_f": 6.28272251, "main_al_p": 49, "main_al_m": 35, "main_al_f": 14, "per_main_al_p": 18.01470588, "per_main_al_m": 71.42857143, "per_main_al_f": 28.57142857, "main_hh_p": 0, "main_hh_m": 0, "main_hh_f": 0, "per_main_hh_p": 0.0, "per_main_hh_m": 0.0, "per_main_hh_f": 0.0, "main_ot_p": 32, "main_ot_m": 25, "main_ot_f": 7, "per_main_ot_p": 11.76470588, "per_main_ot_m": 78.125, "per_main_ot_f": 21.875, "margwork_p": 5, "margwork_m": 1, "margwork_f": 4, "per_margwork_p": 0.55126792, "per_margwork_m": 20.0, "per_margwork_f": 80.0, "marg_cl_p": 0, "marg_cl_m": 0, "marg_cl_f": 0, "per_marg_cl_p": 0.0, "per_marg_cl_m": 0.0, "per_marg_cl_f": 0.0, "marg_al_p": 4, "marg_al_m": 0, "marg_al_f": 4, "per_marg_al_p": 80.0, "per_marg_al_m": 0.0, "per_marg_al_f": 100.0, "marg_hh_p": 0, "marg_hh_m": 0, "marg_hh_f": 0, "per_marg_hh_p": 0.0, "per_marg_hh_m": 0.0, "per_marg_hh_f": 0.0, "marg_ot_p": 1, "marg_ot_m": 1, "marg_ot_f": 0, "per_marg_ot_p": 20.0, "per_marg_ot_m": 100.0, "per_marg_ot_f": 0.0, "margwork_3_6_p": 5, "margwork_3_6_m": 1, "margwork_3_6_f": 4, "per_margwork_3_6_p": 100.0, "per_margwork_3_6_m": 20.0, "per_margwork_3_6_f": 80.0, "marg_cl_3_6_p": 0, "marg_cl_3_6_m": 0, "marg_cl_3_6_f": 0, "per_marg_cl_3_6_p": 0.0, "per_marg_cl_3_6_m": 0.0, "per_marg_cl_3_6_f": 0.0, "marg_al_3_6_p": 4, "marg_al_3_6_m": 0, "marg_al_3_6_f": 4, "per_marg_al_3_6_p": 80.0, "per_marg_al_3_6_m": 0.0, "per_marg_al_3_6_f": 100.0, "marg_hh_3_6_p": 0, "marg_hh_3_6_m": 0, "marg_hh_3_6_f": 0, "per_marg_hh_3_6_p": 0.0, "per_marg_hh_3_6_m": 0.0, "per_marg_hh_3_6_f": 0.0, "marg_ot_3_6_p": 1, "marg_ot_3_6_m": 1, "marg_ot_3_6_f": 0, "per_marg_ot_3_6_p": 20.0, "per_marg_ot_3_6_m": 100.0, "per_marg_ot_3_6_f": 0.0, "margwork_0_3_p": 0, "margwork_0_3_m": 0, "margwork_0_3_f": 0, "per_margwork_0_3_p": 0.0, "per_margwork_0_3_m": 0.0, "per_margwork_0_3_f": 0.0, "marg_cl_0_3_p": 0, "marg_cl_0_3_m": 0, "marg_cl_0_3_f": 0, "per_marg_cl_0_3_p": 0.0, "per_marg_cl_0_3_m": 0.0, "per_marg_cl_0_3_f": 0.0, "marg_al_0_3_p": 0, "marg_al_0_3_m": 0, "marg_al_0_3_f": 0, "per_marg_al_0_3_p": 0.0, "per_marg_al_0_3_m": 0.0, "per_marg_al_0_3_f": 0.0, "marg_hh_0_3_p": 0, "marg_hh_0_3_m": 0, "marg_hh_0_3_f": 0, "per_marg_hh_0_3_p": 0.0, "per_marg_hh_0_3_m": 0.0, "per_marg_hh_0_3_f": 0.0, "marg_ot_0_3_p": 0, "marg_ot_0_3_m": 0, "marg_ot_0_3_f": 0, "per_marg_ot_0_3_p": 0.0, "per_marg_ot_0_3_m": 0.0, "per_marg_ot_0_3_f": 0.0, "non_work_p": 630, "non_work_m": 222, "non_work_f": 408, "per_non_work_p": 69.45975744, "per_non_work_m": 35.23809524, "per_non_work_f": 64.76190476, "per_hc_tot_tot": 100, "per_hc_tot_god": 32.3, "per_hc_tot_liv": 64.1, "per_hc_tot_dil": 3.6, "per_hc_res_tot": 100.0, "per_hc_res_god": 32.3, "per_hc_res_liv": 64.1, "per_hc_res_dil": 3.6, "per_hc_oth_tot": 0.0, "per_hc_oth_god": 0.0, "per_hc_oth_liv": 0.0, "per_hc_oth_dil": 0.0, "per_mt_grsbam": 1.6, "per_mt_plastic": 0.0, "per_mt_h_tiles": 0.0, "per_mt_m_tiles": 97.9, "per_mt_b_brick": 0.0, "per_mt_stone": 0.0, "per_mt_asbstos": 0.0, "per_mt_concrte": 0.5, "per_mt_oth": 0.0, "per_mw_grsbam": 4.7, "per_mw_plastic": 0.0, "per_mw_mud": 58.9, "per_mw_wood": 1.6, "per_mw_no_mrtr": 0.0, "per_mw_st_mrtr": 0.0, "per_mw_asbstos": 0.0, "per_mw_b_brick": 34.9, "per_mw_concrte": 0.0, "per_mw_oth": 0.0, "per_mf_mud": 72.9, "per_mf_wood": 0.0, "per_mf_b_brick": 0.0, "per_mf_stone": 0.0, "per_mf_cement": 27.1, "per_mf_fl_tile": 0.0, "per_mf_oth": 0.0, "per_dw_n_exrm": 2.6, "per_dw_1_room": 30.7, "per_dw_2_room": 50.5, "per_dw_3_room": 4.2, "per_dw_4_room": 10.9, "per_dw_5_room": 0.0, "per_dw_6_room": 1.0, "per_hhsize_1": 3.1, "per_hhsize_2": 8.3, "per_hhsize_3": 14.6, "per_hhsize_4": 19.3, "per_hhsize_5": 23.4, "per_hhsize_6_8": 27.6, "per_hhsize_9p": 3.6, "per_ow_owned": 100.0, "per_ow_rented": 0.0, "per_ow_oth": 0.0, "per_mc_none": 17.2, "per_mcouple_1": 72.9, "per_mcouple_2": 9.9, "per_mcouple_3": 0.0, "per_mcouple_4": 0.0, "per_mcouple_5p": 0.0, "per_dw_t_ts": 0.0, "per_dw_t_unts": 0.0, "per_dw_c_well": 0.0, "per_dw_unc_wel": 12.5, "per_dw_hpump": 87.5, "per_dw_tw_bore": 0.0, "per_dw_spring": 0.0, "per_dw_rivcan": 0.0, "per_dw_tank": 0.0, "per_dw_oth": 0.0, "per_loc_dw_wp": 7.8, "per_loc_dw_np": 13.0, "per_loc_dw_aw": 79.2, "per_light_elec": 54.2, "per_light_kero": 45.8, "per_light_solr": 0.0, "per_light_oil": 0.0, "per_light_oth": 0.0, "per_light_no": 0.0, "per_hh_latrine": 0.5, "per_fl_sewer": 0.0, "per_fl_septict": 0.5, "per_fl_othsys": 0.0, "per_pl_wslab": 0.0, "per_pl_without": 0.0, "per_ns_open": 0.0, "per_sl_ns_hum": 0.0, "per_sl_ns_anml": 0.0, "per_hh_no_lat": 99.5, "per_as_pub": 0.0, "per_as_open": 99.5, "per_hh_bathrm": 11.5, "per_hh_en_wrf": 48.4, "per_hh_no_btrm": 40.1, "per_wwoc_drain": 0.5, "per_wwoc_open": 0.0, "per_wwoc_nodrn": 99.5, "per_cook_fire": 96.9, "per_cook_resdu": 0.0, "per_cook_cwdng": 0.0, "per_cook_coal": 0.0, "per_cook_kero": 0.0, "per_cook_lpng": 2.6, "per_cook_elec": 0.0, "per_cook_biogs": 0.0, "per_cook_oth": 0.0, "per_cook_no": 0.5, "per_kf_inside": 94.3, "per_kf_in_has": 65.1, "per_kf_in_does": 29.2, "per_kf_outside": 5.2, "per_kf_out_has": 0.0, "per_kf_out_dos": 5.2, "per_kf_no_cook": 0.5, "per_hh_banking": 88.0, "per_hh_radio": 8.9, "per_hh_tv": 11.5, "per_hh_cmp_int": 0.0, "per_hh_cmp_wnt": 0.0, "per_hh_ph_ll": 0.0, "per_hh_ph_mob": 29.2, "per_hh_ph_bth": 0.0, "per_hh_bcycl": 56.8, "per_hh_2wheel": 2.1, "per_hh_4wheel": 0.0, "per_hh_tvcomp": 0.0, "per_hh_no_ast": 35.4, "per_hs_perma": 34.9, "per_hs_sperma": 63.5, "per_hs_temp": 1.6, "per_hs_servc": 0.0, "per_hs_nservc": 1.6, "per_hs_unclss": 0.0, "avghhsz_cy": 4.77368421, "st_areashape": 13614785.02801756, "st_lengthshape": 16490.120736571447}, "geometry": {"type": "Polygon", "coordinates": [[[80.00639438460453, 19.506253474889483], [80.00187372343001, 19.50598981924846], [79.99702741128687, 19.505462606594858], [79.99469711676115, 19.503634999701312], [79.9903908600887, 19.50081879182846], [79.98738591641158, 19.498491227391362], [79.98565109442646, 19.4960861379324], [79.98378436292671, 19.491747030890597], [79.98201861733627, 19.489373782509396], [79.97806624119025, 19.488009747660698], [79.97422543131093, 19.488019828586477], [79.96661734764142, 19.489510718111838], [79.96671585869211, 19.489172740568474], [79.96682380564656, 19.488944669561192], [79.96692181813223, 19.48860696352149], [79.96701951620759, 19.48826944054393], [79.96711687741471, 19.487932114179355], [79.96722414075124, 19.487704392868615], [79.96719327463806, 19.487376285040767], [79.96728966656298, 19.487039565705597], [79.96725787428677, 19.486712123008356], [79.96736425188439, 19.48648493435044], [79.96733165292105, 19.486158072325555], [79.96729851496856, 19.485831611901], [79.96727611817188, 19.485614202446293], [79.96724204058155, 19.48528845059912], [79.96709087208556, 19.485080936059997], [79.96705583060296, 19.484755852166582], [79.96690395782777, 19.48454884083262], [79.96673969908144, 19.48423394966651], [79.96658704836521, 19.48402748813272], [79.96642162450394, 19.483713387780437], [79.9662681500326, 19.48350751077401], [79.96610149278446, 19.483194245281013], [79.96581867618356, 19.482998865517075], [79.96566390903654, 19.482793910700725], [79.96536676430684, 19.482491983562337], [79.96521098835173, 19.482287736944667], [79.96492619905048, 19.482093862691887], [79.96464092196402, 19.481900369304817], [79.96434068882638, 19.4816006949099], [79.96405412714907, 19.48140816977183], [79.96376700492303, 19.481216068695563], [79.96347931136842, 19.481024402692114], [79.96288621666841, 19.480536812666024], [79.9615765888668, 19.479684957418428], [79.96486378410455, 19.476935367496328], [79.96765219427232, 19.47587735253102], [79.97314675767393, 19.475079647696823], [79.97969822673657, 19.474720175660554], [79.98589363057003, 19.474125815237954], [79.9915152552787, 19.474419593631932], [79.99713922908184, 19.475259435077888], [80.00421529360916, 19.478517654241877], [80.0122636613623, 19.48260714491994], [80.01556818869511, 19.483738845671684], [80.01754975183766, 19.48442205755505], [80.0186977781095, 19.487491370942237], [80.00639438460453, 19.506253474889483]]]}}]}