{"type": "FeatureCollection", "features": [{"type": "Feature", "properties": {"premiumdata.sde.IN_Village_PCA.area": 0.41103429, "objectid": 365098, "id": "9131938419271", "name": "Gangapur Panday", "subdistrict": "Harraiya", "district": "Basti", "state": "Uttar Pradesh", "country": "India", "censusname": "Gangapur Panday", "villagename_locallang": null, "lgd_villagename": "Gangapur Panday", "lgd_villagecode": 179943, "lgd_subdistrictcode": 938, "lgd_districtcode": 131, "lgd_statecode": 9, "censuscode2001": "07301100", "censuscode2011": "179943", "censuscode2021": null, "level": "Village", "tru": "Rural", "no_hh": 63, "tot_p": 320, "tot_m": 164, "tot_f": 156, "per_tot_m": 51.25, "per_tot_f": 48.75, "p_06": 35, "m_06": 19, "f_06": 16, "per_p_06": 10.9375, "per_m_06": 54.28571429, "per_f_06": 45.71428571, "p_sc": 69, "m_sc": 30, "f_sc": 39, "per_p_sc": 21.5625, "per_m_sc": 43.47826087, "per_f_sc": 56.52173913, "p_st": 0, "m_st": 0, "f_st": 0, "per_p_st": 0.0, "per_m_st": 0.0, "per_f_st": 0.0, "p_lit": 203, "m_lit": 122, "f_lit": 81, "per_p_lit": 63.4375, "per_m_lit": 60.09852217, "per_f_lit": 39.90147783, "p_ill": 117, "m_ill": 42, "f_ill": 75, "per_p_ill": 36.5625, "per_m_ill": 35.8974359, "per_f_ill": 64.1025641, "tot_work_p": 72, "tot_work_m": 69, "tot_work_f": 3, "per_tot_work_p": 22.5, "per_tot_work_m": 95.83333332999999, "per_tot_work_f": 4.16666667, "mainwork_p": 46, "mainwork_m": 44, "mainwork_f": 2, "per_mainwork_p": 14.375, "per_mainwork_m": 95.65217391, "per_mainwork_f": 4.34782609, "main_cl_p": 27, "main_cl_m": 26, "main_cl_f": 1, "per_main_cl_p": 58.69565217, "per_main_cl_m": 96.2962963, "per_main_cl_f": 3.7037037, "main_al_p": 6, "main_al_m": 6, "main_al_f": 0, "per_main_al_p": 13.04347826, "per_main_al_m": 100.0, "per_main_al_f": 0.0, "main_hh_p": 0, "main_hh_m": 0, "main_hh_f": 0, "per_main_hh_p": 0.0, "per_main_hh_m": 0.0, "per_main_hh_f": 0.0, "main_ot_p": 13, "main_ot_m": 12, "main_ot_f": 1, "per_main_ot_p": 28.26086957, "per_main_ot_m": 92.30769231, "per_main_ot_f": 7.69230769, "margwork_p": 26, "margwork_m": 25, "margwork_f": 1, "per_margwork_p": 8.125, "per_margwork_m": 96.15384615, "per_margwork_f": 3.84615385, "marg_cl_p": 3, "marg_cl_m": 3, "marg_cl_f": 0, "per_marg_cl_p": 11.53846154, "per_marg_cl_m": 100.0, "per_marg_cl_f": 0.0, "marg_al_p": 19, "marg_al_m": 18, "marg_al_f": 1, "per_marg_al_p": 73.07692308, "per_marg_al_m": 94.73684211, "per_marg_al_f": 5.26315789, "marg_hh_p": 1, "marg_hh_m": 1, "marg_hh_f": 0, "per_marg_hh_p": 3.84615385, "per_marg_hh_m": 100.0, "per_marg_hh_f": 0.0, "marg_ot_p": 3, "marg_ot_m": 3, "marg_ot_f": 0, "per_marg_ot_p": 11.53846154, "per_marg_ot_m": 100.0, "per_marg_ot_f": 0.0, "margwork_3_6_p": 20, "margwork_3_6_m": 19, "margwork_3_6_f": 1, "per_margwork_3_6_p": 76.92307692, "per_margwork_3_6_m": 95.0, "per_margwork_3_6_f": 5.0, "marg_cl_3_6_p": 2, "marg_cl_3_6_m": 2, "marg_cl_3_6_f": 0, "per_marg_cl_3_6_p": 7.69230769, "per_marg_cl_3_6_m": 100.0, "per_marg_cl_3_6_f": 0.0, "marg_al_3_6_p": 14, "marg_al_3_6_m": 13, "marg_al_3_6_f": 1, "per_marg_al_3_6_p": 53.84615385, "per_marg_al_3_6_m": 92.85714286, "per_marg_al_3_6_f": 7.14285714, "marg_hh_3_6_p": 1, "marg_hh_3_6_m": 1, "marg_hh_3_6_f": 0, "per_marg_hh_3_6_p": 3.84615385, "per_marg_hh_3_6_m": 100.0, "per_marg_hh_3_6_f": 0.0, "marg_ot_3_6_p": 3, "marg_ot_3_6_m": 3, "marg_ot_3_6_f": 0, "per_marg_ot_3_6_p": 11.53846154, "per_marg_ot_3_6_m": 100.0, "per_marg_ot_3_6_f": 0.0, "margwork_0_3_p": 6, "margwork_0_3_m": 6, "margwork_0_3_f": 0, "per_margwork_0_3_p": 23.07692308, "per_margwork_0_3_m": 100.0, "per_margwork_0_3_f": 0.0, "marg_cl_0_3_p": 1, "marg_cl_0_3_m": 1, "marg_cl_0_3_f": 0, "per_marg_cl_0_3_p": 3.84615385, "per_marg_cl_0_3_m": 100.0, "per_marg_cl_0_3_f": 0.0, "marg_al_0_3_p": 5, "marg_al_0_3_m": 5, "marg_al_0_3_f": 0, "per_marg_al_0_3_p": 19.23076923, "per_marg_al_0_3_m": 100.0, "per_marg_al_0_3_f": 0.0, "marg_hh_0_3_p": 0, "marg_hh_0_3_m": 0, "marg_hh_0_3_f": 0, "per_marg_hh_0_3_p": 0.0, "per_marg_hh_0_3_m": 0.0, "per_marg_hh_0_3_f": 0.0, "marg_ot_0_3_p": 0, "marg_ot_0_3_m": 0, "marg_ot_0_3_f": 0, "per_marg_ot_0_3_p": 0.0, "per_marg_ot_0_3_m": 0.0, "per_marg_ot_0_3_f": 0.0, "non_work_p": 248, "non_work_m": 95, "non_work_f": 153, "per_non_work_p": 77.5, "per_non_work_m": 38.30645161, "per_non_work_f": 61.69354839, "per_hc_tot_tot": 100, "per_hc_tot_god": 33.3, "per_hc_tot_liv": 42.9, "per_hc_tot_dil": 23.8, "per_hc_res_tot": 100.0, "per_hc_res_god": 33.3, "per_hc_res_liv": 42.9, "per_hc_res_dil": 23.8, "per_hc_oth_tot": 0.0, "per_hc_oth_god": 0.0, "per_hc_oth_liv": 0.0, "per_hc_oth_dil": 0.0, "per_mt_grsbam": 15.9, "per_mt_plastic": 0.0, "per_mt_h_tiles": 0.0, "per_mt_m_tiles": 1.6, "per_mt_b_brick": 65.1, "per_mt_stone": 1.6, "per_mt_asbstos": 1.6, "per_mt_concrte": 14.3, "per_mt_oth": 0.0, "per_mw_grsbam": 1.6, "per_mw_plastic": 0.0, "per_mw_mud": 14.3, "per_mw_wood": 0.0, "per_mw_no_mrtr": 0.0, "per_mw_st_mrtr": 0.0, "per_mw_asbstos": 0.0, "per_mw_b_brick": 84.1, "per_mw_concrte": 0.0, "per_mw_oth": 0.0, "per_mf_mud": 77.8, "per_mf_wood": 0.0, "per_mf_b_brick": 19.0, "per_mf_stone": 0.0, "per_mf_cement": 3.2, "per_mf_fl_tile": 0.0, "per_mf_oth": 0.0, "per_dw_n_exrm": 7.9, "per_dw_1_room": 34.9, "per_dw_2_room": 22.2, "per_dw_3_room": 14.3, "per_dw_4_room": 7.9, "per_dw_5_room": 7.9, "per_dw_6_room": 4.8, "per_hhsize_1": 3.2, "per_hhsize_2": 6.3, "per_hhsize_3": 11.1, "per_hhsize_4": 9.5, "per_hhsize_5": 14.3, "per_hhsize_6_8": 34.9, "per_hhsize_9p": 20.6, "per_ow_owned": 100.0, "per_ow_rented": 0.0, "per_ow_oth": 0.0, "per_mc_none": 3.2, "per_mcouple_1": 50.8, "per_mcouple_2": 30.2, "per_mcouple_3": 12.7, "per_mcouple_4": 1.6, "per_mcouple_5p": 1.6, "per_dw_t_ts": 1.6, "per_dw_t_unts": 81.0, "per_dw_c_well": 3.2, "per_dw_unc_wel": 1.6, "per_dw_hpump": 11.1, "per_dw_tw_bore": 0.0, "per_dw_spring": 0.0, "per_dw_rivcan": 0.0, "per_dw_tank": 0.0, "per_dw_oth": 1.6, "per_loc_dw_wp": 27.0, "per_loc_dw_np": 71.4, "per_loc_dw_aw": 1.6, "per_light_elec": 46.0, "per_light_kero": 54.0, "per_light_solr": 0.0, "per_light_oil": 0.0, "per_light_oth": 0.0, "per_light_no": 0.0, "per_hh_latrine": 31.7, "per_fl_sewer": 0.0, "per_fl_septict": 12.7, "per_fl_othsys": 0.0, "per_pl_wslab": 9.5, "per_pl_without": 9.5, "per_ns_open": 0.0, "per_sl_ns_hum": 0.0, "per_sl_ns_anml": 0.0, "per_hh_no_lat": 68.3, "per_as_pub": 0.0, "per_as_open": 68.3, "per_hh_bathrm": 17.5, "per_hh_en_wrf": 31.7, "per_hh_no_btrm": 50.8, "per_wwoc_drain": 9.5, "per_wwoc_open": 23.8, "per_wwoc_nodrn": 66.7, "per_cook_fire": 92.1, "per_cook_resdu": 0.0, "per_cook_cwdng": 0.0, "per_cook_coal": 0.0, "per_cook_kero": 0.0, "per_cook_lpng": 6.3, "per_cook_elec": 0.0, "per_cook_biogs": 0.0, "per_cook_oth": 0.0, "per_cook_no": 1.6, "per_kf_inside": 73.0, "per_kf_in_has": 23.8, "per_kf_in_does": 49.2, "per_kf_outside": 25.4, "per_kf_out_has": 15.9, "per_kf_out_dos": 9.5, "per_kf_no_cook": 1.6, "per_hh_banking": 85.7, "per_hh_radio": 38.1, "per_hh_tv": 25.4, "per_hh_cmp_int": 0.0, "per_hh_cmp_wnt": 1.6, "per_hh_ph_ll": 0.0, "per_hh_ph_mob": 54.0, "per_hh_ph_bth": 0.0, "per_hh_bcycl": 81.0, "per_hh_2wheel": 11.1, "per_hh_4wheel": 0.0, "per_hh_tvcomp": 0.0, "per_hh_no_ast": 11.1, "per_hs_perma": 82.5, "per_hs_sperma": 3.2, "per_hs_temp": 14.3, "per_hs_servc": 12.7, "per_hs_nservc": 1.6, "per_hs_unclss": 0.0, "avghhsz_cy": 5.07936508, "st_areashape": 517794.05478266, "st_lengthshape": 3278.6036873754565}, "geometry": {"type": "Polygon", "coordinates": [[[82.36043153867887, 26.781619084375627], [82.35972197201235, 26.781883051033034], [82.35762824073187, 26.782435033719832], [82.35611125211831, 26.782770046039317], [82.35613189270862, 26.782478215382838], [82.35603024384262, 26.7820430691175], [82.35587784914625, 26.781333125885595], [82.35569933144144, 26.78119558483768], [82.35536764469245, 26.781080817605456], [82.354908268714, 26.781057532776323], [82.35479228093948, 26.78106291471193], [82.35513451660483, 26.780507035841193], [82.35604747173316, 26.779978166837793], [82.35687993332043, 26.779425147288322], [82.35730959482588, 26.779136616162937], [82.35765661671509, 26.778802272391985], [82.35808836141366, 26.77858354519755], [82.35924283130106, 26.778030777091743], [82.36071937237061, 26.777406041964362], [82.36230318755648, 26.776829534118594], [82.36348424128808, 26.776493426394435], [82.36497770931254, 26.776048615632984], [82.36514578679716, 26.77652120330035], [82.3654395969805, 26.777941819170536], [82.3658146256453, 26.778616192785886], [82.36622262068443, 26.779395493683243], [82.36441991570821, 26.780129373222497], [82.36211122656341, 26.780994222236004], [82.36043153867887, 26.781619084375627]]]}}]}