{"type": "FeatureCollection", "features": [{"type": "Feature", "properties": {"premiumdata.sde.IN_Village_PCA.area": 2.70925868, "objectid": 127557, "id": "21363321378826", "name": "Pantalung", "subdistrict": "Padua", "district": "Koraput", "state": "Odisha", "country": "India", "censusname": "Pantalung", "villagename_locallang": null, "lgd_villagename": "Pantalung", "lgd_villagecode": 429722, "lgd_subdistrictcode": 3213, "lgd_districtcode": 363, "lgd_statecode": 21, "censuscode2001": "04967800", "censuscode2011": "429722", "censuscode2021": null, "level": "Village", "tru": "Rural", "no_hh": 204, "tot_p": 717, "tot_m": 365, "tot_f": 352, "per_tot_m": 50.90655509, "per_tot_f": 49.09344491, "p_06": 124, "m_06": 66, "f_06": 58, "per_p_06": 17.29428173, "per_m_06": 53.22580645, "per_f_06": 46.77419355, "p_sc": 435, "m_sc": 217, "f_sc": 218, "per_p_sc": 60.66945607, "per_m_sc": 49.88505747, "per_f_sc": 50.11494253, "p_st": 108, "m_st": 56, "f_st": 52, "per_p_st": 15.06276151, "per_m_st": 51.85185185, "per_f_st": 48.14814815, "p_lit": 224, "m_lit": 160, "f_lit": 64, "per_p_lit": 31.24128312, "per_m_lit": 71.42857143, "per_f_lit": 28.57142857, "p_ill": 493, "m_ill": 205, "f_ill": 288, "per_p_ill": 68.75871688000001, "per_m_ill": 41.5821501, "per_f_ill": 58.4178499, "tot_work_p": 385, "tot_work_m": 196, "tot_work_f": 189, "per_tot_work_p": 53.69595537, "per_tot_work_m": 50.90909091, "per_tot_work_f": 49.09090909, "mainwork_p": 379, "mainwork_m": 193, "mainwork_f": 186, "per_mainwork_p": 52.85913529, "per_mainwork_m": 50.92348285, "per_mainwork_f": 49.07651715, "main_cl_p": 364, "main_cl_m": 184, "main_cl_f": 180, "per_main_cl_p": 96.04221636, "per_main_cl_m": 50.54945055, "per_main_cl_f": 49.45054945, "main_al_p": 0, "main_al_m": 0, "main_al_f": 0, "per_main_al_p": 0.0, "per_main_al_m": 0.0, "per_main_al_f": 0.0, "main_hh_p": 2, "main_hh_m": 1, "main_hh_f": 1, "per_main_hh_p": 0.52770449, "per_main_hh_m": 50.0, "per_main_hh_f": 50.0, "main_ot_p": 13, "main_ot_m": 8, "main_ot_f": 5, "per_main_ot_p": 3.43007916, "per_main_ot_m": 61.53846154, "per_main_ot_f": 38.46153846, "margwork_p": 6, "margwork_m": 3, "margwork_f": 3, "per_margwork_p": 0.83682008, "per_margwork_m": 50.0, "per_margwork_f": 50.0, "marg_cl_p": 1, "marg_cl_m": 1, "marg_cl_f": 0, "per_marg_cl_p": 16.66666667, "per_marg_cl_m": 100.0, "per_marg_cl_f": 0.0, "marg_al_p": 4, "marg_al_m": 2, "marg_al_f": 2, "per_marg_al_p": 66.66666667, "per_marg_al_m": 50.0, "per_marg_al_f": 50.0, "marg_hh_p": 0, "marg_hh_m": 0, "marg_hh_f": 0, "per_marg_hh_p": 0.0, "per_marg_hh_m": 0.0, "per_marg_hh_f": 0.0, "marg_ot_p": 1, "marg_ot_m": 0, "marg_ot_f": 1, "per_marg_ot_p": 16.66666667, "per_marg_ot_m": 0.0, "per_marg_ot_f": 100.0, "margwork_3_6_p": 6, "margwork_3_6_m": 3, "margwork_3_6_f": 3, "per_margwork_3_6_p": 100.0, "per_margwork_3_6_m": 50.0, "per_margwork_3_6_f": 50.0, "marg_cl_3_6_p": 1, "marg_cl_3_6_m": 1, "marg_cl_3_6_f": 0, "per_marg_cl_3_6_p": 16.66666667, "per_marg_cl_3_6_m": 100.0, "per_marg_cl_3_6_f": 0.0, "marg_al_3_6_p": 4, "marg_al_3_6_m": 2, "marg_al_3_6_f": 2, "per_marg_al_3_6_p": 66.66666667, "per_marg_al_3_6_m": 50.0, "per_marg_al_3_6_f": 50.0, "marg_hh_3_6_p": 0, "marg_hh_3_6_m": 0, "marg_hh_3_6_f": 0, "per_marg_hh_3_6_p": 0.0, "per_marg_hh_3_6_m": 0.0, "per_marg_hh_3_6_f": 0.0, "marg_ot_3_6_p": 1, "marg_ot_3_6_m": 0, "marg_ot_3_6_f": 1, "per_marg_ot_3_6_p": 16.66666667, "per_marg_ot_3_6_m": 0.0, "per_marg_ot_3_6_f": 100.0, "margwork_0_3_p": 0, "margwork_0_3_m": 0, "margwork_0_3_f": 0, "per_margwork_0_3_p": 0.0, "per_margwork_0_3_m": 0.0, "per_margwork_0_3_f": 0.0, "marg_cl_0_3_p": 0, "marg_cl_0_3_m": 0, "marg_cl_0_3_f": 0, "per_marg_cl_0_3_p": 0.0, "per_marg_cl_0_3_m": 0.0, "per_marg_cl_0_3_f": 0.0, "marg_al_0_3_p": 0, "marg_al_0_3_m": 0, "marg_al_0_3_f": 0, "per_marg_al_0_3_p": 0.0, "per_marg_al_0_3_m": 0.0, "per_marg_al_0_3_f": 0.0, "marg_hh_0_3_p": 0, "marg_hh_0_3_m": 0, "marg_hh_0_3_f": 0, "per_marg_hh_0_3_p": 0.0, "per_marg_hh_0_3_m": 0.0, "per_marg_hh_0_3_f": 0.0, "marg_ot_0_3_p": 0, "marg_ot_0_3_m": 0, "marg_ot_0_3_f": 0, "per_marg_ot_0_3_p": 0.0, "per_marg_ot_0_3_m": 0.0, "per_marg_ot_0_3_f": 0.0, "non_work_p": 332, "non_work_m": 169, "non_work_f": 163, "per_non_work_p": 46.30404463, "per_non_work_m": 50.90361446, "per_non_work_f": 49.09638554, "per_hc_tot_tot": 100, "per_hc_tot_god": 26.7, "per_hc_tot_liv": 53.9, "per_hc_tot_dil": 19.4, "per_hc_res_tot": 100.0, "per_hc_res_god": 26.7, "per_hc_res_liv": 53.9, "per_hc_res_dil": 19.4, "per_hc_oth_tot": 0.0, "per_hc_oth_god": 0.0, "per_hc_oth_liv": 0.0, "per_hc_oth_dil": 0.0, "per_mt_grsbam": 3.9, "per_mt_plastic": 0.5, "per_mt_h_tiles": 0.5, "per_mt_m_tiles": 57.3, "per_mt_b_brick": 0.0, "per_mt_stone": 0.5, "per_mt_asbstos": 37.4, "per_mt_concrte": 0.0, "per_mt_oth": 0.0, "per_mw_grsbam": 0.0, "per_mw_plastic": 0.0, "per_mw_mud": 64.6, "per_mw_wood": 0.0, "per_mw_no_mrtr": 0.0, "per_mw_st_mrtr": 11.7, "per_mw_asbstos": 0.5, "per_mw_b_brick": 23.3, "per_mw_concrte": 0.0, "per_mw_oth": 0.0, "per_mf_mud": 64.6, "per_mf_wood": 0.5, "per_mf_b_brick": 0.0, "per_mf_stone": 0.0, "per_mf_cement": 35.0, "per_mf_fl_tile": 0.0, "per_mf_oth": 0.0, "per_dw_n_exrm": 0.0, "per_dw_1_room": 73.3, "per_dw_2_room": 26.2, "per_dw_3_room": 0.5, "per_dw_4_room": 0.0, "per_dw_5_room": 0.0, "per_dw_6_room": 0.0, "per_hhsize_1": 6.3, "per_hhsize_2": 17.0, "per_hhsize_3": 10.7, "per_hhsize_4": 27.2, "per_hhsize_5": 21.4, "per_hhsize_6_8": 16.5, "per_hhsize_9p": 1.0, "per_ow_owned": 99.0, "per_ow_rented": 1.0, "per_ow_oth": 0.0, "per_mc_none": 13.6, "per_mcouple_1": 83.0, "per_mcouple_2": 3.4, "per_mcouple_3": 0.0, "per_mcouple_4": 0.0, "per_mcouple_5p": 0.0, "per_dw_t_ts": 0.0, "per_dw_t_unts": 0.0, "per_dw_c_well": 0.5, "per_dw_unc_wel": 0.0, "per_dw_hpump": 50.0, "per_dw_tw_bore": 45.1, "per_dw_spring": 0.0, "per_dw_rivcan": 4.4, "per_dw_tank": 0.0, "per_dw_oth": 0.0, "per_loc_dw_wp": 0.0, "per_loc_dw_np": 4.9, "per_loc_dw_aw": 95.1, "per_light_elec": 0.0, "per_light_kero": 99.5, "per_light_solr": 0.5, "per_light_oil": 0.0, "per_light_oth": 0.0, "per_light_no": 0.0, "per_hh_latrine": 0.0, "per_fl_sewer": 0.0, "per_fl_septict": 0.0, "per_fl_othsys": 0.0, "per_pl_wslab": 0.0, "per_pl_without": 0.0, "per_ns_open": 0.0, "per_sl_ns_hum": 0.0, "per_sl_ns_anml": 0.0, "per_hh_no_lat": 100.0, "per_as_pub": 0.0, "per_as_open": 100.0, "per_hh_bathrm": 0.0, "per_hh_en_wrf": 1.0, "per_hh_no_btrm": 99.0, "per_wwoc_drain": 0.0, "per_wwoc_open": 0.0, "per_wwoc_nodrn": 100.0, "per_cook_fire": 99.5, "per_cook_resdu": 0.0, "per_cook_cwdng": 0.0, "per_cook_coal": 0.0, "per_cook_kero": 0.0, "per_cook_lpng": 0.0, "per_cook_elec": 0.0, "per_cook_biogs": 0.0, "per_cook_oth": 0.5, "per_cook_no": 0.0, "per_kf_inside": 84.0, "per_kf_in_has": 80.1, "per_kf_in_does": 3.9, "per_kf_outside": 16.0, "per_kf_out_has": 15.5, "per_kf_out_dos": 0.5, "per_kf_no_cook": 0.0, "per_hh_banking": 4.9, "per_hh_radio": 18.4, "per_hh_tv": 1.0, "per_hh_cmp_int": 0.0, "per_hh_cmp_wnt": 1.9, "per_hh_ph_ll": 0.0, "per_hh_ph_mob": 51.5, "per_hh_ph_bth": 0.0, "per_hh_bcycl": 32.5, "per_hh_2wheel": 1.9, "per_hh_4wheel": 0.0, "per_hh_tvcomp": 0.0, "per_hh_no_ast": 26.7, "per_hs_perma": 35.0, "per_hs_sperma": 61.2, "per_hs_temp": 3.9, "per_hs_servc": 3.9, "per_hs_nservc": 0.0, "per_hs_unclss": 0.0, "avghhsz_cy": 3.51470588, "st_areashape": 3022100.800843705, "st_lengthshape": 9371.363130008485}, "geometry": {"type": "Polygon", "coordinates": [[[82.62268397975602, 18.31143557994461], [82.62217988025284, 18.311643099092294], [82.62168372275511, 18.311701533019885], [82.62136649708556, 18.311663605294214], [82.62120942306488, 18.31156101712092], [82.6206393575755, 18.311285731334998], [82.62017925306337, 18.311154132273508], [82.61970082022451, 18.31107238096793], [82.6191484210035, 18.31117646870305], [82.61857375973308, 18.311434293881373], [82.61826404757257, 18.311703467228785], [82.61796718760885, 18.31181888095652], [82.61762346612998, 18.311993456748656], [82.61748382840896, 18.312234114233526], [82.61745191755514, 18.312360876970345], [82.61732088299958, 18.31251562922753], [82.61719384055714, 18.312584465576904], [82.61698187857428, 18.312681131155003], [82.61682178621425, 18.312763761811738], [82.61655478175898, 18.3130371246986], [82.61600253255658, 18.313159267129016], [82.61558298428461, 18.3133208753279], [82.61531850768857, 18.313363807877117], [82.61504876876155, 18.313343458795032], [82.61460846671159, 18.313302010996765], [82.61428684468704, 18.31330477497962], [82.61389866558478, 18.313267354179086], [82.61370384974573, 18.313174140285017], [82.6133898867573, 18.312978022611276], [82.61304344607808, 18.31284989069725], [82.61280202294718, 18.312833896907627], [82.61256723567128, 18.313021114722726], [82.6123433189086, 18.313352769858493], [82.61222274164126, 18.313611337157226], [82.61213830629275, 18.31368886241339], [82.61201125127391, 18.3137621883707], [82.61165667185823, 18.31377873811024], [82.6113212436261, 18.31382218479355], [82.61103241639763, 18.313792996333028], [82.61079611096888, 18.313813134716852], [82.61061695635853, 18.313868856812764], [82.6104146431801, 18.313987995896433], [82.61007561899187, 18.314157976246648], [82.60964235344552, 18.31436043921578], [82.6094773203514, 18.314411507338082], [82.60922217635283, 18.314440782681157], [82.6090187438736, 18.314437959019617], [82.60876775188825, 18.314403969328705], [82.60857341305464, 18.31436494206677], [82.60828842612399, 18.314231767641306], [82.60799312833058, 18.31401742567054], [82.60779784626588, 18.313865423379088], [82.60753606910727, 18.313695976604365], [82.60720879128968, 18.313590328024283], [82.60693289441141, 18.313425533951555], [82.6068221150689, 18.313214072655693], [82.60671166271314, 18.313034341096646], [82.60652955893367, 18.312769295764245], [82.60634759618975, 18.312531396195947], [82.60619373723945, 18.312257141310415], [82.6060871117068, 18.31198241693701], [82.60604530321517, 18.311549076696874], [82.60604856769291, 18.311395491096295], [82.60599574226262, 18.311305537407662], [82.60596669344129, 18.31123350415006], [82.60581433557583, 18.311130908899333], [82.60568657807443, 18.31111839875605], [82.60549767674323, 18.311151634338835], [82.60525912283133, 18.311447217622906], [82.60518593708512, 18.311718973306505], [82.60505737559154, 18.31213110936754], [82.60489520183502, 18.312498439750804], [82.60254760126534, 18.312847930916565], [82.60054087002351, 18.31271566101976], [82.6006336974334, 18.312520602031263], [82.60063314766445, 18.312457420719717], [82.60058526566316, 18.31239452422781], [82.60047553914616, 18.312291538219373], [82.5998403619683, 18.312147828122114], [82.59939002394, 18.312038643641266], [82.59901988390696, 18.311910714004235], [82.59864935580171, 18.311737666392187], [82.59823716024032, 18.3116643080228], [82.59799496455825, 18.31155338176525], [82.59788555424822, 18.311486522711355], [82.59778515943037, 18.311374383619313], [82.59766044901444, 18.31117664523853], [82.59753404976578, 18.310811744322447], [82.59746512293232, 18.310514156651966], [82.59730874869925, 18.309964340335956], [82.59730669155726, 18.309738486626], [82.59745626195034, 18.309542981661206], [82.59779824069754, 18.309187720343676], [82.59791860775908, 18.30890211739556], [82.59797921798966, 18.308291710886607], [82.59801964127911, 18.30754592658029], [82.59809307675697, 18.307301320718263], [82.59828509344557, 18.307096447872922], [82.59870822958878, 18.306817343602983], [82.5990833283222, 18.306457277697568], [82.59928317203187, 18.3060761788246], [82.59946052013022, 18.305808096912145], [82.5996491618483, 18.305756807921362], [82.59987611940821, 18.305750424301028], [82.60017858485932, 18.30571629730067], [82.60044233471831, 18.305596550409042], [82.60072372120129, 18.305341216262814], [82.60096816356987, 18.30517650303616], [82.6010949823318, 18.305076134421526], [82.60116465925847, 18.30493550398019], [82.60116424693177, 18.304899284755418], [82.60179451391825, 18.30553556779272], [82.60247828366475, 18.306862508819467], [82.60330200284771, 18.307451994920356], [82.60430848158023, 18.307348665686053], [82.60626367377928, 18.30600402996203], [82.60736312005886, 18.305719190185705], [82.60972255862734, 18.306160157582692], [82.61039418764277, 18.3061545134009], [82.61130440829936, 18.305871249094377], [82.61177610018031, 18.305221189374528], [82.61214769099253, 18.3039802573445], [82.61188906422562, 18.302102999233767], [82.6113220377368, 18.300106475850985], [82.61237664910057, 18.300106608047813], [82.61349305108116, 18.300124347158192], [82.61375297771032, 18.29908752939727], [82.61398976194111, 18.297581194867607], [82.61487969414698, 18.29817906492971], [82.61579499657314, 18.29844686866613], [82.61694456794727, 18.298482336137376], [82.61780709524879, 18.298154298638956], [82.6187099937375, 18.297093960670487], [82.61884495842241, 18.298384877120995], [82.6191339572291, 18.29894716531269], [82.61940851741424, 18.299477976777908], [82.61991690188127, 18.300237126373542], [82.62041969433568, 18.300905946814385], [82.62149527597144, 18.302134669819267], [82.62174389191287, 18.302417218707454], [82.62227761605746, 18.303356863088442], [82.6224447907352, 18.304042189745502], [82.6225770505928, 18.305039412039555], [82.62259821220594, 18.30578016335596], [82.62263881965004, 18.307089921876265], [82.62256214844054, 18.307998598874775], [82.62257705418604, 18.30858584581167], [82.62254403840441, 18.30961609360692], [82.62268397975602, 18.31143557994461]]]}}]}