{"type": "FeatureCollection", "features": [{"type": "Feature", "properties": {"premiumdata.sde.IN_Village_PCA.area": 2.06812797, "objectid": 184208, "id": "21352299968135", "name": "Mangalpur", "subdistrict": "Dhenkanal Sadar", "district": "Dhenkanal", "state": "Odisha", "country": "India", "censusname": "Mangalpur", "villagename_locallang": null, "lgd_villagename": "Mangalpur", "lgd_villagecode": 403317, "lgd_subdistrictcode": 2999, "lgd_districtcode": 352, "lgd_statecode": 21, "censuscode2001": "02334700", "censuscode2011": "403317", "censuscode2021": null, "level": "Village", "tru": "Rural", "no_hh": 664, "tot_p": 2973, "tot_m": 1545, "tot_f": 1428, "per_tot_m": 51.96770938, "per_tot_f": 48.03229062, "p_06": 380, "m_06": 219, "f_06": 161, "per_p_06": 12.78170198, "per_m_06": 57.63157895000001, "per_f_06": 42.36842105, "p_sc": 551, "m_sc": 286, "f_sc": 265, "per_p_sc": 18.53346788, "per_m_sc": 51.90562613, "per_f_sc": 48.09437387, "p_st": 308, "m_st": 146, "f_st": 162, "per_p_st": 10.35990582, "per_m_st": 47.4025974, "per_f_st": 52.5974026, "p_lit": 2070, "m_lit": 1148, "f_lit": 922, "per_p_lit": 69.62663976, "per_m_lit": 55.4589372, "per_f_lit": 44.5410628, "p_ill": 903, "m_ill": 397, "f_ill": 506, "per_p_ill": 30.37336024, "per_m_ill": 43.96456257, "per_f_ill": 56.03543743, "tot_work_p": 995, "tot_work_m": 833, "tot_work_f": 162, "per_tot_work_p": 33.46787756, "per_tot_work_m": 83.71859296000001, "per_tot_work_f": 16.28140704, "mainwork_p": 739, "mainwork_m": 693, "mainwork_f": 46, "per_mainwork_p": 24.85704675, "per_mainwork_m": 93.77537212, "per_mainwork_f": 6.22462788, "main_cl_p": 121, "main_cl_m": 119, "main_cl_f": 2, "per_main_cl_p": 16.37347767, "per_main_cl_m": 98.34710744, "per_main_cl_f": 1.65289256, "main_al_p": 34, "main_al_m": 34, "main_al_f": 0, "per_main_al_p": 4.60081191, "per_main_al_m": 100.0, "per_main_al_f": 0.0, "main_hh_p": 14, "main_hh_m": 13, "main_hh_f": 1, "per_main_hh_p": 1.89445196, "per_main_hh_m": 92.85714286, "per_main_hh_f": 7.14285714, "main_ot_p": 570, "main_ot_m": 527, "main_ot_f": 43, "per_main_ot_p": 77.13125846000001, "per_main_ot_m": 92.45614035000001, "per_main_ot_f": 7.54385965, "margwork_p": 256, "margwork_m": 140, "margwork_f": 116, "per_margwork_p": 8.61083081, "per_margwork_m": 54.6875, "per_margwork_f": 45.3125, "marg_cl_p": 20, "marg_cl_m": 15, "marg_cl_f": 5, "per_marg_cl_p": 7.8125, "per_marg_cl_m": 75.0, "per_marg_cl_f": 25.0, "marg_al_p": 80, "marg_al_m": 32, "marg_al_f": 48, "per_marg_al_p": 31.25, "per_marg_al_m": 40.0, "per_marg_al_f": 60.0, "marg_hh_p": 11, "marg_hh_m": 8, "marg_hh_f": 3, "per_marg_hh_p": 4.296875, "per_marg_hh_m": 72.72727273, "per_marg_hh_f": 27.27272727, "marg_ot_p": 145, "marg_ot_m": 85, "marg_ot_f": 60, "per_marg_ot_p": 56.640625, "per_marg_ot_m": 58.62068966, "per_marg_ot_f": 41.37931034, "margwork_3_6_p": 127, "margwork_3_6_m": 57, "margwork_3_6_f": 70, "per_margwork_3_6_p": 49.609375, "per_margwork_3_6_m": 44.88188976, "per_margwork_3_6_f": 55.11811024, "marg_cl_3_6_p": 13, "marg_cl_3_6_m": 8, "marg_cl_3_6_f": 5, "per_marg_cl_3_6_p": 5.078125, "per_marg_cl_3_6_m": 61.53846154, "per_marg_cl_3_6_f": 38.46153846, "marg_al_3_6_p": 49, "marg_al_3_6_m": 12, "marg_al_3_6_f": 37, "per_marg_al_3_6_p": 19.140625, "per_marg_al_3_6_m": 24.48979592, "per_marg_al_3_6_f": 75.51020408, "marg_hh_3_6_p": 3, "marg_hh_3_6_m": 1, "marg_hh_3_6_f": 2, "per_marg_hh_3_6_p": 1.171875, "per_marg_hh_3_6_m": 33.33333333, "per_marg_hh_3_6_f": 66.66666667, "marg_ot_3_6_p": 62, "marg_ot_3_6_m": 36, "marg_ot_3_6_f": 26, "per_marg_ot_3_6_p": 24.21875, "per_marg_ot_3_6_m": 58.06451613, "per_marg_ot_3_6_f": 41.93548387, "margwork_0_3_p": 129, "margwork_0_3_m": 83, "margwork_0_3_f": 46, "per_margwork_0_3_p": 50.390625, "per_margwork_0_3_m": 64.34108527, "per_margwork_0_3_f": 35.65891473, "marg_cl_0_3_p": 7, "marg_cl_0_3_m": 7, "marg_cl_0_3_f": 0, "per_marg_cl_0_3_p": 2.734375, "per_marg_cl_0_3_m": 100.0, "per_marg_cl_0_3_f": 0.0, "marg_al_0_3_p": 31, "marg_al_0_3_m": 20, "marg_al_0_3_f": 11, "per_marg_al_0_3_p": 12.109375, "per_marg_al_0_3_m": 64.51612902999999, "per_marg_al_0_3_f": 35.48387097000001, "marg_hh_0_3_p": 8, "marg_hh_0_3_m": 7, "marg_hh_0_3_f": 1, "per_marg_hh_0_3_p": 3.125, "per_marg_hh_0_3_m": 87.5, "per_marg_hh_0_3_f": 12.5, "marg_ot_0_3_p": 83, "marg_ot_0_3_m": 49, "marg_ot_0_3_f": 34, "per_marg_ot_0_3_p": 32.421875, "per_marg_ot_0_3_m": 59.03614458, "per_marg_ot_0_3_f": 40.96385542, "non_work_p": 1978, "non_work_m": 712, "non_work_f": 1266, "per_non_work_p": 66.53212244, "per_non_work_m": 35.99595551, "per_non_work_f": 64.00404449, "per_hc_tot_tot": 100, "per_hc_tot_god": 59.0, "per_hc_tot_liv": 37.8, "per_hc_tot_dil": 3.2, "per_hc_res_tot": 99.2, "per_hc_res_god": 58.4, "per_hc_res_liv": 37.6, "per_hc_res_dil": 3.2, "per_hc_oth_tot": 0.8, "per_hc_oth_god": 0.6, "per_hc_oth_liv": 0.2, "per_hc_oth_dil": 0.0, "per_mt_grsbam": 33.9, "per_mt_plastic": 0.2, "per_mt_h_tiles": 5.0, "per_mt_m_tiles": 0.9, "per_mt_b_brick": 0.0, "per_mt_stone": 0.5, "per_mt_asbstos": 3.2, "per_mt_concrte": 56.1, "per_mt_oth": 0.2, "per_mw_grsbam": 1.1, "per_mw_plastic": 0.0, "per_mw_mud": 32.6, "per_mw_wood": 0.2, "per_mw_no_mrtr": 2.6, "per_mw_st_mrtr": 63.3, "per_mw_asbstos": 0.0, "per_mw_b_brick": 0.2, "per_mw_concrte": 0.2, "per_mw_oth": 0.0, "per_mf_mud": 43.6, "per_mf_wood": 0.0, "per_mf_b_brick": 0.0, "per_mf_stone": 0.3, "per_mf_cement": 55.5, "per_mf_fl_tile": 0.6, "per_mf_oth": 0.0, "per_dw_n_exrm": 1.1, "per_dw_1_room": 33.0, "per_dw_2_room": 40.2, "per_dw_3_room": 10.9, "per_dw_4_room": 9.6, "per_dw_5_room": 1.8, "per_dw_6_room": 3.4, "per_hhsize_1": 2.0, "per_hhsize_2": 11.0, "per_hhsize_3": 14.8, "per_hhsize_4": 23.2, "per_hhsize_5": 21.9, "per_hhsize_6_8": 23.2, "per_hhsize_9p": 3.8, "per_ow_owned": 95.9, "per_ow_rented": 0.6, "per_ow_oth": 3.5, "per_mc_none": 6.9, "per_mcouple_1": 73.4, "per_mcouple_2": 16.2, "per_mcouple_3": 3.1, "per_mcouple_4": 0.5, "per_mcouple_5p": 0.0, "per_dw_t_ts": 0.2, "per_dw_t_unts": 0.8, "per_dw_c_well": 2.0, "per_dw_unc_wel": 81.0, "per_dw_hpump": 2.9, "per_dw_tw_bore": 13.1, "per_dw_spring": 0.0, "per_dw_rivcan": 0.0, "per_dw_tank": 0.0, "per_dw_oth": 0.0, "per_loc_dw_wp": 34.1, "per_loc_dw_np": 32.0, "per_loc_dw_aw": 33.9, "per_light_elec": 81.8, "per_light_kero": 16.7, "per_light_solr": 0.0, "per_light_oil": 0.0, "per_light_oth": 0.0, "per_light_no": 1.5, "per_hh_latrine": 30.6, "per_fl_sewer": 0.2, "per_fl_septict": 20.6, "per_fl_othsys": 0.6, "per_pl_wslab": 9.0, "per_pl_without": 0.2, "per_ns_open": 0.0, "per_sl_ns_hum": 0.0, "per_sl_ns_anml": 0.0, "per_hh_no_lat": 69.4, "per_as_pub": 0.0, "per_as_open": 69.4, "per_hh_bathrm": 13.1, "per_hh_en_wrf": 7.5, "per_hh_no_btrm": 79.4, "per_wwoc_drain": 0.2, "per_wwoc_open": 0.3, "per_wwoc_nodrn": 99.5, "per_cook_fire": 87.3, "per_cook_resdu": 0.9, "per_cook_cwdng": 0.0, "per_cook_coal": 0.0, "per_cook_kero": 0.0, "per_cook_lpng": 11.2, "per_cook_elec": 0.3, "per_cook_biogs": 0.0, "per_cook_oth": 0.0, "per_cook_no": 0.3, "per_kf_inside": 96.5, "per_kf_in_has": 73.1, "per_kf_in_does": 23.4, "per_kf_outside": 3.2, "per_kf_out_has": 0.9, "per_kf_out_dos": 2.3, "per_kf_no_cook": 0.3, "per_hh_banking": 47.9, "per_hh_radio": 8.7, "per_hh_tv": 43.3, "per_hh_cmp_int": 0.3, "per_hh_cmp_wnt": 1.7, "per_hh_ph_ll": 1.2, "per_hh_ph_mob": 53.2, "per_hh_ph_bth": 0.9, "per_hh_bcycl": 76.8, "per_hh_2wheel": 19.7, "per_hh_4wheel": 2.8, "per_hh_tvcomp": 0.5, "per_hh_no_ast": 12.8, "per_hs_perma": 63.0, "per_hs_sperma": 5.8, "per_hs_temp": 31.0, "per_hs_servc": 30.1, "per_hs_nservc": 0.9, "per_hs_unclss": 0.2, "avghhsz_cy": 4.47740964, "st_areashape": 2373426.214907485, "st_lengthshape": 8291.452338543657}, "geometry": {"type": "Polygon", "coordinates": [[[85.55864893495816, 20.622302769118114], [85.55841125510702, 20.62741902883964], [85.55817357525589, 20.630088313948995], [85.55995617324108, 20.63264633403902], [85.56210924722922, 20.635846668338402], [85.56153575376868, 20.639404322587527], [85.56034735451303, 20.64040523146232], [85.5593966360068, 20.642184607914402], [85.55904011623008, 20.643407916886996], [85.55773287794717, 20.644964841577465], [85.55543149390226, 20.647205898883687], [85.55302199132468, 20.646924056083854], [85.55001011355189, 20.645373912607635], [85.54609467343538, 20.64410560187548], [85.54712146846639, 20.64198830404422], [85.55044898458563, 20.63842952573145], [85.55151854301741, 20.63653889167671], [85.55399635438751, 20.63421449033386], [85.55470939394091, 20.633013350522322], [85.55542243259598, 20.63141181686557], [85.55613547214938, 20.629142947195614], [85.55642068725209, 20.627407906885082], [85.55401418055602, 20.622858892908443], [85.5557967785412, 20.620189481871183], [85.55698517689852, 20.619633348330915], [85.55864893495816, 20.622302769118114]]]}}]}