{"type": "FeatureCollection", "features": [{"type": "Feature", "properties": {"premiumdata.sde.IN_Village_PCA.area": 2.21164513, "objectid": 217124, "id": "8886922507052", "name": "Bariya", "subdistrict": "Artuna", "district": "Banswara", "state": "Rajasthan", "country": "India", "censusname": "Bariya", "villagename_locallang": null, "lgd_villagename": "Bariya", "lgd_villagecode": 98803, "lgd_subdistrictcode": 6922, "lgd_districtcode": 88, "lgd_statecode": 8, "censuscode2001": "03418700", "censuscode2011": "098803", "censuscode2021": null, "level": "Village", "tru": "Rural", "no_hh": 221, "tot_p": 933, "tot_m": 465, "tot_f": 468, "per_tot_m": 49.8392283, "per_tot_f": 50.1607717, "p_06": 146, "m_06": 73, "f_06": 73, "per_p_06": 15.64844587, "per_m_06": 50.0, "per_f_06": 50.0, "p_sc": 20, "m_sc": 8, "f_sc": 12, "per_p_sc": 2.14362272, "per_m_sc": 40.0, "per_f_sc": 60.0, "p_st": 638, "m_st": 317, "f_st": 321, "per_p_st": 68.38156484, "per_m_st": 49.68652038, "per_f_st": 50.31347962, "p_lit": 453, "m_lit": 294, "f_lit": 159, "per_p_lit": 48.55305466, "per_m_lit": 64.90066225, "per_f_lit": 35.09933775, "p_ill": 480, "m_ill": 171, "f_ill": 309, "per_p_ill": 51.44694534, "per_m_ill": 35.625, "per_f_ill": 64.375, "tot_work_p": 524, "tot_work_m": 261, "tot_work_f": 263, "per_tot_work_p": 56.16291533, "per_tot_work_m": 49.80916031, "per_tot_work_f": 50.19083969, "mainwork_p": 159, "mainwork_m": 100, "mainwork_f": 59, "per_mainwork_p": 17.04180064, "per_mainwork_m": 62.89308176, "per_mainwork_f": 37.10691824000001, "main_cl_p": 92, "main_cl_m": 81, "main_cl_f": 11, "per_main_cl_p": 57.86163522, "per_main_cl_m": 88.04347826, "per_main_cl_f": 11.95652174, "main_al_p": 59, "main_al_m": 12, "main_al_f": 47, "per_main_al_p": 37.10691824000001, "per_main_al_m": 20.33898305, "per_main_al_f": 79.66101695, "main_hh_p": 1, "main_hh_m": 1, "main_hh_f": 0, "per_main_hh_p": 0.62893082, "per_main_hh_m": 100.0, "per_main_hh_f": 0.0, "main_ot_p": 7, "main_ot_m": 6, "main_ot_f": 1, "per_main_ot_p": 4.40251572, "per_main_ot_m": 85.71428571, "per_main_ot_f": 14.28571429, "margwork_p": 365, "margwork_m": 161, "margwork_f": 204, "per_margwork_p": 39.12111468, "per_margwork_m": 44.10958904, "per_margwork_f": 55.89041096, "marg_cl_p": 32, "marg_cl_m": 12, "marg_cl_f": 20, "per_marg_cl_p": 8.76712329, "per_marg_cl_m": 37.5, "per_marg_cl_f": 62.5, "marg_al_p": 257, "marg_al_m": 78, "marg_al_f": 179, "per_marg_al_p": 70.4109589, "per_marg_al_m": 30.35019455, "per_marg_al_f": 69.64980545, "marg_hh_p": 2, "marg_hh_m": 1, "marg_hh_f": 1, "per_marg_hh_p": 0.54794521, "per_marg_hh_m": 50.0, "per_marg_hh_f": 50.0, "marg_ot_p": 74, "marg_ot_m": 70, "marg_ot_f": 4, "per_marg_ot_p": 20.2739726, "per_marg_ot_m": 94.59459459, "per_marg_ot_f": 5.40540541, "margwork_3_6_p": 365, "margwork_3_6_m": 161, "margwork_3_6_f": 204, "per_margwork_3_6_p": 100.0, "per_margwork_3_6_m": 44.10958904, "per_margwork_3_6_f": 55.89041096, "marg_cl_3_6_p": 32, "marg_cl_3_6_m": 12, "marg_cl_3_6_f": 20, "per_marg_cl_3_6_p": 8.76712329, "per_marg_cl_3_6_m": 37.5, "per_marg_cl_3_6_f": 62.5, "marg_al_3_6_p": 257, "marg_al_3_6_m": 78, "marg_al_3_6_f": 179, "per_marg_al_3_6_p": 70.4109589, "per_marg_al_3_6_m": 30.35019455, "per_marg_al_3_6_f": 69.64980545, "marg_hh_3_6_p": 2, "marg_hh_3_6_m": 1, "marg_hh_3_6_f": 1, "per_marg_hh_3_6_p": 0.54794521, "per_marg_hh_3_6_m": 50.0, "per_marg_hh_3_6_f": 50.0, "marg_ot_3_6_p": 74, "marg_ot_3_6_m": 70, "marg_ot_3_6_f": 4, "per_marg_ot_3_6_p": 20.2739726, "per_marg_ot_3_6_m": 94.59459459, "per_marg_ot_3_6_f": 5.40540541, "margwork_0_3_p": 0, "margwork_0_3_m": 0, "margwork_0_3_f": 0, "per_margwork_0_3_p": 0.0, "per_margwork_0_3_m": 0.0, "per_margwork_0_3_f": 0.0, "marg_cl_0_3_p": 0, "marg_cl_0_3_m": 0, "marg_cl_0_3_f": 0, "per_marg_cl_0_3_p": 0.0, "per_marg_cl_0_3_m": 0.0, "per_marg_cl_0_3_f": 0.0, "marg_al_0_3_p": 0, "marg_al_0_3_m": 0, "marg_al_0_3_f": 0, "per_marg_al_0_3_p": 0.0, "per_marg_al_0_3_m": 0.0, "per_marg_al_0_3_f": 0.0, "marg_hh_0_3_p": 0, "marg_hh_0_3_m": 0, "marg_hh_0_3_f": 0, "per_marg_hh_0_3_p": 0.0, "per_marg_hh_0_3_m": 0.0, "per_marg_hh_0_3_f": 0.0, "marg_ot_0_3_p": 0, "marg_ot_0_3_m": 0, "marg_ot_0_3_f": 0, "per_marg_ot_0_3_p": 0.0, "per_marg_ot_0_3_m": 0.0, "per_marg_ot_0_3_f": 0.0, "non_work_p": 409, "non_work_m": 204, "non_work_f": 205, "per_non_work_p": 43.83708467, "per_non_work_m": 49.87775061, "per_non_work_f": 50.12224939, "per_hc_tot_tot": 100, "per_hc_tot_god": 4.1, "per_hc_tot_liv": 51.4, "per_hc_tot_dil": 44.6, "per_hc_res_tot": 99.5, "per_hc_res_god": 4.1, "per_hc_res_liv": 50.9, "per_hc_res_dil": 44.6, "per_hc_oth_tot": 0.5, "per_hc_oth_god": 0.0, "per_hc_oth_liv": 0.5, "per_hc_oth_dil": 0.0, "per_mt_grsbam": 0.9, "per_mt_plastic": 1.8, "per_mt_h_tiles": 75.2, "per_mt_m_tiles": 13.1, "per_mt_b_brick": 0.0, "per_mt_stone": 6.8, "per_mt_asbstos": 0.0, "per_mt_concrte": 0.0, "per_mt_oth": 2.3, "per_mw_grsbam": 0.9, "per_mw_plastic": 0.0, "per_mw_mud": 81.5, "per_mw_wood": 0.0, "per_mw_no_mrtr": 10.4, "per_mw_st_mrtr": 5.0, "per_mw_asbstos": 0.0, "per_mw_b_brick": 2.3, "per_mw_concrte": 0.0, "per_mw_oth": 0.0, "per_mf_mud": 95.9, "per_mf_wood": 0.0, "per_mf_b_brick": 0.0, "per_mf_stone": 2.7, "per_mf_cement": 1.4, "per_mf_fl_tile": 0.0, "per_mf_oth": 0.0, "per_dw_n_exrm": 18.0, "per_dw_1_room": 72.5, "per_dw_2_room": 7.7, "per_dw_3_room": 0.9, "per_dw_4_room": 0.9, "per_dw_5_room": 0.0, "per_dw_6_room": 0.0, "per_hhsize_1": 3.2, "per_hhsize_2": 12.2, "per_hhsize_3": 21.2, "per_hhsize_4": 23.9, "per_hhsize_5": 18.9, "per_hhsize_6_8": 20.7, "per_hhsize_9p": 0.0, "per_ow_owned": 98.6, "per_ow_rented": 1.4, "per_ow_oth": 0.0, "per_mc_none": 14.0, "per_mcouple_1": 77.0, "per_mcouple_2": 9.0, "per_mcouple_3": 0.0, "per_mcouple_4": 0.0, "per_mcouple_5p": 0.0, "per_dw_t_ts": 0.0, "per_dw_t_unts": 0.0, "per_dw_c_well": 0.5, "per_dw_unc_wel": 3.2, "per_dw_hpump": 93.2, "per_dw_tw_bore": 3.2, "per_dw_spring": 0.0, "per_dw_rivcan": 0.0, "per_dw_tank": 0.0, "per_dw_oth": 0.0, "per_loc_dw_wp": 5.4, "per_loc_dw_np": 43.2, "per_loc_dw_aw": 51.4, "per_light_elec": 41.9, "per_light_kero": 58.1, "per_light_solr": 0.0, "per_light_oil": 0.0, "per_light_oth": 0.0, "per_light_no": 0.0, "per_hh_latrine": 5.0, "per_fl_sewer": 0.0, "per_fl_septict": 3.2, "per_fl_othsys": 0.5, "per_pl_wslab": 0.0, "per_pl_without": 0.5, "per_ns_open": 0.9, "per_sl_ns_hum": 0.0, "per_sl_ns_anml": 0.0, "per_hh_no_lat": 95.0, "per_as_pub": 0.0, "per_as_open": 95.0, "per_hh_bathrm": 2.3, "per_hh_en_wrf": 0.0, "per_hh_no_btrm": 97.7, "per_wwoc_drain": 0.0, "per_wwoc_open": 1.4, "per_wwoc_nodrn": 98.6, "per_cook_fire": 98.6, "per_cook_resdu": 1.4, "per_cook_cwdng": 0.0, "per_cook_coal": 0.0, "per_cook_kero": 0.0, "per_cook_lpng": 0.0, "per_cook_elec": 0.0, "per_cook_biogs": 0.0, "per_cook_oth": 0.0, "per_cook_no": 0.0, "per_kf_inside": 97.3, "per_kf_in_has": 97.3, "per_kf_in_does": 0.0, "per_kf_outside": 2.7, "per_kf_out_has": 1.4, "per_kf_out_dos": 1.4, "per_kf_no_cook": 0.0, "per_hh_banking": 43.2, "per_hh_radio": 3.2, "per_hh_tv": 9.0, "per_hh_cmp_int": 0.0, "per_hh_cmp_wnt": 0.9, "per_hh_ph_ll": 0.9, "per_hh_ph_mob": 24.8, "per_hh_ph_bth": 0.0, "per_hh_bcycl": 10.4, "per_hh_2wheel": 5.0, "per_hh_4wheel": 0.0, "per_hh_tvcomp": 0.0, "per_hh_no_ast": 67.1, "per_hs_perma": 16.7, "per_hs_sperma": 78.4, "per_hs_temp": 2.7, "per_hs_servc": 1.8, "per_hs_nservc": 0.9, "per_hs_unclss": 2.3, "avghhsz_cy": 4.22171946, "st_areashape": 2642641.059075665, "st_lengthshape": 6515.33306524909}, "geometry": {"type": "Polygon", "coordinates": [[[74.11860056494754, 23.529113617763095], [74.11683345751112, 23.52996783639967], [74.11546442232317, 23.528189622022644], [74.11477990517838, 23.526986698429162], [74.11273073931915, 23.523388628597385], [74.11100928157052, 23.520177373655013], [74.11081515204432, 23.51958659319326], [74.11026373917349, 23.517916774689272], [74.10923143387654, 23.512666268641716], [74.11137107176296, 23.512152893647954], [74.11845437671145, 23.509331683876038], [74.11877188175707, 23.509720769602595], [74.12149534732308, 23.514994102101138], [74.12176100969529, 23.515566630774334], [74.12390500710582, 23.520220344360453], [74.1245894990978, 23.52491414785157], [74.12356442973046, 23.526376088000816], [74.12016077959427, 23.52774026864403], [74.11860056494754, 23.529113617763095]]]}}]}