{"type": "FeatureCollection", "features": [{"type": "Feature", "properties": {"premiumdata.sde.IN_Village_PCA.area": 3.21957688, "objectid": 143987, "id": "226503312254469", "name": "Jhanjhadih", "subdistrict": "Bemetara", "district": "Bemetara", "state": "Chhattisgarh", "country": "India", "censusname": "Jhanjhadih", "villagename_locallang": "\u091d\u093e\u0902\u091d\u093e\u0921\u0940\u0939", "lgd_villagename": "Jhanjhadih", "lgd_villagecode": 441944, "lgd_subdistrictcode": 3312, "lgd_districtcode": 650, "lgd_statecode": 22, "censuscode2001": "01083000", "censuscode2011": "441944", "censuscode2021": null, "level": "Village", "tru": "Rural", "no_hh": 70, "tot_p": 295, "tot_m": 147, "tot_f": 148, "per_tot_m": 49.83050847, "per_tot_f": 50.16949153, "p_06": 49, "m_06": 20, "f_06": 29, "per_p_06": 16.61016949, "per_m_06": 40.81632653, "per_f_06": 59.18367347, "p_sc": 0, "m_sc": 0, "f_sc": 0, "per_p_sc": 0.0, "per_m_sc": 0.0, "per_f_sc": 0.0, "p_st": 0, "m_st": 0, "f_st": 0, "per_p_st": 0.0, "per_m_st": 0.0, "per_f_st": 0.0, "p_lit": 172, "m_lit": 108, "f_lit": 64, "per_p_lit": 58.30508475, "per_m_lit": 62.79069767, "per_f_lit": 37.20930233, "p_ill": 123, "m_ill": 39, "f_ill": 84, "per_p_ill": 41.69491525, "per_m_ill": 31.70731707, "per_f_ill": 68.29268293, "tot_work_p": 172, "tot_work_m": 87, "tot_work_f": 85, "per_tot_work_p": 58.30508475, "per_tot_work_m": 50.58139535, "per_tot_work_f": 49.41860465, "mainwork_p": 172, "mainwork_m": 87, "mainwork_f": 85, "per_mainwork_p": 58.30508475, "per_mainwork_m": 50.58139535, "per_mainwork_f": 49.41860465, "main_cl_p": 149, "main_cl_m": 76, "main_cl_f": 73, "per_main_cl_p": 86.62790698, "per_main_cl_m": 51.00671141, "per_main_cl_f": 48.99328859, "main_al_p": 21, "main_al_m": 10, "main_al_f": 11, "per_main_al_p": 12.20930233, "per_main_al_m": 47.61904762, "per_main_al_f": 52.38095238, "main_hh_p": 0, "main_hh_m": 0, "main_hh_f": 0, "per_main_hh_p": 0.0, "per_main_hh_m": 0.0, "per_main_hh_f": 0.0, "main_ot_p": 2, "main_ot_m": 1, "main_ot_f": 1, "per_main_ot_p": 1.1627907, "per_main_ot_m": 50.0, "per_main_ot_f": 50.0, "margwork_p": 0, "margwork_m": 0, "margwork_f": 0, "per_margwork_p": 0.0, "per_margwork_m": 0.0, "per_margwork_f": 0.0, "marg_cl_p": 0, "marg_cl_m": 0, "marg_cl_f": 0, "per_marg_cl_p": 0.0, "per_marg_cl_m": 0.0, "per_marg_cl_f": 0.0, "marg_al_p": 0, "marg_al_m": 0, "marg_al_f": 0, "per_marg_al_p": 0.0, "per_marg_al_m": 0.0, "per_marg_al_f": 0.0, "marg_hh_p": 0, "marg_hh_m": 0, "marg_hh_f": 0, "per_marg_hh_p": 0.0, "per_marg_hh_m": 0.0, "per_marg_hh_f": 0.0, "marg_ot_p": 0, "marg_ot_m": 0, "marg_ot_f": 0, "per_marg_ot_p": 0.0, "per_marg_ot_m": 0.0, "per_marg_ot_f": 0.0, "margwork_3_6_p": 0, "margwork_3_6_m": 0, "margwork_3_6_f": 0, "per_margwork_3_6_p": 0.0, "per_margwork_3_6_m": 0.0, "per_margwork_3_6_f": 0.0, "marg_cl_3_6_p": 0, "marg_cl_3_6_m": 0, "marg_cl_3_6_f": 0, "per_marg_cl_3_6_p": 0.0, "per_marg_cl_3_6_m": 0.0, "per_marg_cl_3_6_f": 0.0, "marg_al_3_6_p": 0, "marg_al_3_6_m": 0, "marg_al_3_6_f": 0, "per_marg_al_3_6_p": 0.0, "per_marg_al_3_6_m": 0.0, "per_marg_al_3_6_f": 0.0, "marg_hh_3_6_p": 0, "marg_hh_3_6_m": 0, "marg_hh_3_6_f": 0, "per_marg_hh_3_6_p": 0.0, "per_marg_hh_3_6_m": 0.0, "per_marg_hh_3_6_f": 0.0, "marg_ot_3_6_p": 0, "marg_ot_3_6_m": 0, "marg_ot_3_6_f": 0, "per_marg_ot_3_6_p": 0.0, "per_marg_ot_3_6_m": 0.0, "per_marg_ot_3_6_f": 0.0, "margwork_0_3_p": 0, "margwork_0_3_m": 0, "margwork_0_3_f": 0, "per_margwork_0_3_p": 0.0, "per_margwork_0_3_m": 0.0, "per_margwork_0_3_f": 0.0, "marg_cl_0_3_p": 0, "marg_cl_0_3_m": 0, "marg_cl_0_3_f": 0, "per_marg_cl_0_3_p": 0.0, "per_marg_cl_0_3_m": 0.0, "per_marg_cl_0_3_f": 0.0, "marg_al_0_3_p": 0, "marg_al_0_3_m": 0, "marg_al_0_3_f": 0, "per_marg_al_0_3_p": 0.0, "per_marg_al_0_3_m": 0.0, "per_marg_al_0_3_f": 0.0, "marg_hh_0_3_p": 0, "marg_hh_0_3_m": 0, "marg_hh_0_3_f": 0, "per_marg_hh_0_3_p": 0.0, "per_marg_hh_0_3_m": 0.0, "per_marg_hh_0_3_f": 0.0, "marg_ot_0_3_p": 0, "marg_ot_0_3_m": 0, "marg_ot_0_3_f": 0, "per_marg_ot_0_3_p": 0.0, "per_marg_ot_0_3_m": 0.0, "per_marg_ot_0_3_f": 0.0, "non_work_p": 123, "non_work_m": 60, "non_work_f": 63, "per_non_work_p": 41.69491525, "per_non_work_m": 48.7804878, "per_non_work_f": 51.2195122, "per_hc_tot_tot": 100, "per_hc_tot_god": 22.1, "per_hc_tot_liv": 76.5, "per_hc_tot_dil": 1.5, "per_hc_res_tot": 100.0, "per_hc_res_god": 22.1, "per_hc_res_liv": 76.5, "per_hc_res_dil": 1.5, "per_hc_oth_tot": 0.0, "per_hc_oth_god": 0.0, "per_hc_oth_liv": 0.0, "per_hc_oth_dil": 0.0, "per_mt_grsbam": 80.9, "per_mt_plastic": 0.0, "per_mt_h_tiles": 0.0, "per_mt_m_tiles": 0.0, "per_mt_b_brick": 1.5, "per_mt_stone": 0.0, "per_mt_asbstos": 0.0, "per_mt_concrte": 17.6, "per_mt_oth": 0.0, "per_mw_grsbam": 45.6, "per_mw_plastic": 0.0, "per_mw_mud": 5.9, "per_mw_wood": 0.0, "per_mw_no_mrtr": 7.4, "per_mw_st_mrtr": 0.0, "per_mw_asbstos": 0.0, "per_mw_b_brick": 41.2, "per_mw_concrte": 0.0, "per_mw_oth": 0.0, "per_mf_mud": 83.8, "per_mf_wood": 0.0, "per_mf_b_brick": 4.4, "per_mf_stone": 0.0, "per_mf_cement": 11.8, "per_mf_fl_tile": 0.0, "per_mf_oth": 0.0, "per_dw_n_exrm": 0.0, "per_dw_1_room": 32.4, "per_dw_2_room": 39.7, "per_dw_3_room": 19.1, "per_dw_4_room": 7.4, "per_dw_5_room": 0.0, "per_dw_6_room": 1.5, "per_hhsize_1": 5.9, "per_hhsize_2": 14.7, "per_hhsize_3": 17.6, "per_hhsize_4": 19.1, "per_hhsize_5": 22.1, "per_hhsize_6_8": 20.6, "per_hhsize_9p": 0.0, "per_ow_owned": 100.0, "per_ow_rented": 0.0, "per_ow_oth": 0.0, "per_mc_none": 5.9, "per_mcouple_1": 91.2, "per_mcouple_2": 2.9, "per_mcouple_3": 0.0, "per_mcouple_4": 0.0, "per_mcouple_5p": 0.0, "per_dw_t_ts": 0.0, "per_dw_t_unts": 0.0, "per_dw_c_well": 1.5, "per_dw_unc_wel": 2.9, "per_dw_hpump": 92.6, "per_dw_tw_bore": 2.9, "per_dw_spring": 0.0, "per_dw_rivcan": 0.0, "per_dw_tank": 0.0, "per_dw_oth": 0.0, "per_loc_dw_wp": 22.1, "per_loc_dw_np": 77.9, "per_loc_dw_aw": 0.0, "per_light_elec": 100.0, "per_light_kero": 0.0, "per_light_solr": 0.0, "per_light_oil": 0.0, "per_light_oth": 0.0, "per_light_no": 0.0, "per_hh_latrine": 1.5, "per_fl_sewer": 0.0, "per_fl_septict": 0.0, "per_fl_othsys": 0.0, "per_pl_wslab": 1.5, "per_pl_without": 0.0, "per_ns_open": 0.0, "per_sl_ns_hum": 0.0, "per_sl_ns_anml": 0.0, "per_hh_no_lat": 98.5, "per_as_pub": 0.0, "per_as_open": 98.5, "per_hh_bathrm": 7.4, "per_hh_en_wrf": 0.0, "per_hh_no_btrm": 92.6, "per_wwoc_drain": 0.0, "per_wwoc_open": 0.0, "per_wwoc_nodrn": 100.0, "per_cook_fire": 48.5, "per_cook_resdu": 0.0, "per_cook_cwdng": 48.5, "per_cook_coal": 0.0, "per_cook_kero": 0.0, "per_cook_lpng": 2.9, "per_cook_elec": 0.0, "per_cook_biogs": 0.0, "per_cook_oth": 0.0, "per_cook_no": 0.0, "per_kf_inside": 100.0, "per_kf_in_has": 100.0, "per_kf_in_does": 0.0, "per_kf_outside": 0.0, "per_kf_out_has": 0.0, "per_kf_out_dos": 0.0, "per_kf_no_cook": 0.0, "per_hh_banking": 98.5, "per_hh_radio": 5.9, "per_hh_tv": 32.4, "per_hh_cmp_int": 0.0, "per_hh_cmp_wnt": 1.5, "per_hh_ph_ll": 0.0, "per_hh_ph_mob": 19.1, "per_hh_ph_bth": 0.0, "per_hh_bcycl": 63.2, "per_hh_2wheel": 4.4, "per_hh_4wheel": 2.9, "per_hh_tvcomp": 0.0, "per_hh_no_ast": 27.9, "per_hs_perma": 19.1, "per_hs_sperma": 29.4, "per_hs_temp": 51.5, "per_hs_servc": 5.9, "per_hs_nservc": 45.6, "per_hs_unclss": 0.0, "avghhsz_cy": 4.21428571, "st_areashape": 3755755.008142655, "st_lengthshape": 11331.263547133427}, "geometry": {"type": "Polygon", "coordinates": [[[81.54305622864467, 21.863012197975777], [81.54301509209289, 21.86304374706022], [81.54285538331347, 21.863079803981886], [81.54261359277157, 21.863020971893413], [81.54216861229558, 21.862822093793618], [81.54199525990363, 21.862788517085033], [81.54144308885468, 21.862681760040083], [81.54121093004927, 21.862636452196345], [81.54086680522688, 21.86263757019853], [81.54050465840325, 21.86276699994144], [81.54025297561347, 21.862906896749152], [81.54000615270937, 21.863150582202774], [81.53931379866201, 21.86411658269149], [81.53889272864392, 21.864545305175184], [81.53862168805807, 21.864716789806508], [81.53784283972361, 21.864738990286597], [81.53743785314238, 21.864165514154635], [81.53558231824434, 21.862010699756986], [81.53435244197539, 21.86057005158804], [81.53369925627102, 21.858962454709175], [81.53353221993383, 21.854997674396916], [81.5334834809398, 21.853464668977704], [81.53280027713191, 21.852686264761775], [81.53178147890358, 21.851826301026545], [81.53020333927368, 21.850931129257393], [81.5291181519526, 21.85059123834508], [81.52953675160363, 21.850306992263423], [81.53055770489036, 21.849720533712166], [81.53115768158376, 21.849459018206918], [81.53310265275151, 21.84870144273463], [81.5335961215916, 21.848548238066336], [81.53474749229123, 21.84822376913878], [81.5352361057372, 21.848178853594224], [81.53591801417443, 21.84819732876041], [81.5374365137543, 21.848712892326688], [81.53830205400529, 21.849223683108868], [81.53979608437513, 21.85024950313638], [81.54026992682286, 21.850466500915555], [81.54090353644054, 21.85055254603256], [81.54248984085802, 21.85096887679926], [81.54368432440313, 21.8513938967736], [81.54425732918016, 21.85145105609982], [81.54491292326777, 21.851516459748026], [81.54561898021646, 21.851733549819226], [81.54627186318854, 21.852031912953596], [81.54852520533206, 21.853392195087977], [81.54897978790012, 21.85360457989966], [81.54939570697834, 21.85374022433608], [81.54966172508344, 21.853731324784334], [81.55008256243785, 21.853623181095887], [81.5508181676712, 21.852941662867227], [81.5515488168991, 21.8525761859439], [81.55192135633227, 21.852328065979762], [81.55252130517792, 21.852007742801433], [81.55355662072938, 21.851642441916272], [81.55473708516615, 21.85113720021512], [81.555172583026, 21.850902509054997], [81.55570003782822, 21.85041512011884], [81.55594190382858, 21.85025716140651], [81.55641607955131, 21.850058699100998], [81.55670154887724, 21.84987819869256], [81.55704979696681, 21.849819569612166], [81.55748517894398, 21.849842416087885], [81.55807041967347, 21.849806464216382], [81.55898944292154, 21.849897218932618], [81.55978264184269, 21.84992004621892], [81.56025178340657, 21.85008733197915], [81.56084652382019, 21.850552648587332], [81.561301134236, 21.850823809722186], [81.56177989495994, 21.85099559431213], [81.56235542130797, 21.851104141869076], [81.56238910902945, 21.85147446761276], [81.562862762831, 21.8523190679554], [81.5628094487172, 21.852553876851058], [81.56261597226624, 21.852635044846394], [81.56213222319755, 21.852666462820512], [81.56167763523959, 21.852521771828343], [81.56134870272528, 21.852471974260745], [81.56115035471053, 21.852508082209738], [81.56101922223863, 21.85277388185723], [81.56114050109016, 21.85308154011707], [81.56133386076013, 21.85328931718605], [81.56185135504249, 21.853533410916764], [81.56190450386626, 21.853641753941872], [81.56184630920552, 21.853822397171054], [81.56128499779858, 21.854364006993347], [81.56089309607779, 21.854666384997664], [81.56018653786914, 21.855366060750068], [81.56001720813303, 21.855487929972174], [81.55961073663666, 21.85566839661341], [81.55874487029722, 21.855780888416064], [81.55837235961015, 21.855956864127002], [81.55802390311143, 21.856331496922547], [81.55782543023089, 21.856665559656935], [81.55749117789347, 21.85769045582896], [81.5573411358848, 21.85788456126922], [81.55719109207953, 21.85807867228188], [81.55701686383019, 21.85813734966433], [81.55664445285608, 21.858105569385355], [81.55608326002675, 21.8581188966269], [81.55572527958938, 21.8583400027609], [81.5551635486692, 21.85950024325107], [81.55433110684487, 21.860357857216812], [81.5541374471376, 21.860682843004046], [81.5539340595741, 21.86122009399047], [81.5537936241491, 21.86141879840754], [81.55346472756739, 21.861481828075178], [81.55328091519227, 21.861414037061586], [81.55317936693761, 21.86132367567223], [81.55309235971245, 21.86112041486134], [81.55278783172945, 21.86070031525656], [81.55261875711489, 21.860293820751245], [81.55236732136179, 21.859968623146756], [81.55196594600801, 21.8598058710784], [81.55161284701593, 21.85981474273878], [81.55144350739836, 21.859886898222324], [81.55101773469977, 21.859954413998388], [81.55072739470836, 21.860125938325524], [81.5504709580341, 21.86039670361301], [81.55034015793882, 21.860676667645667], [81.55027710878231, 21.861024337321073], [81.55008332690417, 21.86145775206438], [81.5498365228647, 21.861751150969624], [81.54950265500618, 21.861994819220147], [81.54934293275203, 21.862021867321577], [81.54910588082329, 21.86213907625774], [81.54866542695802, 21.86256793473731], [81.54852513436515, 21.862594959386346], [81.54843326006778, 21.862572338384002], [81.5481915692389, 21.862111633833266], [81.54809020424057, 21.86176832212109], [81.54811949291208, 21.86125808309226], [81.54830354244244, 21.860910465676433], [81.54886979997336, 21.860237963901938], [81.54934910507635, 21.859475039708283], [81.54935415091332, 21.859091245812], [81.54922849726631, 21.85882928307269], [81.54903995526121, 21.858761443277302], [81.54869160656033, 21.858729668139592], [81.54838685220189, 21.858765650281036], [81.5479708405972, 21.858891882011253], [81.54767085629287, 21.85891428599317], [81.54677124743478, 21.858701663959128], [81.54654876438329, 21.858724102153865], [81.54623906300257, 21.85891817867632], [81.54612766741577, 21.859238724805056], [81.54633979918022, 21.86044899290994], [81.54632992400029, 21.860783137722933], [81.54627670241295, 21.860927547721186], [81.54614117897596, 21.861058447189702], [81.54564757179531, 21.861378850951635], [81.54557977055093, 21.861541363618848], [81.54529901019372, 21.86186630919573], [81.5450184492625, 21.861897811011733], [81.54467983111279, 21.861838955092356], [81.5443267222392, 21.86183879335213], [81.54330086415105, 21.862321477038567], [81.54321862069183, 21.862438763263736], [81.54309738226446, 21.86298059302609], [81.54305622864467, 21.863012197975777]]]}}]}