{"type": "FeatureCollection", "features": [{"type": "Feature", "properties": {"premiumdata.sde.IN_Village_PCA.area": 15.64971597, "objectid": 266197, "id": "234313384570078", "name": "Based", "subdistrict": "Karahal", "district": "Sheopur", "state": "Madhya Pradesh", "country": "India", "censusname": "Based", "villagename_locallang": null, "lgd_villagename": "Based", "lgd_villagecode": 451890, "lgd_subdistrictcode": 3384, "lgd_districtcode": 431, "lgd_statecode": 23, "censuscode2001": "00054300", "censuscode2011": "451890", "censuscode2021": null, "level": "Village", "tru": "Rural", "no_hh": 148, "tot_p": 660, "tot_m": 334, "tot_f": 326, "per_tot_m": 50.60606061, "per_tot_f": 49.39393939, "p_06": 138, "m_06": 65, "f_06": 73, "per_p_06": 20.90909091, "per_m_06": 47.10144928, "per_f_06": 52.89855072, "p_sc": 8, "m_sc": 2, "f_sc": 6, "per_p_sc": 1.21212121, "per_m_sc": 25.0, "per_f_sc": 75.0, "p_st": 275, "m_st": 141, "f_st": 134, "per_p_st": 41.66666667000001, "per_m_st": 51.27272727, "per_f_st": 48.72727273, "p_lit": 283, "m_lit": 192, "f_lit": 91, "per_p_lit": 42.87878788, "per_m_lit": 67.84452297, "per_f_lit": 32.15547703, "p_ill": 377, "m_ill": 142, "f_ill": 235, "per_p_ill": 57.12121212, "per_m_ill": 37.66578249, "per_f_ill": 62.33421751, "tot_work_p": 351, "tot_work_m": 176, "tot_work_f": 175, "per_tot_work_p": 53.18181818, "per_tot_work_m": 50.14245014, "per_tot_work_f": 49.85754986, "mainwork_p": 71, "mainwork_m": 68, "mainwork_f": 3, "per_mainwork_p": 10.75757576, "per_mainwork_m": 95.77464789000001, "per_mainwork_f": 4.22535211, "main_cl_p": 45, "main_cl_m": 44, "main_cl_f": 1, "per_main_cl_p": 63.38028169, "per_main_cl_m": 97.77777778, "per_main_cl_f": 2.22222222, "main_al_p": 19, "main_al_m": 18, "main_al_f": 1, "per_main_al_p": 26.76056338, "per_main_al_m": 94.73684211, "per_main_al_f": 5.26315789, "main_hh_p": 0, "main_hh_m": 0, "main_hh_f": 0, "per_main_hh_p": 0.0, "per_main_hh_m": 0.0, "per_main_hh_f": 0.0, "main_ot_p": 7, "main_ot_m": 6, "main_ot_f": 1, "per_main_ot_p": 9.85915493, "per_main_ot_m": 85.71428571, "per_main_ot_f": 14.28571429, "margwork_p": 280, "margwork_m": 108, "margwork_f": 172, "per_margwork_p": 42.42424242, "per_margwork_m": 38.57142857, "per_margwork_f": 61.42857143, "marg_cl_p": 4, "marg_cl_m": 0, "marg_cl_f": 4, "per_marg_cl_p": 1.42857143, "per_marg_cl_m": 0.0, "per_marg_cl_f": 100.0, "marg_al_p": 275, "marg_al_m": 108, "marg_al_f": 167, "per_marg_al_p": 98.21428571, "per_marg_al_m": 39.27272727, "per_marg_al_f": 60.72727273, "marg_hh_p": 0, "marg_hh_m": 0, "marg_hh_f": 0, "per_marg_hh_p": 0.0, "per_marg_hh_m": 0.0, "per_marg_hh_f": 0.0, "marg_ot_p": 1, "marg_ot_m": 0, "marg_ot_f": 1, "per_marg_ot_p": 0.35714286, "per_marg_ot_m": 0.0, "per_marg_ot_f": 100.0, "margwork_3_6_p": 274, "margwork_3_6_m": 105, "margwork_3_6_f": 169, "per_margwork_3_6_p": 97.85714286, "per_margwork_3_6_m": 38.32116788, "per_margwork_3_6_f": 61.67883212, "marg_cl_3_6_p": 4, "marg_cl_3_6_m": 0, "marg_cl_3_6_f": 4, "per_marg_cl_3_6_p": 1.42857143, "per_marg_cl_3_6_m": 0.0, "per_marg_cl_3_6_f": 100.0, "marg_al_3_6_p": 269, "marg_al_3_6_m": 105, "marg_al_3_6_f": 164, "per_marg_al_3_6_p": 96.07142857, "per_marg_al_3_6_m": 39.03345725, "per_marg_al_3_6_f": 60.96654275, "marg_hh_3_6_p": 0, "marg_hh_3_6_m": 0, "marg_hh_3_6_f": 0, "per_marg_hh_3_6_p": 0.0, "per_marg_hh_3_6_m": 0.0, "per_marg_hh_3_6_f": 0.0, "marg_ot_3_6_p": 1, "marg_ot_3_6_m": 0, "marg_ot_3_6_f": 1, "per_marg_ot_3_6_p": 0.35714286, "per_marg_ot_3_6_m": 0.0, "per_marg_ot_3_6_f": 100.0, "margwork_0_3_p": 6, "margwork_0_3_m": 3, "margwork_0_3_f": 3, "per_margwork_0_3_p": 2.14285714, "per_margwork_0_3_m": 50.0, "per_margwork_0_3_f": 50.0, "marg_cl_0_3_p": 0, "marg_cl_0_3_m": 0, "marg_cl_0_3_f": 0, "per_marg_cl_0_3_p": 0.0, "per_marg_cl_0_3_m": 0.0, "per_marg_cl_0_3_f": 0.0, "marg_al_0_3_p": 6, "marg_al_0_3_m": 3, "marg_al_0_3_f": 3, "per_marg_al_0_3_p": 2.14285714, "per_marg_al_0_3_m": 50.0, "per_marg_al_0_3_f": 50.0, "marg_hh_0_3_p": 0, "marg_hh_0_3_m": 0, "marg_hh_0_3_f": 0, "per_marg_hh_0_3_p": 0.0, "per_marg_hh_0_3_m": 0.0, "per_marg_hh_0_3_f": 0.0, "marg_ot_0_3_p": 0, "marg_ot_0_3_m": 0, "marg_ot_0_3_f": 0, "per_marg_ot_0_3_p": 0.0, "per_marg_ot_0_3_m": 0.0, "per_marg_ot_0_3_f": 0.0, "non_work_p": 309, "non_work_m": 158, "non_work_f": 151, "per_non_work_p": 46.81818182, "per_non_work_m": 51.13268608, "per_non_work_f": 48.86731392, "per_hc_tot_tot": 100, "per_hc_tot_god": 1.4, "per_hc_tot_liv": 95.9, "per_hc_tot_dil": 2.7, "per_hc_res_tot": 100.0, "per_hc_res_god": 1.4, "per_hc_res_liv": 95.9, "per_hc_res_dil": 2.7, "per_hc_oth_tot": 0.0, "per_hc_oth_god": 0.0, "per_hc_oth_liv": 0.0, "per_hc_oth_dil": 0.0, "per_mt_grsbam": 3.4, "per_mt_plastic": 0.0, "per_mt_h_tiles": 0.0, "per_mt_m_tiles": 0.0, "per_mt_b_brick": 0.7, "per_mt_stone": 95.3, "per_mt_asbstos": 0.0, "per_mt_concrte": 0.7, "per_mt_oth": 0.0, "per_mw_grsbam": 2.7, "per_mw_plastic": 0.7, "per_mw_mud": 0.0, "per_mw_wood": 0.0, "per_mw_no_mrtr": 0.7, "per_mw_st_mrtr": 95.3, "per_mw_asbstos": 0.0, "per_mw_b_brick": 0.7, "per_mw_concrte": 0.0, "per_mw_oth": 0.0, "per_mf_mud": 97.3, "per_mf_wood": 0.0, "per_mf_b_brick": 0.0, "per_mf_stone": 0.0, "per_mf_cement": 2.7, "per_mf_fl_tile": 0.0, "per_mf_oth": 0.0, "per_dw_n_exrm": 1.4, "per_dw_1_room": 78.4, "per_dw_2_room": 12.8, "per_dw_3_room": 5.4, "per_dw_4_room": 1.4, "per_dw_5_room": 0.0, "per_dw_6_room": 0.7, "per_hhsize_1": 8.8, "per_hhsize_2": 20.9, "per_hhsize_3": 10.8, "per_hhsize_4": 12.2, "per_hhsize_5": 13.5, "per_hhsize_6_8": 29.7, "per_hhsize_9p": 4.1, "per_ow_owned": 98.0, "per_ow_rented": 0.0, "per_ow_oth": 2.0, "per_mc_none": 12.8, "per_mcouple_1": 85.1, "per_mcouple_2": 0.7, "per_mcouple_3": 1.4, "per_mcouple_4": 0.0, "per_mcouple_5p": 0.0, "per_dw_t_ts": 0.0, "per_dw_t_unts": 0.0, "per_dw_c_well": 0.0, "per_dw_unc_wel": 2.0, "per_dw_hpump": 98.0, "per_dw_tw_bore": 0.0, "per_dw_spring": 0.0, "per_dw_rivcan": 0.0, "per_dw_tank": 0.0, "per_dw_oth": 0.0, "per_loc_dw_wp": 0.0, "per_loc_dw_np": 29.7, "per_loc_dw_aw": 70.3, "per_light_elec": 100.0, "per_light_kero": 0.0, "per_light_solr": 0.0, "per_light_oil": 0.0, "per_light_oth": 0.0, "per_light_no": 0.0, "per_hh_latrine": 0.0, "per_fl_sewer": 0.0, "per_fl_septict": 0.0, "per_fl_othsys": 0.0, "per_pl_wslab": 0.0, "per_pl_without": 0.0, "per_ns_open": 0.0, "per_sl_ns_hum": 0.0, "per_sl_ns_anml": 0.0, "per_hh_no_lat": 100.0, "per_as_pub": 0.0, "per_as_open": 100.0, "per_hh_bathrm": 0.0, "per_hh_en_wrf": 0.0, "per_hh_no_btrm": 100.0, "per_wwoc_drain": 0.0, "per_wwoc_open": 0.0, "per_wwoc_nodrn": 100.0, "per_cook_fire": 100.0, "per_cook_resdu": 0.0, "per_cook_cwdng": 0.0, "per_cook_coal": 0.0, "per_cook_kero": 0.0, "per_cook_lpng": 0.0, "per_cook_elec": 0.0, "per_cook_biogs": 0.0, "per_cook_oth": 0.0, "per_cook_no": 0.0, "per_kf_inside": 100.0, "per_kf_in_has": 0.0, "per_kf_in_does": 100.0, "per_kf_outside": 0.0, "per_kf_out_has": 0.0, "per_kf_out_dos": 0.0, "per_kf_no_cook": 0.0, "per_hh_banking": 31.8, "per_hh_radio": 2.0, "per_hh_tv": 4.7, "per_hh_cmp_int": 0.0, "per_hh_cmp_wnt": 0.0, "per_hh_ph_ll": 0.0, "per_hh_ph_mob": 39.2, "per_hh_ph_bth": 0.0, "per_hh_bcycl": 20.3, "per_hh_2wheel": 2.7, "per_hh_4wheel": 0.0, "per_hh_tvcomp": 0.0, "per_hh_no_ast": 47.3, "per_hs_perma": 95.9, "per_hs_sperma": 1.4, "per_hs_temp": 2.7, "per_hs_servc": 0.0, "per_hs_nservc": 2.7, "per_hs_unclss": 0.0, "avghhsz_cy": 4.45945946, "st_areashape": 19300685.4920204, "st_lengthshape": 20828.72473018741}, "geometry": {"type": "Polygon", "coordinates": [[[77.2298736504774, 25.54170614867755], [77.22936000008615, 25.542160000164554], [77.22792999983312, 25.544469999464845], [77.22134000023134, 25.547359999565874], [77.21454999971469, 25.54944999996247], [77.21123999984516, 25.547489999862307], [77.2079900002501, 25.54493000030946], [77.20171999941715, 25.541710000289576], [77.20054999945512, 25.541070000404144], [77.20031000015392, 25.53990000052118], [77.20011999928481, 25.538960000470862], [77.19645999961094, 25.53176000000214], [77.19417999996134, 25.52689000021616], [77.19374999979105, 25.52654000039038], [77.19001000064952, 25.52348000035198], [77.18413999984962, 25.51960000066846], [77.18469000056885, 25.518800000763566], [77.18400000010753, 25.517739999769585], [77.18168999942242, 25.515819999388558], [77.17986000003464, 25.512649999874238], [77.1796831217552, 25.511909584975335], [77.18107623269105, 25.511997692996225], [77.18392474464294, 25.51247694248719], [77.19048388172484, 25.51329946651153], [77.19454235160089, 25.514155066761237], [77.19490726972715, 25.514259229244495], [77.19520067926189, 25.51429380034111], [77.19597534773536, 25.514775208494942], [77.19725838989612, 25.5150872181758], [77.20118886242057, 25.51588620594288], [77.20251667212347, 25.516156084059308], [77.20731513729966, 25.51673610722905], [77.21019220399945, 25.517156750039312], [77.21208885388972, 25.517038751573846], [77.21312627778718, 25.516745335348915], [77.21516068881786, 25.516216665814966], [77.21689772694677, 25.515046777806777], [77.21753418332558, 25.515324751866345], [77.21849619634986, 25.515596222650895], [77.2196237329484, 25.515281272251926], [77.2213067437012, 25.514606503617447], [77.2220707303076, 25.514300124686926], [77.22583834815254, 25.514410192247787], [77.22976703033463, 25.516768434425], [77.23142955051578, 25.517919031615317], [77.23186330115243, 25.518219227957143], [77.23228685591059, 25.518512367379557], [77.23566313617668, 25.51943903641096], [77.23629599390445, 25.519323184426433], [77.2376208005394, 25.51872268220842], [77.2384650022091, 25.518552868192742], [77.23932952556719, 25.51853639191332], [77.24107093220334, 25.519072952902654], [77.24225190688317, 25.51923264488934], [77.24294050776926, 25.519325690224925], [77.24398976158068, 25.519407920272236], [77.24476082152167, 25.519675835936972], [77.24533994741903, 25.51998654958673], [77.24712536072431, 25.520318743540024], [77.24880497404871, 25.52033534766047], [77.25112926872661, 25.52109283829265], [77.25379433391768, 25.5219613340613], [77.2538013874893, 25.521963632276336], [77.25434728650094, 25.52208005889977], [77.25435944340167, 25.522082649759717], [77.25445999991625, 25.522489999368293], [77.25438999959606, 25.522560000156545], [77.25203234148849, 25.52427111036111], [77.25061349471804, 25.525300850211874], [77.25051308103558, 25.52537372630335], [77.24778999994854, 25.527349999592424], [77.23952999989419, 25.53276000006581], [77.23502999997118, 25.5371500005299], [77.2298736504774, 25.54170614867755]]]}}]}