{"type": "FeatureCollection", "features": [{"type": "Feature", "properties": {"premiumdata.sde.IN_Village_PCA.area": 7.13180972, "objectid": 427714, "id": "226150602901", "name": "Tiuri Doam", "subdistrict": "Una", "district": "Una", "state": "Himachal Pradesh", "country": "India", "censusname": "Tiuri-Doam (186)", "villagename_locallang": null, "lgd_villagename": "Tiuri-Doam", "lgd_villagecode": 18739, "lgd_subdistrictcode": 150, "lgd_districtcode": 26, "lgd_statecode": 2, "censuscode2001": "01185400", "censuscode2011": "018739", "censuscode2021": null, "level": "Village", "tru": "Rural", "no_hh": 43, "tot_p": 177, "tot_m": 89, "tot_f": 88, "per_tot_m": 50.28248588, "per_tot_f": 49.71751412, "p_06": 17, "m_06": 11, "f_06": 6, "per_p_06": 9.60451977, "per_m_06": 64.70588235, "per_f_06": 35.29411765, "p_sc": 17, "m_sc": 10, "f_sc": 7, "per_p_sc": 9.60451977, "per_m_sc": 58.82352941000001, "per_f_sc": 41.17647059, "p_st": 0, "m_st": 0, "f_st": 0, "per_p_st": 0.0, "per_m_st": 0.0, "per_f_st": 0.0, "p_lit": 137, "m_lit": 73, "f_lit": 64, "per_p_lit": 77.40112994, "per_m_lit": 53.28467153, "per_f_lit": 46.71532847, "p_ill": 40, "m_ill": 16, "f_ill": 24, "per_p_ill": 22.59887006, "per_m_ill": 40.0, "per_f_ill": 60.0, "tot_work_p": 55, "tot_work_m": 41, "tot_work_f": 14, "per_tot_work_p": 31.07344633, "per_tot_work_m": 74.54545455, "per_tot_work_f": 25.45454545, "mainwork_p": 44, "mainwork_m": 38, "mainwork_f": 6, "per_mainwork_p": 24.85875706, "per_mainwork_m": 86.36363636, "per_mainwork_f": 13.63636364, "main_cl_p": 8, "main_cl_m": 7, "main_cl_f": 1, "per_main_cl_p": 18.18181818, "per_main_cl_m": 87.5, "per_main_cl_f": 12.5, "main_al_p": 1, "main_al_m": 1, "main_al_f": 0, "per_main_al_p": 2.27272727, "per_main_al_m": 100.0, "per_main_al_f": 0.0, "main_hh_p": 5, "main_hh_m": 5, "main_hh_f": 0, "per_main_hh_p": 11.36363636, "per_main_hh_m": 100.0, "per_main_hh_f": 0.0, "main_ot_p": 30, "main_ot_m": 25, "main_ot_f": 5, "per_main_ot_p": 68.18181818, "per_main_ot_m": 83.33333332999999, "per_main_ot_f": 16.66666667, "margwork_p": 11, "margwork_m": 3, "margwork_f": 8, "per_margwork_p": 6.21468927, "per_margwork_m": 27.27272727, "per_margwork_f": 72.72727273, "marg_cl_p": 0, "marg_cl_m": 0, "marg_cl_f": 0, "per_marg_cl_p": 0.0, "per_marg_cl_m": 0.0, "per_marg_cl_f": 0.0, "marg_al_p": 0, "marg_al_m": 0, "marg_al_f": 0, "per_marg_al_p": 0.0, "per_marg_al_m": 0.0, "per_marg_al_f": 0.0, "marg_hh_p": 1, "marg_hh_m": 0, "marg_hh_f": 1, "per_marg_hh_p": 9.09090909, "per_marg_hh_m": 0.0, "per_marg_hh_f": 100.0, "marg_ot_p": 10, "marg_ot_m": 3, "marg_ot_f": 7, "per_marg_ot_p": 90.90909091, "per_marg_ot_m": 30.0, "per_marg_ot_f": 70.0, "margwork_3_6_p": 8, "margwork_3_6_m": 2, "margwork_3_6_f": 6, "per_margwork_3_6_p": 72.72727273, "per_margwork_3_6_m": 25.0, "per_margwork_3_6_f": 75.0, "marg_cl_3_6_p": 0, "marg_cl_3_6_m": 0, "marg_cl_3_6_f": 0, "per_marg_cl_3_6_p": 0.0, "per_marg_cl_3_6_m": 0.0, "per_marg_cl_3_6_f": 0.0, "marg_al_3_6_p": 0, "marg_al_3_6_m": 0, "marg_al_3_6_f": 0, "per_marg_al_3_6_p": 0.0, "per_marg_al_3_6_m": 0.0, "per_marg_al_3_6_f": 0.0, "marg_hh_3_6_p": 1, "marg_hh_3_6_m": 0, "marg_hh_3_6_f": 1, "per_marg_hh_3_6_p": 9.09090909, "per_marg_hh_3_6_m": 0.0, "per_marg_hh_3_6_f": 100.0, "marg_ot_3_6_p": 7, "marg_ot_3_6_m": 2, "marg_ot_3_6_f": 5, "per_marg_ot_3_6_p": 63.63636364, "per_marg_ot_3_6_m": 28.57142857, "per_marg_ot_3_6_f": 71.42857143, "margwork_0_3_p": 3, "margwork_0_3_m": 1, "margwork_0_3_f": 2, "per_margwork_0_3_p": 27.27272727, "per_margwork_0_3_m": 33.33333333, "per_margwork_0_3_f": 66.66666667, "marg_cl_0_3_p": 0, "marg_cl_0_3_m": 0, "marg_cl_0_3_f": 0, "per_marg_cl_0_3_p": 0.0, "per_marg_cl_0_3_m": 0.0, "per_marg_cl_0_3_f": 0.0, "marg_al_0_3_p": 0, "marg_al_0_3_m": 0, "marg_al_0_3_f": 0, "per_marg_al_0_3_p": 0.0, "per_marg_al_0_3_m": 0.0, "per_marg_al_0_3_f": 0.0, "marg_hh_0_3_p": 0, "marg_hh_0_3_m": 0, "marg_hh_0_3_f": 0, "per_marg_hh_0_3_p": 0.0, "per_marg_hh_0_3_m": 0.0, "per_marg_hh_0_3_f": 0.0, "marg_ot_0_3_p": 3, "marg_ot_0_3_m": 1, "marg_ot_0_3_f": 2, "per_marg_ot_0_3_p": 27.27272727, "per_marg_ot_0_3_m": 33.33333333, "per_marg_ot_0_3_f": 66.66666667, "non_work_p": 122, "non_work_m": 48, "non_work_f": 74, "per_non_work_p": 68.92655367, "per_non_work_m": 39.3442623, "per_non_work_f": 60.6557377, "per_hc_tot_tot": 100, "per_hc_tot_god": 90.7, "per_hc_tot_liv": 9.3, "per_hc_tot_dil": 0.0, "per_hc_res_tot": 97.7, "per_hc_res_god": 88.4, "per_hc_res_liv": 9.3, "per_hc_res_dil": 0.0, "per_hc_oth_tot": 2.3, "per_hc_oth_god": 2.3, "per_hc_oth_liv": 0.0, "per_hc_oth_dil": 0.0, "per_mt_grsbam": 0.0, "per_mt_plastic": 0.0, "per_mt_h_tiles": 2.3, "per_mt_m_tiles": 0.0, "per_mt_b_brick": 0.0, "per_mt_stone": 4.7, "per_mt_asbstos": 7.0, "per_mt_concrte": 86.0, "per_mt_oth": 0.0, "per_mw_grsbam": 0.0, "per_mw_plastic": 0.0, "per_mw_mud": 11.6, "per_mw_wood": 0.0, "per_mw_no_mrtr": 0.0, "per_mw_st_mrtr": 0.0, "per_mw_asbstos": 0.0, "per_mw_b_brick": 88.4, "per_mw_concrte": 0.0, "per_mw_oth": 0.0, "per_mf_mud": 14.0, "per_mf_wood": 0.0, "per_mf_b_brick": 0.0, "per_mf_stone": 20.9, "per_mf_cement": 65.1, "per_mf_fl_tile": 0.0, "per_mf_oth": 0.0, "per_dw_n_exrm": 0.0, "per_dw_1_room": 18.6, "per_dw_2_room": 37.2, "per_dw_3_room": 11.6, "per_dw_4_room": 16.3, "per_dw_5_room": 7.0, "per_dw_6_room": 9.3, "per_hhsize_1": 2.3, "per_hhsize_2": 18.6, "per_hhsize_3": 9.3, "per_hhsize_4": 30.2, "per_hhsize_5": 27.9, "per_hhsize_6_8": 11.6, "per_hhsize_9p": 0.0, "per_ow_owned": 100.0, "per_ow_rented": 0.0, "per_ow_oth": 0.0, "per_mc_none": 30.2, "per_mcouple_1": 62.8, "per_mcouple_2": 4.7, "per_mcouple_3": 2.3, "per_mcouple_4": 0.0, "per_mcouple_5p": 0.0, "per_dw_t_ts": 97.7, "per_dw_t_unts": 2.3, "per_dw_c_well": 0.0, "per_dw_unc_wel": 0.0, "per_dw_hpump": 0.0, "per_dw_tw_bore": 0.0, "per_dw_spring": 0.0, "per_dw_rivcan": 0.0, "per_dw_tank": 0.0, "per_dw_oth": 0.0, "per_loc_dw_wp": 90.7, "per_loc_dw_np": 4.7, "per_loc_dw_aw": 4.7, "per_light_elec": 97.7, "per_light_kero": 2.3, "per_light_solr": 0.0, "per_light_oil": 0.0, "per_light_oth": 0.0, "per_light_no": 0.0, "per_hh_latrine": 69.8, "per_fl_sewer": 2.3, "per_fl_septict": 67.4, "per_fl_othsys": 0.0, "per_pl_wslab": 0.0, "per_pl_without": 0.0, "per_ns_open": 0.0, "per_sl_ns_hum": 0.0, "per_sl_ns_anml": 0.0, "per_hh_no_lat": 30.2, "per_as_pub": 0.0, "per_as_open": 30.2, "per_hh_bathrm": 76.7, "per_hh_en_wrf": 7.0, "per_hh_no_btrm": 16.3, "per_wwoc_drain": 0.0, "per_wwoc_open": 23.3, "per_wwoc_nodrn": 76.7, "per_cook_fire": 39.5, "per_cook_resdu": 0.0, "per_cook_cwdng": 0.0, "per_cook_coal": 0.0, "per_cook_kero": 0.0, "per_cook_lpng": 60.5, "per_cook_elec": 0.0, "per_cook_biogs": 0.0, "per_cook_oth": 0.0, "per_cook_no": 0.0, "per_kf_inside": 100.0, "per_kf_in_has": 79.1, "per_kf_in_does": 20.9, "per_kf_outside": 0.0, "per_kf_out_has": 0.0, "per_kf_out_dos": 0.0, "per_kf_no_cook": 0.0, "per_hh_banking": 97.7, "per_hh_radio": 2.3, "per_hh_tv": 90.7, "per_hh_cmp_int": 0.0, "per_hh_cmp_wnt": 7.0, "per_hh_ph_ll": 16.3, "per_hh_ph_mob": 39.5, "per_hh_ph_bth": 25.6, "per_hh_bcycl": 51.2, "per_hh_2wheel": 39.5, "per_hh_4wheel": 7.0, "per_hh_tvcomp": null, "per_hh_no_ast": 7.0, "per_hs_perma": 88.4, "per_hs_sperma": 11.6, "per_hs_temp": 0.0, "per_hs_servc": 0.0, "per_hs_nservc": 0.0, "per_hs_unclss": 0.0, "avghhsz_cy": 4.11627907, "st_areashape": 9842803.272982346, "st_lengthshape": 16930.285625351105}, "geometry": {"type": "Polygon", "coordinates": [[[76.21452460967106, 31.52327643650168], [76.21319211166066, 31.52784500123258], [76.21114528501442, 31.532688308657633], [76.20881390352726, 31.531652139191813], [76.20862354692528, 31.52917749971463], [76.20081891456657, 31.526893216995774], [76.19715877924706, 31.526588205998642], [76.19739249034129, 31.52498964852265], [76.19967677315815, 31.51756572977055], [76.20138998527078, 31.50823824259186], [76.2032935539854, 31.50405039178033], [76.20900426012919, 31.49339040587885], [76.21452460967106, 31.488441127499513], [76.21524487886586, 31.48787520181259], [76.21452460967106, 31.49129648084835], [76.21452460967106, 31.49434219050199], [76.21566675107948, 31.49586504566593], [76.21833174710028, 31.498149327870593], [76.21985460261094, 31.500243254181388], [76.22061602991714, 31.504240748458415], [76.22077424839148, 31.507246903852813], [76.2208063865191, 31.50785752904568], [76.22004495921291, 31.50995145465483], [76.22004495921291, 31.511664666713763], [76.22099674401937, 31.514139306048776], [76.22251959863173, 31.51756572977055], [76.22442316734636, 31.52194393806623], [76.22727852086742, 31.52746428793604], [76.22720237876561, 31.52773078763633], [76.22613637945899, 31.531461782457797], [76.2221388854278, 31.528606429295564], [76.21909317530476, 31.525370361951587], [76.2175703197941, 31.522134295055327], [76.2154763944775, 31.52175358145497], [76.21452460967106, 31.52327643650168]]]}}]}