{"type": "FeatureCollection", "features": [{"type": "Feature", "properties": {"premiumdata.sde.IN_Village_PCA.area": 3.51422663, "objectid": 403922, "id": "675379350933", "name": "Shamashpur", "subdistrict": "Ganaur", "district": "Sonipat", "state": "Haryana", "country": "India", "censusname": "Shamashpur (135)", "villagename_locallang": null, "lgd_villagename": "Shamashpur", "lgd_villagecode": 59717, "lgd_subdistrictcode": 379, "lgd_districtcode": 75, "lgd_statecode": 6, "censuscode2001": "00278000", "censuscode2011": "059717", "censuscode2021": null, "level": "Village", "tru": "Rural", "no_hh": 147, "tot_p": 926, "tot_m": 498, "tot_f": 428, "per_tot_m": 53.77969762, "per_tot_f": 46.22030238, "p_06": 122, "m_06": 64, "f_06": 58, "per_p_06": 13.174946, "per_m_06": 52.45901639, "per_f_06": 47.54098361, "p_sc": 75, "m_sc": 44, "f_sc": 31, "per_p_sc": 8.09935205, "per_m_sc": 58.66666667000001, "per_f_sc": 41.33333333, "p_st": 0, "m_st": 0, "f_st": 0, "per_p_st": 0.0, "per_m_st": 0.0, "per_f_st": 0.0, "p_lit": 631, "m_lit": 385, "f_lit": 246, "per_p_lit": 68.1425486, "per_m_lit": 61.01426307000001, "per_f_lit": 38.98573693, "p_ill": 295, "m_ill": 113, "f_ill": 182, "per_p_ill": 31.8574514, "per_m_ill": 38.30508475, "per_f_ill": 61.69491525, "tot_work_p": 224, "tot_work_m": 220, "tot_work_f": 4, "per_tot_work_p": 24.19006479, "per_tot_work_m": 98.21428571, "per_tot_work_f": 1.78571429, "mainwork_p": 222, "mainwork_m": 219, "mainwork_f": 3, "per_mainwork_p": 23.97408207, "per_mainwork_m": 98.64864865, "per_mainwork_f": 1.35135135, "main_cl_p": 80, "main_cl_m": 79, "main_cl_f": 1, "per_main_cl_p": 36.03603604, "per_main_cl_m": 98.75, "per_main_cl_f": 1.25, "main_al_p": 71, "main_al_m": 71, "main_al_f": 0, "per_main_al_p": 31.98198198, "per_main_al_m": 100.0, "per_main_al_f": 0.0, "main_hh_p": 1, "main_hh_m": 1, "main_hh_f": 0, "per_main_hh_p": 0.45045045, "per_main_hh_m": 100.0, "per_main_hh_f": 0.0, "main_ot_p": 70, "main_ot_m": 68, "main_ot_f": 2, "per_main_ot_p": 31.53153153, "per_main_ot_m": 97.14285714, "per_main_ot_f": 2.85714286, "margwork_p": 2, "margwork_m": 1, "margwork_f": 1, "per_margwork_p": 0.21598272, "per_margwork_m": 50.0, "per_margwork_f": 50.0, "marg_cl_p": 2, "marg_cl_m": 1, "marg_cl_f": 1, "per_marg_cl_p": 100.0, "per_marg_cl_m": 50.0, "per_marg_cl_f": 50.0, "marg_al_p": 0, "marg_al_m": 0, "marg_al_f": 0, "per_marg_al_p": 0.0, "per_marg_al_m": 0.0, "per_marg_al_f": 0.0, "marg_hh_p": 0, "marg_hh_m": 0, "marg_hh_f": 0, "per_marg_hh_p": 0.0, "per_marg_hh_m": 0.0, "per_marg_hh_f": 0.0, "marg_ot_p": 0, "marg_ot_m": 0, "marg_ot_f": 0, "per_marg_ot_p": 0.0, "per_marg_ot_m": 0.0, "per_marg_ot_f": 0.0, "margwork_3_6_p": 2, "margwork_3_6_m": 1, "margwork_3_6_f": 1, "per_margwork_3_6_p": 100.0, "per_margwork_3_6_m": 50.0, "per_margwork_3_6_f": 50.0, "marg_cl_3_6_p": 2, "marg_cl_3_6_m": 1, "marg_cl_3_6_f": 1, "per_marg_cl_3_6_p": 100.0, "per_marg_cl_3_6_m": 50.0, "per_marg_cl_3_6_f": 50.0, "marg_al_3_6_p": 0, "marg_al_3_6_m": 0, "marg_al_3_6_f": 0, "per_marg_al_3_6_p": 0.0, "per_marg_al_3_6_m": 0.0, "per_marg_al_3_6_f": 0.0, "marg_hh_3_6_p": 0, "marg_hh_3_6_m": 0, "marg_hh_3_6_f": 0, "per_marg_hh_3_6_p": 0.0, "per_marg_hh_3_6_m": 0.0, "per_marg_hh_3_6_f": 0.0, "marg_ot_3_6_p": 0, "marg_ot_3_6_m": 0, "marg_ot_3_6_f": 0, "per_marg_ot_3_6_p": 0.0, "per_marg_ot_3_6_m": 0.0, "per_marg_ot_3_6_f": 0.0, "margwork_0_3_p": 0, "margwork_0_3_m": 0, "margwork_0_3_f": 0, "per_margwork_0_3_p": 0.0, "per_margwork_0_3_m": 0.0, "per_margwork_0_3_f": 0.0, "marg_cl_0_3_p": 0, "marg_cl_0_3_m": 0, "marg_cl_0_3_f": 0, "per_marg_cl_0_3_p": 0.0, "per_marg_cl_0_3_m": 0.0, "per_marg_cl_0_3_f": 0.0, "marg_al_0_3_p": 0, "marg_al_0_3_m": 0, "marg_al_0_3_f": 0, "per_marg_al_0_3_p": 0.0, "per_marg_al_0_3_m": 0.0, "per_marg_al_0_3_f": 0.0, "marg_hh_0_3_p": 0, "marg_hh_0_3_m": 0, "marg_hh_0_3_f": 0, "per_marg_hh_0_3_p": 0.0, "per_marg_hh_0_3_m": 0.0, "per_marg_hh_0_3_f": 0.0, "marg_ot_0_3_p": 0, "marg_ot_0_3_m": 0, "marg_ot_0_3_f": 0, "per_marg_ot_0_3_p": 0.0, "per_marg_ot_0_3_m": 0.0, "per_marg_ot_0_3_f": 0.0, "non_work_p": 702, "non_work_m": 278, "non_work_f": 424, "per_non_work_p": 75.80993521, "per_non_work_m": 39.6011396, "per_non_work_f": 60.3988604, "per_hc_tot_tot": 100, "per_hc_tot_god": 76.7, "per_hc_tot_liv": 23.3, "per_hc_tot_dil": 0.0, "per_hc_res_tot": 100.0, "per_hc_res_god": 76.7, "per_hc_res_liv": 23.3, "per_hc_res_dil": 0.0, "per_hc_oth_tot": 0.0, "per_hc_oth_god": 0.0, "per_hc_oth_liv": 0.0, "per_hc_oth_dil": 0.0, "per_mt_grsbam": 1.5, "per_mt_plastic": 0.0, "per_mt_h_tiles": 0.8, "per_mt_m_tiles": 0.0, "per_mt_b_brick": 66.2, "per_mt_stone": 28.6, "per_mt_asbstos": 0.8, "per_mt_concrte": 2.3, "per_mt_oth": 0.0, "per_mw_grsbam": 0.0, "per_mw_plastic": 0.0, "per_mw_mud": 0.8, "per_mw_wood": 0.0, "per_mw_no_mrtr": 0.8, "per_mw_st_mrtr": 0.0, "per_mw_asbstos": 0.0, "per_mw_b_brick": 98.5, "per_mw_concrte": 0.0, "per_mw_oth": 0.0, "per_mf_mud": 11.3, "per_mf_wood": 0.0, "per_mf_b_brick": 48.1, "per_mf_stone": 16.5, "per_mf_cement": 24.1, "per_mf_fl_tile": 0.0, "per_mf_oth": 0.0, "per_dw_n_exrm": 4.5, "per_dw_1_room": 13.5, "per_dw_2_room": 32.3, "per_dw_3_room": 24.8, "per_dw_4_room": 20.3, "per_dw_5_room": 2.3, "per_dw_6_room": 2.3, "per_hhsize_1": 1.5, "per_hhsize_2": 3.0, "per_hhsize_3": 6.8, "per_hhsize_4": 20.3, "per_hhsize_5": 24.1, "per_hhsize_6_8": 30.1, "per_hhsize_9p": 14.3, "per_ow_owned": 99.2, "per_ow_rented": 0.8, "per_ow_oth": 0.0, "per_mc_none": 27.1, "per_mcouple_1": 46.6, "per_mcouple_2": 17.3, "per_mcouple_3": 6.8, "per_mcouple_4": 0.8, "per_mcouple_5p": 1.5, "per_dw_t_ts": 15.8, "per_dw_t_unts": 53.4, "per_dw_c_well": 0.0, "per_dw_unc_wel": 0.0, "per_dw_hpump": 4.5, "per_dw_tw_bore": 21.1, "per_dw_spring": 0.0, "per_dw_rivcan": 0.0, "per_dw_tank": 0.0, "per_dw_oth": 5.3, "per_loc_dw_wp": 72.2, "per_loc_dw_np": 27.8, "per_loc_dw_aw": 0.0, "per_light_elec": 94.7, "per_light_kero": 5.3, "per_light_solr": 0.0, "per_light_oil": 0.0, "per_light_oth": 0.0, "per_light_no": 0.0, "per_hh_latrine": 71.4, "per_fl_sewer": 3.8, "per_fl_septict": 66.9, "per_fl_othsys": 0.8, "per_pl_wslab": 0.0, "per_pl_without": 0.0, "per_ns_open": 0.0, "per_sl_ns_hum": 0.0, "per_sl_ns_anml": 0.0, "per_hh_no_lat": 28.6, "per_as_pub": 0.0, "per_as_open": 28.6, "per_hh_bathrm": 69.2, "per_hh_en_wrf": 26.3, "per_hh_no_btrm": 4.5, "per_wwoc_drain": 2.3, "per_wwoc_open": 88.7, "per_wwoc_nodrn": 9.0, "per_cook_fire": 82.0, "per_cook_resdu": 2.3, "per_cook_cwdng": 3.0, "per_cook_coal": 0.0, "per_cook_kero": 0.0, "per_cook_lpng": 12.8, "per_cook_elec": 0.0, "per_cook_biogs": 0.0, "per_cook_oth": 0.0, "per_cook_no": 0.0, "per_kf_inside": 67.7, "per_kf_in_has": 37.6, "per_kf_in_does": 30.1, "per_kf_outside": 32.3, "per_kf_out_has": 24.8, "per_kf_out_dos": 7.5, "per_kf_no_cook": 0.0, "per_hh_banking": 70.7, "per_hh_radio": 6.8, "per_hh_tv": 72.2, "per_hh_cmp_int": 0.0, "per_hh_cmp_wnt": 0.0, "per_hh_ph_ll": 10.5, "per_hh_ph_mob": 34.6, "per_hh_ph_bth": 0.0, "per_hh_bcycl": 43.6, "per_hh_2wheel": 46.6, "per_hh_4wheel": 5.3, "per_hh_tvcomp": null, "per_hh_no_ast": 7.5, "per_hs_perma": 97.7, "per_hs_sperma": 2.3, "per_hs_temp": 0.0, "per_hs_servc": 0.0, "per_hs_nservc": 0.0, "per_hs_unclss": 0.0, "avghhsz_cy": 6.29931973, "st_areashape": 4624369.52270645, "st_lengthshape": 10394.315409913159}, "geometry": {"type": "Polygon", "coordinates": [[[76.95184512753458, 29.16093024408726], [76.95168904255901, 29.16086232413056], [76.9502883175028, 29.159830811036095], [76.94959525917626, 29.159792634191913], [76.94832898946021, 29.16036855970963], [76.94598644999886, 29.162163791239966], [76.94488948576439, 29.162655199969546], [76.94369103525901, 29.162714309431482], [76.93969725216826, 29.164218920572704], [76.9362811199412, 29.16511283666426], [76.93589580646467, 29.162280623007803], [76.93473429917535, 29.160476697766246], [76.93531296244038, 29.15968341991011], [76.93499062625517, 29.159188853582165], [76.93452111907696, 29.157121710354886], [76.93428151323785, 29.15600281006734], [76.93431207122889, 29.15597455802547], [76.93672082461148, 29.153832827752044], [76.93882023863448, 29.153208300075327], [76.94077327038524, 29.151397236285387], [76.94354063033097, 29.15064893011384], [76.94604278424863, 29.15050950534193], [76.94753814682004, 29.149916019052444], [76.94785121508644, 29.149494233483097], [76.95080967993079, 29.150768513010508], [76.95157811409616, 29.151102714400594], [76.95286419346087, 29.151179931244666], [76.95400655585485, 29.15206986326495], [76.95633664915795, 29.152387340665005], [76.96014107726826, 29.153804315439622], [76.96125204264476, 29.153896694863775], [76.96546684363474, 29.15486473450674], [76.96853089466092, 29.154789651147755], [76.96855404244916, 29.15478760986621], [76.96865247265148, 29.15597212451955], [76.96883746181963, 29.156630436749417], [76.97109975657327, 29.159126908579143], [76.96957400579242, 29.159588766811012], [76.96736268953283, 29.15961563327277], [76.9639060917955, 29.161032098835395], [76.96063080911675, 29.162733144721226], [76.96011476741023, 29.162902844164037], [76.95926342772728, 29.162895502563288], [76.9586675455549, 29.162891872161563], [76.95599827175671, 29.161980624709905], [76.95385429500746, 29.161786306877605], [76.95184512753458, 29.16093024408726]]]}}]}