{"type": "FeatureCollection", "features": [{"type": "Feature", "properties": {"premiumdata.sde.IN_Village_PCA.area": 1.28404136, "objectid": 455583, "id": "146753467195", "name": "Bhargi", "subdistrict": "Bhalessa", "district": "Doda", "state": "Jammu And Kashmir", "country": "India", "censusname": "Bhargi", "villagename_locallang": null, "lgd_villagename": "Bhargi", "lgd_villagecode": 4361, "lgd_subdistrictcode": 6753, "lgd_districtcode": 4, "lgd_statecode": 1, "censuscode2001": "00359500", "censuscode2011": "004361", "censuscode2021": null, "level": "Village", "tru": "Rural", "no_hh": 296, "tot_p": 1728, "tot_m": 885, "tot_f": 843, "per_tot_m": 51.21527778, "per_tot_f": 48.78472222, "p_06": 287, "m_06": 145, "f_06": 142, "per_p_06": 16.6087963, "per_m_06": 50.52264808, "per_f_06": 49.47735192, "p_sc": 278, "m_sc": 145, "f_sc": 133, "per_p_sc": 16.08796296, "per_m_sc": 52.15827338, "per_f_sc": 47.84172662, "p_st": 164, "m_st": 93, "f_st": 71, "per_p_st": 9.49074074, "per_m_st": 56.70731707, "per_f_st": 43.29268293, "p_lit": 824, "m_lit": 533, "f_lit": 291, "per_p_lit": 47.68518519, "per_m_lit": 64.68446602, "per_f_lit": 35.31553398, "p_ill": 904, "m_ill": 352, "f_ill": 552, "per_p_ill": 52.31481481, "per_m_ill": 38.9380531, "per_f_ill": 61.0619469, "tot_work_p": 644, "tot_work_m": 398, "tot_work_f": 246, "per_tot_work_p": 37.26851852, "per_tot_work_m": 61.80124224, "per_tot_work_f": 38.19875776, "mainwork_p": 436, "mainwork_m": 369, "mainwork_f": 67, "per_mainwork_p": 25.23148148, "per_mainwork_m": 84.63302752, "per_mainwork_f": 15.36697248, "main_cl_p": 237, "main_cl_m": 190, "main_cl_f": 47, "per_main_cl_p": 54.35779817, "per_main_cl_m": 80.16877637, "per_main_cl_f": 19.83122363, "main_al_p": 7, "main_al_m": 2, "main_al_f": 5, "per_main_al_p": 1.60550459, "per_main_al_m": 28.57142857, "per_main_al_f": 71.42857143, "main_hh_p": 0, "main_hh_m": 0, "main_hh_f": 0, "per_main_hh_p": 0.0, "per_main_hh_m": 0.0, "per_main_hh_f": 0.0, "main_ot_p": 192, "main_ot_m": 177, "main_ot_f": 15, "per_main_ot_p": 44.03669725, "per_main_ot_m": 92.1875, "per_main_ot_f": 7.8125, "margwork_p": 208, "margwork_m": 29, "margwork_f": 179, "per_margwork_p": 12.03703704, "per_margwork_m": 13.94230769, "per_margwork_f": 86.05769231, "marg_cl_p": 179, "marg_cl_m": 6, "marg_cl_f": 173, "per_marg_cl_p": 86.05769231, "per_marg_cl_m": 3.35195531, "per_marg_cl_f": 96.64804469, "marg_al_p": 5, "marg_al_m": 4, "marg_al_f": 1, "per_marg_al_p": 2.40384615, "per_marg_al_m": 80.0, "per_marg_al_f": 20.0, "marg_hh_p": 0, "marg_hh_m": 0, "marg_hh_f": 0, "per_marg_hh_p": 0.0, "per_marg_hh_m": 0.0, "per_marg_hh_f": 0.0, "marg_ot_p": 24, "marg_ot_m": 19, "marg_ot_f": 5, "per_marg_ot_p": 11.53846154, "per_marg_ot_m": 79.16666667, "per_marg_ot_f": 20.83333333, "margwork_3_6_p": 178, "margwork_3_6_m": 29, "margwork_3_6_f": 149, "per_margwork_3_6_p": 85.57692308, "per_margwork_3_6_m": 16.29213483, "per_margwork_3_6_f": 83.70786517, "marg_cl_3_6_p": 150, "marg_cl_3_6_m": 6, "marg_cl_3_6_f": 144, "per_marg_cl_3_6_p": 72.11538462, "per_marg_cl_3_6_m": 4.0, "per_marg_cl_3_6_f": 96.0, "marg_al_3_6_p": 5, "marg_al_3_6_m": 4, "marg_al_3_6_f": 1, "per_marg_al_3_6_p": 2.40384615, "per_marg_al_3_6_m": 80.0, "per_marg_al_3_6_f": 20.0, "marg_hh_3_6_p": 0, "marg_hh_3_6_m": 0, "marg_hh_3_6_f": 0, "per_marg_hh_3_6_p": 0.0, "per_marg_hh_3_6_m": 0.0, "per_marg_hh_3_6_f": 0.0, "marg_ot_3_6_p": 23, "marg_ot_3_6_m": 19, "marg_ot_3_6_f": 4, "per_marg_ot_3_6_p": 11.05769231, "per_marg_ot_3_6_m": 82.60869565, "per_marg_ot_3_6_f": 17.39130435, "margwork_0_3_p": 30, "margwork_0_3_m": 0, "margwork_0_3_f": 30, "per_margwork_0_3_p": 14.42307692, "per_margwork_0_3_m": 0.0, "per_margwork_0_3_f": 100.0, "marg_cl_0_3_p": 29, "marg_cl_0_3_m": 0, "marg_cl_0_3_f": 29, "per_marg_cl_0_3_p": 13.94230769, "per_marg_cl_0_3_m": 0.0, "per_marg_cl_0_3_f": 100.0, "marg_al_0_3_p": 0, "marg_al_0_3_m": 0, "marg_al_0_3_f": 0, "per_marg_al_0_3_p": 0.0, "per_marg_al_0_3_m": 0.0, "per_marg_al_0_3_f": 0.0, "marg_hh_0_3_p": 0, "marg_hh_0_3_m": 0, "marg_hh_0_3_f": 0, "per_marg_hh_0_3_p": 0.0, "per_marg_hh_0_3_m": 0.0, "per_marg_hh_0_3_f": 0.0, "marg_ot_0_3_p": 1, "marg_ot_0_3_m": 0, "marg_ot_0_3_f": 1, "per_marg_ot_0_3_p": 0.48076923, "per_marg_ot_0_3_m": 0.0, "per_marg_ot_0_3_f": 100.0, "non_work_p": 1084, "non_work_m": 487, "non_work_f": 597, "per_non_work_p": 62.73148148, "per_non_work_m": 44.92619926, "per_non_work_f": 55.07380074, "per_hc_tot_tot": 100, "per_hc_tot_god": 44.2, "per_hc_tot_liv": 55.8, "per_hc_tot_dil": 0.0, "per_hc_res_tot": 99.7, "per_hc_res_god": 44.2, "per_hc_res_liv": 55.4, "per_hc_res_dil": 0.0, "per_hc_oth_tot": 0.3, "per_hc_oth_god": 0.0, "per_hc_oth_liv": 0.3, "per_hc_oth_dil": 0.0, "per_mt_grsbam": 88.4, "per_mt_plastic": 0.0, "per_mt_h_tiles": 0.0, "per_mt_m_tiles": 0.0, "per_mt_b_brick": 4.8, "per_mt_stone": 0.7, "per_mt_asbstos": 6.1, "per_mt_concrte": 0.0, "per_mt_oth": 0.0, "per_mw_grsbam": 5.4, "per_mw_plastic": 0.0, "per_mw_mud": 0.0, "per_mw_wood": 0.3, "per_mw_no_mrtr": 89.8, "per_mw_st_mrtr": 4.4, "per_mw_asbstos": 0.0, "per_mw_b_brick": 0.0, "per_mw_concrte": 0.0, "per_mw_oth": 0.0, "per_mf_mud": 80.3, "per_mf_wood": 0.0, "per_mf_b_brick": 0.0, "per_mf_stone": 0.0, "per_mf_cement": 19.7, "per_mf_fl_tile": 0.0, "per_mf_oth": 0.0, "per_dw_n_exrm": 1.0, "per_dw_1_room": 11.2, "per_dw_2_room": 24.1, "per_dw_3_room": 27.9, "per_dw_4_room": 21.4, "per_dw_5_room": 8.2, "per_dw_6_room": 6.1, "per_hhsize_1": 0.7, "per_hhsize_2": 3.7, "per_hhsize_3": 8.2, "per_hhsize_4": 16.3, "per_hhsize_5": 15.6, "per_hhsize_6_8": 44.9, "per_hhsize_9p": 10.5, "per_ow_owned": 96.6, "per_ow_rented": 3.4, "per_ow_oth": 0.0, "per_mc_none": 5.4, "per_mcouple_1": 73.1, "per_mcouple_2": 19.0, "per_mcouple_3": 2.4, "per_mcouple_4": 0.0, "per_mcouple_5p": 0.0, "per_dw_t_ts": 43.5, "per_dw_t_unts": 30.3, "per_dw_c_well": 0.0, "per_dw_unc_wel": 1.0, "per_dw_hpump": 0.0, "per_dw_tw_bore": 0.0, "per_dw_spring": 23.8, "per_dw_rivcan": 1.4, "per_dw_tank": 0.0, "per_dw_oth": 0.0, "per_loc_dw_wp": 22.4, "per_loc_dw_np": 49.3, "per_loc_dw_aw": 28.2, "per_light_elec": 92.5, "per_light_kero": 5.4, "per_light_solr": 0.0, "per_light_oil": 0.0, "per_light_oth": 0.3, "per_light_no": 1.7, "per_hh_latrine": 16.7, "per_fl_sewer": 2.0, "per_fl_septict": 1.0, "per_fl_othsys": 6.5, "per_pl_wslab": 5.8, "per_pl_without": 0.0, "per_ns_open": 1.4, "per_sl_ns_hum": 0.0, "per_sl_ns_anml": 0.0, "per_hh_no_lat": 83.3, "per_as_pub": 0.0, "per_as_open": 83.3, "per_hh_bathrm": 19.0, "per_hh_en_wrf": 3.1, "per_hh_no_btrm": 77.9, "per_wwoc_drain": 1.0, "per_wwoc_open": 6.8, "per_wwoc_nodrn": 92.2, "per_cook_fire": 98.3, "per_cook_resdu": 1.4, "per_cook_cwdng": 0.3, "per_cook_coal": 0.0, "per_cook_kero": 0.0, "per_cook_lpng": 0.0, "per_cook_elec": 0.0, "per_cook_biogs": 0.0, "per_cook_oth": 0.0, "per_cook_no": 0.0, "per_kf_inside": 99.0, "per_kf_in_has": 98.6, "per_kf_in_does": 0.3, "per_kf_outside": 1.0, "per_kf_out_has": 0.3, "per_kf_out_dos": 0.7, "per_kf_no_cook": 0.0, "per_hh_banking": 59.9, "per_hh_radio": 26.2, "per_hh_tv": 19.0, "per_hh_cmp_int": 0.3, "per_hh_cmp_wnt": 6.8, "per_hh_ph_ll": 0.0, "per_hh_ph_mob": 77.2, "per_hh_ph_bth": 1.7, "per_hh_bcycl": 0.0, "per_hh_2wheel": 0.7, "per_hh_4wheel": 0.7, "per_hh_tvcomp": 0.0, "per_hh_no_ast": 15.3, "per_hs_perma": 6.5, "per_hs_sperma": 92.9, "per_hs_temp": 0.7, "per_hs_servc": 0.0, "per_hs_nservc": 0.7, "per_hs_unclss": 0.0, "avghhsz_cy": 5.83783784, "st_areashape": 1832169.827066925, "st_lengthshape": 7086.830201836309}, "geometry": {"type": "Polygon", "coordinates": [[[75.90701722299457, 33.030388898383436], [75.90797369341354, 33.030404067946506], [75.9080449980875, 33.03156976747614], [75.9080449980875, 33.034379340352984], [75.90865108062992, 33.03488744507113], [75.90929281640764, 33.03494722177126], [75.91093280684147, 33.03491733304972], [75.91260844871401, 33.03491733304972], [75.91332148736907, 33.03823488460117], [75.9142840905865, 33.040147649978856], [75.9147119141389, 33.0438535141938], [75.91553190890664, 33.04633396634148], [75.91622712229155, 33.04794937663705], [75.91383416308828, 33.047427879361024], [75.91174258147625, 33.045913735568156], [75.91050664696901, 33.04575435053635], [75.90736927455102, 33.045913735568156], [75.90698898714852, 33.042965063907054], [75.90919180265061, 33.041666874219906], [75.90681500503757, 33.040471420683765], [75.90372516876948, 33.03927595167739], [75.9021802506354, 33.03837933946463], [75.90229909056099, 33.036486460656384], [75.90265561033766, 33.033497622159935], [75.90301212921605, 33.03232198442904], [75.90301212921605, 33.03144522755117], [75.9034520279225, 33.03044867888847], [75.90701722299457, 33.030388898383436]]]}}]}