{"type": "FeatureCollection", "features": [{"type": "Feature", "properties": {"premiumdata.sde.IN_Village_PCA.area": 1.19831191, "objectid": 95065, "id": "285234950658259", "name": "Thallapudi", "subdistrict": "Tallapudi", "district": "West Godavari", "state": "Andhra Pradesh", "country": "India", "censusname": "Thallapudi", "villagename_locallang": null, "lgd_villagename": "Thallapudi", "lgd_villagecode": 588121, "lgd_subdistrictcode": 4950, "lgd_districtcode": 523, "lgd_statecode": 28, "censuscode2001": "01912800", "censuscode2011": "588121", "censuscode2021": null, "level": "Village", "tru": "Rural", "no_hh": 1151, "tot_p": 4411, "tot_m": 2242, "tot_f": 2169, "per_tot_m": 50.82747676, "per_tot_f": 49.17252324, "p_06": 480, "m_06": 247, "f_06": 233, "per_p_06": 10.88188619, "per_m_06": 51.45833333, "per_f_06": 48.54166667000001, "p_sc": 1136, "m_sc": 602, "f_sc": 534, "per_p_sc": 25.75379732, "per_m_sc": 52.99295775, "per_f_sc": 47.00704225, "p_st": 170, "m_st": 92, "f_st": 78, "per_p_st": 3.85400136, "per_m_st": 54.11764706, "per_f_st": 45.88235294, "p_lit": 2974, "m_lit": 1580, "f_lit": 1394, "per_p_lit": 67.42235321000001, "per_m_lit": 53.12710155, "per_f_lit": 46.87289845, "p_ill": 1437, "m_ill": 662, "f_ill": 775, "per_p_ill": 32.57764679, "per_m_ill": 46.06819763, "per_f_ill": 53.93180237, "tot_work_p": 1748, "tot_work_m": 1294, "tot_work_f": 454, "per_tot_work_p": 39.62820222, "per_tot_work_m": 74.02745995, "per_tot_work_f": 25.97254005, "mainwork_p": 1738, "mainwork_m": 1286, "mainwork_f": 452, "per_mainwork_p": 39.40149626, "per_mainwork_m": 73.99309550999999, "per_mainwork_f": 26.00690449, "main_cl_p": 31, "main_cl_m": 30, "main_cl_f": 1, "per_main_cl_p": 1.78365938, "per_main_cl_m": 96.77419355, "per_main_cl_f": 3.22580645, "main_al_p": 585, "main_al_m": 381, "main_al_f": 204, "per_main_al_p": 33.6593786, "per_main_al_m": 65.12820513000001, "per_main_al_f": 34.87179487, "main_hh_p": 20, "main_hh_m": 12, "main_hh_f": 8, "per_main_hh_p": 1.15074799, "per_main_hh_m": 60.0, "per_main_hh_f": 40.0, "main_ot_p": 1102, "main_ot_m": 863, "main_ot_f": 239, "per_main_ot_p": 63.40621404, "per_main_ot_m": 78.31215971, "per_main_ot_f": 21.68784029, "margwork_p": 10, "margwork_m": 8, "margwork_f": 2, "per_margwork_p": 0.22670596, "per_margwork_m": 80.0, "per_margwork_f": 20.0, "marg_cl_p": 2, "marg_cl_m": 1, "marg_cl_f": 1, "per_marg_cl_p": 20.0, "per_marg_cl_m": 50.0, "per_marg_cl_f": 50.0, "marg_al_p": 0, "marg_al_m": 0, "marg_al_f": 0, "per_marg_al_p": 0.0, "per_marg_al_m": 0.0, "per_marg_al_f": 0.0, "marg_hh_p": 0, "marg_hh_m": 0, "marg_hh_f": 0, "per_marg_hh_p": 0.0, "per_marg_hh_m": 0.0, "per_marg_hh_f": 0.0, "marg_ot_p": 8, "marg_ot_m": 7, "marg_ot_f": 1, "per_marg_ot_p": 80.0, "per_marg_ot_m": 87.5, "per_marg_ot_f": 12.5, "margwork_3_6_p": 4, "margwork_3_6_m": 3, "margwork_3_6_f": 1, "per_margwork_3_6_p": 40.0, "per_margwork_3_6_m": 75.0, "per_margwork_3_6_f": 25.0, "marg_cl_3_6_p": 2, "marg_cl_3_6_m": 1, "marg_cl_3_6_f": 1, "per_marg_cl_3_6_p": 20.0, "per_marg_cl_3_6_m": 50.0, "per_marg_cl_3_6_f": 50.0, "marg_al_3_6_p": 0, "marg_al_3_6_m": 0, "marg_al_3_6_f": 0, "per_marg_al_3_6_p": 0.0, "per_marg_al_3_6_m": 0.0, "per_marg_al_3_6_f": 0.0, "marg_hh_3_6_p": 0, "marg_hh_3_6_m": 0, "marg_hh_3_6_f": 0, "per_marg_hh_3_6_p": 0.0, "per_marg_hh_3_6_m": 0.0, "per_marg_hh_3_6_f": 0.0, "marg_ot_3_6_p": 2, "marg_ot_3_6_m": 2, "marg_ot_3_6_f": 0, "per_marg_ot_3_6_p": 20.0, "per_marg_ot_3_6_m": 100.0, "per_marg_ot_3_6_f": 0.0, "margwork_0_3_p": 6, "margwork_0_3_m": 5, "margwork_0_3_f": 1, "per_margwork_0_3_p": 60.0, "per_margwork_0_3_m": 83.33333332999999, "per_margwork_0_3_f": 16.66666667, "marg_cl_0_3_p": 0, "marg_cl_0_3_m": 0, "marg_cl_0_3_f": 0, "per_marg_cl_0_3_p": 0.0, "per_marg_cl_0_3_m": 0.0, "per_marg_cl_0_3_f": 0.0, "marg_al_0_3_p": 0, "marg_al_0_3_m": 0, "marg_al_0_3_f": 0, "per_marg_al_0_3_p": 0.0, "per_marg_al_0_3_m": 0.0, "per_marg_al_0_3_f": 0.0, "marg_hh_0_3_p": 0, "marg_hh_0_3_m": 0, "marg_hh_0_3_f": 0, "per_marg_hh_0_3_p": 0.0, "per_marg_hh_0_3_m": 0.0, "per_marg_hh_0_3_f": 0.0, "marg_ot_0_3_p": 6, "marg_ot_0_3_m": 5, "marg_ot_0_3_f": 1, "per_marg_ot_0_3_p": 60.0, "per_marg_ot_0_3_m": 83.33333332999999, "per_marg_ot_0_3_f": 16.66666667, "non_work_p": 2663, "non_work_m": 948, "non_work_f": 1715, "per_non_work_p": 60.37179778, "per_non_work_m": 35.59894855, "per_non_work_f": 64.40105145, "per_hc_tot_tot": 100, "per_hc_tot_god": 66.8, "per_hc_tot_liv": 31.2, "per_hc_tot_dil": 2.0, "per_hc_res_tot": 99.2, "per_hc_res_god": 66.3, "per_hc_res_liv": 30.8, "per_hc_res_dil": 2.0, "per_hc_oth_tot": 0.8, "per_hc_oth_god": 0.5, "per_hc_oth_liv": 0.3, "per_hc_oth_dil": 0.0, "per_mt_grsbam": 10.3, "per_mt_plastic": 0.0, "per_mt_h_tiles": 4.0, "per_mt_m_tiles": 28.0, "per_mt_b_brick": 0.0, "per_mt_stone": 0.0, "per_mt_asbstos": 1.0, "per_mt_concrte": 56.7, "per_mt_oth": 0.0, "per_mw_grsbam": 5.6, "per_mw_plastic": 0.2, "per_mw_mud": 3.2, "per_mw_wood": 0.0, "per_mw_no_mrtr": 0.0, "per_mw_st_mrtr": 0.2, "per_mw_asbstos": 0.0, "per_mw_b_brick": 90.8, "per_mw_concrte": 0.0, "per_mw_oth": 0.1, "per_mf_mud": 9.0, "per_mf_wood": 0.1, "per_mf_b_brick": 0.1, "per_mf_stone": 2.4, "per_mf_cement": 82.3, "per_mf_fl_tile": 6.1, "per_mf_oth": 0.0, "per_dw_n_exrm": 0.3, "per_dw_1_room": 30.4, "per_dw_2_room": 50.5, "per_dw_3_room": 12.1, "per_dw_4_room": 5.1, "per_dw_5_room": 0.5, "per_dw_6_room": 1.0, "per_hhsize_1": 5.0, "per_hhsize_2": 15.0, "per_hhsize_3": 18.4, "per_hhsize_4": 35.6, "per_hhsize_5": 15.0, "per_hhsize_6_8": 10.5, "per_hhsize_9p": 0.5, "per_ow_owned": 75.9, "per_ow_rented": 22.2, "per_ow_oth": 1.9, "per_mc_none": 12.4, "per_mcouple_1": 79.4, "per_mcouple_2": 7.5, "per_mcouple_3": 0.6, "per_mcouple_4": 0.1, "per_mcouple_5p": 0.0, "per_dw_t_ts": 10.7, "per_dw_t_unts": 2.3, "per_dw_c_well": 0.2, "per_dw_unc_wel": 1.7, "per_dw_hpump": 0.0, "per_dw_tw_bore": 0.3, "per_dw_spring": 0.0, "per_dw_rivcan": 83.6, "per_dw_tank": 0.5, "per_dw_oth": 0.6, "per_loc_dw_wp": 9.4, "per_loc_dw_np": 23.8, "per_loc_dw_aw": 66.8, "per_light_elec": 96.9, "per_light_kero": 3.0, "per_light_solr": 0.0, "per_light_oil": 0.0, "per_light_oth": 0.0, "per_light_no": 0.1, "per_hh_latrine": 72.1, "per_fl_sewer": 0.7, "per_fl_septict": 71.2, "per_fl_othsys": 0.1, "per_pl_wslab": 0.0, "per_pl_without": 0.0, "per_ns_open": 0.0, "per_sl_ns_hum": 0.0, "per_sl_ns_anml": 0.0, "per_hh_no_lat": 27.9, "per_as_pub": 13.3, "per_as_open": 14.7, "per_hh_bathrm": 63.2, "per_hh_en_wrf": 11.5, "per_hh_no_btrm": 25.3, "per_wwoc_drain": 2.2, "per_wwoc_open": 54.2, "per_wwoc_nodrn": 43.5, "per_cook_fire": 54.9, "per_cook_resdu": 1.4, "per_cook_cwdng": 0.0, "per_cook_coal": 0.2, "per_cook_kero": 4.1, "per_cook_lpng": 38.7, "per_cook_elec": 0.0, "per_cook_biogs": 0.0, "per_cook_oth": 0.0, "per_cook_no": 0.7, "per_kf_inside": 66.8, "per_kf_in_has": 55.5, "per_kf_in_does": 11.4, "per_kf_outside": 32.5, "per_kf_out_has": 13.9, "per_kf_out_dos": 18.6, "per_kf_no_cook": 0.7, "per_hh_banking": 35.7, "per_hh_radio": 3.6, "per_hh_tv": 59.1, "per_hh_cmp_int": 0.7, "per_hh_cmp_wnt": 3.6, "per_hh_ph_ll": 3.2, "per_hh_ph_mob": 43.9, "per_hh_ph_bth": 4.3, "per_hh_bcycl": 39.9, "per_hh_2wheel": 15.8, "per_hh_4wheel": 0.9, "per_hh_tvcomp": 2.4, "per_hh_no_ast": 21.5, "per_hs_perma": 88.6, "per_hs_sperma": 3.6, "per_hs_temp": 7.7, "per_hs_servc": 2.2, "per_hs_nservc": 5.5, "per_hs_unclss": 0.1, "avghhsz_cy": 3.83231972, "st_areashape": 1319311.526575585, "st_lengthshape": 5558.787097463897}, "geometry": {"type": "Polygon", "coordinates": [[[81.66514800253933, 17.127622579518427], [81.6639452113745, 17.128072362896315], [81.66272000005681, 17.128539999683287], [81.66331000006069, 17.126560000351148], [81.6658800001385, 17.121539999656207], [81.66530999932776, 17.121320000121198], [81.66464999990201, 17.1201700006188], [81.66392000015605, 17.11837999946822], [81.66363999977355, 17.11769999990763], [81.66327999992346, 17.114639999459666], [81.66308999995266, 17.11330000030424], [81.66306000071373, 17.113150000054517], [81.66509570711506, 17.112879070355664], [81.66718751689915, 17.113278909356946], [81.66812883184096, 17.11417854525647], [81.67016834620078, 17.114728320466376], [81.67257392763214, 17.115478011082487], [81.67330606087687, 17.11632765628065], [81.67464305315865, 17.11815476265959], [81.67420106497086, 17.118962133470625], [81.6731297781805, 17.11989959882486], [81.67170774508574, 17.121182600617495], [81.67056599264781, 17.12214309438224], [81.66967954860017, 17.123332663498182], [81.66893976081087, 17.124661678982864], [81.6687494634977, 17.125083268202616], [81.66876998910365, 17.125171464921134], [81.66893759856599, 17.125891687193775], [81.66896367935362, 17.12631657706379], [81.66889122214113, 17.126443915664197], [81.66865653188329, 17.12685636662077], [81.66803081127041, 17.12761951647594], [81.6676370455454, 17.128151688448103], [81.66755358397067, 17.127822483280887], [81.66703063152465, 17.127822483280887], [81.66567095498534, 17.127272746773087], [81.66514800253933, 17.127622579518427]]]}}]}