{"type": "FeatureCollection", "features": [{"type": "Feature", "properties": {"premiumdata.sde.IN_Village_PCA.area": 3.48006687, "objectid": 309564, "id": "897535487849", "name": "Patan", "subdistrict": "Sikrai", "district": "Dausa", "state": "Rajasthan", "country": "India", "censusname": "Patan", "villagename_locallang": null, "lgd_villagename": "Patan", "lgd_villagecode": 78408, "lgd_subdistrictcode": 535, "lgd_districtcode": 97, "lgd_statecode": 8, "censuscode2001": "01388600", "censuscode2011": "078408", "censuscode2021": null, "level": "Village", "tru": "Rural", "no_hh": 395, "tot_p": 1812, "tot_m": 978, "tot_f": 834, "per_tot_m": 53.97350993, "per_tot_f": 46.02649007, "p_06": 250, "m_06": 137, "f_06": 113, "per_p_06": 13.79690949, "per_m_06": 54.8, "per_f_06": 45.2, "p_sc": 313, "m_sc": 173, "f_sc": 140, "per_p_sc": 17.27373068, "per_m_sc": 55.2715655, "per_f_sc": 44.7284345, "p_st": 1343, "m_st": 720, "f_st": 623, "per_p_st": 74.11699779, "per_m_st": 53.61131794, "per_f_st": 46.38868206, "p_lit": 985, "m_lit": 652, "f_lit": 333, "per_p_lit": 54.3598234, "per_m_lit": 66.1928934, "per_f_lit": 33.8071066, "p_ill": 827, "m_ill": 326, "f_ill": 501, "per_p_ill": 45.6401766, "per_m_ill": 39.41958888, "per_f_ill": 60.58041112, "tot_work_p": 817, "tot_work_m": 420, "tot_work_f": 397, "per_tot_work_p": 45.08830022, "per_tot_work_m": 51.40758874, "per_tot_work_f": 48.59241126, "mainwork_p": 813, "mainwork_m": 418, "mainwork_f": 395, "per_mainwork_p": 44.86754967, "per_mainwork_m": 51.41451415, "per_mainwork_f": 48.58548585, "main_cl_p": 718, "main_cl_m": 358, "main_cl_f": 360, "per_main_cl_p": 88.31488315, "per_main_cl_m": 49.86072423, "per_main_cl_f": 50.13927577, "main_al_p": 24, "main_al_m": 8, "main_al_f": 16, "per_main_al_p": 2.95202952, "per_main_al_m": 33.33333333, "per_main_al_f": 66.66666667, "main_hh_p": 17, "main_hh_m": 7, "main_hh_f": 10, "per_main_hh_p": 2.09102091, "per_main_hh_m": 41.17647059, "per_main_hh_f": 58.82352941000001, "main_ot_p": 54, "main_ot_m": 45, "main_ot_f": 9, "per_main_ot_p": 6.64206642, "per_main_ot_m": 83.33333332999999, "per_main_ot_f": 16.66666667, "margwork_p": 4, "margwork_m": 2, "margwork_f": 2, "per_margwork_p": 0.22075055, "per_margwork_m": 50.0, "per_margwork_f": 50.0, "marg_cl_p": 1, "marg_cl_m": 0, "marg_cl_f": 1, "per_marg_cl_p": 25.0, "per_marg_cl_m": 0.0, "per_marg_cl_f": 100.0, "marg_al_p": 1, "marg_al_m": 0, "marg_al_f": 1, "per_marg_al_p": 25.0, "per_marg_al_m": 0.0, "per_marg_al_f": 100.0, "marg_hh_p": 0, "marg_hh_m": 0, "marg_hh_f": 0, "per_marg_hh_p": 0.0, "per_marg_hh_m": 0.0, "per_marg_hh_f": 0.0, "marg_ot_p": 2, "marg_ot_m": 2, "marg_ot_f": 0, "per_marg_ot_p": 50.0, "per_marg_ot_m": 100.0, "per_marg_ot_f": 0.0, "margwork_3_6_p": 3, "margwork_3_6_m": 1, "margwork_3_6_f": 2, "per_margwork_3_6_p": 75.0, "per_margwork_3_6_m": 33.33333333, "per_margwork_3_6_f": 66.66666667, "marg_cl_3_6_p": 1, "marg_cl_3_6_m": 0, "marg_cl_3_6_f": 1, "per_marg_cl_3_6_p": 25.0, "per_marg_cl_3_6_m": 0.0, "per_marg_cl_3_6_f": 100.0, "marg_al_3_6_p": 1, "marg_al_3_6_m": 0, "marg_al_3_6_f": 1, "per_marg_al_3_6_p": 25.0, "per_marg_al_3_6_m": 0.0, "per_marg_al_3_6_f": 100.0, "marg_hh_3_6_p": 0, "marg_hh_3_6_m": 0, "marg_hh_3_6_f": 0, "per_marg_hh_3_6_p": 0.0, "per_marg_hh_3_6_m": 0.0, "per_marg_hh_3_6_f": 0.0, "marg_ot_3_6_p": 1, "marg_ot_3_6_m": 1, "marg_ot_3_6_f": 0, "per_marg_ot_3_6_p": 25.0, "per_marg_ot_3_6_m": 100.0, "per_marg_ot_3_6_f": 0.0, "margwork_0_3_p": 1, "margwork_0_3_m": 1, "margwork_0_3_f": 0, "per_margwork_0_3_p": 25.0, "per_margwork_0_3_m": 100.0, "per_margwork_0_3_f": 0.0, "marg_cl_0_3_p": 0, "marg_cl_0_3_m": 0, "marg_cl_0_3_f": 0, "per_marg_cl_0_3_p": 0.0, "per_marg_cl_0_3_m": 0.0, "per_marg_cl_0_3_f": 0.0, "marg_al_0_3_p": 0, "marg_al_0_3_m": 0, "marg_al_0_3_f": 0, "per_marg_al_0_3_p": 0.0, "per_marg_al_0_3_m": 0.0, "per_marg_al_0_3_f": 0.0, "marg_hh_0_3_p": 0, "marg_hh_0_3_m": 0, "marg_hh_0_3_f": 0, "per_marg_hh_0_3_p": 0.0, "per_marg_hh_0_3_m": 0.0, "per_marg_hh_0_3_f": 0.0, "marg_ot_0_3_p": 1, "marg_ot_0_3_m": 1, "marg_ot_0_3_f": 0, "per_marg_ot_0_3_p": 25.0, "per_marg_ot_0_3_m": 100.0, "per_marg_ot_0_3_f": 0.0, "non_work_p": 995, "non_work_m": 558, "non_work_f": 437, "per_non_work_p": 54.91169978, "per_non_work_m": 56.08040201, "per_non_work_f": 43.91959799, "per_hc_tot_tot": 100, "per_hc_tot_god": 24.4, "per_hc_tot_liv": 60.6, "per_hc_tot_dil": 15.1, "per_hc_res_tot": 94.2, "per_hc_res_god": 24.1, "per_hc_res_liv": 56.0, "per_hc_res_dil": 14.1, "per_hc_oth_tot": 5.8, "per_hc_oth_god": 0.3, "per_hc_oth_liv": 4.5, "per_hc_oth_dil": 1.0, "per_mt_grsbam": 18.8, "per_mt_plastic": 2.3, "per_mt_h_tiles": 1.8, "per_mt_m_tiles": 0.5, "per_mt_b_brick": 0.5, "per_mt_stone": 51.3, "per_mt_asbstos": 2.0, "per_mt_concrte": 22.4, "per_mt_oth": 0.5, "per_mw_grsbam": 10.6, "per_mw_plastic": 0.0, "per_mw_mud": 16.8, "per_mw_wood": 0.5, "per_mw_no_mrtr": 9.0, "per_mw_st_mrtr": 62.6, "per_mw_asbstos": 0.0, "per_mw_b_brick": 0.0, "per_mw_concrte": 0.0, "per_mw_oth": 0.5, "per_mf_mud": 38.2, "per_mf_wood": 1.5, "per_mf_b_brick": 0.5, "per_mf_stone": 3.5, "per_mf_cement": 55.0, "per_mf_fl_tile": 1.3, "per_mf_oth": 0.0, "per_dw_n_exrm": 14.1, "per_dw_1_room": 52.8, "per_dw_2_room": 26.6, "per_dw_3_room": 3.8, "per_dw_4_room": 1.5, "per_dw_5_room": 0.5, "per_dw_6_room": 0.8, "per_hhsize_1": 4.5, "per_hhsize_2": 15.6, "per_hhsize_3": 11.3, "per_hhsize_4": 18.1, "per_hhsize_5": 16.6, "per_hhsize_6_8": 28.9, "per_hhsize_9p": 5.0, "per_ow_owned": 99.5, "per_ow_rented": 0.5, "per_ow_oth": 0.0, "per_mc_none": 7.8, "per_mcouple_1": 66.8, "per_mcouple_2": 21.6, "per_mcouple_3": 3.0, "per_mcouple_4": 0.8, "per_mcouple_5p": 0.0, "per_dw_t_ts": 0.8, "per_dw_t_unts": 2.8, "per_dw_c_well": 0.5, "per_dw_unc_wel": 0.3, "per_dw_hpump": 68.3, "per_dw_tw_bore": 26.1, "per_dw_spring": 0.0, "per_dw_rivcan": 0.0, "per_dw_tank": 1.3, "per_dw_oth": 0.0, "per_loc_dw_wp": 2.5, "per_loc_dw_np": 44.2, "per_loc_dw_aw": 53.3, "per_light_elec": 43.5, "per_light_kero": 53.5, "per_light_solr": 0.8, "per_light_oil": 1.0, "per_light_oth": 0.3, "per_light_no": 1.0, "per_hh_latrine": 7.0, "per_fl_sewer": 0.5, "per_fl_septict": 3.8, "per_fl_othsys": 2.3, "per_pl_wslab": 0.0, "per_pl_without": 0.0, "per_ns_open": 0.0, "per_sl_ns_hum": 0.0, "per_sl_ns_anml": 0.5, "per_hh_no_lat": 93.0, "per_as_pub": 11.1, "per_as_open": 81.9, "per_hh_bathrm": 1.3, "per_hh_en_wrf": 22.6, "per_hh_no_btrm": 76.1, "per_wwoc_drain": 0.3, "per_wwoc_open": 26.9, "per_wwoc_nodrn": 72.9, "per_cook_fire": 38.4, "per_cook_resdu": 61.1, "per_cook_cwdng": 0.3, "per_cook_coal": 0.0, "per_cook_kero": 0.0, "per_cook_lpng": 0.0, "per_cook_elec": 0.0, "per_cook_biogs": 0.0, "per_cook_oth": 0.0, "per_cook_no": 0.3, "per_kf_inside": 26.1, "per_kf_in_has": 3.8, "per_kf_in_does": 22.4, "per_kf_outside": 73.6, "per_kf_out_has": 37.9, "per_kf_out_dos": 35.7, "per_kf_no_cook": 0.3, "per_hh_banking": 99.5, "per_hh_radio": 7.0, "per_hh_tv": 11.3, "per_hh_cmp_int": 2.0, "per_hh_cmp_wnt": 6.3, "per_hh_ph_ll": 2.0, "per_hh_ph_mob": 74.1, "per_hh_ph_bth": 2.3, "per_hh_bcycl": 14.8, "per_hh_2wheel": 9.5, "per_hh_4wheel": 2.5, "per_hh_tvcomp": 0.3, "per_hh_no_ast": 17.8, "per_hs_perma": 67.6, "per_hs_sperma": 14.3, "per_hs_temp": 17.1, "per_hs_servc": 10.1, "per_hs_nservc": 7.0, "per_hs_unclss": 1.0, "avghhsz_cy": 4.58734177, "st_areashape": 4389508.36921443, "st_lengthshape": 9138.11146049886}, "geometry": {"type": "Polygon", "coordinates": [[[76.62182976869484, 26.85523998993543], [76.61499647656802, 26.857095378578762], [76.60846028425509, 26.862396320422327], [76.60103279250043, 26.857890535368686], [76.59211980347283, 26.843841935852346], [76.59835889597183, 26.842781593680517], [76.60964868261244, 26.84596259120378], [76.62212686850874, 26.849673642274546], [76.61975007179404, 26.853119508404568], [76.62182976869484, 26.85523998993543]]]}}]}