{"type": "FeatureCollection", "features": [{"type": "Feature", "properties": {"premiumdata.sde.IN_Village_PCA.area": 0.64281211, "objectid": 644270, "id": "182952049243968", "name": "Meragharia", "subdistrict": "Bihpuria", "district": "Lakhimpur", "state": "Assam", "country": "India", "censusname": "Meragharia", "villagename_locallang": null, "lgd_villagename": "Meragharia", "lgd_villagecode": 287656, "lgd_subdistrictcode": 2049, "lgd_districtcode": 295, "lgd_statecode": 18, "censuscode2001": "01290000", "censuscode2011": "287656", "censuscode2021": null, "level": "Village", "tru": "Rural", "no_hh": 58, "tot_p": 295, "tot_m": 158, "tot_f": 137, "per_tot_m": 53.55932203, "per_tot_f": 46.44067797, "p_06": 32, "m_06": 17, "f_06": 15, "per_p_06": 10.84745763, "per_m_06": 53.125, "per_f_06": 46.875, "p_sc": 1, "m_sc": 0, "f_sc": 1, "per_p_sc": 0.33898305, "per_m_sc": 0.0, "per_f_sc": 100.0, "p_st": 85, "m_st": 47, "f_st": 38, "per_p_st": 28.81355932, "per_m_st": 55.29411765, "per_f_st": 44.70588235, "p_lit": 244, "m_lit": 139, "f_lit": 105, "per_p_lit": 82.71186441, "per_m_lit": 56.96721311, "per_f_lit": 43.03278689, "p_ill": 51, "m_ill": 19, "f_ill": 32, "per_p_ill": 17.28813559, "per_m_ill": 37.25490196, "per_f_ill": 62.74509804, "tot_work_p": 78, "tot_work_m": 69, "tot_work_f": 9, "per_tot_work_p": 26.44067797, "per_tot_work_m": 88.46153846, "per_tot_work_f": 11.53846154, "mainwork_p": 76, "mainwork_m": 69, "mainwork_f": 7, "per_mainwork_p": 25.76271186, "per_mainwork_m": 90.78947368, "per_mainwork_f": 9.21052632, "main_cl_p": 64, "main_cl_m": 63, "main_cl_f": 1, "per_main_cl_p": 84.21052632, "per_main_cl_m": 98.4375, "per_main_cl_f": 1.5625, "main_al_p": 3, "main_al_m": 0, "main_al_f": 3, "per_main_al_p": 3.94736842, "per_main_al_m": 0.0, "per_main_al_f": 100.0, "main_hh_p": 3, "main_hh_m": 3, "main_hh_f": 0, "per_main_hh_p": 3.94736842, "per_main_hh_m": 100.0, "per_main_hh_f": 0.0, "main_ot_p": 6, "main_ot_m": 3, "main_ot_f": 3, "per_main_ot_p": 7.89473684, "per_main_ot_m": 50.0, "per_main_ot_f": 50.0, "margwork_p": 2, "margwork_m": 0, "margwork_f": 2, "per_margwork_p": 0.6779661, "per_margwork_m": 0.0, "per_margwork_f": 100.0, "marg_cl_p": 0, "marg_cl_m": 0, "marg_cl_f": 0, "per_marg_cl_p": 0.0, "per_marg_cl_m": 0.0, "per_marg_cl_f": 0.0, "marg_al_p": 0, "marg_al_m": 0, "marg_al_f": 0, "per_marg_al_p": 0.0, "per_marg_al_m": 0.0, "per_marg_al_f": 0.0, "marg_hh_p": 0, "marg_hh_m": 0, "marg_hh_f": 0, "per_marg_hh_p": 0.0, "per_marg_hh_m": 0.0, "per_marg_hh_f": 0.0, "marg_ot_p": 2, "marg_ot_m": 0, "marg_ot_f": 2, "per_marg_ot_p": 100.0, "per_marg_ot_m": 0.0, "per_marg_ot_f": 100.0, "margwork_3_6_p": 2, "margwork_3_6_m": 0, "margwork_3_6_f": 2, "per_margwork_3_6_p": 100.0, "per_margwork_3_6_m": 0.0, "per_margwork_3_6_f": 100.0, "marg_cl_3_6_p": 0, "marg_cl_3_6_m": 0, "marg_cl_3_6_f": 0, "per_marg_cl_3_6_p": 0.0, "per_marg_cl_3_6_m": 0.0, "per_marg_cl_3_6_f": 0.0, "marg_al_3_6_p": 0, "marg_al_3_6_m": 0, "marg_al_3_6_f": 0, "per_marg_al_3_6_p": 0.0, "per_marg_al_3_6_m": 0.0, "per_marg_al_3_6_f": 0.0, "marg_hh_3_6_p": 0, "marg_hh_3_6_m": 0, "marg_hh_3_6_f": 0, "per_marg_hh_3_6_p": 0.0, "per_marg_hh_3_6_m": 0.0, "per_marg_hh_3_6_f": 0.0, "marg_ot_3_6_p": 2, "marg_ot_3_6_m": 0, "marg_ot_3_6_f": 2, "per_marg_ot_3_6_p": 100.0, "per_marg_ot_3_6_m": 0.0, "per_marg_ot_3_6_f": 100.0, "margwork_0_3_p": 0, "margwork_0_3_m": 0, "margwork_0_3_f": 0, "per_margwork_0_3_p": 0.0, "per_margwork_0_3_m": 0.0, "per_margwork_0_3_f": 0.0, "marg_cl_0_3_p": 0, "marg_cl_0_3_m": 0, "marg_cl_0_3_f": 0, "per_marg_cl_0_3_p": 0.0, "per_marg_cl_0_3_m": 0.0, "per_marg_cl_0_3_f": 0.0, "marg_al_0_3_p": 0, "marg_al_0_3_m": 0, "marg_al_0_3_f": 0, "per_marg_al_0_3_p": 0.0, "per_marg_al_0_3_m": 0.0, "per_marg_al_0_3_f": 0.0, "marg_hh_0_3_p": 0, "marg_hh_0_3_m": 0, "marg_hh_0_3_f": 0, "per_marg_hh_0_3_p": 0.0, "per_marg_hh_0_3_m": 0.0, "per_marg_hh_0_3_f": 0.0, "marg_ot_0_3_p": 0, "marg_ot_0_3_m": 0, "marg_ot_0_3_f": 0, "per_marg_ot_0_3_p": 0.0, "per_marg_ot_0_3_m": 0.0, "per_marg_ot_0_3_f": 0.0, "non_work_p": 217, "non_work_m": 89, "non_work_f": 128, "per_non_work_p": 73.55932203, "per_non_work_m": 41.01382488, "per_non_work_f": 58.98617512, "per_hc_tot_tot": 100, "per_hc_tot_god": 5.2, "per_hc_tot_liv": 89.7, "per_hc_tot_dil": 5.2, "per_hc_res_tot": 93.1, "per_hc_res_god": 5.2, "per_hc_res_liv": 82.8, "per_hc_res_dil": 5.2, "per_hc_oth_tot": 6.9, "per_hc_oth_god": 0.0, "per_hc_oth_liv": 6.9, "per_hc_oth_dil": 0.0, "per_mt_grsbam": 10.3, "per_mt_plastic": 0.0, "per_mt_h_tiles": 0.0, "per_mt_m_tiles": 0.0, "per_mt_b_brick": 0.0, "per_mt_stone": 0.0, "per_mt_asbstos": 89.7, "per_mt_concrte": 0.0, "per_mt_oth": 0.0, "per_mw_grsbam": 84.5, "per_mw_plastic": 0.0, "per_mw_mud": 1.7, "per_mw_wood": 0.0, "per_mw_no_mrtr": 1.7, "per_mw_st_mrtr": 0.0, "per_mw_asbstos": 0.0, "per_mw_b_brick": 12.1, "per_mw_concrte": 0.0, "per_mw_oth": 0.0, "per_mf_mud": 84.5, "per_mf_wood": 0.0, "per_mf_b_brick": 0.0, "per_mf_stone": 0.0, "per_mf_cement": 3.4, "per_mf_fl_tile": 0.0, "per_mf_oth": 12.1, "per_dw_n_exrm": 0.0, "per_dw_1_room": 1.7, "per_dw_2_room": 32.8, "per_dw_3_room": 29.3, "per_dw_4_room": 17.2, "per_dw_5_room": 3.4, "per_dw_6_room": 15.5, "per_hhsize_1": 0.0, "per_hhsize_2": 5.2, "per_hhsize_3": 19.0, "per_hhsize_4": 24.1, "per_hhsize_5": 20.7, "per_hhsize_6_8": 25.9, "per_hhsize_9p": 5.2, "per_ow_owned": 100.0, "per_ow_rented": 0.0, "per_ow_oth": 0.0, "per_mc_none": 0.0, "per_mcouple_1": 77.6, "per_mcouple_2": 19.0, "per_mcouple_3": 0.0, "per_mcouple_4": 3.4, "per_mcouple_5p": 0.0, "per_dw_t_ts": 1.7, "per_dw_t_unts": 0.0, "per_dw_c_well": 0.0, "per_dw_unc_wel": 74.1, "per_dw_hpump": 0.0, "per_dw_tw_bore": 22.4, "per_dw_spring": 0.0, "per_dw_rivcan": 1.7, "per_dw_tank": 0.0, "per_dw_oth": 0.0, "per_loc_dw_wp": 51.7, "per_loc_dw_np": 15.5, "per_loc_dw_aw": 32.8, "per_light_elec": 31.0, "per_light_kero": 69.0, "per_light_solr": 0.0, "per_light_oil": 0.0, "per_light_oth": 0.0, "per_light_no": 0.0, "per_hh_latrine": 100.0, "per_fl_sewer": 0.0, "per_fl_septict": 5.2, "per_fl_othsys": 75.9, "per_pl_wslab": 19.0, "per_pl_without": 0.0, "per_ns_open": 0.0, "per_sl_ns_hum": 0.0, "per_sl_ns_anml": 0.0, "per_hh_no_lat": 0.0, "per_as_pub": 0.0, "per_as_open": 0.0, "per_hh_bathrm": 8.6, "per_hh_en_wrf": 8.6, "per_hh_no_btrm": 82.8, "per_wwoc_drain": 0.0, "per_wwoc_open": 0.0, "per_wwoc_nodrn": 100.0, "per_cook_fire": 94.8, "per_cook_resdu": 0.0, "per_cook_cwdng": 0.0, "per_cook_coal": 0.0, "per_cook_kero": 0.0, "per_cook_lpng": 5.2, "per_cook_elec": 0.0, "per_cook_biogs": 0.0, "per_cook_oth": 0.0, "per_cook_no": 0.0, "per_kf_inside": 100.0, "per_kf_in_has": 86.2, "per_kf_in_does": 13.8, "per_kf_outside": 0.0, "per_kf_out_has": 0.0, "per_kf_out_dos": 0.0, "per_kf_no_cook": 0.0, "per_hh_banking": 87.9, "per_hh_radio": 36.2, "per_hh_tv": 13.8, "per_hh_cmp_int": 0.0, "per_hh_cmp_wnt": 12.1, "per_hh_ph_ll": 1.7, "per_hh_ph_mob": 62.1, "per_hh_ph_bth": 5.2, "per_hh_bcycl": 81.0, "per_hh_2wheel": 5.2, "per_hh_4wheel": 3.4, "per_hh_tvcomp": 3.4, "per_hh_no_ast": 5.2, "per_hs_perma": 13.8, "per_hs_sperma": 75.9, "per_hs_temp": 10.3, "per_hs_servc": 0.0, "per_hs_nservc": 10.3, "per_hs_unclss": 0.0, "avghhsz_cy": 5.0862069, "st_areashape": 814106.622853045, "st_lengthshape": 3972.529209905435}, "geometry": {"type": "Polygon", "coordinates": [[[93.93591511138904, 27.080681574359197], [93.93677075759548, 27.081443411159146], [93.93990813001349, 27.083305656909342], [93.94218985622504, 27.08559109824665], [93.94171449652276, 27.08618361255364], [93.9308763010603, 27.08609896750173], [93.9276992797006, 27.086279514582756], [93.9291650068508, 27.082797774992283], [93.93097137246176, 27.080342978741097], [93.93591511138904, 27.080681574359197]]]}}]}