{"type": "FeatureCollection", "features": [{"type": "Feature", "properties": {"premiumdata.sde.IN_Village_PCA.area": 2.61151956, "objectid": 344894, "id": "9156843396795", "name": "Ghaghoo", "subdistrict": "Rasulabad", "district": "Kanpur Dehat", "state": "Uttar Pradesh", "country": "India", "censusname": "Ghaghoo", "villagename_locallang": null, "lgd_villagename": "Ghaghoo", "lgd_villagecode": 148970, "lgd_subdistrictcode": 843, "lgd_districtcode": 156, "lgd_statecode": 9, "censuscode2001": "04185800", "censuscode2011": "148970", "censuscode2021": null, "level": "Village", "tru": "Rural", "no_hh": 137, "tot_p": 790, "tot_m": 429, "tot_f": 361, "per_tot_m": 54.30379747, "per_tot_f": 45.69620253, "p_06": 122, "m_06": 63, "f_06": 59, "per_p_06": 15.44303797, "per_m_06": 51.63934426, "per_f_06": 48.36065574, "p_sc": 119, "m_sc": 66, "f_sc": 53, "per_p_sc": 15.06329114, "per_m_sc": 55.46218487, "per_f_sc": 44.53781513, "p_st": 0, "m_st": 0, "f_st": 0, "per_p_st": 0.0, "per_m_st": 0.0, "per_f_st": 0.0, "p_lit": 574, "m_lit": 327, "f_lit": 247, "per_p_lit": 72.65822784999999, "per_m_lit": 56.96864111, "per_f_lit": 43.03135889, "p_ill": 216, "m_ill": 102, "f_ill": 114, "per_p_ill": 27.34177215, "per_m_ill": 47.22222222, "per_f_ill": 52.77777778, "tot_work_p": 472, "tot_work_m": 292, "tot_work_f": 180, "per_tot_work_p": 59.74683544, "per_tot_work_m": 61.86440678, "per_tot_work_f": 38.13559322, "mainwork_p": 235, "mainwork_m": 234, "mainwork_f": 1, "per_mainwork_p": 29.74683544, "per_mainwork_m": 99.57446809, "per_mainwork_f": 0.42553191, "main_cl_p": 218, "main_cl_m": 217, "main_cl_f": 1, "per_main_cl_p": 92.76595745, "per_main_cl_m": 99.5412844, "per_main_cl_f": 0.4587156, "main_al_p": 17, "main_al_m": 17, "main_al_f": 0, "per_main_al_p": 7.23404255, "per_main_al_m": 100.0, "per_main_al_f": 0.0, "main_hh_p": 0, "main_hh_m": 0, "main_hh_f": 0, "per_main_hh_p": 0.0, "per_main_hh_m": 0.0, "per_main_hh_f": 0.0, "main_ot_p": 0, "main_ot_m": 0, "main_ot_f": 0, "per_main_ot_p": 0.0, "per_main_ot_m": 0.0, "per_main_ot_f": 0.0, "margwork_p": 237, "margwork_m": 58, "margwork_f": 179, "per_margwork_p": 30.0, "per_margwork_m": 24.47257384, "per_margwork_f": 75.52742616, "marg_cl_p": 235, "marg_cl_m": 58, "marg_cl_f": 177, "per_marg_cl_p": 99.15611814, "per_marg_cl_m": 24.68085106, "per_marg_cl_f": 75.31914894, "marg_al_p": 0, "marg_al_m": 0, "marg_al_f": 0, "per_marg_al_p": 0.0, "per_marg_al_m": 0.0, "per_marg_al_f": 0.0, "marg_hh_p": 2, "marg_hh_m": 0, "marg_hh_f": 2, "per_marg_hh_p": 0.84388186, "per_marg_hh_m": 0.0, "per_marg_hh_f": 100.0, "marg_ot_p": 0, "marg_ot_m": 0, "marg_ot_f": 0, "per_marg_ot_p": 0.0, "per_marg_ot_m": 0.0, "per_marg_ot_f": 0.0, "margwork_3_6_p": 85, "margwork_3_6_m": 20, "margwork_3_6_f": 65, "per_margwork_3_6_p": 35.8649789, "per_margwork_3_6_m": 23.52941176, "per_margwork_3_6_f": 76.47058824, "marg_cl_3_6_p": 85, "marg_cl_3_6_m": 20, "marg_cl_3_6_f": 65, "per_marg_cl_3_6_p": 35.8649789, "per_marg_cl_3_6_m": 23.52941176, "per_marg_cl_3_6_f": 76.47058824, "marg_al_3_6_p": 0, "marg_al_3_6_m": 0, "marg_al_3_6_f": 0, "per_marg_al_3_6_p": 0.0, "per_marg_al_3_6_m": 0.0, "per_marg_al_3_6_f": 0.0, "marg_hh_3_6_p": 0, "marg_hh_3_6_m": 0, "marg_hh_3_6_f": 0, "per_marg_hh_3_6_p": 0.0, "per_marg_hh_3_6_m": 0.0, "per_marg_hh_3_6_f": 0.0, "marg_ot_3_6_p": 0, "marg_ot_3_6_m": 0, "marg_ot_3_6_f": 0, "per_marg_ot_3_6_p": 0.0, "per_marg_ot_3_6_m": 0.0, "per_marg_ot_3_6_f": 0.0, "margwork_0_3_p": 152, "margwork_0_3_m": 38, "margwork_0_3_f": 114, "per_margwork_0_3_p": 64.1350211, "per_margwork_0_3_m": 25.0, "per_margwork_0_3_f": 75.0, "marg_cl_0_3_p": 150, "marg_cl_0_3_m": 38, "marg_cl_0_3_f": 112, "per_marg_cl_0_3_p": 63.29113924, "per_marg_cl_0_3_m": 25.33333333, "per_marg_cl_0_3_f": 74.66666667, "marg_al_0_3_p": 0, "marg_al_0_3_m": 0, "marg_al_0_3_f": 0, "per_marg_al_0_3_p": 0.0, "per_marg_al_0_3_m": 0.0, "per_marg_al_0_3_f": 0.0, "marg_hh_0_3_p": 2, "marg_hh_0_3_m": 0, "marg_hh_0_3_f": 2, "per_marg_hh_0_3_p": 0.84388186, "per_marg_hh_0_3_m": 0.0, "per_marg_hh_0_3_f": 100.0, "marg_ot_0_3_p": 0, "marg_ot_0_3_m": 0, "marg_ot_0_3_f": 0, "per_marg_ot_0_3_p": 0.0, "per_marg_ot_0_3_m": 0.0, "per_marg_ot_0_3_f": 0.0, "non_work_p": 318, "non_work_m": 137, "non_work_f": 181, "per_non_work_p": 40.25316456, "per_non_work_m": 43.08176101, "per_non_work_f": 56.91823899, "per_hc_tot_tot": 100, "per_hc_tot_god": 42.2, "per_hc_tot_liv": 57.8, "per_hc_tot_dil": 0.0, "per_hc_res_tot": 100.0, "per_hc_res_god": 42.2, "per_hc_res_liv": 57.8, "per_hc_res_dil": 0.0, "per_hc_oth_tot": 0.0, "per_hc_oth_god": 0.0, "per_hc_oth_liv": 0.0, "per_hc_oth_dil": 0.0, "per_mt_grsbam": 48.9, "per_mt_plastic": 0.7, "per_mt_h_tiles": 8.9, "per_mt_m_tiles": 0.0, "per_mt_b_brick": 2.2, "per_mt_stone": 0.7, "per_mt_asbstos": 0.0, "per_mt_concrte": 37.8, "per_mt_oth": 0.7, "per_mw_grsbam": 58.5, "per_mw_plastic": 0.0, "per_mw_mud": 0.7, "per_mw_wood": 0.0, "per_mw_no_mrtr": 0.0, "per_mw_st_mrtr": 0.0, "per_mw_asbstos": 0.0, "per_mw_b_brick": 40.7, "per_mw_concrte": 0.0, "per_mw_oth": 0.0, "per_mf_mud": 99.3, "per_mf_wood": 0.0, "per_mf_b_brick": 0.7, "per_mf_stone": 0.0, "per_mf_cement": 0.0, "per_mf_fl_tile": 0.0, "per_mf_oth": 0.0, "per_dw_n_exrm": 0.0, "per_dw_1_room": 4.4, "per_dw_2_room": 69.6, "per_dw_3_room": 17.0, "per_dw_4_room": 8.9, "per_dw_5_room": 0.0, "per_dw_6_room": 0.0, "per_hhsize_1": 5.9, "per_hhsize_2": 4.4, "per_hhsize_3": 6.7, "per_hhsize_4": 13.3, "per_hhsize_5": 23.0, "per_hhsize_6_8": 34.1, "per_hhsize_9p": 12.6, "per_ow_owned": 100.0, "per_ow_rented": 0.0, "per_ow_oth": 0.0, "per_mc_none": 8.9, "per_mcouple_1": 68.1, "per_mcouple_2": 14.1, "per_mcouple_3": 6.7, "per_mcouple_4": 1.5, "per_mcouple_5p": 0.7, "per_dw_t_ts": 0.0, "per_dw_t_unts": 0.0, "per_dw_c_well": 0.0, "per_dw_unc_wel": 0.0, "per_dw_hpump": 100.0, "per_dw_tw_bore": 0.0, "per_dw_spring": 0.0, "per_dw_rivcan": 0.0, "per_dw_tank": 0.0, "per_dw_oth": 0.0, "per_loc_dw_wp": 0.0, "per_loc_dw_np": 100.0, "per_loc_dw_aw": 0.0, "per_light_elec": 0.0, "per_light_kero": 100.0, "per_light_solr": 0.0, "per_light_oil": 0.0, "per_light_oth": 0.0, "per_light_no": 0.0, "per_hh_latrine": 3.7, "per_fl_sewer": 0.0, "per_fl_septict": 0.0, "per_fl_othsys": 3.7, "per_pl_wslab": 0.0, "per_pl_without": 0.0, "per_ns_open": 0.0, "per_sl_ns_hum": 0.0, "per_sl_ns_anml": 0.0, "per_hh_no_lat": 96.3, "per_as_pub": 0.0, "per_as_open": 96.3, "per_hh_bathrm": 0.0, "per_hh_en_wrf": 100.0, "per_hh_no_btrm": 0.0, "per_wwoc_drain": 0.0, "per_wwoc_open": 100.0, "per_wwoc_nodrn": 0.0, "per_cook_fire": 75.6, "per_cook_resdu": 11.9, "per_cook_cwdng": 12.6, "per_cook_coal": 0.0, "per_cook_kero": 0.0, "per_cook_lpng": 0.0, "per_cook_elec": 0.0, "per_cook_biogs": 0.0, "per_cook_oth": 0.0, "per_cook_no": 0.0, "per_kf_inside": 100.0, "per_kf_in_has": 0.0, "per_kf_in_does": 100.0, "per_kf_outside": 0.0, "per_kf_out_has": 0.0, "per_kf_out_dos": 0.0, "per_kf_no_cook": 0.0, "per_hh_banking": 65.9, "per_hh_radio": 19.3, "per_hh_tv": 0.7, "per_hh_cmp_int": 0.7, "per_hh_cmp_wnt": 0.0, "per_hh_ph_ll": 5.9, "per_hh_ph_mob": 42.2, "per_hh_ph_bth": 0.0, "per_hh_bcycl": 93.3, "per_hh_2wheel": 25.9, "per_hh_4wheel": 0.0, "per_hh_tvcomp": 0.0, "per_hh_no_ast": 1.5, "per_hs_perma": 40.0, "per_hs_sperma": 9.6, "per_hs_temp": 49.6, "per_hs_servc": 0.0, "per_hs_nservc": 49.6, "per_hs_unclss": 0.7, "avghhsz_cy": 5.76642336, "st_areashape": 3290548.885438595, "st_lengthshape": 7872.669232091965}, "geometry": {"type": "Polygon", "coordinates": [[[79.93227996994807, 26.789021328194195], [79.93104478733073, 26.789731443858496], [79.92828903631342, 26.792146717057374], [79.92493092627053, 26.79558516216353], [79.92559522323663, 26.79655209216122], [79.92379011077549, 26.797290368719906], [79.92259003521777, 26.79784322103217], [79.9230644238412, 26.798753248210605], [79.92236757731911, 26.799264609190303], [79.9199605361254, 26.800315299780813], [79.91821837580272, 26.801479935965954], [79.918502683607, 26.802418281033752], [79.91714066605805, 26.80312830322317], [79.9166974381952, 26.80301434073212], [79.91568407477432, 26.803212739290142], [79.91470205986194, 26.80386613127034], [79.91372881430331, 26.80410386037279], [79.91362248431642, 26.8025285117187], [79.91358022666712, 26.80190242569427], [79.91316899320142, 26.8013065493803], [79.91253607079493, 26.800851392195348], [79.91240971915698, 26.800453241818232], [79.91272692775851, 26.79951531588529], [79.91272731942398, 26.798946698907304], [79.9125703693708, 26.797013398303694], [79.91241285607394, 26.795904567699864], [79.91441073891022, 26.791273996719767], [79.91595565704426, 26.787667120093747], [79.91821361473174, 26.78501493082343], [79.92284836913389, 26.783317498255848], [79.93122609699948, 26.784062098384474], [79.9317315529587, 26.786080786205304], [79.93227996994807, 26.789021328194195]]]}}]}