{"type": "FeatureCollection", "features": [{"type": "Feature", "properties": {"premiumdata.sde.IN_Village_PCA.area": 2.51944074, "objectid": 399188, "id": "11472466287", "name": "Megain", "subdistrict": "Udhampur", "district": "Udhampur", "state": "Jammu And Kashmir", "country": "India", "censusname": "Meghan", "villagename_locallang": null, "lgd_villagename": "Megain", "lgd_villagecode": 4901, "lgd_subdistrictcode": 72, "lgd_districtcode": 14, "lgd_statecode": 1, "censuscode2001": "00412200", "censuscode2011": "004901", "censuscode2021": null, "level": "Village", "tru": "Rural", "no_hh": 193, "tot_p": 1071, "tot_m": 571, "tot_f": 500, "per_tot_m": 53.3146592, "per_tot_f": 46.6853408, "p_06": 164, "m_06": 93, "f_06": 71, "per_p_06": 15.31279178, "per_m_06": 56.70731707, "per_f_06": 43.29268293, "p_sc": 657, "m_sc": 354, "f_sc": 303, "per_p_sc": 61.34453782, "per_m_sc": 53.88127854, "per_f_sc": 46.11872146, "p_st": 191, "m_st": 98, "f_st": 93, "per_p_st": 17.83380019, "per_m_st": 51.30890052, "per_f_st": 48.69109948000001, "p_lit": 574, "m_lit": 346, "f_lit": 228, "per_p_lit": 53.59477124, "per_m_lit": 60.27874564, "per_f_lit": 39.72125436, "p_ill": 497, "m_ill": 225, "f_ill": 272, "per_p_ill": 46.40522876, "per_m_ill": 45.27162978, "per_f_ill": 54.72837022, "tot_work_p": 361, "tot_work_m": 289, "tot_work_f": 72, "per_tot_work_p": 33.70681606, "per_tot_work_m": 80.05540166, "per_tot_work_f": 19.94459834, "mainwork_p": 266, "mainwork_m": 241, "mainwork_f": 25, "per_mainwork_p": 24.83660131, "per_mainwork_m": 90.60150376, "per_mainwork_f": 9.39849624, "main_cl_p": 1, "main_cl_m": 0, "main_cl_f": 1, "per_main_cl_p": 0.37593985, "per_main_cl_m": 0.0, "per_main_cl_f": 100.0, "main_al_p": 1, "main_al_m": 0, "main_al_f": 1, "per_main_al_p": 0.37593985, "per_main_al_m": 0.0, "per_main_al_f": 100.0, "main_hh_p": 1, "main_hh_m": 1, "main_hh_f": 0, "per_main_hh_p": 0.37593985, "per_main_hh_m": 100.0, "per_main_hh_f": 0.0, "main_ot_p": 263, "main_ot_m": 240, "main_ot_f": 23, "per_main_ot_p": 98.87218045, "per_main_ot_m": 91.25475285, "per_main_ot_f": 8.74524715, "margwork_p": 95, "margwork_m": 48, "margwork_f": 47, "per_margwork_p": 8.87021475, "per_margwork_m": 50.52631579, "per_margwork_f": 49.47368421, "marg_cl_p": 26, "marg_cl_m": 11, "marg_cl_f": 15, "per_marg_cl_p": 27.36842105, "per_marg_cl_m": 42.30769231, "per_marg_cl_f": 57.69230769, "marg_al_p": 3, "marg_al_m": 2, "marg_al_f": 1, "per_marg_al_p": 3.15789474, "per_marg_al_m": 66.66666667, "per_marg_al_f": 33.33333333, "marg_hh_p": 3, "marg_hh_m": 2, "marg_hh_f": 1, "per_marg_hh_p": 3.15789474, "per_marg_hh_m": 66.66666667, "per_marg_hh_f": 33.33333333, "marg_ot_p": 63, "marg_ot_m": 33, "marg_ot_f": 30, "per_marg_ot_p": 66.31578947000001, "per_marg_ot_m": 52.38095238, "per_marg_ot_f": 47.61904762, "margwork_3_6_p": 93, "margwork_3_6_m": 47, "margwork_3_6_f": 46, "per_margwork_3_6_p": 97.89473684000001, "per_margwork_3_6_m": 50.53763441, "per_margwork_3_6_f": 49.46236559, "marg_cl_3_6_p": 26, "marg_cl_3_6_m": 11, "marg_cl_3_6_f": 15, "per_marg_cl_3_6_p": 27.36842105, "per_marg_cl_3_6_m": 42.30769231, "per_marg_cl_3_6_f": 57.69230769, "marg_al_3_6_p": 2, "marg_al_3_6_m": 2, "marg_al_3_6_f": 0, "per_marg_al_3_6_p": 2.10526316, "per_marg_al_3_6_m": 100.0, "per_marg_al_3_6_f": 0.0, "marg_hh_3_6_p": 3, "marg_hh_3_6_m": 2, "marg_hh_3_6_f": 1, "per_marg_hh_3_6_p": 3.15789474, "per_marg_hh_3_6_m": 66.66666667, "per_marg_hh_3_6_f": 33.33333333, "marg_ot_3_6_p": 62, "marg_ot_3_6_m": 32, "marg_ot_3_6_f": 30, "per_marg_ot_3_6_p": 65.26315788999999, "per_marg_ot_3_6_m": 51.61290323, "per_marg_ot_3_6_f": 48.38709677, "margwork_0_3_p": 2, "margwork_0_3_m": 1, "margwork_0_3_f": 1, "per_margwork_0_3_p": 2.10526316, "per_margwork_0_3_m": 50.0, "per_margwork_0_3_f": 50.0, "marg_cl_0_3_p": 0, "marg_cl_0_3_m": 0, "marg_cl_0_3_f": 0, "per_marg_cl_0_3_p": 0.0, "per_marg_cl_0_3_m": 0.0, "per_marg_cl_0_3_f": 0.0, "marg_al_0_3_p": 1, "marg_al_0_3_m": 0, "marg_al_0_3_f": 1, "per_marg_al_0_3_p": 1.05263158, "per_marg_al_0_3_m": 0.0, "per_marg_al_0_3_f": 100.0, "marg_hh_0_3_p": 0, "marg_hh_0_3_m": 0, "marg_hh_0_3_f": 0, "per_marg_hh_0_3_p": 0.0, "per_marg_hh_0_3_m": 0.0, "per_marg_hh_0_3_f": 0.0, "marg_ot_0_3_p": 1, "marg_ot_0_3_m": 1, "marg_ot_0_3_f": 0, "per_marg_ot_0_3_p": 1.05263158, "per_marg_ot_0_3_m": 100.0, "per_marg_ot_0_3_f": 0.0, "non_work_p": 710, "non_work_m": 282, "non_work_f": 428, "per_non_work_p": 66.29318394, "per_non_work_m": 39.71830986, "per_non_work_f": 60.28169014, "per_hc_tot_tot": 100, "per_hc_tot_god": 64.0, "per_hc_tot_liv": 34.9, "per_hc_tot_dil": 1.1, "per_hc_res_tot": 97.9, "per_hc_res_god": 62.4, "per_hc_res_liv": 34.4, "per_hc_res_dil": 1.1, "per_hc_oth_tot": 2.1, "per_hc_oth_god": 1.6, "per_hc_oth_liv": 0.5, "per_hc_oth_dil": 0.0, "per_mt_grsbam": 24.3, "per_mt_plastic": 0.0, "per_mt_h_tiles": 0.0, "per_mt_m_tiles": 0.0, "per_mt_b_brick": 0.0, "per_mt_stone": 0.0, "per_mt_asbstos": 43.4, "per_mt_concrte": 32.3, "per_mt_oth": 0.0, "per_mw_grsbam": 2.1, "per_mw_plastic": 0.0, "per_mw_mud": 59.8, "per_mw_wood": 0.0, "per_mw_no_mrtr": 0.5, "per_mw_st_mrtr": 0.5, "per_mw_asbstos": 0.0, "per_mw_b_brick": 36.5, "per_mw_concrte": 0.5, "per_mw_oth": 0.0, "per_mf_mud": 65.6, "per_mf_wood": 0.0, "per_mf_b_brick": 0.0, "per_mf_stone": 0.0, "per_mf_cement": 32.3, "per_mf_fl_tile": 2.1, "per_mf_oth": 0.0, "per_dw_n_exrm": 0.5, "per_dw_1_room": 31.7, "per_dw_2_room": 28.0, "per_dw_3_room": 20.1, "per_dw_4_room": 13.8, "per_dw_5_room": 3.2, "per_dw_6_room": 2.6, "per_hhsize_1": 2.6, "per_hhsize_2": 6.9, "per_hhsize_3": 9.5, "per_hhsize_4": 13.8, "per_hhsize_5": 22.2, "per_hhsize_6_8": 36.5, "per_hhsize_9p": 8.5, "per_ow_owned": 95.8, "per_ow_rented": 1.1, "per_ow_oth": 3.2, "per_mc_none": 14.8, "per_mcouple_1": 65.1, "per_mcouple_2": 16.4, "per_mcouple_3": 3.2, "per_mcouple_4": 0.5, "per_mcouple_5p": 0.0, "per_dw_t_ts": 1.1, "per_dw_t_unts": 0.0, "per_dw_c_well": 0.5, "per_dw_unc_wel": 2.1, "per_dw_hpump": 74.1, "per_dw_tw_bore": 0.0, "per_dw_spring": 5.3, "per_dw_rivcan": 0.0, "per_dw_tank": 0.0, "per_dw_oth": 16.9, "per_loc_dw_wp": 0.0, "per_loc_dw_np": 12.7, "per_loc_dw_aw": 87.3, "per_light_elec": 98.4, "per_light_kero": 1.1, "per_light_solr": 0.0, "per_light_oil": 0.0, "per_light_oth": 0.0, "per_light_no": 0.5, "per_hh_latrine": 6.9, "per_fl_sewer": 0.0, "per_fl_septict": 6.9, "per_fl_othsys": 0.0, "per_pl_wslab": 0.0, "per_pl_without": 0.0, "per_ns_open": 0.0, "per_sl_ns_hum": 0.0, "per_sl_ns_anml": 0.0, "per_hh_no_lat": 93.1, "per_as_pub": 0.0, "per_as_open": 93.1, "per_hh_bathrm": 5.8, "per_hh_en_wrf": 2.1, "per_hh_no_btrm": 92.1, "per_wwoc_drain": 5.3, "per_wwoc_open": 0.5, "per_wwoc_nodrn": 94.2, "per_cook_fire": 76.7, "per_cook_resdu": 0.0, "per_cook_cwdng": 0.0, "per_cook_coal": 0.0, "per_cook_kero": 0.0, "per_cook_lpng": 23.3, "per_cook_elec": 0.0, "per_cook_biogs": 0.0, "per_cook_oth": 0.0, "per_cook_no": 0.0, "per_kf_inside": 48.7, "per_kf_in_has": 37.6, "per_kf_in_does": 11.1, "per_kf_outside": 51.3, "per_kf_out_has": 39.7, "per_kf_out_dos": 11.6, "per_kf_no_cook": 0.0, "per_hh_banking": 52.9, "per_hh_radio": 12.2, "per_hh_tv": 51.3, "per_hh_cmp_int": 0.0, "per_hh_cmp_wnt": 1.6, "per_hh_ph_ll": 0.5, "per_hh_ph_mob": 67.7, "per_hh_ph_bth": 2.6, "per_hh_bcycl": 4.2, "per_hh_2wheel": 11.6, "per_hh_4wheel": 3.2, "per_hh_tvcomp": 0.5, "per_hh_no_ast": 21.2, "per_hs_perma": 38.1, "per_hs_sperma": 37.6, "per_hs_temp": 24.3, "per_hs_servc": 24.3, "per_hs_nservc": 0.0, "per_hs_unclss": 0.0, "avghhsz_cy": 5.5492228, "st_areashape": 3584561.61526387, "st_lengthshape": 7668.6429638183745}, "geometry": {"type": "Polygon", "coordinates": [[[75.0909750478763, 32.9166425441579], [75.08962027344347, 32.91855794525184], [75.0875524603556, 32.919755050545255], [75.08648290102549, 32.920652868134795], [75.08527073414405, 32.91969519506189], [75.0829890088308, 32.919216355016275], [75.07374418123891, 32.913306608827305], [75.07443253868155, 32.910417204523746], [75.07371950002648, 32.906466280506464], [75.07301633565301, 32.90530462080613], [75.07606700717136, 32.90146266099071], [75.07899599020634, 32.90137771041517], [75.08698202835355, 32.90024022527958], [75.08705333212923, 32.9010783734793], [75.08683942080219, 32.904071695800475], [75.08798028390795, 32.906107096853404], [75.08937782623312, 32.91270679892977], [75.08969157721916, 32.9141883762347], [75.0909750478763, 32.9166425441579]]]}}]}