{"type": "FeatureCollection", "features": [{"type": "Feature", "properties": {"premiumdata.sde.IN_Village_PCA.area": 0.02188209, "objectid": 653086, "id": "122291680167484", "name": "Old Plone", "subdistrict": "Miao ADC", "district": "Changlang", "state": "Arunachal Pradesh", "country": "India", "censusname": "Old Plone", "villagename_locallang": null, "lgd_villagename": "Old Plone", "lgd_villagecode": 264265, "lgd_subdistrictcode": 1680, "lgd_districtcode": 229, "lgd_statecode": 12, "censuscode2001": "00376800", "censuscode2011": "264265", "censuscode2021": null, "level": "Village", "tru": "Rural", "no_hh": 72, "tot_p": 363, "tot_m": 192, "tot_f": 171, "per_tot_m": 52.89256198, "per_tot_f": 47.10743802, "p_06": 73, "m_06": 35, "f_06": 38, "per_p_06": 20.11019284, "per_m_06": 47.94520548, "per_f_06": 52.05479452, "p_sc": 0, "m_sc": 0, "f_sc": 0, "per_p_sc": 0.0, "per_m_sc": 0.0, "per_f_sc": 0.0, "p_st": 274, "m_st": 146, "f_st": 128, "per_p_st": 75.48209366, "per_m_st": 53.28467153, "per_f_st": 46.71532847, "p_lit": 175, "m_lit": 111, "f_lit": 64, "per_p_lit": 48.20936639, "per_m_lit": 63.42857143, "per_f_lit": 36.57142857, "p_ill": 188, "m_ill": 81, "f_ill": 107, "per_p_ill": 51.79063361, "per_m_ill": 43.08510638, "per_f_ill": 56.91489362, "tot_work_p": 189, "tot_work_m": 95, "tot_work_f": 94, "per_tot_work_p": 52.0661157, "per_tot_work_m": 50.26455026, "per_tot_work_f": 49.73544974, "mainwork_p": 189, "mainwork_m": 95, "mainwork_f": 94, "per_mainwork_p": 52.0661157, "per_mainwork_m": 50.26455026, "per_mainwork_f": 49.73544974, "main_cl_p": 144, "main_cl_m": 71, "main_cl_f": 73, "per_main_cl_p": 76.19047619, "per_main_cl_m": 49.30555556, "per_main_cl_f": 50.69444444000001, "main_al_p": 38, "main_al_m": 20, "main_al_f": 18, "per_main_al_p": 20.10582011, "per_main_al_m": 52.63157895000001, "per_main_al_f": 47.36842105, "main_hh_p": 0, "main_hh_m": 0, "main_hh_f": 0, "per_main_hh_p": 0.0, "per_main_hh_m": 0.0, "per_main_hh_f": 0.0, "main_ot_p": 7, "main_ot_m": 4, "main_ot_f": 3, "per_main_ot_p": 3.7037037, "per_main_ot_m": 57.14285714, "per_main_ot_f": 42.85714286, "margwork_p": 0, "margwork_m": 0, "margwork_f": 0, "per_margwork_p": 0.0, "per_margwork_m": 0.0, "per_margwork_f": 0.0, "marg_cl_p": 0, "marg_cl_m": 0, "marg_cl_f": 0, "per_marg_cl_p": 0.0, "per_marg_cl_m": 0.0, "per_marg_cl_f": 0.0, "marg_al_p": 0, "marg_al_m": 0, "marg_al_f": 0, "per_marg_al_p": 0.0, "per_marg_al_m": 0.0, "per_marg_al_f": 0.0, "marg_hh_p": 0, "marg_hh_m": 0, "marg_hh_f": 0, "per_marg_hh_p": 0.0, "per_marg_hh_m": 0.0, "per_marg_hh_f": 0.0, "marg_ot_p": 0, "marg_ot_m": 0, "marg_ot_f": 0, "per_marg_ot_p": 0.0, "per_marg_ot_m": 0.0, "per_marg_ot_f": 0.0, "margwork_3_6_p": 0, "margwork_3_6_m": 0, "margwork_3_6_f": 0, "per_margwork_3_6_p": 0.0, "per_margwork_3_6_m": 0.0, "per_margwork_3_6_f": 0.0, "marg_cl_3_6_p": 0, "marg_cl_3_6_m": 0, "marg_cl_3_6_f": 0, "per_marg_cl_3_6_p": 0.0, "per_marg_cl_3_6_m": 0.0, "per_marg_cl_3_6_f": 0.0, "marg_al_3_6_p": 0, "marg_al_3_6_m": 0, "marg_al_3_6_f": 0, "per_marg_al_3_6_p": 0.0, "per_marg_al_3_6_m": 0.0, "per_marg_al_3_6_f": 0.0, "marg_hh_3_6_p": 0, "marg_hh_3_6_m": 0, "marg_hh_3_6_f": 0, "per_marg_hh_3_6_p": 0.0, "per_marg_hh_3_6_m": 0.0, "per_marg_hh_3_6_f": 0.0, "marg_ot_3_6_p": 0, "marg_ot_3_6_m": 0, "marg_ot_3_6_f": 0, "per_marg_ot_3_6_p": 0.0, "per_marg_ot_3_6_m": 0.0, "per_marg_ot_3_6_f": 0.0, "margwork_0_3_p": 0, "margwork_0_3_m": 0, "margwork_0_3_f": 0, "per_margwork_0_3_p": 0.0, "per_margwork_0_3_m": 0.0, "per_margwork_0_3_f": 0.0, "marg_cl_0_3_p": 0, "marg_cl_0_3_m": 0, "marg_cl_0_3_f": 0, "per_marg_cl_0_3_p": 0.0, "per_marg_cl_0_3_m": 0.0, "per_marg_cl_0_3_f": 0.0, "marg_al_0_3_p": 0, "marg_al_0_3_m": 0, "marg_al_0_3_f": 0, "per_marg_al_0_3_p": 0.0, "per_marg_al_0_3_m": 0.0, "per_marg_al_0_3_f": 0.0, "marg_hh_0_3_p": 0, "marg_hh_0_3_m": 0, "marg_hh_0_3_f": 0, "per_marg_hh_0_3_p": 0.0, "per_marg_hh_0_3_m": 0.0, "per_marg_hh_0_3_f": 0.0, "marg_ot_0_3_p": 0, "marg_ot_0_3_m": 0, "marg_ot_0_3_f": 0, "per_marg_ot_0_3_p": 0.0, "per_marg_ot_0_3_m": 0.0, "per_marg_ot_0_3_f": 0.0, "non_work_p": 174, "non_work_m": 97, "non_work_f": 77, "per_non_work_p": 47.9338843, "per_non_work_m": 55.74712644, "per_non_work_f": 44.25287356, "per_hc_tot_tot": 100, "per_hc_tot_god": 70.7, "per_hc_tot_liv": 27.6, "per_hc_tot_dil": 1.7, "per_hc_res_tot": 100.0, "per_hc_res_god": 70.7, "per_hc_res_liv": 27.6, "per_hc_res_dil": 1.7, "per_hc_oth_tot": 0.0, "per_hc_oth_god": 0.0, "per_hc_oth_liv": 0.0, "per_hc_oth_dil": 0.0, "per_mt_grsbam": 87.9, "per_mt_plastic": 0.0, "per_mt_h_tiles": 0.0, "per_mt_m_tiles": 0.0, "per_mt_b_brick": 0.0, "per_mt_stone": 0.0, "per_mt_asbstos": 12.1, "per_mt_concrte": 0.0, "per_mt_oth": 0.0, "per_mw_grsbam": 96.6, "per_mw_plastic": 0.0, "per_mw_mud": 0.0, "per_mw_wood": 0.0, "per_mw_no_mrtr": 0.0, "per_mw_st_mrtr": 0.0, "per_mw_asbstos": 0.0, "per_mw_b_brick": 3.4, "per_mw_concrte": 0.0, "per_mw_oth": 0.0, "per_mf_mud": 29.3, "per_mf_wood": 63.8, "per_mf_b_brick": 0.0, "per_mf_stone": 0.0, "per_mf_cement": 6.9, "per_mf_fl_tile": 0.0, "per_mf_oth": 0.0, "per_dw_n_exrm": 1.7, "per_dw_1_room": 8.6, "per_dw_2_room": 36.2, "per_dw_3_room": 39.7, "per_dw_4_room": 12.1, "per_dw_5_room": 0.0, "per_dw_6_room": 1.7, "per_hhsize_1": 1.7, "per_hhsize_2": 6.9, "per_hhsize_3": 12.1, "per_hhsize_4": 17.2, "per_hhsize_5": 17.2, "per_hhsize_6_8": 24.1, "per_hhsize_9p": 20.7, "per_ow_owned": 72.4, "per_ow_rented": 0.0, "per_ow_oth": 27.6, "per_mc_none": 10.3, "per_mcouple_1": 81.0, "per_mcouple_2": 8.6, "per_mcouple_3": 0.0, "per_mcouple_4": 0.0, "per_mcouple_5p": 0.0, "per_dw_t_ts": 0.0, "per_dw_t_unts": 70.7, "per_dw_c_well": 0.0, "per_dw_unc_wel": 29.3, "per_dw_hpump": 0.0, "per_dw_tw_bore": 0.0, "per_dw_spring": 0.0, "per_dw_rivcan": 0.0, "per_dw_tank": 0.0, "per_dw_oth": 0.0, "per_loc_dw_wp": 89.7, "per_loc_dw_np": 10.3, "per_loc_dw_aw": 0.0, "per_light_elec": 44.8, "per_light_kero": 55.2, "per_light_solr": 0.0, "per_light_oil": 0.0, "per_light_oth": 0.0, "per_light_no": 0.0, "per_hh_latrine": 44.8, "per_fl_sewer": 0.0, "per_fl_septict": 5.2, "per_fl_othsys": 1.7, "per_pl_wslab": 0.0, "per_pl_without": 37.9, "per_ns_open": 0.0, "per_sl_ns_hum": 0.0, "per_sl_ns_anml": 0.0, "per_hh_no_lat": 55.2, "per_as_pub": 0.0, "per_as_open": 55.2, "per_hh_bathrm": 5.2, "per_hh_en_wrf": 1.7, "per_hh_no_btrm": 93.1, "per_wwoc_drain": 0.0, "per_wwoc_open": 5.2, "per_wwoc_nodrn": 94.8, "per_cook_fire": 96.6, "per_cook_resdu": 0.0, "per_cook_cwdng": 0.0, "per_cook_coal": 0.0, "per_cook_kero": 0.0, "per_cook_lpng": 3.4, "per_cook_elec": 0.0, "per_cook_biogs": 0.0, "per_cook_oth": 0.0, "per_cook_no": 0.0, "per_kf_inside": 100.0, "per_kf_in_has": 100.0, "per_kf_in_does": 0.0, "per_kf_outside": 0.0, "per_kf_out_has": 0.0, "per_kf_out_dos": 0.0, "per_kf_no_cook": 0.0, "per_hh_banking": 31.0, "per_hh_radio": 17.2, "per_hh_tv": 24.1, "per_hh_cmp_int": 0.0, "per_hh_cmp_wnt": 3.4, "per_hh_ph_ll": 0.0, "per_hh_ph_mob": 43.1, "per_hh_ph_bth": 0.0, "per_hh_bcycl": 37.9, "per_hh_2wheel": 10.3, "per_hh_4wheel": 3.4, "per_hh_tvcomp": 0.0, "per_hh_no_ast": 32.8, "per_hs_perma": 3.4, "per_hs_sperma": 8.6, "per_hs_temp": 87.9, "per_hs_servc": 0.0, "per_hs_nservc": 87.9, "per_hs_unclss": 0.0, "avghhsz_cy": 5.04166667, "st_areashape": 31363.87350204, "st_lengthshape": 628.0581775956349}, "geometry": {"type": "Polygon", "coordinates": [[[96.11905787163856, 27.42395785554516], [96.11896842818237, 27.423953893437435], [96.1188798740583, 27.423942045386898], [96.118793088717, 27.423922430995844], [96.11870893454117, 27.423895243222645], [96.11862824876067, 27.423860753963407], [96.11855183267272, 27.423819304484102], [96.11848044535371, 27.42377130701538], [96.11841479737106, 27.42371723996882], [96.11835554090166, 27.42365763916641], [96.1183032634437, 27.42359309704349], [96.11825848602005, 27.423524256270294], [96.1182216532968, 27.423451799386473], [96.11819313178651, 27.42337644720689], [96.11817320356025, 27.423298949253336], [96.118162068044, 27.423220074983863], [96.11815983573051, 27.423140608211348], [96.11816652817939, 27.423061339129813], [96.11818207891527, 27.422983055543465], [96.11820633432626, 27.422906534892874], [96.11823905186722, 27.42283253867322], [96.11827990814464, 27.422761801270894], [96.11832849532342, 27.422695025976335], [96.11838433190654, 27.422632877009825], [96.11844686183682, 27.42257597154767], [96.11851546527676, 27.42252487493719], [96.11858945860843, 27.42248009591223], [96.11866810700982, 27.422442078619035], [96.11875062984508, 27.422411201020942], [96.11883620605401, 27.422387770911314], [96.11892398493198, 27.4223720195341], [96.1190130942149, 27.42236410477319], [96.11910264906221, 27.42236410477319], [96.11919175834515, 27.4223720195341], [96.11927953722314, 27.422387770911314], [96.11936511343205, 27.422411201020942], [96.11944763626732, 27.422442078619035], [96.11952628466874, 27.42248009591223], [96.11960027800039, 27.42252487493719], [96.11966888144032, 27.42257597154767], [96.11973141137062, 27.422632877009825], [96.11978724795374, 27.422695025976335], [96.1198358351325, 27.422761801270894], [96.11987669140993, 27.42283253867322], [96.11990940895089, 27.422906534892874], [96.11993366436188, 27.422983055543465], [96.11994921509778, 27.423061339129813], [96.11995590754665, 27.423140608211348], [96.11995367523316, 27.423220074983863], [96.11994253971692, 27.423298949253336], [96.11992261149062, 27.42337644720689], [96.11989408998036, 27.423451799386473], [96.1198572572571, 27.423524256270294], [96.11981247983344, 27.42359309704349], [96.11976020237546, 27.42365763916641], [96.11970094590609, 27.42371723996882], [96.11963529792344, 27.42377130701538], [96.11956391060444, 27.423819304484102], [96.11948749451648, 27.423860753963407], [96.11940680873597, 27.423895243222645], [96.11932265456015, 27.423922430995844], [96.11923586921887, 27.423942045386898], [96.11914731509479, 27.423953893437435], [96.11905787163856, 27.42395785554516]]]}}]}