{"type": "FeatureCollection", "features": [{"type": "Feature", "properties": {"premiumdata.sde.IN_Village_PCA.area": 1.47206835, "objectid": 402414, "id": "136823464379", "name": "Tangwari Payeen", "subdistrict": "Wagoora", "district": "Baramulla", "state": "Jammu And Kashmir", "country": "India", "censusname": "Tangwari Pain", "villagename_locallang": null, "lgd_villagename": "Tangwari Payeen", "lgd_villagecode": 2482, "lgd_subdistrictcode": 6823, "lgd_districtcode": 3, "lgd_statecode": 1, "censuscode2001": "00079200", "censuscode2011": "002482", "censuscode2021": null, "level": "Village", "tru": "Rural", "no_hh": 28, "tot_p": 162, "tot_m": 85, "tot_f": 77, "per_tot_m": 52.4691358, "per_tot_f": 47.5308642, "p_06": 14, "m_06": 9, "f_06": 5, "per_p_06": 8.64197531, "per_m_06": 64.28571429, "per_f_06": 35.71428571, "p_sc": 0, "m_sc": 0, "f_sc": 0, "per_p_sc": 0.0, "per_m_sc": 0.0, "per_f_sc": 0.0, "p_st": 0, "m_st": 0, "f_st": 0, "per_p_st": 0.0, "per_m_st": 0.0, "per_f_st": 0.0, "p_lit": 107, "m_lit": 60, "f_lit": 47, "per_p_lit": 66.04938272, "per_m_lit": 56.07476636, "per_f_lit": 43.92523364, "p_ill": 55, "m_ill": 25, "f_ill": 30, "per_p_ill": 33.95061728, "per_m_ill": 45.45454545, "per_f_ill": 54.54545455, "tot_work_p": 41, "tot_work_m": 39, "tot_work_f": 2, "per_tot_work_p": 25.30864198, "per_tot_work_m": 95.12195122, "per_tot_work_f": 4.87804878, "mainwork_p": 39, "mainwork_m": 37, "mainwork_f": 2, "per_mainwork_p": 24.07407407, "per_mainwork_m": 94.87179487, "per_mainwork_f": 5.12820513, "main_cl_p": 11, "main_cl_m": 10, "main_cl_f": 1, "per_main_cl_p": 28.20512821, "per_main_cl_m": 90.90909091, "per_main_cl_f": 9.09090909, "main_al_p": 4, "main_al_m": 4, "main_al_f": 0, "per_main_al_p": 10.25641026, "per_main_al_m": 100.0, "per_main_al_f": 0.0, "main_hh_p": 1, "main_hh_m": 1, "main_hh_f": 0, "per_main_hh_p": 2.56410256, "per_main_hh_m": 100.0, "per_main_hh_f": 0.0, "main_ot_p": 23, "main_ot_m": 22, "main_ot_f": 1, "per_main_ot_p": 58.97435897, "per_main_ot_m": 95.65217391, "per_main_ot_f": 4.34782609, "margwork_p": 2, "margwork_m": 2, "margwork_f": 0, "per_margwork_p": 1.2345679, "per_margwork_m": 100.0, "per_margwork_f": 0.0, "marg_cl_p": 1, "marg_cl_m": 1, "marg_cl_f": 0, "per_marg_cl_p": 50.0, "per_marg_cl_m": 100.0, "per_marg_cl_f": 0.0, "marg_al_p": 0, "marg_al_m": 0, "marg_al_f": 0, "per_marg_al_p": 0.0, "per_marg_al_m": 0.0, "per_marg_al_f": 0.0, "marg_hh_p": 0, "marg_hh_m": 0, "marg_hh_f": 0, "per_marg_hh_p": 0.0, "per_marg_hh_m": 0.0, "per_marg_hh_f": 0.0, "marg_ot_p": 1, "marg_ot_m": 1, "marg_ot_f": 0, "per_marg_ot_p": 50.0, "per_marg_ot_m": 100.0, "per_marg_ot_f": 0.0, "margwork_3_6_p": 1, "margwork_3_6_m": 1, "margwork_3_6_f": 0, "per_margwork_3_6_p": 50.0, "per_margwork_3_6_m": 100.0, "per_margwork_3_6_f": 0.0, "marg_cl_3_6_p": 0, "marg_cl_3_6_m": 0, "marg_cl_3_6_f": 0, "per_marg_cl_3_6_p": 0.0, "per_marg_cl_3_6_m": 0.0, "per_marg_cl_3_6_f": 0.0, "marg_al_3_6_p": 0, "marg_al_3_6_m": 0, "marg_al_3_6_f": 0, "per_marg_al_3_6_p": 0.0, "per_marg_al_3_6_m": 0.0, "per_marg_al_3_6_f": 0.0, "marg_hh_3_6_p": 0, "marg_hh_3_6_m": 0, "marg_hh_3_6_f": 0, "per_marg_hh_3_6_p": 0.0, "per_marg_hh_3_6_m": 0.0, "per_marg_hh_3_6_f": 0.0, "marg_ot_3_6_p": 1, "marg_ot_3_6_m": 1, "marg_ot_3_6_f": 0, "per_marg_ot_3_6_p": 50.0, "per_marg_ot_3_6_m": 100.0, "per_marg_ot_3_6_f": 0.0, "margwork_0_3_p": 1, "margwork_0_3_m": 1, "margwork_0_3_f": 0, "per_margwork_0_3_p": 50.0, "per_margwork_0_3_m": 100.0, "per_margwork_0_3_f": 0.0, "marg_cl_0_3_p": 1, "marg_cl_0_3_m": 1, "marg_cl_0_3_f": 0, "per_marg_cl_0_3_p": 50.0, "per_marg_cl_0_3_m": 100.0, "per_marg_cl_0_3_f": 0.0, "marg_al_0_3_p": 0, "marg_al_0_3_m": 0, "marg_al_0_3_f": 0, "per_marg_al_0_3_p": 0.0, "per_marg_al_0_3_m": 0.0, "per_marg_al_0_3_f": 0.0, "marg_hh_0_3_p": 0, "marg_hh_0_3_m": 0, "marg_hh_0_3_f": 0, "per_marg_hh_0_3_p": 0.0, "per_marg_hh_0_3_m": 0.0, "per_marg_hh_0_3_f": 0.0, "marg_ot_0_3_p": 0, "marg_ot_0_3_m": 0, "marg_ot_0_3_f": 0, "per_marg_ot_0_3_p": 0.0, "per_marg_ot_0_3_m": 0.0, "per_marg_ot_0_3_f": 0.0, "non_work_p": 121, "non_work_m": 46, "non_work_f": 75, "per_non_work_p": 74.69135802, "per_non_work_m": 38.01652893, "per_non_work_f": 61.98347107, "per_hc_tot_tot": 100, "per_hc_tot_god": 20.8, "per_hc_tot_liv": 75.0, "per_hc_tot_dil": 4.2, "per_hc_res_tot": 100.0, "per_hc_res_god": 20.8, "per_hc_res_liv": 75.0, "per_hc_res_dil": 4.2, "per_hc_oth_tot": 0.0, "per_hc_oth_god": 0.0, "per_hc_oth_liv": 0.0, "per_hc_oth_dil": 0.0, "per_mt_grsbam": 0.0, "per_mt_plastic": 0.0, "per_mt_h_tiles": 0.0, "per_mt_m_tiles": 0.0, "per_mt_b_brick": 20.8, "per_mt_stone": 0.0, "per_mt_asbstos": 62.5, "per_mt_concrte": 16.7, "per_mt_oth": 0.0, "per_mw_grsbam": 0.0, "per_mw_plastic": 0.0, "per_mw_mud": 70.8, "per_mw_wood": 0.0, "per_mw_no_mrtr": 0.0, "per_mw_st_mrtr": 0.0, "per_mw_asbstos": 0.0, "per_mw_b_brick": 29.2, "per_mw_concrte": 0.0, "per_mw_oth": 0.0, "per_mf_mud": 75.0, "per_mf_wood": 0.0, "per_mf_b_brick": 0.0, "per_mf_stone": 0.0, "per_mf_cement": 25.0, "per_mf_fl_tile": 0.0, "per_mf_oth": 0.0, "per_dw_n_exrm": 0.0, "per_dw_1_room": 8.3, "per_dw_2_room": 29.2, "per_dw_3_room": 20.8, "per_dw_4_room": 25.0, "per_dw_5_room": 12.5, "per_dw_6_room": 4.2, "per_hhsize_1": 0.0, "per_hhsize_2": 4.2, "per_hhsize_3": 8.3, "per_hhsize_4": 8.3, "per_hhsize_5": 20.8, "per_hhsize_6_8": 45.8, "per_hhsize_9p": 12.5, "per_ow_owned": 100.0, "per_ow_rented": 0.0, "per_ow_oth": 0.0, "per_mc_none": 8.3, "per_mcouple_1": 79.2, "per_mcouple_2": 12.5, "per_mcouple_3": 0.0, "per_mcouple_4": 0.0, "per_mcouple_5p": 0.0, "per_dw_t_ts": 0.0, "per_dw_t_unts": 100.0, "per_dw_c_well": 0.0, "per_dw_unc_wel": 0.0, "per_dw_hpump": 0.0, "per_dw_tw_bore": 0.0, "per_dw_spring": 0.0, "per_dw_rivcan": 0.0, "per_dw_tank": 0.0, "per_dw_oth": 0.0, "per_loc_dw_wp": 58.3, "per_loc_dw_np": 25.0, "per_loc_dw_aw": 16.7, "per_light_elec": 100.0, "per_light_kero": 0.0, "per_light_solr": 0.0, "per_light_oil": 0.0, "per_light_oth": 0.0, "per_light_no": 0.0, "per_hh_latrine": 45.8, "per_fl_sewer": 37.5, "per_fl_septict": 0.0, "per_fl_othsys": 0.0, "per_pl_wslab": 4.2, "per_pl_without": 4.2, "per_ns_open": 0.0, "per_sl_ns_hum": 0.0, "per_sl_ns_anml": 0.0, "per_hh_no_lat": 54.2, "per_as_pub": 0.0, "per_as_open": 54.2, "per_hh_bathrm": 95.8, "per_hh_en_wrf": 0.0, "per_hh_no_btrm": 4.2, "per_wwoc_drain": 0.0, "per_wwoc_open": 0.0, "per_wwoc_nodrn": 100.0, "per_cook_fire": 91.7, "per_cook_resdu": 8.3, "per_cook_cwdng": 0.0, "per_cook_coal": 0.0, "per_cook_kero": 0.0, "per_cook_lpng": 0.0, "per_cook_elec": 0.0, "per_cook_biogs": 0.0, "per_cook_oth": 0.0, "per_cook_no": 0.0, "per_kf_inside": 100.0, "per_kf_in_has": 100.0, "per_kf_in_does": 0.0, "per_kf_outside": 0.0, "per_kf_out_has": 0.0, "per_kf_out_dos": 0.0, "per_kf_no_cook": 0.0, "per_hh_banking": 54.2, "per_hh_radio": 33.3, "per_hh_tv": 25.0, "per_hh_cmp_int": 0.0, "per_hh_cmp_wnt": 4.2, "per_hh_ph_ll": 8.3, "per_hh_ph_mob": 33.3, "per_hh_ph_bth": 0.0, "per_hh_bcycl": 0.0, "per_hh_2wheel": 0.0, "per_hh_4wheel": 4.2, "per_hh_tvcomp": 0.0, "per_hh_no_ast": 41.7, "per_hs_perma": 29.2, "per_hs_sperma": 70.8, "per_hs_temp": 0.0, "per_hs_servc": 0.0, "per_hs_nservc": 0.0, "per_hs_unclss": 0.0, "avghhsz_cy": 5.78571429, "st_areashape": 2154713.005569565, "st_lengthshape": 6306.048699907009}, "geometry": {"type": "Polygon", "coordinates": [[[74.43289231521231, 34.15006658947714], [74.43035395200219, 34.15046945687455], [74.42672933606902, 34.150862847566614], [74.42233226061968, 34.15258390955811], [74.41648644336557, 34.155976386658665], [74.41532070950284, 34.15359686106947], [74.41294391188983, 34.150607143973836], [74.41066218657656, 34.14840412716878], [74.4140134703216, 34.145502744780906], [74.41906416446322, 34.14387989413974], [74.42393659961483, 34.14387989413974], [74.42456050922405, 34.144470025522835], [74.42518441793497, 34.14506015204036], [74.42672933606902, 34.14594533445933], [74.42910613368205, 34.14633874622106], [74.43160177032232, 34.14791237420359], [74.4323742298385, 34.14855165175666], [74.43289231521231, 34.15006658947714]]]}}]}