{"type": "FeatureCollection", "features": [{"type": "Feature", "properties": {"premiumdata.sde.IN_Village_PCA.area": 8.73385192, "objectid": 272181, "id": "9153860375950", "name": "Digara", "subdistrict": "Jhansi", "district": "Jhansi", "state": "Uttar Pradesh", "country": "India", "censusname": "Digara", "villagename_locallang": null, "lgd_villagename": "Digara", "lgd_villagecode": 152851, "lgd_subdistrictcode": 860, "lgd_districtcode": 153, "lgd_statecode": 9, "censuscode2001": "04585700", "censuscode2011": "152851", "censuscode2021": null, "level": "Village", "tru": "Rural", "no_hh": 609, "tot_p": 3383, "tot_m": 1799, "tot_f": 1584, "per_tot_m": 53.17765297, "per_tot_f": 46.82234703, "p_06": 496, "m_06": 280, "f_06": 216, "per_p_06": 14.66154301, "per_m_06": 56.4516129, "per_f_06": 43.5483871, "p_sc": 1162, "m_sc": 604, "f_sc": 558, "per_p_sc": 34.34821165, "per_m_sc": 51.97934596, "per_f_sc": 48.02065404, "p_st": 0, "m_st": 0, "f_st": 0, "per_p_st": 0.0, "per_m_st": 0.0, "per_f_st": 0.0, "p_lit": 1966, "m_lit": 1229, "f_lit": 737, "per_p_lit": 58.11409991, "per_m_lit": 62.51271617, "per_f_lit": 37.48728383, "p_ill": 1417, "m_ill": 570, "f_ill": 847, "per_p_ill": 41.88590009, "per_m_ill": 40.22582922, "per_f_ill": 59.77417078, "tot_work_p": 1344, "tot_work_m": 958, "tot_work_f": 386, "per_tot_work_p": 39.72805202, "per_tot_work_m": 71.2797619, "per_tot_work_f": 28.7202381, "mainwork_p": 886, "mainwork_m": 762, "mainwork_f": 124, "per_mainwork_p": 26.18977239, "per_mainwork_m": 86.00451467, "per_mainwork_f": 13.99548533, "main_cl_p": 227, "main_cl_m": 196, "main_cl_f": 31, "per_main_cl_p": 25.62076749, "per_main_cl_m": 86.34361233, "per_main_cl_f": 13.65638767, "main_al_p": 314, "main_al_m": 285, "main_al_f": 29, "per_main_al_p": 35.44018059, "per_main_al_m": 90.76433121000001, "per_main_al_f": 9.23566879, "main_hh_p": 21, "main_hh_m": 16, "main_hh_f": 5, "per_main_hh_p": 2.37020316, "per_main_hh_m": 76.19047619, "per_main_hh_f": 23.80952381, "main_ot_p": 324, "main_ot_m": 265, "main_ot_f": 59, "per_main_ot_p": 36.56884876, "per_main_ot_m": 81.79012346, "per_main_ot_f": 18.20987654, "margwork_p": 458, "margwork_m": 196, "margwork_f": 262, "per_margwork_p": 13.53827963, "per_margwork_m": 42.79475983, "per_margwork_f": 57.20524017, "marg_cl_p": 115, "marg_cl_m": 38, "marg_cl_f": 77, "per_marg_cl_p": 25.10917031, "per_marg_cl_m": 33.04347826, "per_marg_cl_f": 66.95652174, "marg_al_p": 179, "marg_al_m": 68, "marg_al_f": 111, "per_marg_al_p": 39.08296943000001, "per_marg_al_m": 37.98882682, "per_marg_al_f": 62.01117318, "marg_hh_p": 46, "marg_hh_m": 16, "marg_hh_f": 30, "per_marg_hh_p": 10.04366812, "per_marg_hh_m": 34.7826087, "per_marg_hh_f": 65.2173913, "marg_ot_p": 118, "marg_ot_m": 74, "marg_ot_f": 44, "per_marg_ot_p": 25.76419214, "per_marg_ot_m": 62.71186441, "per_marg_ot_f": 37.28813559, "margwork_3_6_p": 421, "margwork_3_6_m": 184, "margwork_3_6_f": 237, "per_margwork_3_6_p": 91.92139738, "per_margwork_3_6_m": 43.70546318, "per_margwork_3_6_f": 56.29453682, "marg_cl_3_6_p": 113, "marg_cl_3_6_m": 38, "marg_cl_3_6_f": 75, "per_marg_cl_3_6_p": 24.67248908, "per_marg_cl_3_6_m": 33.62831858000001, "per_marg_cl_3_6_f": 66.37168142, "marg_al_3_6_p": 162, "marg_al_3_6_m": 66, "marg_al_3_6_f": 96, "per_marg_al_3_6_p": 35.37117904, "per_marg_al_3_6_m": 40.74074074, "per_marg_al_3_6_f": 59.25925926, "marg_hh_3_6_p": 43, "marg_hh_3_6_m": 16, "marg_hh_3_6_f": 27, "per_marg_hh_3_6_p": 9.38864629, "per_marg_hh_3_6_m": 37.20930233, "per_marg_hh_3_6_f": 62.79069767, "marg_ot_3_6_p": 103, "marg_ot_3_6_m": 64, "marg_ot_3_6_f": 39, "per_marg_ot_3_6_p": 22.48908297, "per_marg_ot_3_6_m": 62.13592233, "per_marg_ot_3_6_f": 37.86407767, "margwork_0_3_p": 37, "margwork_0_3_m": 12, "margwork_0_3_f": 25, "per_margwork_0_3_p": 8.07860262, "per_margwork_0_3_m": 32.43243243, "per_margwork_0_3_f": 67.56756757, "marg_cl_0_3_p": 2, "marg_cl_0_3_m": 0, "marg_cl_0_3_f": 2, "per_marg_cl_0_3_p": 0.43668122, "per_marg_cl_0_3_m": 0.0, "per_marg_cl_0_3_f": 100.0, "marg_al_0_3_p": 17, "marg_al_0_3_m": 2, "marg_al_0_3_f": 15, "per_marg_al_0_3_p": 3.71179039, "per_marg_al_0_3_m": 11.76470588, "per_marg_al_0_3_f": 88.23529412, "marg_hh_0_3_p": 3, "marg_hh_0_3_m": 0, "marg_hh_0_3_f": 3, "per_marg_hh_0_3_p": 0.65502183, "per_marg_hh_0_3_m": 0.0, "per_marg_hh_0_3_f": 100.0, "marg_ot_0_3_p": 15, "marg_ot_0_3_m": 10, "marg_ot_0_3_f": 5, "per_marg_ot_0_3_p": 3.27510917, "per_marg_ot_0_3_m": 66.66666667, "per_marg_ot_0_3_f": 33.33333333, "non_work_p": 2039, "non_work_m": 841, "non_work_f": 1198, "per_non_work_p": 60.27194798, "per_non_work_m": 41.24570868, "per_non_work_f": 58.75429132, "per_hc_tot_tot": 100, "per_hc_tot_god": 28.8, "per_hc_tot_liv": 70.7, "per_hc_tot_dil": 0.5, "per_hc_res_tot": 83.2, "per_hc_res_god": 27.6, "per_hc_res_liv": 55.1, "per_hc_res_dil": 0.5, "per_hc_oth_tot": 16.8, "per_hc_oth_god": 1.2, "per_hc_oth_liv": 15.6, "per_hc_oth_dil": 0.0, "per_mt_grsbam": 1.9, "per_mt_plastic": 0.3, "per_mt_h_tiles": 22.1, "per_mt_m_tiles": 0.5, "per_mt_b_brick": 2.6, "per_mt_stone": 46.1, "per_mt_asbstos": 3.9, "per_mt_concrte": 22.0, "per_mt_oth": 0.5, "per_mw_grsbam": 1.2, "per_mw_plastic": 0.0, "per_mw_mud": 22.5, "per_mw_wood": 0.5, "per_mw_no_mrtr": 1.2, "per_mw_st_mrtr": 3.9, "per_mw_asbstos": 0.0, "per_mw_b_brick": 67.9, "per_mw_concrte": 1.4, "per_mw_oth": 1.4, "per_mf_mud": 50.3, "per_mf_wood": 0.0, "per_mf_b_brick": 0.9, "per_mf_stone": 2.4, "per_mf_cement": 45.1, "per_mf_fl_tile": 1.4, "per_mf_oth": 0.0, "per_dw_n_exrm": 2.1, "per_dw_1_room": 19.0, "per_dw_2_room": 23.2, "per_dw_3_room": 22.3, "per_dw_4_room": 19.9, "per_dw_5_room": 7.0, "per_dw_6_room": 6.5, "per_hhsize_1": 2.1, "per_hhsize_2": 5.5, "per_hhsize_3": 8.2, "per_hhsize_4": 16.5, "per_hhsize_5": 23.2, "per_hhsize_6_8": 36.0, "per_hhsize_9p": 8.6, "per_ow_owned": 94.0, "per_ow_rented": 2.9, "per_ow_oth": 3.1, "per_mc_none": 9.4, "per_mcouple_1": 60.7, "per_mcouple_2": 22.0, "per_mcouple_3": 6.2, "per_mcouple_4": 1.0, "per_mcouple_5p": 0.7, "per_dw_t_ts": 1.7, "per_dw_t_unts": 0.9, "per_dw_c_well": 1.2, "per_dw_unc_wel": 20.6, "per_dw_hpump": 70.8, "per_dw_tw_bore": 3.3, "per_dw_spring": 0.0, "per_dw_rivcan": 0.0, "per_dw_tank": 1.2, "per_dw_oth": 0.3, "per_loc_dw_wp": 17.7, "per_loc_dw_np": 43.6, "per_loc_dw_aw": 38.8, "per_light_elec": 67.9, "per_light_kero": 31.6, "per_light_solr": 0.5, "per_light_oil": 0.0, "per_light_oth": 0.0, "per_light_no": 0.0, "per_hh_latrine": 23.2, "per_fl_sewer": 0.5, "per_fl_septict": 10.1, "per_fl_othsys": 3.6, "per_pl_wslab": 0.0, "per_pl_without": 0.5, "per_ns_open": 0.3, "per_sl_ns_hum": 0.0, "per_sl_ns_anml": 8.1, "per_hh_no_lat": 76.8, "per_as_pub": 0.2, "per_as_open": 76.7, "per_hh_bathrm": 19.7, "per_hh_en_wrf": 51.6, "per_hh_no_btrm": 28.6, "per_wwoc_drain": 7.9, "per_wwoc_open": 76.0, "per_wwoc_nodrn": 16.1, "per_cook_fire": 34.1, "per_cook_resdu": 2.4, "per_cook_cwdng": 47.0, "per_cook_coal": 0.2, "per_cook_kero": 0.3, "per_cook_lpng": 15.4, "per_cook_elec": 0.0, "per_cook_biogs": 0.0, "per_cook_oth": 0.0, "per_cook_no": 0.5, "per_kf_inside": 92.3, "per_kf_in_has": 17.5, "per_kf_in_does": 74.8, "per_kf_outside": 7.2, "per_kf_out_has": 1.2, "per_kf_out_dos": 6.0, "per_kf_no_cook": 0.5, "per_hh_banking": 70.3, "per_hh_radio": 26.2, "per_hh_tv": 54.7, "per_hh_cmp_int": 0.2, "per_hh_cmp_wnt": 2.9, "per_hh_ph_ll": 1.5, "per_hh_ph_mob": 63.1, "per_hh_ph_bth": 0.5, "per_hh_bcycl": 61.6, "per_hh_2wheel": 20.9, "per_hh_4wheel": 8.7, "per_hh_tvcomp": 1.2, "per_hh_no_ast": 7.5, "per_hs_perma": 73.2, "per_hs_sperma": 23.7, "per_hs_temp": 1.4, "per_hs_servc": 1.4, "per_hs_nservc": 0.0, "per_hs_unclss": 1.7, "avghhsz_cy": 5.55500821, "st_areashape": 10758068.676989924, "st_lengthshape": 17255.321198696594}, "geometry": {"type": "Polygon", "coordinates": [[[78.65983507471364, 25.480353715203737], [78.6598183220319, 25.48035724927463], [78.65867145638337, 25.480510946386882], [78.65822258710054, 25.480565811983357], [78.65857785282907, 25.479724076407134], [78.65858816009867, 25.479345526013883], [78.65852879403478, 25.47910497013887], [78.65840407912725, 25.478842995001983], [78.6583018598311, 25.478561614054108], [78.6580733158464, 25.47807802365432], [78.6570493253557, 25.47614120483916], [78.65628780552305, 25.474250146005083], [78.65562880412557, 25.471823110137393], [78.6555466990069, 25.470804543198962], [78.65509615526439, 25.46959826328327], [78.6544247068103, 25.467629458164584], [78.65360475965328, 25.46466050244268], [78.65332340550965, 25.463697251810817], [78.65286205503423, 25.462889440651633], [78.65233622169112, 25.461222914063836], [78.65184106042503, 25.459238097409482], [78.65136786296765, 25.457253767930624], [78.65080653089943, 25.456084842119704], [78.65055336499111, 25.45570035547626], [78.65001584726107, 25.45526960932282], [78.64952333512677, 25.45479999400643], [78.64883626496993, 25.453408937101834], [78.64771169910004, 25.451948210768627], [78.64713464292107, 25.451357060053088], [78.64608270135032, 25.450456178601442], [78.64394149500542, 25.448414303046462], [78.64261343018093, 25.4471682561402], [78.64154012936767, 25.446246919743718], [78.64100267451971, 25.44581613976505], [78.63921741033478, 25.444420189032645], [78.63882820086489, 25.444192100152453], [78.6377527827225, 25.44335043213332], [78.63676138131369, 25.442650218179896], [78.63570793416652, 25.441809031782288], [78.63459628247715, 25.440687405897744], [78.63421363969199, 25.44022023060511], [78.63411422583445, 25.439839183131028], [78.6341415004831, 25.43962597945053], [78.63417014326595, 25.439401836973744], [78.63439776378252, 25.438310447259923], [78.63465617675041, 25.43769824154994], [78.63493491410159, 25.437146299825454], [78.63627660097903, 25.43548195442697], [78.63739433605951, 25.433972034588777], [78.63800455624214, 25.43334781890951], [78.63938134209432, 25.432003235736826], [78.64087605069221, 25.430362236761802], [78.64121809681306, 25.42997785214798], [78.64139648875376, 25.430352213451403], [78.64139276433859, 25.430703121305392], [78.64125517477642, 25.43194526032436], [78.64125039753573, 25.43198838229325], [78.64110740730209, 25.433332173034987], [78.64161346603085, 25.4341552790802], [78.64202741151041, 25.434511330526202], [78.64250639591484, 25.43492332275785], [78.64333797805145, 25.435398421710552], [78.64468752069604, 25.435585635054398], [78.64768505956029, 25.435935354616355], [78.64847997875519, 25.43602808720469], [78.65002075924905, 25.43639234200296], [78.65091858495134, 25.436692552118547], [78.65153421029703, 25.43704178253997], [78.65207015238204, 25.437345807056353], [78.65296306609635, 25.43811378902085], [78.65397096955695, 25.438664278285167], [78.65405091422734, 25.438707939743704], [78.65450142652885, 25.43871184576505], [78.65528223319065, 25.43789993817383], [78.65574672687121, 25.43786567446527], [78.65571332930561, 25.437345238385134], [78.65615271687064, 25.43701259608112], [78.6572367516532, 25.43856958862907], [78.65728277504017, 25.438849324656452], [78.65750555453567, 25.440203369620384], [78.65818185389229, 25.44102466840494], [78.65837948684805, 25.44104919352686], [78.659489268245, 25.44118690499923], [78.6611147032763, 25.4412677526785], [78.66291880064118, 25.440120871225744], [78.66449663304724, 25.439819284915583], [78.66465269466657, 25.44028563919764], [78.66530249282398, 25.44242864389411], [78.66546597812085, 25.44368831504106], [78.66546845297945, 25.444406088273777], [78.66560806105609, 25.444927563787576], [78.6658585410017, 25.44541165732843], [78.66610794117233, 25.445935591202], [78.6663090991173, 25.446617947699576], [78.66680356239237, 25.44782520180919], [78.66708637719664, 25.44954607497465], [78.66722491448145, 25.450107400761134], [78.66759903494953, 25.450893293184535], [78.6677975024402, 25.451675251354096], [78.66816304669226, 25.454394784171498], [78.66820782770915, 25.455173298340586], [78.66835914263054, 25.456073818427353], [78.66870892504262, 25.457756288564372], [78.66894970138652, 25.45859900437129], [78.66949357110396, 25.45960798550351], [78.6701981790701, 25.460361391616363], [78.67114757615454, 25.46100064643072], [78.67221380902313, 25.461383339094155], [78.6737034969369, 25.46173492460818], [78.67324015040491, 25.46189806845067], [78.67290589806748, 25.46207003642685], [78.67257112021558, 25.462261902722233], [78.67207829816252, 25.462609734524314], [78.67135076339368, 25.463510529875833], [78.6700824580952, 25.46571500008456], [78.66946143836624, 25.46673777395006], [78.6685291874256, 25.46789313978999], [78.66779997909542, 25.468853680473657], [78.66706803809014, 25.469913837888843], [78.6667319100704, 25.470962913349855], [78.66614772486132, 25.472245673312244], [78.66547514542833, 25.473546373983634], [78.66470550572382, 25.47446460457739], [78.66458944608408, 25.474603070955528], [78.66337569367613, 25.47640997931911], [78.66305577755232, 25.476861335004603], [78.66262527163049, 25.47814750293478], [78.66188619800185, 25.479466629312622], [78.66150310426244, 25.479816883927864], [78.6609904087803, 25.48008449135773], [78.66050345991255, 25.480213116999636], [78.65983507471364, 25.480353715203737]]]}}]}