{"type": "FeatureCollection", "features": [{"type": "Feature", "properties": {"premiumdata.sde.IN_Village_PCA.area": 15.39034985, "objectid": 261924, "id": "233963580536552", "name": "Sindhora", "subdistrict": "Berasia", "district": "Bhopal", "state": "Madhya Pradesh", "country": "India", "censusname": "Sindhora", "villagename_locallang": null, "lgd_villagename": "Sindhora", "lgd_villagecode": 482056, "lgd_subdistrictcode": 3580, "lgd_districtcode": 396, "lgd_statecode": 23, "censuscode2001": "03875200", "censuscode2011": "482056", "censuscode2021": null, "level": "Village", "tru": "Rural", "no_hh": 322, "tot_p": 1716, "tot_m": 862, "tot_f": 854, "per_tot_m": 50.23310023, "per_tot_f": 49.76689977, "p_06": 240, "m_06": 123, "f_06": 117, "per_p_06": 13.98601399, "per_m_06": 51.25, "per_f_06": 48.75, "p_sc": 557, "m_sc": 283, "f_sc": 274, "per_p_sc": 32.45920746, "per_m_sc": 50.80789946, "per_f_sc": 49.19210054000001, "p_st": 1, "m_st": 1, "f_st": 0, "per_p_st": 0.05827506, "per_m_st": 100.0, "per_f_st": 0.0, "p_lit": 954, "m_lit": 548, "f_lit": 406, "per_p_lit": 55.59440559, "per_m_lit": 57.44234801, "per_f_lit": 42.55765199, "p_ill": 762, "m_ill": 314, "f_ill": 448, "per_p_ill": 44.40559441000001, "per_m_ill": 41.20734908, "per_f_ill": 58.79265092, "tot_work_p": 867, "tot_work_m": 449, "tot_work_f": 418, "per_tot_work_p": 50.52447552, "per_tot_work_m": 51.78777393, "per_tot_work_f": 48.21222607, "mainwork_p": 222, "mainwork_m": 203, "mainwork_f": 19, "per_mainwork_p": 12.93706294, "per_mainwork_m": 91.44144144, "per_mainwork_f": 8.55855856, "main_cl_p": 171, "main_cl_m": 164, "main_cl_f": 7, "per_main_cl_p": 77.02702703, "per_main_cl_m": 95.90643275000001, "per_main_cl_f": 4.09356725, "main_al_p": 17, "main_al_m": 9, "main_al_f": 8, "per_main_al_p": 7.65765766, "per_main_al_m": 52.94117647, "per_main_al_f": 47.05882353, "main_hh_p": 14, "main_hh_m": 13, "main_hh_f": 1, "per_main_hh_p": 6.30630631, "per_main_hh_m": 92.85714286, "per_main_hh_f": 7.14285714, "main_ot_p": 20, "main_ot_m": 17, "main_ot_f": 3, "per_main_ot_p": 9.00900901, "per_main_ot_m": 85.0, "per_main_ot_f": 15.0, "margwork_p": 645, "margwork_m": 246, "margwork_f": 399, "per_margwork_p": 37.58741259, "per_margwork_m": 38.13953488, "per_margwork_f": 61.86046512, "marg_cl_p": 5, "marg_cl_m": 1, "marg_cl_f": 4, "per_marg_cl_p": 0.7751938, "per_marg_cl_m": 20.0, "per_marg_cl_f": 80.0, "marg_al_p": 633, "marg_al_m": 241, "marg_al_f": 392, "per_marg_al_p": 98.13953488, "per_marg_al_m": 38.07266983, "per_marg_al_f": 61.92733017, "marg_hh_p": 0, "marg_hh_m": 0, "marg_hh_f": 0, "per_marg_hh_p": 0.0, "per_marg_hh_m": 0.0, "per_marg_hh_f": 0.0, "marg_ot_p": 7, "marg_ot_m": 4, "marg_ot_f": 3, "per_marg_ot_p": 1.08527132, "per_marg_ot_m": 57.14285714, "per_marg_ot_f": 42.85714286, "margwork_3_6_p": 637, "margwork_3_6_m": 241, "margwork_3_6_f": 396, "per_margwork_3_6_p": 98.75968992, "per_margwork_3_6_m": 37.83359498, "per_margwork_3_6_f": 62.16640502000001, "marg_cl_3_6_p": 5, "marg_cl_3_6_m": 1, "marg_cl_3_6_f": 4, "per_marg_cl_3_6_p": 0.7751938, "per_marg_cl_3_6_m": 20.0, "per_marg_cl_3_6_f": 80.0, "marg_al_3_6_p": 625, "marg_al_3_6_m": 236, "marg_al_3_6_f": 389, "per_marg_al_3_6_p": 96.89922481, "per_marg_al_3_6_m": 37.76, "per_marg_al_3_6_f": 62.24, "marg_hh_3_6_p": 0, "marg_hh_3_6_m": 0, "marg_hh_3_6_f": 0, "per_marg_hh_3_6_p": 0.0, "per_marg_hh_3_6_m": 0.0, "per_marg_hh_3_6_f": 0.0, "marg_ot_3_6_p": 7, "marg_ot_3_6_m": 4, "marg_ot_3_6_f": 3, "per_marg_ot_3_6_p": 1.08527132, "per_marg_ot_3_6_m": 57.14285714, "per_marg_ot_3_6_f": 42.85714286, "margwork_0_3_p": 8, "margwork_0_3_m": 5, "margwork_0_3_f": 3, "per_margwork_0_3_p": 1.24031008, "per_margwork_0_3_m": 62.5, "per_margwork_0_3_f": 37.5, "marg_cl_0_3_p": 0, "marg_cl_0_3_m": 0, "marg_cl_0_3_f": 0, "per_marg_cl_0_3_p": 0.0, "per_marg_cl_0_3_m": 0.0, "per_marg_cl_0_3_f": 0.0, "marg_al_0_3_p": 8, "marg_al_0_3_m": 5, "marg_al_0_3_f": 3, "per_marg_al_0_3_p": 1.24031008, "per_marg_al_0_3_m": 62.5, "per_marg_al_0_3_f": 37.5, "marg_hh_0_3_p": 0, "marg_hh_0_3_m": 0, "marg_hh_0_3_f": 0, "per_marg_hh_0_3_p": 0.0, "per_marg_hh_0_3_m": 0.0, "per_marg_hh_0_3_f": 0.0, "marg_ot_0_3_p": 0, "marg_ot_0_3_m": 0, "marg_ot_0_3_f": 0, "per_marg_ot_0_3_p": 0.0, "per_marg_ot_0_3_m": 0.0, "per_marg_ot_0_3_f": 0.0, "non_work_p": 849, "non_work_m": 413, "non_work_f": 436, "per_non_work_p": 49.47552448, "per_non_work_m": 48.64546525, "per_non_work_f": 51.35453475, "per_hc_tot_tot": 100, "per_hc_tot_god": 96.0, "per_hc_tot_liv": 4.0, "per_hc_tot_dil": 0.0, "per_hc_res_tot": 98.8, "per_hc_res_god": 94.8, "per_hc_res_liv": 4.0, "per_hc_res_dil": 0.0, "per_hc_oth_tot": 1.2, "per_hc_oth_god": 1.2, "per_hc_oth_liv": 0.0, "per_hc_oth_dil": 0.0, "per_mt_grsbam": 7.3, "per_mt_plastic": 0.3, "per_mt_h_tiles": 72.9, "per_mt_m_tiles": 12.8, "per_mt_b_brick": 0.0, "per_mt_stone": 0.3, "per_mt_asbstos": 0.6, "per_mt_concrte": 5.8, "per_mt_oth": 0.0, "per_mw_grsbam": 2.4, "per_mw_plastic": 0.0, "per_mw_mud": 89.9, "per_mw_wood": 0.0, "per_mw_no_mrtr": 0.0, "per_mw_st_mrtr": 0.0, "per_mw_asbstos": 0.0, "per_mw_b_brick": 7.6, "per_mw_concrte": 0.0, "per_mw_oth": 0.0, "per_mf_mud": 91.8, "per_mf_wood": 0.0, "per_mf_b_brick": 0.0, "per_mf_stone": 0.0, "per_mf_cement": 8.2, "per_mf_fl_tile": 0.0, "per_mf_oth": 0.0, "per_dw_n_exrm": 0.9, "per_dw_1_room": 46.6, "per_dw_2_room": 38.1, "per_dw_3_room": 10.7, "per_dw_4_room": 2.1, "per_dw_5_room": 0.9, "per_dw_6_room": 0.6, "per_hhsize_1": 1.8, "per_hhsize_2": 7.3, "per_hhsize_3": 8.8, "per_hhsize_4": 14.3, "per_hhsize_5": 20.7, "per_hhsize_6_8": 42.1, "per_hhsize_9p": 4.9, "per_ow_owned": 98.5, "per_ow_rented": 0.9, "per_ow_oth": 0.6, "per_mc_none": 4.6, "per_mcouple_1": 65.5, "per_mcouple_2": 23.8, "per_mcouple_3": 5.8, "per_mcouple_4": 0.3, "per_mcouple_5p": 0.0, "per_dw_t_ts": 0.0, "per_dw_t_unts": 0.6, "per_dw_c_well": 1.5, "per_dw_unc_wel": 17.4, "per_dw_hpump": 80.5, "per_dw_tw_bore": 0.0, "per_dw_spring": 0.0, "per_dw_rivcan": 0.0, "per_dw_tank": 0.0, "per_dw_oth": 0.0, "per_loc_dw_wp": 5.2, "per_loc_dw_np": 26.5, "per_loc_dw_aw": 68.3, "per_light_elec": 54.6, "per_light_kero": 42.7, "per_light_solr": 0.3, "per_light_oil": 0.0, "per_light_oth": 0.0, "per_light_no": 2.4, "per_hh_latrine": 5.5, "per_fl_sewer": 0.0, "per_fl_septict": 4.3, "per_fl_othsys": 0.6, "per_pl_wslab": 0.0, "per_pl_without": 0.3, "per_ns_open": 0.0, "per_sl_ns_hum": 0.0, "per_sl_ns_anml": 0.3, "per_hh_no_lat": 94.5, "per_as_pub": 0.0, "per_as_open": 94.5, "per_hh_bathrm": 3.0, "per_hh_en_wrf": 10.1, "per_hh_no_btrm": 86.9, "per_wwoc_drain": 1.8, "per_wwoc_open": 11.6, "per_wwoc_nodrn": 86.6, "per_cook_fire": 93.9, "per_cook_resdu": 3.4, "per_cook_cwdng": 0.0, "per_cook_coal": 0.0, "per_cook_kero": 0.0, "per_cook_lpng": 2.4, "per_cook_elec": 0.0, "per_cook_biogs": 0.3, "per_cook_oth": 0.0, "per_cook_no": 0.0, "per_kf_inside": 90.2, "per_kf_in_has": 7.0, "per_kf_in_does": 83.2, "per_kf_outside": 9.8, "per_kf_out_has": 4.3, "per_kf_out_dos": 5.5, "per_kf_no_cook": 0.0, "per_hh_banking": 18.3, "per_hh_radio": 14.6, "per_hh_tv": 20.7, "per_hh_cmp_int": 0.0, "per_hh_cmp_wnt": 3.7, "per_hh_ph_ll": 0.0, "per_hh_ph_mob": 56.4, "per_hh_ph_bth": 0.6, "per_hh_bcycl": 22.0, "per_hh_2wheel": 5.8, "per_hh_4wheel": 0.0, "per_hh_tvcomp": 0.9, "per_hh_no_ast": 35.1, "per_hs_perma": 7.6, "per_hs_sperma": 84.8, "per_hs_temp": 7.6, "per_hs_servc": 5.2, "per_hs_nservc": 2.4, "per_hs_unclss": 0.0, "avghhsz_cy": 5.32919255, "st_areashape": 18479614.39932099, "st_lengthshape": 18859.0451362798}, "geometry": {"type": "Polygon", "coordinates": [[[77.26796999973105, 23.86399000038895], [77.26484999983235, 23.862540000198603], [77.25776999978578, 23.857920000214712], [77.2516399995932, 23.856130000253433], [77.24477000050726, 23.855059999656564], [77.23824000028156, 23.855879999722642], [77.23826000037305, 23.85573000015851], [77.23996000006451, 23.85307999976504], [77.24032999996037, 23.850419999673736], [77.24012999994383, 23.848119999639174], [77.23840000011516, 23.846340000738625], [77.2362900003449, 23.84510000003012], [77.23455000047048, 23.841730000356517], [77.23455000047048, 23.841549999611313], [77.23453999952642, 23.840309999921068], [77.23527999931814, 23.836060000639787], [77.23507000015417, 23.830749999706963], [77.23373000031283, 23.82967999998187], [77.23102999964034, 23.829029999902332], [77.23315000035467, 23.826780000458697], [77.23791999971613, 23.824840000334948], [77.24178000030489, 23.82375000006828], [77.24286999990095, 23.823440000212468], [77.24916999997282, 23.822739999828507], [77.25203999962629, 23.823640000098173], [77.25234000010026, 23.823549999530343], [77.25337999946761, 23.825229999563234], [77.25971000057504, 23.83003000000314], [77.26582999982357, 23.831639999935042], [77.26774999962302, 23.83199999992691], [77.27060000008332, 23.83112000010022], [77.27116999999573, 23.830059999796674], [77.27231999986627, 23.82953000050542], [77.27346000058934, 23.82953000050542], [77.27669999924035, 23.829540000202034], [77.27880999990893, 23.830609999438405], [77.27998999991668, 23.830609999438405], [77.28459000029713, 23.83974000004745], [77.28518000030101, 23.84117000059544], [77.28420999945722, 23.84273000031084], [77.28364999959055, 23.84556000070951], [77.28003000009967, 23.846789999473653], [77.27831999946416, 23.848210000411424], [77.27623999983112, 23.851210000523665], [77.27528999997713, 23.853160000040095], [77.27513000014356, 23.857940000157186], [77.27562999973576, 23.85893999991663], [77.27002000012519, 23.864320000011602], [77.26868000028387, 23.864320000011602], [77.26796999973105, 23.86399000038895]]]}}]}