{"type": "FeatureCollection", "features": [{"type": "Feature", "properties": {"premiumdata.sde.IN_Village_PCA.area": 17.75417843, "objectid": 270264, "id": "9161861376529", "name": "Jakhora", "subdistrict": "Talbehat", "district": "Lalitpur", "state": "Uttar Pradesh", "country": "India", "censusname": "Jakhora", "villagename_locallang": null, "lgd_villagename": "Jakhora", "lgd_villagecode": 152980, "lgd_subdistrictcode": 861, "lgd_districtcode": 161, "lgd_statecode": 9, "censuscode2001": "04598900", "censuscode2011": "152980", "censuscode2021": null, "level": "Village", "tru": "Rural", "no_hh": 1848, "tot_p": 9365, "tot_m": 4992, "tot_f": 4373, "per_tot_m": 53.30485852, "per_tot_f": 46.69514148, "p_06": 1545, "m_06": 773, "f_06": 772, "per_p_06": 16.49759744, "per_m_06": 50.03236246, "per_f_06": 49.96763754, "p_sc": 1739, "m_sc": 990, "f_sc": 749, "per_p_sc": 18.56914042, "per_m_sc": 56.9292697, "per_f_sc": 43.0707303, "p_st": 200, "m_st": 95, "f_st": 105, "per_p_st": 2.13561132, "per_m_st": 47.5, "per_f_st": 52.5, "p_lit": 5188, "m_lit": 3261, "f_lit": 1927, "per_p_lit": 55.39775761, "per_m_lit": 62.85659214, "per_f_lit": 37.14340786, "p_ill": 4177, "m_ill": 1731, "f_ill": 2446, "per_p_ill": 44.60224239, "per_m_ill": 41.44122576, "per_f_ill": 58.55877424, "tot_work_p": 3503, "tot_work_m": 2541, "tot_work_f": 962, "per_tot_work_p": 37.40523225, "per_tot_work_m": 72.53782472, "per_tot_work_f": 27.46217528, "mainwork_p": 2337, "mainwork_m": 1899, "mainwork_f": 438, "per_mainwork_p": 24.95461826, "per_mainwork_m": 81.25802311, "per_mainwork_f": 18.74197689, "main_cl_p": 959, "main_cl_m": 843, "main_cl_f": 116, "per_main_cl_p": 41.03551562, "per_main_cl_m": 87.90406674, "per_main_cl_f": 12.09593326, "main_al_p": 383, "main_al_m": 262, "main_al_f": 121, "per_main_al_p": 16.38853231, "per_main_al_m": 68.4073107, "per_main_al_f": 31.5926893, "main_hh_p": 299, "main_hh_m": 220, "main_hh_f": 79, "per_main_hh_p": 12.79418057, "per_main_hh_m": 73.57859532, "per_main_hh_f": 26.42140468, "main_ot_p": 696, "main_ot_m": 574, "main_ot_f": 122, "per_main_ot_p": 29.7817715, "per_main_ot_m": 82.47126437, "per_main_ot_f": 17.52873563, "margwork_p": 1166, "margwork_m": 642, "margwork_f": 524, "per_margwork_p": 12.45061399, "per_margwork_m": 55.06003431, "per_margwork_f": 44.93996569, "marg_cl_p": 102, "marg_cl_m": 48, "marg_cl_f": 54, "per_marg_cl_p": 8.74785592, "per_marg_cl_m": 47.05882353, "per_marg_cl_f": 52.94117647, "marg_al_p": 694, "marg_al_m": 330, "marg_al_f": 364, "per_marg_al_p": 59.51972556, "per_marg_al_m": 47.55043228, "per_marg_al_f": 52.44956772, "marg_hh_p": 68, "marg_hh_m": 38, "marg_hh_f": 30, "per_marg_hh_p": 5.83190395, "per_marg_hh_m": 55.88235294, "per_marg_hh_f": 44.11764706, "marg_ot_p": 302, "marg_ot_m": 226, "marg_ot_f": 76, "per_marg_ot_p": 25.90051458, "per_marg_ot_m": 74.83443709000001, "per_marg_ot_f": 25.16556291, "margwork_3_6_p": 888, "margwork_3_6_m": 490, "margwork_3_6_f": 398, "per_margwork_3_6_p": 76.15780446, "per_margwork_3_6_m": 55.18018018, "per_margwork_3_6_f": 44.81981982, "marg_cl_3_6_p": 92, "marg_cl_3_6_m": 44, "marg_cl_3_6_f": 48, "per_marg_cl_3_6_p": 7.89022298, "per_marg_cl_3_6_m": 47.82608696, "per_marg_cl_3_6_f": 52.17391304, "marg_al_3_6_p": 549, "marg_al_3_6_m": 276, "marg_al_3_6_f": 273, "per_marg_al_3_6_p": 47.08404803000001, "per_marg_al_3_6_m": 50.27322404, "per_marg_al_3_6_f": 49.72677596, "marg_hh_3_6_p": 53, "marg_hh_3_6_m": 30, "marg_hh_3_6_f": 23, "per_marg_hh_3_6_p": 4.54545455, "per_marg_hh_3_6_m": 56.60377358, "per_marg_hh_3_6_f": 43.39622642, "marg_ot_3_6_p": 194, "marg_ot_3_6_m": 140, "marg_ot_3_6_f": 54, "per_marg_ot_3_6_p": 16.6380789, "per_marg_ot_3_6_m": 72.16494845, "per_marg_ot_3_6_f": 27.83505155, "margwork_0_3_p": 278, "margwork_0_3_m": 152, "margwork_0_3_f": 126, "per_margwork_0_3_p": 23.84219554, "per_margwork_0_3_m": 54.67625899, "per_margwork_0_3_f": 45.32374101, "marg_cl_0_3_p": 10, "marg_cl_0_3_m": 4, "marg_cl_0_3_f": 6, "per_marg_cl_0_3_p": 0.85763293, "per_marg_cl_0_3_m": 40.0, "per_marg_cl_0_3_f": 60.0, "marg_al_0_3_p": 145, "marg_al_0_3_m": 54, "marg_al_0_3_f": 91, "per_marg_al_0_3_p": 12.43567753, "per_marg_al_0_3_m": 37.24137931, "per_marg_al_0_3_f": 62.75862069, "marg_hh_0_3_p": 15, "marg_hh_0_3_m": 8, "marg_hh_0_3_f": 7, "per_marg_hh_0_3_p": 1.2864494, "per_marg_hh_0_3_m": 53.33333333, "per_marg_hh_0_3_f": 46.66666667000001, "marg_ot_0_3_p": 108, "marg_ot_0_3_m": 86, "marg_ot_0_3_f": 22, "per_marg_ot_0_3_p": 9.26243568, "per_marg_ot_0_3_m": 79.62962963, "per_marg_ot_0_3_f": 20.37037037, "non_work_p": 5862, "non_work_m": 2451, "non_work_f": 3411, "per_non_work_p": 62.59476775, "per_non_work_m": 41.81166837, "per_non_work_f": 58.18833163, "per_hc_tot_tot": 100, "per_hc_tot_god": 35.2, "per_hc_tot_liv": 58.9, "per_hc_tot_dil": 6.0, "per_hc_res_tot": 92.3, "per_hc_res_god": 31.4, "per_hc_res_liv": 55.2, "per_hc_res_dil": 5.7, "per_hc_oth_tot": 7.7, "per_hc_oth_god": 3.7, "per_hc_oth_liv": 3.6, "per_hc_oth_dil": 0.3, "per_mt_grsbam": 18.9, "per_mt_plastic": 0.5, "per_mt_h_tiles": 22.6, "per_mt_m_tiles": 0.1, "per_mt_b_brick": 0.7, "per_mt_stone": 54.8, "per_mt_asbstos": 0.5, "per_mt_concrte": 2.0, "per_mt_oth": 0.1, "per_mw_grsbam": 2.9, "per_mw_plastic": 0.6, "per_mw_mud": 28.5, "per_mw_wood": 0.0, "per_mw_no_mrtr": 0.8, "per_mw_st_mrtr": 2.6, "per_mw_asbstos": 0.0, "per_mw_b_brick": 62.4, "per_mw_concrte": 0.2, "per_mw_oth": 1.9, "per_mf_mud": 60.8, "per_mf_wood": 0.2, "per_mf_b_brick": 1.7, "per_mf_stone": 1.7, "per_mf_cement": 35.5, "per_mf_fl_tile": 0.1, "per_mf_oth": 0.0, "per_dw_n_exrm": 1.1, "per_dw_1_room": 40.2, "per_dw_2_room": 33.5, "per_dw_3_room": 12.0, "per_dw_4_room": 7.2, "per_dw_5_room": 2.0, "per_dw_6_room": 4.0, "per_hhsize_1": 5.8, "per_hhsize_2": 10.6, "per_hhsize_3": 9.5, "per_hhsize_4": 16.4, "per_hhsize_5": 19.6, "per_hhsize_6_8": 31.2, "per_hhsize_9p": 6.8, "per_ow_owned": 95.9, "per_ow_rented": 2.2, "per_ow_oth": 1.9, "per_mc_none": 11.1, "per_mcouple_1": 69.4, "per_mcouple_2": 14.5, "per_mcouple_3": 4.1, "per_mcouple_4": 0.7, "per_mcouple_5p": 0.2, "per_dw_t_ts": 0.4, "per_dw_t_unts": 0.3, "per_dw_c_well": 1.2, "per_dw_unc_wel": 19.2, "per_dw_hpump": 78.4, "per_dw_tw_bore": 0.4, "per_dw_spring": 0.0, "per_dw_rivcan": 0.1, "per_dw_tank": 0.0, "per_dw_oth": 0.0, "per_loc_dw_wp": 9.2, "per_loc_dw_np": 57.5, "per_loc_dw_aw": 33.3, "per_light_elec": 32.4, "per_light_kero": 66.5, "per_light_solr": 1.1, "per_light_oil": 0.1, "per_light_oth": 0.0, "per_light_no": 0.0, "per_hh_latrine": 15.5, "per_fl_sewer": 0.9, "per_fl_septict": 10.5, "per_fl_othsys": 1.2, "per_pl_wslab": 1.5, "per_pl_without": 0.8, "per_ns_open": 0.5, "per_sl_ns_hum": 0.0, "per_sl_ns_anml": 0.0, "per_hh_no_lat": 84.5, "per_as_pub": 0.1, "per_as_open": 84.5, "per_hh_bathrm": 12.0, "per_hh_en_wrf": 23.0, "per_hh_no_btrm": 64.9, "per_wwoc_drain": 21.4, "per_wwoc_open": 24.7, "per_wwoc_nodrn": 53.9, "per_cook_fire": 79.0, "per_cook_resdu": 4.2, "per_cook_cwdng": 7.5, "per_cook_coal": 0.0, "per_cook_kero": 0.0, "per_cook_lpng": 8.9, "per_cook_elec": 0.1, "per_cook_biogs": 0.1, "per_cook_oth": 0.0, "per_cook_no": 0.3, "per_kf_inside": 89.5, "per_kf_in_has": 17.9, "per_kf_in_does": 71.7, "per_kf_outside": 10.2, "per_kf_out_has": 2.6, "per_kf_out_dos": 7.5, "per_kf_no_cook": 0.3, "per_hh_banking": 64.5, "per_hh_radio": 9.4, "per_hh_tv": 22.8, "per_hh_cmp_int": 1.2, "per_hh_cmp_wnt": 23.0, "per_hh_ph_ll": 8.5, "per_hh_ph_mob": 52.0, "per_hh_ph_bth": 2.1, "per_hh_bcycl": 53.5, "per_hh_2wheel": 14.6, "per_hh_4wheel": 1.8, "per_hh_tvcomp": 2.8, "per_hh_no_ast": 20.0, "per_hs_perma": 59.4, "per_hs_sperma": 25.9, "per_hs_temp": 12.7, "per_hs_servc": 10.3, "per_hs_nservc": 2.4, "per_hs_unclss": 2.0, "avghhsz_cy": 5.06764069, "st_areashape": 21674245.386110347, "st_lengthshape": 22396.259856398865}, "geometry": {"type": "Polygon", "coordinates": [[[78.34319865508199, 24.922606980923113], [78.34273817687071, 24.922745521485034], [78.3422541160866, 24.923066535089333], [78.34182379072615, 24.92342214959643], [78.34081053330648, 24.9249783713633], [78.34046410700033, 24.92558564405469], [78.3396741545906, 24.926993650302897], [78.33950999016737, 24.92676041488906], [78.33899675659441, 24.926266861728884], [78.3381360807207, 24.92562453426796], [78.33696111217685, 24.924453413647296], [78.33543815515654, 24.923153534140496], [78.33094396823172, 24.91933576980421], [78.32916216345895, 24.91786914446858], [78.32652942683832, 24.916181224033362], [78.32598839849216, 24.91588737926799], [78.32535714515548, 24.915671496496415], [78.32459110140708, 24.915552511591606], [78.32364517631119, 24.91556942087171], [78.32210756148041, 24.915892503772337], [78.32112902574308, 24.91626937015708], [78.32074784811017, 24.916520574939717], [78.32043493615062, 24.91669329335938], [78.32001629427876, 24.91672311305168], [78.31966948169702, 24.9165542579916], [78.31937133804074, 24.916226261713078], [78.31860497808533, 24.913882488179503], [78.31809954458397, 24.91312850095892], [78.31700908864374, 24.91133796723726], [78.31637330779805, 24.910208483699655], [78.31508716555125, 24.907923562413394], [78.3144216477747, 24.906263697758455], [78.31429742514393, 24.90525849869593], [78.31431812502305, 24.904557501053308], [78.3143376418209, 24.903896546156187], [78.31437381248583, 24.9034164107036], [78.31437371726439, 24.902674812834007], [78.31434515622826, 24.90215298434693], [78.31422990327562, 24.901588952671947], [78.31398579508031, 24.90092153513646], [78.31374878806734, 24.90001376278574], [78.31331652234587, 24.897157009886392], [78.31313952189555, 24.896451148111804], [78.3129518584428, 24.896105802660475], [78.31248394757087, 24.89557317257891], [78.31141159358191, 24.89466492006531], [78.31111173863502, 24.894396990025893], [78.31031019077163, 24.893996459567088], [78.30937090422572, 24.893792964182733], [78.30845478073941, 24.893549959454628], [78.30784798134141, 24.893254428640066], [78.30731065046095, 24.892840338485264], [78.3070980848102, 24.89259457765423], [78.30695496881239, 24.892230275857223], [78.30635912167432, 24.89119340179931], [78.30621337361276, 24.89072333113766], [78.31173440228096, 24.887932820103575], [78.31459048523404, 24.886499754821326], [78.3154868799201, 24.885920458556143], [78.31630849345197, 24.88563998524962], [78.31754924382746, 24.88530966418133], [78.31861071472673, 24.88509520046406], [78.3198016337568, 24.884964068358812], [78.32101862548963, 24.88469327241177], [78.321812360705, 24.88461251699982], [78.322492140135, 24.884669274050783], [78.32388344276221, 24.884823647751606], [78.3246546284673, 24.88476237045449], [78.32596715603063, 24.884233319448246], [78.32670264358467, 24.88389055326857], [78.32907406657736, 24.88248544687336], [78.33028378824459, 24.881713313274926], [78.33060367831726, 24.88130022509482], [78.33092399149643, 24.880125490036892], [78.33117780509006, 24.878969169835983], [78.33122996397044, 24.87868983879355], [78.33121684048244, 24.87838886683021], [78.3309191747299, 24.87729922764129], [78.33056482079135, 24.876268333166607], [78.33038774398423, 24.875562472618554], [78.33024695821626, 24.875118062291648], [78.33012518349466, 24.874774340117387], [78.32967923373647, 24.87424228225191], [78.32905464230596, 24.87380607162477], [78.32866517232465, 24.873596105403873], [78.32850518327083, 24.87354309220183], [78.33164966226104, 24.871143643177234], [78.333585664649, 24.869587493230636], [78.33415757707462, 24.868927788853167], [78.33443122187649, 24.86913283542338], [78.33560786398169, 24.87060475379061], [78.33596418702734, 24.871194741339874], [78.33688710806543, 24.872700534733358], [78.33762351369766, 24.87382093204811], [78.33821581338869, 24.875358708889937], [78.33905523152951, 24.877463759251718], [78.3395514330447, 24.87815735771137], [78.33980502565278, 24.87850429035592], [78.34050813073745, 24.879263069894144], [78.3407913390038, 24.879350160947432], [78.3408885403108, 24.879344827114203], [78.341873004929, 24.88110332036744], [78.34211897173861, 24.88171062236885], [78.34238104084972, 24.882518760272998], [78.3427306175476, 24.884090669213773], [78.34288109344253, 24.884956213434045], [78.34287569187272, 24.886639721253644], [78.34290693258333, 24.887823046069098], [78.3431141047491, 24.888629836904407], [78.34325670601226, 24.889014140059437], [78.34355308627565, 24.889402193732796], [78.34400148394296, 24.88985408785655], [78.34458578144141, 24.89016898501437], [78.34497003670252, 24.890559178991833], [78.3450942081293, 24.8908227651274], [78.34512053236038, 24.891424699881476], [78.34508213656851, 24.89198498317385], [78.34504900759914, 24.892364997862593], [78.34519280901151, 24.89270923823473], [78.34598036381774, 24.893590289020743], [78.34741380282165, 24.894186446035587], [78.34784963844807, 24.8943173312272], [78.3481530812662, 24.89446501844771], [78.34823567327174, 24.894647426934768], [78.34857425548886, 24.89509661369286], [78.34934985282031, 24.89563663724703], [78.35071668623748, 24.896631990813304], [78.35192697743663, 24.897342921420268], [78.35250372100185, 24.89791817553049], [78.35337629416321, 24.898901473384313], [78.35408427620155, 24.89949995793711], [78.35448878667567, 24.899950734662607], [78.35516308817907, 24.900949255628486], [78.35580575910299, 24.901526083424645], [78.35603395813463, 24.90199262561801], [78.35626362860671, 24.90316070603812], [78.35629644226738, 24.903542320790212], [78.35626891968371, 24.90407209407148], [78.35621897335393, 24.904070387097693], [78.35571251487485, 24.90409815821388], [78.35549046301468, 24.904172932589443], [78.35542163499595, 24.904271477410045], [78.35539438729674, 24.904451194032138], [78.35551392162002, 24.904875004666145], [78.35695429022805, 24.907495562966137], [78.35723318568274, 24.908484438104818], [78.35865049004585, 24.91114449646387], [78.36092726564186, 24.914867626362163], [78.36189349266316, 24.916414335255407], [78.36324295266274, 24.918391218513154], [78.36364520746719, 24.918922095480276], [78.36379907719724, 24.919222328289504], [78.36405086508992, 24.919713602470477], [78.36434269089482, 24.92026182475193], [78.36452932667488, 24.920647162627375], [78.36454195608947, 24.92096814747811], [78.36453435903708, 24.92122852648005], [78.3645065346195, 24.921428269874312], [78.36439025399416, 24.92164591039979], [78.36418548392346, 24.921881460996374], [78.36376276100526, 24.922051577197426], [78.36334411284518, 24.922081503129984], [78.36292664956298, 24.92207137031788], [78.36184181887305, 24.922325641083322], [78.36139945159626, 24.922415100940917], [78.36080562476927, 24.922420723748083], [78.35999030573254, 24.922481094367136], [78.35981277258126, 24.922536911807043], [78.35939296828943, 24.922606871758386], [78.35875342440099, 24.922671506226095], [78.3582266765729, 24.92263866313218], [78.35743918824203, 24.92249927927407], [78.35693442218891, 24.922466966479956], [78.35600749107142, 24.922584719461724], [78.3552700999873, 24.92298768420327], [78.35451924675031, 24.92385129865625], [78.35410032819736, 24.92449375592357], [78.35271955202865, 24.924153583792542], [78.3506001846266, 24.9235861154652], [78.34938520601831, 24.923306915521007], [78.34885858754761, 24.92321088527742], [78.34782019167304, 24.92313566134432], [78.34692578945031, 24.923130506998543], [78.34637899212336, 24.92310054466091], [78.34550966367685, 24.922863015953432], [78.34492929451112, 24.922732386700403], [78.34405801941537, 24.922561370421878], [78.34319865508199, 24.922606980923113]]]}}]}