{"type": "FeatureCollection", "features": [{"type": "Feature", "properties": {"premiumdata.sde.IN_Village_PCA.area": 5.24336513, "objectid": 187029, "id": "21351280237555", "name": "Goida", "subdistrict": "Kundheigola", "district": "Deogarh", "state": "Odisha", "country": "India", "censusname": "Goida", "villagename_locallang": null, "lgd_villagename": "Goida", "lgd_villagecode": 383126, "lgd_subdistrictcode": 2802, "lgd_districtcode": 351, "lgd_statecode": 21, "censuscode2001": "00340400", "censuscode2011": "383126", "censuscode2021": null, "level": "Village", "tru": "Rural", "no_hh": 154, "tot_p": 732, "tot_m": 371, "tot_f": 361, "per_tot_m": 50.68306011, "per_tot_f": 49.31693989, "p_06": 124, "m_06": 75, "f_06": 49, "per_p_06": 16.93989071, "per_m_06": 60.48387097000001, "per_f_06": 39.51612903, "p_sc": 386, "m_sc": 190, "f_sc": 196, "per_p_sc": 52.73224044, "per_m_sc": 49.22279793000001, "per_f_sc": 50.77720207, "p_st": 346, "m_st": 181, "f_st": 165, "per_p_st": 47.26775956, "per_m_st": 52.31213873, "per_f_st": 47.68786127000001, "p_lit": 277, "m_lit": 174, "f_lit": 103, "per_p_lit": 37.84153005, "per_m_lit": 62.81588448, "per_f_lit": 37.18411552, "p_ill": 455, "m_ill": 197, "f_ill": 258, "per_p_ill": 62.15846995, "per_m_ill": 43.2967033, "per_f_ill": 56.7032967, "tot_work_p": 463, "tot_work_m": 227, "tot_work_f": 236, "per_tot_work_p": 63.25136612, "per_tot_work_m": 49.02807775, "per_tot_work_f": 50.97192225, "mainwork_p": 299, "mainwork_m": 173, "mainwork_f": 126, "per_mainwork_p": 40.84699454, "per_mainwork_m": 57.85953177, "per_mainwork_f": 42.14046823, "main_cl_p": 3, "main_cl_m": 3, "main_cl_f": 0, "per_main_cl_p": 1.00334448, "per_main_cl_m": 100.0, "per_main_cl_f": 0.0, "main_al_p": 113, "main_al_m": 65, "main_al_f": 48, "per_main_al_p": 37.79264214, "per_main_al_m": 57.52212389, "per_main_al_f": 42.47787611, "main_hh_p": 174, "main_hh_m": 99, "main_hh_f": 75, "per_main_hh_p": 58.19397993, "per_main_hh_m": 56.89655172000001, "per_main_hh_f": 43.10344828, "main_ot_p": 9, "main_ot_m": 6, "main_ot_f": 3, "per_main_ot_p": 3.01003344, "per_main_ot_m": 66.66666667, "per_main_ot_f": 33.33333333, "margwork_p": 164, "margwork_m": 54, "margwork_f": 110, "per_margwork_p": 22.40437158, "per_margwork_m": 32.92682927, "per_margwork_f": 67.07317073, "marg_cl_p": 0, "marg_cl_m": 0, "marg_cl_f": 0, "per_marg_cl_p": 0.0, "per_marg_cl_m": 0.0, "per_marg_cl_f": 0.0, "marg_al_p": 67, "marg_al_m": 33, "marg_al_f": 34, "per_marg_al_p": 40.85365854, "per_marg_al_m": 49.25373134, "per_marg_al_f": 50.74626866, "marg_hh_p": 97, "marg_hh_m": 21, "marg_hh_f": 76, "per_marg_hh_p": 59.14634146, "per_marg_hh_m": 21.64948454, "per_marg_hh_f": 78.35051546, "marg_ot_p": 0, "marg_ot_m": 0, "marg_ot_f": 0, "per_marg_ot_p": 0.0, "per_marg_ot_m": 0.0, "per_marg_ot_f": 0.0, "margwork_3_6_p": 149, "margwork_3_6_m": 47, "margwork_3_6_f": 102, "per_margwork_3_6_p": 90.85365854, "per_margwork_3_6_m": 31.54362416, "per_margwork_3_6_f": 68.45637584, "marg_cl_3_6_p": 0, "marg_cl_3_6_m": 0, "marg_cl_3_6_f": 0, "per_marg_cl_3_6_p": 0.0, "per_marg_cl_3_6_m": 0.0, "per_marg_cl_3_6_f": 0.0, "marg_al_3_6_p": 54, "marg_al_3_6_m": 27, "marg_al_3_6_f": 27, "per_marg_al_3_6_p": 32.92682927, "per_marg_al_3_6_m": 50.0, "per_marg_al_3_6_f": 50.0, "marg_hh_3_6_p": 95, "marg_hh_3_6_m": 20, "marg_hh_3_6_f": 75, "per_marg_hh_3_6_p": 57.92682927, "per_marg_hh_3_6_m": 21.05263158, "per_marg_hh_3_6_f": 78.94736842, "marg_ot_3_6_p": 0, "marg_ot_3_6_m": 0, "marg_ot_3_6_f": 0, "per_marg_ot_3_6_p": 0.0, "per_marg_ot_3_6_m": 0.0, "per_marg_ot_3_6_f": 0.0, "margwork_0_3_p": 15, "margwork_0_3_m": 7, "margwork_0_3_f": 8, "per_margwork_0_3_p": 9.14634146, "per_margwork_0_3_m": 46.66666667000001, "per_margwork_0_3_f": 53.33333333, "marg_cl_0_3_p": 0, "marg_cl_0_3_m": 0, "marg_cl_0_3_f": 0, "per_marg_cl_0_3_p": 0.0, "per_marg_cl_0_3_m": 0.0, "per_marg_cl_0_3_f": 0.0, "marg_al_0_3_p": 13, "marg_al_0_3_m": 6, "marg_al_0_3_f": 7, "per_marg_al_0_3_p": 7.92682927, "per_marg_al_0_3_m": 46.15384615, "per_marg_al_0_3_f": 53.84615385, "marg_hh_0_3_p": 2, "marg_hh_0_3_m": 1, "marg_hh_0_3_f": 1, "per_marg_hh_0_3_p": 1.2195122, "per_marg_hh_0_3_m": 50.0, "per_marg_hh_0_3_f": 50.0, "marg_ot_0_3_p": 0, "marg_ot_0_3_m": 0, "marg_ot_0_3_f": 0, "per_marg_ot_0_3_p": 0.0, "per_marg_ot_0_3_m": 0.0, "per_marg_ot_0_3_f": 0.0, "non_work_p": 269, "non_work_m": 144, "non_work_f": 125, "per_non_work_p": 36.74863388, "per_non_work_m": 53.53159851, "per_non_work_f": 46.46840149000001, "per_hc_tot_tot": 100, "per_hc_tot_god": 2.6, "per_hc_tot_liv": 96.8, "per_hc_tot_dil": 0.6, "per_hc_res_tot": 100.0, "per_hc_res_god": 2.6, "per_hc_res_liv": 96.8, "per_hc_res_dil": 0.6, "per_hc_oth_tot": 0.0, "per_hc_oth_god": 0.0, "per_hc_oth_liv": 0.0, "per_hc_oth_dil": 0.0, "per_mt_grsbam": 46.2, "per_mt_plastic": 0.0, "per_mt_h_tiles": 14.1, "per_mt_m_tiles": 39.1, "per_mt_b_brick": 0.0, "per_mt_stone": 0.0, "per_mt_asbstos": 0.6, "per_mt_concrte": 0.0, "per_mt_oth": 0.0, "per_mw_grsbam": 0.0, "per_mw_plastic": 0.0, "per_mw_mud": 3.8, "per_mw_wood": 45.5, "per_mw_no_mrtr": 1.9, "per_mw_st_mrtr": 0.0, "per_mw_asbstos": 0.0, "per_mw_b_brick": 48.7, "per_mw_concrte": 0.0, "per_mw_oth": 0.0, "per_mf_mud": 98.1, "per_mf_wood": 0.0, "per_mf_b_brick": 0.0, "per_mf_stone": 0.0, "per_mf_cement": 1.9, "per_mf_fl_tile": 0.0, "per_mf_oth": 0.0, "per_dw_n_exrm": 0.0, "per_dw_1_room": 47.4, "per_dw_2_room": 47.4, "per_dw_3_room": 4.5, "per_dw_4_room": 0.0, "per_dw_5_room": 0.0, "per_dw_6_room": 0.6, "per_hhsize_1": 4.5, "per_hhsize_2": 8.3, "per_hhsize_3": 12.8, "per_hhsize_4": 22.4, "per_hhsize_5": 19.9, "per_hhsize_6_8": 28.2, "per_hhsize_9p": 3.8, "per_ow_owned": 98.7, "per_ow_rented": 1.3, "per_ow_oth": 0.0, "per_mc_none": 10.9, "per_mcouple_1": 74.4, "per_mcouple_2": 14.1, "per_mcouple_3": 0.6, "per_mcouple_4": 0.0, "per_mcouple_5p": 0.0, "per_dw_t_ts": 0.0, "per_dw_t_unts": 0.0, "per_dw_c_well": 0.0, "per_dw_unc_wel": 6.4, "per_dw_hpump": 85.9, "per_dw_tw_bore": 0.6, "per_dw_spring": 0.0, "per_dw_rivcan": 7.1, "per_dw_tank": 0.0, "per_dw_oth": 0.0, "per_loc_dw_wp": 0.0, "per_loc_dw_np": 89.1, "per_loc_dw_aw": 10.9, "per_light_elec": 0.0, "per_light_kero": 100.0, "per_light_solr": 0.0, "per_light_oil": 0.0, "per_light_oth": 0.0, "per_light_no": 0.0, "per_hh_latrine": 0.0, "per_fl_sewer": 0.0, "per_fl_septict": 0.0, "per_fl_othsys": 0.0, "per_pl_wslab": 0.0, "per_pl_without": 0.0, "per_ns_open": 0.0, "per_sl_ns_hum": 0.0, "per_sl_ns_anml": 0.0, "per_hh_no_lat": 100.0, "per_as_pub": 0.0, "per_as_open": 100.0, "per_hh_bathrm": 0.0, "per_hh_en_wrf": 0.0, "per_hh_no_btrm": 100.0, "per_wwoc_drain": 0.0, "per_wwoc_open": 0.0, "per_wwoc_nodrn": 100.0, "per_cook_fire": 99.4, "per_cook_resdu": 0.0, "per_cook_cwdng": 0.0, "per_cook_coal": 0.0, "per_cook_kero": 0.0, "per_cook_lpng": 0.0, "per_cook_elec": 0.0, "per_cook_biogs": 0.0, "per_cook_oth": 0.0, "per_cook_no": 0.6, "per_kf_inside": 98.7, "per_kf_in_has": 98.7, "per_kf_in_does": 0.0, "per_kf_outside": 0.6, "per_kf_out_has": 0.0, "per_kf_out_dos": 0.6, "per_kf_no_cook": 0.6, "per_hh_banking": 88.5, "per_hh_radio": 9.0, "per_hh_tv": 0.6, "per_hh_cmp_int": 0.0, "per_hh_cmp_wnt": 0.0, "per_hh_ph_ll": 0.0, "per_hh_ph_mob": 1.9, "per_hh_ph_bth": 0.0, "per_hh_bcycl": 61.5, "per_hh_2wheel": 0.0, "per_hh_4wheel": 0.0, "per_hh_tvcomp": 0.0, "per_hh_no_ast": 37.2, "per_hs_perma": 43.6, "per_hs_sperma": 17.3, "per_hs_temp": 39.1, "per_hs_servc": 39.1, "per_hs_nservc": 0.0, "per_hs_unclss": 0.0, "avghhsz_cy": 4.75324675, "st_areashape": 6071859.801526075, "st_lengthshape": 10310.000829418914}, "geometry": {"type": "Polygon", "coordinates": [[[84.81504256279354, 21.329091645408337], [84.81157890339972, 21.3292319242599], [84.80450099103787, 21.328811086466104], [84.79998317482783, 21.329793039998698], [84.79316747351092, 21.327599727509536], [84.79335704408699, 21.325304058194778], [84.79350763855953, 21.3226386607264], [84.79094754240774, 21.320674652188657], [84.78938090031518, 21.317682136900633], [84.79012364984995, 21.315883108903048], [84.79250044656467, 21.315191169703546], [84.79458014436376, 21.31394566942162], [84.79680839206983, 21.31186981381753], [84.79903663887758, 21.308548382817854], [84.79992793831934, 21.305503671897128], [84.80645871199445, 21.306224354623744], [84.81353662345796, 21.30734675899468], [84.81549434441455, 21.30748705862426], [84.81594612603553, 21.31169599356818], [84.81428959312574, 21.314361590539644], [84.8123318730675, 21.318850906147883], [84.81278365468849, 21.3226386607264], [84.81459078117251, 21.32642631672825], [84.81504256279354, 21.329091645408337]]]}}]}