{"type": "FeatureCollection", "features": [{"type": "Feature", "properties": {"premiumdata.sde.IN_Village_PCA.area": 1.29368553, "objectid": 464894, "id": "203432740197764", "name": "Pundiguttu", "subdistrict": "Tantnagar", "district": "West Singhbhum", "state": "Jharkhand", "country": "India", "censusname": "Pundigutu", "villagename_locallang": null, "lgd_villagename": "Pundiguttu", "lgd_villagecode": 378143, "lgd_subdistrictcode": 2740, "lgd_districtcode": 343, "lgd_statecode": 20, "censuscode2001": "03043800", "censuscode2011": "378143", "censuscode2021": null, "level": "Village", "tru": "Rural", "no_hh": 70, "tot_p": 369, "tot_m": 183, "tot_f": 186, "per_tot_m": 49.59349593, "per_tot_f": 50.40650407, "p_06": 66, "m_06": 32, "f_06": 34, "per_p_06": 17.88617886, "per_m_06": 48.48484848, "per_f_06": 51.51515152, "p_sc": 0, "m_sc": 0, "f_sc": 0, "per_p_sc": 0.0, "per_m_sc": 0.0, "per_f_sc": 0.0, "p_st": 369, "m_st": 183, "f_st": 186, "per_p_st": 100.0, "per_m_st": 49.59349593, "per_f_st": 50.40650407, "p_lit": 165, "m_lit": 101, "f_lit": 64, "per_p_lit": 44.71544715, "per_m_lit": 61.21212121, "per_f_lit": 38.78787879, "p_ill": 204, "m_ill": 82, "f_ill": 122, "per_p_ill": 55.28455285, "per_m_ill": 40.19607843, "per_f_ill": 59.80392157, "tot_work_p": 181, "tot_work_m": 93, "tot_work_f": 88, "per_tot_work_p": 49.05149051, "per_tot_work_m": 51.38121547, "per_tot_work_f": 48.61878453, "mainwork_p": 142, "mainwork_m": 84, "mainwork_f": 58, "per_mainwork_p": 38.48238482, "per_mainwork_m": 59.15492958, "per_mainwork_f": 40.84507042, "main_cl_p": 32, "main_cl_m": 25, "main_cl_f": 7, "per_main_cl_p": 22.53521127, "per_main_cl_m": 78.125, "per_main_cl_f": 21.875, "main_al_p": 57, "main_al_m": 22, "main_al_f": 35, "per_main_al_p": 40.14084507, "per_main_al_m": 38.59649123000001, "per_main_al_f": 61.40350877, "main_hh_p": 0, "main_hh_m": 0, "main_hh_f": 0, "per_main_hh_p": 0.0, "per_main_hh_m": 0.0, "per_main_hh_f": 0.0, "main_ot_p": 53, "main_ot_m": 37, "main_ot_f": 16, "per_main_ot_p": 37.32394366, "per_main_ot_m": 69.81132075000001, "per_main_ot_f": 30.18867925, "margwork_p": 39, "margwork_m": 9, "margwork_f": 30, "per_margwork_p": 10.56910569, "per_margwork_m": 23.07692308, "per_margwork_f": 76.92307692, "marg_cl_p": 5, "marg_cl_m": 2, "marg_cl_f": 3, "per_marg_cl_p": 12.82051282, "per_marg_cl_m": 40.0, "per_marg_cl_f": 60.0, "marg_al_p": 24, "marg_al_m": 2, "marg_al_f": 22, "per_marg_al_p": 61.53846154, "per_marg_al_m": 8.33333333, "per_marg_al_f": 91.66666667, "marg_hh_p": 0, "marg_hh_m": 0, "marg_hh_f": 0, "per_marg_hh_p": 0.0, "per_marg_hh_m": 0.0, "per_marg_hh_f": 0.0, "marg_ot_p": 10, "marg_ot_m": 5, "marg_ot_f": 5, "per_marg_ot_p": 25.64102564, "per_marg_ot_m": 50.0, "per_marg_ot_f": 50.0, "margwork_3_6_p": 24, "margwork_3_6_m": 4, "margwork_3_6_f": 20, "per_margwork_3_6_p": 61.53846154, "per_margwork_3_6_m": 16.66666667, "per_margwork_3_6_f": 83.33333332999999, "marg_cl_3_6_p": 4, "marg_cl_3_6_m": 2, "marg_cl_3_6_f": 2, "per_marg_cl_3_6_p": 10.25641026, "per_marg_cl_3_6_m": 50.0, "per_marg_cl_3_6_f": 50.0, "marg_al_3_6_p": 17, "marg_al_3_6_m": 2, "marg_al_3_6_f": 15, "per_marg_al_3_6_p": 43.58974359, "per_marg_al_3_6_m": 11.76470588, "per_marg_al_3_6_f": 88.23529412, "marg_hh_3_6_p": 0, "marg_hh_3_6_m": 0, "marg_hh_3_6_f": 0, "per_marg_hh_3_6_p": 0.0, "per_marg_hh_3_6_m": 0.0, "per_marg_hh_3_6_f": 0.0, "marg_ot_3_6_p": 3, "marg_ot_3_6_m": 0, "marg_ot_3_6_f": 3, "per_marg_ot_3_6_p": 7.69230769, "per_marg_ot_3_6_m": 0.0, "per_marg_ot_3_6_f": 100.0, "margwork_0_3_p": 15, "margwork_0_3_m": 5, "margwork_0_3_f": 10, "per_margwork_0_3_p": 38.46153846, "per_margwork_0_3_m": 33.33333333, "per_margwork_0_3_f": 66.66666667, "marg_cl_0_3_p": 1, "marg_cl_0_3_m": 0, "marg_cl_0_3_f": 1, "per_marg_cl_0_3_p": 2.56410256, "per_marg_cl_0_3_m": 0.0, "per_marg_cl_0_3_f": 100.0, "marg_al_0_3_p": 7, "marg_al_0_3_m": 0, "marg_al_0_3_f": 7, "per_marg_al_0_3_p": 17.94871795, "per_marg_al_0_3_m": 0.0, "per_marg_al_0_3_f": 100.0, "marg_hh_0_3_p": 0, "marg_hh_0_3_m": 0, "marg_hh_0_3_f": 0, "per_marg_hh_0_3_p": 0.0, "per_marg_hh_0_3_m": 0.0, "per_marg_hh_0_3_f": 0.0, "marg_ot_0_3_p": 7, "marg_ot_0_3_m": 5, "marg_ot_0_3_f": 2, "per_marg_ot_0_3_p": 17.94871795, "per_marg_ot_0_3_m": 71.42857143, "per_marg_ot_0_3_f": 28.57142857, "non_work_p": 188, "non_work_m": 90, "non_work_f": 98, "per_non_work_p": 50.94850949, "per_non_work_m": 47.87234043, "per_non_work_f": 52.12765957, "per_hc_tot_tot": 100, "per_hc_tot_god": 64.2, "per_hc_tot_liv": 29.9, "per_hc_tot_dil": 6.0, "per_hc_res_tot": 79.1, "per_hc_res_god": 49.3, "per_hc_res_liv": 23.9, "per_hc_res_dil": 6.0, "per_hc_oth_tot": 20.9, "per_hc_oth_god": 14.9, "per_hc_oth_liv": 6.0, "per_hc_oth_dil": 0.0, "per_mt_grsbam": 22.4, "per_mt_plastic": 0.0, "per_mt_h_tiles": 74.6, "per_mt_m_tiles": 1.5, "per_mt_b_brick": 0.0, "per_mt_stone": 0.0, "per_mt_asbstos": 1.5, "per_mt_concrte": 0.0, "per_mt_oth": 0.0, "per_mw_grsbam": 0.0, "per_mw_plastic": 0.0, "per_mw_mud": 95.5, "per_mw_wood": 0.0, "per_mw_no_mrtr": 1.5, "per_mw_st_mrtr": 1.5, "per_mw_asbstos": 0.0, "per_mw_b_brick": 1.5, "per_mw_concrte": 0.0, "per_mw_oth": 0.0, "per_mf_mud": 97.0, "per_mf_wood": 0.0, "per_mf_b_brick": 0.0, "per_mf_stone": 0.0, "per_mf_cement": 3.0, "per_mf_fl_tile": 0.0, "per_mf_oth": 0.0, "per_dw_n_exrm": 1.5, "per_dw_1_room": 29.9, "per_dw_2_room": 38.8, "per_dw_3_room": 20.9, "per_dw_4_room": 4.5, "per_dw_5_room": 4.5, "per_dw_6_room": 0.0, "per_hhsize_1": 1.5, "per_hhsize_2": 9.0, "per_hhsize_3": 10.4, "per_hhsize_4": 13.4, "per_hhsize_5": 14.9, "per_hhsize_6_8": 46.3, "per_hhsize_9p": 4.5, "per_ow_owned": 100.0, "per_ow_rented": 0.0, "per_ow_oth": 0.0, "per_mc_none": 13.4, "per_mcouple_1": 58.2, "per_mcouple_2": 28.4, "per_mcouple_3": 0.0, "per_mcouple_4": 0.0, "per_mcouple_5p": 0.0, "per_dw_t_ts": 0.0, "per_dw_t_unts": 0.0, "per_dw_c_well": 0.0, "per_dw_unc_wel": 0.0, "per_dw_hpump": 100.0, "per_dw_tw_bore": 0.0, "per_dw_spring": 0.0, "per_dw_rivcan": 0.0, "per_dw_tank": 0.0, "per_dw_oth": 0.0, "per_loc_dw_wp": 0.0, "per_loc_dw_np": 100.0, "per_loc_dw_aw": 0.0, "per_light_elec": 0.0, "per_light_kero": 91.0, "per_light_solr": 9.0, "per_light_oil": 0.0, "per_light_oth": 0.0, "per_light_no": 0.0, "per_hh_latrine": 4.5, "per_fl_sewer": 0.0, "per_fl_septict": 0.0, "per_fl_othsys": 0.0, "per_pl_wslab": 4.5, "per_pl_without": 0.0, "per_ns_open": 0.0, "per_sl_ns_hum": 0.0, "per_sl_ns_anml": 0.0, "per_hh_no_lat": 95.5, "per_as_pub": 0.0, "per_as_open": 95.5, "per_hh_bathrm": 0.0, "per_hh_en_wrf": 0.0, "per_hh_no_btrm": 100.0, "per_wwoc_drain": 0.0, "per_wwoc_open": 0.0, "per_wwoc_nodrn": 100.0, "per_cook_fire": 100.0, "per_cook_resdu": 0.0, "per_cook_cwdng": 0.0, "per_cook_coal": 0.0, "per_cook_kero": 0.0, "per_cook_lpng": 0.0, "per_cook_elec": 0.0, "per_cook_biogs": 0.0, "per_cook_oth": 0.0, "per_cook_no": 0.0, "per_kf_inside": 97.0, "per_kf_in_has": 10.4, "per_kf_in_does": 86.6, "per_kf_outside": 3.0, "per_kf_out_has": 0.0, "per_kf_out_dos": 3.0, "per_kf_no_cook": 0.0, "per_hh_banking": 76.1, "per_hh_radio": 17.9, "per_hh_tv": 1.5, "per_hh_cmp_int": 0.0, "per_hh_cmp_wnt": 0.0, "per_hh_ph_ll": 1.5, "per_hh_ph_mob": 20.9, "per_hh_ph_bth": 1.5, "per_hh_bcycl": 67.2, "per_hh_2wheel": 6.0, "per_hh_4wheel": 1.5, "per_hh_tvcomp": 0.0, "per_hh_no_ast": 26.9, "per_hs_perma": 4.5, "per_hs_sperma": 73.1, "per_hs_temp": 22.4, "per_hs_servc": 22.4, "per_hs_nservc": 0.0, "per_hs_unclss": 0.0, "avghhsz_cy": 5.27142857, "st_areashape": 1520956.84762447, "st_lengthshape": 5197.642811488544}, "geometry": {"type": "Polygon", "coordinates": [[[85.99326999956443, 22.412739999390453], [85.99390999979703, 22.412070000284796], [85.99419999932694, 22.411109999851334], [85.99477000013763, 22.408170000237774], [85.99551999997509, 22.40673000069654], [85.99655000019501, 22.405229999875246], [85.99713000015315, 22.40491000021794], [85.99848999918765, 22.40476999951331], [85.99960000067186, 22.404649999746226], [86.00131000040903, 22.404560000268166], [86.0027499998095, 22.405609999964657], [86.00326000034573, 22.406630000093546], [86.00354999987564, 22.40870999964423], [86.00371999975496, 22.410369999903455], [86.00422999939289, 22.411870000049472], [86.0046100002328, 22.412410000024025], [86.00359999920602, 22.41287999953912], [86.00268999953502, 22.41373000026037], [86.00216999985133, 22.415330000062923], [86.00211000047518, 22.416619999683036], [86.00182000004699, 22.41767999960293], [86.00153000051706, 22.419769999661675], [86.00129999946499, 22.421000000084465], [86.00136999978517, 22.42121999998371], [86.00049999939881, 22.420939999749482], [85.99843999985728, 22.419709999625677], [85.99728999998673, 22.418369999818132], [85.99644000059017, 22.416719999739055], [85.99564000052402, 22.41490000057221], [85.9944799997094, 22.413719999959703], [85.99351999980968, 22.41281999984859], [85.99326999956443, 22.412739999390453]]]}}]}