{"type": "FeatureCollection", "features": [{"type": "Feature", "properties": {"premiumdata.sde.IN_Village_PCA.area": 11.73676204, "objectid": 599135, "id": "102211066310820", "name": "Purandaha Rajwaramai Tola Mus", "subdistrict": "Sonbarsa", "district": "Sitamarhi", "state": "Bihar", "country": "India", "censusname": "Purandaha Rajwaramai tola Mus.", "villagename_locallang": null, "lgd_villagename": "Purandaha Rajwaramai Tola Mus.", "lgd_villagecode": 219111, "lgd_subdistrictcode": 1066, "lgd_districtcode": 221, "lgd_statecode": 10, "censuscode2001": "00314600", "censuscode2011": "219111", "censuscode2021": null, "level": "Village", "tru": "Rural", "no_hh": 3346, "tot_p": 15238, "tot_m": 7995, "tot_f": 7243, "per_tot_m": 52.46751542, "per_tot_f": 47.53248458, "p_06": 2971, "m_06": 1519, "f_06": 1452, "per_p_06": 19.49730936, "per_m_06": 51.12756648, "per_f_06": 48.87243352, "p_sc": 2343, "m_sc": 1215, "f_sc": 1128, "per_p_sc": 15.3760336, "per_m_sc": 51.85659411, "per_f_sc": 48.14340589, "p_st": 0, "m_st": 0, "f_st": 0, "per_p_st": 0.0, "per_m_st": 0.0, "per_f_st": 0.0, "p_lit": 6143, "m_lit": 3951, "f_lit": 2192, "per_p_lit": 40.31368946, "per_m_lit": 64.3171089, "per_f_lit": 35.6828911, "p_ill": 9095, "m_ill": 4044, "f_ill": 5051, "per_p_ill": 59.68631054, "per_m_ill": 44.4639912, "per_f_ill": 55.5360088, "tot_work_p": 4789, "tot_work_m": 3896, "tot_work_f": 893, "per_tot_work_p": 31.42800893, "per_tot_work_m": 81.35310086, "per_tot_work_f": 18.64689914, "mainwork_p": 3487, "mainwork_m": 3111, "mainwork_f": 376, "per_mainwork_p": 22.88358052, "per_mainwork_m": 89.21709206, "per_mainwork_f": 10.78290794, "main_cl_p": 1195, "main_cl_m": 1127, "main_cl_f": 68, "per_main_cl_p": 34.27014626, "per_main_cl_m": 94.30962343, "per_main_cl_f": 5.69037657, "main_al_p": 1762, "main_al_m": 1555, "main_al_f": 207, "per_main_al_p": 50.53054201, "per_main_al_m": 88.25198638, "per_main_al_f": 11.74801362, "main_hh_p": 109, "main_hh_m": 77, "main_hh_f": 32, "per_main_hh_p": 3.12589619, "per_main_hh_m": 70.64220183, "per_main_hh_f": 29.35779817, "main_ot_p": 421, "main_ot_m": 352, "main_ot_f": 69, "per_main_ot_p": 12.07341554, "per_main_ot_m": 83.61045131, "per_main_ot_f": 16.38954869, "margwork_p": 1302, "margwork_m": 785, "margwork_f": 517, "per_margwork_p": 8.5444284, "per_margwork_m": 60.29185868, "per_margwork_f": 39.70814132, "marg_cl_p": 146, "marg_cl_m": 123, "marg_cl_f": 23, "per_marg_cl_p": 11.21351767, "per_marg_cl_m": 84.24657534, "per_marg_cl_f": 15.75342466, "marg_al_p": 954, "marg_al_m": 498, "marg_al_f": 456, "per_marg_al_p": 73.2718894, "per_marg_al_m": 52.20125786, "per_marg_al_f": 47.79874214, "marg_hh_p": 77, "marg_hh_m": 54, "marg_hh_f": 23, "per_marg_hh_p": 5.91397849, "per_marg_hh_m": 70.12987013, "per_marg_hh_f": 29.87012987, "marg_ot_p": 125, "marg_ot_m": 110, "marg_ot_f": 15, "per_marg_ot_p": 9.60061444, "per_marg_ot_m": 88.0, "per_marg_ot_f": 12.0, "margwork_3_6_p": 1173, "margwork_3_6_m": 706, "margwork_3_6_f": 467, "per_margwork_3_6_p": 90.0921659, "per_margwork_3_6_m": 60.18755328, "per_margwork_3_6_f": 39.81244672, "marg_cl_3_6_p": 132, "marg_cl_3_6_m": 114, "marg_cl_3_6_f": 18, "per_marg_cl_3_6_p": 10.13824885, "per_marg_cl_3_6_m": 86.36363636, "per_marg_cl_3_6_f": 13.63636364, "marg_al_3_6_p": 880, "marg_al_3_6_m": 458, "marg_al_3_6_f": 422, "per_marg_al_3_6_p": 67.58832565, "per_marg_al_3_6_m": 52.04545455, "per_marg_al_3_6_f": 47.95454545, "marg_hh_3_6_p": 57, "marg_hh_3_6_m": 42, "marg_hh_3_6_f": 15, "per_marg_hh_3_6_p": 4.37788018, "per_marg_hh_3_6_m": 73.68421053, "per_marg_hh_3_6_f": 26.31578947, "marg_ot_3_6_p": 104, "marg_ot_3_6_m": 92, "marg_ot_3_6_f": 12, "per_marg_ot_3_6_p": 7.98771121, "per_marg_ot_3_6_m": 88.46153846, "per_marg_ot_3_6_f": 11.53846154, "margwork_0_3_p": 129, "margwork_0_3_m": 79, "margwork_0_3_f": 50, "per_margwork_0_3_p": 9.9078341, "per_margwork_0_3_m": 61.24031008, "per_margwork_0_3_f": 38.75968992, "marg_cl_0_3_p": 14, "marg_cl_0_3_m": 9, "marg_cl_0_3_f": 5, "per_marg_cl_0_3_p": 1.07526882, "per_marg_cl_0_3_m": 64.28571429, "per_marg_cl_0_3_f": 35.71428571, "marg_al_0_3_p": 74, "marg_al_0_3_m": 40, "marg_al_0_3_f": 34, "per_marg_al_0_3_p": 5.68356375, "per_marg_al_0_3_m": 54.05405405, "per_marg_al_0_3_f": 45.94594595, "marg_hh_0_3_p": 20, "marg_hh_0_3_m": 12, "marg_hh_0_3_f": 8, "per_marg_hh_0_3_p": 1.53609831, "per_marg_hh_0_3_m": 60.0, "per_marg_hh_0_3_f": 40.0, "marg_ot_0_3_p": 21, "marg_ot_0_3_m": 18, "marg_ot_0_3_f": 3, "per_marg_ot_0_3_p": 1.61290323, "per_marg_ot_0_3_m": 85.71428571, "per_marg_ot_0_3_f": 14.28571429, "non_work_p": 10449, "non_work_m": 4099, "non_work_f": 6350, "per_non_work_p": 68.57199107, "per_non_work_m": 39.22863432, "per_non_work_f": 60.77136568, "per_hc_tot_tot": 100, "per_hc_tot_god": 40.2, "per_hc_tot_liv": 51.3, "per_hc_tot_dil": 8.5, "per_hc_res_tot": 81.8, "per_hc_res_god": 38.6, "per_hc_res_liv": 41.7, "per_hc_res_dil": 1.5, "per_hc_oth_tot": 18.2, "per_hc_oth_god": 1.6, "per_hc_oth_liv": 9.6, "per_hc_oth_dil": 7.0, "per_mt_grsbam": 37.0, "per_mt_plastic": 0.4, "per_mt_h_tiles": 39.1, "per_mt_m_tiles": 0.6, "per_mt_b_brick": 2.2, "per_mt_stone": 4.6, "per_mt_asbstos": 0.4, "per_mt_concrte": 15.6, "per_mt_oth": 0.0, "per_mw_grsbam": 49.4, "per_mw_plastic": 0.3, "per_mw_mud": 8.1, "per_mw_wood": 1.8, "per_mw_no_mrtr": 2.0, "per_mw_st_mrtr": 0.3, "per_mw_asbstos": 0.1, "per_mw_b_brick": 37.4, "per_mw_concrte": 0.2, "per_mw_oth": 0.4, "per_mf_mud": 88.5, "per_mf_wood": 0.2, "per_mf_b_brick": 3.1, "per_mf_stone": 0.2, "per_mf_cement": 7.8, "per_mf_fl_tile": 0.2, "per_mf_oth": 0.0, "per_dw_n_exrm": 0.8, "per_dw_1_room": 41.3, "per_dw_2_room": 39.7, "per_dw_3_room": 10.6, "per_dw_4_room": 5.1, "per_dw_5_room": 1.0, "per_dw_6_room": 1.4, "per_hhsize_1": 3.4, "per_hhsize_2": 17.8, "per_hhsize_3": 14.6, "per_hhsize_4": 17.7, "per_hhsize_5": 17.5, "per_hhsize_6_8": 26.6, "per_hhsize_9p": 2.4, "per_ow_owned": 99.1, "per_ow_rented": 0.9, "per_ow_oth": 0.1, "per_mc_none": 7.1, "per_mcouple_1": 84.2, "per_mcouple_2": 7.4, "per_mcouple_3": 1.2, "per_mcouple_4": 0.1, "per_mcouple_5p": 0.0, "per_dw_t_ts": 0.1, "per_dw_t_unts": 0.2, "per_dw_c_well": 0.1, "per_dw_unc_wel": 0.0, "per_dw_hpump": 99.5, "per_dw_tw_bore": 0.0, "per_dw_spring": 0.0, "per_dw_rivcan": 0.0, "per_dw_tank": 0.1, "per_dw_oth": 0.0, "per_loc_dw_wp": 25.5, "per_loc_dw_np": 53.6, "per_loc_dw_aw": 20.9, "per_light_elec": 0.3, "per_light_kero": 95.4, "per_light_solr": 0.7, "per_light_oil": 1.4, "per_light_oth": 2.2, "per_light_no": 0.0, "per_hh_latrine": 16.7, "per_fl_sewer": 1.7, "per_fl_septict": 14.0, "per_fl_othsys": 0.6, "per_pl_wslab": 0.1, "per_pl_without": 0.2, "per_ns_open": 0.1, "per_sl_ns_hum": 0.0, "per_sl_ns_anml": 0.0, "per_hh_no_lat": 83.3, "per_as_pub": 1.1, "per_as_open": 82.2, "per_hh_bathrm": 5.2, "per_hh_en_wrf": 14.2, "per_hh_no_btrm": 80.5, "per_wwoc_drain": 0.9, "per_wwoc_open": 11.0, "per_wwoc_nodrn": 88.1, "per_cook_fire": 49.7, "per_cook_resdu": 15.6, "per_cook_cwdng": 31.6, "per_cook_coal": 0.0, "per_cook_kero": 0.0, "per_cook_lpng": 2.2, "per_cook_elec": 0.1, "per_cook_biogs": 0.6, "per_cook_oth": 0.0, "per_cook_no": 0.2, "per_kf_inside": 80.1, "per_kf_in_has": 30.5, "per_kf_in_does": 49.6, "per_kf_outside": 19.8, "per_kf_out_has": 14.6, "per_kf_out_dos": 5.2, "per_kf_no_cook": 0.2, "per_hh_banking": 35.2, "per_hh_radio": 36.4, "per_hh_tv": 2.8, "per_hh_cmp_int": 0.0, "per_hh_cmp_wnt": 5.5, "per_hh_ph_ll": 0.1, "per_hh_ph_mob": 34.1, "per_hh_ph_bth": 1.1, "per_hh_bcycl": 41.4, "per_hh_2wheel": 3.3, "per_hh_4wheel": 0.5, "per_hh_tvcomp": 0.1, "per_hh_no_ast": 34.8, "per_hs_perma": 38.1, "per_hs_sperma": 25.9, "per_hs_temp": 35.6, "per_hs_servc": 4.9, "per_hs_nservc": 30.7, "per_hs_unclss": 0.5, "avghhsz_cy": 4.55409444, "st_areashape": 14794477.111099016, "st_lengthshape": 33411.596667805024}, "geometry": {"type": "Polygon", "coordinates": [[[85.59080330230653, 26.842947436234354], [85.58873175582029, 26.843286343887044], [85.58783897864991, 26.84248972430253], [85.5876147995792, 26.84156064724604], [85.58757386514833, 26.839633892658135], [85.58730592734346, 26.83750912620359], [85.58911360898632, 26.834716035115175], [85.59087632994924, 26.830429346912528], [85.59115079491293, 26.82968408685532], [85.59131599778861, 26.829417461061915], [85.59122316139559, 26.828668537353934], [85.59055014897461, 26.827325406658183], [85.59053413560636, 26.826996046781662], [85.59129083058764, 26.82607812087867], [85.59124767821633, 26.825117102289045], [85.59107779511801, 26.823799750004763], [85.59175989399809, 26.823170886654296], [85.59309121521545, 26.822648709226122], [85.59312315212043, 26.821556570773634], [85.59426767765761, 26.8208228012996], [85.59463381300112, 26.820478900113034], [85.59487362275777, 26.819963952678265], [85.59531704555508, 26.81856842923884], [85.59653498411222, 26.81717105031296], [85.59684305505071, 26.81594282727901], [85.59763311256333, 26.814442738772847], [85.59754009920216, 26.813648728794636], [85.59785504674413, 26.813034303618306], [85.59842659984365, 26.812432714105984], [85.59776027178673, 26.811622072358126], [85.59751710322918, 26.811058555854267], [85.59733755605507, 26.809908252372118], [85.59744798685125, 26.808184155104794], [85.59841332813367, 26.808114119252718], [85.59882284042729, 26.808812563626525], [85.60030360717195, 26.80953995270668], [85.60296959313618, 26.809695798739046], [85.60566990642236, 26.8095898122999], [85.60570399389412, 26.807631237744385], [85.60740081804104, 26.80669738486544], [85.60995186725962, 26.80552660767289], [85.6106541099616, 26.804960778984462], [85.61164924297212, 26.80319831088436], [85.61211992784163, 26.800972374358945], [85.61193275307241, 26.799045979965808], [85.61099917891337, 26.796422073258846], [85.61125208161533, 26.79532484936215], [85.61368898370738, 26.793129966391763], [85.61320337512603, 26.792233230145012], [85.61105102338337, 26.790578045673104], [85.60978606880089, 26.789678707151882], [85.60993209623854, 26.788148623914545], [85.61115187095211, 26.787513763399915], [85.61148262255489, 26.787147331648768], [85.61151484242919, 26.786217623662516], [85.61081448888423, 26.78575464973136], [85.61021815126603, 26.784826527782705], [85.60939909164449, 26.783398103761108], [85.60853810315703, 26.78141028439416], [85.60905990216624, 26.781052393833544], [85.610301186141, 26.780868807195322], [85.61147886939365, 26.78281971691316], [85.6125179929036, 26.783877559100585], [85.61300511424787, 26.785270732376745], [85.61463327027616, 26.786530057224294], [85.61626026208782, 26.78589410987062], [85.61722008501944, 26.78572468502923], [85.61803271539853, 26.78512688331833], [85.61892552041667, 26.785986487373155], [85.62044153525648, 26.786781257973256], [85.62144122631871, 26.78651239015246], [85.621739318771, 26.78694031968404], [85.62152049096443, 26.78767190589639], [85.62070960870695, 26.788802210116927], [85.62074858031887, 26.78996638633047], [85.62189949916595, 26.791321672791884], [85.62179492269047, 26.79318114666518], [85.62260685058699, 26.793905519946758], [85.62471410600408, 26.79399930221166], [85.625308083748, 26.794196257946357], [85.62609311428828, 26.795890888898413], [85.62712714075731, 26.796831315287026], [85.62828554885891, 26.797410373227315], [85.62934301956025, 26.79784076900929], [85.63078728955153, 26.798148248894808], [85.62997019185056, 26.79890406394513], [85.62952883428014, 26.799279742102], [85.6282760509714, 26.80057819661984], [85.62775680227931, 26.801721343167955], [85.62835924574652, 26.802929058615515], [85.62914308961228, 26.804222091320177], [85.6291072621038, 26.805548934961212], [85.62737495090991, 26.80635227102868], [85.6265982818883, 26.80721628196665], [85.62608820679188, 26.809604774663416], [85.62616994180465, 26.811495356271685], [85.62614385203385, 26.814252640858275], [85.62529693655365, 26.815179971278138], [85.62518775531402, 26.815613463981432], [85.62652721167461, 26.817636067821958], [85.6284964903556, 26.82147556268768], [85.62912668996847, 26.82190701511544], [85.62931505141218, 26.822601532933593], [85.6292428313549, 26.823567429296443], [85.62976710522273, 26.825420676347807], [85.63065955091477, 26.826050005790393], [85.63102958225167, 26.826910974296343], [85.63129359621534, 26.82764123089099], [85.63358135191906, 26.82740043601594], [85.63443255505811, 26.82773202163762], [85.63469700021317, 26.828593273961026], [85.63451254194933, 26.829063052701926], [85.6336993842592, 26.829561650742612], [85.63359437838902, 26.831254182778444], [85.63411794258776, 26.832845676257957], [85.63541448463057, 26.83397027582051], [85.63682978215733, 26.835988113700896], [85.6345405451317, 26.837321010768598], [85.63439617688239, 26.837786217304792], [85.63203108341921, 26.839020038818187], [85.62972008111254, 26.839915236346602], [85.62915958357921, 26.837791347264325], [85.62904568618434, 26.836830483354944], [85.62959530511957, 26.835700824622645], [85.62918089790594, 26.83363968078255], [85.62765454525388, 26.831450668989543], [85.62576986361815, 26.83195653422452], [85.6239944746131, 26.832024379809535], [85.62143730786744, 26.831435497887348], [85.61961831014693, 26.8304745808561], [85.61857902404189, 26.829547656959114], [85.61775676641797, 26.828791634966713], [85.61568449319469, 26.828828608073056], [85.61246859364782, 26.829865786846455], [85.61032331613802, 26.830669954186362], [85.60813551058604, 26.830743250661584], [85.60739086111442, 26.829084410206445], [85.60678907341739, 26.826459649119624], [85.60323932308002, 26.82690169779709], [85.60079508893863, 26.827007049187973], [85.59790694241812, 26.826680311335032], [85.59627751707032, 26.8267519333727], [85.59650380269039, 26.82838044973106], [85.59710232590972, 26.830003514168162], [85.59646519399782, 26.830578166190133], [85.59527904681855, 26.830883396962108], [85.5941001526369, 26.83191519583629], [85.59384780778875, 26.83331014287561], [85.59388877725391, 26.8352008436362], [85.59371308924224, 26.838653391980706], [85.59275547167464, 26.839720711767345], [85.59231632395976, 26.84088152611698], [85.59150606872635, 26.842444819774805], [85.59080330230653, 26.842947436234354]], [[85.61409123402024, 26.8166802761087], [85.61801520633531, 26.81696798621379], [85.61960506718302, 26.817162436825658], [85.62127010624025, 26.817225736802584], [85.62333976267111, 26.81648924875983], [85.62191266217981, 26.809191584364616], [85.62123752164993, 26.807266495361418], [85.61502237015158, 26.807481148794338], [85.61335818269727, 26.807616306389434], [85.61313521725049, 26.807088890673587], [85.61232170292917, 26.80748812660361], [85.61232335133771, 26.807984540144407], [85.61291847173871, 26.808515485065037], [85.61325563461767, 26.810175289666834], [85.6132708224342, 26.814922483009333], [85.61409123402024, 26.8166802761087]]]}}]}