{"type": "FeatureCollection", "features": [{"type": "Feature", "properties": {"premiumdata.sde.IN_Village_PCA.area": 1.60847815, "objectid": 189883, "id": "21361285672802", "name": "Asia", "subdistrict": "Nandipada", "district": "Kendujhar", "state": "Odisha", "country": "India", "censusname": "Asia", "villagename_locallang": null, "lgd_villagename": "Asia", "lgd_villagecode": 387163, "lgd_subdistrictcode": 2856, "lgd_districtcode": 361, "lgd_statecode": 21, "censuscode2001": "00733800", "censuscode2011": "387163", "censuscode2021": null, "level": "Village", "tru": "Rural", "no_hh": 138, "tot_p": 625, "tot_m": 330, "tot_f": 295, "per_tot_m": 52.8, "per_tot_f": 47.2, "p_06": 102, "m_06": 59, "f_06": 43, "per_p_06": 16.32, "per_m_06": 57.84313725, "per_f_06": 42.15686275, "p_sc": 28, "m_sc": 8, "f_sc": 20, "per_p_sc": 4.48, "per_m_sc": 28.57142857, "per_f_sc": 71.42857143, "p_st": 481, "m_st": 257, "f_st": 224, "per_p_st": 76.96, "per_m_st": 53.43035343, "per_f_st": 46.56964657, "p_lit": 350, "m_lit": 209, "f_lit": 141, "per_p_lit": 56.0, "per_m_lit": 59.71428571, "per_f_lit": 40.28571429, "p_ill": 275, "m_ill": 121, "f_ill": 154, "per_p_ill": 44.0, "per_m_ill": 44.0, "per_f_ill": 56.0, "tot_work_p": 257, "tot_work_m": 164, "tot_work_f": 93, "per_tot_work_p": 41.12, "per_tot_work_m": 63.81322957, "per_tot_work_f": 36.18677043, "mainwork_p": 239, "mainwork_m": 157, "mainwork_f": 82, "per_mainwork_p": 38.24, "per_mainwork_m": 65.69037657, "per_mainwork_f": 34.30962343, "main_cl_p": 7, "main_cl_m": 5, "main_cl_f": 2, "per_main_cl_p": 2.92887029, "per_main_cl_m": 71.42857143, "per_main_cl_f": 28.57142857, "main_al_p": 183, "main_al_m": 110, "main_al_f": 73, "per_main_al_p": 76.56903766, "per_main_al_m": 60.10928962, "per_main_al_f": 39.89071038, "main_hh_p": 15, "main_hh_m": 15, "main_hh_f": 0, "per_main_hh_p": 6.27615063, "per_main_hh_m": 100.0, "per_main_hh_f": 0.0, "main_ot_p": 34, "main_ot_m": 27, "main_ot_f": 7, "per_main_ot_p": 14.22594142, "per_main_ot_m": 79.41176471, "per_main_ot_f": 20.58823529, "margwork_p": 18, "margwork_m": 7, "margwork_f": 11, "per_margwork_p": 2.88, "per_margwork_m": 38.88888889, "per_margwork_f": 61.11111111, "marg_cl_p": 1, "marg_cl_m": 1, "marg_cl_f": 0, "per_marg_cl_p": 5.55555556, "per_marg_cl_m": 100.0, "per_marg_cl_f": 0.0, "marg_al_p": 16, "marg_al_m": 6, "marg_al_f": 10, "per_marg_al_p": 88.88888889, "per_marg_al_m": 37.5, "per_marg_al_f": 62.5, "marg_hh_p": 1, "marg_hh_m": 0, "marg_hh_f": 1, "per_marg_hh_p": 5.55555556, "per_marg_hh_m": 0.0, "per_marg_hh_f": 100.0, "marg_ot_p": 0, "marg_ot_m": 0, "marg_ot_f": 0, "per_marg_ot_p": 0.0, "per_marg_ot_m": 0.0, "per_marg_ot_f": 0.0, "margwork_3_6_p": 15, "margwork_3_6_m": 4, "margwork_3_6_f": 11, "per_margwork_3_6_p": 83.33333332999999, "per_margwork_3_6_m": 26.66666667, "per_margwork_3_6_f": 73.33333332999999, "marg_cl_3_6_p": 1, "marg_cl_3_6_m": 1, "marg_cl_3_6_f": 0, "per_marg_cl_3_6_p": 5.55555556, "per_marg_cl_3_6_m": 100.0, "per_marg_cl_3_6_f": 0.0, "marg_al_3_6_p": 13, "marg_al_3_6_m": 3, "marg_al_3_6_f": 10, "per_marg_al_3_6_p": 72.22222222, "per_marg_al_3_6_m": 23.07692308, "per_marg_al_3_6_f": 76.92307692, "marg_hh_3_6_p": 1, "marg_hh_3_6_m": 0, "marg_hh_3_6_f": 1, "per_marg_hh_3_6_p": 5.55555556, "per_marg_hh_3_6_m": 0.0, "per_marg_hh_3_6_f": 100.0, "marg_ot_3_6_p": 0, "marg_ot_3_6_m": 0, "marg_ot_3_6_f": 0, "per_marg_ot_3_6_p": 0.0, "per_marg_ot_3_6_m": 0.0, "per_marg_ot_3_6_f": 0.0, "margwork_0_3_p": 3, "margwork_0_3_m": 3, "margwork_0_3_f": 0, "per_margwork_0_3_p": 16.66666667, "per_margwork_0_3_m": 100.0, "per_margwork_0_3_f": 0.0, "marg_cl_0_3_p": 0, "marg_cl_0_3_m": 0, "marg_cl_0_3_f": 0, "per_marg_cl_0_3_p": 0.0, "per_marg_cl_0_3_m": 0.0, "per_marg_cl_0_3_f": 0.0, "marg_al_0_3_p": 3, "marg_al_0_3_m": 3, "marg_al_0_3_f": 0, "per_marg_al_0_3_p": 16.66666667, "per_marg_al_0_3_m": 100.0, "per_marg_al_0_3_f": 0.0, "marg_hh_0_3_p": 0, "marg_hh_0_3_m": 0, "marg_hh_0_3_f": 0, "per_marg_hh_0_3_p": 0.0, "per_marg_hh_0_3_m": 0.0, "per_marg_hh_0_3_f": 0.0, "marg_ot_0_3_p": 0, "marg_ot_0_3_m": 0, "marg_ot_0_3_f": 0, "per_marg_ot_0_3_p": 0.0, "per_marg_ot_0_3_m": 0.0, "per_marg_ot_0_3_f": 0.0, "non_work_p": 368, "non_work_m": 166, "non_work_f": 202, "per_non_work_p": 58.88, "per_non_work_m": 45.10869565, "per_non_work_f": 54.89130435, "per_hc_tot_tot": 100, "per_hc_tot_god": 0.0, "per_hc_tot_liv": 100.0, "per_hc_tot_dil": 0.0, "per_hc_res_tot": 99.3, "per_hc_res_god": 0.0, "per_hc_res_liv": 99.3, "per_hc_res_dil": 0.0, "per_hc_oth_tot": 0.7, "per_hc_oth_god": 0.0, "per_hc_oth_liv": 0.7, "per_hc_oth_dil": 0.0, "per_mt_grsbam": 92.7, "per_mt_plastic": 0.0, "per_mt_h_tiles": 2.9, "per_mt_m_tiles": 0.0, "per_mt_b_brick": 0.0, "per_mt_stone": 0.0, "per_mt_asbstos": 0.7, "per_mt_concrte": 3.6, "per_mt_oth": 0.0, "per_mw_grsbam": 0.0, "per_mw_plastic": 0.0, "per_mw_mud": 91.2, "per_mw_wood": 0.0, "per_mw_no_mrtr": 0.0, "per_mw_st_mrtr": 1.5, "per_mw_asbstos": 0.0, "per_mw_b_brick": 7.3, "per_mw_concrte": 0.0, "per_mw_oth": 0.0, "per_mf_mud": 97.8, "per_mf_wood": 0.0, "per_mf_b_brick": 0.0, "per_mf_stone": 0.0, "per_mf_cement": 1.5, "per_mf_fl_tile": 0.0, "per_mf_oth": 0.7, "per_dw_n_exrm": 0.7, "per_dw_1_room": 92.0, "per_dw_2_room": 7.3, "per_dw_3_room": 0.0, "per_dw_4_room": 0.0, "per_dw_5_room": 0.0, "per_dw_6_room": 0.0, "per_hhsize_1": 4.4, "per_hhsize_2": 13.9, "per_hhsize_3": 17.5, "per_hhsize_4": 22.6, "per_hhsize_5": 10.9, "per_hhsize_6_8": 25.5, "per_hhsize_9p": 5.1, "per_ow_owned": 97.1, "per_ow_rented": 2.9, "per_ow_oth": 0.0, "per_mc_none": 15.3, "per_mcouple_1": 80.3, "per_mcouple_2": 4.4, "per_mcouple_3": 0.0, "per_mcouple_4": 0.0, "per_mcouple_5p": 0.0, "per_dw_t_ts": 0.7, "per_dw_t_unts": 0.0, "per_dw_c_well": 0.0, "per_dw_unc_wel": 7.3, "per_dw_hpump": 0.0, "per_dw_tw_bore": 86.1, "per_dw_spring": 5.1, "per_dw_rivcan": 0.7, "per_dw_tank": 0.0, "per_dw_oth": 0.0, "per_loc_dw_wp": 0.0, "per_loc_dw_np": 0.0, "per_loc_dw_aw": 100.0, "per_light_elec": 0.0, "per_light_kero": 100.0, "per_light_solr": 0.0, "per_light_oil": 0.0, "per_light_oth": 0.0, "per_light_no": 0.0, "per_hh_latrine": 0.7, "per_fl_sewer": 0.0, "per_fl_septict": 0.0, "per_fl_othsys": 0.0, "per_pl_wslab": 0.7, "per_pl_without": 0.0, "per_ns_open": 0.0, "per_sl_ns_hum": 0.0, "per_sl_ns_anml": 0.0, "per_hh_no_lat": 99.3, "per_as_pub": 0.0, "per_as_open": 99.3, "per_hh_bathrm": 0.0, "per_hh_en_wrf": 0.7, "per_hh_no_btrm": 99.3, "per_wwoc_drain": 0.0, "per_wwoc_open": 0.0, "per_wwoc_nodrn": 100.0, "per_cook_fire": 98.5, "per_cook_resdu": 0.0, "per_cook_cwdng": 0.7, "per_cook_coal": 0.0, "per_cook_kero": 0.0, "per_cook_lpng": 0.0, "per_cook_elec": 0.0, "per_cook_biogs": 0.0, "per_cook_oth": 0.0, "per_cook_no": 0.7, "per_kf_inside": 86.9, "per_kf_in_has": 86.1, "per_kf_in_does": 0.7, "per_kf_outside": 12.4, "per_kf_out_has": 8.0, "per_kf_out_dos": 4.4, "per_kf_no_cook": 0.7, "per_hh_banking": 47.4, "per_hh_radio": 24.1, "per_hh_tv": 0.7, "per_hh_cmp_int": 0.0, "per_hh_cmp_wnt": 0.0, "per_hh_ph_ll": 0.0, "per_hh_ph_mob": 6.6, "per_hh_ph_bth": 0.0, "per_hh_bcycl": 53.3, "per_hh_2wheel": 0.0, "per_hh_4wheel": 0.0, "per_hh_tvcomp": 0.0, "per_hh_no_ast": 43.8, "per_hs_perma": 6.6, "per_hs_sperma": 2.9, "per_hs_temp": 90.5, "per_hs_servc": 90.5, "per_hs_nservc": 0.0, "per_hs_unclss": 0.0, "avghhsz_cy": 4.52898551, "st_areashape": 1859508.65445768, "st_lengthshape": 5689.147711450938}, "geometry": {"type": "Polygon", "coordinates": [[[86.23898858761294, 21.19358481275237], [86.23833896013541, 21.195302493320916], [86.23746471341272, 21.19643535133743], [86.23638530225887, 21.197871360209632], [86.2358571737202, 21.19943989166456], [86.2346914775867, 21.201136243024393], [86.23397457168431, 21.202419356225892], [86.23335486259737, 21.202864925191736], [86.23281606656467, 21.202196492094338], [86.23163086531143, 21.200714837064123], [86.23010538672011, 21.200380411255193], [86.22989995459105, 21.199283090357504], [86.22968257756365, 21.19855091767583], [86.22970679165215, 21.197644177590966], [86.22916912480177, 21.19755261163707], [86.22909090669336, 21.19662985333947], [86.22899846466072, 21.196013557585434], [86.22882524521944, 21.195627809754747], [86.22826332924627, 21.195578057868182], [86.22781168866078, 21.195579380352957], [86.22753294322474, 21.19526608932079], [86.22729466779056, 21.19501100561645], [86.22716456927955, 21.194248035031617], [86.22692600728281, 21.193822244919915], [86.22707633585405, 21.192212762239468], [86.22686177594338, 21.19106275775431], [86.22752449906109, 21.19005740316607], [86.22760471412437, 21.18947338296655], [86.22760972043545, 21.18893181924608], [86.2279532011658, 21.18807292516878], [86.22785424275409, 21.187638954105925], [86.22862043472455, 21.187873701300887], [86.22921439270557, 21.188270186301356], [86.23009010907208, 21.18837352107425], [86.2315271449304, 21.18663721474771], [86.23204964372722, 21.18614612358831], [86.23371528106242, 21.18593629561522], [86.2349077676526, 21.185504717174155], [86.23610303003706, 21.18582663692587], [86.2368857510087, 21.18618457106384], [86.2373625156761, 21.18651817716588], [86.23795628590923, 21.18744456507116], [86.23834611701328, 21.188709530292115], [86.23929452684924, 21.189777157985237], [86.23924934338707, 21.190454904149938], [86.23895843116884, 21.192054857726347], [86.23898858761294, 21.19358481275237]]]}}]}