{"type": "FeatureCollection", "features": [{"type": "Feature", "properties": {"premiumdata.sde.IN_Village_PCA.area": 4.3084895, "objectid": 458969, "id": "223803257265384", "name": "Khunti Toli", "subdistrict": "Jashpur", "district": "Jashpur", "state": "Chhattisgarh", "country": "India", "censusname": "Khunti Toli", "villagename_locallang": "\u0916\u0941\u091f\u0940\u091f\u094b\u0932\u0940", "lgd_villagename": "Khunti Toli", "lgd_villagecode": 433856, "lgd_subdistrictcode": 3257, "lgd_districtcode": 380, "lgd_statecode": 22, "censuscode2001": "00281200", "censuscode2011": "433856", "censuscode2021": null, "level": "Village", "tru": "Rural", "no_hh": 122, "tot_p": 614, "tot_m": 289, "tot_f": 325, "per_tot_m": 47.06840391, "per_tot_f": 52.93159609, "p_06": 121, "m_06": 53, "f_06": 68, "per_p_06": 19.70684039, "per_m_06": 43.80165289, "per_f_06": 56.19834711, "p_sc": 27, "m_sc": 9, "f_sc": 18, "per_p_sc": 4.39739414, "per_m_sc": 33.33333333, "per_f_sc": 66.66666667, "p_st": 554, "m_st": 265, "f_st": 289, "per_p_st": 90.22801303, "per_m_st": 47.83393502, "per_f_st": 52.16606498, "p_lit": 319, "m_lit": 174, "f_lit": 145, "per_p_lit": 51.95439739, "per_m_lit": 54.54545455, "per_f_lit": 45.45454545, "p_ill": 295, "m_ill": 115, "f_ill": 180, "per_p_ill": 48.04560261, "per_m_ill": 38.98305085, "per_f_ill": 61.01694915, "tot_work_p": 335, "tot_work_m": 169, "tot_work_f": 166, "per_tot_work_p": 54.56026059, "per_tot_work_m": 50.44776119, "per_tot_work_f": 49.55223881, "mainwork_p": 114, "mainwork_m": 110, "mainwork_f": 4, "per_mainwork_p": 18.56677524, "per_mainwork_m": 96.49122807, "per_mainwork_f": 3.50877193, "main_cl_p": 102, "main_cl_m": 102, "main_cl_f": 0, "per_main_cl_p": 89.47368421, "per_main_cl_m": 100.0, "per_main_cl_f": 0.0, "main_al_p": 3, "main_al_m": 2, "main_al_f": 1, "per_main_al_p": 2.63157895, "per_main_al_m": 66.66666667, "per_main_al_f": 33.33333333, "main_hh_p": 0, "main_hh_m": 0, "main_hh_f": 0, "per_main_hh_p": 0.0, "per_main_hh_m": 0.0, "per_main_hh_f": 0.0, "main_ot_p": 9, "main_ot_m": 6, "main_ot_f": 3, "per_main_ot_p": 7.89473684, "per_main_ot_m": 66.66666667, "per_main_ot_f": 33.33333333, "margwork_p": 221, "margwork_m": 59, "margwork_f": 162, "per_margwork_p": 35.99348534, "per_margwork_m": 26.69683258, "per_margwork_f": 73.30316742, "marg_cl_p": 181, "marg_cl_m": 55, "marg_cl_f": 126, "per_marg_cl_p": 81.90045249, "per_marg_cl_m": 30.38674033, "per_marg_cl_f": 69.61325967, "marg_al_p": 38, "marg_al_m": 4, "marg_al_f": 34, "per_marg_al_p": 17.19457014, "per_marg_al_m": 10.52631579, "per_marg_al_f": 89.47368421, "marg_hh_p": 0, "marg_hh_m": 0, "marg_hh_f": 0, "per_marg_hh_p": 0.0, "per_marg_hh_m": 0.0, "per_marg_hh_f": 0.0, "marg_ot_p": 2, "marg_ot_m": 0, "marg_ot_f": 2, "per_marg_ot_p": 0.90497738, "per_marg_ot_m": 0.0, "per_marg_ot_f": 100.0, "margwork_3_6_p": 215, "margwork_3_6_m": 57, "margwork_3_6_f": 158, "per_margwork_3_6_p": 97.28506787, "per_margwork_3_6_m": 26.51162791, "per_margwork_3_6_f": 73.48837209, "marg_cl_3_6_p": 177, "marg_cl_3_6_m": 54, "marg_cl_3_6_f": 123, "per_marg_cl_3_6_p": 80.09049774, "per_marg_cl_3_6_m": 30.50847458, "per_marg_cl_3_6_f": 69.49152542, "marg_al_3_6_p": 37, "marg_al_3_6_m": 3, "marg_al_3_6_f": 34, "per_marg_al_3_6_p": 16.74208145, "per_marg_al_3_6_m": 8.10810811, "per_marg_al_3_6_f": 91.89189189, "marg_hh_3_6_p": 0, "marg_hh_3_6_m": 0, "marg_hh_3_6_f": 0, "per_marg_hh_3_6_p": 0.0, "per_marg_hh_3_6_m": 0.0, "per_marg_hh_3_6_f": 0.0, "marg_ot_3_6_p": 1, "marg_ot_3_6_m": 0, "marg_ot_3_6_f": 1, "per_marg_ot_3_6_p": 0.45248869, "per_marg_ot_3_6_m": 0.0, "per_marg_ot_3_6_f": 100.0, "margwork_0_3_p": 6, "margwork_0_3_m": 2, "margwork_0_3_f": 4, "per_margwork_0_3_p": 2.71493213, "per_margwork_0_3_m": 33.33333333, "per_margwork_0_3_f": 66.66666667, "marg_cl_0_3_p": 4, "marg_cl_0_3_m": 1, "marg_cl_0_3_f": 3, "per_marg_cl_0_3_p": 1.80995475, "per_marg_cl_0_3_m": 25.0, "per_marg_cl_0_3_f": 75.0, "marg_al_0_3_p": 1, "marg_al_0_3_m": 1, "marg_al_0_3_f": 0, "per_marg_al_0_3_p": 0.45248869, "per_marg_al_0_3_m": 100.0, "per_marg_al_0_3_f": 0.0, "marg_hh_0_3_p": 0, "marg_hh_0_3_m": 0, "marg_hh_0_3_f": 0, "per_marg_hh_0_3_p": 0.0, "per_marg_hh_0_3_m": 0.0, "per_marg_hh_0_3_f": 0.0, "marg_ot_0_3_p": 1, "marg_ot_0_3_m": 0, "marg_ot_0_3_f": 1, "per_marg_ot_0_3_p": 0.45248869, "per_marg_ot_0_3_m": 0.0, "per_marg_ot_0_3_f": 100.0, "non_work_p": 279, "non_work_m": 120, "non_work_f": 159, "per_non_work_p": 45.43973941, "per_non_work_m": 43.01075269, "per_non_work_f": 56.98924731, "per_hc_tot_tot": 100, "per_hc_tot_god": 93.4, "per_hc_tot_liv": 6.6, "per_hc_tot_dil": 0.0, "per_hc_res_tot": 100.0, "per_hc_res_god": 93.4, "per_hc_res_liv": 6.6, "per_hc_res_dil": 0.0, "per_hc_oth_tot": 0.0, "per_hc_oth_god": 0.0, "per_hc_oth_liv": 0.0, "per_hc_oth_dil": 0.0, "per_mt_grsbam": 95.1, "per_mt_plastic": 0.0, "per_mt_h_tiles": 4.1, "per_mt_m_tiles": 0.0, "per_mt_b_brick": 0.0, "per_mt_stone": 0.0, "per_mt_asbstos": 0.0, "per_mt_concrte": 0.0, "per_mt_oth": 0.8, "per_mw_grsbam": 4.9, "per_mw_plastic": 0.0, "per_mw_mud": 95.1, "per_mw_wood": 0.0, "per_mw_no_mrtr": 0.0, "per_mw_st_mrtr": 0.0, "per_mw_asbstos": 0.0, "per_mw_b_brick": 0.0, "per_mw_concrte": 0.0, "per_mw_oth": 0.0, "per_mf_mud": 100.0, "per_mf_wood": 0.0, "per_mf_b_brick": 0.0, "per_mf_stone": 0.0, "per_mf_cement": 0.0, "per_mf_fl_tile": 0.0, "per_mf_oth": 0.0, "per_dw_n_exrm": 0.0, "per_dw_1_room": 59.8, "per_dw_2_room": 32.8, "per_dw_3_room": 6.6, "per_dw_4_room": 0.8, "per_dw_5_room": 0.0, "per_dw_6_room": 0.0, "per_hhsize_1": 0.8, "per_hhsize_2": 8.2, "per_hhsize_3": 18.9, "per_hhsize_4": 14.8, "per_hhsize_5": 23.8, "per_hhsize_6_8": 31.1, "per_hhsize_9p": 2.5, "per_ow_owned": 95.9, "per_ow_rented": 2.5, "per_ow_oth": 1.6, "per_mc_none": 2.5, "per_mcouple_1": 72.1, "per_mcouple_2": 23.8, "per_mcouple_3": 1.6, "per_mcouple_4": 0.0, "per_mcouple_5p": 0.0, "per_dw_t_ts": 0.0, "per_dw_t_unts": 0.0, "per_dw_c_well": 0.0, "per_dw_unc_wel": 1.6, "per_dw_hpump": 1.6, "per_dw_tw_bore": 0.0, "per_dw_spring": 19.7, "per_dw_rivcan": 77.0, "per_dw_tank": 0.0, "per_dw_oth": 0.0, "per_loc_dw_wp": 0.0, "per_loc_dw_np": 99.2, "per_loc_dw_aw": 0.8, "per_light_elec": 0.0, "per_light_kero": 99.2, "per_light_solr": 0.0, "per_light_oil": 0.8, "per_light_oth": 0.0, "per_light_no": 0.0, "per_hh_latrine": 0.0, "per_fl_sewer": 0.0, "per_fl_septict": 0.0, "per_fl_othsys": 0.0, "per_pl_wslab": 0.0, "per_pl_without": 0.0, "per_ns_open": 0.0, "per_sl_ns_hum": 0.0, "per_sl_ns_anml": 0.0, "per_hh_no_lat": 100.0, "per_as_pub": 0.0, "per_as_open": 100.0, "per_hh_bathrm": 0.0, "per_hh_en_wrf": 0.0, "per_hh_no_btrm": 100.0, "per_wwoc_drain": 0.0, "per_wwoc_open": 0.0, "per_wwoc_nodrn": 100.0, "per_cook_fire": 100.0, "per_cook_resdu": 0.0, "per_cook_cwdng": 0.0, "per_cook_coal": 0.0, "per_cook_kero": 0.0, "per_cook_lpng": 0.0, "per_cook_elec": 0.0, "per_cook_biogs": 0.0, "per_cook_oth": 0.0, "per_cook_no": 0.0, "per_kf_inside": 100.0, "per_kf_in_has": 100.0, "per_kf_in_does": 0.0, "per_kf_outside": 0.0, "per_kf_out_has": 0.0, "per_kf_out_dos": 0.0, "per_kf_no_cook": 0.0, "per_hh_banking": 0.8, "per_hh_radio": 0.8, "per_hh_tv": 0.8, "per_hh_cmp_int": 0.0, "per_hh_cmp_wnt": 0.0, "per_hh_ph_ll": 0.0, "per_hh_ph_mob": 0.0, "per_hh_ph_bth": 0.0, "per_hh_bcycl": 17.2, "per_hh_2wheel": 0.8, "per_hh_4wheel": 0.0, "per_hh_tvcomp": 0.0, "per_hh_no_ast": 82.0, "per_hs_perma": 0.0, "per_hs_sperma": 4.1, "per_hs_temp": 95.1, "per_hs_servc": 90.2, "per_hs_nservc": 4.9, "per_hs_unclss": 0.8, "avghhsz_cy": 5.03278689, "st_areashape": 5095554.37571065, "st_lengthshape": 9789.014665530794}, "geometry": {"type": "Polygon", "coordinates": [[[84.08575711312538, 22.811119593101534], [84.08975013264813, 22.8116454094198], [84.0912818096149, 22.811896171787556], [84.0906295473787, 22.814524213687072], [84.09119997848241, 22.8175475513296], [84.09198432181148, 22.821490933155527], [84.09293069696332, 22.827346537748625], [84.09326779246864, 22.828720171120935], [84.09383822357233, 22.83121745483242], [84.09443212495951, 22.83304037024883], [84.0946237688473, 22.833929082118342], [84.09491800842534, 22.83461265377319], [84.09544745569085, 22.83554283438165], [84.09558839776568, 22.83597758703728], [84.09577486915406, 22.83612427599529], [84.09586206682204, 22.837375217631585], [84.09479250749195, 22.837922836122235], [84.09194035107495, 22.83923711266545], [84.08659255711943, 22.83923711266545], [84.08388186739339, 22.839098325924365], [84.08323651948992, 22.837186836275148], [84.08226678634405, 22.835504533712456], [84.08066957817563, 22.833559346920012], [84.08044140609347, 22.83256045562691], [84.08009361434806, 22.831122009743133], [84.07988642331769, 22.829245918650166], [84.07955367206509, 22.826617159868416], [84.07936352836384, 22.824295047079858], [84.07906154800297, 22.82172908115887], [84.07798498630525, 22.819782148302302], [84.07703426690071, 22.817854262596843], [84.07617861979597, 22.816057799643634], [84.07617861979597, 22.81404222662542], [84.0763284030898, 22.811797566555537], [84.0764098892692, 22.811039013274293], [84.07691542697513, 22.810922412079968], [84.08048062294553, 22.810790957078954], [84.08575711312538, 22.811119593101534]]]}}]}