{"type": "FeatureCollection", "features": [{"type": "Feature", "properties": {"premiumdata.sde.IN_Village_PCA.area": 2.62273851, "objectid": 118619, "id": "274684006630610", "name": "Nabipur", "subdistrict": "Morshi", "district": "Amravati", "state": "Maharashtra", "country": "India", "censusname": "Nabipur", "villagename_locallang": null, "lgd_villagename": "Nabipur", "lgd_villagecode": 532358, "lgd_subdistrictcode": 4006, "lgd_districtcode": 468, "lgd_statecode": 27, "censuscode2001": "00734100", "censuscode2011": "532358", "censuscode2021": null, "level": "Village", "tru": "Rural", "no_hh": 1, "tot_p": 4, "tot_m": 1, "tot_f": 3, "per_tot_m": 25.0, "per_tot_f": 75.0, "p_06": 0, "m_06": 0, "f_06": 0, "per_p_06": 0.0, "per_m_06": 0.0, "per_f_06": 0.0, "p_sc": 0, "m_sc": 0, "f_sc": 0, "per_p_sc": 0.0, "per_m_sc": 0.0, "per_f_sc": 0.0, "p_st": 4, "m_st": 1, "f_st": 3, "per_p_st": 100.0, "per_m_st": 25.0, "per_f_st": 75.0, "p_lit": 4, "m_lit": 1, "f_lit": 3, "per_p_lit": 100.0, "per_m_lit": 25.0, "per_f_lit": 75.0, "p_ill": 0, "m_ill": 0, "f_ill": 0, "per_p_ill": 0.0, "per_m_ill": 0.0, "per_f_ill": 0.0, "tot_work_p": 2, "tot_work_m": 1, "tot_work_f": 1, "per_tot_work_p": 50.0, "per_tot_work_m": 50.0, "per_tot_work_f": 50.0, "mainwork_p": 2, "mainwork_m": 1, "mainwork_f": 1, "per_mainwork_p": 50.0, "per_mainwork_m": 50.0, "per_mainwork_f": 50.0, "main_cl_p": 0, "main_cl_m": 0, "main_cl_f": 0, "per_main_cl_p": 0.0, "per_main_cl_m": 0.0, "per_main_cl_f": 0.0, "main_al_p": 2, "main_al_m": 1, "main_al_f": 1, "per_main_al_p": 100.0, "per_main_al_m": 50.0, "per_main_al_f": 50.0, "main_hh_p": 0, "main_hh_m": 0, "main_hh_f": 0, "per_main_hh_p": 0.0, "per_main_hh_m": 0.0, "per_main_hh_f": 0.0, "main_ot_p": 0, "main_ot_m": 0, "main_ot_f": 0, "per_main_ot_p": 0.0, "per_main_ot_m": 0.0, "per_main_ot_f": 0.0, "margwork_p": 0, "margwork_m": 0, "margwork_f": 0, "per_margwork_p": 0.0, "per_margwork_m": 0.0, "per_margwork_f": 0.0, "marg_cl_p": 0, "marg_cl_m": 0, "marg_cl_f": 0, "per_marg_cl_p": 0.0, "per_marg_cl_m": 0.0, "per_marg_cl_f": 0.0, "marg_al_p": 0, "marg_al_m": 0, "marg_al_f": 0, "per_marg_al_p": 0.0, "per_marg_al_m": 0.0, "per_marg_al_f": 0.0, "marg_hh_p": 0, "marg_hh_m": 0, "marg_hh_f": 0, "per_marg_hh_p": 0.0, "per_marg_hh_m": 0.0, "per_marg_hh_f": 0.0, "marg_ot_p": 0, "marg_ot_m": 0, "marg_ot_f": 0, "per_marg_ot_p": 0.0, "per_marg_ot_m": 0.0, "per_marg_ot_f": 0.0, "margwork_3_6_p": 0, "margwork_3_6_m": 0, "margwork_3_6_f": 0, "per_margwork_3_6_p": 0.0, "per_margwork_3_6_m": 0.0, "per_margwork_3_6_f": 0.0, "marg_cl_3_6_p": 0, "marg_cl_3_6_m": 0, "marg_cl_3_6_f": 0, "per_marg_cl_3_6_p": 0.0, "per_marg_cl_3_6_m": 0.0, "per_marg_cl_3_6_f": 0.0, "marg_al_3_6_p": 0, "marg_al_3_6_m": 0, "marg_al_3_6_f": 0, "per_marg_al_3_6_p": 0.0, "per_marg_al_3_6_m": 0.0, "per_marg_al_3_6_f": 0.0, "marg_hh_3_6_p": 0, "marg_hh_3_6_m": 0, "marg_hh_3_6_f": 0, "per_marg_hh_3_6_p": 0.0, "per_marg_hh_3_6_m": 0.0, "per_marg_hh_3_6_f": 0.0, "marg_ot_3_6_p": 0, "marg_ot_3_6_m": 0, "marg_ot_3_6_f": 0, "per_marg_ot_3_6_p": 0.0, "per_marg_ot_3_6_m": 0.0, "per_marg_ot_3_6_f": 0.0, "margwork_0_3_p": 0, "margwork_0_3_m": 0, "margwork_0_3_f": 0, "per_margwork_0_3_p": 0.0, "per_margwork_0_3_m": 0.0, "per_margwork_0_3_f": 0.0, "marg_cl_0_3_p": 0, "marg_cl_0_3_m": 0, "marg_cl_0_3_f": 0, "per_marg_cl_0_3_p": 0.0, "per_marg_cl_0_3_m": 0.0, "per_marg_cl_0_3_f": 0.0, "marg_al_0_3_p": 0, "marg_al_0_3_m": 0, "marg_al_0_3_f": 0, "per_marg_al_0_3_p": 0.0, "per_marg_al_0_3_m": 0.0, "per_marg_al_0_3_f": 0.0, "marg_hh_0_3_p": 0, "marg_hh_0_3_m": 0, "marg_hh_0_3_f": 0, "per_marg_hh_0_3_p": 0.0, "per_marg_hh_0_3_m": 0.0, "per_marg_hh_0_3_f": 0.0, "marg_ot_0_3_p": 0, "marg_ot_0_3_m": 0, "marg_ot_0_3_f": 0, "per_marg_ot_0_3_p": 0.0, "per_marg_ot_0_3_m": 0.0, "per_marg_ot_0_3_f": 0.0, "non_work_p": 2, "non_work_m": 0, "non_work_f": 2, "per_non_work_p": 50.0, "per_non_work_m": 0.0, "per_non_work_f": 100.0, "per_hc_tot_tot": 100, "per_hc_tot_god": 0.0, "per_hc_tot_liv": 100.0, "per_hc_tot_dil": 0.0, "per_hc_res_tot": 100.0, "per_hc_res_god": 0.0, "per_hc_res_liv": 100.0, "per_hc_res_dil": 0.0, "per_hc_oth_tot": 0.0, "per_hc_oth_god": 0.0, "per_hc_oth_liv": 0.0, "per_hc_oth_dil": 0.0, "per_mt_grsbam": 0.0, "per_mt_plastic": 0.0, "per_mt_h_tiles": 100.0, "per_mt_m_tiles": 0.0, "per_mt_b_brick": 0.0, "per_mt_stone": 0.0, "per_mt_asbstos": 0.0, "per_mt_concrte": 0.0, "per_mt_oth": 0.0, "per_mw_grsbam": 0.0, "per_mw_plastic": 0.0, "per_mw_mud": 100.0, "per_mw_wood": 0.0, "per_mw_no_mrtr": 0.0, "per_mw_st_mrtr": 0.0, "per_mw_asbstos": 0.0, "per_mw_b_brick": 0.0, "per_mw_concrte": 0.0, "per_mw_oth": 0.0, "per_mf_mud": 100.0, "per_mf_wood": 0.0, "per_mf_b_brick": 0.0, "per_mf_stone": 0.0, "per_mf_cement": 0.0, "per_mf_fl_tile": 0.0, "per_mf_oth": 0.0, "per_dw_n_exrm": 0.0, "per_dw_1_room": 0.0, "per_dw_2_room": 100.0, "per_dw_3_room": 0.0, "per_dw_4_room": 0.0, "per_dw_5_room": 0.0, "per_dw_6_room": 0.0, "per_hhsize_1": 0.0, "per_hhsize_2": 0.0, "per_hhsize_3": 0.0, "per_hhsize_4": 100.0, "per_hhsize_5": 0.0, "per_hhsize_6_8": 0.0, "per_hhsize_9p": 0.0, "per_ow_owned": 100.0, "per_ow_rented": 0.0, "per_ow_oth": 0.0, "per_mc_none": 100.0, "per_mcouple_1": 0.0, "per_mcouple_2": 0.0, "per_mcouple_3": 0.0, "per_mcouple_4": 0.0, "per_mcouple_5p": 0.0, "per_dw_t_ts": 0.0, "per_dw_t_unts": 0.0, "per_dw_c_well": 100.0, "per_dw_unc_wel": 0.0, "per_dw_hpump": 0.0, "per_dw_tw_bore": 0.0, "per_dw_spring": 0.0, "per_dw_rivcan": 0.0, "per_dw_tank": 0.0, "per_dw_oth": 0.0, "per_loc_dw_wp": 100.0, "per_loc_dw_np": 0.0, "per_loc_dw_aw": 0.0, "per_light_elec": 100.0, "per_light_kero": 0.0, "per_light_solr": 0.0, "per_light_oil": 0.0, "per_light_oth": 0.0, "per_light_no": 0.0, "per_hh_latrine": 0.0, "per_fl_sewer": 0.0, "per_fl_septict": 0.0, "per_fl_othsys": 0.0, "per_pl_wslab": 0.0, "per_pl_without": 0.0, "per_ns_open": 0.0, "per_sl_ns_hum": 0.0, "per_sl_ns_anml": 0.0, "per_hh_no_lat": 100.0, "per_as_pub": 0.0, "per_as_open": 100.0, "per_hh_bathrm": 0.0, "per_hh_en_wrf": 100.0, "per_hh_no_btrm": 0.0, "per_wwoc_drain": 0.0, "per_wwoc_open": 0.0, "per_wwoc_nodrn": 100.0, "per_cook_fire": 100.0, "per_cook_resdu": 0.0, "per_cook_cwdng": 0.0, "per_cook_coal": 0.0, "per_cook_kero": 0.0, "per_cook_lpng": 0.0, "per_cook_elec": 0.0, "per_cook_biogs": 0.0, "per_cook_oth": 0.0, "per_cook_no": 0.0, "per_kf_inside": 100.0, "per_kf_in_has": 100.0, "per_kf_in_does": 0.0, "per_kf_outside": 0.0, "per_kf_out_has": 0.0, "per_kf_out_dos": 0.0, "per_kf_no_cook": 0.0, "per_hh_banking": 100.0, "per_hh_radio": 100.0, "per_hh_tv": 0.0, "per_hh_cmp_int": 0.0, "per_hh_cmp_wnt": 0.0, "per_hh_ph_ll": 0.0, "per_hh_ph_mob": 100.0, "per_hh_ph_bth": 0.0, "per_hh_bcycl": 0.0, "per_hh_2wheel": 0.0, "per_hh_4wheel": 0.0, "per_hh_tvcomp": 0.0, "per_hh_no_ast": 0.0, "per_hs_perma": 0.0, "per_hs_sperma": 100.0, "per_hs_temp": 0.0, "per_hs_servc": 0.0, "per_hs_nservc": 0.0, "per_hs_unclss": 0.0, "avghhsz_cy": 4.0, "st_areashape": 3033018.979010305, "st_lengthshape": 9363.09131576662}, "geometry": {"type": "Polygon", "coordinates": [[[77.85442863006416, 21.216597612122868], [77.85360320947208, 21.217386954908388], [77.85157348135897, 21.21813182491484], [77.84813574195435, 21.21861798706169], [77.84711711260931, 21.21925151368531], [77.84670037696246, 21.22009548475036], [77.84647152126239, 21.221820140634037], [77.84604657321722, 21.223185432157997], [77.84501966230354, 21.224340954382914], [77.84437667966422, 21.226737096967174], [77.84351300162082, 21.230338176972936], [77.84326785227809, 21.233106809776405], [77.8432515775001, 21.234149570209762], [77.84383497039506, 21.2355753494159], [77.84408648789483, 21.23578211092788], [77.84400946364744, 21.235771085128242], [77.84386509000822, 21.235740352214563], [77.84373140272764, 21.235687952012604], [77.84349043234761, 21.235549023271403], [77.84320837841638, 21.235285887166096], [77.84219205504667, 21.234337463746108], [77.8415378623309, 21.233514702524104], [77.8400548255435, 21.231440181381267], [77.8393480400611, 21.23014322618201], [77.83870367311792, 21.228745170448878], [77.83863005438376, 21.227107124856072], [77.83893583551657, 21.22641330024069], [77.84023367921824, 21.2209228863397], [77.84128249105855, 21.218376628754168], [77.8423173466726, 21.216699923005052], [77.84297141631917, 21.213609147234287], [77.84425436146188, 21.20899264494727], [77.84602077270395, 21.20523773386185], [77.84632615767973, 21.20546992387722], [77.84874073394202, 21.205794066373777], [77.85257456840316, 21.205685609980442], [77.85478886976442, 21.205997559035055], [77.85599293384203, 21.206420057076638], [77.85637998645693, 21.207485990703212], [77.85550640628415, 21.211772698343463], [77.85485861047152, 21.21451128136445], [77.8546275143731, 21.21640745084722], [77.85442863006416, 21.216597612122868]]]}}]}