{"type": "FeatureCollection", "features": [{"type": "Feature", "properties": {"premiumdata.sde.IN_Village_PCA.area": 0.34787121, "objectid": 161786, "id": "21354308934049", "name": "Patanapalli Alias Brundaban Chandrapur", "subdistrict": "Purusottampur", "district": "Ganjam", "state": "Odisha", "country": "India", "censusname": "Patanapalli Alias Brundaban Chandrapur", "villagename_locallang": null, "lgd_villagename": "Patanapalli Alias Brundaban Chandrapur", "lgd_villagecode": 412187, "lgd_subdistrictcode": 3089, "lgd_districtcode": 354, "lgd_statecode": 21, "censuscode2001": "03163200", "censuscode2011": "412187", "censuscode2021": null, "level": "Village", "tru": "Rural", "no_hh": 49, "tot_p": 214, "tot_m": 102, "tot_f": 112, "per_tot_m": 47.6635514, "per_tot_f": 52.3364486, "p_06": 33, "m_06": 17, "f_06": 16, "per_p_06": 15.42056075, "per_m_06": 51.51515152, "per_f_06": 48.48484848, "p_sc": 23, "m_sc": 10, "f_sc": 13, "per_p_sc": 10.74766355, "per_m_sc": 43.47826087, "per_f_sc": 56.52173913, "p_st": 0, "m_st": 0, "f_st": 0, "per_p_st": 0.0, "per_m_st": 0.0, "per_f_st": 0.0, "p_lit": 108, "m_lit": 59, "f_lit": 49, "per_p_lit": 50.46728972, "per_m_lit": 54.62962963, "per_f_lit": 45.37037037, "p_ill": 106, "m_ill": 43, "f_ill": 63, "per_p_ill": 49.53271028, "per_m_ill": 40.56603774000001, "per_f_ill": 59.43396226, "tot_work_p": 94, "tot_work_m": 52, "tot_work_f": 42, "per_tot_work_p": 43.92523364, "per_tot_work_m": 55.31914894, "per_tot_work_f": 44.68085106, "mainwork_p": 93, "mainwork_m": 52, "mainwork_f": 41, "per_mainwork_p": 43.45794393, "per_mainwork_m": 55.91397849, "per_mainwork_f": 44.08602151, "main_cl_p": 58, "main_cl_m": 28, "main_cl_f": 30, "per_main_cl_p": 62.3655914, "per_main_cl_m": 48.27586207, "per_main_cl_f": 51.72413793, "main_al_p": 5, "main_al_m": 1, "main_al_f": 4, "per_main_al_p": 5.37634409, "per_main_al_m": 20.0, "per_main_al_f": 80.0, "main_hh_p": 0, "main_hh_m": 0, "main_hh_f": 0, "per_main_hh_p": 0.0, "per_main_hh_m": 0.0, "per_main_hh_f": 0.0, "main_ot_p": 30, "main_ot_m": 23, "main_ot_f": 7, "per_main_ot_p": 32.25806452, "per_main_ot_m": 76.66666667, "per_main_ot_f": 23.33333333, "margwork_p": 1, "margwork_m": 0, "margwork_f": 1, "per_margwork_p": 0.46728972, "per_margwork_m": 0.0, "per_margwork_f": 100.0, "marg_cl_p": 0, "marg_cl_m": 0, "marg_cl_f": 0, "per_marg_cl_p": 0.0, "per_marg_cl_m": 0.0, "per_marg_cl_f": 0.0, "marg_al_p": 1, "marg_al_m": 0, "marg_al_f": 1, "per_marg_al_p": 100.0, "per_marg_al_m": 0.0, "per_marg_al_f": 100.0, "marg_hh_p": 0, "marg_hh_m": 0, "marg_hh_f": 0, "per_marg_hh_p": 0.0, "per_marg_hh_m": 0.0, "per_marg_hh_f": 0.0, "marg_ot_p": 0, "marg_ot_m": 0, "marg_ot_f": 0, "per_marg_ot_p": 0.0, "per_marg_ot_m": 0.0, "per_marg_ot_f": 0.0, "margwork_3_6_p": 1, "margwork_3_6_m": 0, "margwork_3_6_f": 1, "per_margwork_3_6_p": 100.0, "per_margwork_3_6_m": 0.0, "per_margwork_3_6_f": 100.0, "marg_cl_3_6_p": 0, "marg_cl_3_6_m": 0, "marg_cl_3_6_f": 0, "per_marg_cl_3_6_p": 0.0, "per_marg_cl_3_6_m": 0.0, "per_marg_cl_3_6_f": 0.0, "marg_al_3_6_p": 1, "marg_al_3_6_m": 0, "marg_al_3_6_f": 1, "per_marg_al_3_6_p": 100.0, "per_marg_al_3_6_m": 0.0, "per_marg_al_3_6_f": 100.0, "marg_hh_3_6_p": 0, "marg_hh_3_6_m": 0, "marg_hh_3_6_f": 0, "per_marg_hh_3_6_p": 0.0, "per_marg_hh_3_6_m": 0.0, "per_marg_hh_3_6_f": 0.0, "marg_ot_3_6_p": 0, "marg_ot_3_6_m": 0, "marg_ot_3_6_f": 0, "per_marg_ot_3_6_p": 0.0, "per_marg_ot_3_6_m": 0.0, "per_marg_ot_3_6_f": 0.0, "margwork_0_3_p": 0, "margwork_0_3_m": 0, "margwork_0_3_f": 0, "per_margwork_0_3_p": 0.0, "per_margwork_0_3_m": 0.0, "per_margwork_0_3_f": 0.0, "marg_cl_0_3_p": 0, "marg_cl_0_3_m": 0, "marg_cl_0_3_f": 0, "per_marg_cl_0_3_p": 0.0, "per_marg_cl_0_3_m": 0.0, "per_marg_cl_0_3_f": 0.0, "marg_al_0_3_p": 0, "marg_al_0_3_m": 0, "marg_al_0_3_f": 0, "per_marg_al_0_3_p": 0.0, "per_marg_al_0_3_m": 0.0, "per_marg_al_0_3_f": 0.0, "marg_hh_0_3_p": 0, "marg_hh_0_3_m": 0, "marg_hh_0_3_f": 0, "per_marg_hh_0_3_p": 0.0, "per_marg_hh_0_3_m": 0.0, "per_marg_hh_0_3_f": 0.0, "marg_ot_0_3_p": 0, "marg_ot_0_3_m": 0, "marg_ot_0_3_f": 0, "per_marg_ot_0_3_p": 0.0, "per_marg_ot_0_3_m": 0.0, "per_marg_ot_0_3_f": 0.0, "non_work_p": 120, "non_work_m": 50, "non_work_f": 70, "per_non_work_p": 56.07476636, "per_non_work_m": 41.66666667000001, "per_non_work_f": 58.33333333, "per_hc_tot_tot": 100, "per_hc_tot_god": 74.0, "per_hc_tot_liv": 24.0, "per_hc_tot_dil": 2.0, "per_hc_res_tot": 100.0, "per_hc_res_god": 74.0, "per_hc_res_liv": 24.0, "per_hc_res_dil": 2.0, "per_hc_oth_tot": 0.0, "per_hc_oth_god": 0.0, "per_hc_oth_liv": 0.0, "per_hc_oth_dil": 0.0, "per_mt_grsbam": 20.0, "per_mt_plastic": 0.0, "per_mt_h_tiles": 0.0, "per_mt_m_tiles": 0.0, "per_mt_b_brick": 0.0, "per_mt_stone": 0.0, "per_mt_asbstos": 28.0, "per_mt_concrte": 52.0, "per_mt_oth": 0.0, "per_mw_grsbam": 0.0, "per_mw_plastic": 0.0, "per_mw_mud": 16.0, "per_mw_wood": 0.0, "per_mw_no_mrtr": 0.0, "per_mw_st_mrtr": 0.0, "per_mw_asbstos": 0.0, "per_mw_b_brick": 84.0, "per_mw_concrte": 0.0, "per_mw_oth": 0.0, "per_mf_mud": 50.0, "per_mf_wood": 0.0, "per_mf_b_brick": 0.0, "per_mf_stone": 0.0, "per_mf_cement": 50.0, "per_mf_fl_tile": 0.0, "per_mf_oth": 0.0, "per_dw_n_exrm": 6.0, "per_dw_1_room": 40.0, "per_dw_2_room": 44.0, "per_dw_3_room": 10.0, "per_dw_4_room": 0.0, "per_dw_5_room": 0.0, "per_dw_6_room": 0.0, "per_hhsize_1": 4.0, "per_hhsize_2": 16.0, "per_hhsize_3": 4.0, "per_hhsize_4": 20.0, "per_hhsize_5": 24.0, "per_hhsize_6_8": 30.0, "per_hhsize_9p": 2.0, "per_ow_owned": 100.0, "per_ow_rented": 0.0, "per_ow_oth": 0.0, "per_mc_none": 8.0, "per_mcouple_1": 84.0, "per_mcouple_2": 4.0, "per_mcouple_3": 2.0, "per_mcouple_4": 2.0, "per_mcouple_5p": 0.0, "per_dw_t_ts": 0.0, "per_dw_t_unts": 0.0, "per_dw_c_well": 0.0, "per_dw_unc_wel": 0.0, "per_dw_hpump": 100.0, "per_dw_tw_bore": 0.0, "per_dw_spring": 0.0, "per_dw_rivcan": 0.0, "per_dw_tank": 0.0, "per_dw_oth": 0.0, "per_loc_dw_wp": 0.0, "per_loc_dw_np": 78.0, "per_loc_dw_aw": 22.0, "per_light_elec": 40.0, "per_light_kero": 60.0, "per_light_solr": 0.0, "per_light_oil": 0.0, "per_light_oth": 0.0, "per_light_no": 0.0, "per_hh_latrine": 0.0, "per_fl_sewer": 0.0, "per_fl_septict": 0.0, "per_fl_othsys": 0.0, "per_pl_wslab": 0.0, "per_pl_without": 0.0, "per_ns_open": 0.0, "per_sl_ns_hum": 0.0, "per_sl_ns_anml": 0.0, "per_hh_no_lat": 100.0, "per_as_pub": 0.0, "per_as_open": 100.0, "per_hh_bathrm": 0.0, "per_hh_en_wrf": 0.0, "per_hh_no_btrm": 100.0, "per_wwoc_drain": 0.0, "per_wwoc_open": 0.0, "per_wwoc_nodrn": 100.0, "per_cook_fire": 100.0, "per_cook_resdu": 0.0, "per_cook_cwdng": 0.0, "per_cook_coal": 0.0, "per_cook_kero": 0.0, "per_cook_lpng": 0.0, "per_cook_elec": 0.0, "per_cook_biogs": 0.0, "per_cook_oth": 0.0, "per_cook_no": 0.0, "per_kf_inside": 40.0, "per_kf_in_has": 2.0, "per_kf_in_does": 38.0, "per_kf_outside": 60.0, "per_kf_out_has": 28.0, "per_kf_out_dos": 32.0, "per_kf_no_cook": 0.0, "per_hh_banking": 2.0, "per_hh_radio": 0.0, "per_hh_tv": 0.0, "per_hh_cmp_int": 0.0, "per_hh_cmp_wnt": 0.0, "per_hh_ph_ll": 0.0, "per_hh_ph_mob": 12.0, "per_hh_ph_bth": 0.0, "per_hh_bcycl": 12.0, "per_hh_2wheel": 0.0, "per_hh_4wheel": 0.0, "per_hh_tvcomp": 0.0, "per_hh_no_ast": 82.0, "per_hs_perma": 80.0, "per_hs_sperma": 4.0, "per_hs_temp": 16.0, "per_hs_servc": 16.0, "per_hs_nservc": 0.0, "per_hs_unclss": 0.0, "avghhsz_cy": 4.36734694, "st_areashape": 393877.42900752, "st_lengthshape": 2514.978130693421}, "geometry": {"type": "Polygon", "coordinates": [[[84.89558436671402, 19.56946398841124], [84.89540134934794, 19.569439134829437], [84.89473770096548, 19.569719551028644], [84.89437151172304, 19.570173445123896], [84.89363912066179, 19.570856223013145], [84.89290680326239, 19.571252866591884], [84.89218211974628, 19.571418734358105], [84.89090819099411, 19.571523628820184], [84.88976393405319, 19.571401536054385], [84.88873408205528, 19.57116500692603], [84.88813146880648, 19.570875170920417], [84.88747536267915, 19.570241953608054], [84.88723132365413, 19.56983765164439], [84.88717792779363, 19.569494270958806], [84.88766608489544, 19.56909759935214], [84.88825352020918, 19.56874288171481], [84.8885128746115, 19.56858838974945], [84.88955035959437, 19.567795046179757], [84.89009962279677, 19.56705508015671], [84.89058778888173, 19.566656469278847], [84.89155661742407, 19.566435236841027], [84.89300607698276, 19.56621591367311], [84.8935552853879, 19.565990930886805], [84.89373838899225, 19.56568765080408], [84.8940358490306, 19.56622363915037], [84.89433333691673, 19.566969282665376], [84.8946919300051, 19.567659696271214], [84.89498944034911, 19.56811746266926], [84.89540900389247, 19.568693456185866], [84.89558440264663, 19.569153040311978], [84.89558436671402, 19.56946398841124]]]}}]}