{"type": "FeatureCollection", "features": [{"type": "Feature", "properties": {"premiumdata.sde.IN_Village_PCA.area": 1.10167293, "objectid": 210400, "id": "246693882289327", "name": "Sevaliya", "subdistrict": "Lunawada", "district": "Mahisagar", "state": "Gujarat", "country": "India", "censusname": "Sevaliya", "villagename_locallang": null, "lgd_villagename": "Sevaliya", "lgd_villagecode": 518387, "lgd_subdistrictcode": 3882, "lgd_districtcode": 669, "lgd_statecode": 24, "censuscode2001": "01201500", "censuscode2011": "518387", "censuscode2021": null, "level": "Village", "tru": "Rural", "no_hh": 86, "tot_p": 457, "tot_m": 239, "tot_f": 218, "per_tot_m": 52.297593, "per_tot_f": 47.702407, "p_06": 78, "m_06": 33, "f_06": 45, "per_p_06": 17.0678337, "per_m_06": 42.30769231, "per_f_06": 57.69230769, "p_sc": 27, "m_sc": 16, "f_sc": 11, "per_p_sc": 5.90809628, "per_m_sc": 59.25925926, "per_f_sc": 40.74074074, "p_st": 0, "m_st": 0, "f_st": 0, "per_p_st": 0.0, "per_m_st": 0.0, "per_f_st": 0.0, "p_lit": 268, "m_lit": 179, "f_lit": 89, "per_p_lit": 58.64332604, "per_m_lit": 66.79104478, "per_f_lit": 33.20895522, "p_ill": 189, "m_ill": 60, "f_ill": 129, "per_p_ill": 41.35667396, "per_m_ill": 31.74603175, "per_f_ill": 68.25396825, "tot_work_p": 288, "tot_work_m": 149, "tot_work_f": 139, "per_tot_work_p": 63.01969365, "per_tot_work_m": 51.73611111, "per_tot_work_f": 48.26388889, "mainwork_p": 236, "mainwork_m": 115, "mainwork_f": 121, "per_mainwork_p": 51.64113786, "per_mainwork_m": 48.72881356, "per_mainwork_f": 51.27118644, "main_cl_p": 82, "main_cl_m": 81, "main_cl_f": 1, "per_main_cl_p": 34.74576271, "per_main_cl_m": 98.7804878, "per_main_cl_f": 1.2195122, "main_al_p": 126, "main_al_m": 21, "main_al_f": 105, "per_main_al_p": 53.38983051, "per_main_al_m": 16.66666667, "per_main_al_f": 83.33333332999999, "main_hh_p": 14, "main_hh_m": 5, "main_hh_f": 9, "per_main_hh_p": 5.93220339, "per_main_hh_m": 35.71428571, "per_main_hh_f": 64.28571429, "main_ot_p": 14, "main_ot_m": 8, "main_ot_f": 6, "per_main_ot_p": 5.93220339, "per_main_ot_m": 57.14285714, "per_main_ot_f": 42.85714286, "margwork_p": 52, "margwork_m": 34, "margwork_f": 18, "per_margwork_p": 11.3785558, "per_margwork_m": 65.38461538, "per_margwork_f": 34.61538462, "marg_cl_p": 0, "marg_cl_m": 0, "marg_cl_f": 0, "per_marg_cl_p": 0.0, "per_marg_cl_m": 0.0, "per_marg_cl_f": 0.0, "marg_al_p": 20, "marg_al_m": 9, "marg_al_f": 11, "per_marg_al_p": 38.46153846, "per_marg_al_m": 45.0, "per_marg_al_f": 55.0, "marg_hh_p": 12, "marg_hh_m": 8, "marg_hh_f": 4, "per_marg_hh_p": 23.07692308, "per_marg_hh_m": 66.66666667, "per_marg_hh_f": 33.33333333, "marg_ot_p": 20, "marg_ot_m": 17, "marg_ot_f": 3, "per_marg_ot_p": 38.46153846, "per_marg_ot_m": 85.0, "per_marg_ot_f": 15.0, "margwork_3_6_p": 28, "margwork_3_6_m": 19, "margwork_3_6_f": 9, "per_margwork_3_6_p": 53.84615385, "per_margwork_3_6_m": 67.85714286, "per_margwork_3_6_f": 32.14285714, "marg_cl_3_6_p": 0, "marg_cl_3_6_m": 0, "marg_cl_3_6_f": 0, "per_marg_cl_3_6_p": 0.0, "per_marg_cl_3_6_m": 0.0, "per_marg_cl_3_6_f": 0.0, "marg_al_3_6_p": 10, "marg_al_3_6_m": 3, "marg_al_3_6_f": 7, "per_marg_al_3_6_p": 19.23076923, "per_marg_al_3_6_m": 30.0, "per_marg_al_3_6_f": 70.0, "marg_hh_3_6_p": 5, "marg_hh_3_6_m": 4, "marg_hh_3_6_f": 1, "per_marg_hh_3_6_p": 9.61538462, "per_marg_hh_3_6_m": 80.0, "per_marg_hh_3_6_f": 20.0, "marg_ot_3_6_p": 13, "marg_ot_3_6_m": 12, "marg_ot_3_6_f": 1, "per_marg_ot_3_6_p": 25.0, "per_marg_ot_3_6_m": 92.30769231, "per_marg_ot_3_6_f": 7.69230769, "margwork_0_3_p": 24, "margwork_0_3_m": 15, "margwork_0_3_f": 9, "per_margwork_0_3_p": 46.15384615, "per_margwork_0_3_m": 62.5, "per_margwork_0_3_f": 37.5, "marg_cl_0_3_p": 0, "marg_cl_0_3_m": 0, "marg_cl_0_3_f": 0, "per_marg_cl_0_3_p": 0.0, "per_marg_cl_0_3_m": 0.0, "per_marg_cl_0_3_f": 0.0, "marg_al_0_3_p": 10, "marg_al_0_3_m": 6, "marg_al_0_3_f": 4, "per_marg_al_0_3_p": 19.23076923, "per_marg_al_0_3_m": 60.0, "per_marg_al_0_3_f": 40.0, "marg_hh_0_3_p": 7, "marg_hh_0_3_m": 4, "marg_hh_0_3_f": 3, "per_marg_hh_0_3_p": 13.46153846, "per_marg_hh_0_3_m": 57.14285714, "per_marg_hh_0_3_f": 42.85714286, "marg_ot_0_3_p": 7, "marg_ot_0_3_m": 5, "marg_ot_0_3_f": 2, "per_marg_ot_0_3_p": 13.46153846, "per_marg_ot_0_3_m": 71.42857143, "per_marg_ot_0_3_f": 28.57142857, "non_work_p": 169, "non_work_m": 90, "non_work_f": 79, "per_non_work_p": 36.98030635, "per_non_work_m": 53.25443787, "per_non_work_f": 46.74556213, "per_hc_tot_tot": 100, "per_hc_tot_god": 94.3, "per_hc_tot_liv": 5.7, "per_hc_tot_dil": 0.0, "per_hc_res_tot": 95.5, "per_hc_res_god": 90.9, "per_hc_res_liv": 4.5, "per_hc_res_dil": 0.0, "per_hc_oth_tot": 4.5, "per_hc_oth_god": 3.4, "per_hc_oth_liv": 1.1, "per_hc_oth_dil": 0.0, "per_mt_grsbam": 2.3, "per_mt_plastic": 0.0, "per_mt_h_tiles": 76.1, "per_mt_m_tiles": 13.6, "per_mt_b_brick": 2.3, "per_mt_stone": 0.0, "per_mt_asbstos": 0.0, "per_mt_concrte": 5.7, "per_mt_oth": 0.0, "per_mw_grsbam": 12.5, "per_mw_plastic": 0.0, "per_mw_mud": 72.7, "per_mw_wood": 0.0, "per_mw_no_mrtr": 0.0, "per_mw_st_mrtr": 0.0, "per_mw_asbstos": 0.0, "per_mw_b_brick": 14.8, "per_mw_concrte": 0.0, "per_mw_oth": 0.0, "per_mf_mud": 92.0, "per_mf_wood": 0.0, "per_mf_b_brick": 1.1, "per_mf_stone": 2.3, "per_mf_cement": 4.5, "per_mf_fl_tile": 0.0, "per_mf_oth": 0.0, "per_dw_n_exrm": 2.3, "per_dw_1_room": 96.6, "per_dw_2_room": 1.1, "per_dw_3_room": 0.0, "per_dw_4_room": 0.0, "per_dw_5_room": 0.0, "per_dw_6_room": 0.0, "per_hhsize_1": 0.0, "per_hhsize_2": 6.8, "per_hhsize_3": 13.6, "per_hhsize_4": 15.9, "per_hhsize_5": 20.5, "per_hhsize_6_8": 38.6, "per_hhsize_9p": 4.5, "per_ow_owned": 100.0, "per_ow_rented": 0.0, "per_ow_oth": 0.0, "per_mc_none": 3.4, "per_mcouple_1": 60.2, "per_mcouple_2": 33.0, "per_mcouple_3": 3.4, "per_mcouple_4": 0.0, "per_mcouple_5p": 0.0, "per_dw_t_ts": 0.0, "per_dw_t_unts": 0.0, "per_dw_c_well": 4.5, "per_dw_unc_wel": 19.3, "per_dw_hpump": 76.1, "per_dw_tw_bore": 0.0, "per_dw_spring": 0.0, "per_dw_rivcan": 0.0, "per_dw_tank": 0.0, "per_dw_oth": 0.0, "per_loc_dw_wp": 37.5, "per_loc_dw_np": 29.5, "per_loc_dw_aw": 33.0, "per_light_elec": 81.8, "per_light_kero": 18.2, "per_light_solr": 0.0, "per_light_oil": 0.0, "per_light_oth": 0.0, "per_light_no": 0.0, "per_hh_latrine": 5.7, "per_fl_sewer": 0.0, "per_fl_septict": 0.0, "per_fl_othsys": 0.0, "per_pl_wslab": 5.7, "per_pl_without": 0.0, "per_ns_open": 0.0, "per_sl_ns_hum": 0.0, "per_sl_ns_anml": 0.0, "per_hh_no_lat": 94.3, "per_as_pub": 0.0, "per_as_open": 94.3, "per_hh_bathrm": 6.8, "per_hh_en_wrf": 5.7, "per_hh_no_btrm": 87.5, "per_wwoc_drain": 0.0, "per_wwoc_open": 0.0, "per_wwoc_nodrn": 100.0, "per_cook_fire": 100.0, "per_cook_resdu": 0.0, "per_cook_cwdng": 0.0, "per_cook_coal": 0.0, "per_cook_kero": 0.0, "per_cook_lpng": 0.0, "per_cook_elec": 0.0, "per_cook_biogs": 0.0, "per_cook_oth": 0.0, "per_cook_no": 0.0, "per_kf_inside": 97.7, "per_kf_in_has": 97.7, "per_kf_in_does": 0.0, "per_kf_outside": 2.3, "per_kf_out_has": 0.0, "per_kf_out_dos": 2.3, "per_kf_no_cook": 0.0, "per_hh_banking": 8.0, "per_hh_radio": 8.0, "per_hh_tv": 12.5, "per_hh_cmp_int": 0.0, "per_hh_cmp_wnt": 11.4, "per_hh_ph_ll": 0.0, "per_hh_ph_mob": 76.1, "per_hh_ph_bth": 0.0, "per_hh_bcycl": 14.8, "per_hh_2wheel": 8.0, "per_hh_4wheel": 0.0, "per_hh_tvcomp": 0.0, "per_hh_no_ast": 21.6, "per_hs_perma": 13.6, "per_hs_sperma": 85.2, "per_hs_temp": 1.1, "per_hs_servc": 0.0, "per_hs_nservc": 1.1, "per_hs_unclss": 0.0, "avghhsz_cy": 5.31395349, "st_areashape": 1306381.847226495, "st_lengthshape": 5148.820492935334}, "geometry": {"type": "Polygon", "coordinates": [[[73.60825132785392, 23.00658392613679], [73.60788661005192, 23.006890205028668], [73.60706613917705, 23.00753188678297], [73.60622314933467, 23.008146867210463], [73.60535777886527, 23.008734018025756], [73.60446994781884, 23.00929326104172], [73.6035620753584, 23.00982356553152], [73.60263536702308, 23.01032362129451], [73.6016898452708, 23.01079463750326], [73.600726762353, 23.01123440102535], [73.59974841077033, 23.011642706285087], [73.59875492706672, 23.012018499359954], [73.59763689374556, 23.012395388588235], [73.59681582459272, 23.013004296149564], [73.59409625771504, 23.009678700011886], [73.59474023928098, 23.009207114343663], [73.59530071076317, 23.008628629329156], [73.59574250042327, 23.007968495740005], [73.59605512582024, 23.00724741941379], [73.5962267929727, 23.00648801079376], [73.59639499083157, 23.005091860535845], [73.59654523945274, 23.004296738537338], [73.59670893315877, 23.00350354097], [73.5968898430772, 23.00271356111923], [73.59708405973993, 23.001926632836444], [73.59729312645264, 23.00114289757456], [73.59751805022671, 23.0003634543413], [73.59775649813744, 22.999585939913583], [73.59800968380867, 22.998813878618925], [73.598278725643, 22.998046109561766], [73.59843792417935, 22.997615311508135], [73.59908981990294, 22.998552787055488], [73.60036793839761, 22.999998385169548], [73.60081573868526, 23.000510352459706], [73.60130035552655, 23.001387951460384], [73.60162621939585, 23.00184869991786], [73.60223911116813, 23.002547344335706], [73.6023759605185, 23.002700578166518], [73.60287909972263, 23.00299825965115], [73.60387049214827, 23.00399855303995], [73.60444771002396, 23.0043085612278], [73.60519431243301, 23.004920641616753], [73.60529466952161, 23.00496430300748], [73.6064372843422, 23.00546141079624], [73.60759580742814, 23.00599861980078], [73.60817553609509, 23.006460803663614], [73.60825132785392, 23.00658392613679]]]}}]}