{"type": "FeatureCollection", "features": [{"type": "Feature", "properties": {"premiumdata.sde.IN_Village_PCA.area": 0.88943398, "objectid": 407245, "id": "336225342989", "name": "Taunsa", "subdistrict": "Khanna", "district": "Ludhiana", "state": "Punjab", "country": "India", "censusname": "Taunsa (178)", "villagename_locallang": null, "lgd_villagename": "Taunsa (178)", "lgd_villagecode": 33246, "lgd_subdistrictcode": 225, "lgd_districtcode": 36, "lgd_statecode": 3, "censuscode2001": "00797900", "censuscode2011": "033246", "censuscode2021": null, "level": "Village", "tru": "Rural", "no_hh": 147, "tot_p": 917, "tot_m": 468, "tot_f": 449, "per_tot_m": 51.03598691, "per_tot_f": 48.96401309, "p_06": 100, "m_06": 52, "f_06": 48, "per_p_06": 10.90512541, "per_m_06": 52.0, "per_f_06": 48.0, "p_sc": 445, "m_sc": 238, "f_sc": 207, "per_p_sc": 48.52780807, "per_m_sc": 53.48314607, "per_f_sc": 46.51685393, "p_st": 0, "m_st": 0, "f_st": 0, "per_p_st": 0.0, "per_m_st": 0.0, "per_f_st": 0.0, "p_lit": 605, "m_lit": 333, "f_lit": 272, "per_p_lit": 65.97600872, "per_m_lit": 55.04132231, "per_f_lit": 44.95867769, "p_ill": 312, "m_ill": 135, "f_ill": 177, "per_p_ill": 34.02399128, "per_m_ill": 43.26923077, "per_f_ill": 56.73076923, "tot_work_p": 271, "tot_work_m": 255, "tot_work_f": 16, "per_tot_work_p": 29.55288986, "per_tot_work_m": 94.09594096000001, "per_tot_work_f": 5.90405904, "mainwork_p": 263, "mainwork_m": 249, "mainwork_f": 14, "per_mainwork_p": 28.68047983, "per_mainwork_m": 94.67680608, "per_mainwork_f": 5.32319392, "main_cl_p": 107, "main_cl_m": 102, "main_cl_f": 5, "per_main_cl_p": 40.68441065, "per_main_cl_m": 95.3271028, "per_main_cl_f": 4.6728972, "main_al_p": 38, "main_al_m": 38, "main_al_f": 0, "per_main_al_p": 14.4486692, "per_main_al_m": 100.0, "per_main_al_f": 0.0, "main_hh_p": 1, "main_hh_m": 1, "main_hh_f": 0, "per_main_hh_p": 0.38022814, "per_main_hh_m": 100.0, "per_main_hh_f": 0.0, "main_ot_p": 117, "main_ot_m": 108, "main_ot_f": 9, "per_main_ot_p": 44.48669202, "per_main_ot_m": 92.30769231, "per_main_ot_f": 7.69230769, "margwork_p": 8, "margwork_m": 6, "margwork_f": 2, "per_margwork_p": 0.87241003, "per_margwork_m": 75.0, "per_margwork_f": 25.0, "marg_cl_p": 0, "marg_cl_m": 0, "marg_cl_f": 0, "per_marg_cl_p": 0.0, "per_marg_cl_m": 0.0, "per_marg_cl_f": 0.0, "marg_al_p": 0, "marg_al_m": 0, "marg_al_f": 0, "per_marg_al_p": 0.0, "per_marg_al_m": 0.0, "per_marg_al_f": 0.0, "marg_hh_p": 1, "marg_hh_m": 1, "marg_hh_f": 0, "per_marg_hh_p": 12.5, "per_marg_hh_m": 100.0, "per_marg_hh_f": 0.0, "marg_ot_p": 7, "marg_ot_m": 5, "marg_ot_f": 2, "per_marg_ot_p": 87.5, "per_marg_ot_m": 71.42857143, "per_marg_ot_f": 28.57142857, "margwork_3_6_p": 8, "margwork_3_6_m": 6, "margwork_3_6_f": 2, "per_margwork_3_6_p": 100.0, "per_margwork_3_6_m": 75.0, "per_margwork_3_6_f": 25.0, "marg_cl_3_6_p": 0, "marg_cl_3_6_m": 0, "marg_cl_3_6_f": 0, "per_marg_cl_3_6_p": 0.0, "per_marg_cl_3_6_m": 0.0, "per_marg_cl_3_6_f": 0.0, "marg_al_3_6_p": 0, "marg_al_3_6_m": 0, "marg_al_3_6_f": 0, "per_marg_al_3_6_p": 0.0, "per_marg_al_3_6_m": 0.0, "per_marg_al_3_6_f": 0.0, "marg_hh_3_6_p": 1, "marg_hh_3_6_m": 1, "marg_hh_3_6_f": 0, "per_marg_hh_3_6_p": 12.5, "per_marg_hh_3_6_m": 100.0, "per_marg_hh_3_6_f": 0.0, "marg_ot_3_6_p": 7, "marg_ot_3_6_m": 5, "marg_ot_3_6_f": 2, "per_marg_ot_3_6_p": 87.5, "per_marg_ot_3_6_m": 71.42857143, "per_marg_ot_3_6_f": 28.57142857, "margwork_0_3_p": 0, "margwork_0_3_m": 0, "margwork_0_3_f": 0, "per_margwork_0_3_p": 0.0, "per_margwork_0_3_m": 0.0, "per_margwork_0_3_f": 0.0, "marg_cl_0_3_p": 0, "marg_cl_0_3_m": 0, "marg_cl_0_3_f": 0, "per_marg_cl_0_3_p": 0.0, "per_marg_cl_0_3_m": 0.0, "per_marg_cl_0_3_f": 0.0, "marg_al_0_3_p": 0, "marg_al_0_3_m": 0, "marg_al_0_3_f": 0, "per_marg_al_0_3_p": 0.0, "per_marg_al_0_3_m": 0.0, "per_marg_al_0_3_f": 0.0, "marg_hh_0_3_p": 0, "marg_hh_0_3_m": 0, "marg_hh_0_3_f": 0, "per_marg_hh_0_3_p": 0.0, "per_marg_hh_0_3_m": 0.0, "per_marg_hh_0_3_f": 0.0, "marg_ot_0_3_p": 0, "marg_ot_0_3_m": 0, "marg_ot_0_3_f": 0, "per_marg_ot_0_3_p": 0.0, "per_marg_ot_0_3_m": 0.0, "per_marg_ot_0_3_f": 0.0, "non_work_p": 646, "non_work_m": 213, "non_work_f": 433, "per_non_work_p": 70.44711014, "per_non_work_m": 32.97213622, "per_non_work_f": 67.02786378, "per_hc_tot_tot": 100, "per_hc_tot_god": 15.2, "per_hc_tot_liv": 60.7, "per_hc_tot_dil": 24.1, "per_hc_res_tot": 71.0, "per_hc_res_god": 7.6, "per_hc_res_liv": 43.4, "per_hc_res_dil": 20.0, "per_hc_oth_tot": 29.0, "per_hc_oth_god": 7.6, "per_hc_oth_liv": 17.2, "per_hc_oth_dil": 4.1, "per_mt_grsbam": 8.3, "per_mt_plastic": 0.0, "per_mt_h_tiles": 6.2, "per_mt_m_tiles": 4.8, "per_mt_b_brick": 22.8, "per_mt_stone": 0.0, "per_mt_asbstos": 6.2, "per_mt_concrte": 51.7, "per_mt_oth": 0.0, "per_mw_grsbam": 2.8, "per_mw_plastic": 0.0, "per_mw_mud": 1.4, "per_mw_wood": 0.0, "per_mw_no_mrtr": 0.0, "per_mw_st_mrtr": 0.0, "per_mw_asbstos": 0.0, "per_mw_b_brick": 84.8, "per_mw_concrte": 11.0, "per_mw_oth": 0.0, "per_mf_mud": 39.3, "per_mf_wood": 0.7, "per_mf_b_brick": 14.5, "per_mf_stone": 16.6, "per_mf_cement": 29.0, "per_mf_fl_tile": 0.0, "per_mf_oth": 0.0, "per_dw_n_exrm": 0.0, "per_dw_1_room": 15.2, "per_dw_2_room": 44.1, "per_dw_3_room": 26.2, "per_dw_4_room": 12.4, "per_dw_5_room": 1.4, "per_dw_6_room": 0.7, "per_hhsize_1": 0.7, "per_hhsize_2": 2.8, "per_hhsize_3": 6.2, "per_hhsize_4": 16.6, "per_hhsize_5": 25.5, "per_hhsize_6_8": 26.9, "per_hhsize_9p": 21.4, "per_ow_owned": 98.6, "per_ow_rented": 0.0, "per_ow_oth": 1.4, "per_mc_none": 8.3, "per_mcouple_1": 51.0, "per_mcouple_2": 28.3, "per_mcouple_3": 9.0, "per_mcouple_4": 2.8, "per_mcouple_5p": 0.7, "per_dw_t_ts": 9.7, "per_dw_t_unts": 12.4, "per_dw_c_well": 1.4, "per_dw_unc_wel": 0.0, "per_dw_hpump": 38.6, "per_dw_tw_bore": 33.8, "per_dw_spring": 0.0, "per_dw_rivcan": 0.0, "per_dw_tank": 0.0, "per_dw_oth": 4.1, "per_loc_dw_wp": 95.2, "per_loc_dw_np": 4.8, "per_loc_dw_aw": 0.0, "per_light_elec": 96.6, "per_light_kero": 0.7, "per_light_solr": 1.4, "per_light_oil": 0.0, "per_light_oth": 0.0, "per_light_no": 1.4, "per_hh_latrine": 93.8, "per_fl_sewer": 2.1, "per_fl_septict": 31.7, "per_fl_othsys": 0.0, "per_pl_wslab": 60.0, "per_pl_without": 0.0, "per_ns_open": 0.0, "per_sl_ns_hum": 0.0, "per_sl_ns_anml": 0.0, "per_hh_no_lat": 6.2, "per_as_pub": 0.7, "per_as_open": 5.5, "per_hh_bathrm": 80.7, "per_hh_en_wrf": 6.9, "per_hh_no_btrm": 12.4, "per_wwoc_drain": 0.7, "per_wwoc_open": 98.6, "per_wwoc_nodrn": 0.7, "per_cook_fire": 0.7, "per_cook_resdu": 5.5, "per_cook_cwdng": 62.8, "per_cook_coal": 0.0, "per_cook_kero": 0.0, "per_cook_lpng": 28.3, "per_cook_elec": 0.0, "per_cook_biogs": 2.1, "per_cook_oth": 0.0, "per_cook_no": 0.7, "per_kf_inside": 95.9, "per_kf_in_has": 58.6, "per_kf_in_does": 37.2, "per_kf_outside": 3.4, "per_kf_out_has": 2.8, "per_kf_out_dos": 0.7, "per_kf_no_cook": 0.7, "per_hh_banking": 57.2, "per_hh_radio": 19.3, "per_hh_tv": 81.4, "per_hh_cmp_int": 2.8, "per_hh_cmp_wnt": 7.6, "per_hh_ph_ll": 13.8, "per_hh_ph_mob": 42.1, "per_hh_ph_bth": 21.4, "per_hh_bcycl": 83.4, "per_hh_2wheel": 60.7, "per_hh_4wheel": 19.3, "per_hh_tvcomp": 7.6, "per_hh_no_ast": 5.5, "per_hs_perma": 88.3, "per_hs_sperma": 11.0, "per_hs_temp": 0.7, "per_hs_servc": 0.7, "per_hs_nservc": 0.0, "per_hs_unclss": 0.0, "avghhsz_cy": 6.23809524, "st_areashape": 1205068.59494314, "st_lengthshape": 5062.122261303718}, "geometry": {"type": "Polygon", "coordinates": [[[76.12293882242619, 30.620725875344316], [76.12378792171084, 30.62156881558243], [76.12379953153759, 30.621580341690468], [76.12416011798757, 30.621827112165136], [76.12433213368637, 30.62194483269762], [76.12507588304607, 30.622177146383706], [76.12563770200117, 30.622384197373727], [76.12578167589008, 30.622408395037787], [76.12364494225695, 30.624616307864446], [76.12229392457866, 30.626133959951915], [76.12162059505242, 30.62684680309339], [76.12137723156049, 30.627482815806903], [76.1210274491484, 30.628115062955533], [76.12109458114789, 30.628946282204428], [76.11662370640303, 30.63107818126755], [76.11520546419875, 30.631764524794427], [76.11412827727358, 30.632002517824855], [76.11230621090807, 30.632214024009247], [76.1113485484247, 30.632179974320515], [76.1104972886918, 30.632149703626187], [76.11023904820044, 30.632120125495693], [76.11288191332588, 30.629275099323035], [76.1122296636661, 30.629027334453273], [76.11256896453541, 30.627872195905297], [76.11277975331853, 30.625986427194913], [76.11350696918542, 30.625077415448075], [76.11422401253006, 30.62467222047052], [76.12056145078972, 30.621365825984178], [76.12209090622277, 30.62064491586706], [76.12260071092629, 30.62040459893273], [76.12268977439513, 30.620375293193135], [76.12293882242619, 30.620725875344316]]]}}]}