{"type": "FeatureCollection", "features": [{"type": "Feature", "properties": {"premiumdata.sde.IN_Village_PCA.area": 4.29919023, "objectid": 142860, "id": "223873330257993", "name": "Nakata", "subdistrict": "Arang", "district": "Raipur", "state": "Chhattisgarh", "country": "India", "censusname": "Nakata", "villagename_locallang": "\u0928\u0915\u091f\u093e", "lgd_villagename": "Nakata", "lgd_villagecode": 444537, "lgd_subdistrictcode": 3330, "lgd_districtcode": 387, "lgd_statecode": 22, "censuscode2001": "01343900", "censuscode2011": "444537", "censuscode2021": null, "level": "Village", "tru": "Rural", "no_hh": 457, "tot_p": 2310, "tot_m": 1205, "tot_f": 1105, "per_tot_m": 52.16450216, "per_tot_f": 47.83549784, "p_06": 434, "m_06": 222, "f_06": 212, "per_p_06": 18.78787879, "per_m_06": 51.15207373, "per_f_06": 48.84792627, "p_sc": 1180, "m_sc": 611, "f_sc": 569, "per_p_sc": 51.08225108, "per_m_sc": 51.77966102, "per_f_sc": 48.22033898, "p_st": 34, "m_st": 19, "f_st": 15, "per_p_st": 1.47186147, "per_m_st": 55.88235294, "per_f_st": 44.11764706, "p_lit": 1346, "m_lit": 786, "f_lit": 560, "per_p_lit": 58.26839827000001, "per_m_lit": 58.39524517, "per_f_lit": 41.60475483, "p_ill": 964, "m_ill": 419, "f_ill": 545, "per_p_ill": 41.73160173, "per_m_ill": 43.46473029, "per_f_ill": 56.53526971, "tot_work_p": 878, "tot_work_m": 591, "tot_work_f": 287, "per_tot_work_p": 38.00865801, "per_tot_work_m": 67.31207289, "per_tot_work_f": 32.68792711, "mainwork_p": 573, "mainwork_m": 439, "mainwork_f": 134, "per_mainwork_p": 24.80519481, "per_mainwork_m": 76.61431065, "per_mainwork_f": 23.38568935, "main_cl_p": 105, "main_cl_m": 83, "main_cl_f": 22, "per_main_cl_p": 18.32460733, "per_main_cl_m": 79.04761905000001, "per_main_cl_f": 20.95238095, "main_al_p": 159, "main_al_m": 88, "main_al_f": 71, "per_main_al_p": 27.7486911, "per_main_al_m": 55.34591195, "per_main_al_f": 44.65408805000001, "main_hh_p": 19, "main_hh_m": 18, "main_hh_f": 1, "per_main_hh_p": 3.31588133, "per_main_hh_m": 94.73684211, "per_main_hh_f": 5.26315789, "main_ot_p": 290, "main_ot_m": 250, "main_ot_f": 40, "per_main_ot_p": 50.61082024, "per_main_ot_m": 86.20689655, "per_main_ot_f": 13.79310345, "margwork_p": 305, "margwork_m": 152, "margwork_f": 153, "per_margwork_p": 13.2034632, "per_margwork_m": 49.83606557, "per_margwork_f": 50.16393443, "marg_cl_p": 26, "marg_cl_m": 13, "marg_cl_f": 13, "per_marg_cl_p": 8.52459016, "per_marg_cl_m": 50.0, "per_marg_cl_f": 50.0, "marg_al_p": 224, "marg_al_m": 109, "marg_al_f": 115, "per_marg_al_p": 73.44262295, "per_marg_al_m": 48.66071429, "per_marg_al_f": 51.33928571, "marg_hh_p": 3, "marg_hh_m": 1, "marg_hh_f": 2, "per_marg_hh_p": 0.98360656, "per_marg_hh_m": 33.33333333, "per_marg_hh_f": 66.66666667, "marg_ot_p": 52, "marg_ot_m": 29, "marg_ot_f": 23, "per_marg_ot_p": 17.04918033, "per_marg_ot_m": 55.76923077, "per_marg_ot_f": 44.23076923, "margwork_3_6_p": 271, "margwork_3_6_m": 141, "margwork_3_6_f": 130, "per_margwork_3_6_p": 88.85245902, "per_margwork_3_6_m": 52.0295203, "per_margwork_3_6_f": 47.9704797, "marg_cl_3_6_p": 24, "marg_cl_3_6_m": 13, "marg_cl_3_6_f": 11, "per_marg_cl_3_6_p": 7.86885246, "per_marg_cl_3_6_m": 54.16666667000001, "per_marg_cl_3_6_f": 45.83333333, "marg_al_3_6_p": 204, "marg_al_3_6_m": 105, "marg_al_3_6_f": 99, "per_marg_al_3_6_p": 66.8852459, "per_marg_al_3_6_m": 51.47058824, "per_marg_al_3_6_f": 48.52941176, "marg_hh_3_6_p": 1, "marg_hh_3_6_m": 0, "marg_hh_3_6_f": 1, "per_marg_hh_3_6_p": 0.32786885, "per_marg_hh_3_6_m": 0.0, "per_marg_hh_3_6_f": 100.0, "marg_ot_3_6_p": 42, "marg_ot_3_6_m": 23, "marg_ot_3_6_f": 19, "per_marg_ot_3_6_p": 13.7704918, "per_marg_ot_3_6_m": 54.76190476, "per_marg_ot_3_6_f": 45.23809524, "margwork_0_3_p": 34, "margwork_0_3_m": 11, "margwork_0_3_f": 23, "per_margwork_0_3_p": 11.14754098, "per_margwork_0_3_m": 32.35294118, "per_margwork_0_3_f": 67.64705882000001, "marg_cl_0_3_p": 2, "marg_cl_0_3_m": 0, "marg_cl_0_3_f": 2, "per_marg_cl_0_3_p": 0.6557377, "per_marg_cl_0_3_m": 0.0, "per_marg_cl_0_3_f": 100.0, "marg_al_0_3_p": 20, "marg_al_0_3_m": 4, "marg_al_0_3_f": 16, "per_marg_al_0_3_p": 6.55737705, "per_marg_al_0_3_m": 20.0, "per_marg_al_0_3_f": 80.0, "marg_hh_0_3_p": 2, "marg_hh_0_3_m": 1, "marg_hh_0_3_f": 1, "per_marg_hh_0_3_p": 0.6557377, "per_marg_hh_0_3_m": 50.0, "per_marg_hh_0_3_f": 50.0, "marg_ot_0_3_p": 10, "marg_ot_0_3_m": 6, "marg_ot_0_3_f": 4, "per_marg_ot_0_3_p": 3.27868852, "per_marg_ot_0_3_m": 60.0, "per_marg_ot_0_3_f": 40.0, "non_work_p": 1432, "non_work_m": 614, "non_work_f": 818, "per_non_work_p": 61.99134199, "per_non_work_m": 42.87709497, "per_non_work_f": 57.12290503, "per_hc_tot_tot": 100, "per_hc_tot_god": 58.1, "per_hc_tot_liv": 35.7, "per_hc_tot_dil": 6.3, "per_hc_res_tot": 99.3, "per_hc_res_god": 58.1, "per_hc_res_liv": 35.0, "per_hc_res_dil": 6.3, "per_hc_oth_tot": 0.7, "per_hc_oth_god": 0.0, "per_hc_oth_liv": 0.7, "per_hc_oth_dil": 0.0, "per_mt_grsbam": 24.0, "per_mt_plastic": 0.4, "per_mt_h_tiles": 38.1, "per_mt_m_tiles": 1.3, "per_mt_b_brick": 13.9, "per_mt_stone": 0.0, "per_mt_asbstos": 0.4, "per_mt_concrte": 21.3, "per_mt_oth": 0.4, "per_mw_grsbam": 20.0, "per_mw_plastic": 0.0, "per_mw_mud": 40.4, "per_mw_wood": 0.0, "per_mw_no_mrtr": 0.0, "per_mw_st_mrtr": 1.6, "per_mw_asbstos": 0.2, "per_mw_b_brick": 37.7, "per_mw_concrte": 0.2, "per_mw_oth": 0.0, "per_mf_mud": 41.5, "per_mf_wood": 14.3, "per_mf_b_brick": 0.4, "per_mf_stone": 22.2, "per_mf_cement": 21.5, "per_mf_fl_tile": 0.0, "per_mf_oth": 0.0, "per_dw_n_exrm": 0.0, "per_dw_1_room": 30.0, "per_dw_2_room": 35.2, "per_dw_3_room": 20.4, "per_dw_4_room": 9.0, "per_dw_5_room": 2.0, "per_dw_6_room": 3.4, "per_hhsize_1": 3.8, "per_hhsize_2": 9.2, "per_hhsize_3": 12.1, "per_hhsize_4": 19.1, "per_hhsize_5": 18.4, "per_hhsize_6_8": 31.4, "per_hhsize_9p": 6.1, "per_ow_owned": 91.3, "per_ow_rented": 7.4, "per_ow_oth": 1.3, "per_mc_none": 7.4, "per_mcouple_1": 84.1, "per_mcouple_2": 7.0, "per_mcouple_3": 0.7, "per_mcouple_4": 0.4, "per_mcouple_5p": 0.4, "per_dw_t_ts": 10.3, "per_dw_t_unts": 4.0, "per_dw_c_well": 4.3, "per_dw_unc_wel": 2.9, "per_dw_hpump": 39.7, "per_dw_tw_bore": 38.8, "per_dw_spring": 0.0, "per_dw_rivcan": 0.0, "per_dw_tank": 0.0, "per_dw_oth": 0.0, "per_loc_dw_wp": 21.5, "per_loc_dw_np": 50.2, "per_loc_dw_aw": 28.3, "per_light_elec": 93.3, "per_light_kero": 6.5, "per_light_solr": 0.0, "per_light_oil": 0.0, "per_light_oth": 0.0, "per_light_no": 0.2, "per_hh_latrine": 27.6, "per_fl_sewer": 4.0, "per_fl_septict": 2.5, "per_fl_othsys": 0.7, "per_pl_wslab": 3.8, "per_pl_without": 0.0, "per_ns_open": 0.0, "per_sl_ns_hum": 0.0, "per_sl_ns_anml": 16.6, "per_hh_no_lat": 72.4, "per_as_pub": 47.3, "per_as_open": 25.1, "per_hh_bathrm": 26.2, "per_hh_en_wrf": 8.7, "per_hh_no_btrm": 65.0, "per_wwoc_drain": 11.9, "per_wwoc_open": 22.2, "per_wwoc_nodrn": 65.9, "per_cook_fire": 43.5, "per_cook_resdu": 8.5, "per_cook_cwdng": 27.8, "per_cook_coal": 11.7, "per_cook_kero": 5.2, "per_cook_lpng": 3.4, "per_cook_elec": 0.0, "per_cook_biogs": 0.0, "per_cook_oth": 0.0, "per_cook_no": 0.0, "per_kf_inside": 87.2, "per_kf_in_has": 76.5, "per_kf_in_does": 10.8, "per_kf_outside": 12.8, "per_kf_out_has": 5.4, "per_kf_out_dos": 7.4, "per_kf_no_cook": 0.0, "per_hh_banking": 32.3, "per_hh_radio": 4.5, "per_hh_tv": 52.9, "per_hh_cmp_int": 0.7, "per_hh_cmp_wnt": 10.3, "per_hh_ph_ll": 8.1, "per_hh_ph_mob": 53.1, "per_hh_ph_bth": 3.4, "per_hh_bcycl": 74.2, "per_hh_2wheel": 23.1, "per_hh_4wheel": 2.5, "per_hh_tvcomp": 2.2, "per_hh_no_ast": 3.8, "per_hs_perma": 39.0, "per_hs_sperma": 36.8, "per_hs_temp": 23.8, "per_hs_servc": 6.1, "per_hs_nservc": 17.7, "per_hs_unclss": 0.4, "avghhsz_cy": 5.0547046, "st_areashape": 4973036.76859476, "st_lengthshape": 9303.120495206862}, "geometry": {"type": "Polygon", "coordinates": [[[81.78916417169012, 21.225803497876228], [81.79007336108077, 21.22671427530969], [81.79065920457981, 21.227378348594662], [81.79210595032804, 21.22848753705028], [81.79360145393495, 21.229398575912896], [81.79501627894787, 21.22981654806975], [81.79683539794095, 21.230310459057186], [81.7979065661537, 21.23087991204781], [81.79839146416768, 21.23144910661294], [81.79857317628165, 21.23188537469593], [81.79862303188159, 21.232217133378942], [81.80003731880369, 21.23377299700413], [81.80100661985985, 21.23603025902444], [81.80141640074976, 21.23677397318405], [81.79728203940188, 21.238315816647393], [81.79453155790203, 21.24019207327733], [81.79451531187011, 21.24022477290028], [81.79336796472461, 21.24253455329382], [81.79221438237275, 21.244677055983434], [81.79191079582417, 21.24528373265651], [81.79141482697263, 21.247075637743336], [81.79009970507478, 21.248819788952236], [81.78913690063473, 21.25074358641103], [81.78912925597167, 21.250758858371732], [81.7891238436221, 21.25074355375896], [81.78911568422436, 21.250720925032127], [81.78856104280835, 21.24917164769872], [81.78282915978005, 21.24542480566347], [81.77518983719654, 21.24111526589686], [81.77447383679598, 21.241105498101827], [81.77353476584574, 21.23747014961932], [81.77358732806964, 21.237446509060693], [81.78480438890149, 21.224655430585145], [81.7848079444334, 21.22467383202825], [81.78529268883544, 21.225280968666137], [81.78617242875612, 21.225707033158542], [81.7874664061088, 21.22542325239917], [81.78853777734084, 21.225404897942642], [81.78916417169012, 21.225803497876228]]]}}]}