{"type": "FeatureCollection", "features": [{"type": "Feature", "properties": {"premiumdata.sde.IN_Village_PCA.area": 20.75212941, "objectid": 79578, "id": "285175134660422", "name": "Daddawada", "subdistrict": "Komarolu", "district": "Prakasam", "state": "Andhra Pradesh", "country": "India", "censusname": "Daddawada", "villagename_locallang": null, "lgd_villagename": "Daddawada", "lgd_villagecode": 591203, "lgd_subdistrictcode": 5134, "lgd_districtcode": 517, "lgd_statecode": 28, "censuscode2001": "02219800", "censuscode2011": "591203", "censuscode2021": null, "level": "Village", "tru": "Rural", "no_hh": 946, "tot_p": 3604, "tot_m": 1836, "tot_f": 1768, "per_tot_m": 50.94339623, "per_tot_f": 49.05660377, "p_06": 494, "m_06": 271, "f_06": 223, "per_p_06": 13.70699223, "per_m_06": 54.8582996, "per_f_06": 45.1417004, "p_sc": 225, "m_sc": 115, "f_sc": 110, "per_p_sc": 6.24306326, "per_m_sc": 51.11111111, "per_f_sc": 48.88888889, "p_st": 6, "m_st": 3, "f_st": 3, "per_p_st": 0.16648169, "per_m_st": 50.0, "per_f_st": 50.0, "p_lit": 1796, "m_lit": 1135, "f_lit": 661, "per_p_lit": 49.83351831, "per_m_lit": 63.19599109, "per_f_lit": 36.80400891, "p_ill": 1808, "m_ill": 701, "f_ill": 1107, "per_p_ill": 50.16648169, "per_m_ill": 38.77212389, "per_f_ill": 61.22787611, "tot_work_p": 2089, "tot_work_m": 1035, "tot_work_f": 1054, "per_tot_work_p": 57.96337403, "per_tot_work_m": 49.54523696, "per_tot_work_f": 50.45476304, "mainwork_p": 1716, "mainwork_m": 927, "mainwork_f": 789, "per_mainwork_p": 47.61376249, "per_mainwork_m": 54.02097902, "per_mainwork_f": 45.97902098, "main_cl_p": 457, "main_cl_m": 322, "main_cl_f": 135, "per_main_cl_p": 26.63170163, "per_main_cl_m": 70.4595186, "per_main_cl_f": 29.5404814, "main_al_p": 1139, "main_al_m": 502, "main_al_f": 637, "per_main_al_p": 66.37529138000001, "per_main_al_m": 44.0737489, "per_main_al_f": 55.9262511, "main_hh_p": 10, "main_hh_m": 8, "main_hh_f": 2, "per_main_hh_p": 0.58275058, "per_main_hh_m": 80.0, "per_main_hh_f": 20.0, "main_ot_p": 110, "main_ot_m": 95, "main_ot_f": 15, "per_main_ot_p": 6.41025641, "per_main_ot_m": 86.36363636, "per_main_ot_f": 13.63636364, "margwork_p": 373, "margwork_m": 108, "margwork_f": 265, "per_margwork_p": 10.34961154, "per_margwork_m": 28.95442359, "per_margwork_f": 71.04557641000001, "marg_cl_p": 4, "marg_cl_m": 2, "marg_cl_f": 2, "per_marg_cl_p": 1.07238606, "per_marg_cl_m": 50.0, "per_marg_cl_f": 50.0, "marg_al_p": 346, "marg_al_m": 91, "marg_al_f": 255, "per_marg_al_p": 92.7613941, "per_marg_al_m": 26.30057803, "per_marg_al_f": 73.69942197, "marg_hh_p": 0, "marg_hh_m": 0, "marg_hh_f": 0, "per_marg_hh_p": 0.0, "per_marg_hh_m": 0.0, "per_marg_hh_f": 0.0, "marg_ot_p": 23, "marg_ot_m": 15, "marg_ot_f": 8, "per_marg_ot_p": 6.16621984, "per_marg_ot_m": 65.2173913, "per_marg_ot_f": 34.7826087, "margwork_3_6_p": 365, "margwork_3_6_m": 105, "margwork_3_6_f": 260, "per_margwork_3_6_p": 97.85522788, "per_margwork_3_6_m": 28.76712329, "per_margwork_3_6_f": 71.23287671, "marg_cl_3_6_p": 4, "marg_cl_3_6_m": 2, "marg_cl_3_6_f": 2, "per_marg_cl_3_6_p": 1.07238606, "per_marg_cl_3_6_m": 50.0, "per_marg_cl_3_6_f": 50.0, "marg_al_3_6_p": 338, "marg_al_3_6_m": 88, "marg_al_3_6_f": 250, "per_marg_al_3_6_p": 90.61662198, "per_marg_al_3_6_m": 26.03550296, "per_marg_al_3_6_f": 73.96449704, "marg_hh_3_6_p": 0, "marg_hh_3_6_m": 0, "marg_hh_3_6_f": 0, "per_marg_hh_3_6_p": 0.0, "per_marg_hh_3_6_m": 0.0, "per_marg_hh_3_6_f": 0.0, "marg_ot_3_6_p": 23, "marg_ot_3_6_m": 15, "marg_ot_3_6_f": 8, "per_marg_ot_3_6_p": 6.16621984, "per_marg_ot_3_6_m": 65.2173913, "per_marg_ot_3_6_f": 34.7826087, "margwork_0_3_p": 8, "margwork_0_3_m": 3, "margwork_0_3_f": 5, "per_margwork_0_3_p": 2.14477212, "per_margwork_0_3_m": 37.5, "per_margwork_0_3_f": 62.5, "marg_cl_0_3_p": 0, "marg_cl_0_3_m": 0, "marg_cl_0_3_f": 0, "per_marg_cl_0_3_p": 0.0, "per_marg_cl_0_3_m": 0.0, "per_marg_cl_0_3_f": 0.0, "marg_al_0_3_p": 8, "marg_al_0_3_m": 3, "marg_al_0_3_f": 5, "per_marg_al_0_3_p": 2.14477212, "per_marg_al_0_3_m": 37.5, "per_marg_al_0_3_f": 62.5, "marg_hh_0_3_p": 0, "marg_hh_0_3_m": 0, "marg_hh_0_3_f": 0, "per_marg_hh_0_3_p": 0.0, "per_marg_hh_0_3_m": 0.0, "per_marg_hh_0_3_f": 0.0, "marg_ot_0_3_p": 0, "marg_ot_0_3_m": 0, "marg_ot_0_3_f": 0, "per_marg_ot_0_3_p": 0.0, "per_marg_ot_0_3_m": 0.0, "per_marg_ot_0_3_f": 0.0, "non_work_p": 1515, "non_work_m": 801, "non_work_f": 714, "per_non_work_p": 42.03662597, "per_non_work_m": 52.87128713, "per_non_work_f": 47.12871287, "per_hc_tot_tot": 100, "per_hc_tot_god": 73.1, "per_hc_tot_liv": 23.3, "per_hc_tot_dil": 3.6, "per_hc_res_tot": 99.3, "per_hc_res_god": 72.7, "per_hc_res_liv": 23.0, "per_hc_res_dil": 3.6, "per_hc_oth_tot": 0.7, "per_hc_oth_god": 0.4, "per_hc_oth_liv": 0.3, "per_hc_oth_dil": 0.0, "per_mt_grsbam": 37.6, "per_mt_plastic": 0.0, "per_mt_h_tiles": 0.4, "per_mt_m_tiles": 1.0, "per_mt_b_brick": 0.0, "per_mt_stone": 2.1, "per_mt_asbstos": 8.4, "per_mt_concrte": 50.5, "per_mt_oth": 0.0, "per_mw_grsbam": 1.1, "per_mw_plastic": 0.1, "per_mw_mud": 19.3, "per_mw_wood": 0.1, "per_mw_no_mrtr": 11.8, "per_mw_st_mrtr": 31.7, "per_mw_asbstos": 0.0, "per_mw_b_brick": 35.9, "per_mw_concrte": 0.1, "per_mw_oth": 0.0, "per_mf_mud": 30.9, "per_mf_wood": 0.0, "per_mf_b_brick": 0.1, "per_mf_stone": 60.7, "per_mf_cement": 8.0, "per_mf_fl_tile": 0.3, "per_mf_oth": 0.0, "per_dw_n_exrm": 0.3, "per_dw_1_room": 67.9, "per_dw_2_room": 28.9, "per_dw_3_room": 2.6, "per_dw_4_room": 0.2, "per_dw_5_room": 0.0, "per_dw_6_room": 0.1, "per_hhsize_1": 5.9, "per_hhsize_2": 16.1, "per_hhsize_3": 18.8, "per_hhsize_4": 28.7, "per_hhsize_5": 19.3, "per_hhsize_6_8": 10.5, "per_hhsize_9p": 0.7, "per_ow_owned": 94.9, "per_ow_rented": 5.0, "per_ow_oth": 0.1, "per_mc_none": 11.3, "per_mcouple_1": 77.9, "per_mcouple_2": 9.8, "per_mcouple_3": 1.1, "per_mcouple_4": 0.0, "per_mcouple_5p": 0.0, "per_dw_t_ts": 13.8, "per_dw_t_unts": 66.8, "per_dw_c_well": 0.1, "per_dw_unc_wel": 0.0, "per_dw_hpump": 0.0, "per_dw_tw_bore": 19.3, "per_dw_spring": 0.0, "per_dw_rivcan": 0.0, "per_dw_tank": 0.0, "per_dw_oth": 0.0, "per_loc_dw_wp": 3.5, "per_loc_dw_np": 61.2, "per_loc_dw_aw": 35.3, "per_light_elec": 82.3, "per_light_kero": 17.6, "per_light_solr": 0.0, "per_light_oil": 0.1, "per_light_oth": 0.0, "per_light_no": 0.0, "per_hh_latrine": 9.6, "per_fl_sewer": 0.2, "per_fl_septict": 5.6, "per_fl_othsys": 0.1, "per_pl_wslab": 3.1, "per_pl_without": 0.5, "per_ns_open": 0.0, "per_sl_ns_hum": 0.0, "per_sl_ns_anml": 0.0, "per_hh_no_lat": 90.4, "per_as_pub": 0.0, "per_as_open": 90.4, "per_hh_bathrm": 23.3, "per_hh_en_wrf": 33.1, "per_hh_no_btrm": 43.6, "per_wwoc_drain": 7.8, "per_wwoc_open": 6.3, "per_wwoc_nodrn": 86.0, "per_cook_fire": 97.2, "per_cook_resdu": 0.6, "per_cook_cwdng": 0.1, "per_cook_coal": 0.0, "per_cook_kero": 0.0, "per_cook_lpng": 2.0, "per_cook_elec": 0.0, "per_cook_biogs": 0.0, "per_cook_oth": 0.0, "per_cook_no": 0.0, "per_kf_inside": 96.0, "per_kf_in_has": 35.3, "per_kf_in_does": 60.6, "per_kf_outside": 4.0, "per_kf_out_has": 1.9, "per_kf_out_dos": 2.1, "per_kf_no_cook": 0.0, "per_hh_banking": 53.9, "per_hh_radio": 2.3, "per_hh_tv": 31.4, "per_hh_cmp_int": 0.0, "per_hh_cmp_wnt": 1.6, "per_hh_ph_ll": 0.4, "per_hh_ph_mob": 48.6, "per_hh_ph_bth": 0.4, "per_hh_bcycl": 13.5, "per_hh_2wheel": 4.5, "per_hh_4wheel": 0.0, "per_hh_tvcomp": 0.0, "per_hh_no_ast": 41.0, "per_hs_perma": 58.3, "per_hs_sperma": 25.3, "per_hs_temp": 16.4, "per_hs_servc": 15.3, "per_hs_nservc": 1.1, "per_hs_unclss": 0.0, "avghhsz_cy": 3.80972516, "st_areashape": 22447921.42694907, "st_lengthshape": 21094.169946445596}, "geometry": {"type": "Polygon", "coordinates": [[[79.01803999925868, 15.390120000442161], [79.01772000048987, 15.38864000051698], [79.01678999982904, 15.387660000300428], [79.01333000017169, 15.388169999919443], [79.00904000031099, 15.389740000107757], [79.0071199996132, 15.389460000511445], [79.00573999958888, 15.388389999759962], [79.00380999974367, 15.38526999973975], [79.0020599998235, 15.381979999709808], [79.00011999993256, 15.378509999706877], [78.99964999957929, 15.374070000614047], [78.99990000072285, 15.37208000044649], [78.99999999938365, 15.371319999951465], [79.00116999934565, 15.367429999626324], [79.00306999995196, 15.362660000303954], [79.00380999974367, 15.360460000419323], [79.0041500004006, 15.359469999570234], [79.00570000030423, 15.358680000491798], [79.01108999980677, 15.357650000467562], [79.01263000056296, 15.356600000758933], [79.0134499998223, 15.35500999955527], [79.01343999977654, 15.351370000351256], [79.01452999937266, 15.350320000226944], [79.01835999982413, 15.349450000107172], [79.01917999998179, 15.348929999907247], [79.01926000034773, 15.347240000056921], [79.01896999991952, 15.342989999844182], [79.01887999950782, 15.341660000331451], [79.0185899999779, 15.341589999484153], [79.02065000041776, 15.340800000299502], [79.0239899995262, 15.340009999859255], [79.02611000024054, 15.339279999943402], [79.02921000004774, 15.338979999535002], [79.03165000042922, 15.339210000031022], [79.03348000071531, 15.34000000003192], [79.03439000038635, 15.340499999475378], [79.03537999952499, 15.340539999552405], [79.0364299998364, 15.34029999984161], [79.03849999942369, 15.338369999252828], [79.03948000031325, 15.337419999995282], [79.04017999992197, 15.33717999929863], [79.04167000044943, 15.337009999865675], [79.04268999972531, 15.336729999631675], [79.04409999988685, 15.334190000354317], [79.04475000016518, 15.333209999827242], [79.04617000037244, 15.332370000049078], [79.04673000023912, 15.332099999867404], [79.04738999966487, 15.335580000025663], [79.04873999955196, 15.337989999894969], [79.05031999959279, 15.340579999621772], [79.05124999935529, 15.342360000583753], [79.05165999943415, 15.34312999971049], [79.05056999983805, 15.345770000159082], [79.05000000082396, 15.348169999950322], [79.05005000015439, 15.35209999957698], [79.04998999987991, 15.353300000314272], [79.04940999992178, 15.354780000006953], [79.0473699995734, 15.356719999508126], [79.04650000008535, 15.357490000234518], [79.04580999962405, 15.358619999957062], [79.04537999945371, 15.359540000484639], [79.04572000011068, 15.361979999856725], [79.04671000014761, 15.364709999978496], [79.04713000027219, 15.366549999547148], [79.04661999973595, 15.3688199996743], [79.04452000001143, 15.371030000639074], [79.04186000042026, 15.371579999589326], [79.03986000025482, 15.372029999461962], [79.03810999943636, 15.373150000104065], [79.03691000023544, 15.373489999711225], [79.03611000016924, 15.37483000060783], [79.03563999981598, 15.376000000103211], [79.0347400001907, 15.378679999970352], [79.03416999937998, 15.381079999532947], [79.03416000023256, 15.381409999616285], [79.0331900002871, 15.381009999789265], [79.03177000007983, 15.380999999329012], [79.03092999983069, 15.381099999579119], [79.02849000034753, 15.381649999663441], [79.02560999975, 15.383889999758656], [79.02368999995055, 15.385369999671687], [79.02194000003038, 15.386879999994962], [79.02006000041388, 15.388420000074548], [79.01917999998179, 15.389199999806674], [79.01803999925868, 15.390120000442161]]]}}]}