{"type": "FeatureCollection", "features": [{"type": "Feature", "properties": {"premiumdata.sde.IN_Village_PCA.area": 12.62290895, "objectid": 406, "id": "295345561108890", "name": "Tenkayedapadavu", "subdistrict": "Mangaluru", "district": "Dakshina Kannada", "state": "Karnataka", "country": "India", "censusname": "Tenkayedapadavu", "villagename_locallang": null, "lgd_villagename": "Tenkayedapadavu", "lgd_villagecode": 617486, "lgd_subdistrictcode": 5561, "lgd_districtcode": 534, "lgd_statecode": 29, "censuscode2001": "02697400", "censuscode2011": "617486", "censuscode2021": null, "level": "Village", "tru": "Rural", "no_hh": 1272, "tot_p": 6228, "tot_m": 3112, "tot_f": 3116, "per_tot_m": 49.96788696, "per_tot_f": 50.03211304, "p_06": 565, "m_06": 294, "f_06": 271, "per_p_06": 9.0719332, "per_m_06": 52.03539823, "per_f_06": 47.96460177, "p_sc": 166, "m_sc": 90, "f_sc": 76, "per_p_sc": 2.66538215, "per_m_sc": 54.21686747, "per_f_sc": 45.78313253, "p_st": 471, "m_st": 242, "f_st": 229, "per_p_st": 7.56262042, "per_m_st": 51.38004246000001, "per_f_st": 48.61995754, "p_lit": 4784, "m_lit": 2574, "f_lit": 2210, "per_p_lit": 76.81438664000001, "per_m_lit": 53.80434783, "per_f_lit": 46.19565217, "p_ill": 1444, "m_ill": 538, "f_ill": 906, "per_p_ill": 23.18561336, "per_m_ill": 37.25761773, "per_f_ill": 62.74238227, "tot_work_p": 3397, "tot_work_m": 1940, "tot_work_f": 1457, "per_tot_work_p": 54.54399486, "per_tot_work_m": 57.10921401, "per_tot_work_f": 42.89078599, "mainwork_p": 3326, "mainwork_m": 1906, "mainwork_f": 1420, "per_mainwork_p": 53.40398202, "per_mainwork_m": 57.30607336, "per_mainwork_f": 42.69392664, "main_cl_p": 172, "main_cl_m": 148, "main_cl_f": 24, "per_main_cl_p": 5.17137703, "per_main_cl_m": 86.04651163, "per_main_cl_f": 13.95348837, "main_al_p": 127, "main_al_m": 87, "main_al_f": 40, "per_main_al_p": 3.81840048, "per_main_al_m": 68.50393701, "per_main_al_f": 31.49606299, "main_hh_p": 1067, "main_hh_m": 43, "main_hh_f": 1024, "per_main_hh_p": 32.08057727, "per_main_hh_m": 4.02999063, "per_main_hh_f": 95.97000937, "main_ot_p": 1960, "main_ot_m": 1628, "main_ot_f": 332, "per_main_ot_p": 58.92964522, "per_main_ot_m": 83.06122449, "per_main_ot_f": 16.93877551, "margwork_p": 71, "margwork_m": 34, "margwork_f": 37, "per_margwork_p": 1.14001285, "per_margwork_m": 47.88732394, "per_margwork_f": 52.11267606, "marg_cl_p": 1, "marg_cl_m": 1, "marg_cl_f": 0, "per_marg_cl_p": 1.4084507, "per_marg_cl_m": 100.0, "per_marg_cl_f": 0.0, "marg_al_p": 13, "marg_al_m": 1, "marg_al_f": 12, "per_marg_al_p": 18.30985915, "per_marg_al_m": 7.69230769, "per_marg_al_f": 92.30769231, "marg_hh_p": 10, "marg_hh_m": 1, "marg_hh_f": 9, "per_marg_hh_p": 14.08450704, "per_marg_hh_m": 10.0, "per_marg_hh_f": 90.0, "marg_ot_p": 47, "marg_ot_m": 31, "marg_ot_f": 16, "per_marg_ot_p": 66.1971831, "per_marg_ot_m": 65.95744681000001, "per_marg_ot_f": 34.04255319, "margwork_3_6_p": 44, "margwork_3_6_m": 25, "margwork_3_6_f": 19, "per_margwork_3_6_p": 61.97183099, "per_margwork_3_6_m": 56.81818182, "per_margwork_3_6_f": 43.18181818, "marg_cl_3_6_p": 1, "marg_cl_3_6_m": 1, "marg_cl_3_6_f": 0, "per_marg_cl_3_6_p": 1.4084507, "per_marg_cl_3_6_m": 100.0, "per_marg_cl_3_6_f": 0.0, "marg_al_3_6_p": 6, "marg_al_3_6_m": 1, "marg_al_3_6_f": 5, "per_marg_al_3_6_p": 8.45070423, "per_marg_al_3_6_m": 16.66666667, "per_marg_al_3_6_f": 83.33333332999999, "marg_hh_3_6_p": 9, "marg_hh_3_6_m": 1, "marg_hh_3_6_f": 8, "per_marg_hh_3_6_p": 12.67605634, "per_marg_hh_3_6_m": 11.11111111, "per_marg_hh_3_6_f": 88.88888889, "marg_ot_3_6_p": 28, "marg_ot_3_6_m": 22, "marg_ot_3_6_f": 6, "per_marg_ot_3_6_p": 39.43661972, "per_marg_ot_3_6_m": 78.57142857, "per_marg_ot_3_6_f": 21.42857143, "margwork_0_3_p": 27, "margwork_0_3_m": 9, "margwork_0_3_f": 18, "per_margwork_0_3_p": 38.02816901, "per_margwork_0_3_m": 33.33333333, "per_margwork_0_3_f": 66.66666667, "marg_cl_0_3_p": 0, "marg_cl_0_3_m": 0, "marg_cl_0_3_f": 0, "per_marg_cl_0_3_p": 0.0, "per_marg_cl_0_3_m": 0.0, "per_marg_cl_0_3_f": 0.0, "marg_al_0_3_p": 7, "marg_al_0_3_m": 0, "marg_al_0_3_f": 7, "per_marg_al_0_3_p": 9.85915493, "per_marg_al_0_3_m": 0.0, "per_marg_al_0_3_f": 100.0, "marg_hh_0_3_p": 1, "marg_hh_0_3_m": 0, "marg_hh_0_3_f": 1, "per_marg_hh_0_3_p": 1.4084507, "per_marg_hh_0_3_m": 0.0, "per_marg_hh_0_3_f": 100.0, "marg_ot_0_3_p": 19, "marg_ot_0_3_m": 9, "marg_ot_0_3_f": 10, "per_marg_ot_0_3_p": 26.76056338, "per_marg_ot_0_3_m": 47.36842105, "per_marg_ot_0_3_f": 52.63157895000001, "non_work_p": 2831, "non_work_m": 1172, "non_work_f": 1659, "per_non_work_p": 45.45600514, "per_non_work_m": 41.39879901, "per_non_work_f": 58.60120099, "per_hc_tot_tot": 100, "per_hc_tot_god": 63.8, "per_hc_tot_liv": 34.2, "per_hc_tot_dil": 2.0, "per_hc_res_tot": 99.7, "per_hc_res_god": 63.7, "per_hc_res_liv": 34.0, "per_hc_res_dil": 2.0, "per_hc_oth_tot": 0.3, "per_hc_oth_god": 0.1, "per_hc_oth_liv": 0.2, "per_hc_oth_dil": 0.1, "per_mt_grsbam": 0.2, "per_mt_plastic": 0.3, "per_mt_h_tiles": 0.1, "per_mt_m_tiles": 79.5, "per_mt_b_brick": 0.7, "per_mt_stone": 0.9, "per_mt_asbstos": 0.8, "per_mt_concrte": 17.4, "per_mt_oth": 0.0, "per_mw_grsbam": 0.2, "per_mw_plastic": 0.2, "per_mw_mud": 13.0, "per_mw_wood": 0.0, "per_mw_no_mrtr": 30.3, "per_mw_st_mrtr": 53.5, "per_mw_asbstos": 0.0, "per_mw_b_brick": 0.0, "per_mw_concrte": 2.6, "per_mw_oth": 0.2, "per_mf_mud": 7.6, "per_mf_wood": 0.0, "per_mf_b_brick": 0.0, "per_mf_stone": 0.1, "per_mf_cement": 79.9, "per_mf_fl_tile": 12.0, "per_mf_oth": 0.3, "per_dw_n_exrm": 1.0, "per_dw_1_room": 13.2, "per_dw_2_room": 28.6, "per_dw_3_room": 18.9, "per_dw_4_room": 19.3, "per_dw_5_room": 9.7, "per_dw_6_room": 9.3, "per_hhsize_1": 3.4, "per_hhsize_2": 7.6, "per_hhsize_3": 12.8, "per_hhsize_4": 24.1, "per_hhsize_5": 19.5, "per_hhsize_6_8": 22.8, "per_hhsize_9p": 9.8, "per_ow_owned": 94.8, "per_ow_rented": 4.4, "per_ow_oth": 0.8, "per_mc_none": 20.6, "per_mcouple_1": 63.1, "per_mcouple_2": 11.4, "per_mcouple_3": 3.7, "per_mcouple_4": 1.1, "per_mcouple_5p": 0.1, "per_dw_t_ts": 11.1, "per_dw_t_unts": 2.1, "per_dw_c_well": 0.0, "per_dw_unc_wel": 64.1, "per_dw_hpump": 2.0, "per_dw_tw_bore": 18.9, "per_dw_spring": 0.0, "per_dw_rivcan": 0.0, "per_dw_tank": 0.2, "per_dw_oth": 1.6, "per_loc_dw_wp": 80.3, "per_loc_dw_np": 9.8, "per_loc_dw_aw": 9.8, "per_light_elec": 91.2, "per_light_kero": 7.3, "per_light_solr": 0.2, "per_light_oil": 0.1, "per_light_oth": 0.0, "per_light_no": 1.1, "per_hh_latrine": 90.5, "per_fl_sewer": 0.5, "per_fl_septict": 89.4, "per_fl_othsys": 0.2, "per_pl_wslab": 0.2, "per_pl_without": 0.0, "per_ns_open": 0.0, "per_sl_ns_hum": 0.0, "per_sl_ns_anml": 0.1, "per_hh_no_lat": 9.5, "per_as_pub": 1.9, "per_as_open": 7.6, "per_hh_bathrm": 91.9, "per_hh_en_wrf": 3.7, "per_hh_no_btrm": 4.4, "per_wwoc_drain": 17.5, "per_wwoc_open": 31.4, "per_wwoc_nodrn": 51.1, "per_cook_fire": 80.7, "per_cook_resdu": 0.2, "per_cook_cwdng": 0.0, "per_cook_coal": 0.1, "per_cook_kero": 0.2, "per_cook_lpng": 18.4, "per_cook_elec": 0.0, "per_cook_biogs": 0.0, "per_cook_oth": 0.0, "per_cook_no": 0.4, "per_kf_inside": 97.3, "per_kf_in_has": 96.3, "per_kf_in_does": 1.0, "per_kf_outside": 2.3, "per_kf_out_has": 0.2, "per_kf_out_dos": 2.1, "per_kf_no_cook": 0.4, "per_hh_banking": 94.8, "per_hh_radio": 28.3, "per_hh_tv": 67.3, "per_hh_cmp_int": 0.9, "per_hh_cmp_wnt": 2.1, "per_hh_ph_ll": 3.4, "per_hh_ph_mob": 68.1, "per_hh_ph_bth": 13.8, "per_hh_bcycl": 17.6, "per_hh_2wheel": 14.8, "per_hh_4wheel": 6.7, "per_hh_tvcomp": 1.5, "per_hh_no_ast": 8.0, "per_hs_perma": 86.1, "per_hs_sperma": 13.4, "per_hs_temp": 0.2, "per_hs_servc": 0.1, "per_hs_nservc": 0.2, "per_hs_unclss": 0.2, "avghhsz_cy": 4.89622642, "st_areashape": 13375173.51766692, "st_lengthshape": 16400.909728485374}, "geometry": {"type": "Polygon", "coordinates": [[[74.96593402136055, 13.004890999589117], [74.96358921724638, 13.00539820212831], [74.96099332412881, 13.006411888125646], [74.9589278376775, 13.00745276097153], [74.95661097027036, 13.008137823993328], [74.95429375521519, 13.007755263828672], [74.95239499787724, 13.00638708475427], [74.94946329833681, 13.004827551824565], [74.9496582632962, 13.003294530073331], [74.94905340515749, 13.001292264954516], [74.94893786294735, 13.000189500712779], [74.94834750631227, 12.99877057840967], [74.94716713709694, 12.997035338570388], [74.94719404163972, 12.994459191570614], [74.94760819193515, 12.991995998011884], [74.94840046199828, 12.99049076386024], [74.94926664993461, 12.989740236271903], [74.95027125927301, 12.98927444683465], [74.95098087085529, 12.988813317661341], [74.9517780762626, 12.988609680583476], [74.95269063074232, 12.988523530424889], [74.95366305524075, 12.988523286207283], [74.9536626015915, 12.987248755806203], [74.95455160314276, 12.985743471003182], [74.9532194240343, 12.984613945790276], [74.95325154060232, 12.984265985980132], [74.95363392736766, 12.983773235169007], [74.95449131181417, 12.98426562183578], [74.95555141188431, 12.984843772088754], [74.95651010832856, 12.98500620191911], [74.95816464518178, 12.985032880663486], [74.95984662017705, 12.984426741650482], [74.9601414580331, 12.984137382594447], [74.96022881200795, 12.983558876181409], [74.95946328928241, 12.98202239676403], [74.95822285241894, 12.979880516683973], [74.95686263778877, 12.977910467219296], [74.95603694770212, 12.97533451582665], [74.95709692560139, 12.97530706833437], [74.9578341981079, 12.975171246315293], [74.95863148166866, 12.975112272899905], [74.96057603871303, 12.974709433563076], [74.96113821609595, 12.974505931117722], [74.96146081908078, 12.974505749038384], [74.96196281113626, 12.973348662024762], [74.96258456928041, 12.97239029521951], [74.96441374311642, 12.971350168331723], [74.96547351889478, 12.970825543327935], [74.96636274143158, 12.970423034075255], [74.96919227198148, 12.970304518597445], [74.97208638780707, 12.970335159211146], [74.97471321800468, 12.970420076113092], [74.97612794420293, 12.970302079743801], [74.97656205775894, 12.972561654268233], [74.9775948104169, 12.973835817037495], [74.97951262461528, 12.975398869263866], [74.98081265481636, 12.976582436432981], [74.98205317342648, 12.978611202909336], [74.98243632196315, 12.979998635435717], [74.98361655014303, 12.981010482707624], [74.98529879014127, 12.981186132071695], [74.98565406934456, 12.982166700725491], [74.98645214162613, 12.984109790766432], [74.98790008662527, 12.985785923325029], [74.98961068014884, 12.987611104576052], [74.99057450417676, 12.988812877369854], [74.99143232071292, 12.990597396809997], [74.99004548630595, 12.99137993670918], [74.98930841861532, 12.992193744042131], [74.98833623306875, 12.992713941229342], [74.98647488337586, 12.99419256992814], [74.98727345691735, 12.996971754876055], [74.984471787616, 12.998247389015953], [74.98503529270889, 13.000710636085518], [74.97779558028964, 13.00124604717266], [74.97701572404539, 13.002094865040165], [74.97599698690249, 13.002601674166893], [74.97499192301653, 13.002396738975177], [74.97208863179866, 13.00237042008723], [74.97033020568114, 13.003151216077404], [74.96985621501135, 13.004711724973415], [74.96890710628612, 13.00484892777728], [74.96739961376345, 13.00483575664751], [74.96593402136055, 13.004890999589117]]]}}]}