{"type": "FeatureCollection", "features": [{"type": "Feature", "properties": {"premiumdata.sde.IN_Village_PCA.area": 1.2735146, "objectid": 476931, "id": "101891484294309", "name": "Bahadurpur", "subdistrict": "Kutumba", "district": "Aurangabad", "state": "Bihar", "country": "India", "censusname": "Bahadurpur", "villagename_locallang": "\u092c\u0939\u093e\u0926\u0941\u0930\u092a\u0941\u0930", "lgd_villagename": "Bahadurpur", "lgd_villagecode": 254132, "lgd_subdistrictcode": 1484, "lgd_districtcode": 189, "lgd_statecode": 10, "censuscode2001": "03920200", "censuscode2011": "254132", "censuscode2021": null, "level": "Village", "tru": "Rural", "no_hh": 196, "tot_p": 1067, "tot_m": 554, "tot_f": 513, "per_tot_m": 51.9212746, "per_tot_f": 48.0787254, "p_06": 211, "m_06": 107, "f_06": 104, "per_p_06": 19.77507029, "per_m_06": 50.71090047000001, "per_f_06": 49.28909953, "p_sc": 387, "m_sc": 195, "f_sc": 192, "per_p_sc": 36.26991565, "per_m_sc": 50.3875969, "per_f_sc": 49.6124031, "p_st": 0, "m_st": 0, "f_st": 0, "per_p_st": 0.0, "per_m_st": 0.0, "per_f_st": 0.0, "p_lit": 661, "m_lit": 385, "f_lit": 276, "per_p_lit": 61.94939082, "per_m_lit": 58.24508321, "per_f_lit": 41.75491679, "p_ill": 406, "m_ill": 169, "f_ill": 237, "per_p_ill": 38.05060918, "per_m_ill": 41.62561576, "per_f_ill": 58.37438424, "tot_work_p": 371, "tot_work_m": 274, "tot_work_f": 97, "per_tot_work_p": 34.77038425, "per_tot_work_m": 73.85444744, "per_tot_work_f": 26.14555256, "mainwork_p": 134, "mainwork_m": 126, "mainwork_f": 8, "per_mainwork_p": 12.55857545, "per_mainwork_m": 94.02985075, "per_mainwork_f": 5.97014925, "main_cl_p": 57, "main_cl_m": 55, "main_cl_f": 2, "per_main_cl_p": 42.53731343, "per_main_cl_m": 96.49122807, "per_main_cl_f": 3.50877193, "main_al_p": 75, "main_al_m": 70, "main_al_f": 5, "per_main_al_p": 55.97014925, "per_main_al_m": 93.33333332999999, "per_main_al_f": 6.66666667, "main_hh_p": 0, "main_hh_m": 0, "main_hh_f": 0, "per_main_hh_p": 0.0, "per_main_hh_m": 0.0, "per_main_hh_f": 0.0, "main_ot_p": 2, "main_ot_m": 1, "main_ot_f": 1, "per_main_ot_p": 1.49253731, "per_main_ot_m": 50.0, "per_main_ot_f": 50.0, "margwork_p": 237, "margwork_m": 148, "margwork_f": 89, "per_margwork_p": 22.21180881, "per_margwork_m": 62.44725738, "per_margwork_f": 37.55274262, "marg_cl_p": 0, "marg_cl_m": 0, "marg_cl_f": 0, "per_marg_cl_p": 0.0, "per_marg_cl_m": 0.0, "per_marg_cl_f": 0.0, "marg_al_p": 210, "marg_al_m": 122, "marg_al_f": 88, "per_marg_al_p": 88.60759494, "per_marg_al_m": 58.0952381, "per_marg_al_f": 41.9047619, "marg_hh_p": 23, "marg_hh_m": 23, "marg_hh_f": 0, "per_marg_hh_p": 9.70464135, "per_marg_hh_m": 100.0, "per_marg_hh_f": 0.0, "marg_ot_p": 4, "marg_ot_m": 3, "marg_ot_f": 1, "per_marg_ot_p": 1.68776371, "per_marg_ot_m": 75.0, "per_marg_ot_f": 25.0, "margwork_3_6_p": 151, "margwork_3_6_m": 118, "margwork_3_6_f": 33, "per_margwork_3_6_p": 63.71308017, "per_margwork_3_6_m": 78.14569536, "per_margwork_3_6_f": 21.85430464, "marg_cl_3_6_p": 0, "marg_cl_3_6_m": 0, "marg_cl_3_6_f": 0, "per_marg_cl_3_6_p": 0.0, "per_marg_cl_3_6_m": 0.0, "per_marg_cl_3_6_f": 0.0, "marg_al_3_6_p": 124, "marg_al_3_6_m": 92, "marg_al_3_6_f": 32, "per_marg_al_3_6_p": 52.32067511, "per_marg_al_3_6_m": 74.19354839, "per_marg_al_3_6_f": 25.80645161, "marg_hh_3_6_p": 23, "marg_hh_3_6_m": 23, "marg_hh_3_6_f": 0, "per_marg_hh_3_6_p": 9.70464135, "per_marg_hh_3_6_m": 100.0, "per_marg_hh_3_6_f": 0.0, "marg_ot_3_6_p": 4, "marg_ot_3_6_m": 3, "marg_ot_3_6_f": 1, "per_marg_ot_3_6_p": 1.68776371, "per_marg_ot_3_6_m": 75.0, "per_marg_ot_3_6_f": 25.0, "margwork_0_3_p": 86, "margwork_0_3_m": 30, "margwork_0_3_f": 56, "per_margwork_0_3_p": 36.28691983, "per_margwork_0_3_m": 34.88372093, "per_margwork_0_3_f": 65.11627907, "marg_cl_0_3_p": 0, "marg_cl_0_3_m": 0, "marg_cl_0_3_f": 0, "per_marg_cl_0_3_p": 0.0, "per_marg_cl_0_3_m": 0.0, "per_marg_cl_0_3_f": 0.0, "marg_al_0_3_p": 86, "marg_al_0_3_m": 30, "marg_al_0_3_f": 56, "per_marg_al_0_3_p": 36.28691983, "per_marg_al_0_3_m": 34.88372093, "per_marg_al_0_3_f": 65.11627907, "marg_hh_0_3_p": 0, "marg_hh_0_3_m": 0, "marg_hh_0_3_f": 0, "per_marg_hh_0_3_p": 0.0, "per_marg_hh_0_3_m": 0.0, "per_marg_hh_0_3_f": 0.0, "marg_ot_0_3_p": 0, "marg_ot_0_3_m": 0, "marg_ot_0_3_f": 0, "per_marg_ot_0_3_p": 0.0, "per_marg_ot_0_3_m": 0.0, "per_marg_ot_0_3_f": 0.0, "non_work_p": 696, "non_work_m": 280, "non_work_f": 416, "per_non_work_p": 65.22961575000001, "per_non_work_m": 40.22988506, "per_non_work_f": 59.77011494, "per_hc_tot_tot": 100, "per_hc_tot_god": 8.9, "per_hc_tot_liv": 86.9, "per_hc_tot_dil": 4.2, "per_hc_res_tot": 99.0, "per_hc_res_god": 8.9, "per_hc_res_liv": 85.9, "per_hc_res_dil": 4.2, "per_hc_oth_tot": 1.0, "per_hc_oth_god": 0.0, "per_hc_oth_liv": 1.0, "per_hc_oth_dil": 0.0, "per_mt_grsbam": 12.0, "per_mt_plastic": 1.0, "per_mt_h_tiles": 60.2, "per_mt_m_tiles": 0.0, "per_mt_b_brick": 1.0, "per_mt_stone": 1.0, "per_mt_asbstos": 2.1, "per_mt_concrte": 22.5, "per_mt_oth": 0.0, "per_mw_grsbam": 0.0, "per_mw_plastic": 1.0, "per_mw_mud": 69.1, "per_mw_wood": 0.0, "per_mw_no_mrtr": 0.5, "per_mw_st_mrtr": 0.0, "per_mw_asbstos": 0.0, "per_mw_b_brick": 29.3, "per_mw_concrte": 0.0, "per_mw_oth": 0.0, "per_mf_mud": 91.6, "per_mf_wood": 1.0, "per_mf_b_brick": 5.8, "per_mf_stone": 0.0, "per_mf_cement": 0.5, "per_mf_fl_tile": 0.0, "per_mf_oth": 1.0, "per_dw_n_exrm": 5.8, "per_dw_1_room": 39.8, "per_dw_2_room": 29.8, "per_dw_3_room": 10.5, "per_dw_4_room": 8.9, "per_dw_5_room": 0.0, "per_dw_6_room": 5.2, "per_hhsize_1": 2.1, "per_hhsize_2": 10.5, "per_hhsize_3": 8.4, "per_hhsize_4": 15.7, "per_hhsize_5": 25.1, "per_hhsize_6_8": 29.8, "per_hhsize_9p": 8.4, "per_ow_owned": 100.0, "per_ow_rented": 0.0, "per_ow_oth": 0.0, "per_mc_none": 16.2, "per_mcouple_1": 66.0, "per_mcouple_2": 13.6, "per_mcouple_3": 4.2, "per_mcouple_4": 0.0, "per_mcouple_5p": 0.0, "per_dw_t_ts": 0.0, "per_dw_t_unts": 0.0, "per_dw_c_well": 0.0, "per_dw_unc_wel": 0.0, "per_dw_hpump": 100.0, "per_dw_tw_bore": 0.0, "per_dw_spring": 0.0, "per_dw_rivcan": 0.0, "per_dw_tank": 0.0, "per_dw_oth": 0.0, "per_loc_dw_wp": 42.4, "per_loc_dw_np": 50.8, "per_loc_dw_aw": 6.8, "per_light_elec": 0.0, "per_light_kero": 99.0, "per_light_solr": 0.5, "per_light_oil": 0.0, "per_light_oth": 0.0, "per_light_no": 0.5, "per_hh_latrine": 0.5, "per_fl_sewer": 0.5, "per_fl_septict": 0.0, "per_fl_othsys": 0.0, "per_pl_wslab": 0.0, "per_pl_without": 0.0, "per_ns_open": 0.0, "per_sl_ns_hum": 0.0, "per_sl_ns_anml": 0.0, "per_hh_no_lat": 99.5, "per_as_pub": 0.0, "per_as_open": 99.5, "per_hh_bathrm": 0.0, "per_hh_en_wrf": 75.4, "per_hh_no_btrm": 24.6, "per_wwoc_drain": 4.7, "per_wwoc_open": 74.9, "per_wwoc_nodrn": 20.4, "per_cook_fire": 2.1, "per_cook_resdu": 9.9, "per_cook_cwdng": 85.3, "per_cook_coal": 0.5, "per_cook_kero": 0.5, "per_cook_lpng": 0.0, "per_cook_elec": 0.0, "per_cook_biogs": 0.0, "per_cook_oth": 1.6, "per_cook_no": 0.0, "per_kf_inside": 94.2, "per_kf_in_has": 3.1, "per_kf_in_does": 91.1, "per_kf_outside": 5.8, "per_kf_out_has": 0.5, "per_kf_out_dos": 5.2, "per_kf_no_cook": 0.0, "per_hh_banking": 30.4, "per_hh_radio": 17.8, "per_hh_tv": 2.1, "per_hh_cmp_int": 1.0, "per_hh_cmp_wnt": 1.0, "per_hh_ph_ll": 0.0, "per_hh_ph_mob": 48.7, "per_hh_ph_bth": 0.5, "per_hh_bcycl": 63.4, "per_hh_2wheel": 0.5, "per_hh_4wheel": 0.5, "per_hh_tvcomp": 0.0, "per_hh_no_ast": 20.9, "per_hs_perma": 27.2, "per_hs_sperma": 62.3, "per_hs_temp": 10.5, "per_hs_servc": 10.5, "per_hs_nservc": 0.0, "per_hs_unclss": 0.0, "avghhsz_cy": 5.44387755, "st_areashape": 1548786.64904146, "st_lengthshape": 4872.037320990742}, "geometry": {"type": "Polygon", "coordinates": [[[84.31033654500966, 24.65860384669614], [84.3154763699938, 24.658144833549116], [84.32177488245557, 24.65860384669614], [84.32290386085013, 24.66025087915763], [84.32388429023607, 24.661033887355043], [84.32415167917027, 24.66165488954671], [84.32388429023607, 24.662626888050884], [84.32317125068268, 24.66313988339264], [84.32204227228812, 24.66351787921225], [84.32144807266026, 24.663787875525184], [84.32064590406101, 24.664948852197213], [84.32014083437736, 24.66654180291293], [84.31910098502864, 24.667837747661057], [84.3178531667085, 24.668890693519646], [84.31663505836977, 24.6686747053501], [84.31520898016127, 24.668836696512336], [84.31446623062646, 24.66897168898681], [84.3127430526041, 24.666946787347893], [84.3113169743956, 24.66608281896406], [84.31018799600103, 24.66583982759449], [84.30974234628015, 24.66224888953228], [84.30935611652205, 24.66000787561469], [84.31033654500966, 24.65860384669614]]]}}]}