{"type": "FeatureCollection", "features": [{"type": "Feature", "properties": {"premiumdata.sde.IN_Village_PCA.area": 0.17276539, "objectid": 350673, "id": "9142879373511", "name": "Chak Din Mohammadpur", "subdistrict": "Khaga", "district": "Fatehpur", "state": "Uttar Pradesh", "country": "India", "censusname": "Chak Din Mohammadpur", "villagename_locallang": null, "lgd_villagename": "Chak Din Mohammadpur", "lgd_villagecode": 157155, "lgd_subdistrictcode": 879, "lgd_districtcode": 142, "lgd_statecode": 9, "censuscode2001": "05018500", "censuscode2011": "157155", "censuscode2021": null, "level": "Village", "tru": "Rural", "no_hh": 222, "tot_p": 1415, "tot_m": 738, "tot_f": 677, "per_tot_m": 52.15547703, "per_tot_f": 47.84452297, "p_06": 241, "m_06": 118, "f_06": 123, "per_p_06": 17.03180212, "per_m_06": 48.9626556, "per_f_06": 51.0373444, "p_sc": 875, "m_sc": 466, "f_sc": 409, "per_p_sc": 61.83745583, "per_m_sc": 53.25714286, "per_f_sc": 46.74285714000001, "p_st": 0, "m_st": 0, "f_st": 0, "per_p_st": 0.0, "per_m_st": 0.0, "per_f_st": 0.0, "p_lit": 861, "m_lit": 513, "f_lit": 348, "per_p_lit": 60.84805654, "per_m_lit": 59.58188153, "per_f_lit": 40.41811847, "p_ill": 554, "m_ill": 225, "f_ill": 329, "per_p_ill": 39.15194346, "per_m_ill": 40.61371841, "per_f_ill": 59.38628159, "tot_work_p": 537, "tot_work_m": 366, "tot_work_f": 171, "per_tot_work_p": 37.95053004, "per_tot_work_m": 68.15642458, "per_tot_work_f": 31.84357542, "mainwork_p": 213, "mainwork_m": 197, "mainwork_f": 16, "per_mainwork_p": 15.05300353, "per_mainwork_m": 92.48826291, "per_mainwork_f": 7.51173709, "main_cl_p": 16, "main_cl_m": 16, "main_cl_f": 0, "per_main_cl_p": 7.51173709, "per_main_cl_m": 100.0, "per_main_cl_f": 0.0, "main_al_p": 161, "main_al_m": 152, "main_al_f": 9, "per_main_al_p": 75.58685446, "per_main_al_m": 94.40993789, "per_main_al_f": 5.59006211, "main_hh_p": 7, "main_hh_m": 7, "main_hh_f": 0, "per_main_hh_p": 3.28638498, "per_main_hh_m": 100.0, "per_main_hh_f": 0.0, "main_ot_p": 29, "main_ot_m": 22, "main_ot_f": 7, "per_main_ot_p": 13.61502347, "per_main_ot_m": 75.86206897, "per_main_ot_f": 24.13793103, "margwork_p": 324, "margwork_m": 169, "margwork_f": 155, "per_margwork_p": 22.8975265, "per_margwork_m": 52.16049383, "per_margwork_f": 47.83950617, "marg_cl_p": 0, "marg_cl_m": 0, "marg_cl_f": 0, "per_marg_cl_p": 0.0, "per_marg_cl_m": 0.0, "per_marg_cl_f": 0.0, "marg_al_p": 324, "marg_al_m": 169, "marg_al_f": 155, "per_marg_al_p": 100.0, "per_marg_al_m": 52.16049383, "per_marg_al_f": 47.83950617, "marg_hh_p": 0, "marg_hh_m": 0, "marg_hh_f": 0, "per_marg_hh_p": 0.0, "per_marg_hh_m": 0.0, "per_marg_hh_f": 0.0, "marg_ot_p": 0, "marg_ot_m": 0, "marg_ot_f": 0, "per_marg_ot_p": 0.0, "per_marg_ot_m": 0.0, "per_marg_ot_f": 0.0, "margwork_3_6_p": 324, "margwork_3_6_m": 169, "margwork_3_6_f": 155, "per_margwork_3_6_p": 100.0, "per_margwork_3_6_m": 52.16049383, "per_margwork_3_6_f": 47.83950617, "marg_cl_3_6_p": 0, "marg_cl_3_6_m": 0, "marg_cl_3_6_f": 0, "per_marg_cl_3_6_p": 0.0, "per_marg_cl_3_6_m": 0.0, "per_marg_cl_3_6_f": 0.0, "marg_al_3_6_p": 324, "marg_al_3_6_m": 169, "marg_al_3_6_f": 155, "per_marg_al_3_6_p": 100.0, "per_marg_al_3_6_m": 52.16049383, "per_marg_al_3_6_f": 47.83950617, "marg_hh_3_6_p": 0, "marg_hh_3_6_m": 0, "marg_hh_3_6_f": 0, "per_marg_hh_3_6_p": 0.0, "per_marg_hh_3_6_m": 0.0, "per_marg_hh_3_6_f": 0.0, "marg_ot_3_6_p": 0, "marg_ot_3_6_m": 0, "marg_ot_3_6_f": 0, "per_marg_ot_3_6_p": 0.0, "per_marg_ot_3_6_m": 0.0, "per_marg_ot_3_6_f": 0.0, "margwork_0_3_p": 0, "margwork_0_3_m": 0, "margwork_0_3_f": 0, "per_margwork_0_3_p": 0.0, "per_margwork_0_3_m": 0.0, "per_margwork_0_3_f": 0.0, "marg_cl_0_3_p": 0, "marg_cl_0_3_m": 0, "marg_cl_0_3_f": 0, "per_marg_cl_0_3_p": 0.0, "per_marg_cl_0_3_m": 0.0, "per_marg_cl_0_3_f": 0.0, "marg_al_0_3_p": 0, "marg_al_0_3_m": 0, "marg_al_0_3_f": 0, "per_marg_al_0_3_p": 0.0, "per_marg_al_0_3_m": 0.0, "per_marg_al_0_3_f": 0.0, "marg_hh_0_3_p": 0, "marg_hh_0_3_m": 0, "marg_hh_0_3_f": 0, "per_marg_hh_0_3_p": 0.0, "per_marg_hh_0_3_m": 0.0, "per_marg_hh_0_3_f": 0.0, "marg_ot_0_3_p": 0, "marg_ot_0_3_m": 0, "marg_ot_0_3_f": 0, "per_marg_ot_0_3_p": 0.0, "per_marg_ot_0_3_m": 0.0, "per_marg_ot_0_3_f": 0.0, "non_work_p": 878, "non_work_m": 372, "non_work_f": 506, "per_non_work_p": 62.04946996, "per_non_work_m": 42.3690205, "per_non_work_f": 57.6309795, "per_hc_tot_tot": 100, "per_hc_tot_god": 0.5, "per_hc_tot_liv": 99.5, "per_hc_tot_dil": 0.0, "per_hc_res_tot": 97.7, "per_hc_res_god": 0.0, "per_hc_res_liv": 97.7, "per_hc_res_dil": 0.0, "per_hc_oth_tot": 2.3, "per_hc_oth_god": 0.5, "per_hc_oth_liv": 1.8, "per_hc_oth_dil": 0.0, "per_mt_grsbam": 55.4, "per_mt_plastic": 0.0, "per_mt_h_tiles": 0.9, "per_mt_m_tiles": 0.0, "per_mt_b_brick": 43.2, "per_mt_stone": 0.0, "per_mt_asbstos": 0.0, "per_mt_concrte": 0.0, "per_mt_oth": 0.5, "per_mw_grsbam": 0.9, "per_mw_plastic": 0.5, "per_mw_mud": 36.5, "per_mw_wood": 0.0, "per_mw_no_mrtr": 0.0, "per_mw_st_mrtr": 0.9, "per_mw_asbstos": 0.0, "per_mw_b_brick": 60.8, "per_mw_concrte": 0.5, "per_mw_oth": 0.0, "per_mf_mud": 92.8, "per_mf_wood": 0.0, "per_mf_b_brick": 0.0, "per_mf_stone": 0.0, "per_mf_cement": 7.2, "per_mf_fl_tile": 0.0, "per_mf_oth": 0.0, "per_dw_n_exrm": 1.8, "per_dw_1_room": 30.2, "per_dw_2_room": 25.2, "per_dw_3_room": 17.6, "per_dw_4_room": 9.9, "per_dw_5_room": 8.6, "per_dw_6_room": 6.8, "per_hhsize_1": 1.8, "per_hhsize_2": 3.6, "per_hhsize_3": 8.1, "per_hhsize_4": 11.7, "per_hhsize_5": 15.3, "per_hhsize_6_8": 43.7, "per_hhsize_9p": 15.8, "per_ow_owned": 100.0, "per_ow_rented": 0.0, "per_ow_oth": 0.0, "per_mc_none": 6.8, "per_mcouple_1": 67.1, "per_mcouple_2": 20.7, "per_mcouple_3": 4.5, "per_mcouple_4": 0.9, "per_mcouple_5p": 0.0, "per_dw_t_ts": 0.5, "per_dw_t_unts": 0.0, "per_dw_c_well": 0.0, "per_dw_unc_wel": 26.1, "per_dw_hpump": 73.4, "per_dw_tw_bore": 0.0, "per_dw_spring": 0.0, "per_dw_rivcan": 0.0, "per_dw_tank": 0.0, "per_dw_oth": 0.0, "per_loc_dw_wp": 1.8, "per_loc_dw_np": 23.4, "per_loc_dw_aw": 74.8, "per_light_elec": 9.0, "per_light_kero": 91.0, "per_light_solr": 0.0, "per_light_oil": 0.0, "per_light_oth": 0.0, "per_light_no": 0.0, "per_hh_latrine": 11.7, "per_fl_sewer": 0.0, "per_fl_septict": 10.8, "per_fl_othsys": 0.9, "per_pl_wslab": 0.0, "per_pl_without": 0.0, "per_ns_open": 0.0, "per_sl_ns_hum": 0.0, "per_sl_ns_anml": 0.0, "per_hh_no_lat": 88.3, "per_as_pub": 0.0, "per_as_open": 88.3, "per_hh_bathrm": 6.8, "per_hh_en_wrf": 4.1, "per_hh_no_btrm": 89.2, "per_wwoc_drain": 2.7, "per_wwoc_open": 1.4, "per_wwoc_nodrn": 95.9, "per_cook_fire": 94.1, "per_cook_resdu": 1.4, "per_cook_cwdng": 0.0, "per_cook_coal": 0.0, "per_cook_kero": 0.0, "per_cook_lpng": 4.5, "per_cook_elec": 0.0, "per_cook_biogs": 0.0, "per_cook_oth": 0.0, "per_cook_no": 0.0, "per_kf_inside": 98.6, "per_kf_in_has": 11.7, "per_kf_in_does": 86.9, "per_kf_outside": 1.4, "per_kf_out_has": 0.5, "per_kf_out_dos": 0.9, "per_kf_no_cook": 0.0, "per_hh_banking": 86.9, "per_hh_radio": 32.0, "per_hh_tv": 19.8, "per_hh_cmp_int": 0.0, "per_hh_cmp_wnt": 0.0, "per_hh_ph_ll": 0.5, "per_hh_ph_mob": 74.3, "per_hh_ph_bth": 0.0, "per_hh_bcycl": 90.5, "per_hh_2wheel": 19.4, "per_hh_4wheel": 0.0, "per_hh_tvcomp": 0.0, "per_hh_no_ast": 3.6, "per_hs_perma": 42.8, "per_hs_sperma": 20.7, "per_hs_temp": 36.0, "per_hs_servc": 34.7, "per_hs_nservc": 1.4, "per_hs_unclss": 0.5, "avghhsz_cy": 6.37387387, "st_areashape": 214574.240178795, "st_lengthshape": 2095.7109162582315}, "geometry": {"type": "Polygon", "coordinates": [[[81.13458126100002, 25.95111828661475], [81.13504928775465, 25.950849003245576], [81.1383989689052, 25.94921858663953], [81.14008244857857, 25.948306955822144], [81.14016500105822, 25.948780024084673], [81.14059351092347, 25.949518299150967], [81.14095058496072, 25.950133039113854], [81.14062651233208, 25.95013047776119], [81.14033344415714, 25.95027458304112], [81.14007108129697, 25.950594667292187], [81.13974417268696, 25.95088495565616], [81.1393146576069, 25.95173086561781], [81.13882401217177, 25.952195577900962], [81.13810763897034, 25.952541348283546], [81.13742254870037, 25.953004500884802], [81.13712604716446, 25.95350002992254], [81.1367694124034, 25.95406502692242], [81.13632455140335, 25.95341989763344], [81.13458126100002, 25.95111828661475]]]}}]}