{"type": "FeatureCollection", "features": [{"type": "Feature", "properties": {"premiumdata.sde.IN_Village_PCA.area": 14.86299036, "objectid": 332758, "id": "9134750399144", "name": "Aurangabad Chandok", "subdistrict": "Shikarpur", "district": "Bulandshahr", "state": "Uttar Pradesh", "country": "India", "censusname": "Aurangabad Chandok", "villagename_locallang": null, "lgd_villagename": "Aurangabad Chandok", "lgd_villagecode": 121368, "lgd_subdistrictcode": 750, "lgd_districtcode": 134, "lgd_statecode": 9, "censuscode2001": "01256100", "censuscode2011": "121368", "censuscode2021": null, "level": "Village", "tru": "Rural", "no_hh": 1180, "tot_p": 6732, "tot_m": 3545, "tot_f": 3187, "per_tot_m": 52.65894236, "per_tot_f": 47.34105764, "p_06": 1098, "m_06": 620, "f_06": 478, "per_p_06": 16.31016043, "per_m_06": 56.46630237, "per_f_06": 43.53369763, "p_sc": 2591, "m_sc": 1359, "f_sc": 1232, "per_p_sc": 38.48781937, "per_m_sc": 52.4507912, "per_f_sc": 47.5492088, "p_st": 0, "m_st": 0, "f_st": 0, "per_p_st": 0.0, "per_m_st": 0.0, "per_f_st": 0.0, "p_lit": 3914, "m_lit": 2393, "f_lit": 1521, "per_p_lit": 58.14022579, "per_m_lit": 61.13949923, "per_f_lit": 38.86050077, "p_ill": 2818, "m_ill": 1152, "f_ill": 1666, "per_p_ill": 41.85977421, "per_m_ill": 40.88005678, "per_f_ill": 59.11994322, "tot_work_p": 2307, "tot_work_m": 1723, "tot_work_f": 584, "per_tot_work_p": 34.26916221, "per_tot_work_m": 74.68573906, "per_tot_work_f": 25.31426094, "mainwork_p": 1951, "mainwork_m": 1612, "mainwork_f": 339, "per_mainwork_p": 28.98098633, "per_mainwork_m": 82.62429523, "per_mainwork_f": 17.37570477, "main_cl_p": 1279, "main_cl_m": 1096, "main_cl_f": 183, "per_main_cl_p": 65.55612506, "per_main_cl_m": 85.69194683, "per_main_cl_f": 14.30805317, "main_al_p": 458, "main_al_m": 365, "main_al_f": 93, "per_main_al_p": 23.47514095, "per_main_al_m": 79.69432314, "per_main_al_f": 20.30567686, "main_hh_p": 18, "main_hh_m": 7, "main_hh_f": 11, "per_main_hh_p": 0.92260379, "per_main_hh_m": 38.88888889, "per_main_hh_f": 61.11111111, "main_ot_p": 196, "main_ot_m": 144, "main_ot_f": 52, "per_main_ot_p": 10.04613019, "per_main_ot_m": 73.46938776, "per_main_ot_f": 26.53061224, "margwork_p": 356, "margwork_m": 111, "margwork_f": 245, "per_margwork_p": 5.28817588, "per_margwork_m": 31.17977528, "per_margwork_f": 68.82022472, "marg_cl_p": 39, "marg_cl_m": 16, "marg_cl_f": 23, "per_marg_cl_p": 10.95505618, "per_marg_cl_m": 41.02564103, "per_marg_cl_f": 58.97435897, "marg_al_p": 236, "marg_al_m": 80, "marg_al_f": 156, "per_marg_al_p": 66.29213483000001, "per_marg_al_m": 33.89830508, "per_marg_al_f": 66.10169492, "marg_hh_p": 5, "marg_hh_m": 0, "marg_hh_f": 5, "per_marg_hh_p": 1.40449438, "per_marg_hh_m": 0.0, "per_marg_hh_f": 100.0, "marg_ot_p": 76, "marg_ot_m": 15, "marg_ot_f": 61, "per_marg_ot_p": 21.34831461, "per_marg_ot_m": 19.73684211, "per_marg_ot_f": 80.26315788999999, "margwork_3_6_p": 350, "margwork_3_6_m": 111, "margwork_3_6_f": 239, "per_margwork_3_6_p": 98.31460674, "per_margwork_3_6_m": 31.71428571, "per_margwork_3_6_f": 68.28571429, "marg_cl_3_6_p": 38, "marg_cl_3_6_m": 16, "marg_cl_3_6_f": 22, "per_marg_cl_3_6_p": 10.6741573, "per_marg_cl_3_6_m": 42.10526316000001, "per_marg_cl_3_6_f": 57.89473684, "marg_al_3_6_p": 235, "marg_al_3_6_m": 80, "marg_al_3_6_f": 155, "per_marg_al_3_6_p": 66.01123596000001, "per_marg_al_3_6_m": 34.04255319, "per_marg_al_3_6_f": 65.95744681000001, "marg_hh_3_6_p": 5, "marg_hh_3_6_m": 0, "marg_hh_3_6_f": 5, "per_marg_hh_3_6_p": 1.40449438, "per_marg_hh_3_6_m": 0.0, "per_marg_hh_3_6_f": 100.0, "marg_ot_3_6_p": 72, "marg_ot_3_6_m": 15, "marg_ot_3_6_f": 57, "per_marg_ot_3_6_p": 20.2247191, "per_marg_ot_3_6_m": 20.83333333, "per_marg_ot_3_6_f": 79.16666667, "margwork_0_3_p": 6, "margwork_0_3_m": 0, "margwork_0_3_f": 6, "per_margwork_0_3_p": 1.68539326, "per_margwork_0_3_m": 0.0, "per_margwork_0_3_f": 100.0, "marg_cl_0_3_p": 1, "marg_cl_0_3_m": 0, "marg_cl_0_3_f": 1, "per_marg_cl_0_3_p": 0.28089888, "per_marg_cl_0_3_m": 0.0, "per_marg_cl_0_3_f": 100.0, "marg_al_0_3_p": 1, "marg_al_0_3_m": 0, "marg_al_0_3_f": 1, "per_marg_al_0_3_p": 0.28089888, "per_marg_al_0_3_m": 0.0, "per_marg_al_0_3_f": 100.0, "marg_hh_0_3_p": 0, "marg_hh_0_3_m": 0, "marg_hh_0_3_f": 0, "per_marg_hh_0_3_p": 0.0, "per_marg_hh_0_3_m": 0.0, "per_marg_hh_0_3_f": 0.0, "marg_ot_0_3_p": 4, "marg_ot_0_3_m": 0, "marg_ot_0_3_f": 4, "per_marg_ot_0_3_p": 1.12359551, "per_marg_ot_0_3_m": 0.0, "per_marg_ot_0_3_f": 100.0, "non_work_p": 4425, "non_work_m": 1822, "non_work_f": 2603, "per_non_work_p": 65.73083779, "per_non_work_m": 41.17514124, "per_non_work_f": 58.82485876000001, "per_hc_tot_tot": 100, "per_hc_tot_god": 31.8, "per_hc_tot_liv": 62.5, "per_hc_tot_dil": 5.7, "per_hc_res_tot": 90.9, "per_hc_res_god": 29.6, "per_hc_res_liv": 56.0, "per_hc_res_dil": 5.2, "per_hc_oth_tot": 9.1, "per_hc_oth_god": 2.2, "per_hc_oth_liv": 6.4, "per_hc_oth_dil": 0.5, "per_mt_grsbam": 12.2, "per_mt_plastic": 0.0, "per_mt_h_tiles": 1.3, "per_mt_m_tiles": 0.0, "per_mt_b_brick": 6.4, "per_mt_stone": 73.7, "per_mt_asbstos": 0.9, "per_mt_concrte": 5.3, "per_mt_oth": 0.1, "per_mw_grsbam": 0.5, "per_mw_plastic": 0.0, "per_mw_mud": 1.6, "per_mw_wood": 0.0, "per_mw_no_mrtr": 0.1, "per_mw_st_mrtr": 0.2, "per_mw_asbstos": 0.0, "per_mw_b_brick": 97.4, "per_mw_concrte": 0.0, "per_mw_oth": 0.3, "per_mf_mud": 82.9, "per_mf_wood": 0.0, "per_mf_b_brick": 2.3, "per_mf_stone": 0.0, "per_mf_cement": 14.8, "per_mf_fl_tile": 0.0, "per_mf_oth": 0.0, "per_dw_n_exrm": 0.5, "per_dw_1_room": 35.4, "per_dw_2_room": 36.1, "per_dw_3_room": 15.8, "per_dw_4_room": 8.0, "per_dw_5_room": 2.4, "per_dw_6_room": 1.7, "per_hhsize_1": 2.0, "per_hhsize_2": 6.4, "per_hhsize_3": 6.9, "per_hhsize_4": 13.9, "per_hhsize_5": 17.0, "per_hhsize_6_8": 41.1, "per_hhsize_9p": 12.7, "per_ow_owned": 98.8, "per_ow_rented": 0.3, "per_ow_oth": 0.8, "per_mc_none": 8.0, "per_mcouple_1": 68.6, "per_mcouple_2": 17.3, "per_mcouple_3": 5.3, "per_mcouple_4": 0.8, "per_mcouple_5p": 0.0, "per_dw_t_ts": 4.9, "per_dw_t_unts": 0.0, "per_dw_c_well": 0.0, "per_dw_unc_wel": 0.0, "per_dw_hpump": 94.2, "per_dw_tw_bore": 0.3, "per_dw_spring": 0.0, "per_dw_rivcan": 0.0, "per_dw_tank": 0.0, "per_dw_oth": 0.5, "per_loc_dw_wp": 88.2, "per_loc_dw_np": 6.8, "per_loc_dw_aw": 5.0, "per_light_elec": 9.0, "per_light_kero": 89.5, "per_light_solr": 0.2, "per_light_oil": 0.0, "per_light_oth": 1.3, "per_light_no": 0.0, "per_hh_latrine": 28.8, "per_fl_sewer": 8.0, "per_fl_septict": 18.7, "per_fl_othsys": 0.3, "per_pl_wslab": 0.0, "per_pl_without": 0.3, "per_ns_open": 0.0, "per_sl_ns_hum": 1.5, "per_sl_ns_anml": 0.0, "per_hh_no_lat": 71.2, "per_as_pub": 0.1, "per_as_open": 71.1, "per_hh_bathrm": 24.5, "per_hh_en_wrf": 46.1, "per_hh_no_btrm": 29.3, "per_wwoc_drain": 2.8, "per_wwoc_open": 94.2, "per_wwoc_nodrn": 3.0, "per_cook_fire": 3.1, "per_cook_resdu": 7.0, "per_cook_cwdng": 81.7, "per_cook_coal": 0.0, "per_cook_kero": 0.1, "per_cook_lpng": 8.0, "per_cook_elec": 0.0, "per_cook_biogs": 0.0, "per_cook_oth": 0.0, "per_cook_no": 0.0, "per_kf_inside": 98.3, "per_kf_in_has": 29.6, "per_kf_in_does": 68.7, "per_kf_outside": 1.7, "per_kf_out_has": 1.1, "per_kf_out_dos": 0.6, "per_kf_no_cook": 0.0, "per_hh_banking": 65.3, "per_hh_radio": 38.9, "per_hh_tv": 43.4, "per_hh_cmp_int": 0.5, "per_hh_cmp_wnt": 2.7, "per_hh_ph_ll": 0.2, "per_hh_ph_mob": 76.5, "per_hh_ph_bth": 1.5, "per_hh_bcycl": 63.6, "per_hh_2wheel": 17.3, "per_hh_4wheel": 1.6, "per_hh_tvcomp": 0.3, "per_hh_no_ast": 9.7, "per_hs_perma": 87.2, "per_hs_sperma": 10.6, "per_hs_temp": 1.8, "per_hs_servc": 1.5, "per_hs_nservc": 0.3, "per_hs_unclss": 0.3, "avghhsz_cy": 5.70508475, "st_areashape": 19264211.8144327, "st_lengthshape": 20700.09870432981}, "geometry": {"type": "Polygon", "coordinates": [[[78.0703898613695, 28.380839616536974], [78.07013619060798, 28.380710244161055], [78.06864885178871, 28.37994997721973], [78.06740656619239, 28.38026010900599], [78.06732191075666, 28.38028124293384], [78.06724922267712, 28.380270257875903], [78.06030109531426, 28.379220229197358], [78.05911884592503, 28.3796684900962], [78.05898670464506, 28.379718592162167], [78.05907493986722, 28.379224750037388], [78.0593602241402, 28.378147068007298], [78.05958613695942, 28.377355729037333], [78.05976235497714, 28.376939511181902], [78.06015702081405, 28.376351677838937], [78.0603707794275, 28.37593640608167], [78.06054306911244, 28.3752544077213], [78.06062671394352, 28.374990827027904], [78.06078756987155, 28.37466277748802], [78.0609462994873, 28.374401108074576], [78.06133306014974, 28.37405662360689], [78.06176633917084, 28.373824014014424], [78.06217239384894, 28.3736571492475], [78.06257921299334, 28.37346814908176], [78.06298956700836, 28.37316853665364], [78.06368089428136, 28.37269891129723], [78.06394039331241, 28.37241762782542], [78.06409981193602, 28.3721338166688], [78.06422061108721, 28.371494790032703], [78.06418483298609, 28.37105107031863], [78.06416767336752, 28.370807095810598], [78.06423270510591, 28.37034376520373], [78.0645258262814, 28.36979764645717], [78.06484106667418, 28.369340645160012], [78.06487394681021, 28.36909791797282], [78.06479992832574, 28.368675371110395], [78.06468124650365, 28.368473113560402], [78.06453539693243, 28.368336590029752], [78.06438881703093, 28.36822217410314], [78.06363168996, 28.36762741243976], [78.06256000970751, 28.366692553712856], [78.06207459516227, 28.366215346907804], [78.06158986423495, 28.365715985393948], [78.0612938909084, 28.365575666487423], [78.06072409940516, 28.36538413352071], [78.06040168865981, 28.365287425469294], [78.06017933586404, 28.3651932452246], [78.06005995066108, 28.3650131052949], [78.05999203173741, 28.364789970140812], [78.05999917693718, 28.364568730845082], [78.0600370651809, 28.364171160572816], [78.06004778298056, 28.363839309402064], [78.06006993363883, 28.363153484049754], [78.05997913282826, 28.362863347999564], [78.05978968711797, 28.362526452632462], [78.05962098350761, 28.362322909104737], [78.05932714637481, 28.36211620325032], [78.05890608444157, 28.36197271685306], [78.05855935450484, 28.361853249973574], [78.0581926352564, 28.361578291693846], [78.05757568309905, 28.360522054427516], [78.05718966354674, 28.360069451047497], [78.05694444054214, 28.359908264949336], [78.05667136617052, 28.3598349222846], [78.05637185168511, 28.359805220783414], [78.05599581241559, 28.359817835602406], [78.05546968352674, 28.35982668289153], [78.05509650449312, 28.359750820051023], [78.05384906346539, 28.359608552573356], [78.05337223950919, 28.359640752117578], [78.05294331911388, 28.359740599654], [78.052740996054, 28.359801914906928], [78.05242122725392, 28.35978185198142], [78.05218639236726, 28.359687359345696], [78.05209061668661, 28.35955207508834], [78.05199627292055, 28.359372561149232], [78.05187545490472, 28.35923664329572], [78.05170601647245, 28.35905522765415], [78.05143725760745, 28.35884915574775], [78.0509961830063, 28.358550142354765], [78.050525105573, 28.35840536813617], [78.05020844674038, 28.358131643612406], [78.05006546998146, 28.357906599915722], [78.04999685486344, 28.357705594574178], [78.05000831287488, 28.357351616310368], [78.05009268174804, 28.357065907132668], [78.05034933132305, 28.35687313982224], [78.05067531197334, 28.35685925507297], [78.05102270576506, 28.356956615870384], [78.05127077912402, 28.357029335220986], [78.0516167580692, 28.35717094053687], [78.05178973945695, 28.35724175774859], [78.05188982525432, 28.357244291366424], [78.05196991275685, 28.357091318449644], [78.05195132930857, 28.356891565333875], [78.05182979713207, 28.356777784507265], [78.0516904154309, 28.356442127551915], [78.05169828916435, 28.356198777176676], [78.05175762917709, 28.35591243326256], [78.05196998372375, 28.35554139880402], [78.05215155210728, 28.355346712469718], [78.05228523399798, 28.35508440568315], [78.05232242604737, 28.354708936567754], [78.05223164679633, 28.35441880589464], [78.05201507735438, 28.35414761585097], [78.05142533157372, 28.35380055406903], [78.0511808766287, 28.353617220756085], [78.05093925137686, 28.353345409664755], [78.05087493290081, 28.3530116652701], [78.05085994810356, 28.35270129572604], [78.05088996800372, 28.352547053746324], [78.05102150112425, 28.352351115213086], [78.05123098824852, 28.35206858643607], [78.05146689752024, 28.351742413977522], [78.05165275715588, 28.351414988263997], [78.05170244566919, 28.351039846906172], [78.05163814336284, 28.350706071547453], [78.05137725912961, 28.350256627345072], [78.05106559493, 28.34982803741711], [78.05072751037955, 28.34944307463107], [78.05034224361545, 28.34896832092818], [78.05012495372463, 28.348719262800408], [78.04978331094735, 28.348444899018357], [78.04917143606798, 28.348008697892134], [78.0489269936994, 28.34782537434368], [78.04851169984859, 28.347504873214284], [78.04819435380479, 28.347253261195632], [78.04802568433041, 28.34704971526413], [78.04771475585102, 28.346598977977628], [78.04750033967079, 28.346261408001165], [78.04719302960538, 28.345700067926902], [78.04710296720994, 28.345387790619938], [78.04708225924598, 28.345254416438603], [78.04711608440972, 28.345000892133278], [78.04734653192449, 28.34461267191112], [78.04769039443883, 28.344045678896478], [78.04792629832065, 28.34371952053593], [78.04823866949441, 28.3433510153711], [78.04854962312662, 28.343026757914753], [78.04890489155015, 28.342880768682505], [78.04936020085525, 28.342737299772878], [78.04964043210477, 28.3425894078883], [78.04984557767126, 28.34243961433123], [78.04997495483512, 28.342310042548153], [78.05010862864098, 28.342047699604777], [78.05081861392242, 28.34236485464797], [78.05146333210686, 28.34255831558889], [78.05241113917323, 28.342670896456006], [78.05355620369961, 28.342877016365247], [78.05452760771188, 28.343034465729517], [78.05552831117544, 28.343059787110686], [78.05725308640243, 28.34314768491724], [78.05835384961223, 28.343175520459305], [78.0592001461532, 28.343329765772864], [78.06044890680607, 28.343427769102707], [78.06135168132724, 28.343384142503496], [78.06248245186082, 28.343257720139455], [78.06354389491231, 28.342952408189422], [78.06425438235199, 28.34266035421012], [78.06485370776684, 28.342321207846407], [78.06526753197384, 28.34191095154493], [78.06579071977846, 28.341215613874432], [78.06621167301556, 28.340584088534555], [78.06629813855658, 28.340232005301228], [78.06638531646166, 28.339857797731], [78.06636159105669, 28.339475445120577], [78.06791407390376, 28.339470339085636], [78.06849232484204, 28.339396361640706], [78.06882038419387, 28.33931607077351], [78.06941041563879, 28.339264528827794], [78.0706862910402, 28.339296705287218], [78.07183562975068, 28.33936995065646], [78.07305934088185, 28.339467234192444], [78.07348462220199, 28.33947795148948], [78.0742136670388, 28.33938561349997], [78.07549307012432, 28.339307135594083], [78.0786216300694, 28.33934161126145], [78.07981890198512, 28.339482450302874], [78.0802684782421, 28.339515904390527], [78.08071666660196, 28.339593604931487], [78.0810633255718, 28.339713048628], [78.08133352982611, 28.339874852045998], [78.08165308662383, 28.340060007808454], [78.08202192679462, 28.34026857351044], [78.08259093406865, 28.340482157027893], [78.08327251102753, 28.34069858485144], [78.08393871960855, 28.341003188539872], [78.0847028912679, 28.34137667654748], [78.08578874783389, 28.341868937217825], [78.08642923495339, 28.342195025360134], [78.08674809286178, 28.342402324232765], [78.08714126120714, 28.342633615926317], [78.08778249841987, 28.34293757603008], [78.08920726329141, 28.34379261659078], [78.08957754525827, 28.343956902664406], [78.09037102894534, 28.34419826581215], [78.0912617399906, 28.344530585546913], [78.0921810066821, 28.344752940256594], [78.09287442343643, 28.34499175108241], [78.09346494446315, 28.345316557547527], [78.09427494367677, 28.3458240104172], [78.09474035274062, 28.346145659040562], [78.09498276042511, 28.34639530587711], [78.09526265390808, 28.346645892149386], [78.09533561597377, 28.346714145354074], [78.09535566187932, 28.34686965048487], [78.0953264019539, 28.347001764007977], [78.09514770728094, 28.347107989309016], [78.09479320242542, 28.347231947549332], [78.09438723129065, 28.347398910787312], [78.09418000073437, 28.347615125288193], [78.0940220912805, 28.347854717106095], [78.09384130083798, 28.348027326542336], [78.09353395394162, 28.348241043879348], [78.09310511529297, 28.348340992264085], [78.09272559774666, 28.348464333198915], [78.09246829779141, 28.348679289292413], [78.09243476278354, 28.348944140975174], [78.09242766968606, 28.349165388328068], [78.09244418341595, 28.349431510048756], [78.09238776831779, 28.34962936479438], [78.09225557044392, 28.349847472925692], [78.09214912277771, 28.35004407146481], [78.09203982116384, 28.350329162338088], [78.09192911548317, 28.350658529085536], [78.0919198951751, 28.35094613073192], [78.09193215178882, 28.35134499093354], [78.09209096045635, 28.351858232731654], [78.09256582339025, 28.352667248922884], [78.09294955852678, 28.35358468103041], [78.09339674436679, 28.35525651797848], [78.0937051988859, 28.35657058721467], [78.09382251077719, 28.356817077487726], [78.09401414119021, 28.357087601417458], [78.09420862465258, 28.357269603825692], [78.09462903440892, 28.357435130717707], [78.0949242980664, 28.357597533225572], [78.09513743055409, 28.35797926723208], [78.09522545018058, 28.35835789473444], [78.09519264370638, 28.358600618819064], [78.09511049367198, 28.358819964639327], [78.09495186466752, 28.359081689868834], [78.0946166834721, 28.359383268532433], [78.09414927924998, 28.359902935394604], [78.09383415743481, 28.360359998679282], [78.09346114638616, 28.36105916977823], [78.09307212286754, 28.361868639154828], [78.09284359056092, 28.362748553065323], [78.09270572341934, 28.36314363708523], [78.09255225164291, 28.364025416210033], [78.09230452593198, 28.3655026613127], [78.09210919535829, 28.36768971593211], [78.0921344056784, 28.368465267685078], [78.09216600032528, 28.369041732464623], [78.09227197008774, 28.3696422025759], [78.09245655591232, 28.370133929083885], [78.09259676047031, 28.370447406181263], [78.09288350450562, 28.37092399244465], [78.09148280909379, 28.37119985524885], [78.09080597434132, 28.371969948061537], [78.08982321023396, 28.37323290458191], [78.08942260832966, 28.375144568482625], [78.08918736201461, 28.376267142922156], [78.0891570510603, 28.376411785281327], [78.0885140477597, 28.376933643447686], [78.08847890117418, 28.37696216803075], [78.08821445781581, 28.377870421046833], [78.08780874898909, 28.379263843440103], [78.08596080934677, 28.380695886742682], [78.08594154587381, 28.380709657724644], [78.08361710656715, 28.379455778141555], [78.08204470627359, 28.378508498779272], [78.08039512183254, 28.377625681338145], [78.07956068574828, 28.377095463645592], [78.07874272925788, 28.376831348491624], [78.07834659826877, 28.37668852772982], [78.0778475706537, 28.376631691019995], [78.07734566214151, 28.37666333845875], [78.07676298789876, 28.376870085527422], [78.0764041181293, 28.3771267284058], [78.07609530608072, 28.37738464632095], [78.07583721291303, 28.37762170025173], [78.07539543403273, 28.378119805165223], [78.07498365169637, 28.37846367181015], [78.07462762329814, 28.378631838644203], [78.07427300166162, 28.3787557458443], [78.07371892259101, 28.378852488250427], [78.07331281581064, 28.379019390685322], [78.07257287171447, 28.37944355767328], [78.0703898613695, 28.380839616536974]]]}}]}