{"type": "FeatureCollection", "features": [{"type": "Feature", "properties": {"premiumdata.sde.IN_Village_PCA.area": 0.61801163, "objectid": 487768, "id": "101931430311767", "name": "Malipur", "subdistrict": "Charpokhari", "district": "Bhojpur", "state": "Bihar", "country": "India", "censusname": "Malipur", "villagename_locallang": "\u092e\u093e\u0932\u0940\u092a\u0941\u0930", "lgd_villagename": "Malipur", "lgd_villagecode": 247429, "lgd_subdistrictcode": 1430, "lgd_districtcode": 193, "lgd_statecode": 10, "censuscode2001": "03158100", "censuscode2011": "247429", "censuscode2021": null, "level": "Village", "tru": "Rural", "no_hh": 53, "tot_p": 390, "tot_m": 200, "tot_f": 190, "per_tot_m": 51.28205128, "per_tot_f": 48.71794872, "p_06": 81, "m_06": 44, "f_06": 37, "per_p_06": 20.76923077, "per_m_06": 54.32098765, "per_f_06": 45.67901235, "p_sc": 0, "m_sc": 0, "f_sc": 0, "per_p_sc": 0.0, "per_m_sc": 0.0, "per_f_sc": 0.0, "p_st": 0, "m_st": 0, "f_st": 0, "per_p_st": 0.0, "per_m_st": 0.0, "per_f_st": 0.0, "p_lit": 154, "m_lit": 102, "f_lit": 52, "per_p_lit": 39.48717949, "per_m_lit": 66.23376623, "per_f_lit": 33.76623377, "p_ill": 236, "m_ill": 98, "f_ill": 138, "per_p_ill": 60.51282051, "per_m_ill": 41.52542373, "per_f_ill": 58.47457627, "tot_work_p": 93, "tot_work_m": 85, "tot_work_f": 8, "per_tot_work_p": 23.84615385, "per_tot_work_m": 91.39784946, "per_tot_work_f": 8.60215054, "mainwork_p": 83, "mainwork_m": 77, "mainwork_f": 6, "per_mainwork_p": 21.28205128, "per_mainwork_m": 92.77108434, "per_mainwork_f": 7.22891566, "main_cl_p": 42, "main_cl_m": 41, "main_cl_f": 1, "per_main_cl_p": 50.60240964, "per_main_cl_m": 97.61904762, "per_main_cl_f": 2.38095238, "main_al_p": 36, "main_al_m": 34, "main_al_f": 2, "per_main_al_p": 43.37349398, "per_main_al_m": 94.44444444, "per_main_al_f": 5.55555556, "main_hh_p": 0, "main_hh_m": 0, "main_hh_f": 0, "per_main_hh_p": 0.0, "per_main_hh_m": 0.0, "per_main_hh_f": 0.0, "main_ot_p": 5, "main_ot_m": 2, "main_ot_f": 3, "per_main_ot_p": 6.02409639, "per_main_ot_m": 40.0, "per_main_ot_f": 60.0, "margwork_p": 10, "margwork_m": 8, "margwork_f": 2, "per_margwork_p": 2.56410256, "per_margwork_m": 80.0, "per_margwork_f": 20.0, "marg_cl_p": 0, "marg_cl_m": 0, "marg_cl_f": 0, "per_marg_cl_p": 0.0, "per_marg_cl_m": 0.0, "per_marg_cl_f": 0.0, "marg_al_p": 8, "marg_al_m": 6, "marg_al_f": 2, "per_marg_al_p": 80.0, "per_marg_al_m": 75.0, "per_marg_al_f": 25.0, "marg_hh_p": 0, "marg_hh_m": 0, "marg_hh_f": 0, "per_marg_hh_p": 0.0, "per_marg_hh_m": 0.0, "per_marg_hh_f": 0.0, "marg_ot_p": 2, "marg_ot_m": 2, "marg_ot_f": 0, "per_marg_ot_p": 20.0, "per_marg_ot_m": 100.0, "per_marg_ot_f": 0.0, "margwork_3_6_p": 8, "margwork_3_6_m": 7, "margwork_3_6_f": 1, "per_margwork_3_6_p": 80.0, "per_margwork_3_6_m": 87.5, "per_margwork_3_6_f": 12.5, "marg_cl_3_6_p": 0, "marg_cl_3_6_m": 0, "marg_cl_3_6_f": 0, "per_marg_cl_3_6_p": 0.0, "per_marg_cl_3_6_m": 0.0, "per_marg_cl_3_6_f": 0.0, "marg_al_3_6_p": 6, "marg_al_3_6_m": 5, "marg_al_3_6_f": 1, "per_marg_al_3_6_p": 60.0, "per_marg_al_3_6_m": 83.33333332999999, "per_marg_al_3_6_f": 16.66666667, "marg_hh_3_6_p": 0, "marg_hh_3_6_m": 0, "marg_hh_3_6_f": 0, "per_marg_hh_3_6_p": 0.0, "per_marg_hh_3_6_m": 0.0, "per_marg_hh_3_6_f": 0.0, "marg_ot_3_6_p": 2, "marg_ot_3_6_m": 2, "marg_ot_3_6_f": 0, "per_marg_ot_3_6_p": 20.0, "per_marg_ot_3_6_m": 100.0, "per_marg_ot_3_6_f": 0.0, "margwork_0_3_p": 2, "margwork_0_3_m": 1, "margwork_0_3_f": 1, "per_margwork_0_3_p": 20.0, "per_margwork_0_3_m": 50.0, "per_margwork_0_3_f": 50.0, "marg_cl_0_3_p": 0, "marg_cl_0_3_m": 0, "marg_cl_0_3_f": 0, "per_marg_cl_0_3_p": 0.0, "per_marg_cl_0_3_m": 0.0, "per_marg_cl_0_3_f": 0.0, "marg_al_0_3_p": 2, "marg_al_0_3_m": 1, "marg_al_0_3_f": 1, "per_marg_al_0_3_p": 20.0, "per_marg_al_0_3_m": 50.0, "per_marg_al_0_3_f": 50.0, "marg_hh_0_3_p": 0, "marg_hh_0_3_m": 0, "marg_hh_0_3_f": 0, "per_marg_hh_0_3_p": 0.0, "per_marg_hh_0_3_m": 0.0, "per_marg_hh_0_3_f": 0.0, "marg_ot_0_3_p": 0, "marg_ot_0_3_m": 0, "marg_ot_0_3_f": 0, "per_marg_ot_0_3_p": 0.0, "per_marg_ot_0_3_m": 0.0, "per_marg_ot_0_3_f": 0.0, "non_work_p": 297, "non_work_m": 115, "non_work_f": 182, "per_non_work_p": 76.15384615, "per_non_work_m": 38.72053872, "per_non_work_f": 61.27946128, "per_hc_tot_tot": 100, "per_hc_tot_god": 14.8, "per_hc_tot_liv": 64.8, "per_hc_tot_dil": 20.4, "per_hc_res_tot": 48.1, "per_hc_res_god": 9.3, "per_hc_res_liv": 35.2, "per_hc_res_dil": 3.7, "per_hc_oth_tot": 51.9, "per_hc_oth_god": 5.6, "per_hc_oth_liv": 29.6, "per_hc_oth_dil": 16.7, "per_mt_grsbam": 42.6, "per_mt_plastic": 1.9, "per_mt_h_tiles": 35.2, "per_mt_m_tiles": 0.0, "per_mt_b_brick": 0.0, "per_mt_stone": 20.4, "per_mt_asbstos": 0.0, "per_mt_concrte": 0.0, "per_mt_oth": 0.0, "per_mw_grsbam": 18.5, "per_mw_plastic": 0.0, "per_mw_mud": 48.1, "per_mw_wood": 0.0, "per_mw_no_mrtr": 0.0, "per_mw_st_mrtr": 13.0, "per_mw_asbstos": 0.0, "per_mw_b_brick": 20.4, "per_mw_concrte": 0.0, "per_mw_oth": 0.0, "per_mf_mud": 92.6, "per_mf_wood": 0.0, "per_mf_b_brick": 3.7, "per_mf_stone": 0.0, "per_mf_cement": 3.7, "per_mf_fl_tile": 0.0, "per_mf_oth": 0.0, "per_dw_n_exrm": 0.0, "per_dw_1_room": 37.0, "per_dw_2_room": 11.1, "per_dw_3_room": 14.8, "per_dw_4_room": 9.3, "per_dw_5_room": 9.3, "per_dw_6_room": 18.5, "per_hhsize_1": 1.9, "per_hhsize_2": 7.4, "per_hhsize_3": 1.9, "per_hhsize_4": 7.4, "per_hhsize_5": 13.0, "per_hhsize_6_8": 37.0, "per_hhsize_9p": 31.5, "per_ow_owned": 100.0, "per_ow_rented": 0.0, "per_ow_oth": 0.0, "per_mc_none": 5.6, "per_mcouple_1": 48.1, "per_mcouple_2": 24.1, "per_mcouple_3": 9.3, "per_mcouple_4": 3.7, "per_mcouple_5p": 9.3, "per_dw_t_ts": 0.0, "per_dw_t_unts": 0.0, "per_dw_c_well": 1.9, "per_dw_unc_wel": 0.0, "per_dw_hpump": 98.1, "per_dw_tw_bore": 0.0, "per_dw_spring": 0.0, "per_dw_rivcan": 0.0, "per_dw_tank": 0.0, "per_dw_oth": 0.0, "per_loc_dw_wp": 61.1, "per_loc_dw_np": 31.5, "per_loc_dw_aw": 7.4, "per_light_elec": 0.0, "per_light_kero": 100.0, "per_light_solr": 0.0, "per_light_oil": 0.0, "per_light_oth": 0.0, "per_light_no": 0.0, "per_hh_latrine": 0.0, "per_fl_sewer": 0.0, "per_fl_septict": 0.0, "per_fl_othsys": 0.0, "per_pl_wslab": 0.0, "per_pl_without": 0.0, "per_ns_open": 0.0, "per_sl_ns_hum": 0.0, "per_sl_ns_anml": 0.0, "per_hh_no_lat": 100.0, "per_as_pub": 0.0, "per_as_open": 100.0, "per_hh_bathrm": 0.0, "per_hh_en_wrf": 70.4, "per_hh_no_btrm": 29.6, "per_wwoc_drain": 0.0, "per_wwoc_open": 100.0, "per_wwoc_nodrn": 0.0, "per_cook_fire": 61.1, "per_cook_resdu": 0.0, "per_cook_cwdng": 38.9, "per_cook_coal": 0.0, "per_cook_kero": 0.0, "per_cook_lpng": 0.0, "per_cook_elec": 0.0, "per_cook_biogs": 0.0, "per_cook_oth": 0.0, "per_cook_no": 0.0, "per_kf_inside": 98.1, "per_kf_in_has": 0.0, "per_kf_in_does": 98.1, "per_kf_outside": 1.9, "per_kf_out_has": 1.9, "per_kf_out_dos": 0.0, "per_kf_no_cook": 0.0, "per_hh_banking": 63.0, "per_hh_radio": 18.5, "per_hh_tv": 3.7, "per_hh_cmp_int": 0.0, "per_hh_cmp_wnt": 0.0, "per_hh_ph_ll": 0.0, "per_hh_ph_mob": 50.0, "per_hh_ph_bth": 1.9, "per_hh_bcycl": 42.6, "per_hh_2wheel": 9.3, "per_hh_4wheel": 1.9, "per_hh_tvcomp": 0.0, "per_hh_no_ast": 37.0, "per_hs_perma": 29.6, "per_hs_sperma": 29.6, "per_hs_temp": 40.7, "per_hs_servc": 22.2, "per_hs_nservc": 18.5, "per_hs_unclss": 0.0, "avghhsz_cy": 7.35849057, "st_areashape": 760001.297461965, "st_lengthshape": 5984.755523732559}, "geometry": {"type": "Polygon", "coordinates": [[[84.50313483259669, 25.361500674387578], [84.50248116000546, 25.36133190975026], [84.50187417914775, 25.362639824047104], [84.49893265563138, 25.36120533672641], [84.49869920145535, 25.36048808708792], [84.4984190564441, 25.358631655684725], [84.49837236560889, 25.35757685287516], [84.49804552976242, 25.35694396677187], [84.49804552976242, 25.35622669103792], [84.49827898393848, 25.355298446586538], [84.49986647233551, 25.35264025178643], [84.50112712578445, 25.350403947281485], [84.50150065246609, 25.349053705349814], [84.50136057996048, 25.347956623339925], [84.50019330908027, 25.347154902458417], [84.49697163965435, 25.346395373279893], [84.49636465879667, 25.3453826602895], [84.49827898393848, 25.34504508659671], [84.50168741580693, 25.34399016527185], [84.50196756081814, 25.344412134905763], [84.50215432415901, 25.34500288992035], [84.50243446917025, 25.3453404637309], [84.50360174094875, 25.3459312142118], [84.50294806925582, 25.347703449155212], [84.50262123340937, 25.34901151007191], [84.50262123340937, 25.350446142073565], [84.50164072497172, 25.351585395894883], [84.50154734330133, 25.35209172748154], [84.50196756081814, 25.35331535420838], [84.50178079747734, 25.356479847378704], [84.50313483259669, 25.361500674387578]]]}}]}