{"type": "FeatureCollection", "features": [{"type": "Feature", "properties": {"premiumdata.sde.IN_Village_PCA.area": 2.03779521, "objectid": 378846, "id": "9130785459832", "name": "Pahuncha Buzurg Mustakil", "subdistrict": "Meerganj", "district": "Bareilly", "state": "Uttar Pradesh", "country": "India", "censusname": "Pahuncha Buzurg Mustakil", "villagename_locallang": null, "lgd_villagename": "Pahuncha Buzurg Mustakil", "lgd_villagecode": 129700, "lgd_subdistrictcode": 785, "lgd_districtcode": 130, "lgd_statecode": 9, "censuscode2001": "02250700", "censuscode2011": "129700", "censuscode2021": null, "level": "Village", "tru": "Rural", "no_hh": 185, "tot_p": 1017, "tot_m": 572, "tot_f": 445, "per_tot_m": 56.24385447, "per_tot_f": 43.75614553, "p_06": 176, "m_06": 92, "f_06": 84, "per_p_06": 17.30580138, "per_m_06": 52.27272727, "per_f_06": 47.72727273, "p_sc": 300, "m_sc": 168, "f_sc": 132, "per_p_sc": 29.49852507, "per_m_sc": 56.0, "per_f_sc": 44.0, "p_st": 0, "m_st": 0, "f_st": 0, "per_p_st": 0.0, "per_m_st": 0.0, "per_f_st": 0.0, "p_lit": 481, "m_lit": 334, "f_lit": 147, "per_p_lit": 47.29596853, "per_m_lit": 69.43866944, "per_f_lit": 30.56133056, "p_ill": 536, "m_ill": 238, "f_ill": 298, "per_p_ill": 52.70403147, "per_m_ill": 44.40298507, "per_f_ill": 55.59701493, "tot_work_p": 293, "tot_work_m": 262, "tot_work_f": 31, "per_tot_work_p": 28.81022616, "per_tot_work_m": 89.41979522000001, "per_tot_work_f": 10.58020478, "mainwork_p": 220, "mainwork_m": 211, "mainwork_f": 9, "per_mainwork_p": 21.63225172, "per_mainwork_m": 95.90909091, "per_mainwork_f": 4.09090909, "main_cl_p": 203, "main_cl_m": 197, "main_cl_f": 6, "per_main_cl_p": 92.27272727, "per_main_cl_m": 97.04433498, "per_main_cl_f": 2.95566502, "main_al_p": 4, "main_al_m": 4, "main_al_f": 0, "per_main_al_p": 1.81818182, "per_main_al_m": 100.0, "per_main_al_f": 0.0, "main_hh_p": 0, "main_hh_m": 0, "main_hh_f": 0, "per_main_hh_p": 0.0, "per_main_hh_m": 0.0, "per_main_hh_f": 0.0, "main_ot_p": 13, "main_ot_m": 10, "main_ot_f": 3, "per_main_ot_p": 5.90909091, "per_main_ot_m": 76.92307692, "per_main_ot_f": 23.07692308, "margwork_p": 73, "margwork_m": 51, "margwork_f": 22, "per_margwork_p": 7.17797443, "per_margwork_m": 69.8630137, "per_margwork_f": 30.1369863, "marg_cl_p": 19, "marg_cl_m": 12, "marg_cl_f": 7, "per_marg_cl_p": 26.02739726, "per_marg_cl_m": 63.15789474, "per_marg_cl_f": 36.84210526, "marg_al_p": 39, "marg_al_m": 34, "marg_al_f": 5, "per_marg_al_p": 53.42465753, "per_marg_al_m": 87.17948718, "per_marg_al_f": 12.82051282, "marg_hh_p": 0, "marg_hh_m": 0, "marg_hh_f": 0, "per_marg_hh_p": 0.0, "per_marg_hh_m": 0.0, "per_marg_hh_f": 0.0, "marg_ot_p": 15, "marg_ot_m": 5, "marg_ot_f": 10, "per_marg_ot_p": 20.54794521, "per_marg_ot_m": 33.33333333, "per_marg_ot_f": 66.66666667, "margwork_3_6_p": 73, "margwork_3_6_m": 51, "margwork_3_6_f": 22, "per_margwork_3_6_p": 100.0, "per_margwork_3_6_m": 69.8630137, "per_margwork_3_6_f": 30.1369863, "marg_cl_3_6_p": 19, "marg_cl_3_6_m": 12, "marg_cl_3_6_f": 7, "per_marg_cl_3_6_p": 26.02739726, "per_marg_cl_3_6_m": 63.15789474, "per_marg_cl_3_6_f": 36.84210526, "marg_al_3_6_p": 39, "marg_al_3_6_m": 34, "marg_al_3_6_f": 5, "per_marg_al_3_6_p": 53.42465753, "per_marg_al_3_6_m": 87.17948718, "per_marg_al_3_6_f": 12.82051282, "marg_hh_3_6_p": 0, "marg_hh_3_6_m": 0, "marg_hh_3_6_f": 0, "per_marg_hh_3_6_p": 0.0, "per_marg_hh_3_6_m": 0.0, "per_marg_hh_3_6_f": 0.0, "marg_ot_3_6_p": 15, "marg_ot_3_6_m": 5, "marg_ot_3_6_f": 10, "per_marg_ot_3_6_p": 20.54794521, "per_marg_ot_3_6_m": 33.33333333, "per_marg_ot_3_6_f": 66.66666667, "margwork_0_3_p": 0, "margwork_0_3_m": 0, "margwork_0_3_f": 0, "per_margwork_0_3_p": 0.0, "per_margwork_0_3_m": 0.0, "per_margwork_0_3_f": 0.0, "marg_cl_0_3_p": 0, "marg_cl_0_3_m": 0, "marg_cl_0_3_f": 0, "per_marg_cl_0_3_p": 0.0, "per_marg_cl_0_3_m": 0.0, "per_marg_cl_0_3_f": 0.0, "marg_al_0_3_p": 0, "marg_al_0_3_m": 0, "marg_al_0_3_f": 0, "per_marg_al_0_3_p": 0.0, "per_marg_al_0_3_m": 0.0, "per_marg_al_0_3_f": 0.0, "marg_hh_0_3_p": 0, "marg_hh_0_3_m": 0, "marg_hh_0_3_f": 0, "per_marg_hh_0_3_p": 0.0, "per_marg_hh_0_3_m": 0.0, "per_marg_hh_0_3_f": 0.0, "marg_ot_0_3_p": 0, "marg_ot_0_3_m": 0, "marg_ot_0_3_f": 0, "per_marg_ot_0_3_p": 0.0, "per_marg_ot_0_3_m": 0.0, "per_marg_ot_0_3_f": 0.0, "non_work_p": 724, "non_work_m": 310, "non_work_f": 414, "per_non_work_p": 71.18977384, "per_non_work_m": 42.81767956, "per_non_work_f": 57.18232044, "per_hc_tot_tot": 100, "per_hc_tot_god": 26.5, "per_hc_tot_liv": 68.4, "per_hc_tot_dil": 5.1, "per_hc_res_tot": 90.3, "per_hc_res_god": 25.0, "per_hc_res_liv": 60.2, "per_hc_res_dil": 5.1, "per_hc_oth_tot": 9.7, "per_hc_oth_god": 1.5, "per_hc_oth_liv": 8.2, "per_hc_oth_dil": 0.0, "per_mt_grsbam": 16.8, "per_mt_plastic": 0.5, "per_mt_h_tiles": 4.6, "per_mt_m_tiles": 0.0, "per_mt_b_brick": 63.3, "per_mt_stone": 1.5, "per_mt_asbstos": 1.5, "per_mt_concrte": 3.6, "per_mt_oth": 8.2, "per_mw_grsbam": 0.5, "per_mw_plastic": 0.0, "per_mw_mud": 19.4, "per_mw_wood": 0.0, "per_mw_no_mrtr": 1.5, "per_mw_st_mrtr": 0.5, "per_mw_asbstos": 0.0, "per_mw_b_brick": 78.1, "per_mw_concrte": 0.0, "per_mw_oth": 0.0, "per_mf_mud": 91.8, "per_mf_wood": 0.0, "per_mf_b_brick": 0.0, "per_mf_stone": 0.0, "per_mf_cement": 8.2, "per_mf_fl_tile": 0.0, "per_mf_oth": 0.0, "per_dw_n_exrm": 13.8, "per_dw_1_room": 38.3, "per_dw_2_room": 31.6, "per_dw_3_room": 10.2, "per_dw_4_room": 5.1, "per_dw_5_room": 0.5, "per_dw_6_room": 0.5, "per_hhsize_1": 1.0, "per_hhsize_2": 9.7, "per_hhsize_3": 8.7, "per_hhsize_4": 15.3, "per_hhsize_5": 19.4, "per_hhsize_6_8": 38.8, "per_hhsize_9p": 7.1, "per_ow_owned": 99.0, "per_ow_rented": 0.0, "per_ow_oth": 1.0, "per_mc_none": 27.0, "per_mcouple_1": 58.2, "per_mcouple_2": 12.8, "per_mcouple_3": 1.5, "per_mcouple_4": 0.5, "per_mcouple_5p": 0.0, "per_dw_t_ts": 2.0, "per_dw_t_unts": 2.6, "per_dw_c_well": 0.0, "per_dw_unc_wel": 0.0, "per_dw_hpump": 95.4, "per_dw_tw_bore": 0.0, "per_dw_spring": 0.0, "per_dw_rivcan": 0.0, "per_dw_tank": 0.0, "per_dw_oth": 0.0, "per_loc_dw_wp": 44.4, "per_loc_dw_np": 26.0, "per_loc_dw_aw": 29.6, "per_light_elec": 8.7, "per_light_kero": 91.3, "per_light_solr": 0.0, "per_light_oil": 0.0, "per_light_oth": 0.0, "per_light_no": 0.0, "per_hh_latrine": 35.2, "per_fl_sewer": 4.6, "per_fl_septict": 24.0, "per_fl_othsys": 4.1, "per_pl_wslab": 0.5, "per_pl_without": 2.0, "per_ns_open": 0.0, "per_sl_ns_hum": 0.0, "per_sl_ns_anml": 0.0, "per_hh_no_lat": 64.8, "per_as_pub": 25.0, "per_as_open": 39.8, "per_hh_bathrm": 8.2, "per_hh_en_wrf": 28.6, "per_hh_no_btrm": 63.3, "per_wwoc_drain": 2.0, "per_wwoc_open": 91.3, "per_wwoc_nodrn": 6.6, "per_cook_fire": 56.1, "per_cook_resdu": 19.9, "per_cook_cwdng": 17.9, "per_cook_coal": 0.0, "per_cook_kero": 0.0, "per_cook_lpng": 5.6, "per_cook_elec": 0.0, "per_cook_biogs": 0.0, "per_cook_oth": 0.0, "per_cook_no": 0.5, "per_kf_inside": 70.9, "per_kf_in_has": 18.4, "per_kf_in_does": 52.6, "per_kf_outside": 28.6, "per_kf_out_has": 12.8, "per_kf_out_dos": 15.8, "per_kf_no_cook": 0.5, "per_hh_banking": 59.2, "per_hh_radio": 21.9, "per_hh_tv": 39.8, "per_hh_cmp_int": 0.0, "per_hh_cmp_wnt": 1.0, "per_hh_ph_ll": 2.6, "per_hh_ph_mob": 36.2, "per_hh_ph_bth": 6.1, "per_hh_bcycl": 66.8, "per_hh_2wheel": 5.6, "per_hh_4wheel": 0.0, "per_hh_tvcomp": 0.0, "per_hh_no_ast": 13.8, "per_hs_perma": 71.4, "per_hs_sperma": 10.2, "per_hs_temp": 10.2, "per_hs_servc": 9.7, "per_hs_nservc": 0.5, "per_hs_unclss": 8.2, "avghhsz_cy": 5.4972973, "st_areashape": 2647336.27361174, "st_lengthshape": 7318.757739175669}, "geometry": {"type": "Polygon", "coordinates": [[[79.22887249079051, 28.488688792884624], [79.2288095943476, 28.488571614901222], [79.22854266355418, 28.488284526594736], [79.22795344777953, 28.48811238014035], [79.22759235557801, 28.487944474841186], [79.22723509109797, 28.487615346171843], [79.22697200509397, 28.487167136487603], [79.2268523656678, 28.486439453932924], [79.22647165066722, 28.48518299950818], [79.22623152200865, 28.48376786174626], [79.22599052018757, 28.48239306000496], [79.22569909862459, 28.48121884908756], [79.22561182459977, 28.480114915646812], [79.22566495725387, 28.4800403107177], [79.22612424070581, 28.479395347471115], [79.22687390098008, 28.479117591896344], [79.2304651471954, 28.47911151189134], [79.23112609614041, 28.47908728188353], [79.23150096939669, 28.47894844681625], [79.23237001487388, 28.478855214884227], [79.23307304899168, 28.478795409580332], [79.23353129938101, 28.478621605257484], [79.23374536252334, 28.47829745054411], [79.23422041410346, 28.477382395590038], [79.23565424297621, 28.4770913121499], [79.23807552067056, 28.476975033316116], [79.24072490217506, 28.476862858840096], [79.24414485853028, 28.476966532191117], [79.24706499765134, 28.476980212479692], [79.24918214801124, 28.476809086747554], [79.2490628490466, 28.47696013384256], [79.24885921803968, 28.477733657658078], [79.24880424563587, 28.478100845956316], [79.24890924431953, 28.47953468019355], [79.24912235524765, 28.48031590035621], [79.24918042773747, 28.480603378282083], [79.24913896958881, 28.48060261158055], [79.2482151762866, 28.480883979607917], [79.24747223900391, 28.48168020940711], [79.24630699112974, 28.484003332860237], [79.246306712652, 28.484015082517526], [79.24508828541133, 28.483840541425277], [79.2447084247086, 28.483894263352994], [79.24319328213298, 28.48392704572488], [79.24281268301506, 28.484011162280556], [79.24183711351483, 28.484509826308376], [79.24082144411864, 28.485250981090147], [79.24047093766444, 28.485517976158572], [79.24002007501997, 28.485661609443387], [79.23936141049074, 28.485862229873135], [79.2384295862499, 28.485966531564728], [79.23784117626404, 28.486107624228904], [79.23738599631635, 28.486433495941107], [79.23692213235476, 28.487124018318465], [79.23684401665427, 28.48751772094979], [79.23692928204609, 28.487972011799126], [79.23645345432158, 28.487597022352414], [79.23556889493942, 28.487585228089497], [79.23487678882708, 28.4876555759768], [79.23366875778918, 28.487884360445634], [79.23325447454307, 28.48793740367579], [79.2327743483799, 28.487867752355474], [79.23219376092358, 28.487674555899684], [79.23178164621056, 28.487636487882533], [79.2313344846251, 28.487628181054873], [79.23091945847224, 28.487711720661597], [79.2306046959832, 28.487918609343282], [79.23011589119608, 28.488213512752186], [79.22938979912159, 28.488352003241527], [79.22907585679441, 28.488528490989314], [79.22887249079051, 28.488688792884624]]]}}]}