{"type": "FeatureCollection", "features": [{"type": "Feature", "properties": {"premiumdata.sde.IN_Village_PCA.area": 1.45269792, "objectid": 309780, "id": "8108522488950", "name": "Fazalabad", "subdistrict": "Hindaun", "district": "Karauli", "state": "Rajasthan", "country": "India", "censusname": "Fazalabad", "villagename_locallang": null, "lgd_villagename": "Fazalabad", "lgd_villagecode": 76461, "lgd_subdistrictcode": 522, "lgd_districtcode": 108, "lgd_statecode": 8, "censuscode2001": "01206700", "censuscode2011": "076461", "censuscode2021": null, "level": "Village", "tru": "Rural", "no_hh": 142, "tot_p": 952, "tot_m": 509, "tot_f": 443, "per_tot_m": 53.46638655, "per_tot_f": 46.53361345, "p_06": 153, "m_06": 81, "f_06": 72, "per_p_06": 16.07142857, "per_m_06": 52.94117647, "per_f_06": 47.05882353, "p_sc": 70, "m_sc": 32, "f_sc": 38, "per_p_sc": 7.35294118, "per_m_sc": 45.71428571, "per_f_sc": 54.28571429, "p_st": 247, "m_st": 130, "f_st": 117, "per_p_st": 25.94537815, "per_m_st": 52.63157895000001, "per_f_st": 47.36842105, "p_lit": 640, "m_lit": 388, "f_lit": 252, "per_p_lit": 67.22689076, "per_m_lit": 60.625, "per_f_lit": 39.375, "p_ill": 312, "m_ill": 121, "f_ill": 191, "per_p_ill": 32.77310924, "per_m_ill": 38.78205128, "per_f_ill": 61.21794872, "tot_work_p": 359, "tot_work_m": 246, "tot_work_f": 113, "per_tot_work_p": 37.71008403, "per_tot_work_m": 68.52367688, "per_tot_work_f": 31.47632312, "mainwork_p": 285, "mainwork_m": 219, "mainwork_f": 66, "per_mainwork_p": 29.93697479, "per_mainwork_m": 76.84210526, "per_mainwork_f": 23.15789474, "main_cl_p": 130, "main_cl_m": 87, "main_cl_f": 43, "per_main_cl_p": 45.61403509, "per_main_cl_m": 66.92307692, "per_main_cl_f": 33.07692308, "main_al_p": 43, "main_al_m": 35, "main_al_f": 8, "per_main_al_p": 15.0877193, "per_main_al_m": 81.39534884000001, "per_main_al_f": 18.60465116, "main_hh_p": 5, "main_hh_m": 5, "main_hh_f": 0, "per_main_hh_p": 1.75438596, "per_main_hh_m": 100.0, "per_main_hh_f": 0.0, "main_ot_p": 107, "main_ot_m": 92, "main_ot_f": 15, "per_main_ot_p": 37.54385965, "per_main_ot_m": 85.98130841000001, "per_main_ot_f": 14.01869159, "margwork_p": 74, "margwork_m": 27, "margwork_f": 47, "per_margwork_p": 7.77310924, "per_margwork_m": 36.48648649, "per_margwork_f": 63.51351351, "marg_cl_p": 12, "marg_cl_m": 1, "marg_cl_f": 11, "per_marg_cl_p": 16.21621622, "per_marg_cl_m": 8.33333333, "per_marg_cl_f": 91.66666667, "marg_al_p": 35, "marg_al_m": 5, "marg_al_f": 30, "per_marg_al_p": 47.2972973, "per_marg_al_m": 14.28571429, "per_marg_al_f": 85.71428571, "marg_hh_p": 4, "marg_hh_m": 1, "marg_hh_f": 3, "per_marg_hh_p": 5.40540541, "per_marg_hh_m": 25.0, "per_marg_hh_f": 75.0, "marg_ot_p": 23, "marg_ot_m": 20, "marg_ot_f": 3, "per_marg_ot_p": 31.08108108, "per_marg_ot_m": 86.95652174, "per_marg_ot_f": 13.04347826, "margwork_3_6_p": 70, "margwork_3_6_m": 25, "margwork_3_6_f": 45, "per_margwork_3_6_p": 94.59459459, "per_margwork_3_6_m": 35.71428571, "per_margwork_3_6_f": 64.28571429, "marg_cl_3_6_p": 12, "marg_cl_3_6_m": 1, "marg_cl_3_6_f": 11, "per_marg_cl_3_6_p": 16.21621622, "per_marg_cl_3_6_m": 8.33333333, "per_marg_cl_3_6_f": 91.66666667, "marg_al_3_6_p": 33, "marg_al_3_6_m": 4, "marg_al_3_6_f": 29, "per_marg_al_3_6_p": 44.59459459, "per_marg_al_3_6_m": 12.12121212, "per_marg_al_3_6_f": 87.87878788, "marg_hh_3_6_p": 4, "marg_hh_3_6_m": 1, "marg_hh_3_6_f": 3, "per_marg_hh_3_6_p": 5.40540541, "per_marg_hh_3_6_m": 25.0, "per_marg_hh_3_6_f": 75.0, "marg_ot_3_6_p": 21, "marg_ot_3_6_m": 19, "marg_ot_3_6_f": 2, "per_marg_ot_3_6_p": 28.37837838, "per_marg_ot_3_6_m": 90.47619048, "per_marg_ot_3_6_f": 9.52380952, "margwork_0_3_p": 4, "margwork_0_3_m": 2, "margwork_0_3_f": 2, "per_margwork_0_3_p": 5.40540541, "per_margwork_0_3_m": 50.0, "per_margwork_0_3_f": 50.0, "marg_cl_0_3_p": 0, "marg_cl_0_3_m": 0, "marg_cl_0_3_f": 0, "per_marg_cl_0_3_p": 0.0, "per_marg_cl_0_3_m": 0.0, "per_marg_cl_0_3_f": 0.0, "marg_al_0_3_p": 2, "marg_al_0_3_m": 1, "marg_al_0_3_f": 1, "per_marg_al_0_3_p": 2.7027027, "per_marg_al_0_3_m": 50.0, "per_marg_al_0_3_f": 50.0, "marg_hh_0_3_p": 0, "marg_hh_0_3_m": 0, "marg_hh_0_3_f": 0, "per_marg_hh_0_3_p": 0.0, "per_marg_hh_0_3_m": 0.0, "per_marg_hh_0_3_f": 0.0, "marg_ot_0_3_p": 2, "marg_ot_0_3_m": 1, "marg_ot_0_3_f": 1, "per_marg_ot_0_3_p": 2.7027027, "per_marg_ot_0_3_m": 50.0, "per_marg_ot_0_3_f": 50.0, "non_work_p": 593, "non_work_m": 263, "non_work_f": 330, "per_non_work_p": 62.28991597, "per_non_work_m": 44.35075885000001, "per_non_work_f": 55.64924115, "per_hc_tot_tot": 100, "per_hc_tot_god": 48.6, "per_hc_tot_liv": 42.8, "per_hc_tot_dil": 8.7, "per_hc_res_tot": 100.0, "per_hc_res_god": 48.6, "per_hc_res_liv": 42.8, "per_hc_res_dil": 8.7, "per_hc_oth_tot": 0.0, "per_hc_oth_god": 0.0, "per_hc_oth_liv": 0.0, "per_hc_oth_dil": 0.0, "per_mt_grsbam": 3.6, "per_mt_plastic": 0.0, "per_mt_h_tiles": 0.0, "per_mt_m_tiles": 0.0, "per_mt_b_brick": 0.0, "per_mt_stone": 89.1, "per_mt_asbstos": 2.9, "per_mt_concrte": 4.3, "per_mt_oth": 0.0, "per_mw_grsbam": 0.0, "per_mw_plastic": 0.0, "per_mw_mud": 18.1, "per_mw_wood": 0.0, "per_mw_no_mrtr": 6.5, "per_mw_st_mrtr": 60.9, "per_mw_asbstos": 0.0, "per_mw_b_brick": 14.5, "per_mw_concrte": 0.0, "per_mw_oth": 0.0, "per_mf_mud": 50.0, "per_mf_wood": 0.0, "per_mf_b_brick": 0.0, "per_mf_stone": 13.8, "per_mf_cement": 34.1, "per_mf_fl_tile": 2.2, "per_mf_oth": 0.0, "per_dw_n_exrm": 0.7, "per_dw_1_room": 31.9, "per_dw_2_room": 44.9, "per_dw_3_room": 14.5, "per_dw_4_room": 6.5, "per_dw_5_room": 1.4, "per_dw_6_room": 0.0, "per_hhsize_1": 2.2, "per_hhsize_2": 0.7, "per_hhsize_3": 3.6, "per_hhsize_4": 7.2, "per_hhsize_5": 17.4, "per_hhsize_6_8": 45.7, "per_hhsize_9p": 23.2, "per_ow_owned": 96.4, "per_ow_rented": 2.9, "per_ow_oth": 0.7, "per_mc_none": 4.3, "per_mcouple_1": 56.5, "per_mcouple_2": 20.3, "per_mcouple_3": 15.9, "per_mcouple_4": 2.9, "per_mcouple_5p": 0.0, "per_dw_t_ts": 0.0, "per_dw_t_unts": 0.0, "per_dw_c_well": 0.0, "per_dw_unc_wel": 0.0, "per_dw_hpump": 72.5, "per_dw_tw_bore": 27.5, "per_dw_spring": 0.0, "per_dw_rivcan": 0.0, "per_dw_tank": 0.0, "per_dw_oth": 0.0, "per_loc_dw_wp": 27.5, "per_loc_dw_np": 51.4, "per_loc_dw_aw": 21.0, "per_light_elec": 63.8, "per_light_kero": 36.2, "per_light_solr": 0.0, "per_light_oil": 0.0, "per_light_oth": 0.0, "per_light_no": 0.0, "per_hh_latrine": 34.1, "per_fl_sewer": 2.2, "per_fl_septict": 31.2, "per_fl_othsys": 0.7, "per_pl_wslab": 0.0, "per_pl_without": 0.0, "per_ns_open": 0.0, "per_sl_ns_hum": 0.0, "per_sl_ns_anml": 0.0, "per_hh_no_lat": 65.9, "per_as_pub": 0.0, "per_as_open": 65.9, "per_hh_bathrm": 18.8, "per_hh_en_wrf": 32.6, "per_hh_no_btrm": 48.6, "per_wwoc_drain": 2.2, "per_wwoc_open": 38.4, "per_wwoc_nodrn": 59.4, "per_cook_fire": 17.4, "per_cook_resdu": 37.7, "per_cook_cwdng": 10.1, "per_cook_coal": 0.0, "per_cook_kero": 0.0, "per_cook_lpng": 34.8, "per_cook_elec": 0.0, "per_cook_biogs": 0.0, "per_cook_oth": 0.0, "per_cook_no": 0.0, "per_kf_inside": 78.3, "per_kf_in_has": 73.9, "per_kf_in_does": 4.3, "per_kf_outside": 21.7, "per_kf_out_has": 18.1, "per_kf_out_dos": 3.6, "per_kf_no_cook": 0.0, "per_hh_banking": 67.4, "per_hh_radio": 16.7, "per_hh_tv": 47.8, "per_hh_cmp_int": 0.0, "per_hh_cmp_wnt": 1.4, "per_hh_ph_ll": 1.4, "per_hh_ph_mob": 80.4, "per_hh_ph_bth": 5.1, "per_hh_bcycl": 36.2, "per_hh_2wheel": 33.3, "per_hh_4wheel": 2.9, "per_hh_tvcomp": 1.4, "per_hh_no_ast": 7.2, "per_hs_perma": 81.2, "per_hs_sperma": 15.9, "per_hs_temp": 2.9, "per_hs_servc": 2.9, "per_hs_nservc": 0.0, "per_hs_unclss": 0.0, "avghhsz_cy": 6.70422535, "st_areashape": 1830376.347006135, "st_lengthshape": 5758.2422435741155}, "geometry": {"type": "Polygon", "coordinates": [[[76.9742004256254, 26.7858088654051], [76.9780033005486, 26.7842811871207], [76.98168013824416, 26.783093948856727], [76.98256675207338, 26.7842811871207], [76.98806633615911, 26.789701998231376], [76.98332732687835, 26.793786405814068], [76.97865704320839, 26.799741759596742], [76.9741354810236, 26.798060126219383], [76.97572157523534, 26.793786405814068], [76.97534128783285, 26.7881852125305], [76.9742004256254, 26.7858088654051]]]}}]}