{"type": "FeatureCollection", "features": [{"type": "Feature", "properties": {"premiumdata.sde.IN_Village_PCA.area": 8.94258069, "objectid": 200577, "id": "193042438128435", "name": "Khas Ramkarerchhar", "subdistrict": "Sagar", "district": "24 Paraganas South", "state": "West Bengal", "country": "India", "censusname": "Khas Ramkarerchhar", "villagename_locallang": null, "lgd_villagename": "Khas Ramkarerchhar", "lgd_villagecode": 335264, "lgd_subdistrictcode": 2438, "lgd_districtcode": 304, "lgd_statecode": 19, "censuscode2001": "04063200", "censuscode2011": "335264", "censuscode2021": null, "level": "Village", "tru": "Rural", "no_hh": 1462, "tot_p": 7556, "tot_m": 3905, "tot_f": 3651, "per_tot_m": 51.68078348, "per_tot_f": 48.31921652, "p_06": 887, "m_06": 478, "f_06": 409, "per_p_06": 11.73901535, "per_m_06": 53.88951522, "per_f_06": 46.11048478, "p_sc": 1084, "m_sc": 559, "f_sc": 525, "per_p_sc": 14.34621493, "per_m_sc": 51.56826568, "per_f_sc": 48.43173432, "p_st": 211, "m_st": 109, "f_st": 102, "per_p_st": 2.7924828, "per_m_st": 51.65876777, "per_f_st": 48.34123223, "p_lit": 5725, "m_lit": 3164, "f_lit": 2561, "per_p_lit": 75.76760191, "per_m_lit": 55.26637555, "per_f_lit": 44.73362445, "p_ill": 1831, "m_ill": 741, "f_ill": 1090, "per_p_ill": 24.23239809, "per_m_ill": 40.46968869, "per_f_ill": 59.53031131, "tot_work_p": 3434, "tot_work_m": 2250, "tot_work_f": 1184, "per_tot_work_p": 45.44732663, "per_tot_work_m": 65.52125801, "per_tot_work_f": 34.47874199, "mainwork_p": 2194, "mainwork_m": 1854, "mainwork_f": 340, "per_mainwork_p": 29.03652726, "per_mainwork_m": 84.50319052, "per_mainwork_f": 15.49680948, "main_cl_p": 813, "main_cl_m": 706, "main_cl_f": 107, "per_main_cl_p": 37.0556062, "per_main_cl_m": 86.83886839, "per_main_cl_f": 13.16113161, "main_al_p": 890, "main_al_m": 739, "main_al_f": 151, "per_main_al_p": 40.56517776, "per_main_al_m": 83.03370787, "per_main_al_f": 16.96629213, "main_hh_p": 67, "main_hh_m": 58, "main_hh_f": 9, "per_main_hh_p": 3.05378304, "per_main_hh_m": 86.56716418, "per_main_hh_f": 13.43283582, "main_ot_p": 424, "main_ot_m": 351, "main_ot_f": 73, "per_main_ot_p": 19.325433, "per_main_ot_m": 82.78301887, "per_main_ot_f": 17.21698113, "margwork_p": 1240, "margwork_m": 396, "margwork_f": 844, "per_margwork_p": 16.41079936, "per_margwork_m": 31.93548387, "per_margwork_f": 68.06451613, "marg_cl_p": 462, "marg_cl_m": 162, "marg_cl_f": 300, "per_marg_cl_p": 37.25806452, "per_marg_cl_m": 35.06493506, "per_marg_cl_f": 64.93506494, "marg_al_p": 618, "marg_al_m": 181, "marg_al_f": 437, "per_marg_al_p": 49.83870968, "per_marg_al_m": 29.28802589, "per_marg_al_f": 70.71197411, "marg_hh_p": 48, "marg_hh_m": 4, "marg_hh_f": 44, "per_marg_hh_p": 3.87096774, "per_marg_hh_m": 8.33333333, "per_marg_hh_f": 91.66666667, "marg_ot_p": 112, "marg_ot_m": 49, "marg_ot_f": 63, "per_marg_ot_p": 9.03225806, "per_marg_ot_m": 43.75, "per_marg_ot_f": 56.25, "margwork_3_6_p": 994, "margwork_3_6_m": 361, "margwork_3_6_f": 633, "per_margwork_3_6_p": 80.16129032, "per_margwork_3_6_m": 36.31790744, "per_margwork_3_6_f": 63.68209256, "marg_cl_3_6_p": 415, "marg_cl_3_6_m": 154, "marg_cl_3_6_f": 261, "per_marg_cl_3_6_p": 33.46774194, "per_marg_cl_3_6_m": 37.10843373, "per_marg_cl_3_6_f": 62.89156627, "marg_al_3_6_p": 448, "marg_al_3_6_m": 155, "marg_al_3_6_f": 293, "per_marg_al_3_6_p": 36.12903226, "per_marg_al_3_6_m": 34.59821429, "per_marg_al_3_6_f": 65.40178571, "marg_hh_3_6_p": 32, "marg_hh_3_6_m": 4, "marg_hh_3_6_f": 28, "per_marg_hh_3_6_p": 2.58064516, "per_marg_hh_3_6_m": 12.5, "per_marg_hh_3_6_f": 87.5, "marg_ot_3_6_p": 99, "marg_ot_3_6_m": 48, "marg_ot_3_6_f": 51, "per_marg_ot_3_6_p": 7.98387097, "per_marg_ot_3_6_m": 48.48484848, "per_marg_ot_3_6_f": 51.51515152, "margwork_0_3_p": 246, "margwork_0_3_m": 35, "margwork_0_3_f": 211, "per_margwork_0_3_p": 19.83870968, "per_margwork_0_3_m": 14.22764228, "per_margwork_0_3_f": 85.77235772, "marg_cl_0_3_p": 47, "marg_cl_0_3_m": 8, "marg_cl_0_3_f": 39, "per_marg_cl_0_3_p": 3.79032258, "per_marg_cl_0_3_m": 17.0212766, "per_marg_cl_0_3_f": 82.9787234, "marg_al_0_3_p": 170, "marg_al_0_3_m": 26, "marg_al_0_3_f": 144, "per_marg_al_0_3_p": 13.70967742, "per_marg_al_0_3_m": 15.29411765, "per_marg_al_0_3_f": 84.70588235, "marg_hh_0_3_p": 16, "marg_hh_0_3_m": 0, "marg_hh_0_3_f": 16, "per_marg_hh_0_3_p": 1.29032258, "per_marg_hh_0_3_m": 0.0, "per_marg_hh_0_3_f": 100.0, "marg_ot_0_3_p": 13, "marg_ot_0_3_m": 1, "marg_ot_0_3_f": 12, "per_marg_ot_0_3_p": 1.0483871, "per_marg_ot_0_3_m": 7.69230769, "per_marg_ot_0_3_f": 92.30769231, "non_work_p": 4122, "non_work_m": 1655, "non_work_f": 2467, "per_non_work_p": 54.55267337, "per_non_work_m": 40.15041242, "per_non_work_f": 59.84958758, "per_hc_tot_tot": 100, "per_hc_tot_god": 33.5, "per_hc_tot_liv": 47.3, "per_hc_tot_dil": 19.2, "per_hc_res_tot": 94.3, "per_hc_res_god": 33.2, "per_hc_res_liv": 42.1, "per_hc_res_dil": 19.0, "per_hc_oth_tot": 5.7, "per_hc_oth_god": 0.3, "per_hc_oth_liv": 5.2, "per_hc_oth_dil": 0.2, "per_mt_grsbam": 46.3, "per_mt_plastic": 0.6, "per_mt_h_tiles": 41.6, "per_mt_m_tiles": 1.7, "per_mt_b_brick": 0.6, "per_mt_stone": 0.3, "per_mt_asbstos": 4.6, "per_mt_concrte": 4.3, "per_mt_oth": 0.0, "per_mw_grsbam": 11.4, "per_mw_plastic": 1.0, "per_mw_mud": 71.4, "per_mw_wood": 0.0, "per_mw_no_mrtr": 0.3, "per_mw_st_mrtr": 0.1, "per_mw_asbstos": 0.0, "per_mw_b_brick": 15.5, "per_mw_concrte": 0.3, "per_mw_oth": 0.0, "per_mf_mud": 95.0, "per_mf_wood": 0.0, "per_mf_b_brick": 0.9, "per_mf_stone": 0.1, "per_mf_cement": 3.9, "per_mf_fl_tile": 0.1, "per_mf_oth": 0.0, "per_dw_n_exrm": 1.1, "per_dw_1_room": 36.0, "per_dw_2_room": 32.2, "per_dw_3_room": 19.0, "per_dw_4_room": 8.0, "per_dw_5_room": 2.4, "per_dw_6_room": 1.3, "per_hhsize_1": 1.7, "per_hhsize_2": 4.8, "per_hhsize_3": 12.7, "per_hhsize_4": 26.7, "per_hhsize_5": 19.6, "per_hhsize_6_8": 27.2, "per_hhsize_9p": 7.3, "per_ow_owned": 95.3, "per_ow_rented": 0.6, "per_ow_oth": 4.1, "per_mc_none": 4.4, "per_mcouple_1": 65.9, "per_mcouple_2": 23.2, "per_mcouple_3": 4.7, "per_mcouple_4": 1.4, "per_mcouple_5p": 0.4, "per_dw_t_ts": 0.3, "per_dw_t_unts": 0.2, "per_dw_c_well": 0.1, "per_dw_unc_wel": 0.1, "per_dw_hpump": 99.2, "per_dw_tw_bore": 0.1, "per_dw_spring": 0.0, "per_dw_rivcan": 0.0, "per_dw_tank": 0.0, "per_dw_oth": 0.1, "per_loc_dw_wp": 1.2, "per_loc_dw_np": 54.9, "per_loc_dw_aw": 43.9, "per_light_elec": 0.7, "per_light_kero": 67.5, "per_light_solr": 31.7, "per_light_oil": 0.1, "per_light_oth": 0.1, "per_light_no": 0.0, "per_hh_latrine": 97.4, "per_fl_sewer": 0.2, "per_fl_septict": 6.9, "per_fl_othsys": 0.9, "per_pl_wslab": 84.0, "per_pl_without": 5.3, "per_ns_open": 0.1, "per_sl_ns_hum": 0.0, "per_sl_ns_anml": 0.1, "per_hh_no_lat": 2.6, "per_as_pub": 0.2, "per_as_open": 2.4, "per_hh_bathrm": 0.5, "per_hh_en_wrf": 4.2, "per_hh_no_btrm": 95.3, "per_wwoc_drain": 0.1, "per_wwoc_open": 21.9, "per_wwoc_nodrn": 78.0, "per_cook_fire": 29.1, "per_cook_resdu": 33.8, "per_cook_cwdng": 36.6, "per_cook_coal": 0.0, "per_cook_kero": 0.0, "per_cook_lpng": 0.4, "per_cook_elec": 0.0, "per_cook_biogs": 0.0, "per_cook_oth": 0.1, "per_cook_no": 0.0, "per_kf_inside": 87.6, "per_kf_in_has": 60.5, "per_kf_in_does": 27.1, "per_kf_outside": 12.4, "per_kf_out_has": 9.8, "per_kf_out_dos": 2.6, "per_kf_no_cook": 0.0, "per_hh_banking": 23.9, "per_hh_radio": 53.3, "per_hh_tv": 18.4, "per_hh_cmp_int": 0.8, "per_hh_cmp_wnt": 3.7, "per_hh_ph_ll": 1.8, "per_hh_ph_mob": 42.4, "per_hh_ph_bth": 1.1, "per_hh_bcycl": 50.4, "per_hh_2wheel": 2.5, "per_hh_4wheel": 3.9, "per_hh_tvcomp": 0.3, "per_hh_no_ast": 23.7, "per_hs_perma": 14.9, "per_hs_sperma": 39.5, "per_hs_temp": 45.6, "per_hs_servc": 38.1, "per_hs_nservc": 7.5, "per_hs_unclss": 0.0, "avghhsz_cy": 5.16826265, "st_areashape": 10419090.034894586, "st_lengthshape": 15846.637612703767}, "geometry": {"type": "Polygon", "coordinates": [[[88.11081999930124, 21.785109999406593], [88.11020999920586, 21.783639998981723], [88.1091899990317, 21.781939999092007], [88.10832999958937, 21.78012999882201], [88.10776999882442, 21.778619999297753], [88.10720999895779, 21.77664999932346], [88.10636999870864, 21.775499999376496], [88.10496999949115, 21.774149999461116], [88.10369999907171, 21.77340999965302], [88.10322999871843, 21.7727199990531], [88.1027699993092, 21.771439999028825], [88.10238999846929, 21.768309998693482], [88.10223999957978, 21.76383999962618], [88.10229999895591, 21.761249998549133], [88.10227999886443, 21.761139999594757], [88.10193999910581, 21.759439999195376], [88.10190999896858, 21.75587999959564], [88.10170999895203, 21.75483999891254], [88.10138999838658, 21.75418999904039], [88.10087999964698, 21.753369998688058], [88.10006999863674, 21.752329999014382], [88.1000099992606, 21.75150999972114], [88.1001299989112, 21.751559999272803], [88.10039999924794, 21.751519998631636], [88.10187999883134, 21.75089999894962], [88.10381999872232, 21.750359999387165], [88.10674999954855, 21.74962999860504], [88.10795999879522, 21.749439999164437], [88.10921999916893, 21.74920999902225], [88.1099499989149, 21.748899999118475], [88.11022999929736, 21.748619999222402], [88.11058999914749, 21.748899999118475], [88.11124999947157, 21.74954999873948], [88.11164999860632, 21.750209998592133], [88.11191999894307, 21.75128999931759], [88.11223999861022, 21.752259998677527], [88.11292999907151, 21.753379999137714], [88.11377999846808, 21.754339999849705], [88.11435999842621, 21.755069999215017], [88.11477999944911, 21.756229999623397], [88.11532999927, 21.757269998580774], [88.11583999890796, 21.757779999263253], [88.11625999903252, 21.757889999123844], [88.11719999884075, 21.757849999411857], [88.12068999953364, 21.757619998557097], [88.12496999845033, 21.75700999954773], [88.13028999853098, 21.756159998684918], [88.13267999868374, 21.755459999103486], [88.13400999937764, 21.755269999033438], [88.13498999847053, 21.75534999904968], [88.13652999832841, 21.75576999902927], [88.1382599990554, 21.75619999886783], [88.1396899984101, 21.756599999249424], [88.13804999899314, 21.758549999020325], [88.1359299982788, 21.760059998709284], [88.13038999898839, 21.76379999990369], [88.12891999945074, 21.765269999275247], [88.1279399985612, 21.766459999298082], [88.12727999913545, 21.76746999914652], [88.1269099992396, 21.7689299999321], [88.12682999887365, 21.770359998910386], [88.12725999904394, 21.771329998708886], [88.12821999894368, 21.77224999878738], [88.12981999907602, 21.773179999543753], [88.13074999883854, 21.773759999474397], [88.13205999944097, 21.774069999079707], [88.1322399984677, 21.77405999840324], [88.1311999991003, 21.775629999303234], [88.13036999889692, 21.77674999924577], [88.12932999952957, 21.777949999548444], [88.1280799992016, 21.779109999361303], [88.12588999906538, 21.780609999345366], [88.12401999859635, 21.781309999696152], [88.12206999865963, 21.78222999998886], [88.12058999907622, 21.782739998705008], [88.11883999915604, 21.78330999914698], [88.11588999913666, 21.78459000000318], [88.11450999911234, 21.785439999268846], [88.1127399982024, 21.786869999625353], [88.11174999906375, 21.787849999243935], [88.11165999955038, 21.787539998565492], [88.11109999878543, 21.785759999345043], [88.11081999930124, 21.785109999406593]]]}}]}