{"type": "FeatureCollection", "features": [{"type": "Feature", "properties": {"premiumdata.sde.IN_Village_PCA.area": 0.71272886, "objectid": 474890, "id": "203382628189209", "name": "Pannadih", "subdistrict": "Manatu", "district": "Palamu", "state": "Jharkhand", "country": "India", "censusname": "Pannadih", "villagename_locallang": null, "lgd_villagename": "Pannadih", "lgd_villagecode": 366056, "lgd_subdistrictcode": 2628, "lgd_districtcode": 338, "lgd_statecode": 20, "censuscode2001": "00202400", "censuscode2011": "366056", "censuscode2021": null, "level": "Village", "tru": "Rural", "no_hh": 135, "tot_p": 709, "tot_m": 365, "tot_f": 344, "per_tot_m": 51.4809591, "per_tot_f": 48.5190409, "p_06": 97, "m_06": 51, "f_06": 46, "per_p_06": 13.68124118, "per_m_06": 52.57731959, "per_f_06": 47.42268041000001, "p_sc": 344, "m_sc": 176, "f_sc": 168, "per_p_sc": 48.5190409, "per_m_sc": 51.1627907, "per_f_sc": 48.8372093, "p_st": 0, "m_st": 0, "f_st": 0, "per_p_st": 0.0, "per_m_st": 0.0, "per_f_st": 0.0, "p_lit": 412, "m_lit": 249, "f_lit": 163, "per_p_lit": 58.1100141, "per_m_lit": 60.4368932, "per_f_lit": 39.5631068, "p_ill": 297, "m_ill": 116, "f_ill": 181, "per_p_ill": 41.8899859, "per_m_ill": 39.05723906, "per_f_ill": 60.94276094, "tot_work_p": 336, "tot_work_m": 183, "tot_work_f": 153, "per_tot_work_p": 47.39069111, "per_tot_work_m": 54.46428571, "per_tot_work_f": 45.53571429, "mainwork_p": 38, "mainwork_m": 32, "mainwork_f": 6, "per_mainwork_p": 5.3596615, "per_mainwork_m": 84.21052632, "per_mainwork_f": 15.78947368, "main_cl_p": 11, "main_cl_m": 10, "main_cl_f": 1, "per_main_cl_p": 28.94736842, "per_main_cl_m": 90.90909091, "per_main_cl_f": 9.09090909, "main_al_p": 5, "main_al_m": 4, "main_al_f": 1, "per_main_al_p": 13.15789474, "per_main_al_m": 80.0, "per_main_al_f": 20.0, "main_hh_p": 0, "main_hh_m": 0, "main_hh_f": 0, "per_main_hh_p": 0.0, "per_main_hh_m": 0.0, "per_main_hh_f": 0.0, "main_ot_p": 22, "main_ot_m": 18, "main_ot_f": 4, "per_main_ot_p": 57.89473684, "per_main_ot_m": 81.81818182, "per_main_ot_f": 18.18181818, "margwork_p": 298, "margwork_m": 151, "margwork_f": 147, "per_margwork_p": 42.03102962, "per_margwork_m": 50.67114094, "per_margwork_f": 49.32885906, "marg_cl_p": 12, "marg_cl_m": 6, "marg_cl_f": 6, "per_marg_cl_p": 4.02684564, "per_marg_cl_m": 50.0, "per_marg_cl_f": 50.0, "marg_al_p": 274, "marg_al_m": 139, "marg_al_f": 135, "per_marg_al_p": 91.94630872, "per_marg_al_m": 50.72992701, "per_marg_al_f": 49.27007299, "marg_hh_p": 4, "marg_hh_m": 4, "marg_hh_f": 0, "per_marg_hh_p": 1.34228188, "per_marg_hh_m": 100.0, "per_marg_hh_f": 0.0, "marg_ot_p": 8, "marg_ot_m": 2, "marg_ot_f": 6, "per_marg_ot_p": 2.68456376, "per_marg_ot_m": 25.0, "per_marg_ot_f": 75.0, "margwork_3_6_p": 238, "margwork_3_6_m": 125, "margwork_3_6_f": 113, "per_margwork_3_6_p": 79.86577181, "per_margwork_3_6_m": 52.5210084, "per_margwork_3_6_f": 47.4789916, "marg_cl_3_6_p": 9, "marg_cl_3_6_m": 5, "marg_cl_3_6_f": 4, "per_marg_cl_3_6_p": 3.02013423, "per_marg_cl_3_6_m": 55.55555556, "per_marg_cl_3_6_f": 44.44444444000001, "marg_al_3_6_p": 220, "marg_al_3_6_m": 115, "marg_al_3_6_f": 105, "per_marg_al_3_6_p": 73.82550336, "per_marg_al_3_6_m": 52.27272727, "per_marg_al_3_6_f": 47.72727273, "marg_hh_3_6_p": 3, "marg_hh_3_6_m": 3, "marg_hh_3_6_f": 0, "per_marg_hh_3_6_p": 1.00671141, "per_marg_hh_3_6_m": 100.0, "per_marg_hh_3_6_f": 0.0, "marg_ot_3_6_p": 6, "marg_ot_3_6_m": 2, "marg_ot_3_6_f": 4, "per_marg_ot_3_6_p": 2.01342282, "per_marg_ot_3_6_m": 33.33333333, "per_marg_ot_3_6_f": 66.66666667, "margwork_0_3_p": 60, "margwork_0_3_m": 26, "margwork_0_3_f": 34, "per_margwork_0_3_p": 20.13422819, "per_margwork_0_3_m": 43.33333333, "per_margwork_0_3_f": 56.66666667000001, "marg_cl_0_3_p": 3, "marg_cl_0_3_m": 1, "marg_cl_0_3_f": 2, "per_marg_cl_0_3_p": 1.00671141, "per_marg_cl_0_3_m": 33.33333333, "per_marg_cl_0_3_f": 66.66666667, "marg_al_0_3_p": 54, "marg_al_0_3_m": 24, "marg_al_0_3_f": 30, "per_marg_al_0_3_p": 18.12080537, "per_marg_al_0_3_m": 44.44444444000001, "per_marg_al_0_3_f": 55.55555556, "marg_hh_0_3_p": 1, "marg_hh_0_3_m": 1, "marg_hh_0_3_f": 0, "per_marg_hh_0_3_p": 0.33557047, "per_marg_hh_0_3_m": 100.0, "per_marg_hh_0_3_f": 0.0, "marg_ot_0_3_p": 2, "marg_ot_0_3_m": 0, "marg_ot_0_3_f": 2, "per_marg_ot_0_3_p": 0.67114094, "per_marg_ot_0_3_m": 0.0, "per_marg_ot_0_3_f": 100.0, "non_work_p": 373, "non_work_m": 182, "non_work_f": 191, "per_non_work_p": 52.60930889, "per_non_work_m": 48.79356568, "per_non_work_f": 51.20643432, "per_hc_tot_tot": 100, "per_hc_tot_god": 3.7, "per_hc_tot_liv": 95.6, "per_hc_tot_dil": 0.7, "per_hc_res_tot": 99.3, "per_hc_res_god": 3.7, "per_hc_res_liv": 94.9, "per_hc_res_dil": 0.7, "per_hc_oth_tot": 0.7, "per_hc_oth_god": 0.0, "per_hc_oth_liv": 0.7, "per_hc_oth_dil": 0.0, "per_mt_grsbam": 0.7, "per_mt_plastic": 0.0, "per_mt_h_tiles": 96.3, "per_mt_m_tiles": 1.5, "per_mt_b_brick": 0.7, "per_mt_stone": 0.0, "per_mt_asbstos": 0.0, "per_mt_concrte": 0.7, "per_mt_oth": 0.0, "per_mw_grsbam": 2.9, "per_mw_plastic": 0.0, "per_mw_mud": 91.9, "per_mw_wood": 2.2, "per_mw_no_mrtr": 0.0, "per_mw_st_mrtr": 0.0, "per_mw_asbstos": 0.7, "per_mw_b_brick": 0.7, "per_mw_concrte": 1.5, "per_mw_oth": 0.0, "per_mf_mud": 97.1, "per_mf_wood": 0.0, "per_mf_b_brick": 1.5, "per_mf_stone": 0.0, "per_mf_cement": 1.5, "per_mf_fl_tile": 0.0, "per_mf_oth": 0.0, "per_dw_n_exrm": 0.7, "per_dw_1_room": 82.4, "per_dw_2_room": 16.2, "per_dw_3_room": 0.7, "per_dw_4_room": 0.0, "per_dw_5_room": 0.0, "per_dw_6_room": 0.0, "per_hhsize_1": 0.0, "per_hhsize_2": 6.6, "per_hhsize_3": 11.0, "per_hhsize_4": 16.2, "per_hhsize_5": 19.9, "per_hhsize_6_8": 42.6, "per_hhsize_9p": 3.7, "per_ow_owned": 100.0, "per_ow_rented": 0.0, "per_ow_oth": 0.0, "per_mc_none": 11.8, "per_mcouple_1": 72.1, "per_mcouple_2": 13.2, "per_mcouple_3": 2.9, "per_mcouple_4": 0.0, "per_mcouple_5p": 0.0, "per_dw_t_ts": 2.2, "per_dw_t_unts": 0.7, "per_dw_c_well": 5.1, "per_dw_unc_wel": 0.0, "per_dw_hpump": 91.9, "per_dw_tw_bore": 0.0, "per_dw_spring": 0.0, "per_dw_rivcan": 0.0, "per_dw_tank": 0.0, "per_dw_oth": 0.0, "per_loc_dw_wp": 16.2, "per_loc_dw_np": 21.3, "per_loc_dw_aw": 62.5, "per_light_elec": 0.0, "per_light_kero": 98.5, "per_light_solr": 1.5, "per_light_oil": 0.0, "per_light_oth": 0.0, "per_light_no": 0.0, "per_hh_latrine": 2.2, "per_fl_sewer": 0.0, "per_fl_septict": 0.0, "per_fl_othsys": 0.0, "per_pl_wslab": 2.2, "per_pl_without": 0.0, "per_ns_open": 0.0, "per_sl_ns_hum": 0.0, "per_sl_ns_anml": 0.0, "per_hh_no_lat": 97.8, "per_as_pub": 0.0, "per_as_open": 97.8, "per_hh_bathrm": 0.0, "per_hh_en_wrf": 0.7, "per_hh_no_btrm": 99.3, "per_wwoc_drain": 0.0, "per_wwoc_open": 2.2, "per_wwoc_nodrn": 97.8, "per_cook_fire": 99.3, "per_cook_resdu": 0.0, "per_cook_cwdng": 0.7, "per_cook_coal": 0.0, "per_cook_kero": 0.0, "per_cook_lpng": 0.0, "per_cook_elec": 0.0, "per_cook_biogs": 0.0, "per_cook_oth": 0.0, "per_cook_no": 0.0, "per_kf_inside": 100.0, "per_kf_in_has": 0.0, "per_kf_in_does": 100.0, "per_kf_outside": 0.0, "per_kf_out_has": 0.0, "per_kf_out_dos": 0.0, "per_kf_no_cook": 0.0, "per_hh_banking": 44.9, "per_hh_radio": 30.1, "per_hh_tv": 1.5, "per_hh_cmp_int": 0.0, "per_hh_cmp_wnt": 1.5, "per_hh_ph_ll": 0.7, "per_hh_ph_mob": 39.0, "per_hh_ph_bth": 0.0, "per_hh_bcycl": 43.4, "per_hh_2wheel": 5.9, "per_hh_4wheel": 2.9, "per_hh_tvcomp": 0.0, "per_hh_no_ast": 32.4, "per_hs_perma": 2.9, "per_hs_sperma": 96.3, "per_hs_temp": 0.7, "per_hs_servc": 0.7, "per_hs_nservc": 0.0, "per_hs_unclss": 0.0, "avghhsz_cy": 5.25185185, "st_areashape": 860144.917417125, "st_lengthshape": 4741.776154489898}, "geometry": {"type": "Polygon", "coordinates": [[[84.35704999979592, 24.179609999556448], [84.35624999972977, 24.179110000472644], [84.35608000074876, 24.178540000241988], [84.35590999997113, 24.177360000544805], [84.35500999944753, 24.17577000003968], [84.35431999988457, 24.17283999969896], [84.35444999958088, 24.172299999758934], [84.3545200007994, 24.17205000007547], [84.35663999971712, 24.170369999665645], [84.35782999977059, 24.169299999929752], [84.35857999960803, 24.16770000015432], [84.3587300002942, 24.16738999979489], [84.35955999959926, 24.165640000648892], [84.36017999974037, 24.165079999987555], [84.36247000033403, 24.164749999999213], [84.36364999944345, 24.164759999912054], [84.36429999972181, 24.165119999530795], [84.36394999991742, 24.165600000448933], [84.36111999954863, 24.168410000203743], [84.3605400004888, 24.169760000026642], [84.36066000013942, 24.170609999906993], [84.36150000038856, 24.17207999973552], [84.3619199996148, 24.172589999433985], [84.36230000045471, 24.172609999669895], [84.36134000055496, 24.173940000129363], [84.35914000037302, 24.176749999889083], [84.35793000022802, 24.17872000041734], [84.35704999979592, 24.179609999556448]]]}}]}