{"type": "FeatureCollection", "features": [{"type": "Feature", "properties": {"premiumdata.sde.IN_Village_PCA.area": 6.23113909, "objectid": 409821, "id": "658358354797", "name": "Ambli", "subdistrict": "Naraingarh", "district": "Ambala", "state": "Haryana", "country": "India", "censusname": "Ambli (136)", "villagename_locallang": null, "lgd_villagename": "Ambli", "lgd_villagecode": 57304, "lgd_subdistrictcode": 358, "lgd_districtcode": 58, "lgd_statecode": 6, "censuscode2001": "00037200", "censuscode2011": "057304", "censuscode2021": null, "level": "Village", "tru": "Rural", "no_hh": 379, "tot_p": 2152, "tot_m": 1151, "tot_f": 1001, "per_tot_m": 53.48513011, "per_tot_f": 46.51486989, "p_06": 215, "m_06": 122, "f_06": 93, "per_p_06": 9.99070632, "per_m_06": 56.74418605, "per_f_06": 43.25581395, "p_sc": 698, "m_sc": 377, "f_sc": 321, "per_p_sc": 32.43494424, "per_m_sc": 54.01146132, "per_f_sc": 45.98853868, "p_st": 0, "m_st": 0, "f_st": 0, "per_p_st": 0.0, "per_m_st": 0.0, "per_f_st": 0.0, "p_lit": 1566, "m_lit": 913, "f_lit": 653, "per_p_lit": 72.76951673, "per_m_lit": 58.30140485, "per_f_lit": 41.69859515, "p_ill": 586, "m_ill": 238, "f_ill": 348, "per_p_ill": 27.23048327, "per_m_ill": 40.61433447, "per_f_ill": 59.38566553, "tot_work_p": 580, "tot_work_m": 550, "tot_work_f": 30, "per_tot_work_p": 26.95167286, "per_tot_work_m": 94.82758621, "per_tot_work_f": 5.17241379, "mainwork_p": 544, "mainwork_m": 519, "mainwork_f": 25, "per_mainwork_p": 25.27881041, "per_mainwork_m": 95.40441176, "per_mainwork_f": 4.59558824, "main_cl_p": 133, "main_cl_m": 129, "main_cl_f": 4, "per_main_cl_p": 24.44852941, "per_main_cl_m": 96.9924812, "per_main_cl_f": 3.0075188, "main_al_p": 127, "main_al_m": 124, "main_al_f": 3, "per_main_al_p": 23.34558824, "per_main_al_m": 97.63779528, "per_main_al_f": 2.36220472, "main_hh_p": 9, "main_hh_m": 7, "main_hh_f": 2, "per_main_hh_p": 1.65441176, "per_main_hh_m": 77.77777778, "per_main_hh_f": 22.22222222, "main_ot_p": 275, "main_ot_m": 259, "main_ot_f": 16, "per_main_ot_p": 50.55147059, "per_main_ot_m": 94.18181818, "per_main_ot_f": 5.81818182, "margwork_p": 36, "margwork_m": 31, "margwork_f": 5, "per_margwork_p": 1.67286245, "per_margwork_m": 86.11111111, "per_margwork_f": 13.88888889, "marg_cl_p": 1, "marg_cl_m": 1, "marg_cl_f": 0, "per_marg_cl_p": 2.77777778, "per_marg_cl_m": 100.0, "per_marg_cl_f": 0.0, "marg_al_p": 25, "marg_al_m": 21, "marg_al_f": 4, "per_marg_al_p": 69.44444444, "per_marg_al_m": 84.0, "per_marg_al_f": 16.0, "marg_hh_p": 1, "marg_hh_m": 1, "marg_hh_f": 0, "per_marg_hh_p": 2.77777778, "per_marg_hh_m": 100.0, "per_marg_hh_f": 0.0, "marg_ot_p": 9, "marg_ot_m": 8, "marg_ot_f": 1, "per_marg_ot_p": 25.0, "per_marg_ot_m": 88.88888889, "per_marg_ot_f": 11.11111111, "margwork_3_6_p": 35, "margwork_3_6_m": 30, "margwork_3_6_f": 5, "per_margwork_3_6_p": 97.22222222, "per_margwork_3_6_m": 85.71428571, "per_margwork_3_6_f": 14.28571429, "marg_cl_3_6_p": 1, "marg_cl_3_6_m": 1, "marg_cl_3_6_f": 0, "per_marg_cl_3_6_p": 2.77777778, "per_marg_cl_3_6_m": 100.0, "per_marg_cl_3_6_f": 0.0, "marg_al_3_6_p": 25, "marg_al_3_6_m": 21, "marg_al_3_6_f": 4, "per_marg_al_3_6_p": 69.44444444, "per_marg_al_3_6_m": 84.0, "per_marg_al_3_6_f": 16.0, "marg_hh_3_6_p": 1, "marg_hh_3_6_m": 1, "marg_hh_3_6_f": 0, "per_marg_hh_3_6_p": 2.77777778, "per_marg_hh_3_6_m": 100.0, "per_marg_hh_3_6_f": 0.0, "marg_ot_3_6_p": 8, "marg_ot_3_6_m": 7, "marg_ot_3_6_f": 1, "per_marg_ot_3_6_p": 22.22222222, "per_marg_ot_3_6_m": 87.5, "per_marg_ot_3_6_f": 12.5, "margwork_0_3_p": 1, "margwork_0_3_m": 1, "margwork_0_3_f": 0, "per_margwork_0_3_p": 2.77777778, "per_margwork_0_3_m": 100.0, "per_margwork_0_3_f": 0.0, "marg_cl_0_3_p": 0, "marg_cl_0_3_m": 0, "marg_cl_0_3_f": 0, "per_marg_cl_0_3_p": 0.0, "per_marg_cl_0_3_m": 0.0, "per_marg_cl_0_3_f": 0.0, "marg_al_0_3_p": 0, "marg_al_0_3_m": 0, "marg_al_0_3_f": 0, "per_marg_al_0_3_p": 0.0, "per_marg_al_0_3_m": 0.0, "per_marg_al_0_3_f": 0.0, "marg_hh_0_3_p": 0, "marg_hh_0_3_m": 0, "marg_hh_0_3_f": 0, "per_marg_hh_0_3_p": 0.0, "per_marg_hh_0_3_m": 0.0, "per_marg_hh_0_3_f": 0.0, "marg_ot_0_3_p": 1, "marg_ot_0_3_m": 1, "marg_ot_0_3_f": 0, "per_marg_ot_0_3_p": 2.77777778, "per_marg_ot_0_3_m": 100.0, "per_marg_ot_0_3_f": 0.0, "non_work_p": 1572, "non_work_m": 601, "non_work_f": 971, "per_non_work_p": 73.04832714, "per_non_work_m": 38.23155216, "per_non_work_f": 61.76844784, "per_hc_tot_tot": 100, "per_hc_tot_god": 77.5, "per_hc_tot_liv": 22.5, "per_hc_tot_dil": 0.0, "per_hc_res_tot": 78.8, "per_hc_res_god": 62.0, "per_hc_res_liv": 16.8, "per_hc_res_dil": 0.0, "per_hc_oth_tot": 21.2, "per_hc_oth_god": 15.4, "per_hc_oth_liv": 5.8, "per_hc_oth_dil": 0.0, "per_mt_grsbam": 36.4, "per_mt_plastic": 0.0, "per_mt_h_tiles": 0.0, "per_mt_m_tiles": 0.3, "per_mt_b_brick": 0.0, "per_mt_stone": 0.0, "per_mt_asbstos": 0.3, "per_mt_concrte": 63.1, "per_mt_oth": 0.0, "per_mw_grsbam": 0.5, "per_mw_plastic": 0.3, "per_mw_mud": 3.9, "per_mw_wood": 0.0, "per_mw_no_mrtr": 0.0, "per_mw_st_mrtr": 0.0, "per_mw_asbstos": 0.0, "per_mw_b_brick": 94.8, "per_mw_concrte": 0.5, "per_mw_oth": 0.0, "per_mf_mud": 53.1, "per_mf_wood": 0.0, "per_mf_b_brick": 1.0, "per_mf_stone": 2.4, "per_mf_cement": 42.9, "per_mf_fl_tile": 0.5, "per_mf_oth": 0.0, "per_dw_n_exrm": 1.0, "per_dw_1_room": 15.2, "per_dw_2_room": 33.5, "per_dw_3_room": 28.5, "per_dw_4_room": 13.6, "per_dw_5_room": 2.6, "per_dw_6_room": 5.5, "per_hhsize_1": 1.3, "per_hhsize_2": 5.0, "per_hhsize_3": 5.5, "per_hhsize_4": 20.9, "per_hhsize_5": 25.9, "per_hhsize_6_8": 33.2, "per_hhsize_9p": 8.1, "per_ow_owned": 98.7, "per_ow_rented": 0.8, "per_ow_oth": 0.5, "per_mc_none": 5.5, "per_mcouple_1": 61.3, "per_mcouple_2": 25.1, "per_mcouple_3": 5.5, "per_mcouple_4": 1.8, "per_mcouple_5p": 0.8, "per_dw_t_ts": 92.9, "per_dw_t_unts": 0.3, "per_dw_c_well": 0.0, "per_dw_unc_wel": 0.0, "per_dw_hpump": 2.6, "per_dw_tw_bore": 4.2, "per_dw_spring": 0.0, "per_dw_rivcan": 0.0, "per_dw_tank": 0.0, "per_dw_oth": 0.0, "per_loc_dw_wp": 77.5, "per_loc_dw_np": 18.1, "per_loc_dw_aw": 4.5, "per_light_elec": 93.7, "per_light_kero": 5.8, "per_light_solr": 0.3, "per_light_oil": 0.0, "per_light_oth": 0.3, "per_light_no": 0.0, "per_hh_latrine": 44.8, "per_fl_sewer": 2.4, "per_fl_septict": 39.8, "per_fl_othsys": 1.6, "per_pl_wslab": 0.0, "per_pl_without": 0.5, "per_ns_open": 0.5, "per_sl_ns_hum": 0.0, "per_sl_ns_anml": 0.0, "per_hh_no_lat": 55.2, "per_as_pub": 1.0, "per_as_open": 54.2, "per_hh_bathrm": 64.9, "per_hh_en_wrf": 14.9, "per_hh_no_btrm": 20.2, "per_wwoc_drain": 9.9, "per_wwoc_open": 88.7, "per_wwoc_nodrn": 1.3, "per_cook_fire": 22.8, "per_cook_resdu": 0.0, "per_cook_cwdng": 44.5, "per_cook_coal": 0.0, "per_cook_kero": 0.0, "per_cook_lpng": 32.2, "per_cook_elec": 0.0, "per_cook_biogs": 0.5, "per_cook_oth": 0.0, "per_cook_no": 0.0, "per_kf_inside": 95.8, "per_kf_in_has": 72.0, "per_kf_in_does": 23.8, "per_kf_outside": 4.2, "per_kf_out_has": 0.5, "per_kf_out_dos": 3.7, "per_kf_no_cook": 0.0, "per_hh_banking": 75.4, "per_hh_radio": 13.4, "per_hh_tv": 75.4, "per_hh_cmp_int": 2.4, "per_hh_cmp_wnt": 3.9, "per_hh_ph_ll": 1.3, "per_hh_ph_mob": 66.0, "per_hh_ph_bth": 9.9, "per_hh_bcycl": 64.9, "per_hh_2wheel": 41.1, "per_hh_4wheel": 7.3, "per_hh_tvcomp": null, "per_hh_no_ast": 6.0, "per_hs_perma": 63.4, "per_hs_sperma": 32.2, "per_hs_temp": 4.5, "per_hs_servc": 3.7, "per_hs_nservc": 0.8, "per_hs_unclss": 0.0, "avghhsz_cy": 5.67810026, "st_areashape": 8405388.29007, "st_lengthshape": 12238.488435196476}, "geometry": {"type": "Polygon", "coordinates": [[[77.16612031896803, 30.40036184114062], [77.16732212917256, 30.400816139259096], [77.17759011721179, 30.40443607374106], [77.17755952328818, 30.404542405218443], [77.17759797028401, 30.404788250508012], [77.17763641727986, 30.405034095953287], [77.17778988007309, 30.40541830870118], [77.17798942374549, 30.4059896878194], [77.17791290435127, 30.406189066337653], [77.17766796251937, 30.406680888236234], [77.1771626808333, 30.407544931266145], [77.17693302114102, 30.40797029717013], [77.17661150421938, 30.408581756538496], [77.17595288730085, 30.40933953718038], [77.17527891907241, 30.410070740278226], [77.17514120823766, 30.410507379833962], [77.17497285317363, 30.41095929883421], [77.17483516839003, 30.411451073459748], [77.1748506598371, 30.411770022157135], [77.17480490684305, 30.41220860328814], [77.17477460846514, 30.412899683752734], [77.17474411245789, 30.413205360129695], [77.17468320039343, 30.413976191858808], [77.17449953624033, 30.41448127447824], [77.1744231336271, 30.414933155712813], [77.17430073457638, 30.415358475478403], [77.17429314740549, 30.41538770287767], [77.17414533232044, 30.415957114827382], [77.17419177881386, 30.41687409299317], [77.17411544626923, 30.417472161409314], [77.16466912206756, 30.41797400022514], [77.15866463179154, 30.4195362965246], [77.15516147347469, 30.42041316701835], [77.15372427771625, 30.42077715292118], [77.14844303904177, 30.423179287634255], [77.14350665192676, 30.423940199821576], [77.14164639278864, 30.424162712807732], [77.1411136882319, 30.42376443624171], [77.141553950756, 30.422539898241265], [77.14321753813572, 30.419243818433205], [77.14410146869717, 30.417691399901834], [77.14454668273515, 30.415184590554418], [77.14415086705468, 30.408763586559736], [77.14418805461248, 30.40453047835955], [77.14430959756874, 30.402854500016456], [77.14451745694572, 30.40283882453345], [77.14661215122014, 30.402525254686008], [77.15035057651329, 30.40190908305481], [77.15331738401167, 30.40140208981875], [77.1556408028322, 30.4011912887259], [77.15894680070713, 30.400674996441776], [77.16370032766119, 30.400114683028708], [77.16612031896803, 30.40036184114062]]]}}]}