{"type": "FeatureCollection", "features": [{"type": "Feature", "properties": {"premiumdata.sde.IN_Village_PCA.area": 4.8413301, "objectid": 45599, "id": "29527543999729", "name": "Torali", "subdistrict": "Khanapur", "district": "Belagavi", "state": "Karnataka", "country": "India", "censusname": "Torali", "villagename_locallang": null, "lgd_villagename": "Torali", "lgd_villagecode": 597813, "lgd_subdistrictcode": 5439, "lgd_districtcode": 527, "lgd_statecode": 29, "censuscode2001": "00068300", "censuscode2011": "597813", "censuscode2021": null, "level": "Village", "tru": "Rural", "no_hh": 135, "tot_p": 764, "tot_m": 394, "tot_f": 370, "per_tot_m": 51.57068063, "per_tot_f": 48.42931937, "p_06": 101, "m_06": 57, "f_06": 44, "per_p_06": 13.21989529, "per_m_06": 56.43564356, "per_f_06": 43.56435644, "p_sc": 16, "m_sc": 14, "f_sc": 2, "per_p_sc": 2.09424084, "per_m_sc": 87.5, "per_f_sc": 12.5, "p_st": 0, "m_st": 0, "f_st": 0, "per_p_st": 0.0, "per_m_st": 0.0, "per_f_st": 0.0, "p_lit": 452, "m_lit": 263, "f_lit": 189, "per_p_lit": 59.16230366, "per_m_lit": 58.18584071, "per_f_lit": 41.81415929000001, "p_ill": 312, "m_ill": 131, "f_ill": 181, "per_p_ill": 40.83769634, "per_m_ill": 41.98717949, "per_f_ill": 58.01282051, "tot_work_p": 464, "tot_work_m": 242, "tot_work_f": 222, "per_tot_work_p": 60.73298429, "per_tot_work_m": 52.15517241, "per_tot_work_f": 47.84482759, "mainwork_p": 420, "mainwork_m": 226, "mainwork_f": 194, "per_mainwork_p": 54.97382199, "per_mainwork_m": 53.80952381, "per_mainwork_f": 46.19047619, "main_cl_p": 210, "main_cl_m": 149, "main_cl_f": 61, "per_main_cl_p": 50.0, "per_main_cl_m": 70.95238095, "per_main_cl_f": 29.04761905, "main_al_p": 1, "main_al_m": 0, "main_al_f": 1, "per_main_al_p": 0.23809524, "per_main_al_m": 0.0, "per_main_al_f": 100.0, "main_hh_p": 0, "main_hh_m": 0, "main_hh_f": 0, "per_main_hh_p": 0.0, "per_main_hh_m": 0.0, "per_main_hh_f": 0.0, "main_ot_p": 209, "main_ot_m": 77, "main_ot_f": 132, "per_main_ot_p": 49.76190476, "per_main_ot_m": 36.84210526, "per_main_ot_f": 63.15789474, "margwork_p": 44, "margwork_m": 16, "margwork_f": 28, "per_margwork_p": 5.7591623, "per_margwork_m": 36.36363636, "per_margwork_f": 63.63636364, "marg_cl_p": 13, "marg_cl_m": 8, "marg_cl_f": 5, "per_marg_cl_p": 29.54545455, "per_marg_cl_m": 61.53846154, "per_marg_cl_f": 38.46153846, "marg_al_p": 0, "marg_al_m": 0, "marg_al_f": 0, "per_marg_al_p": 0.0, "per_marg_al_m": 0.0, "per_marg_al_f": 0.0, "marg_hh_p": 1, "marg_hh_m": 0, "marg_hh_f": 1, "per_marg_hh_p": 2.27272727, "per_marg_hh_m": 0.0, "per_marg_hh_f": 100.0, "marg_ot_p": 30, "marg_ot_m": 8, "marg_ot_f": 22, "per_marg_ot_p": 68.18181818, "per_marg_ot_m": 26.66666667, "per_marg_ot_f": 73.33333332999999, "margwork_3_6_p": 44, "margwork_3_6_m": 16, "margwork_3_6_f": 28, "per_margwork_3_6_p": 100.0, "per_margwork_3_6_m": 36.36363636, "per_margwork_3_6_f": 63.63636364, "marg_cl_3_6_p": 13, "marg_cl_3_6_m": 8, "marg_cl_3_6_f": 5, "per_marg_cl_3_6_p": 29.54545455, "per_marg_cl_3_6_m": 61.53846154, "per_marg_cl_3_6_f": 38.46153846, "marg_al_3_6_p": 0, "marg_al_3_6_m": 0, "marg_al_3_6_f": 0, "per_marg_al_3_6_p": 0.0, "per_marg_al_3_6_m": 0.0, "per_marg_al_3_6_f": 0.0, "marg_hh_3_6_p": 1, "marg_hh_3_6_m": 0, "marg_hh_3_6_f": 1, "per_marg_hh_3_6_p": 2.27272727, "per_marg_hh_3_6_m": 0.0, "per_marg_hh_3_6_f": 100.0, "marg_ot_3_6_p": 30, "marg_ot_3_6_m": 8, "marg_ot_3_6_f": 22, "per_marg_ot_3_6_p": 68.18181818, "per_marg_ot_3_6_m": 26.66666667, "per_marg_ot_3_6_f": 73.33333332999999, "margwork_0_3_p": 0, "margwork_0_3_m": 0, "margwork_0_3_f": 0, "per_margwork_0_3_p": 0.0, "per_margwork_0_3_m": 0.0, "per_margwork_0_3_f": 0.0, "marg_cl_0_3_p": 0, "marg_cl_0_3_m": 0, "marg_cl_0_3_f": 0, "per_marg_cl_0_3_p": 0.0, "per_marg_cl_0_3_m": 0.0, "per_marg_cl_0_3_f": 0.0, "marg_al_0_3_p": 0, "marg_al_0_3_m": 0, "marg_al_0_3_f": 0, "per_marg_al_0_3_p": 0.0, "per_marg_al_0_3_m": 0.0, "per_marg_al_0_3_f": 0.0, "marg_hh_0_3_p": 0, "marg_hh_0_3_m": 0, "marg_hh_0_3_f": 0, "per_marg_hh_0_3_p": 0.0, "per_marg_hh_0_3_m": 0.0, "per_marg_hh_0_3_f": 0.0, "marg_ot_0_3_p": 0, "marg_ot_0_3_m": 0, "marg_ot_0_3_f": 0, "per_marg_ot_0_3_p": 0.0, "per_marg_ot_0_3_m": 0.0, "per_marg_ot_0_3_f": 0.0, "non_work_p": 300, "non_work_m": 152, "non_work_f": 148, "per_non_work_p": 39.26701571, "per_non_work_m": 50.66666667000001, "per_non_work_f": 49.33333333, "per_hc_tot_tot": 100, "per_hc_tot_god": 0.0, "per_hc_tot_liv": 98.5, "per_hc_tot_dil": 1.5, "per_hc_res_tot": 100.0, "per_hc_res_god": 0.0, "per_hc_res_liv": 98.5, "per_hc_res_dil": 1.5, "per_hc_oth_tot": 0.0, "per_hc_oth_god": 0.0, "per_hc_oth_liv": 0.0, "per_hc_oth_dil": 0.0, "per_mt_grsbam": 0.0, "per_mt_plastic": 0.0, "per_mt_h_tiles": 0.7, "per_mt_m_tiles": 96.3, "per_mt_b_brick": 0.0, "per_mt_stone": 1.5, "per_mt_asbstos": 0.0, "per_mt_concrte": 1.5, "per_mt_oth": 0.0, "per_mw_grsbam": 0.7, "per_mw_plastic": 0.7, "per_mw_mud": 8.9, "per_mw_wood": 0.0, "per_mw_no_mrtr": 0.7, "per_mw_st_mrtr": 1.5, "per_mw_asbstos": 0.0, "per_mw_b_brick": 86.7, "per_mw_concrte": 0.7, "per_mw_oth": 0.0, "per_mf_mud": 16.3, "per_mf_wood": 0.7, "per_mf_b_brick": 0.7, "per_mf_stone": 0.0, "per_mf_cement": 81.5, "per_mf_fl_tile": 0.7, "per_mf_oth": 0.0, "per_dw_n_exrm": 0.7, "per_dw_1_room": 13.3, "per_dw_2_room": 58.5, "per_dw_3_room": 27.4, "per_dw_4_room": 0.0, "per_dw_5_room": 0.0, "per_dw_6_room": 0.0, "per_hhsize_1": 3.0, "per_hhsize_2": 5.9, "per_hhsize_3": 4.4, "per_hhsize_4": 16.3, "per_hhsize_5": 16.3, "per_hhsize_6_8": 39.3, "per_hhsize_9p": 14.8, "per_ow_owned": 95.6, "per_ow_rented": 0.0, "per_ow_oth": 4.4, "per_mc_none": 4.4, "per_mcouple_1": 59.3, "per_mcouple_2": 29.6, "per_mcouple_3": 6.7, "per_mcouple_4": 0.0, "per_mcouple_5p": 0.0, "per_dw_t_ts": 0.0, "per_dw_t_unts": 98.5, "per_dw_c_well": 0.0, "per_dw_unc_wel": 0.0, "per_dw_hpump": 0.0, "per_dw_tw_bore": 0.0, "per_dw_spring": 0.0, "per_dw_rivcan": 0.7, "per_dw_tank": 0.0, "per_dw_oth": 0.7, "per_loc_dw_wp": 0.0, "per_loc_dw_np": 91.1, "per_loc_dw_aw": 8.9, "per_light_elec": 93.3, "per_light_kero": 6.7, "per_light_solr": 0.0, "per_light_oil": 0.0, "per_light_oth": 0.0, "per_light_no": 0.0, "per_hh_latrine": 2.2, "per_fl_sewer": 0.0, "per_fl_septict": 2.2, "per_fl_othsys": 0.0, "per_pl_wslab": 0.0, "per_pl_without": 0.0, "per_ns_open": 0.0, "per_sl_ns_hum": 0.0, "per_sl_ns_anml": 0.0, "per_hh_no_lat": 97.8, "per_as_pub": 0.0, "per_as_open": 97.8, "per_hh_bathrm": 0.7, "per_hh_en_wrf": 0.7, "per_hh_no_btrm": 98.5, "per_wwoc_drain": 0.7, "per_wwoc_open": 0.0, "per_wwoc_nodrn": 99.3, "per_cook_fire": 100.0, "per_cook_resdu": 0.0, "per_cook_cwdng": 0.0, "per_cook_coal": 0.0, "per_cook_kero": 0.0, "per_cook_lpng": 0.0, "per_cook_elec": 0.0, "per_cook_biogs": 0.0, "per_cook_oth": 0.0, "per_cook_no": 0.0, "per_kf_inside": 99.3, "per_kf_in_has": 99.3, "per_kf_in_does": 0.0, "per_kf_outside": 0.7, "per_kf_out_has": 0.0, "per_kf_out_dos": 0.7, "per_kf_no_cook": 0.0, "per_hh_banking": 6.7, "per_hh_radio": 3.0, "per_hh_tv": 26.7, "per_hh_cmp_int": 0.0, "per_hh_cmp_wnt": 0.0, "per_hh_ph_ll": 0.7, "per_hh_ph_mob": 22.2, "per_hh_ph_bth": 0.0, "per_hh_bcycl": 7.4, "per_hh_2wheel": 14.8, "per_hh_4wheel": 0.7, "per_hh_tvcomp": 0.0, "per_hh_no_ast": 56.3, "per_hs_perma": 89.6, "per_hs_sperma": 10.4, "per_hs_temp": 0.0, "per_hs_servc": 0.0, "per_hs_nservc": 0.0, "per_hs_unclss": 0.0, "avghhsz_cy": 5.65925926, "st_areashape": 5254704.97685041, "st_lengthshape": 9188.530951018845}, "geometry": {"type": "Polygon", "coordinates": [[[74.33432000301609, 15.728163999890429], [74.33047500249596, 15.727347998684941], [74.32197600296536, 15.727271998948625], [74.32045000245284, 15.723952999921144], [74.31954200243165, 15.721431999306578], [74.31994600266269, 15.719462999918441], [74.32093800234951, 15.713732000146548], [74.32087700225014, 15.711885999318309], [74.31979400232674, 15.7075819992588], [74.32041200281803, 15.70707099910798], [74.32190700336837, 15.703241999726789], [74.32363900284687, 15.703210999706513], [74.32515700296342, 15.703393999813823], [74.32592000321965, 15.703837999646336], [74.32692000330236, 15.704417999357075], [74.32822400315871, 15.704710999382518], [74.33210800313859, 15.70453499913444], [74.33529700263426, 15.702997999076926], [74.33559400273516, 15.702834999447617], [74.33696000251578, 15.708538999163222], [74.33819600260004, 15.714069999143542], [74.33929400259203, 15.718096999310973], [74.34042400237108, 15.722074999898528], [74.3378070024376, 15.724329998828841], [74.33483900287484, 15.727268999356653], [74.33432000301609, 15.728163999890429]]]}}]}