{"type": "FeatureCollection", "features": [{"type": "Feature", "properties": {"premiumdata.sde.IN_Village_PCA.area": 2.2232606, "objectid": 31338, "id": "29630559996137", "name": "Madenahalli", "subdistrict": "Sidlaghatta", "district": "Chikkaballapura", "state": "Karnataka", "country": "India", "censusname": "Madenahalli", "villagename_locallang": null, "lgd_villagename": "Madenahalli", "lgd_villagecode": 624063, "lgd_subdistrictcode": 5599, "lgd_districtcode": 630, "lgd_statecode": 29, "censuscode2001": "01785800", "censuscode2011": "624063", "censuscode2021": null, "level": "Village", "tru": "Rural", "no_hh": 90, "tot_p": 468, "tot_m": 232, "tot_f": 236, "per_tot_m": 49.57264957, "per_tot_f": 50.42735043, "p_06": 44, "m_06": 21, "f_06": 23, "per_p_06": 9.4017094, "per_m_06": 47.72727273, "per_f_06": 52.27272727, "p_sc": 104, "m_sc": 54, "f_sc": 50, "per_p_sc": 22.22222222, "per_m_sc": 51.92307692, "per_f_sc": 48.07692308, "p_st": 5, "m_st": 2, "f_st": 3, "per_p_st": 1.06837607, "per_m_st": 40.0, "per_f_st": 60.0, "p_lit": 304, "m_lit": 171, "f_lit": 133, "per_p_lit": 64.95726496, "per_m_lit": 56.25, "per_f_lit": 43.75, "p_ill": 164, "m_ill": 61, "f_ill": 103, "per_p_ill": 35.04273504, "per_m_ill": 37.19512195, "per_f_ill": 62.80487805, "tot_work_p": 217, "tot_work_m": 146, "tot_work_f": 71, "per_tot_work_p": 46.36752137, "per_tot_work_m": 67.28110599, "per_tot_work_f": 32.71889401, "mainwork_p": 145, "mainwork_m": 143, "mainwork_f": 2, "per_mainwork_p": 30.98290598, "per_mainwork_m": 98.62068966, "per_mainwork_f": 1.37931034, "main_cl_p": 124, "main_cl_m": 122, "main_cl_f": 2, "per_main_cl_p": 85.51724138, "per_main_cl_m": 98.38709677, "per_main_cl_f": 1.61290323, "main_al_p": 2, "main_al_m": 2, "main_al_f": 0, "per_main_al_p": 1.37931034, "per_main_al_m": 100.0, "per_main_al_f": 0.0, "main_hh_p": 7, "main_hh_m": 7, "main_hh_f": 0, "per_main_hh_p": 4.82758621, "per_main_hh_m": 100.0, "per_main_hh_f": 0.0, "main_ot_p": 12, "main_ot_m": 12, "main_ot_f": 0, "per_main_ot_p": 8.27586207, "per_main_ot_m": 100.0, "per_main_ot_f": 0.0, "margwork_p": 72, "margwork_m": 3, "margwork_f": 69, "per_margwork_p": 15.38461538, "per_margwork_m": 4.16666667, "per_margwork_f": 95.83333332999999, "marg_cl_p": 42, "marg_cl_m": 1, "marg_cl_f": 41, "per_marg_cl_p": 58.33333333, "per_marg_cl_m": 2.38095238, "per_marg_cl_f": 97.61904762, "marg_al_p": 13, "marg_al_m": 0, "marg_al_f": 13, "per_marg_al_p": 18.05555556, "per_marg_al_m": 0.0, "per_marg_al_f": 100.0, "marg_hh_p": 6, "marg_hh_m": 0, "marg_hh_f": 6, "per_marg_hh_p": 8.33333333, "per_marg_hh_m": 0.0, "per_marg_hh_f": 100.0, "marg_ot_p": 11, "marg_ot_m": 2, "marg_ot_f": 9, "per_marg_ot_p": 15.27777778, "per_marg_ot_m": 18.18181818, "per_marg_ot_f": 81.81818182, "margwork_3_6_p": 4, "margwork_3_6_m": 2, "margwork_3_6_f": 2, "per_margwork_3_6_p": 5.55555556, "per_margwork_3_6_m": 50.0, "per_margwork_3_6_f": 50.0, "marg_cl_3_6_p": 0, "marg_cl_3_6_m": 0, "marg_cl_3_6_f": 0, "per_marg_cl_3_6_p": 0.0, "per_marg_cl_3_6_m": 0.0, "per_marg_cl_3_6_f": 0.0, "marg_al_3_6_p": 0, "marg_al_3_6_m": 0, "marg_al_3_6_f": 0, "per_marg_al_3_6_p": 0.0, "per_marg_al_3_6_m": 0.0, "per_marg_al_3_6_f": 0.0, "marg_hh_3_6_p": 1, "marg_hh_3_6_m": 0, "marg_hh_3_6_f": 1, "per_marg_hh_3_6_p": 1.38888889, "per_marg_hh_3_6_m": 0.0, "per_marg_hh_3_6_f": 100.0, "marg_ot_3_6_p": 3, "marg_ot_3_6_m": 2, "marg_ot_3_6_f": 1, "per_marg_ot_3_6_p": 4.16666667, "per_marg_ot_3_6_m": 66.66666667, "per_marg_ot_3_6_f": 33.33333333, "margwork_0_3_p": 68, "margwork_0_3_m": 1, "margwork_0_3_f": 67, "per_margwork_0_3_p": 94.44444444, "per_margwork_0_3_m": 1.47058824, "per_margwork_0_3_f": 98.52941176, "marg_cl_0_3_p": 42, "marg_cl_0_3_m": 1, "marg_cl_0_3_f": 41, "per_marg_cl_0_3_p": 58.33333333, "per_marg_cl_0_3_m": 2.38095238, "per_marg_cl_0_3_f": 97.61904762, "marg_al_0_3_p": 13, "marg_al_0_3_m": 0, "marg_al_0_3_f": 13, "per_marg_al_0_3_p": 18.05555556, "per_marg_al_0_3_m": 0.0, "per_marg_al_0_3_f": 100.0, "marg_hh_0_3_p": 5, "marg_hh_0_3_m": 0, "marg_hh_0_3_f": 5, "per_marg_hh_0_3_p": 6.94444444, "per_marg_hh_0_3_m": 0.0, "per_marg_hh_0_3_f": 100.0, "marg_ot_0_3_p": 8, "marg_ot_0_3_m": 0, "marg_ot_0_3_f": 8, "per_marg_ot_0_3_p": 11.11111111, "per_marg_ot_0_3_m": 0.0, "per_marg_ot_0_3_f": 100.0, "non_work_p": 251, "non_work_m": 86, "non_work_f": 165, "per_non_work_p": 53.63247863, "per_non_work_m": 34.26294821, "per_non_work_f": 65.73705179, "per_hc_tot_tot": 100, "per_hc_tot_god": 0.0, "per_hc_tot_liv": 95.5, "per_hc_tot_dil": 4.5, "per_hc_res_tot": 100.0, "per_hc_res_god": 0.0, "per_hc_res_liv": 95.5, "per_hc_res_dil": 4.5, "per_hc_oth_tot": 0.0, "per_hc_oth_god": 0.0, "per_hc_oth_liv": 0.0, "per_hc_oth_dil": 0.0, "per_mt_grsbam": 6.7, "per_mt_plastic": 0.0, "per_mt_h_tiles": 0.0, "per_mt_m_tiles": 0.0, "per_mt_b_brick": 0.0, "per_mt_stone": 92.1, "per_mt_asbstos": 0.0, "per_mt_concrte": 0.0, "per_mt_oth": 1.1, "per_mw_grsbam": 0.0, "per_mw_plastic": 0.0, "per_mw_mud": 15.7, "per_mw_wood": 0.0, "per_mw_no_mrtr": 0.0, "per_mw_st_mrtr": 1.1, "per_mw_asbstos": 0.0, "per_mw_b_brick": 83.1, "per_mw_concrte": 0.0, "per_mw_oth": 0.0, "per_mf_mud": 23.6, "per_mf_wood": 1.1, "per_mf_b_brick": 0.0, "per_mf_stone": 0.0, "per_mf_cement": 75.3, "per_mf_fl_tile": 0.0, "per_mf_oth": 0.0, "per_dw_n_exrm": 87.6, "per_dw_1_room": 12.4, "per_dw_2_room": 0.0, "per_dw_3_room": 0.0, "per_dw_4_room": 0.0, "per_dw_5_room": 0.0, "per_dw_6_room": 0.0, "per_hhsize_1": 2.2, "per_hhsize_2": 6.7, "per_hhsize_3": 5.6, "per_hhsize_4": 34.8, "per_hhsize_5": 18.0, "per_hhsize_6_8": 24.7, "per_hhsize_9p": 7.9, "per_ow_owned": 98.9, "per_ow_rented": 1.1, "per_ow_oth": 0.0, "per_mc_none": 4.5, "per_mcouple_1": 67.4, "per_mcouple_2": 22.5, "per_mcouple_3": 2.2, "per_mcouple_4": 0.0, "per_mcouple_5p": 3.4, "per_dw_t_ts": 0.0, "per_dw_t_unts": 1.1, "per_dw_c_well": 0.0, "per_dw_unc_wel": 0.0, "per_dw_hpump": 0.0, "per_dw_tw_bore": 98.9, "per_dw_spring": 0.0, "per_dw_rivcan": 0.0, "per_dw_tank": 0.0, "per_dw_oth": 0.0, "per_loc_dw_wp": 1.1, "per_loc_dw_np": 98.9, "per_loc_dw_aw": 0.0, "per_light_elec": 95.5, "per_light_kero": 4.5, "per_light_solr": 0.0, "per_light_oil": 0.0, "per_light_oth": 0.0, "per_light_no": 0.0, "per_hh_latrine": 3.4, "per_fl_sewer": 0.0, "per_fl_septict": 0.0, "per_fl_othsys": 3.4, "per_pl_wslab": 0.0, "per_pl_without": 0.0, "per_ns_open": 0.0, "per_sl_ns_hum": 0.0, "per_sl_ns_anml": 0.0, "per_hh_no_lat": 96.6, "per_as_pub": 0.0, "per_as_open": 96.6, "per_hh_bathrm": 7.9, "per_hh_en_wrf": 6.7, "per_hh_no_btrm": 85.4, "per_wwoc_drain": 0.0, "per_wwoc_open": 15.7, "per_wwoc_nodrn": 84.3, "per_cook_fire": 98.9, "per_cook_resdu": 1.1, "per_cook_cwdng": 0.0, "per_cook_coal": 0.0, "per_cook_kero": 0.0, "per_cook_lpng": 0.0, "per_cook_elec": 0.0, "per_cook_biogs": 0.0, "per_cook_oth": 0.0, "per_cook_no": 0.0, "per_kf_inside": 97.8, "per_kf_in_has": 97.8, "per_kf_in_does": 0.0, "per_kf_outside": 2.2, "per_kf_out_has": 0.0, "per_kf_out_dos": 2.2, "per_kf_no_cook": 0.0, "per_hh_banking": 50.6, "per_hh_radio": 7.9, "per_hh_tv": 15.7, "per_hh_cmp_int": 0.0, "per_hh_cmp_wnt": 1.1, "per_hh_ph_ll": 1.1, "per_hh_ph_mob": 33.7, "per_hh_ph_bth": 1.1, "per_hh_bcycl": 13.5, "per_hh_2wheel": 9.0, "per_hh_4wheel": 0.0, "per_hh_tvcomp": 0.0, "per_hh_no_ast": 49.4, "per_hs_perma": 84.3, "per_hs_sperma": 7.9, "per_hs_temp": 6.7, "per_hs_servc": 6.7, "per_hs_nservc": 0.0, "per_hs_unclss": 1.1, "avghhsz_cy": 5.2, "st_areashape": 2366228.1373014, "st_lengthshape": 6699.549336615229}, "geometry": {"type": "Polygon", "coordinates": [[[77.95892300043099, 13.543403999904504], [77.95555900013478, 13.544217999735984], [77.95497900017665, 13.545424000087829], [77.95288100010197, 13.539766999854322], [77.95113399965653, 13.535411999972277], [77.95043200039797, 13.535271999524232], [77.95011900040353, 13.535264000369516], [77.94887499992336, 13.535586999543135], [77.94876899961812, 13.533276000774503], [77.94891400028142, 13.529014000203269], [77.95678699982312, 13.528417000016436], [77.95746599951548, 13.529541999621571], [77.95816799967234, 13.529560000117046], [77.96185299946058, 13.529093999952181], [77.9624179993501, 13.529416000482087], [77.96367600007397, 13.536163000096513], [77.96516400005332, 13.541897999425206], [77.96537800031356, 13.543079000047692], [77.96519500001546, 13.54315399958378], [77.96404300049512, 13.543125999538505], [77.96205900022323, 13.542838000004158], [77.96083100053488, 13.542808999949859], [77.95892300043099, 13.543403999904504]]]}}]}