{"type": "FeatureCollection", "features": [{"type": "Feature", "properties": {"premiumdata.sde.IN_Village_PCA.area": 1.5236218, "objectid": 483500, "id": "102001454307256", "name": "Jhali", "subdistrict": "Rampur", "district": "Kaimur (Bhabua)", "state": "Bihar", "country": "India", "censusname": "Jhali", "villagename_locallang": null, "lgd_villagename": "Jhali", "lgd_villagecode": 250316, "lgd_subdistrictcode": 1454, "lgd_districtcode": 200, "lgd_statecode": 10, "censuscode2001": "03449600", "censuscode2011": "250316", "censuscode2021": null, "level": "Village", "tru": "Rural", "no_hh": 360, "tot_p": 2329, "tot_m": 1214, "tot_f": 1115, "per_tot_m": 52.1253757, "per_tot_f": 47.8746243, "p_06": 427, "m_06": 229, "f_06": 198, "per_p_06": 18.33404895, "per_m_06": 53.62997658, "per_f_06": 46.37002342, "p_sc": 569, "m_sc": 289, "f_sc": 280, "per_p_sc": 24.4310863, "per_m_sc": 50.79086116, "per_f_sc": 49.20913884, "p_st": 24, "m_st": 14, "f_st": 10, "per_p_st": 1.03048519, "per_m_st": 58.33333333, "per_f_st": 41.66666667000001, "p_lit": 1378, "m_lit": 832, "f_lit": 546, "per_p_lit": 59.16702447, "per_m_lit": 60.37735849, "per_f_lit": 39.62264151, "p_ill": 951, "m_ill": 382, "f_ill": 569, "per_p_ill": 40.83297553, "per_m_ill": 40.16824395, "per_f_ill": 59.83175605, "tot_work_p": 825, "tot_work_m": 559, "tot_work_f": 266, "per_tot_work_p": 35.4229283, "per_tot_work_m": 67.75757576, "per_tot_work_f": 32.24242424000001, "mainwork_p": 544, "mainwork_m": 393, "mainwork_f": 151, "per_mainwork_p": 23.35766423, "per_mainwork_m": 72.24264706, "per_mainwork_f": 27.75735294, "main_cl_p": 219, "main_cl_m": 206, "main_cl_f": 13, "per_main_cl_p": 40.25735294, "per_main_cl_m": 94.06392694, "per_main_cl_f": 5.93607306, "main_al_p": 299, "main_al_m": 169, "main_al_f": 130, "per_main_al_p": 54.96323529, "per_main_al_m": 56.52173913, "per_main_al_f": 43.47826087, "main_hh_p": 0, "main_hh_m": 0, "main_hh_f": 0, "per_main_hh_p": 0.0, "per_main_hh_m": 0.0, "per_main_hh_f": 0.0, "main_ot_p": 26, "main_ot_m": 18, "main_ot_f": 8, "per_main_ot_p": 4.77941176, "per_main_ot_m": 69.23076923, "per_main_ot_f": 30.76923077, "margwork_p": 281, "margwork_m": 166, "margwork_f": 115, "per_margwork_p": 12.06526406, "per_margwork_m": 59.0747331, "per_margwork_f": 40.9252669, "marg_cl_p": 5, "marg_cl_m": 2, "marg_cl_f": 3, "per_marg_cl_p": 1.77935943, "per_marg_cl_m": 40.0, "per_marg_cl_f": 60.0, "marg_al_p": 270, "marg_al_m": 159, "marg_al_f": 111, "per_marg_al_p": 96.08540925000001, "per_marg_al_m": 58.88888889, "per_marg_al_f": 41.11111111, "marg_hh_p": 2, "marg_hh_m": 1, "marg_hh_f": 1, "per_marg_hh_p": 0.71174377, "per_marg_hh_m": 50.0, "per_marg_hh_f": 50.0, "marg_ot_p": 4, "marg_ot_m": 4, "marg_ot_f": 0, "per_marg_ot_p": 1.42348754, "per_marg_ot_m": 100.0, "per_marg_ot_f": 0.0, "margwork_3_6_p": 277, "margwork_3_6_m": 162, "margwork_3_6_f": 115, "per_margwork_3_6_p": 98.57651245999999, "per_margwork_3_6_m": 58.48375451, "per_margwork_3_6_f": 41.51624549, "marg_cl_3_6_p": 5, "marg_cl_3_6_m": 2, "marg_cl_3_6_f": 3, "per_marg_cl_3_6_p": 1.77935943, "per_marg_cl_3_6_m": 40.0, "per_marg_cl_3_6_f": 60.0, "marg_al_3_6_p": 266, "marg_al_3_6_m": 155, "marg_al_3_6_f": 111, "per_marg_al_3_6_p": 94.66192171, "per_marg_al_3_6_m": 58.27067669, "per_marg_al_3_6_f": 41.72932331000001, "marg_hh_3_6_p": 2, "marg_hh_3_6_m": 1, "marg_hh_3_6_f": 1, "per_marg_hh_3_6_p": 0.71174377, "per_marg_hh_3_6_m": 50.0, "per_marg_hh_3_6_f": 50.0, "marg_ot_3_6_p": 4, "marg_ot_3_6_m": 4, "marg_ot_3_6_f": 0, "per_marg_ot_3_6_p": 1.42348754, "per_marg_ot_3_6_m": 100.0, "per_marg_ot_3_6_f": 0.0, "margwork_0_3_p": 4, "margwork_0_3_m": 4, "margwork_0_3_f": 0, "per_margwork_0_3_p": 1.42348754, "per_margwork_0_3_m": 100.0, "per_margwork_0_3_f": 0.0, "marg_cl_0_3_p": 0, "marg_cl_0_3_m": 0, "marg_cl_0_3_f": 0, "per_marg_cl_0_3_p": 0.0, "per_marg_cl_0_3_m": 0.0, "per_marg_cl_0_3_f": 0.0, "marg_al_0_3_p": 4, "marg_al_0_3_m": 4, "marg_al_0_3_f": 0, "per_marg_al_0_3_p": 1.42348754, "per_marg_al_0_3_m": 100.0, "per_marg_al_0_3_f": 0.0, "marg_hh_0_3_p": 0, "marg_hh_0_3_m": 0, "marg_hh_0_3_f": 0, "per_marg_hh_0_3_p": 0.0, "per_marg_hh_0_3_m": 0.0, "per_marg_hh_0_3_f": 0.0, "marg_ot_0_3_p": 0, "marg_ot_0_3_m": 0, "marg_ot_0_3_f": 0, "per_marg_ot_0_3_p": 0.0, "per_marg_ot_0_3_m": 0.0, "per_marg_ot_0_3_f": 0.0, "non_work_p": 1504, "non_work_m": 655, "non_work_f": 849, "per_non_work_p": 64.5770717, "per_non_work_m": 43.55053191, "per_non_work_f": 56.44946809, "per_hc_tot_tot": 100, "per_hc_tot_god": 5.6, "per_hc_tot_liv": 77.7, "per_hc_tot_dil": 16.7, "per_hc_res_tot": 97.7, "per_hc_res_god": 5.1, "per_hc_res_liv": 76.0, "per_hc_res_dil": 16.7, "per_hc_oth_tot": 2.3, "per_hc_oth_god": 0.6, "per_hc_oth_liv": 1.7, "per_hc_oth_dil": 0.0, "per_mt_grsbam": 16.4, "per_mt_plastic": 0.3, "per_mt_h_tiles": 58.2, "per_mt_m_tiles": 0.0, "per_mt_b_brick": 20.3, "per_mt_stone": 4.0, "per_mt_asbstos": 0.3, "per_mt_concrte": 0.3, "per_mt_oth": 0.3, "per_mw_grsbam": 0.8, "per_mw_plastic": 0.6, "per_mw_mud": 74.0, "per_mw_wood": 0.0, "per_mw_no_mrtr": 4.0, "per_mw_st_mrtr": 0.0, "per_mw_asbstos": 0.0, "per_mw_b_brick": 20.1, "per_mw_concrte": 0.6, "per_mw_oth": 0.0, "per_mf_mud": 79.9, "per_mf_wood": 0.3, "per_mf_b_brick": 18.9, "per_mf_stone": 0.0, "per_mf_cement": 0.6, "per_mf_fl_tile": 0.0, "per_mf_oth": 0.3, "per_dw_n_exrm": 2.3, "per_dw_1_room": 28.8, "per_dw_2_room": 37.9, "per_dw_3_room": 14.4, "per_dw_4_room": 8.5, "per_dw_5_room": 2.3, "per_dw_6_room": 5.9, "per_hhsize_1": 1.1, "per_hhsize_2": 6.8, "per_hhsize_3": 8.2, "per_hhsize_4": 11.0, "per_hhsize_5": 13.6, "per_hhsize_6_8": 38.1, "per_hhsize_9p": 21.2, "per_ow_owned": 97.2, "per_ow_rented": 2.0, "per_ow_oth": 0.8, "per_mc_none": 7.3, "per_mcouple_1": 56.5, "per_mcouple_2": 22.9, "per_mcouple_3": 9.3, "per_mcouple_4": 2.5, "per_mcouple_5p": 1.4, "per_dw_t_ts": 1.1, "per_dw_t_unts": 2.0, "per_dw_c_well": 3.4, "per_dw_unc_wel": 9.3, "per_dw_hpump": 82.5, "per_dw_tw_bore": 0.0, "per_dw_spring": 0.0, "per_dw_rivcan": 0.0, "per_dw_tank": 0.3, "per_dw_oth": 1.4, "per_loc_dw_wp": 45.5, "per_loc_dw_np": 43.5, "per_loc_dw_aw": 11.0, "per_light_elec": 4.5, "per_light_kero": 91.8, "per_light_solr": 0.0, "per_light_oil": 2.5, "per_light_oth": 1.1, "per_light_no": 0.0, "per_hh_latrine": 7.1, "per_fl_sewer": 4.0, "per_fl_septict": 2.5, "per_fl_othsys": 0.3, "per_pl_wslab": 0.3, "per_pl_without": 0.0, "per_ns_open": 0.0, "per_sl_ns_hum": 0.0, "per_sl_ns_anml": 0.0, "per_hh_no_lat": 92.9, "per_as_pub": 0.0, "per_as_open": 92.9, "per_hh_bathrm": 2.5, "per_hh_en_wrf": 16.9, "per_hh_no_btrm": 80.5, "per_wwoc_drain": 0.8, "per_wwoc_open": 86.7, "per_wwoc_nodrn": 12.4, "per_cook_fire": 43.5, "per_cook_resdu": 21.5, "per_cook_cwdng": 31.6, "per_cook_coal": 0.0, "per_cook_kero": 0.0, "per_cook_lpng": 0.6, "per_cook_elec": 0.3, "per_cook_biogs": 0.6, "per_cook_oth": 0.3, "per_cook_no": 1.7, "per_kf_inside": 88.7, "per_kf_in_has": 6.2, "per_kf_in_does": 82.5, "per_kf_outside": 9.6, "per_kf_out_has": 9.6, "per_kf_out_dos": 0.0, "per_kf_no_cook": 1.7, "per_hh_banking": 53.7, "per_hh_radio": 28.2, "per_hh_tv": 13.6, "per_hh_cmp_int": 1.4, "per_hh_cmp_wnt": 8.5, "per_hh_ph_ll": 7.6, "per_hh_ph_mob": 53.7, "per_hh_ph_bth": 2.3, "per_hh_bcycl": 38.1, "per_hh_2wheel": 6.2, "per_hh_4wheel": 2.5, "per_hh_tvcomp": 0.0, "per_hh_no_ast": 16.7, "per_hs_perma": 24.3, "per_hs_sperma": 58.8, "per_hs_temp": 16.7, "per_hs_servc": 15.5, "per_hs_nservc": 1.1, "per_hs_unclss": 0.3, "avghhsz_cy": 6.46944444, "st_areashape": 1860966.355009745, "st_lengthshape": 5907.893255602481}, "geometry": {"type": "Polygon", "coordinates": [[[83.75759429420054, 24.93894113782566], [83.75685566703457, 24.93860879109643], [83.75441625864289, 24.938909261055386], [83.7517665842876, 24.939397132598618], [83.74886334607032, 24.939977122668687], [83.74798534079643, 24.93970649877083], [83.74702321368613, 24.939439568267208], [83.74679340217858, 24.936752182213233], [83.746520855118, 24.935549015976633], [83.74587380490705, 24.934608266741776], [83.7452300389368, 24.93380749982898], [83.74455968642737, 24.932749250736794], [83.74435884738433, 24.931763422889336], [83.74461796103817, 24.929992529614445], [83.74327970572512, 24.93012339963184], [83.74259506281616, 24.93024735997393], [83.74277152697226, 24.9279476692773], [83.74666207926379, 24.92798690740569], [83.74735995795014, 24.928400132601407], [83.7479866783879, 24.928568925821683], [83.7485480571685, 24.928813710772182], [83.7505615212834, 24.928513630027563], [83.75145143372637, 24.92820212832186], [83.7523017142956, 24.927885782054997], [83.753504244949, 24.927514278035623], [83.75576817283985, 24.927374449198616], [83.75645364938538, 24.928830021116624], [83.7573133380106, 24.93102727816983], [83.75753202118841, 24.933006118397298], [83.75758122910305, 24.93468085583137], [83.75763033910131, 24.93635568617609], [83.7574707884254, 24.93809600067783], [83.75759429420054, 24.93894113782566]]]}}]}