{"type": "FeatureCollection", "features": [{"type": "Feature", "properties": {"premiumdata.sde.IN_Village_PCA.area": 0.57504337, "objectid": 301478, "id": "9120893368481", "name": "Navali", "subdistrict": "Handia", "district": "Prayagraj", "state": "Uttar Pradesh", "country": "India", "censusname": "Navali", "villagename_locallang": null, "lgd_villagename": "Navali", "lgd_villagecode": 162903, "lgd_subdistrictcode": 893, "lgd_districtcode": 120, "lgd_statecode": 9, "censuscode2001": "05591200", "censuscode2011": "162903", "censuscode2021": null, "level": "Village", "tru": "Rural", "no_hh": 79, "tot_p": 461, "tot_m": 232, "tot_f": 229, "per_tot_m": 50.32537961, "per_tot_f": 49.67462039, "p_06": 82, "m_06": 41, "f_06": 41, "per_p_06": 17.78741866, "per_m_06": 50.0, "per_f_06": 50.0, "p_sc": 104, "m_sc": 55, "f_sc": 49, "per_p_sc": 22.55965293, "per_m_sc": 52.88461538, "per_f_sc": 47.11538462, "p_st": 0, "m_st": 0, "f_st": 0, "per_p_st": 0.0, "per_m_st": 0.0, "per_f_st": 0.0, "p_lit": 239, "m_lit": 151, "f_lit": 88, "per_p_lit": 51.84381779, "per_m_lit": 63.17991632, "per_f_lit": 36.82008368, "p_ill": 222, "m_ill": 81, "f_ill": 141, "per_p_ill": 48.15618221, "per_m_ill": 36.48648649, "per_f_ill": 63.51351351, "tot_work_p": 192, "tot_work_m": 104, "tot_work_f": 88, "per_tot_work_p": 41.64859002, "per_tot_work_m": 54.16666667000001, "per_tot_work_f": 45.83333333, "mainwork_p": 137, "mainwork_m": 98, "mainwork_f": 39, "per_mainwork_p": 29.71800434, "per_mainwork_m": 71.53284672, "per_mainwork_f": 28.46715328, "main_cl_p": 2, "main_cl_m": 1, "main_cl_f": 1, "per_main_cl_p": 1.45985401, "per_main_cl_m": 50.0, "per_main_cl_f": 50.0, "main_al_p": 89, "main_al_m": 58, "main_al_f": 31, "per_main_al_p": 64.96350365, "per_main_al_m": 65.16853933, "per_main_al_f": 34.83146067000001, "main_hh_p": 2, "main_hh_m": 1, "main_hh_f": 1, "per_main_hh_p": 1.45985401, "per_main_hh_m": 50.0, "per_main_hh_f": 50.0, "main_ot_p": 44, "main_ot_m": 38, "main_ot_f": 6, "per_main_ot_p": 32.11678832, "per_main_ot_m": 86.36363636, "per_main_ot_f": 13.63636364, "margwork_p": 55, "margwork_m": 6, "margwork_f": 49, "per_margwork_p": 11.93058568, "per_margwork_m": 10.90909091, "per_margwork_f": 89.09090909000001, "marg_cl_p": 0, "marg_cl_m": 0, "marg_cl_f": 0, "per_marg_cl_p": 0.0, "per_marg_cl_m": 0.0, "per_marg_cl_f": 0.0, "marg_al_p": 42, "marg_al_m": 3, "marg_al_f": 39, "per_marg_al_p": 76.36363636, "per_marg_al_m": 7.14285714, "per_marg_al_f": 92.85714286, "marg_hh_p": 5, "marg_hh_m": 0, "marg_hh_f": 5, "per_marg_hh_p": 9.09090909, "per_marg_hh_m": 0.0, "per_marg_hh_f": 100.0, "marg_ot_p": 8, "marg_ot_m": 3, "marg_ot_f": 5, "per_marg_ot_p": 14.54545455, "per_marg_ot_m": 37.5, "per_marg_ot_f": 62.5, "margwork_3_6_p": 44, "margwork_3_6_m": 6, "margwork_3_6_f": 38, "per_margwork_3_6_p": 80.0, "per_margwork_3_6_m": 13.63636364, "per_margwork_3_6_f": 86.36363636, "marg_cl_3_6_p": 0, "marg_cl_3_6_m": 0, "marg_cl_3_6_f": 0, "per_marg_cl_3_6_p": 0.0, "per_marg_cl_3_6_m": 0.0, "per_marg_cl_3_6_f": 0.0, "marg_al_3_6_p": 32, "marg_al_3_6_m": 3, "marg_al_3_6_f": 29, "per_marg_al_3_6_p": 58.18181818, "per_marg_al_3_6_m": 9.375, "per_marg_al_3_6_f": 90.625, "marg_hh_3_6_p": 5, "marg_hh_3_6_m": 0, "marg_hh_3_6_f": 5, "per_marg_hh_3_6_p": 9.09090909, "per_marg_hh_3_6_m": 0.0, "per_marg_hh_3_6_f": 100.0, "marg_ot_3_6_p": 7, "marg_ot_3_6_m": 3, "marg_ot_3_6_f": 4, "per_marg_ot_3_6_p": 12.72727273, "per_marg_ot_3_6_m": 42.85714286, "per_marg_ot_3_6_f": 57.14285714, "margwork_0_3_p": 11, "margwork_0_3_m": 0, "margwork_0_3_f": 11, "per_margwork_0_3_p": 20.0, "per_margwork_0_3_m": 0.0, "per_margwork_0_3_f": 100.0, "marg_cl_0_3_p": 0, "marg_cl_0_3_m": 0, "marg_cl_0_3_f": 0, "per_marg_cl_0_3_p": 0.0, "per_marg_cl_0_3_m": 0.0, "per_marg_cl_0_3_f": 0.0, "marg_al_0_3_p": 10, "marg_al_0_3_m": 0, "marg_al_0_3_f": 10, "per_marg_al_0_3_p": 18.18181818, "per_marg_al_0_3_m": 0.0, "per_marg_al_0_3_f": 100.0, "marg_hh_0_3_p": 0, "marg_hh_0_3_m": 0, "marg_hh_0_3_f": 0, "per_marg_hh_0_3_p": 0.0, "per_marg_hh_0_3_m": 0.0, "per_marg_hh_0_3_f": 0.0, "marg_ot_0_3_p": 1, "marg_ot_0_3_m": 0, "marg_ot_0_3_f": 1, "per_marg_ot_0_3_p": 1.81818182, "per_marg_ot_0_3_m": 0.0, "per_marg_ot_0_3_f": 100.0, "non_work_p": 269, "non_work_m": 128, "non_work_f": 141, "per_non_work_p": 58.35140998, "per_non_work_m": 47.58364312, "per_non_work_f": 52.41635688, "per_hc_tot_tot": 100, "per_hc_tot_god": 74.1, "per_hc_tot_liv": 25.9, "per_hc_tot_dil": 0.0, "per_hc_res_tot": 97.5, "per_hc_res_god": 71.6, "per_hc_res_liv": 25.9, "per_hc_res_dil": 0.0, "per_hc_oth_tot": 2.5, "per_hc_oth_god": 2.5, "per_hc_oth_liv": 0.0, "per_hc_oth_dil": 0.0, "per_mt_grsbam": 34.6, "per_mt_plastic": 0.0, "per_mt_h_tiles": 0.0, "per_mt_m_tiles": 0.0, "per_mt_b_brick": 65.4, "per_mt_stone": 0.0, "per_mt_asbstos": 0.0, "per_mt_concrte": 0.0, "per_mt_oth": 0.0, "per_mw_grsbam": 2.5, "per_mw_plastic": 0.0, "per_mw_mud": 23.5, "per_mw_wood": 0.0, "per_mw_no_mrtr": 0.0, "per_mw_st_mrtr": 0.0, "per_mw_asbstos": 0.0, "per_mw_b_brick": 74.1, "per_mw_concrte": 0.0, "per_mw_oth": 0.0, "per_mf_mud": 88.9, "per_mf_wood": 0.0, "per_mf_b_brick": 0.0, "per_mf_stone": 0.0, "per_mf_cement": 11.1, "per_mf_fl_tile": 0.0, "per_mf_oth": 0.0, "per_dw_n_exrm": 0.0, "per_dw_1_room": 35.8, "per_dw_2_room": 43.2, "per_dw_3_room": 13.6, "per_dw_4_room": 2.5, "per_dw_5_room": 1.2, "per_dw_6_room": 3.7, "per_hhsize_1": 0.0, "per_hhsize_2": 9.9, "per_hhsize_3": 12.3, "per_hhsize_4": 12.3, "per_hhsize_5": 18.5, "per_hhsize_6_8": 29.6, "per_hhsize_9p": 17.3, "per_ow_owned": 98.8, "per_ow_rented": 1.2, "per_ow_oth": 0.0, "per_mc_none": 1.2, "per_mcouple_1": 81.5, "per_mcouple_2": 12.3, "per_mcouple_3": 3.7, "per_mcouple_4": 1.2, "per_mcouple_5p": 0.0, "per_dw_t_ts": 0.0, "per_dw_t_unts": 1.2, "per_dw_c_well": 0.0, "per_dw_unc_wel": 0.0, "per_dw_hpump": 98.8, "per_dw_tw_bore": 0.0, "per_dw_spring": 0.0, "per_dw_rivcan": 0.0, "per_dw_tank": 0.0, "per_dw_oth": 0.0, "per_loc_dw_wp": 3.7, "per_loc_dw_np": 95.1, "per_loc_dw_aw": 1.2, "per_light_elec": 0.0, "per_light_kero": 100.0, "per_light_solr": 0.0, "per_light_oil": 0.0, "per_light_oth": 0.0, "per_light_no": 0.0, "per_hh_latrine": 0.0, "per_fl_sewer": 0.0, "per_fl_septict": 0.0, "per_fl_othsys": 0.0, "per_pl_wslab": 0.0, "per_pl_without": 0.0, "per_ns_open": 0.0, "per_sl_ns_hum": 0.0, "per_sl_ns_anml": 0.0, "per_hh_no_lat": 100.0, "per_as_pub": 0.0, "per_as_open": 100.0, "per_hh_bathrm": 1.2, "per_hh_en_wrf": 1.2, "per_hh_no_btrm": 97.5, "per_wwoc_drain": 0.0, "per_wwoc_open": 29.6, "per_wwoc_nodrn": 70.4, "per_cook_fire": 0.0, "per_cook_resdu": 3.7, "per_cook_cwdng": 93.8, "per_cook_coal": 0.0, "per_cook_kero": 0.0, "per_cook_lpng": 1.2, "per_cook_elec": 0.0, "per_cook_biogs": 0.0, "per_cook_oth": 0.0, "per_cook_no": 1.2, "per_kf_inside": 76.5, "per_kf_in_has": 1.2, "per_kf_in_does": 75.3, "per_kf_outside": 22.2, "per_kf_out_has": 8.6, "per_kf_out_dos": 13.6, "per_kf_no_cook": 1.2, "per_hh_banking": 92.6, "per_hh_radio": 3.7, "per_hh_tv": 0.0, "per_hh_cmp_int": 0.0, "per_hh_cmp_wnt": 1.2, "per_hh_ph_ll": 0.0, "per_hh_ph_mob": 69.1, "per_hh_ph_bth": 0.0, "per_hh_bcycl": 96.3, "per_hh_2wheel": 9.9, "per_hh_4wheel": 0.0, "per_hh_tvcomp": 0.0, "per_hh_no_ast": 1.2, "per_hs_perma": 64.2, "per_hs_sperma": 11.1, "per_hs_temp": 24.7, "per_hs_servc": 23.5, "per_hs_nservc": 1.2, "per_hs_unclss": 0.0, "avghhsz_cy": 5.83544304, "st_areashape": 708411.860614975, "st_lengthshape": 3319.5632433824003}, "geometry": {"type": "Polygon", "coordinates": [[[82.06646829947603, 25.465569988938203], [82.06593882615937, 25.46587576543811], [82.06542171545765, 25.46579019945135], [82.06442543889177, 25.46480147244409], [82.06438780217633, 25.46476412144802], [82.06315421227197, 25.463282279269134], [82.0629290001387, 25.463011752772186], [82.06288124839311, 25.462457015382448], [82.06349024686695, 25.461433038813578], [82.06344110722426, 25.460194947049974], [82.06339090038306, 25.458743893334272], [82.06322219946763, 25.458095651834828], [82.065860206504, 25.457720280170836], [82.06967020686405, 25.457362826831062], [82.06996035102271, 25.457235628612782], [82.07049887756082, 25.45828322489216], [82.07086119236942, 25.461067785909783], [82.07075970789512, 25.463720457600648], [82.06978573559947, 25.463748122542732], [82.0686121711224, 25.464044962672585], [82.0675811674843, 25.464726215686227], [82.06697073440098, 25.465279824189082], [82.06685380339539, 25.465347355445793], [82.06646829947603, 25.465569988938203]]]}}]}