{"type": "FeatureCollection", "features": [{"type": "Feature", "properties": {"premiumdata.sde.IN_Village_PCA.area": 20.86858883, "objectid": 206186, "id": "244386167274694", "name": "Mingalpur", "subdistrict": "Dholera", "district": "Ahmadabad", "state": "Gujarat", "country": "India", "censusname": "Mingalpur", "villagename_locallang": null, "lgd_villagename": "Mingalpur", "lgd_villagecode": 511939, "lgd_subdistrictcode": 6167, "lgd_districtcode": 438, "lgd_statecode": 24, "censuscode2001": "00554400", "censuscode2011": "511939", "censuscode2021": null, "level": "Village", "tru": "Rural", "no_hh": 418, "tot_p": 2485, "tot_m": 1266, "tot_f": 1219, "per_tot_m": 50.94567404, "per_tot_f": 49.05432596, "p_06": 391, "m_06": 199, "f_06": 192, "per_p_06": 15.73440644, "per_m_06": 50.89514066, "per_f_06": 49.10485934, "p_sc": 0, "m_sc": 0, "f_sc": 0, "per_p_sc": 0.0, "per_m_sc": 0.0, "per_f_sc": 0.0, "p_st": 0, "m_st": 0, "f_st": 0, "per_p_st": 0.0, "per_m_st": 0.0, "per_f_st": 0.0, "p_lit": 1174, "m_lit": 749, "f_lit": 425, "per_p_lit": 47.24346076, "per_m_lit": 63.79897785, "per_f_lit": 36.20102215, "p_ill": 1311, "m_ill": 517, "f_ill": 794, "per_p_ill": 52.75653924, "per_m_ill": 39.43554539, "per_f_ill": 60.56445461, "tot_work_p": 851, "tot_work_m": 718, "tot_work_f": 133, "per_tot_work_p": 34.24547284, "per_tot_work_m": 84.37132785, "per_tot_work_f": 15.62867215, "mainwork_p": 579, "mainwork_m": 547, "mainwork_f": 32, "per_mainwork_p": 23.29979879, "per_mainwork_m": 94.47322971000001, "per_mainwork_f": 5.52677029, "main_cl_p": 28, "main_cl_m": 27, "main_cl_f": 1, "per_main_cl_p": 4.83592401, "per_main_cl_m": 96.42857143, "per_main_cl_f": 3.57142857, "main_al_p": 450, "main_al_m": 430, "main_al_f": 20, "per_main_al_p": 77.72020725, "per_main_al_m": 95.55555556, "per_main_al_f": 4.44444444, "main_hh_p": 0, "main_hh_m": 0, "main_hh_f": 0, "per_main_hh_p": 0.0, "per_main_hh_m": 0.0, "per_main_hh_f": 0.0, "main_ot_p": 101, "main_ot_m": 90, "main_ot_f": 11, "per_main_ot_p": 17.44386874, "per_main_ot_m": 89.10891089, "per_main_ot_f": 10.89108911, "margwork_p": 272, "margwork_m": 171, "margwork_f": 101, "per_margwork_p": 10.94567404, "per_margwork_m": 62.86764706, "per_margwork_f": 37.13235294, "marg_cl_p": 3, "marg_cl_m": 2, "marg_cl_f": 1, "per_marg_cl_p": 1.10294118, "per_marg_cl_m": 66.66666667, "per_marg_cl_f": 33.33333333, "marg_al_p": 255, "marg_al_m": 158, "marg_al_f": 97, "per_marg_al_p": 93.75, "per_marg_al_m": 61.96078431, "per_marg_al_f": 38.03921569, "marg_hh_p": 3, "marg_hh_m": 3, "marg_hh_f": 0, "per_marg_hh_p": 1.10294118, "per_marg_hh_m": 100.0, "per_marg_hh_f": 0.0, "marg_ot_p": 11, "marg_ot_m": 8, "marg_ot_f": 3, "per_marg_ot_p": 4.04411765, "per_marg_ot_m": 72.72727273, "per_marg_ot_f": 27.27272727, "margwork_3_6_p": 271, "margwork_3_6_m": 170, "margwork_3_6_f": 101, "per_margwork_3_6_p": 99.63235294, "per_margwork_3_6_m": 62.73062731, "per_margwork_3_6_f": 37.26937269, "marg_cl_3_6_p": 3, "marg_cl_3_6_m": 2, "marg_cl_3_6_f": 1, "per_marg_cl_3_6_p": 1.10294118, "per_marg_cl_3_6_m": 66.66666667, "per_marg_cl_3_6_f": 33.33333333, "marg_al_3_6_p": 254, "marg_al_3_6_m": 157, "marg_al_3_6_f": 97, "per_marg_al_3_6_p": 93.38235294, "per_marg_al_3_6_m": 61.81102362, "per_marg_al_3_6_f": 38.18897638, "marg_hh_3_6_p": 3, "marg_hh_3_6_m": 3, "marg_hh_3_6_f": 0, "per_marg_hh_3_6_p": 1.10294118, "per_marg_hh_3_6_m": 100.0, "per_marg_hh_3_6_f": 0.0, "marg_ot_3_6_p": 11, "marg_ot_3_6_m": 8, "marg_ot_3_6_f": 3, "per_marg_ot_3_6_p": 4.04411765, "per_marg_ot_3_6_m": 72.72727273, "per_marg_ot_3_6_f": 27.27272727, "margwork_0_3_p": 1, "margwork_0_3_m": 1, "margwork_0_3_f": 0, "per_margwork_0_3_p": 0.36764706, "per_margwork_0_3_m": 100.0, "per_margwork_0_3_f": 0.0, "marg_cl_0_3_p": 0, "marg_cl_0_3_m": 0, "marg_cl_0_3_f": 0, "per_marg_cl_0_3_p": 0.0, "per_marg_cl_0_3_m": 0.0, "per_marg_cl_0_3_f": 0.0, "marg_al_0_3_p": 1, "marg_al_0_3_m": 1, "marg_al_0_3_f": 0, "per_marg_al_0_3_p": 0.36764706, "per_marg_al_0_3_m": 100.0, "per_marg_al_0_3_f": 0.0, "marg_hh_0_3_p": 0, "marg_hh_0_3_m": 0, "marg_hh_0_3_f": 0, "per_marg_hh_0_3_p": 0.0, "per_marg_hh_0_3_m": 0.0, "per_marg_hh_0_3_f": 0.0, "marg_ot_0_3_p": 0, "marg_ot_0_3_m": 0, "marg_ot_0_3_f": 0, "per_marg_ot_0_3_p": 0.0, "per_marg_ot_0_3_m": 0.0, "per_marg_ot_0_3_f": 0.0, "non_work_p": 1634, "non_work_m": 548, "non_work_f": 1086, "per_non_work_p": 65.75452716, "per_non_work_m": 33.5373317, "per_non_work_f": 66.4626683, "per_hc_tot_tot": 100, "per_hc_tot_god": 25.6, "per_hc_tot_liv": 72.8, "per_hc_tot_dil": 1.6, "per_hc_res_tot": 97.6, "per_hc_res_god": 24.9, "per_hc_res_liv": 71.0, "per_hc_res_dil": 1.6, "per_hc_oth_tot": 2.4, "per_hc_oth_god": 0.6, "per_hc_oth_liv": 1.8, "per_hc_oth_dil": 0.0, "per_mt_grsbam": 0.0, "per_mt_plastic": 0.0, "per_mt_h_tiles": 31.0, "per_mt_m_tiles": 57.0, "per_mt_b_brick": 1.2, "per_mt_stone": 0.2, "per_mt_asbstos": 9.1, "per_mt_concrte": 1.2, "per_mt_oth": 0.2, "per_mw_grsbam": 0.0, "per_mw_plastic": 0.0, "per_mw_mud": 86.4, "per_mw_wood": 0.0, "per_mw_no_mrtr": 0.4, "per_mw_st_mrtr": 0.0, "per_mw_asbstos": 0.0, "per_mw_b_brick": 13.2, "per_mw_concrte": 0.0, "per_mw_oth": 0.0, "per_mf_mud": 90.5, "per_mf_wood": 0.2, "per_mf_b_brick": 3.0, "per_mf_stone": 1.0, "per_mf_cement": 5.3, "per_mf_fl_tile": 0.0, "per_mf_oth": 0.0, "per_dw_n_exrm": 1.8, "per_dw_1_room": 63.5, "per_dw_2_room": 30.2, "per_dw_3_room": 4.5, "per_dw_4_room": 0.0, "per_dw_5_room": 0.0, "per_dw_6_room": 0.0, "per_hhsize_1": 3.4, "per_hhsize_2": 6.1, "per_hhsize_3": 4.5, "per_hhsize_4": 9.1, "per_hhsize_5": 15.8, "per_hhsize_6_8": 40.6, "per_hhsize_9p": 20.5, "per_ow_owned": 99.4, "per_ow_rented": 0.4, "per_ow_oth": 0.2, "per_mc_none": 8.5, "per_mcouple_1": 63.3, "per_mcouple_2": 19.1, "per_mcouple_3": 6.5, "per_mcouple_4": 1.8, "per_mcouple_5p": 0.8, "per_dw_t_ts": 0.2, "per_dw_t_unts": 0.0, "per_dw_c_well": 0.0, "per_dw_unc_wel": 0.0, "per_dw_hpump": 0.0, "per_dw_tw_bore": 0.0, "per_dw_spring": 0.0, "per_dw_rivcan": 0.0, "per_dw_tank": 99.8, "per_dw_oth": 0.0, "per_loc_dw_wp": 0.0, "per_loc_dw_np": 0.2, "per_loc_dw_aw": 99.8, "per_light_elec": 91.3, "per_light_kero": 3.4, "per_light_solr": 0.0, "per_light_oil": 0.6, "per_light_oth": 0.4, "per_light_no": 4.3, "per_hh_latrine": 1.0, "per_fl_sewer": 0.0, "per_fl_septict": 0.6, "per_fl_othsys": 0.4, "per_pl_wslab": 0.0, "per_pl_without": 0.0, "per_ns_open": 0.0, "per_sl_ns_hum": 0.0, "per_sl_ns_anml": 0.0, "per_hh_no_lat": 99.0, "per_as_pub": 0.0, "per_as_open": 99.0, "per_hh_bathrm": 2.0, "per_hh_en_wrf": 11.2, "per_hh_no_btrm": 86.8, "per_wwoc_drain": 0.0, "per_wwoc_open": 0.0, "per_wwoc_nodrn": 100.0, "per_cook_fire": 98.6, "per_cook_resdu": 0.0, "per_cook_cwdng": 1.4, "per_cook_coal": 0.0, "per_cook_kero": 0.0, "per_cook_lpng": 0.0, "per_cook_elec": 0.0, "per_cook_biogs": 0.0, "per_cook_oth": 0.0, "per_cook_no": 0.0, "per_kf_inside": 51.3, "per_kf_in_has": 41.8, "per_kf_in_does": 9.5, "per_kf_outside": 48.7, "per_kf_out_has": 47.3, "per_kf_out_dos": 1.4, "per_kf_no_cook": 0.0, "per_hh_banking": 9.5, "per_hh_radio": 52.5, "per_hh_tv": 11.4, "per_hh_cmp_int": 0.2, "per_hh_cmp_wnt": 0.2, "per_hh_ph_ll": 2.4, "per_hh_ph_mob": 65.5, "per_hh_ph_bth": 2.4, "per_hh_bcycl": 21.5, "per_hh_2wheel": 5.9, "per_hh_4wheel": 1.0, "per_hh_tvcomp": 0.0, "per_hh_no_ast": 23.5, "per_hs_perma": 13.6, "per_hs_sperma": 86.2, "per_hs_temp": 0.0, "per_hs_servc": 0.0, "per_hs_nservc": 0.0, "per_hs_unclss": 0.2, "avghhsz_cy": 5.94497608, "st_areashape": 24416162.22067332, "st_lengthshape": 38861.20988087044}, "geometry": {"type": "Polygon", "coordinates": [[[72.21246819865736, 22.076608239796595], [72.21172545900404, 22.076835276947516], [72.21130870808587, 22.077657843925017], [72.2109222753085, 22.078493832564366], [72.21056753239945, 22.079341953182688], [72.21024433652653, 22.08020053903321], [72.20995385549963, 22.08106904468555], [72.20969623664246, 22.081946346187664], [72.20947135598747, 22.08283183154962], [72.2092804478199, 22.083723828303906], [72.20912228683775, 22.084621140160074], [72.20899811720759, 22.085523302537243], [72.20890666332178, 22.08642858895519], [72.20857281432791, 22.087137223233974], [72.20831803594366, 22.087705748254987], [72.20807436612623, 22.088278244787787], [72.20784145902417, 22.088855072372418], [72.20761953921638, 22.089435186322394], [72.20740730863724, 22.090018594920878], [72.2072072376538, 22.090606028947974], [72.20701811354041, 22.091196068335687], [72.20683992731392, 22.091788862044343], [72.2066726484316, 22.09238493775516], [72.20651747434772, 22.092983225016432], [72.20637202812007, 22.09358420406744], [72.20623869028414, 22.094187318032102], [72.20611632357279, 22.094792661770473], [72.2060060993891, 22.09539961266185], [72.20590671876921, 22.096008181505887], [72.2058194851686, 22.096618282551088], [72.20574204140796, 22.097230023148168], [72.20567782713651, 22.09784282397577], [72.20562460554918, 22.098456116542724], [72.20554517561345, 22.099159904603574], [72.2054199944803, 22.099905215039776], [72.2052535698958, 22.10064348767885], [72.20504594767408, 22.10137253449676], [72.20479695893185, 22.10209113797775], [72.20450782268291, 22.102796490106797], [72.20417980375525, 22.103486391328698], [72.20381426938465, 22.10415962672617], [72.20341083149897, 22.10481458939261], [72.20297108909942, 22.10544887095638], [72.20249590906022, 22.106061532053232], [72.2019879036822, 22.1066495351589], [72.2014469382181, 22.107212421167326], [72.20087558274794, 22.107747828399393], [72.20027491704668, 22.108255358512526], [72.1996462203153, 22.10873258742453], [72.19899190992025, 22.109178351942578], [72.19831428285366, 22.109592244558385], [72.19761345320161, 22.109972305589718], [72.19689301063194, 22.110318191589144], [72.19615298119585, 22.11062809016296], [72.19539810170977, 22.11090141647633], [72.19462853926038, 22.111138101665176], [72.19384535745294, 22.111336615410043], [72.19288959041482, 22.11165098506873], [72.19206701658392, 22.1119541819796], [72.1912567290111, 22.112283766981545], [72.19045746197021, 22.112639219739435], [72.18967298928372, 22.11302111596634], [72.18890317171282, 22.113427710249308], [72.18814922737295, 22.113858989058972], [72.18741240671902, 22.11431433964722], [72.18669155990749, 22.114794003959013], [72.18599013107914, 22.11529597025943], [72.18530702967921, 22.115820861644103], [72.18464469193876, 22.116367218978297], [72.18400305587402, 22.116934737421793], [72.18338222928287, 22.117522968156997], [72.18279461789933, 22.118208012149477], [72.1826950306669, 22.117360056850078], [72.18261245213613, 22.11650965888565], [72.18254555639353, 22.115658637450515], [72.18249580769309, 22.11480691763315], [72.18246048324119, 22.113953905207126], [72.18244210910035, 22.113100788584454], [72.18243828497218, 22.11224698935489], [72.18245137342589, 22.1113936884657], [72.18248149483566, 22.110540211801478], [72.1825262237503, 22.10968779359747], [72.18258787333161, 22.10883572395302], [72.18274916045101, 22.107201377745994], [72.18260486766017, 22.106377398252516], [72.1823674564053, 22.105572241829478], [72.18204036453899, 22.104794845892588], [72.18162868371229, 22.10405370775926], [72.18113616528976, 22.10335657333886], [72.18056741044236, 22.10271191442164], [72.17992877924225, 22.10212594902532], [72.17939305544782, 22.101718657982897], [72.17913526411414, 22.10096894006116], [72.17899126597071, 22.100193540448476], [72.17896492377334, 22.09940648328623], [72.17905726968621, 22.09862307979335], [72.17926492424729, 22.097859166726362], [72.17958547817494, 22.09712927525058], [72.18001061666295, 22.096447776172127], [72.18053419074313, 22.095828096660252], [72.18100360629317, 22.095246703036874], [72.1814500806675, 22.094496664402698], [72.1819780645774, 22.093794577718487], [72.18258151595435, 22.093146624770117], [72.18325441428928, 22.092561331321395], [72.18398960899253, 22.092044443112655], [72.1847772428505, 22.091602248575995], [72.18561144627111, 22.091238067058658], [72.18648133885964, 22.090957680793803], [72.18737713706432, 22.09076345171249], [72.1882758431156, 22.090657817349502], [72.18882669813267, 22.090145119827614], [72.1893179256761, 22.089581600552037], [72.18974211105159, 22.08897337274443], [72.19009714142155, 22.088327351270713], [72.19037675013857, 22.08765076739633], [72.19057979724053, 22.08695058530421], [72.19070273617874, 22.086234629166075], [72.19074449166979, 22.085511453319928], [72.19070507000185, 22.084787781818974], [72.1905844612935, 22.08407199701213], [72.19038393576253, 22.083372701174333], [72.19010723489205, 22.082696504773185], [72.1897543730552, 22.0820513411097], [72.18933256192705, 22.081444077277045], [72.18884319299791, 22.080881280785356], [72.18829356328288, 22.080369674043347], [72.18768977144447, 22.079914402877392], [72.18703771312579, 22.079519853935455], [72.18636565920724, 22.07921075028703], [72.1857341318844, 22.078780472726756], [72.1852543964884, 22.07820464204636], [72.18496555668351, 22.077527431122512], [72.18488739067737, 22.076801753293076], [72.1850273517919, 22.076083361551827], [72.18537374845367, 22.075428374626455], [72.18642352508459, 22.07505813103304], [72.18705762248743, 22.07550349327181], [72.18777689545058, 22.075816848900345], [72.18854995863465, 22.07598358252791], [72.1893450565943, 22.075996686223828], [72.19012590188368, 22.075855795414626], [72.19085861903336, 22.07556633394178], [72.1915118451619, 22.07514193661007], [72.1920551372626, 22.07460112370887], [72.19246713609292, 22.073966509569726], [72.19272829521063, 22.07326699304445], [72.19282689070295, 22.072532107782738], [72.19276073876541, 22.071794521460063], [72.19214380906595, 22.06933149226407], [72.19179266390961, 22.06776886854523], [72.19147186384353, 22.06620026175343], [72.19117890256813, 22.064626975422506], [72.19091628907799, 22.063048990249534], [72.1906826687136, 22.061467292640955], [72.19047935930355, 22.05988149950016], [72.19030630245736, 22.058292588117133], [72.1901622387369, 22.05670125025403], [72.19004863059955, 22.055107408400694], [72.189964032656, 22.053512198957748], [72.18990966122512, 22.051915607726436], [72.18988571932617, 22.050318250791165], [72.18989071665409, 22.048720655174233], [72.18992720981417, 22.04712340537285], [72.1899928973227, 22.045527062596953], [72.19008761478797, 22.043931618552442], [72.19021259200355, 22.042338194856974], [72.19036790802124, 22.04074679407849], [72.1905535745191, 22.03915855122044], [72.19092360316102, 22.03842835485466], [72.19117523295023, 22.03774362080805], [72.19134905066947, 22.037039075522575], [72.19144289407394, 22.036321104601864], [72.19145566272738, 22.035598713429625], [72.1913871194746, 22.03487861182238], [72.19123874833237, 22.034169941224576], [72.19101048192711, 22.033479267700095], [72.19070731668837, 22.032815235048325], [72.19033035934066, 22.032183788391578], [72.18988460361858, 22.031593571776412], [72.1895734056446, 22.03101024013786], [72.18937730790967, 22.030420400018563], [72.1892828302946, 22.02980824948707], [72.18929368823142, 22.02919029549903], [72.189406339663, 22.028581081704115], [72.18962095437088, 22.0279954226411], [72.18993140135329, 22.02744787826632], [72.19032956612826, 22.026952230120216], [72.19044391178245, 22.0268484342425], [72.19080543337869, 22.026520268788456], [72.19150438824671, 22.026698270136723], [72.19203164901286, 22.0268484342425], [72.1921755079174, 22.026889405322425], [72.19287820337028, 22.026899766340406], [72.19308352051502, 22.0268484342425], [72.19355808790317, 22.026729786258418], [72.19416053406535, 22.02639220297889], [72.194641148912, 22.025912816434502], [72.19496114049431, 22.025329654593758], [72.19538523873321, 22.024545980402607], [72.19585738516172, 22.02386690612958], [72.19640353839658, 22.023237351590314], [72.19701801210205, 22.02266434935732], [72.1976921411289, 22.02215470054349], [72.1984200262407, 22.021712255755467], [72.19919315410345, 22.021343972650715], [72.20000304102766, 22.02105220857424], [72.20084132729119, 22.020841365246373], [72.20167966296212, 22.02065144275767], [72.20251540519682, 22.020419235441178], [72.2033375119038, 22.02014651442276], [72.20414243473772, 22.0198343820783], [72.20492903822804, 22.01948285646861], [72.2056959165114, 22.019093751119875], [72.20643960568395, 22.01866809838666], [72.20715755992028, 22.018206520038625], [72.2078487003437, 22.01771077542967], [72.20851179716054, 22.01718246318201], [72.20914438180048, 22.01662228498665], [72.2097452208766, 22.01603184195787], [72.21031086036658, 22.015413447271616], [72.21084235938423, 22.014768288991384], [72.21133614353295, 22.01409799574882], [72.2120983676448, 22.013931130049357], [72.21276501280704, 22.014000418289523], [72.21337588696318, 22.014257460816502], [72.21387157823527, 22.014678423881012], [72.21420309430435, 22.015222110884014], [72.21433654712465, 22.015834433552012], [72.21426161954511, 22.016455722070102], [72.2139827824809, 22.017025631399168], [72.21353017530815, 22.01748801308298], [72.21294567299381, 22.017797817094404], [72.21253579149261, 22.01831406066944], [72.21213324743063, 22.018859458435887], [72.21175030460819, 22.01941712192308], [72.21138906687962, 22.019987081799176], [72.2110497669086, 22.020568143705475], [72.21073235438945, 22.021159775359457], [72.21043683201718, 22.02176197746139], [72.21016427956674, 22.022372917778053], [72.2099148811927, 22.022992227279996], [72.20968851562257, 22.023619222157496], [72.20948524663672, 22.02425284553489], [72.20930739278688, 22.024893597810113], [72.2091526121651, 22.025538635866432], [72.20908131827089, 22.02635747154003], [72.2090981922252, 22.0268484342425], [72.20910638665723, 22.027086869939346], [72.20921251003162, 22.027810028192278], [72.20939975397113, 22.028519018749495], [72.2096656247525, 22.029205404585387], [72.21000642491003, 22.029861895495756], [72.21041972450094, 22.030481642739133], [72.21090053158706, 22.031057363821215], [72.21144288404997, 22.03158301041688], [72.21204193637696, 22.0320528923093], [72.21269012744833, 22.032462013777913], [72.21338038662442, 22.032805250015695], [72.21410661793777, 22.0330788867869], [72.21477983247968, 22.033417310148078], [72.215041509027, 22.033994783791897], [72.21502840530195, 22.034621228669916], [72.21474230895195, 22.03519001737382], [72.21423230751739, 22.03560148630125], [72.21358761448576, 22.03578432667071], [72.21291959220618, 22.03570772637963], [72.21234330498513, 22.035384944016943], [72.2119584963618, 22.03487165795771], [72.21170658809488, 22.034279954517146], [72.21126835306836, 22.0337524301921], [72.2106748047191, 22.03337671151168], [72.20998671587273, 22.033190752038017], [72.20926840949681, 22.03321222009032], [72.20859257906078, 22.033439279455596], [72.20815967463719, 22.033986052894164], [72.20760429300941, 22.034301953668074], [72.20695699037184, 22.034254492154865], [72.20646394823154, 22.03386166273241], [72.20631497342143, 22.033273677274636], [72.20585538993218, 22.032610893558996], [72.20538357049045, 22.032117341940697], [72.20484183606848, 22.031689365094984], [72.2042423561434, 22.031336199306118], [72.203558831637, 22.031095534909255], [72.20293075474314, 22.031421485553945], [72.2022136332451, 22.03144630473427], [72.20156256666654, 22.03116523777592], [72.20112087941436, 22.030639392273876], [72.20098487358204, 22.029983564488166], [72.20118207175321, 22.02933981492672], [72.20167219167392, 22.028850172417446], [72.2013700253618, 22.027958719669193], [72.2007802014277, 22.02738488713992], [72.19998963546865, 22.027085201119835], [72.19913690609195, 22.02711039912604], [72.19836729154025, 22.027457188322956], [72.19781482404726, 22.02806474897056], [72.19757467562575, 22.028828405584996], [72.19768967794839, 22.02961646121746], [72.19800196468053, 22.030176567207906], [72.19839845230084, 22.03083430436442], [72.19882027420879, 22.031478846541074], [72.19926514688696, 22.032109095567165], [72.19973403961748, 22.032725100763447], [72.20022466439138, 22.03332447744131], [72.20073957332234, 22.033907886978973], [72.20127364331833, 22.034474307849827], [72.20183056645513, 22.03502294919503], [72.20240691565996, 22.035552878603472], [72.20300245198092, 22.0360640071872], [72.20374284253977, 22.03688609442085], [72.20402532406908, 22.037520405349525], [72.2043538334769, 22.03813413043829], [72.20472815696422, 22.03872537228671], [72.20514476235533, 22.039290925387455], [72.20560352568272, 22.03982738443098], [72.2061010144837, 22.040332531524953], [72.20663571599532, 22.040804553463385], [72.2072053871243, 22.04124031061312], [72.20780519313784, 22.041637967296765], [72.20843377578316, 22.041995866848936], [72.20908761546104, 22.042311865485473], [72.20976413939646, 22.042584239895135], [72.21045852453466, 22.04281236833902], [72.21116967852429, 22.042994151086077], [72.21189152605906, 22.043129577490486], [72.21268709563422, 22.04325143241723], [72.21333092628322, 22.04352746700234], [72.21385227433812, 22.043975283290525], [72.21419878059436, 22.044551621432937], [72.21433713552115, 22.045200609880933], [72.21425270646084, 22.04585752036117], [72.21395478379013, 22.04645855664477], [72.21347299843863, 22.04694535144069], [72.21274024266141, 22.04699064136956], [72.21206804950396, 22.04684411057065], [72.2113890956257, 22.046965735823818], [72.2108217529299, 22.047333605075966], [72.21046286968568, 22.04788436138758], [72.21037470902371, 22.048523254040724], [72.2105735187725, 22.04913903625982], [72.21102482787968, 22.049625923411035], [72.21147386245254, 22.05013754152812], [72.21182037230203, 22.05072619793973], [72.21210037178619, 22.05134480724265], [72.21230795897362, 22.05198762661723], [72.21244284191182, 22.052647315586047], [72.21250269216765, 22.05331665535847], [72.2124862440148, 22.053988329032055], [72.21239576210611, 22.05465550440535], [72.21223012624247, 22.055309740031873], [72.21199165497556, 22.05594473600041], [72.21153697089785, 22.05670725141843], [72.21120585996897, 22.05743950978998], [72.21095965869908, 22.05820046858393], [72.21079959328847, 22.058980448034294], [72.21072685759826, 22.059771578545604], [72.21074503680465, 22.060565437050244], [72.21085166772718, 22.06135298125715], [72.21104535168897, 22.06212507583176], [72.21125998526149, 22.062736767694446], [72.2113862982719, 22.063378495452955], [72.21136611222916, 22.064031097261793], [72.21120025807488, 22.06466553540007], [72.21089722758344, 22.06525475405953], [72.21046896834815, 22.06577217821373], [72.20993474653692, 22.06619629399134], [72.20931854626944, 22.06650801772285], [72.20864591473415, 22.066693334827274], [72.20794689249243, 22.066744502618555], [72.20725319456545, 22.06665961062889], [72.20671071993166, 22.066320728151357], [72.20591045486248, 22.06605328465003], [72.20506179126076, 22.06600177361226], [72.20423032949839, 22.066170789920164], [72.2034788061182, 22.066546352409027], [72.20286889944764, 22.067099546406045], [72.20248946454636, 22.06767695082579], [72.2021035896228, 22.068196316665595], [72.20163614856975, 22.068653687694642], [72.20109790859422, 22.069037006623756], [72.20050224650913, 22.06933797407477], [72.19986371053044, 22.069547673727257], [72.1991977588676, 22.069662372253458], [72.19852938175349, 22.06995821688242], [72.19818995422172, 22.070550519491242], [72.19823762781385, 22.07122052790311], [72.19865905715803, 22.07176346658157], [72.19932706506452, 22.072015053024735], [72.2000365454928, 22.071898976987992], [72.20057431924269, 22.071450151079702], [72.20124947504394, 22.070856298821614], [72.2019023454396, 22.07039868434192], [72.20260289930884, 22.0700072031961], [72.2033438360434, 22.069686083336034], [72.20411557061915, 22.06943845625504], [72.20491078446148, 22.069267492484265], [72.20572095255834, 22.06917486645246], [72.20653769183154, 22.06916120435114], [72.2072187441743, 22.06935277667781], [72.20785760264813, 22.06958763844491], [72.20854147300595, 22.06964996643234], [72.2092182628427, 22.06953404912423], [72.20983460414564, 22.06924884457284], [72.21034331829443, 22.068816463751528], [72.21070483989062, 22.06827134924555], [72.21127118006656, 22.06775402082103], [72.2119675244304, 22.067666141575785], [72.21260782649692, 22.06793534859835], [72.21299652931702, 22.06848025710764], [72.2130151370198, 22.069134709311324], [72.21265982547713, 22.069699560573074], [72.2121162656785, 22.070188008608344], [72.21170899108824, 22.070783109075524], [72.21139428249813, 22.071425507079358], [72.21117781097254, 22.07210159759868], [72.21106453521185, 22.072798873043123], [72.21105668752953, 22.073504305760334], [72.211154280502, 22.074202714762148], [72.21135591185912, 22.074882243383847], [72.21165685915739, 22.07552829889039], [72.21246819865736, 22.076608239796595]]]}}]}