{"type": "FeatureCollection", "features": [{"type": "Feature", "properties": {"premiumdata.sde.IN_Village_PCA.area": 2.0867281, "objectid": 309693, "id": "8108520488772", "name": "Salaipura", "subdistrict": "Todabhim", "district": "Karauli", "state": "Rajasthan", "country": "India", "censusname": "Salaipura", "villagename_locallang": null, "lgd_villagename": "Salaipura", "lgd_villagecode": 76286, "lgd_subdistrictcode": 520, "lgd_districtcode": 108, "lgd_statecode": 8, "censuscode2001": "01190400", "censuscode2011": "076286", "censuscode2021": null, "level": "Village", "tru": "Rural", "no_hh": 126, "tot_p": 741, "tot_m": 403, "tot_f": 338, "per_tot_m": 54.38596491, "per_tot_f": 45.61403509, "p_06": 136, "m_06": 76, "f_06": 60, "per_p_06": 18.35357625, "per_m_06": 55.88235294, "per_f_06": 44.11764706, "p_sc": 0, "m_sc": 0, "f_sc": 0, "per_p_sc": 0.0, "per_m_sc": 0.0, "per_f_sc": 0.0, "p_st": 0, "m_st": 0, "f_st": 0, "per_p_st": 0.0, "per_m_st": 0.0, "per_f_st": 0.0, "p_lit": 392, "m_lit": 271, "f_lit": 121, "per_p_lit": 52.90148448, "per_m_lit": 69.13265306, "per_f_lit": 30.86734694, "p_ill": 349, "m_ill": 132, "f_ill": 217, "per_p_ill": 47.09851552, "per_m_ill": 37.82234957, "per_f_ill": 62.17765043, "tot_work_p": 371, "tot_work_m": 189, "tot_work_f": 182, "per_tot_work_p": 50.06747638, "per_tot_work_m": 50.94339623, "per_tot_work_f": 49.05660377, "mainwork_p": 91, "mainwork_m": 89, "mainwork_f": 2, "per_mainwork_p": 12.28070175, "per_mainwork_m": 97.8021978, "per_mainwork_f": 2.1978022, "main_cl_p": 77, "main_cl_m": 77, "main_cl_f": 0, "per_main_cl_p": 84.61538462, "per_main_cl_m": 100.0, "per_main_cl_f": 0.0, "main_al_p": 0, "main_al_m": 0, "main_al_f": 0, "per_main_al_p": 0.0, "per_main_al_m": 0.0, "per_main_al_f": 0.0, "main_hh_p": 1, "main_hh_m": 1, "main_hh_f": 0, "per_main_hh_p": 1.0989011, "per_main_hh_m": 100.0, "per_main_hh_f": 0.0, "main_ot_p": 13, "main_ot_m": 11, "main_ot_f": 2, "per_main_ot_p": 14.28571429, "per_main_ot_m": 84.61538462, "per_main_ot_f": 15.38461538, "margwork_p": 280, "margwork_m": 100, "margwork_f": 180, "per_margwork_p": 37.78677463, "per_margwork_m": 35.71428571, "per_margwork_f": 64.28571429, "marg_cl_p": 273, "marg_cl_m": 95, "marg_cl_f": 178, "per_marg_cl_p": 97.5, "per_marg_cl_m": 34.7985348, "per_marg_cl_f": 65.2014652, "marg_al_p": 6, "marg_al_m": 4, "marg_al_f": 2, "per_marg_al_p": 2.14285714, "per_marg_al_m": 66.66666667, "per_marg_al_f": 33.33333333, "marg_hh_p": 0, "marg_hh_m": 0, "marg_hh_f": 0, "per_marg_hh_p": 0.0, "per_marg_hh_m": 0.0, "per_marg_hh_f": 0.0, "marg_ot_p": 1, "marg_ot_m": 1, "marg_ot_f": 0, "per_marg_ot_p": 0.35714286, "per_marg_ot_m": 100.0, "per_marg_ot_f": 0.0, "margwork_3_6_p": 247, "margwork_3_6_m": 82, "margwork_3_6_f": 165, "per_margwork_3_6_p": 88.21428571, "per_margwork_3_6_m": 33.19838057, "per_margwork_3_6_f": 66.80161942999999, "marg_cl_3_6_p": 240, "marg_cl_3_6_m": 77, "marg_cl_3_6_f": 163, "per_marg_cl_3_6_p": 85.71428571, "per_marg_cl_3_6_m": 32.08333333, "per_marg_cl_3_6_f": 67.91666667, "marg_al_3_6_p": 6, "marg_al_3_6_m": 4, "marg_al_3_6_f": 2, "per_marg_al_3_6_p": 2.14285714, "per_marg_al_3_6_m": 66.66666667, "per_marg_al_3_6_f": 33.33333333, "marg_hh_3_6_p": 0, "marg_hh_3_6_m": 0, "marg_hh_3_6_f": 0, "per_marg_hh_3_6_p": 0.0, "per_marg_hh_3_6_m": 0.0, "per_marg_hh_3_6_f": 0.0, "marg_ot_3_6_p": 1, "marg_ot_3_6_m": 1, "marg_ot_3_6_f": 0, "per_marg_ot_3_6_p": 0.35714286, "per_marg_ot_3_6_m": 100.0, "per_marg_ot_3_6_f": 0.0, "margwork_0_3_p": 33, "margwork_0_3_m": 18, "margwork_0_3_f": 15, "per_margwork_0_3_p": 11.78571429, "per_margwork_0_3_m": 54.54545455, "per_margwork_0_3_f": 45.45454545, "marg_cl_0_3_p": 33, "marg_cl_0_3_m": 18, "marg_cl_0_3_f": 15, "per_marg_cl_0_3_p": 11.78571429, "per_marg_cl_0_3_m": 54.54545455, "per_marg_cl_0_3_f": 45.45454545, "marg_al_0_3_p": 0, "marg_al_0_3_m": 0, "marg_al_0_3_f": 0, "per_marg_al_0_3_p": 0.0, "per_marg_al_0_3_m": 0.0, "per_marg_al_0_3_f": 0.0, "marg_hh_0_3_p": 0, "marg_hh_0_3_m": 0, "marg_hh_0_3_f": 0, "per_marg_hh_0_3_p": 0.0, "per_marg_hh_0_3_m": 0.0, "per_marg_hh_0_3_f": 0.0, "marg_ot_0_3_p": 0, "marg_ot_0_3_m": 0, "marg_ot_0_3_f": 0, "per_marg_ot_0_3_p": 0.0, "per_marg_ot_0_3_m": 0.0, "per_marg_ot_0_3_f": 0.0, "non_work_p": 370, "non_work_m": 214, "non_work_f": 156, "per_non_work_p": 49.93252362, "per_non_work_m": 57.83783784, "per_non_work_f": 42.16216216, "per_hc_tot_tot": 100, "per_hc_tot_god": 68.3, "per_hc_tot_liv": 31.7, "per_hc_tot_dil": 0.0, "per_hc_res_tot": 88.9, "per_hc_res_god": 62.7, "per_hc_res_liv": 26.2, "per_hc_res_dil": 0.0, "per_hc_oth_tot": 11.1, "per_hc_oth_god": 5.6, "per_hc_oth_liv": 5.6, "per_hc_oth_dil": 0.0, "per_mt_grsbam": 0.8, "per_mt_plastic": 0.0, "per_mt_h_tiles": 0.0, "per_mt_m_tiles": 0.0, "per_mt_b_brick": 0.0, "per_mt_stone": 99.2, "per_mt_asbstos": 0.0, "per_mt_concrte": 0.0, "per_mt_oth": 0.0, "per_mw_grsbam": 0.0, "per_mw_plastic": 0.0, "per_mw_mud": 4.8, "per_mw_wood": 0.0, "per_mw_no_mrtr": 17.5, "per_mw_st_mrtr": 74.6, "per_mw_asbstos": 0.0, "per_mw_b_brick": 3.2, "per_mw_concrte": 0.0, "per_mw_oth": 0.0, "per_mf_mud": 93.7, "per_mf_wood": 0.0, "per_mf_b_brick": 0.0, "per_mf_stone": 0.0, "per_mf_cement": 6.3, "per_mf_fl_tile": 0.0, "per_mf_oth": 0.0, "per_dw_n_exrm": 9.5, "per_dw_1_room": 56.3, "per_dw_2_room": 28.6, "per_dw_3_room": 4.0, "per_dw_4_room": 1.6, "per_dw_5_room": 0.0, "per_dw_6_room": 0.0, "per_hhsize_1": 1.6, "per_hhsize_2": 0.8, "per_hhsize_3": 7.1, "per_hhsize_4": 18.3, "per_hhsize_5": 22.2, "per_hhsize_6_8": 37.3, "per_hhsize_9p": 12.7, "per_ow_owned": 100.0, "per_ow_rented": 0.0, "per_ow_oth": 0.0, "per_mc_none": 11.1, "per_mcouple_1": 60.3, "per_mcouple_2": 19.0, "per_mcouple_3": 7.1, "per_mcouple_4": 1.6, "per_mcouple_5p": 0.8, "per_dw_t_ts": 0.0, "per_dw_t_unts": 0.0, "per_dw_c_well": 0.0, "per_dw_unc_wel": 99.2, "per_dw_hpump": 0.0, "per_dw_tw_bore": 0.8, "per_dw_spring": 0.0, "per_dw_rivcan": 0.0, "per_dw_tank": 0.0, "per_dw_oth": 0.0, "per_loc_dw_wp": 0.0, "per_loc_dw_np": 56.3, "per_loc_dw_aw": 43.7, "per_light_elec": 43.7, "per_light_kero": 56.3, "per_light_solr": 0.0, "per_light_oil": 0.0, "per_light_oth": 0.0, "per_light_no": 0.0, "per_hh_latrine": 0.0, "per_fl_sewer": 0.0, "per_fl_septict": 0.0, "per_fl_othsys": 0.0, "per_pl_wslab": 0.0, "per_pl_without": 0.0, "per_ns_open": 0.0, "per_sl_ns_hum": 0.0, "per_sl_ns_anml": 0.0, "per_hh_no_lat": 100.0, "per_as_pub": 0.0, "per_as_open": 100.0, "per_hh_bathrm": 0.0, "per_hh_en_wrf": 0.8, "per_hh_no_btrm": 99.2, "per_wwoc_drain": 0.0, "per_wwoc_open": 0.0, "per_wwoc_nodrn": 100.0, "per_cook_fire": 3.2, "per_cook_resdu": 54.8, "per_cook_cwdng": 37.3, "per_cook_coal": 0.0, "per_cook_kero": 2.4, "per_cook_lpng": 2.4, "per_cook_elec": 0.0, "per_cook_biogs": 0.0, "per_cook_oth": 0.0, "per_cook_no": 0.0, "per_kf_inside": 42.1, "per_kf_in_has": 0.8, "per_kf_in_does": 41.3, "per_kf_outside": 57.9, "per_kf_out_has": 18.3, "per_kf_out_dos": 39.7, "per_kf_no_cook": 0.0, "per_hh_banking": 51.6, "per_hh_radio": 0.8, "per_hh_tv": 6.3, "per_hh_cmp_int": 0.0, "per_hh_cmp_wnt": 5.6, "per_hh_ph_ll": 0.0, "per_hh_ph_mob": 70.6, "per_hh_ph_bth": 0.0, "per_hh_bcycl": 10.3, "per_hh_2wheel": 11.9, "per_hh_4wheel": 0.8, "per_hh_tvcomp": 0.0, "per_hh_no_ast": 27.8, "per_hs_perma": 94.4, "per_hs_sperma": 5.6, "per_hs_temp": 0.0, "per_hs_servc": 0.0, "per_hs_nservc": 0.0, "per_hs_unclss": 0.0, "avghhsz_cy": 5.88095238, "st_areashape": 2631570.704436085, "st_lengthshape": 10811.898017645683}, "geometry": {"type": "Polygon", "coordinates": [[[76.91676980719154, 26.859584346902594], [76.91340423304695, 26.85959990371409], [76.91162163506176, 26.856684344210784], [76.91281003341913, 26.852708460395665], [76.91239873168145, 26.85050673011503], [76.91221583379128, 26.849527652446554], [76.91221583379128, 26.845551517202388], [76.91488973121822, 26.841045060634038], [76.91786072756078, 26.833622271946414], [76.91845492718862, 26.8256687439184], [76.9187767405543, 26.82093015531624], [76.92330304314883, 26.820760907869232], [76.92229345444878, 26.829687997126072], [76.92062969638918, 26.837323123679365], [76.91944129803181, 26.84304913059829], [76.91676980719154, 26.859584346902594]]]}}]}